Site,Date(UTC),Air Temp,Wind Speed,Min Temp,Max Temp,1Hr Precip,6Hr Precip,Rel Humidity,Wind Gust,Wind Direction,Weather,Pressure,Total Cloud,Visibility,Solar Rad,Sunshine,Snow Depth,Dew Point,OLE Temp
South Uist Range,02/09/2019 04:00,11.8,16,,,0.2,,92,,220,Moderate shower,1012,8,6,,,,10.7,
South Uist Range,02/09/2019 05:00,11.3,15,,,0.8,,98,,180,Light drizzle,1012,2,4,,,,11,
South Uist Range,02/09/2019 06:00,11.6,20,9.6,,1,2,98,,180,Light shower,1010,7,3,,,,11.4,
South Uist Range,02/09/2019 07:00,13.4,24,,,2.8,,97,32,220,Rain,1009,7,5,,,,13,
South Uist Range,02/09/2019 08:00,13.6,26,,,0.8,,97,38,230,Light shower,1009,8,3,,,,13.2,
South Uist Range,02/09/2019 09:00,13.4,23,,,1,,98,38,240,Rain,1008,1,1,,,,13.2,
South Uist Range,02/09/2019 10:00,13.9,24,,,0.2,,98,31,240,Drizzly rain,1008,6,2,,,,13.7,
South Uist Range,02/09/2019 11:00,14.1,25,,,0.8,,98,33,240,Rain,1008,7,2,,,,13.9,
South Uist Range,02/09/2019 12:00,14.4,23,,,0.2,6,98,31,240,Light shower,1007,7,8,,,,14.2,
South Uist Range,02/09/2019 13:00,14.4,23,,,0.2,,98,31,250,Rain,1007,4,1,,,,14.2,
South Uist Range,02/09/2019 14:00,14.6,23,,,0.6,,98,33,250,Rain,1007,5,22,,,,14.3,
South Uist Range,02/09/2019 15:00,14.7,22,,,0,,96,30,250,Rain,1008,4,23,,,,14.2,
South Uist Range,02/09/2019 16:00,14.4,21,,,0,,98,31,260,Misty,1008,7,4,,,,14.2,
South Uist Range,02/09/2019 17:00,14.5,21,,,0,,96,29,270,Dry,1008,5,23,,,,14,
South Uist Range,02/09/2019 18:00,14.3,21,,14.8,0,1,95,29,270,Dry,1009,7,14,,,,13.6,
South Uist Range,02/09/2019 19:00,13.7,21,,,0.2,,98,,260,Drizzly rain,1010,7,1,,,,13.4,
South Uist Range,02/09/2019 20:00,13.5,21,,,0,,98,31,270,Rain,1010,1,4,,,,13.2,
South Uist Range,02/09/2019 21:00,13.6,18,,,0.2,,93,,270,Rain,1011,7,26,,,,12.5,
South Uist Range,02/09/2019 22:00,13.5,14,,,0,,94,,260,Misty,1012,7,13,,,,12.7,
South Uist Range,02/09/2019 23:00,13.1,8,,,0,,93,,320,Dry,1012,5,75,,,,12.1,
South Uist Range,03/09/2019 00:00,12.6,7,,,0,0.4,92,,350,Dry,1013,8,75,,,,11.4,
South Uist Range,03/09/2019 01:00,12.1,3,,,0,,92,,330,Dry,1013,8,75,,,,10.9,
South Uist Range,03/09/2019 02:00,11.9,1,,,0,,92,,320,Dry,1013,8,75,,,,10.7,
South Uist Range,03/09/2019 03:00,12.1,3,,,0,,89,,60,Dry,1013,7,75,,,,10.5,
South Uist Range,03/09/2019 04:00,11.3,5,,,0,,96,,150,Dry,1013,3,75,,,,10.8,
South Uist Range,03/09/2019 05:00,11.7,5,,,0,,97,,160,Dry,1013,2,75,,,,11.3,
South Uist Range,03/09/2019 06:00,12.2,6,10.7,,0,0,96,,160,Dry,1012,1,75,,,,11.7,
South Uist Range,03/09/2019 07:00,13,8,,,0,,96,,160,Rain,1013,4,40,,,,12.5,
South Uist Range,03/09/2019 08:00,13.6,7,,,0,,95,,170,Dry,1012,1,75,,,,12.9,
South Uist Range,03/09/2019 09:00,14.6,10,,,0,,96,,170,Dry,1012,8,75,,,,14,
South Uist Range,03/09/2019 10:00,14.5,12,,,0,,98,,170,Misty,1011,7,2,,,,14.2,
South Uist Range,03/09/2019 11:00,14.4,16,,,0.6,,99,,200,Light drizzle,1011,4,4,,,,14.3,
South Uist Range,03/09/2019 12:00,14.5,16,,,0,0.6,98,,200,Drizzle,1010,7,30,,,,14.3,
South Uist Range,03/09/2019 13:00,14.5,17,,,0,,99,,200,Dry,1010,5,40,,,,14.4,
South Uist Range,03/09/2019 14:00,14.3,20,,,0.6,,99,,210,Drizzly rain,1009,7,5,,,,14.2,
South Uist Range,03/09/2019 15:00,14.4,21,,,0,,98,,210,Rain,1009,8,7,,,,14.2,
South Uist Range,03/09/2019 16:00,14.6,25,,,0.2,,98,33,230,Rain,1008,7,8,,,,14.3,
South Uist Range,03/09/2019 17:00,14.5,25,,,0,,93,37,240,Haze,1008,3,19,,,,13.5,
South Uist Range,03/09/2019 18:00,14.3,26,,15.1,0,0.4,81,33,250,Dry,1008,5,17,,,,11.2,
South Uist Range,03/09/2019 19:00,13.6,24,,,0,,78,37,240,Dry,1008,1,19,,,,9.9,
South Uist Range,03/09/2019 20:00,13.1,24,,,2,,84,33,240,Rain,1008,2,13,,,,10.5,
South Uist Range,03/09/2019 21:00,13,26,,,0,,78,35,240,Dry,1008,1,19,,,,9.3,
South Uist Range,03/09/2019 22:00,13,26,,,0,,72,36,240,Dry,1007,1,25,,,,8.1,
South Uist Range,03/09/2019 23:00,12.7,28,,,0,,75,36,240,Dry,1007,2,21,,,,8.4,
South Uist Range,04/09/2019 00:00,12.6,29,,,0,2,74,38,230,Rain,1006,2,25,,,,8.1,
South Uist Range,04/09/2019 01:00,12.4,26,,,0,,72,39,240,Dry,1005,2,25,,,,7.7,
South Uist Range,04/09/2019 02:00,12.4,28,,,0,,76,38,230,Dry,1004,3,24,,,,8.4,
South Uist Range,04/09/2019 03:00,12.5,29,,,0,,78,44,220,Dry,1003,1,18,,,,8.9,
South Uist Range,04/09/2019 04:00,12.1,31,,,0,,77,41,220,Light shower,1001,2,13,,,,8.3,
South Uist Range,04/09/2019 05:00,10.9,32,,,1.6,,92,46,210,Moderate rain,999,2,2,,,,9.7,
South Uist Range,04/09/2019 06:00,12,32,10.9,,0.6,2,96,47,210,Rain,997,4,7,,,,11.4,
South Uist Range,04/09/2019 07:00,13.3,17,,,0.6,,88,38,260,Rain,996,1,25,,,,11.5,
South Uist Range,04/09/2019 08:00,13.3,13,,,0,,87,,350,Dry,997,4,27,,,,11.2,
South Uist Range,04/09/2019 09:00,11.4,32,,,0,,89,44,360,Rain,1001,1,40,,,,9.7,
South Uist Range,04/09/2019 10:00,13.1,30,,,0,,81,43,10,Dry,1004,1,70,,,,10,
South Uist Range,04/09/2019 11:00,11.8,30,,,0.2,,91,43,10,Light shower,1007,2,12,,,,10.5,
South Uist Range,04/09/2019 12:00,11.8,36,,,0,0.8,78,49,360,Rain,1010,3,30,,,,8.2,
South Uist Range,04/09/2019 13:00,10.6,31,,,0,,87,47,350,Rain,1012,1,7,,,,8.6,
South Uist Range,04/09/2019 14:00,9.9,30,,,0,,89,44,360,Drizzly rain,1015,2,4,,,,8.3,
South Uist Range,04/09/2019 15:00,10.2,31,,,0.2,,80,45,350,Light shower,1016,2,10,,,,7,
South Uist Range,04/09/2019 16:00,11.6,25,,,0,,70,46,340,Rain,1018,1,24,,,,6.4,
South Uist Range,04/09/2019 17:00,11.3,29,,,0,,63,41,340,Dry,1019,7,26,,,,4.7,
South Uist Range,04/09/2019 18:00,11.3,25,,14.2,0,0.2,67,40,350,Dry,1020,1,30,,,,5.6,
South Uist Range,04/09/2019 19:00,11,22,,,0,,63,38,330,Light shower,1021,2,35,,,,4.3,
South Uist Range,04/09/2019 20:00,11,16,,,0,,69,31,330,Rain,1022,1,55,,,,5.6,
South Uist Range,04/09/2019 21:00,11.5,18,,,0,,67,30,330,Dry,1022,1,60,,,,5.7,
South Uist Range,04/09/2019 22:00,10.5,14,,,0,,76,32,320,Rain,1022,2,55,,,,6.5,
South Uist Range,04/09/2019 23:00,11.7,18,,,0,,68,,310,Dry,1022,1,55,,,,6.2,
South Uist Range,05/09/2019 00:00,10.8,14,,,0,0,76,,320,Rain,1022,5,75,,,,6.9,
South Uist Range,05/09/2019 01:00,12.2,20,,,0,,71,,300,Dry,1022,2,30,,,,7.2,
South Uist Range,05/09/2019 02:00,12.2,17,,,0,,73,29,300,Dry,1022,1,35,,,,7.6,
South Uist Range,05/09/2019 03:00,12.3,18,,,0,,78,,290,Light shower,1022,1,30,,,,8.6,
South Uist Range,05/09/2019 04:00,10.5,14,,,0,,94,,290,Rain,1021,1,28,,,,9.6,
South Uist Range,05/09/2019 05:00,12.4,21,,,0.4,,91,30,280,Light drizzle,1021,1,7,,,,11.1,
South Uist Range,05/09/2019 06:00,12.8,23,10.1,,0.8,1,89,35,290,Rain,1021,1,17,,,,11.1,
South Uist Range,05/09/2019 07:00,13.3,26,,,0,,85,35,290,Dry,1021,3,20,,,,10.9,
South Uist Range,05/09/2019 08:00,13.4,25,,,0,,85,36,280,Dry,1021,6,16,,,,11,
South Uist Range,05/09/2019 09:00,13.6,24,,,0,,81,35,280,Dry,1021,1,16,,,,10.5,
South Uist Range,05/09/2019 10:00,13.7,20,,,0,,80,31,270,Dry,1021,2,14,,,,10.5,
South Uist Range,05/09/2019 11:00,14.4,21,,,0,,78,29,270,Dry,1021,1,14,,,,10.8,
South Uist Range,05/09/2019 12:00,14.2,20,,,0,0,76,,260,Dry,1020,1,14,,,,10.2,
South Uist Range,05/09/2019 13:00,13.9,22,,,0,,83,,260,Dry,1020,5,15,,,,11.2,
South Uist Range,05/09/2019 14:00,13.9,21,,,0,,86,,250,Dry,1020,2,14,,,,11.7,
South Uist Range,05/09/2019 15:00,14.1,22,,,0,,85,29,240,Dry,1019,,15,,,,11.7,
South Uist Range,05/09/2019 16:00,13.6,24,,,0,,87,31,230,Dry,1018,,16,,,,11.5,
South Uist Range,05/09/2019 17:00,11.9,32,,,0.2,,87,43,250,Rain,1017,6,13,,,,9.9,
South Uist Range,05/09/2019 18:00,12.1,31,,14.9,0.2,0.4,75,40,220,Rain,1015,7,35,,,,7.9,
South Uist Range,05/09/2019 19:00,13,32,,,0,,89,43,220,Rain,1013,1,9,,,,11.3,
South Uist Range,05/09/2019 20:00,12.8,33,,,0.2,,95,46,230,Misty,1012,3,5,,,,12.1,
South Uist Range,05/09/2019 21:00,13,33,,,0.4,,97,45,230,Rain,1011,6,3,,,,12.6,
South Uist Range,05/09/2019 22:00,13.3,30,,,0.4,,98,45,240,Rain,1010,7,3,,,,13.1,
South Uist Range,05/09/2019 23:00,13.6,28,,,1,,95,41,250,Rain,1009,6,17,,,,12.9,
South Uist Range,06/09/2019 00:00,13.1,25,,,0.2,2,87,40,270,Rain,1009,1,21,,,,11,
South Uist Range,06/09/2019 01:00,12.5,25,,,0,,75,36,280,Dry,1009,2,22,,,,8.3,
South Uist Range,06/09/2019 02:00,12.6,28,,,0,,70,40,280,Dry,1009,6,22,,,,7.3,
South Uist Range,06/09/2019 03:00,12.7,24,,,0,,72,37,280,Dry,1010,1,30,,,,7.9,
South Uist Range,06/09/2019 04:00,11.3,29,,,0,,86,38,270,Haze,1009,1,15,,,,9.2,
South Uist Range,06/09/2019 05:00,12.2,25,,,0,,85,35,260,Dry,1009,3,19,,,,9.9,
South Uist Range,06/09/2019 06:00,12.2,28,11.2,,0.4,1,88,38,280,Rain,1009,1,19,,,,10.3,
South Uist Range,06/09/2019 07:00,12.1,25,,,1,,91,36,280,Light shower,1010,1,19,,,,10.7,
South Uist Range,06/09/2019 08:00,12.6,23,,,0,,86,33,280,Rain,1010,2,12,,,,10.4,
South Uist Range,06/09/2019 09:00,13.2,22,,,1.6,,93,31,280,Rain,1011,4,18,,,,12.2,
South Uist Range,06/09/2019 10:00,13.6,23,,,0.4,,90,33,290,Rain,1011,3,35,,,,12.1,
South Uist Range,06/09/2019 11:00,13.9,20,,,0,,84,29,300,Dry,1012,5,29,,,,11.3,
South Uist Range,06/09/2019 12:00,13.7,20,,,0,3,84,31,300,Rain,1013,1,24,,,,11.1,
South Uist Range,06/09/2019 13:00,14.9,21,,,0,,81,,300,Dry,1014,2,27,,,,11.8,
South Uist Range,06/09/2019 14:00,13,20,,,0,,88,30,300,Rain,1015,2,35,,,,11.2,
South Uist Range,06/09/2019 15:00,13.1,15,,,0.2,,77,,320,Dry,1016,6,55,,,,9.3,
South Uist Range,06/09/2019 16:00,14,16,,,0,,73,,320,Dry,1017,3,40,,,,9.4,
South Uist Range,06/09/2019 17:00,13.6,14,,,0,,77,,320,Dry,1018,6,45,,,,9.7,
South Uist Range,06/09/2019 18:00,13.2,12,,15,0,0,76,,330,Dry,1018,3,55,,,,9.2,
South Uist Range,06/09/2019 19:00,12.2,12,,,0,,78,,330,Dry,1019,1,45,,,,8.6,
South Uist Range,06/09/2019 20:00,11.6,9,,,0,,82,,350,Dry,1020,5,40,,,,8.7,
South Uist Range,06/09/2019 21:00,11.6,9,,,0,,81,,340,Dry,1021,6,55,,,,8.6,
South Uist Range,06/09/2019 22:00,10.6,8,,,0,,82,,340,Dry,1021,1,50,,,,7.8,
South Uist Range,06/09/2019 23:00,9.9,7,,,0,,90,,360,Dry,1022,2,35,,,,8.5,
South Uist Range,07/09/2019 00:00,10.5,5,,,0,0,92,,10,Dry,1023,1,35,,,,9.4,
South Uist Range,07/09/2019 01:00,10.8,2,,,0,,90,,20,Dry,1023,5,40,,,,9.3,
South Uist Range,07/09/2019 02:00,11.2,3,,,0,,84,,60,Dry,1024,1,50,,,,8.6,
South Uist Range,07/09/2019 03:00,10.4,8,,,0,,90,,30,Rain,1024,5,22,,,,8.9,
South Uist Range,07/09/2019 04:00,10.4,3,,,0,,91,,70,Dry,1024,7,55,,,,9.1,
South Uist Range,07/09/2019 05:00,8.7,1,,,0,,94,,150,Dry,1025,6,45,,,,7.9,
South Uist Range,07/09/2019 06:00,9.1,0,7.8,,0,0,97,,0,Dry,1025,,60,,,,8.8,
South Uist Range,07/09/2019 07:00,9.2,2,,,0,,97,,60,Dry,1026,,60,,,,8.9,
South Uist Range,07/09/2019 08:00,12.2,1,,,0,,85,,80,Dry,1026,,50,,,,9.8,
South Uist Range,07/09/2019 09:00,13.8,2,,,0,,69,,100,Dry,1026,,75,,,,8.3,
South Uist Range,07/09/2019 10:00,13.2,5,,,0,,68,,360,Dry,1027,4,70,,,,7.6,
South Uist Range,07/09/2019 11:00,13.3,8,,,0,,68,,270,Dry,1027,5,75,,,,7.6,
South Uist Range,07/09/2019 12:00,13.6,7,,,0,0,68,,270,Dry,1027,,70,,,,7.9,
South Uist Range,07/09/2019 13:00,13.8,8,,,0,,73,,260,Dry,1027,1,70,,,,9.1,
South Uist Range,07/09/2019 14:00,14.4,5,,,0,,56,,290,Dry,1027,,75,,,,5.9,
South Uist Range,07/09/2019 15:00,14.5,7,,,0,,62,,240,Dry,1027,,75,,,,7.4,
South Uist Range,07/09/2019 16:00,13.9,7,,,0,,66,,240,Dry,1027,7,75,,,,7.8,
South Uist Range,07/09/2019 17:00,13.6,8,,,0,,66,,240,Dry,1027,8,75,,,,7.5,
South Uist Range,07/09/2019 18:00,13.2,10,,14.8,0,0,73,,210,Dry,1027,8,65,,,,8.5,
South Uist Range,07/09/2019 19:00,12.9,13,,,0,,81,,230,Dry,1027,7,75,,,,9.9,
South Uist Range,07/09/2019 20:00,11.7,8,,,0,,86,,220,Dry,1027,5,75,,,,9.6,
South Uist Range,07/09/2019 21:00,11.5,10,,,0,,85,,220,Dry,1026,1,75,,,,9.2,
South Uist Range,07/09/2019 22:00,12,12,,,0,,81,,210,Dry,1026,1,75,,,,8.9,
South Uist Range,07/09/2019 23:00,12.1,10,,,0,,82,,180,Dry,1025,6,75,,,,9.2,
South Uist Range,08/09/2019 00:00,12.4,13,,,0,0,80,,200,Dry,1025,4,75,,,,9.1,
South Uist Range,08/09/2019 01:00,13,17,,,0,,80,,210,Dry,1024,4,75,,,,9.8,
South Uist Range,08/09/2019 02:00,12.3,18,,,0,,91,,210,Dry,1024,4,45,,,,10.9,
South Uist Range,08/09/2019 03:00,12.1,20,,,0,,96,,200,Dry,1023,6,27,,,,11.6,
South Uist Range,08/09/2019 04:00,12.1,15,,,0,,94,,190,Dry,1022,7,70,,,,11.2,
South Uist Range,08/09/2019 05:00,12.3,16,,,0,,94,,190,Haze,1022,8,6,,,,11.4,
South Uist Range,08/09/2019 06:00,12.3,16,11.2,,0,0,97,,180,Dry,1021,8,16,,,,11.9,
South Uist Range,08/09/2019 07:00,12.7,16,,,0,,98,,180,Misty,1021,7,8,,,,12.5,
South Uist Range,08/09/2019 08:00,13.3,16,,,0.2,,99,,180,Rain,1020,7,5,,,,13.2,
South Uist Range,08/09/2019 09:00,13.9,18,,,0.2,,99,,190,Drizzly rain,1020,8,5,,,,13.8,
South Uist Range,08/09/2019 10:00,14.1,18,,,0.4,,100,,210,Rain,1019,5,28,,,,14.1,
South Uist Range,08/09/2019 11:00,14.4,20,,,0,,91,,200,Dry,1019,7,35,,,,13,
South Uist Range,08/09/2019 12:00,13.7,20,,,0,0.8,98,,210,Misty,1018,7,2,,,,13.4,
South Uist Range,08/09/2019 13:00,14.9,20,,,0.2,,93,32,200,Dry,1018,2,40,,,,13.8,
South Uist Range,08/09/2019 14:00,13.5,24,,,0,,96,31,210,Misty,1017,6,21,,,,12.9,
South Uist Range,08/09/2019 15:00,14.5,21,,,0,,91,,200,Dry,1016,5,30,,,,13.1,
South Uist Range,08/09/2019 16:00,14.4,25,,,0,,90,36,200,Dry,1015,1,35,,,,12.9,
South Uist Range,08/09/2019 17:00,14.3,24,,,0,,92,32,200,Dry,1014,7,30,,,,13.1,
South Uist Range,08/09/2019 18:00,13.8,22,,15,0,0.2,92,32,200,Dry,1013,4,35,,,,12.6,
South Uist Range,08/09/2019 19:00,13.6,18,,,0,,91,,190,Dry,1013,,50,,,,12.3,
South Uist Range,08/09/2019 20:00,13.4,15,,,0,,92,,190,Dry,1012,7,45,,,,12.2,
South Uist Range,08/09/2019 21:00,13.4,16,,,0,,92,,180,Dry,1012,3,35,,,,12.2,
South Uist Range,08/09/2019 22:00,13.6,14,,,0,,92,,180,Dry,1011,7,30,,,,12.4,
South Uist Range,08/09/2019 23:00,13.3,12,,,0.4,,96,,170,Light drizzle,1010,7,14,,,,12.7,
South Uist Range,09/09/2019 00:00,13.3,13,,,0.4,0.8,96,,170,Light rain,1010,6,15,,,,12.8,
South Uist Range,09/09/2019 01:00,13.2,13,,,1.4,,98,,180,Light rain,1009,7,22,,,,13,
South Uist Range,09/09/2019 02:00,13.3,12,,,0.6,,98,,180,Light drizzle,1008,1,4,,,,13.1,
South Uist Range,09/09/2019 03:00,11.5,20,,,0.8,,97,29,320,Light rain,1008,1,4,,,,11.1,
South Uist Range,09/09/2019 04:00,11.1,17,,,0.4,,94,30,320,Rain,1008,1,19,,,,10.2,
South Uist Range,09/09/2019 05:00,11.4,13,,,0,,89,,330,Rain,1008,1,50,,,,9.7,
South Uist Range,09/09/2019 06:00,11.6,9,11,,0,3.2,91,,340,Dry,1009,1,50,,,,10.2,
South Uist Range,09/09/2019 07:00,11.8,10,,,0,,89,,330,Dry,1009,1,45,,,,10.2,
South Uist Range,09/09/2019 08:00,12.5,10,,,0,,87,,330,Dry,1009,3,45,,,,10.5,
South Uist Range,09/09/2019 09:00,12.9,18,,,0,,79,,320,Dry,1010,8,65,,,,9.5,
South Uist Range,09/09/2019 10:00,13.1,16,,,0,,82,,320,Dry,1010,3,45,,,,10.2,
South Uist Range,09/09/2019 11:00,13.7,15,,,0,,79,,330,Dry,1011,1,45,,,,10.2,
South Uist Range,09/09/2019 12:00,13.6,15,,,0,0,77,,340,Dry,1011,,55,,,,9.7,
South Uist Range,09/09/2019 13:00,14.3,16,,,0,,76,,330,Dry,1012,1,55,,,,10.3,
South Uist Range,09/09/2019 14:00,14,15,,,0,,76,,330,Dry,1012,2,50,,,,10,
South Uist Range,09/09/2019 15:00,14,15,,,0,,75,,330,Dry,1013,1,45,,,,9.8,
South Uist Range,09/09/2019 16:00,13.3,14,,,0,,76,,330,Dry,1013,5,60,,,,9.3,
South Uist Range,09/09/2019 17:00,13.7,14,,,0,,73,,330,Dry,1014,4,65,,,,9.1,
South Uist Range,09/09/2019 18:00,13,13,,14.8,0,0,73,,320,Dry,1015,2,40,,,,8.4,
South Uist Range,09/09/2019 19:00,11.6,9,,,0,,76,,320,Dry,1016,,35,,,,7.7,
South Uist Range,09/09/2019 20:00,11.5,9,,,0,,80,,330,Rain,1016,2,35,,,,8.2,
South Uist Range,09/09/2019 21:00,11.1,8,,,0,,83,,330,Dry,1016,2,35,,,,8.5,
South Uist Range,09/09/2019 22:00,11.1,9,,,0,,80,,320,Dry,1016,,40,,,,7.8,
South Uist Range,09/09/2019 23:00,10.9,8,,,0,,81,,310,Dry,1017,2,30,,,,7.8,
South Uist Range,10/09/2019 00:00,10.8,8,,,0,0,82,,300,Dry,1017,3,21,,,,7.9,
South Uist Range,10/09/2019 01:00,11.2,9,,,0,,82,,280,Dry,1017,4,18,,,,8.4,
South Uist Range,10/09/2019 02:00,12,9,,,0,,84,,270,Dry,1017,2,17,,,,9.4,
South Uist Range,10/09/2019 03:00,10.9,7,,,0,,80,,270,Dry,1016,3,18,,,,7.6,
South Uist Range,10/09/2019 04:00,9.5,7,,,0,,83,,230,Dry,1016,,20,,,,6.8,
South Uist Range,10/09/2019 05:00,8.7,9,,,0,,92,,180,Dry,1016,4,24,,,,7.5,
South Uist Range,10/09/2019 06:00,9,9,7.7,,0,0,92,,170,Dry,1016,6,27,,,,7.8,
South Uist Range,10/09/2019 07:00,10.9,10,,,0,,88,,170,Dry,1016,1,30,,,,9.1,
South Uist Range,10/09/2019 08:00,12.6,16,,,0,,77,,210,Dry,1016,1,45,,,,8.7,
South Uist Range,10/09/2019 09:00,12.8,17,,,0,,78,,190,Dry,1014,1,45,,,,9.1,
South Uist Range,10/09/2019 10:00,13.1,22,,,0,,76,31,190,Dry,1013,2,50,,,,9.1,
South Uist Range,10/09/2019 11:00,13.3,24,,,0,,77,33,190,Dry,1013,1,55,,,,9.4,
South Uist Range,10/09/2019 12:00,13.3,24,,,0,0,80,36,190,Rain,1012,4,35,,,,10,
South Uist Range,10/09/2019 13:00,12.1,33,,,0,,93,44,190,Moderate shower,1010,3,4,,,,11.1,
South Uist Range,10/09/2019 14:00,11.4,31,,,0.8,,96,45,180,Light shower,1008,1,6,,,,10.9,
South Uist Range,10/09/2019 15:00,12.1,36,,,0.4,,96,51,180,Light rain,1006,6,9,,,,11.6,
South Uist Range,10/09/2019 16:00,12.1,37,,,3.2,,98,51,180,Moderate rain,1004,4,5,,,,11.9,
South Uist Range,10/09/2019 17:00,12.6,37,,,3.2,,98,53,180,Moderate rain,1003,6,2,,,,12.4,
South Uist Range,10/09/2019 18:00,13.4,33,,13.6,5.2,13,99,46,180,Moderate rain,1002,6,6,,,,13.3,
South Uist Range,10/09/2019 19:00,14.3,32,,,3.2,,99,45,190,Hail shower,1001,7,3,,,,14.2,
South Uist Range,10/09/2019 20:00,14.5,29,,,1.6,,100,39,210,Misty,1000,8,3,,,,14.5,
South Uist Range,10/09/2019 21:00,14.6,31,,,0.2,,100,40,220,Rain,1000,8,2,,,,14.6,
South Uist Range,10/09/2019 22:00,14.5,29,,,0.2,,99,39,220,Rain,999,8,3,,,,14.4,
South Uist Range,10/09/2019 23:00,14.1,29,,,0.4,,98,40,230,Rain,999,4,19,,,,13.8,
South Uist Range,11/09/2019 00:00,14.1,28,,,0.2,6,94,41,240,Dry,1000,2,16,,,,13.3,
South Uist Range,11/09/2019 01:00,13.8,24,,,0,,94,40,240,Rain,1000,1,15,,,,12.9,
South Uist Range,11/09/2019 02:00,13.8,26,,,0,,91,38,230,Dry,1000,2,11,,,,12.4,
South Uist Range,11/09/2019 03:00,13.8,25,,,0,,88,41,240,Dry,1000,1,11,,,,12,
South Uist Range,11/09/2019 04:00,13.1,31,,,0.2,,87,41,250,Rain,1000,1,16,,,,11,
South Uist Range,11/09/2019 05:00,13.1,30,,,0,,83,43,250,Dry,1001,,16,,,,10.4,
South Uist Range,11/09/2019 06:00,13.2,29,12.7,,0,0,85,39,250,Dry,1002,1,12,,,,10.8,
South Uist Range,11/09/2019 07:00,13.3,30,,,0.2,,83,39,250,Rain,1003,7,14,,,,10.6,
South Uist Range,11/09/2019 08:00,13.1,30,,,0.2,,81,47,250,Rain,1003,7,25,,,,10.1,
South Uist Range,11/09/2019 09:00,13.7,28,,,0,,84,38,240,Dry,1004,2,15,,,,11.2,
South Uist Range,11/09/2019 10:00,13.7,31,,,0.2,,84,41,250,Rain,1005,1,21,,,,11.1,
South Uist Range,11/09/2019 11:00,13.9,31,,,0,,79,41,260,Dry,1006,6,23,,,,10.4,
South Uist Range,11/09/2019 12:00,14.1,28,,,0,0.6,84,39,250,Dry,1007,1,14,,,,11.5,
South Uist Range,11/09/2019 13:00,14.7,29,,,0,,82,39,250,Dry,1008,4,16,,,,11.7,
South Uist Range,11/09/2019 14:00,14.8,25,,,0,,82,41,250,Dry,1009,3,17,,,,11.9,
South Uist Range,11/09/2019 15:00,14.7,24,,,0,,81,36,250,Dry,1010,1,18,,,,11.6,
South Uist Range,11/09/2019 16:00,14.1,25,,,0,,84,35,250,Dry,1010,1,22,,,,11.5,
South Uist Range,11/09/2019 17:00,13.6,22,,,0,,85,33,250,Dry,1011,5,19,,,,11.2,
South Uist Range,11/09/2019 18:00,13.3,23,,15,0,0,85,31,250,Dry,1012,2,24,,,,10.9,
South Uist Range,11/09/2019 19:00,12.8,22,,,0,,88,30,250,Dry,1012,3,24,,,,11,
South Uist Range,11/09/2019 20:00,13,23,,,0,,87,30,250,Dry,1013,6,19,,,,11,
South Uist Range,11/09/2019 21:00,12.8,18,,,0,,90,36,250,Dry,1013,1,22,,,,11.3,
South Uist Range,11/09/2019 22:00,12.6,24,,,0,,89,30,240,Dry,1013,4,28,,,,11,
South Uist Range,11/09/2019 23:00,12.4,22,,,0.2,,91,30,240,Drizzle,1013,3,30,,,,11.1,
South Uist Range,12/09/2019 00:00,12.7,20,,,0,0.2,90,29,240,Dry,1014,1,25,,,,11.2,
South Uist Range,12/09/2019 01:00,12.3,22,,,0,,87,30,240,Dry,1014,1,40,,,,10.3,
South Uist Range,12/09/2019 02:00,12.1,20,,,0,,82,32,240,Dry,1014,2,45,,,,9.3,
South Uist Range,12/09/2019 03:00,11.5,21,,,0,,93,36,250,Haze,1014,3,23,,,,10.5,
South Uist Range,12/09/2019 04:00,12.6,18,,,0,,88,,230,Dry,1014,6,28,,,,10.8,
South Uist Range,12/09/2019 05:00,12.6,21,,,0,,85,29,230,Dry,1014,7,29,,,,10.3,
South Uist Range,12/09/2019 06:00,12.6,22,11.5,,0,0,83,29,240,Dry,1014,4,35,,,,9.8,
South Uist Range,12/09/2019 07:00,12.8,22,,,0,,80,,240,Dry,1014,2,40,,,,9.5,
South Uist Range,12/09/2019 08:00,12.8,21,,,0.8,,85,30,240,Rain,1015,1,30,,,,10.5,
South Uist Range,12/09/2019 09:00,12.9,18,,,0.2,,79,,260,Rain,1016,1,30,,,,9.4,
South Uist Range,12/09/2019 10:00,13.5,20,,,0,,79,,260,Dry,1017,5,35,,,,10,
South Uist Range,12/09/2019 11:00,12.4,21,,,0,,79,32,280,Dry,1018,3,40,,,,8.9,
South Uist Range,12/09/2019 12:00,14.2,20,,,0,1,74,30,270,Dry,1018,1,30,,,,9.8,
South Uist Range,12/09/2019 13:00,14.6,21,,,0,,76,,270,Dry,1019,4,30,,,,10.6,
South Uist Range,12/09/2019 14:00,14.4,21,,,0,,69,29,280,Dry,1020,1,30,,,,8.8,
South Uist Range,12/09/2019 15:00,14.3,21,,,0,,71,29,280,Dry,1021,2,35,,,,9.2,
South Uist Range,12/09/2019 16:00,13.9,22,,,0,,69,,270,Dry,1022,2,35,,,,8.4,
South Uist Range,12/09/2019 17:00,13.3,21,,,0,,72,29,270,Dry,1022,2,30,,,,8.5,
South Uist Range,12/09/2019 18:00,12.9,22,,14.8,0,0,75,30,260,Dry,1023,3,28,,,,8.7,
South Uist Range,12/09/2019 19:00,13,23,,,0,,77,31,260,Dry,1023,3,25,,,,9.2,
South Uist Range,12/09/2019 20:00,12.8,25,,,0,,79,33,260,Dry,1024,3,25,,,,9.3,
South Uist Range,12/09/2019 21:00,12.7,24,,,0,,74,33,260,Dry,1025,2,30,,,,8.3,
South Uist Range,12/09/2019 22:00,12.4,22,,,0,,77,36,260,Dry,1025,2,30,,,,8.5,
South Uist Range,12/09/2019 23:00,12.5,25,,,0,,74,33,270,Dry,1026,1,30,,,,8,
South Uist Range,13/09/2019 00:00,12.2,24,,,0,0,76,32,270,Dry,1026,3,30,,,,8.2,
South Uist Range,13/09/2019 01:00,12.6,21,,,0,,75,33,260,Dry,1027,4,27,,,,8.3,
South Uist Range,13/09/2019 02:00,12.5,23,,,0,,72,32,260,Dry,1027,2,28,,,,7.7,
South Uist Range,13/09/2019 03:00,12.6,21,,,0,,77,32,260,Dry,1028,2,23,,,,8.7,
South Uist Range,13/09/2019 04:00,12.6,25,,,0,,74,33,270,Dry,1028,4,22,,,,8.1,
South Uist Range,13/09/2019 05:00,12.6,24,,,0,,75,32,260,Dry,1029,4,23,,,,8.3,
South Uist Range,13/09/2019 06:00,12.5,24,11.9,,0,0,76,32,250,Dry,1029,4,20,,,,8.5,
South Uist Range,13/09/2019 07:00,12.7,24,,,0,,77,32,250,Dry,1030,2,18,,,,8.9,
South Uist Range,13/09/2019 08:00,13.1,23,,,0,,78,33,250,Dry,1030,4,20,,,,9.4,
South Uist Range,13/09/2019 09:00,13.6,26,,,0,,75,33,250,Rain,1031,5,21,,,,9.4,
South Uist Range,13/09/2019 10:00,13.7,25,,,0,,73,32,250,Dry,1031,1,22,,,,9,
South Uist Range,13/09/2019 11:00,14.3,24,,,0,,72,32,250,Dry,1031,3,23,,,,9.4,
South Uist Range,13/09/2019 12:00,14.6,24,,,0,0,77,32,240,Dry,1032,4,21,,,,10.8,
South Uist Range,13/09/2019 13:00,14.5,24,,,0,,76,35,240,Dry,1032,4,23,,,,10.4,
South Uist Range,13/09/2019 14:00,14.2,24,,,0,,79,31,240,Dry,1032,6,20,,,,10.7,
South Uist Range,13/09/2019 15:00,14.7,24,,,0,,81,31,230,Dry,1032,3,20,,,,11.6,
South Uist Range,13/09/2019 16:00,14.1,23,,,0,,84,32,230,Dry,1032,3,18,,,,11.6,
South Uist Range,13/09/2019 17:00,13.8,23,,,0,,83,31,230,Dry,1032,2,18,,,,11.1,
South Uist Range,13/09/2019 18:00,13.5,24,,15.1,0,0,85,31,230,Dry,1032,5,19,,,,11.2,
South Uist Range,13/09/2019 19:00,13.3,22,,,0,,88,30,230,Dry,1031,2,16,,,,11.5,
South Uist Range,13/09/2019 20:00,13.2,22,,,0,,85,30,230,Dry,1031,2,21,,,,10.9,
South Uist Range,13/09/2019 21:00,13.3,22,,,0,,87,,230,Dry,1031,2,18,,,,11.2,
South Uist Range,13/09/2019 22:00,13.3,21,,,0,,86,,220,Dry,1031,4,22,,,,11.1,
South Uist Range,13/09/2019 23:00,13.3,21,,,0,,87,,210,Dry,1030,2,23,,,,11.3,
South Uist Range,14/09/2019 00:00,13.3,25,,,0,0,88,35,200,Dry,1029,6,23,,,,11.5,
South Uist Range,14/09/2019 01:00,13.2,25,,,0,,87,36,200,Dry,1028,2,26,,,,11.2,
South Uist Range,14/09/2019 02:00,12.8,26,,,0,,88,35,200,Light shower,1027,1,24,,,,11,
South Uist Range,14/09/2019 03:00,13.3,30,,,0,,87,40,200,Rain,1025,1,20,,,,11.2,
South Uist Range,14/09/2019 04:00,11.9,38,,,0.4,,92,48,210,Light shower,1023,4,4,,,,10.7,
South Uist Range,14/09/2019 05:00,11.9,32,,,0.8,,92,49,190,Light shower,1021,7,3,,,,10.8,
South Uist Range,14/09/2019 06:00,12.7,37,11.1,,0.6,2,97,49,200,Rain,1020,4,2,,,,12.3,
South Uist Range,14/09/2019 07:00,13.3,41,,,0.6,,94,56,210,Rain,1019,7,7,,,,12.4,
South Uist Range,14/09/2019 08:00,13.5,39,,,0.2,,96,53,210,Rain,1018,8,6,,,,13,
South Uist Range,14/09/2019 09:00,13.9,38,,,0,,94,52,210,Misty,1018,8,5,,,,13.1,
South Uist Range,14/09/2019 10:00,13.9,39,,,0.4,,97,51,210,Rain,1017,7,3,,,,13.5,
South Uist Range,14/09/2019 11:00,13.9,38,,,0.4,,98,52,210,Rain,1016,7,2,,,,13.6,
South Uist Range,14/09/2019 12:00,14.2,39,,,0.2,2,98,54,220,Misty,1016,8,3,,,,13.9,
South Uist Range,14/09/2019 13:00,14.3,38,,,1.8,,98,52,220,Light rain,1015,8,4,,,,14,
South Uist Range,14/09/2019 14:00,14.5,37,,,1,,98,52,230,Rain,1014,8,2,,,,14.2,
South Uist Range,14/09/2019 15:00,14.6,33,,,0.8,,97,48,240,Rain,1014,5,9,,,,14.2,
South Uist Range,14/09/2019 16:00,14.4,32,,,0,,93,41,250,Dry,1015,2,15,,,,13.3,
South Uist Range,14/09/2019 17:00,13.3,29,,,0.4,,88,43,260,Rain,1015,7,9,,,,11.4,
South Uist Range,14/09/2019 18:00,13.1,26,,14.7,0.2,4,83,39,260,Rain,1015,7,11,,,,10.3,
South Uist Range,14/09/2019 19:00,13.1,28,,,0,,82,37,260,Dry,1015,1,11,,,,10.2,
South Uist Range,14/09/2019 20:00,13.1,30,,,0,,78,38,260,Dry,1016,,12,,,,9.4,
South Uist Range,14/09/2019 21:00,12.8,33,,,0,,77,44,260,Dry,1016,8,12,,,,8.9,
South Uist Range,14/09/2019 22:00,12.7,28,,,0,,68,45,270,Dry,1017,1,16,,,,7.1,
South Uist Range,14/09/2019 23:00,12.4,31,,,0,,72,40,270,Dry,1017,5,15,,,,7.6,
South Uist Range,15/09/2019 00:00,12.5,29,,,0,0,69,44,270,Dry,1018,1,16,,,,7.1,
South Uist Range,15/09/2019 01:00,12,28,,,0,,68,41,280,Dry,1018,3,15,,,,6.3,
South Uist Range,15/09/2019 02:00,11.9,28,,,0,,70,36,280,Dry,1019,2,13,,,,6.8,
South Uist Range,15/09/2019 03:00,11.5,28,,,0,,63,38,290,Dry,1019,7,17,,,,4.9,
South Uist Range,15/09/2019 04:00,11.6,28,,,0,,66,36,270,Dry,1019,7,18,,,,5.6,
South Uist Range,15/09/2019 05:00,11.8,28,,,0,,68,38,270,Dry,1019,2,15,,,,6.2,
South Uist Range,15/09/2019 06:00,11.8,25,11.4,,0,0,67,33,280,Dry,1020,6,17,,,,5.9,
South Uist Range,15/09/2019 07:00,11.7,22,,,0,,70,33,290,Dry,1020,6,17,,,,6.5,
South Uist Range,15/09/2019 08:00,11.5,23,,,0,,77,31,280,Rain,1020,5,13,,,,7.8,
South Uist Range,15/09/2019 09:00,11.6,18,,,0,,73,30,300,Dry,1021,8,15,,,,7.1,
South Uist Range,15/09/2019 10:00,12.3,20,,,0,,68,,280,Dry,1021,1,19,,,,6.7,
South Uist Range,15/09/2019 11:00,13.3,21,,,0,,66,29,270,Dry,1021,1,23,,,,7.1,
South Uist Range,15/09/2019 12:00,12.9,21,,,0,0,56,32,280,Dry,1022,3,30,,,,4.4,
South Uist Range,15/09/2019 13:00,13.6,20,,,0,,60,,270,Dry,1022,,30,,,,6.1,
South Uist Range,15/09/2019 14:00,13.3,20,,,0,,60,,280,Dry,1022,2,35,,,,5.9,
South Uist Range,15/09/2019 15:00,13.5,17,,,0,,62,,270,Dry,1022,3,35,,,,6.4,
South Uist Range,15/09/2019 16:00,12.7,18,,,0,,69,,260,Dry,1021,2,27,,,,7.2,
South Uist Range,15/09/2019 17:00,12.6,16,,,0,,73,,270,Dry,1021,2,26,,,,7.9,
South Uist Range,15/09/2019 18:00,11.8,13,,14.2,0,0,70,,270,Dry,1021,1,29,,,,6.6,
South Uist Range,15/09/2019 19:00,11.9,15,,,0,,74,,270,Dry,1021,2,24,,,,7.6,
South Uist Range,15/09/2019 20:00,11.9,16,,,0,,74,,270,Dry,1022,1,29,,,,7.5,
South Uist Range,15/09/2019 21:00,11.6,15,,,0,,74,,270,Dry,1022,1,30,,,,7.3,
South Uist Range,15/09/2019 22:00,11.3,15,,,0,,74,,270,Dry,1022,1,29,,,,6.9,
South Uist Range,15/09/2019 23:00,11.5,16,,,0,,74,,270,Dry,1021,3,35,,,,7.1,
South Uist Range,16/09/2019 00:00,11.5,17,,,0,0,74,,270,Dry,1021,1,35,,,,7.1,
South Uist Range,16/09/2019 01:00,11.5,17,,,0,,73,,260,Dry,1021,,40,,,,6.9,
South Uist Range,16/09/2019 02:00,11.8,17,,,0,,71,,250,Dry,1021,5,45,,,,6.9,
South Uist Range,16/09/2019 03:00,11.3,18,,,0,,82,,280,Dry,1021,1,35,,,,8.4,
South Uist Range,16/09/2019 04:00,11.7,18,,,0,,72,,250,Dry,1020,2,40,,,,7,
South Uist Range,16/09/2019 05:00,11.4,21,,,0,,75,31,270,Dry,1020,1,45,,,,7.3,
South Uist Range,16/09/2019 06:00,10.2,16,9.9,,0,0,89,,270,Rain,1020,1,40,,,,8.5,
South Uist Range,16/09/2019 07:00,11.9,18,,,0,,79,,270,Dry,1020,1,35,,,,8.5,
South Uist Range,16/09/2019 08:00,10.9,21,,,0,,80,33,270,Haze,1021,1,5,,,,7.6,
South Uist Range,16/09/2019 09:00,12.3,20,,,0,,73,,270,Dry,1021,5,35,,,,7.7,
South Uist Range,16/09/2019 10:00,13,23,,,0,,69,29,270,Dry,1021,1,50,,,,7.5,
South Uist Range,16/09/2019 11:00,12.9,22,,,0,,71,29,270,Dry,1021,4,35,,,,7.9,
South Uist Range,16/09/2019 12:00,13.5,23,,,0,0,70,30,280,Dry,1022,6,35,,,,8.2,
South Uist Range,16/09/2019 13:00,11.8,23,,,0,,88,31,280,Haze,1022,1,8,,,,10,
South Uist Range,16/09/2019 14:00,13.6,23,,,0,,74,29,280,Dry,1022,3,35,,,,9.1,
South Uist Range,16/09/2019 15:00,13.6,23,,,0,,72,30,280,Dry,1022,1,30,,,,8.7,
South Uist Range,16/09/2019 16:00,12.1,18,,,0.2,,74,32,290,Rain,1022,1,40,,,,7.7,
South Uist Range,16/09/2019 17:00,12.5,18,,,0,,79,,280,Dry,1022,1,25,,,,9.1,
South Uist Range,16/09/2019 18:00,12.4,20,,14.4,0,0.2,76,,290,Dry,1022,1,29,,,,8.3,
South Uist Range,16/09/2019 19:00,11.8,18,,,0,,71,,300,Dry,1023,1,24,,,,6.9,
South Uist Range,16/09/2019 20:00,11.8,15,,,0,,74,,300,Dry,1023,3,21,,,,7.4,
South Uist Range,16/09/2019 21:00,12.1,16,,,0,,71,,300,Dry,1023,3,24,,,,7.2,
South Uist Range,16/09/2019 22:00,11.6,20,,,0,,74,,290,Rain,1023,1,26,,,,7.3,
South Uist Range,16/09/2019 23:00,11.1,17,,,0,,71,,300,Dry,1024,2,29,,,,6.1,
South Uist Range,17/09/2019 00:00,11.2,16,,,0,0,69,,300,Dry,1024,7,30,,,,5.8,
South Uist Range,17/09/2019 01:00,10.9,15,,,0,,72,,310,Dry,1024,,30,,,,6.1,
South Uist Range,17/09/2019 02:00,11.3,18,,,0,,69,,300,Dry,1024,1,30,,,,5.9,
South Uist Range,17/09/2019 03:00,10.8,16,,,0,,67,,320,Dry,1025,3,30,,,,5.1,
South Uist Range,17/09/2019 04:00,10.2,14,,,0,,63,,320,Dry,1025,,40,,,,3.7,
South Uist Range,17/09/2019 05:00,9.8,10,,,0,,68,,320,Dry,1025,,35,,,,4.3,
South Uist Range,17/09/2019 06:00,9.7,12,9.5,,0,0,64,,320,Dry,1025,,40,,,,3.4,
South Uist Range,17/09/2019 07:00,10,9,,,0,,68,,320,Dry,1026,,40,,,,4.4,
South Uist Range,17/09/2019 08:00,11.2,8,,,0,,63,,310,Dry,1026,,35,,,,4.5,
South Uist Range,17/09/2019 09:00,11.8,8,,,0,,62,,310,Dry,1027,,35,,,,4.9,
South Uist Range,17/09/2019 10:00,12,9,,,0,,60,,300,Dry,1027,,40,,,,4.6,
South Uist Range,17/09/2019 11:00,12.3,7,,,0,,62,,300,Dry,1028,,40,,,,5.3,
South Uist Range,17/09/2019 12:00,12.2,7,,,0,0,58,,290,Dry,1028,,50,,,,4.3,
South Uist Range,17/09/2019 13:00,12.3,8,,,0,,60,,270,Dry,1028,,45,,,,5,
South Uist Range,17/09/2019 14:00,12.9,7,,,0,,54,,270,Dry,1028,,45,,,,4,
South Uist Range,17/09/2019 15:00,12.7,7,,,0,,63,,280,Dry,1028,,50,,,,5.9,
South Uist Range,17/09/2019 16:00,12.1,7,,,0,,68,,260,Dry,1028,8,40,,,,6.5,
South Uist Range,17/09/2019 17:00,11.9,6,,,0,,73,,230,Rain,1027,7,35,,,,7.4,
South Uist Range,17/09/2019 18:00,11.3,3,,13.1,0,0,80,,190,Dry,1027,1,35,,,,8,
South Uist Range,17/09/2019 19:00,10.9,6,,,0,,86,,130,Dry,1027,4,35,,,,8.7,
South Uist Range,17/09/2019 20:00,10,7,,,0.2,,94,,160,Misty,1028,7,5,,,,9.2,
South Uist Range,17/09/2019 21:00,10,6,,,0.4,,96,,120,Rain,1027,1,7,,,,9.5,
South Uist Range,17/09/2019 22:00,10.8,12,,,0,,95,,170,Misty,1027,7,7,,,,10.1,
South Uist Range,17/09/2019 23:00,11.3,12,,,1.6,,98,,190,Light drizzle,1027,5,3,,,,11,
South Uist Range,18/09/2019 00:00,11.9,18,,,0.8,3,98,,220,Rain,1026,5,2,,,,11.7,
South Uist Range,18/09/2019 01:00,12.2,20,,,0.6,,99,,220,Rain,1026,6,2,,,,12.1,
South Uist Range,18/09/2019 02:00,12.5,21,,,0.2,,100,,230,Misty,1025,8,3,,,,12.5,
South Uist Range,18/09/2019 03:00,12.8,20,,,0,,100,,240,Misty,1025,8,8,,,,12.8,
South Uist Range,18/09/2019 04:00,13.1,20,,,0.2,,99,,240,Misty,1025,8,6,,,,13,
South Uist Range,18/09/2019 05:00,13.3,17,,,0,,100,,260,Misty,1025,8,2,,,,13.3,
South Uist Range,18/09/2019 06:00,13.3,15,9.8,,0,1,100,,260,Misty,1026,6,2,,,,13.3,
South Uist Range,18/09/2019 07:00,13.2,14,,,0.2,,100,,260,Misty,1026,4,3,,,,13.2,
South Uist Range,18/09/2019 08:00,13.3,15,,,0.2,,100,,270,Misty,1026,1,2,,,,13.3,
South Uist Range,18/09/2019 09:00,13.5,13,,,0.2,,100,,260,Misty,1026,2,3,,,,13.5,
South Uist Range,18/09/2019 10:00,13.5,15,,,0,,99,,270,Misty,1027,8,2,,,,13.4,
South Uist Range,18/09/2019 11:00,13.8,13,,,0,,99,,280,Misty,1027,7,4,,,,13.7,
South Uist Range,18/09/2019 12:00,13.7,14,,,0,0.6,99,,270,Misty,1028,8,4,,,,13.6,
South Uist Range,18/09/2019 13:00,14,14,,,0,,97,,270,Dry,1028,7,50,,,,13.6,
South Uist Range,18/09/2019 14:00,14.1,13,,,0,,98,,280,Dry,1028,8,29,,,,13.8,
South Uist Range,18/09/2019 15:00,13.8,13,,,0,,99,,270,Misty,1028,8,4,,,,13.7,
South Uist Range,18/09/2019 16:00,13.6,12,,,0,,99,,270,Misty,1028,8,23,,,,13.5,
South Uist Range,18/09/2019 17:00,13.6,9,,,0,,96,,280,Dry,1029,7,30,,,,13.1,
South Uist Range,18/09/2019 18:00,13.4,10,,14.3,0,0,95,,270,Dry,1029,3,40,,,,12.7,
South Uist Range,18/09/2019 19:00,12.8,12,,,0,,97,,270,Dry,1029,5,45,,,,12.4,
South Uist Range,18/09/2019 20:00,12.5,9,,,0,,99,,250,Fog,1030,7,23,,,,12.4,
South Uist Range,18/09/2019 21:00,12.5,12,,,0,,98,,250,Dry,1029,8,70,,,,12.3,
South Uist Range,18/09/2019 22:00,12.6,12,,,0,,98,,240,Dry,1030,7,45,,,,12.3,
South Uist Range,18/09/2019 23:00,12.6,12,,,0,,98,,230,Dry,1030,4,55,,,,12.3,
South Uist Range,19/09/2019 00:00,12.4,12,,,0.2,0.2,98,,230,Dry,1029,5,30,,,,12.2,
South Uist Range,19/09/2019 01:00,12.1,15,,,0,,98,,230,Dry,1029,7,75,,,,11.8,
South Uist Range,19/09/2019 02:00,11.8,15,,,0,,98,,230,Dry,1029,7,30,,,,11.5,
South Uist Range,19/09/2019 03:00,12.2,16,,,0,,98,,230,Misty,1029,7,21,,,,12,
South Uist Range,19/09/2019 04:00,12.2,16,,,0,,97,,230,Misty,1029,7,3,,,,11.8,
South Uist Range,19/09/2019 05:00,12.2,15,,,0.2,,97,,230,Dry,1029,2,75,,,,11.8,
South Uist Range,19/09/2019 06:00,12.3,13,11.7,,0,0.2,96,,210,Dry,1029,6,10,,,,11.8,
South Uist Range,19/09/2019 07:00,12.4,14,,,0,,98,,220,Misty,1029,5,3,,,,12.2,
South Uist Range,19/09/2019 08:00,12.7,15,,,0,,98,,220,Dry,1029,1,20,,,,12.4,
South Uist Range,19/09/2019 09:00,13.1,14,,,0,,91,,220,Dry,1029,8,45,,,,11.7,
South Uist Range,19/09/2019 10:00,13.6,14,,,0,,85,,230,Dry,1029,8,60,,,,11.2,
South Uist Range,19/09/2019 11:00,13.9,14,,,0,,81,,240,Dry,1029,8,65,,,,10.7,
South Uist Range,19/09/2019 12:00,14.2,14,,,0,0,83,,220,Dry,1029,8,50,,,,11.4,
South Uist Range,19/09/2019 13:00,14.1,16,,,0,,78,,220,Dry,1029,7,75,,,,10.5,
South Uist Range,19/09/2019 14:00,14.7,16,,,0,,80,,210,Dry,1029,7,75,,,,11.3,
South Uist Range,19/09/2019 15:00,14,17,,,0,,83,,210,Dry,1028,,75,,,,11.2,
South Uist Range,19/09/2019 16:00,14,16,,,0,,85,,210,Dry,1028,,75,,,,11.6,
South Uist Range,19/09/2019 17:00,13.6,15,,,0,,86,,200,Dry,1028,,55,,,,11.4,
South Uist Range,19/09/2019 18:00,13.1,12,,15,0,0,87,,190,Dry,1028,,70,,,,11.1,
South Uist Range,19/09/2019 19:00,11.5,12,,,0,,93,,190,Dry,1027,,65,,,,10.5,
South Uist Range,19/09/2019 20:00,11.2,13,,,0,,94,,190,Dry,1027,,60,,,,10.4,
South Uist Range,19/09/2019 21:00,11.6,13,,,0,,94,,180,Dry,1027,,65,,,,10.7,
South Uist Range,19/09/2019 22:00,12,14,,,0,,92,,180,Dry,1027,,60,,,,10.8,
South Uist Range,19/09/2019 23:00,11.8,12,,,0,,90,,180,Dry,1027,,65,,,,10.3,
South Uist Range,20/09/2019 00:00,11.5,13,,,0,0,84,,180,Dry,1026,,75,,,,8.9,
South Uist Range,20/09/2019 01:00,12.1,12,,,0,,81,,170,Dry,1026,,75,,,,9.1,
South Uist Range,20/09/2019 02:00,12.6,14,,,0,,80,,180,Dry,1025,,75,,,,9.4,
South Uist Range,20/09/2019 03:00,12.8,13,,,0,,79,,180,Dry,1024,,75,,,,9.4,
South Uist Range,20/09/2019 04:00,13.3,12,,,0,,86,,170,Dry,1024,,30,,,,11.1,
South Uist Range,20/09/2019 05:00,12.1,10,,,0,,91,,150,Dry,1023,,30,,,,10.7,
South Uist Range,20/09/2019 06:00,13.6,12,11,,0,0,88,,170,Dry,1023,,27,,,,11.7,
South Uist Range,20/09/2019 07:00,13.7,12,,,0,,88,,160,Dry,1023,,27,,,,11.8,
South Uist Range,20/09/2019 08:00,14.5,14,,,0,,82,,160,Dry,1023,,35,,,,11.5,
South Uist Range,20/09/2019 09:00,15.7,16,,,0,,78,,170,Dry,1022,,45,,,,12,
South Uist Range,20/09/2019 10:00,16,17,,,0,,75,,180,Dry,1022,,55,,,,11.6,
South Uist Range,20/09/2019 11:00,16.2,24,,,0,,77,32,170,Dry,1022,,40,,,,12.3,
South Uist Range,20/09/2019 12:00,17,17,,,0,0,74,33,160,Dry,1021,,60,,,,12.5,
South Uist Range,20/09/2019 13:00,17.8,21,,,0,,70,31,160,Dry,1020,,75,,,,12.4,
South Uist Range,20/09/2019 14:00,17.7,23,,,0,,69,30,160,Dry,1020,,55,,,,12.1,
South Uist Range,20/09/2019 15:00,17.8,21,,,0,,67,,160,Dry,1019,0,60,,,,11.6,
South Uist Range,20/09/2019 16:00,17.8,18,,,0,,68,31,150,Dry,1018,,75,,,,11.9,
South Uist Range,20/09/2019 17:00,17.7,18,,,0,,66,31,160,Dry,1017,,75,,,,11.5,
South Uist Range,20/09/2019 18:00,16.6,22,,18.2,0,0,73,29,150,Dry,1016,,75,,,,11.8,
South Uist Range,20/09/2019 19:00,17,20,,,0,,68,30,150,Dry,1016,,75,,,,11.2,
South Uist Range,20/09/2019 20:00,16.4,21,,,0,,74,30,150,Dry,1015,,75,,,,11.9,
South Uist Range,20/09/2019 21:00,16.8,22,,,0,,75,30,160,Dry,1015,,65,,,,12.5,
South Uist Range,20/09/2019 22:00,16.5,23,,,0,,73,32,150,Dry,1014,,65,,,,11.7,
South Uist Range,20/09/2019 23:00,16.7,23,,,0,,72,31,150,Dry,1014,,75,,,,11.7,
South Uist Range,21/09/2019 00:00,17,23,,,0,0,68,33,150,Dry,1013,,75,,,,11.1,
South Uist Range,21/09/2019 01:00,16.6,22,,,0,,71,32,150,Dry,1013,,75,,,,11.4,
South Uist Range,21/09/2019 02:00,16.6,23,,,0,,72,37,150,Dry,1012,,70,,,,11.7,
South Uist Range,21/09/2019 03:00,16.1,20,,,0,,74,35,150,Dry,1011,0,70,,,,11.6,
South Uist Range,21/09/2019 04:00,16,25,,,0,,73,35,150,Dry,1010,,70,,,,11.2,
South Uist Range,21/09/2019 05:00,15.4,21,,,0,,73,36,140,Dry,1010,,75,,,,10.6,
South Uist Range,21/09/2019 06:00,15.2,24,15.1,,0,0,70,36,140,Dry,1010,,75,,,,9.8,
South Uist Range,21/09/2019 07:00,15.4,23,,,0,,65,37,140,Dry,1009,,75,,,,8.9,
South Uist Range,21/09/2019 08:00,16.1,23,,,0,,60,36,130,Dry,1009,,75,,,,8.5,
South Uist Range,21/09/2019 09:00,16.8,25,,,0,,56,37,130,Dry,1009,,75,,,,8.1,
South Uist Range,21/09/2019 10:00,17.4,23,,,0,,53,36,140,Dry,1008,,75,,,,8,
South Uist Range,21/09/2019 11:00,18.2,15,,,0,,53,32,140,Dry,1008,,75,,,,8.5,
South Uist Range,21/09/2019 12:00,19.5,20,,,0,0,46,29,140,Dry,1007,,75,,,,7.7,
South Uist Range,21/09/2019 13:00,19.6,25,,,0,,44,36,150,Dry,1006,,75,,,,7.1,
South Uist Range,21/09/2019 14:00,20,25,,,0,,42,38,150,Dry,1006,,75,,,,7,
South Uist Range,21/09/2019 15:00,20.5,25,,,0,,40,38,140,Dry,1005,3,75,,,,6.8,
South Uist Range,21/09/2019 16:00,20.5,24,,,0,,43,38,140,Dry,1004,,75,,,,7.7,
South Uist Range,21/09/2019 17:00,20,28,,,0,,48,41,140,Dry,1003,,75,,,,8.8,
South Uist Range,21/09/2019 18:00,19.3,22,,20.8,0,0,52,38,150,Dry,1004,,75,,,,9.4,
South Uist Range,21/09/2019 19:00,19.5,21,,,0,,53,31,150,Dry,1004,,75,,,,9.9,
South Uist Range,21/09/2019 20:00,19.7,21,,,0,,53,35,150,Dry,1003,1,75,,,,9.9,
South Uist Range,21/09/2019 21:00,19.5,25,,,0,,54,35,150,Dry,1003,,75,,,,10,
South Uist Range,21/09/2019 22:00,19.2,22,,,0,,54,36,140,Dry,1003,,75,,,,9.8,
South Uist Range,21/09/2019 23:00,18.5,18,,,0,,58,30,130,Dry,1003,6,70,,,,10.3,
South Uist Range,22/09/2019 00:00,18.9,20,,,0,0,56,30,130,Dry,1003,1,75,,,,10.1,
South Uist Range,22/09/2019 01:00,18.7,17,,,0,,57,29,130,Dry,1002,,70,,,,10.1,
South Uist Range,22/09/2019 02:00,19,23,,,0,,55,32,130,Dry,1002,4,70,,,,10,
South Uist Range,22/09/2019 03:00,17.9,20,,,0,,62,32,140,Dry,1002,8,60,,,,10.6,
South Uist Range,22/09/2019 04:00,15.1,14,,,0,,83,,160,Light shower,1001,,29,,,,12.3,
South Uist Range,22/09/2019 05:00,15.7,7,,,0.4,,78,,130,Rain,1001,1,60,,,,11.9,
South Uist Range,22/09/2019 06:00,15.6,9,14.9,,0,0.4,78,,130,Dry,1001,8,55,,,,11.9,
South Uist Range,22/09/2019 07:00,16.6,14,,,0,,69,,130,Dry,1000,6,60,,,,11.1,
South Uist Range,22/09/2019 08:00,17.7,14,,,0,,70,,130,Dry,1000,1,55,,,,12.3,
South Uist Range,22/09/2019 09:00,16.8,16,,,0,,71,,110,Dry,1000,5,55,,,,11.7,
South Uist Range,22/09/2019 10:00,16.7,14,,,0,,73,,110,Dry,1000,1,60,,,,11.9,
South Uist Range,22/09/2019 11:00,16.1,8,,,0,,77,,70,Dry,1000,6,55,,,,12.1,
South Uist Range,22/09/2019 12:00,15.8,7,,,0.6,0.6,85,,120,Moderate shower,1000,8,18,,,,13.3,
South Uist Range,22/09/2019 13:00,17.5,8,,,0,,81,,170,Rain,1000,7,55,,,,14.3,
South Uist Range,22/09/2019 14:00,18.4,14,,,0,,75,,140,Dry,1000,5,60,,,,13.9,
South Uist Range,22/09/2019 15:00,17.1,13,,,0,,79,,110,Dry,1000,8,55,,,,13.6,
South Uist Range,22/09/2019 16:00,17.7,13,,,0,,79,,140,Dry,1000,8,75,,,,14.2,
South Uist Range,22/09/2019 17:00,17.4,8,,,0,,81,,140,Dry,1000,8,75,,,,14.2,
South Uist Range,22/09/2019 18:00,17,9,,18.6,0,0,83,,130,Dry,1000,7,60,,,,14.2,
South Uist Range,22/09/2019 19:00,15.8,8,,,0,,90,,220,Dry,1000,8,12,,,,14.3,
South Uist Range,22/09/2019 20:00,15.4,6,,,1.8,,97,,170,Light drizzle,1000,1,4,,,,15,
South Uist Range,22/09/2019 21:00,15.4,5,,,1,,98,,160,Rain,1000,7,5,,,,15.1,
South Uist Range,22/09/2019 22:00,15.2,6,,,0,,98,,160,Misty,1001,7,4,,,,15,
South Uist Range,22/09/2019 23:00,14.9,3,,,0,,98,,120,Rain,1001,2,15,,,,14.7,
South Uist Range,23/09/2019 00:00,15.2,6,,,0.2,3,98,,170,Rain,1001,7,60,,,,14.9,
South Uist Range,23/09/2019 01:00,14.4,9,,,0,,99,,190,Thickening fog,1001,6,1,,,,14.3,
South Uist Range,23/09/2019 02:00,14,6,,,0,,99,,230,Thickening fog,1001,7,0,,,,13.9,
South Uist Range,23/09/2019 03:00,13.8,5,,,0,,100,,220,Fog,1001,8,4,,,,13.8,
South Uist Range,23/09/2019 04:00,13.6,5,,,0,,100,,190,Fog,1001,7,9,,,,13.6,
South Uist Range,23/09/2019 05:00,13.6,3,,,0,,100,,110,Fog,1001,6,8,,,,13.6,
South Uist Range,23/09/2019 06:00,13.2,3,12.9,,0,0,100,,130,Misty,1001,2,3,,,,13.2,
South Uist Range,23/09/2019 07:00,13.5,1,,,0,,100,,20,Fog,1001,1,6,,,,13.5,
South Uist Range,23/09/2019 08:00,14.2,2,,,0,,100,,120,Dry,1001,5,14,,,,14.2,
South Uist Range,23/09/2019 09:00,14.8,9,,,0,,99,,160,Dry,1001,6,17,,,,14.7,
South Uist Range,23/09/2019 10:00,14.7,8,,,0,,99,,160,Dry,1001,5,20,,,,14.6,
South Uist Range,23/09/2019 11:00,15.6,10,,,1.4,,95,,160,Rain,1000,2,75,,,,14.9,
South Uist Range,23/09/2019 12:00,16.3,13,,,0,1,87,,150,Dry,1000,1,75,,,,14.2,
South Uist Range,23/09/2019 13:00,14.7,15,,,0.2,,94,,160,Light drizzle,1000,5,12,,,,13.8,
South Uist Range,23/09/2019 14:00,15.4,16,,,0.4,,96,,150,Rain,1000,6,18,,,,14.8,
South Uist Range,23/09/2019 15:00,14.6,18,,,0,,94,,170,Dry,1000,3,75,,,,13.7,
South Uist Range,23/09/2019 16:00,15,18,,,0,,85,29,170,Dry,1000,1,75,,,,12.6,
South Uist Range,23/09/2019 17:00,14.2,18,,,0,,83,30,150,Dry,1000,1,75,,,,11.5,
South Uist Range,23/09/2019 18:00,13.9,24,,17.1,0,1,81,35,140,Dry,1000,,70,,,,10.7,
South Uist Range,23/09/2019 19:00,14.2,24,,,0,,80,38,140,Dry,1000,,65,,,,10.9,
South Uist Range,23/09/2019 20:00,14.2,21,,,0,,79,33,130,Dry,999,5,75,,,,10.8,
South Uist Range,23/09/2019 21:00,14.8,22,,,0,,75,32,130,Dry,999,8,75,,,,10.5,
South Uist Range,23/09/2019 22:00,14.6,24,,,0,,76,33,130,Dry,998,8,75,,,,10.6,
South Uist Range,23/09/2019 23:00,14.9,23,,,0,,71,37,120,Dry,998,7,75,,,,9.9,
South Uist Range,24/09/2019 00:00,14.3,18,,,0,0,76,,110,Dry,997,8,60,,,,10.2,
South Uist Range,24/09/2019 01:00,13.3,16,,,0,,90,,100,Rain,997,4,24,,,,11.8,
South Uist Range,24/09/2019 02:00,13.5,17,,,0.2,,85,,100,Rain,996,6,50,,,,11.1,
South Uist Range,24/09/2019 03:00,14.4,16,,,0,,80,,120,Dry,996,5,75,,,,11.1,
South Uist Range,24/09/2019 04:00,14.4,17,,,0,,83,,120,Dry,996,2,75,,,,11.6,
South Uist Range,24/09/2019 05:00,13.9,15,,,0,,91,,120,Dry,995,5,75,,,,12.5,
South Uist Range,24/09/2019 06:00,14.2,12,13.2,,0,0.2,93,,140,Dry,995,7,35,,,,13.2,
South Uist Range,24/09/2019 07:00,14.2,13,,,0,,96,,150,Dry,995,7,50,,,,13.6,
South Uist Range,24/09/2019 08:00,14.9,13,,,0,,93,,140,Dry,996,5,60,,,,13.9,
South Uist Range,24/09/2019 09:00,15.4,13,,,0,,91,,130,Dry,996,6,55,,,,14,
South Uist Range,24/09/2019 10:00,16,16,,,0,,88,,140,Dry,996,1,65,,,,14.1,
South Uist Range,24/09/2019 11:00,14.9,16,,,1.6,,95,,150,Drizzly rain,996,7,2,,,,14.2,
South Uist Range,24/09/2019 12:00,15.6,18,,,0.2,2,94,,150,Rain,996,7,35,,,,14.7,
South Uist Range,24/09/2019 13:00,16.4,14,,,0,,89,,150,Dry,996,6,35,,,,14.6,
South Uist Range,24/09/2019 14:00,16.6,10,,,0,,87,,150,Dry,996,3,40,,,,14.6,
South Uist Range,24/09/2019 15:00,17.7,15,,,0,,83,,180,Dry,996,8,35,,,,14.8,
South Uist Range,24/09/2019 16:00,16.5,8,,,0,,87,,80,Dry,996,2,30,,,,14.4,
South Uist Range,24/09/2019 17:00,15.8,7,,,0,,91,,100,Dry,996,1,30,,,,14.5,
South Uist Range,24/09/2019 18:00,15.2,8,,18.5,0,0,91,,70,Dry,997,1,60,,,,13.9,
South Uist Range,24/09/2019 19:00,15.1,6,,,0,,92,,70,Dry,997,7,60,,,,13.9,
South Uist Range,24/09/2019 20:00,14.2,5,,,0,,91,,70,Dry,997,1,75,,,,12.9,
South Uist Range,24/09/2019 21:00,14,5,,,0,,93,,70,Dry,997,,75,,,,13,
South Uist Range,24/09/2019 22:00,13.8,6,,,0,,96,,50,Dry,996,,40,,,,13.2,
South Uist Range,24/09/2019 23:00,13.7,3,,,0,,95,,60,Dry,996,,50,,,,13,
South Uist Range,25/09/2019 00:00,12,2,,,0,0,96,,50,Misty,996,2,10,,,,11.5,
South Uist Range,25/09/2019 01:00,13.8,7,,,0,,97,,70,Fog,996,1,40,,,,13.4,
South Uist Range,25/09/2019 02:00,13.9,9,,,0,,97,,90,Dry,996,1,29,,,,13.5,
South Uist Range,25/09/2019 03:00,13.8,8,,,0,,96,,90,Dry,996,8,27,,,,13.3,
South Uist Range,25/09/2019 04:00,13.3,8,,,0,,98,,90,Dry,995,,19,,,,13,
South Uist Range,25/09/2019 05:00,13.6,7,,,0,,98,,80,Dry,995,6,26,,,,13.3,
South Uist Range,25/09/2019 06:00,13.7,7,11.7,,0,0,98,,60,Dry,995,8,30,,,,13.5,
South Uist Range,25/09/2019 07:00,13.9,6,,,0,,98,,70,Dry,995,3,35,,,,13.6,
South Uist Range,25/09/2019 08:00,14.6,5,,,0,,95,,120,Dry,995,5,75,,,,13.9,
South Uist Range,25/09/2019 09:00,17.3,2,,,0,,82,,170,Dry,995,2,75,,,,14.3,
South Uist Range,25/09/2019 10:00,17.4,9,,,0,,79,,170,Dry,995,1,75,,,,13.8,
South Uist Range,25/09/2019 11:00,16.1,12,,,0,,90,,210,Dry,995,6,35,,,,14.6,
South Uist Range,25/09/2019 12:00,16.7,13,,,0,0,83,,160,Dry,995,3,75,,,,13.9,
South Uist Range,25/09/2019 13:00,16.4,12,,,0,,85,,160,Dry,994,5,75,,,,14,
South Uist Range,25/09/2019 14:00,17.1,13,,,0,,88,,190,Dry,994,5,50,,,,15.1,
South Uist Range,25/09/2019 15:00,15.1,13,,,0.2,,96,,200,Misty,994,5,2,,,,14.6,
South Uist Range,25/09/2019 16:00,15.1,12,,,0.8,,98,,180,Rain,993,6,11,,,,14.9,
South Uist Range,25/09/2019 17:00,14.7,12,,,0,,94,,180,Dry,993,1,30,,,,13.9,
South Uist Range,25/09/2019 18:00,13.2,15,,18.5,0,1,98,,180,Misty,993,7,28,,,,12.9,
South Uist Range,25/09/2019 19:00,13.6,9,,,0,,98,,160,Dry,993,4,15,,,,13.4,
South Uist Range,25/09/2019 20:00,13.9,13,,,0,,95,,150,Dry,992,5,75,,,,13.2,
South Uist Range,25/09/2019 21:00,14.4,16,,,0,,95,,150,Rain,991,4,30,,,,13.7,
South Uist Range,25/09/2019 22:00,15.2,22,,,0,,91,31,140,Dry,990,4,30,,,,13.8,
South Uist Range,25/09/2019 23:00,14.8,25,,,0.8,,93,36,150,Light shower,989,5,5,,,,13.8,
South Uist Range,26/09/2019 00:00,14.5,23,,,1.4,2,93,32,150,Rain,989,4,50,,,,13.5,
South Uist Range,26/09/2019 01:00,14.4,26,,,0,,92,36,150,Dry,988,6,60,,,,13.2,
South Uist Range,26/09/2019 02:00,14.3,24,,,0.6,,94,37,140,Light shower,987,3,3,,,,13.5,
South Uist Range,26/09/2019 03:00,14.2,16,,,0.8,,94,33,160,Rain,986,6,6,,,,13.4,
South Uist Range,26/09/2019 04:00,14,21,,,0,,93,29,170,Dry,986,7,45,,,,13,
South Uist Range,26/09/2019 05:00,13.5,22,,,0,,93,30,170,Dry,985,8,30,,,,12.5,
South Uist Range,26/09/2019 06:00,13.5,21,13.1,,0,2,93,31,170,Dry,986,6,40,,,,12.5,
South Uist Range,26/09/2019 07:00,12.9,22,,,0.4,,96,30,230,Rain,986,7,30,,,,12.4,
South Uist Range,26/09/2019 08:00,12.7,21,,,0,,92,29,220,Dry,987,1,14,,,,11.5,
South Uist Range,26/09/2019 09:00,12.8,23,,,0,,93,29,220,Haze,988,5,22,,,,11.7,
South Uist Range,26/09/2019 10:00,13.7,18,,,0,,85,,210,Dry,988,1,35,,,,11.4,
South Uist Range,26/09/2019 11:00,14.4,16,,,0,,86,,200,Dry,988,2,24,,,,12.2,
South Uist Range,26/09/2019 12:00,14.3,16,,,0,0.4,83,,200,Dry,988,,24,,,,11.6,
South Uist Range,26/09/2019 13:00,14.3,18,,,0,,84,,200,Dry,988,1,45,,,,11.8,
South Uist Range,26/09/2019 14:00,14.1,18,,,0,,88,,200,Dry,988,1,26,,,,12.3,
South Uist Range,26/09/2019 15:00,13.5,17,,,0,,93,,200,Rain,988,7,15,,,,12.5,
South Uist Range,26/09/2019 16:00,14.1,17,,,0,,88,,200,Dry,988,1,20,,,,12.2,
South Uist Range,26/09/2019 17:00,13.5,16,,,0,,87,,190,Dry,988,5,22,,,,11.5,
South Uist Range,26/09/2019 18:00,12.6,16,,15.7,0,0,87,,190,Dry,988,3,17,,,,10.6,
South Uist Range,26/09/2019 19:00,12.5,13,,,0,,90,,200,Rain,989,2,30,,,,11,
South Uist Range,26/09/2019 20:00,11,9,,,0,,94,,170,Dry,989,3,30,,,,10.1,
South Uist Range,26/09/2019 21:00,10.5,9,,,0,,96,,170,Dry,989,2,30,,,,9.9,
South Uist Range,26/09/2019 22:00,10,9,,,0,,96,,170,Dry,990,4,29,,,,9.4,
South Uist Range,26/09/2019 23:00,9.8,8,,,0,,96,,160,Dry,990,1,30,,,,9.2,
South Uist Range,27/09/2019 00:00,9.9,7,,,0.2,0.2,96,,170,Rain,990,,40,,,,9.3,
South Uist Range,27/09/2019 01:00,10.4,10,,,0,,98,,170,Dry,990,1,30,,,,10.1,
South Uist Range,27/09/2019 02:00,9.9,9,,,0.2,,96,,180,Rain,990,2,50,,,,9.4,
South Uist Range,27/09/2019 03:00,10.5,10,,,0,,98,,190,Dry,990,3,40,,,,10.2,
South Uist Range,27/09/2019 04:00,10.9,10,,,0,,89,,200,Dry,990,1,35,,,,9.2,
South Uist Range,27/09/2019 05:00,9.8,9,,,0,,95,,180,Dry,991,3,45,,,,9.1,
South Uist Range,27/09/2019 06:00,9.1,8,9.1,,0,0.2,96,,170,Dry,991,4,60,,,,8.5,
South Uist Range,27/09/2019 07:00,8.9,8,,,0,,97,,160,Dry,991,2,55,,,,8.5,
South Uist Range,27/09/2019 08:00,11.6,8,,,0,,96,,170,Dry,992,3,12,,,,11.1,
South Uist Range,27/09/2019 09:00,13.2,10,,,0.6,,88,,190,Rain,992,2,75,,,,11.3,
South Uist Range,27/09/2019 10:00,13.8,8,,,0,,79,,190,Dry,992,2,75,,,,10.4,
South Uist Range,27/09/2019 11:00,14.6,7,,,0,,81,,200,Dry,992,,75,,,,11.4,
South Uist Range,27/09/2019 12:00,14.8,8,,,0,0.6,78,,210,Dry,993,,75,,,,11.1,
South Uist Range,27/09/2019 13:00,14.9,9,,,0,,75,,230,Dry,993,,75,,,,10.7,
South Uist Range,27/09/2019 14:00,14.9,9,,,0,,74,,230,Dry,993,,75,,,,10.5,
South Uist Range,27/09/2019 15:00,14.7,7,,,0,,74,,220,Dry,993,,75,,,,10.3,
South Uist Range,27/09/2019 16:00,14.4,7,,,0,,76,,230,Dry,994,1,75,,,,10.4,
South Uist Range,27/09/2019 17:00,14.1,6,,,0,,76,,240,Dry,994,,75,,,,10.1,
South Uist Range,27/09/2019 18:00,11.7,5,,15.3,0,0,86,,240,Dry,994,,21,,,,9.5,
South Uist Range,27/09/2019 19:00,9.8,2,,,0,,92,,210,Dry,995,2,19,,,,8.6,
South Uist Range,27/09/2019 20:00,9.3,5,,,0,,96,,180,Dry,995,2,70,,,,8.7,
South Uist Range,27/09/2019 21:00,8.7,6,,,0,,96,,170,Dry,995,,75,,,,8.1,
South Uist Range,27/09/2019 22:00,8.5,6,,,0,,96,,180,Dry,996,,75,,,,7.9,
South Uist Range,27/09/2019 23:00,9,5,,,0,,96,,180,Dry,996,,75,,,,8.5,
South Uist Range,28/09/2019 00:00,8.9,2,,,0,0,96,,190,Dry,996,,75,,,,8.4,
South Uist Range,28/09/2019 01:00,8.3,3,,,0,,96,,170,Dry,997,,75,,,,7.8,
South Uist Range,28/09/2019 02:00,8.4,2,,,0,,97,,180,Dry,997,,75,,,,8.1,
South Uist Range,28/09/2019 03:00,8.1,5,,,0,,98,,200,Dry,997,1,55,,,,7.9,
South Uist Range,28/09/2019 04:00,8.7,2,,,0,,98,,200,Dry,997,,75,,,,8.5,
South Uist Range,28/09/2019 05:00,8.7,2,,,0,,99,,80,Thickening fog,998,,1,,,,8.6,
South Uist Range,28/09/2019 06:00,7.9,1,7.5,,0.2,0.2,99,,90,Fog thinning,998,,1,,,,7.8,
South Uist Range,28/09/2019 07:00,7.7,1,,,0,,100,,160,Fog,999,,1,,,,7.7,
South Uist Range,28/09/2019 08:00,10.4,6,,,0,,100,,200,Fog,999,,65,,,,10.4,
South Uist Range,28/09/2019 09:00,12.7,5,,,0,,97,,220,Dry,1000,2,40,,,,12.3,
South Uist Range,28/09/2019 10:00,13.5,7,,,0,,83,,300,Dry,1000,2,75,,,,10.7,
South Uist Range,28/09/2019 11:00,13.6,7,,,0,,79,,300,Dry,1001,,75,,,,10.1,
South Uist Range,28/09/2019 12:00,14.3,7,,,0,0,77,,300,Dry,1001,2,75,,,,10.4,
South Uist Range,28/09/2019 13:00,14.7,7,,,0,,78,,300,Dry,1001,4,75,,,,11,
South Uist Range,28/09/2019 14:00,14.5,6,,,0,,75,,350,Dry,1001,4,75,,,,10.2,
South Uist Range,28/09/2019 15:00,14.3,6,,,0,,75,,300,Dry,1002,,35,,,,10,
South Uist Range,28/09/2019 16:00,14.4,6,,,0,,77,,290,Dry,1001,,14,,,,10.6,
South Uist Range,28/09/2019 17:00,14.1,5,,,0,,76,,300,Dry,1001,,30,,,,10,
South Uist Range,28/09/2019 18:00,12.7,2,,15.1,0,0,84,,290,Dry,1001,1,50,,,,10.2,
South Uist Range,28/09/2019 19:00,11.6,2,,,0,,93,,100,Dry,1001,1,65,,,,10.6,
South Uist Range,28/09/2019 20:00,11.5,3,,,0,,92,,200,Dry,1001,1,75,,,,10.3,
South Uist Range,28/09/2019 21:00,10.3,3,,,0,,94,,50,Dry,1001,3,60,,,,9.5,
South Uist Range,28/09/2019 22:00,10.9,8,,,0,,98,,30,Dry,1001,,75,,,,10.6,
South Uist Range,28/09/2019 23:00,10.3,8,,,0,,96,,30,Dry,1000,,75,,,,9.7,
South Uist Range,29/09/2019 00:00,10.3,8,,,0,0,98,,60,Dry,1000,1,75,,,,10,
South Uist Range,29/09/2019 01:00,11.1,10,,,0,,93,,40,Dry,1000,3,75,,,,10.1,
South Uist Range,29/09/2019 02:00,10.7,10,,,0,,96,,30,Dry,1000,,75,,,,10.2,
South Uist Range,29/09/2019 03:00,11.3,10,,,0,,98,,40,Dry,999,5,60,,,,11.1,
South Uist Range,29/09/2019 04:00,11.9,8,,,0,,96,,20,Dry,999,8,60,,,,11.4,
South Uist Range,29/09/2019 05:00,12.4,12,,,0,,92,,60,Dry,999,1,75,,,,11.3,
South Uist Range,29/09/2019 06:00,12.1,12,9.5,,0,0,94,,30,Dry,999,8,70,,,,11.2,
South Uist Range,29/09/2019 07:00,12.3,13,,,0,,94,,40,Dry,999,8,60,,,,11.4,
South Uist Range,29/09/2019 08:00,12.2,9,,,0,,92,,10,Dry,1000,8,75,,,,11.1,
South Uist Range,29/09/2019 09:00,12.8,10,,,0,,91,,20,Dry,1000,8,75,,,,11.4,
South Uist Range,29/09/2019 10:00,13.6,13,,,0,,85,,30,Dry,1001,1,75,,,,11.3,
South Uist Range,29/09/2019 11:00,14.3,14,,,0,,83,,50,Dry,1001,2,75,,,,11.5,
South Uist Range,29/09/2019 12:00,13.7,13,,,0,0,84,,40,Dry,1002,3,70,,,,11.1,
South Uist Range,29/09/2019 13:00,13.4,10,,,0,,90,,40,Rain,1002,1,35,,,,11.8,
South Uist Range,29/09/2019 14:00,13.7,6,,,0.2,,86,,360,Rain,1003,8,75,,,,11.5,
South Uist Range,29/09/2019 15:00,14.2,7,,,0,,82,,360,Dry,1003,8,75,,,,11.3,
South Uist Range,29/09/2019 16:00,13.7,9,,,0,,81,,350,Dry,1003,8,75,,,,10.6,
South Uist Range,29/09/2019 17:00,13.2,12,,,0,,87,,360,Dry,1004,8,75,,,,11.2,
South Uist Range,29/09/2019 18:00,12.6,10,,14.5,0,0.2,88,,350,Dry,1004,1,75,,,,10.8,
South Uist Range,29/09/2019 19:00,12.3,9,,,0,,91,,350,Dry,1005,1,75,,,,11,
South Uist Range,29/09/2019 20:00,12,9,,,0,,93,,350,Dry,1006,,60,,,,11,
South Uist Range,29/09/2019 21:00,11.2,9,,,0,,94,,360,Dry,1006,3,50,,,,10.4,
South Uist Range,29/09/2019 22:00,11.3,12,,,0,,96,,20,Dry,1007,2,65,,,,10.7,
South Uist Range,29/09/2019 23:00,11.1,9,,,0,,96,,20,Dry,1007,2,70,,,,10.6,
South Uist Range,30/09/2019 00:00,11.2,7,,,0,0,91,,360,Dry,1008,7,70,,,,9.8,
South Uist Range,30/09/2019 01:00,11.5,7,,,0,,86,,350,Dry,1008,8,75,,,,9.4,
South Uist Range,30/09/2019 02:00,10.7,6,,,0,,89,,10,Dry,1008,1,75,,,,9,
South Uist Range,30/09/2019 03:00,10.7,8,,,0,,93,,360,Dry,1008,1,75,,,,9.7,
South Uist Range,30/09/2019 04:00,10.9,9,,,0,,94,,50,Dry,1009,4,75,,,,10.1,
South Uist Range,30/09/2019 05:00,10.4,10,,,0,,93,,40,Dry,1009,1,65,,,,9.4,
South Uist Range,30/09/2019 06:00,10.6,13,10.1,,0,0,87,,40,Dry,1009,1,45,,,,8.6,
South Uist Range,30/09/2019 07:00,9.5,12,,,0,,87,,30,Dry,1009,6,70,,,,7.6,
South Uist Range,30/09/2019 08:00,9.8,9,,,0,,80,,30,Dry,1010,1,75,,,,6.6,
South Uist Range,30/09/2019 09:00,10.4,14,,,0,,73,,40,Dry,1010,,75,,,,5.9,
South Uist Range,30/09/2019 10:00,11,14,,,0,,67,,40,Dry,1010,1,75,,,,5.2,
South Uist Range,30/09/2019 11:00,10.7,15,,,0,,72,,60,Dry,1010,1,75,,,,6,
South Uist Range,30/09/2019 12:00,11.2,16,,,0,0,74,,50,Dry,1009,1,75,,,,6.9,
South Uist Range,30/09/2019 13:00,10.9,21,,,0,,74,,50,Dry,1009,,75,,,,6.6,
South Uist Range,30/09/2019 14:00,10.9,21,,,0,,75,29,50,Dry,1008,2,75,,,,6.7,
South Uist Range,30/09/2019 15:00,10.9,22,,,0,,69,30,50,Dry,1008,1,75,,,,5.5,
South Uist Range,30/09/2019 16:00,10.7,24,,,0,,74,29,50,Dry,1007,1,75,,,,6.4,
South Uist Range,30/09/2019 17:00,10.4,24,,,0,,79,31,50,Dry,1006,,75,,,,7,
South Uist Range,30/09/2019 18:00,10.4,26,,11.7,0,0,78,35,50,Dry,1006,,75,,,,6.8,
South Uist Range,30/09/2019 19:00,10.5,26,,,0,,77,35,60,Dry,1006,2,70,,,,6.7,
South Uist Range,30/09/2019 20:00,10.3,26,,,0,,82,37,60,Dry,1006,,60,,,,7.5,
South Uist Range,30/09/2019 21:00,10.3,28,,,0,,78,35,50,Dry,1006,,70,,,,6.8,
South Uist Range,30/09/2019 22:00,10,24,,,0,,77,35,60,Dry,1006,,75,,,,6.3,
South Uist Range,30/09/2019 23:00,9.7,24,,,0,,77,31,60,Dry,1006,,75,,,,6,
South Uist Range,01/10/2019 00:00,9.5,24,,,0,0,77,32,60,Dry,1006,2,60,,,,5.8,
South Uist Range,01/10/2019 01:00,9.1,25,,,0,,74,33,60,Dry,1006,1,60,,,,4.9,
South Uist Range,01/10/2019 02:00,8.9,26,,,0,,72,32,60,Dry,1006,2,60,,,,4.2,
South Uist Range,01/10/2019 03:00,8.6,23,,,0,,73,33,50,Dry,1006,1,70,,,,4.1,
South Uist Range,01/10/2019 04:00,8.5,26,,,0,,69,32,60,Dry,1006,1,75,,,,3.3,
South Uist Range,01/10/2019 05:00,8.9,26,,,0,,67,33,50,Dry,1006,6,75,,,,3.2,
South Uist Range,01/10/2019 06:00,8.8,21,8.4,,0,0,73,31,60,Dry,1006,2,75,,,,4.3,
South Uist Range,01/10/2019 07:00,8.3,21,,,0,,79,,30,Dry,1007,2,55,,,,5,
South Uist Range,01/10/2019 08:00,8.5,18,,,0,,75,,30,Dry,1008,3,75,,,,4.5,
South Uist Range,01/10/2019 09:00,8.7,20,,,0,,74,,20,Dry,1009,7,75,,,,4.5,
South Uist Range,01/10/2019 10:00,9.4,17,,,0,,68,,20,Dry,1009,7,75,,,,3.9,
South Uist Range,01/10/2019 11:00,10.1,17,,,0,,70,,30,Dry,1010,7,75,,,,4.9,
South Uist Range,01/10/2019 12:00,11.7,16,,,0,0,63,,20,Dry,1011,4,75,,,,4.9,
South Uist Range,01/10/2019 13:00,11.4,18,,,0,,67,,10,Dry,1011,1,19,,,,5.6,
South Uist Range,01/10/2019 14:00,10.2,20,,,0,,69,,10,Dry,1011,5,75,,,,4.8,
South Uist Range,01/10/2019 15:00,10.2,17,,,0,,65,,360,Dry,1012,3,75,,,,4,
South Uist Range,01/10/2019 16:00,9.6,20,,,0,,68,,360,Dry,1012,2,75,,,,4.1,
South Uist Range,01/10/2019 17:00,9,13,,,0,,81,30,360,Rain,1013,1,75,,,,6,
South Uist Range,01/10/2019 18:00,8.4,16,,11.7,0,0,77,,10,Dry,1013,1,75,,,,4.7,
South Uist Range,01/10/2019 19:00,7.9,15,,,0,,81,,10,Dry,1014,,75,,,,4.9,
South Uist Range,01/10/2019 20:00,7.8,10,,,0.2,,84,,360,Rain,1015,4,75,,,,5.3,
South Uist Range,01/10/2019 21:00,7.9,15,,,0,,78,,10,Dry,1016,,70,,,,4.4,
South Uist Range,01/10/2019 22:00,7.2,13,,,0,,81,,30,Dry,1016,1,75,,,,4.2,
South Uist Range,01/10/2019 23:00,5.7,6,,,0,,86,,10,Dry,1016,1,75,,,,3.6,
South Uist Range,02/10/2019 00:00,7.2,9,,,0,0.2,81,,30,Rain,1017,1,70,,,,4.3,
South Uist Range,02/10/2019 01:00,7.5,8,,,0,,79,,20,Dry,1018,7,75,,,,4.1,
South Uist Range,02/10/2019 02:00,6.5,8,,,0,,79,,10,Rain,1017,2,65,,,,3.3,
South Uist Range,02/10/2019 03:00,6.1,6,,,0,,79,,10,Dry,1018,1,75,,,,2.8,
South Uist Range,02/10/2019 04:00,7.6,9,,,0,,82,,360,Dry,1018,6,70,,,,4.8,
South Uist Range,02/10/2019 05:00,7.3,7,,,0.2,,85,,360,Moderate shower,1018,3,60,,,,5.1,
South Uist Range,02/10/2019 06:00,7.1,6,5.4,,0.2,0.4,84,,350,Rain,1018,7,40,,,,4.7,
South Uist Range,02/10/2019 07:00,6.2,6,,,0,,79,,10,Dry,1019,,35,,,,3,
South Uist Range,02/10/2019 08:00,7.9,8,,,0,,79,,350,Dry,1020,1,40,,,,4.5,
South Uist Range,02/10/2019 09:00,9.4,8,,,0,,79,,10,Dry,1020,3,65,,,,6,
South Uist Range,02/10/2019 10:00,11.1,9,,,0,,66,,330,Dry,1021,1,60,,,,5,
South Uist Range,02/10/2019 11:00,11.1,14,,,0,,68,,360,Dry,1021,2,70,,,,5.6,
South Uist Range,02/10/2019 12:00,11.3,9,,,0,0,65,,360,Dry,1021,7,70,,,,5.1,
South Uist Range,02/10/2019 13:00,11,10,,,0,,68,,10,Dry,1021,1,70,,,,5.5,
South Uist Range,02/10/2019 14:00,11.6,7,,,0,,56,,330,Dry,1021,5,75,,,,3.2,
South Uist Range,02/10/2019 15:00,11.4,7,,,0,,61,,340,Dry,1022,8,60,,,,4.3,
South Uist Range,02/10/2019 16:00,11.6,8,,,0,,62,,340,Dry,1021,7,75,,,,4.7,
South Uist Range,02/10/2019 17:00,9.7,8,,,0,,74,,360,Dry,1021,6,75,,,,5.4,
South Uist Range,02/10/2019 18:00,9.4,7,,12,0,0,73,,360,Dry,1022,8,75,,,,5,
South Uist Range,02/10/2019 19:00,8.1,5,,,0,,80,,30,Dry,1022,3,75,,,,5,
South Uist Range,02/10/2019 20:00,8.3,5,,,0,,87,,50,Dry,1022,1,70,,,,6.4,
South Uist Range,02/10/2019 21:00,8.2,5,,,0,,87,,30,Dry,1022,,70,,,,6.2,
South Uist Range,02/10/2019 22:00,5.2,5,,,0,,86,,110,Dry,1021,2,75,,,,3.2,
South Uist Range,02/10/2019 23:00,6.8,5,,,0,,92,,100,Dry,1021,8,75,,,,5.7,
South Uist Range,03/10/2019 00:00,7,5,,,0,0,95,,100,Dry,1020,,75,,,,6.3,
South Uist Range,03/10/2019 01:00,7.6,6,,,0,,92,,120,Dry,1020,,70,,,,6.4,
South Uist Range,03/10/2019 02:00,9,10,,,0,,86,,100,Dry,1019,4,75,,,,6.8,
South Uist Range,03/10/2019 03:00,8.1,8,,,0,,85,,110,Dry,1018,1,75,,,,5.9,
South Uist Range,03/10/2019 04:00,7.6,8,,,0,,87,,120,Dry,1017,1,75,,,,5.6,
South Uist Range,03/10/2019 05:00,9.3,14,,,0,,76,,120,Dry,1016,,75,,,,5.3,
South Uist Range,03/10/2019 06:00,9.5,15,5.1,,0,0,77,,120,-,1015,1,75,,,,5.8,
South Uist Range,03/10/2019 07:00,9.6,18,,,0,,78,,120,Dry,1014,1,75,,,,6,
South Uist Range,03/10/2019 08:00,9.8,20,,,0,,73,29,130,Dry,1013,,75,,,,5.2,
South Uist Range,03/10/2019 09:00,10.2,17,,,0,,71,30,130,Dry,1013,,75,,,,5.2,
South Uist Range,03/10/2019 10:00,10.1,24,,,0,,73,36,130,Dry,1011,,70,,,,5.5,
South Uist Range,03/10/2019 11:00,10.5,29,,,0,,69,37,130,Dry,1010,,75,,,,5.1,
South Uist Range,03/10/2019 12:00,10.5,33,,,0,0,65,46,130,Dry,1008,,75,,,,4.4,
South Uist Range,03/10/2019 13:00,10.7,33,,,0,,67,44,120,Dry,1007,,65,,,,5,
South Uist Range,03/10/2019 14:00,11.2,30,,,0,,61,46,120,Dry,1006,1,75,,,,4.1,
South Uist Range,03/10/2019 15:00,11.3,29,,,0,,57,41,120,Dry,1004,,75,,,,3.2,
South Uist Range,03/10/2019 16:00,11.4,24,,,0,,57,41,120,Dry,1002,8,75,,,,3.2,
South Uist Range,03/10/2019 17:00,11.6,29,,,0,,58,47,120,Dry,1001,8,75,,,,3.8,
South Uist Range,03/10/2019 18:00,11.7,32,,11.8,0,0,60,44,120,Dry,1000,3,75,,,,4.3,
South Uist Range,03/10/2019 19:00,9.6,29,,,1.4,,84,51,120,Light shower,999,7,7,,,,7.2,
South Uist Range,03/10/2019 20:00,9.1,33,,,1,,88,45,110,Moderate rain,998,7,4,,,,7.3,
South Uist Range,03/10/2019 21:00,9.6,28,,,0.6,,85,41,110,Moderate rain,998,7,6,,,,7.3,
South Uist Range,03/10/2019 22:00,9.3,31,,,0.6,,90,41,100,Moderate rain,998,1,4,,,,7.9,
South Uist Range,03/10/2019 23:00,9.4,31,,,0.6,,90,39,100,Moderate rain,998,2,5,,,,7.9,
South Uist Range,04/10/2019 00:00,9.9,26,,,0.8,5,91,40,100,Moderate rain,998,3,3,,,,8.6,
South Uist Range,04/10/2019 01:00,10.4,16,,,0.4,,87,,90,Rain,998,1,60,,,,8.4,
South Uist Range,04/10/2019 02:00,10.4,8,,,0,,89,,60,Rain,998,8,17,,,,8.7,
South Uist Range,04/10/2019 03:00,10.6,16,,,0,,85,,60,Dry,999,7,30,,,,8.3,
South Uist Range,04/10/2019 04:00,10.8,16,,,0,,80,,70,Dry,999,3,75,,,,7.5,
South Uist Range,04/10/2019 05:00,10.4,17,,,0,,80,,70,Dry,1000,5,75,,,,7.2,
South Uist Range,04/10/2019 06:00,10,18,8.9,,0,0,83,,70,Dry,1001,1,75,,,,7.3,
South Uist Range,04/10/2019 07:00,10.5,17,,,0,,80,,70,Dry,1002,,75,,,,7.3,
South Uist Range,04/10/2019 08:00,11.5,21,,,0,,78,,80,Dry,1003,,75,,,,7.9,
South Uist Range,04/10/2019 09:00,11.7,21,,,0,,76,,80,Dry,1004,0,75,,,,7.8,
South Uist Range,04/10/2019 10:00,12.2,17,,,0,,73,,80,Dry,1006,,75,,,,7.7,
South Uist Range,04/10/2019 11:00,12.7,18,,,0,,71,,70,Dry,1007,,75,,,,7.7,
South Uist Range,04/10/2019 12:00,12.9,21,,,0,0,70,,70,-,1007,,75,,,,7.6,
South Uist Range,04/10/2019 13:00,13.7,17,,,0,,73,,80,Dry,1008,,75,,,,9.1,
South Uist Range,04/10/2019 14:00,14.2,18,,,0,,66,,100,Dry,1008,,75,,,,8,
South Uist Range,04/10/2019 15:00,14.3,14,,,0,,64,,100,Dry,1009,0,75,,,,7.7,
South Uist Range,04/10/2019 16:00,13.9,14,,,0,,68,,110,Dry,1009,,75,,,,8.1,
South Uist Range,04/10/2019 17:00,11.7,8,,,0,,81,,120,Dry,1010,,75,,,,8.6,
South Uist Range,04/10/2019 18:00,10.8,7,,14.7,0,0,87,,120,Dry,1010,,75,,,,8.8,
South Uist Range,04/10/2019 19:00,10.4,8,,,0,,89,,130,Dry,1011,,75,,,,8.7,
South Uist Range,04/10/2019 20:00,10.7,8,,,0,,91,,120,Dry,1010,,75,,,,9.3,
South Uist Range,04/10/2019 21:00,12,9,,,0,,82,,130,Dry,1011,4,75,,,,9.2,
South Uist Range,04/10/2019 22:00,12,12,,,0,,82,,130,Dry,1011,1,65,,,,9.1,
South Uist Range,04/10/2019 23:00,12.1,16,,,0,,75,,130,Dry,1011,2,75,,,,7.9,
South Uist Range,05/10/2019 00:00,12.2,16,,,0,0,74,,140,Dry,1011,8,75,,,,7.8,
South Uist Range,05/10/2019 01:00,11.9,16,,,0,,73,,130,Dry,1011,6,75,,,,7.4,
South Uist Range,05/10/2019 02:00,11.5,16,,,0,,76,,120,Dry,1010,,75,,,,7.5,
South Uist Range,05/10/2019 03:00,12,20,,,0,,76,,140,Dry,1010,8,70,,,,8,
South Uist Range,05/10/2019 04:00,12,22,,,0,,75,30,130,Dry,1009,7,75,,,,7.8,
South Uist Range,05/10/2019 05:00,12.1,23,,,0,,76,33,140,Dry,1009,4,70,,,,8.1,
South Uist Range,05/10/2019 06:00,12.2,23,9.6,,0,0,78,35,130,Dry,1009,5,65,,,,8.5,
South Uist Range,05/10/2019 07:00,11.9,23,,,0,,85,31,140,Dry,1010,7,65,,,,9.5,
South Uist Range,05/10/2019 08:00,11.5,16,,,0,,89,40,140,Rain,1009,5,40,,,,9.8,
South Uist Range,05/10/2019 09:00,11.5,28,,,0.2,,89,39,150,Drizzly rain,1009,,17,,,,9.8,
South Uist Range,05/10/2019 10:00,11.7,28,,,0,,85,40,140,Rain,1009,7,30,,,,9.4,
South Uist Range,05/10/2019 11:00,11.7,26,,,0,,85,37,140,Rain,1009,7,20,,,,9.4,
South Uist Range,05/10/2019 12:00,11.4,25,,,0.4,0.6,87,38,130,Rain,1008,8,30,,,,9.4,
South Uist Range,05/10/2019 13:00,11.8,28,,,0,,85,38,130,Dry,1008,8,24,,,,9.4,
South Uist Range,05/10/2019 14:00,12.3,32,,,0,,81,44,140,Dry,1007,8,35,,,,9.3,
South Uist Range,05/10/2019 15:00,11.7,29,,,0,,89,46,140,Rain,1007,1,6,,,,10.1,
South Uist Range,05/10/2019 16:00,11.6,29,,,0.4,,91,41,130,Rain,1006,1,9,,,,10.3,
South Uist Range,05/10/2019 17:00,11.8,28,,,0.8,,92,45,130,Rain,1006,2,13,,,,10.6,
South Uist Range,05/10/2019 18:00,11.7,26,,12.4,0.6,1.4,93,39,140,Rain,1006,1,4,,,,10.7,
South Uist Range,05/10/2019 19:00,11.9,25,,,0.4,,92,43,140,Light shower,1006,1,6,,,,10.8,
South Uist Range,05/10/2019 20:00,12,24,,,0.6,,92,35,140,Rain,1006,4,13,,,,10.9,
South Uist Range,05/10/2019 21:00,11.8,21,,,0.4,,93,29,140,Rain,1005,5,7,,,,10.8,
South Uist Range,05/10/2019 22:00,11.9,22,,,0.4,,93,35,130,Light shower,1005,6,6,,,,10.9,
South Uist Range,05/10/2019 23:00,12,21,,,2.2,,92,31,140,Moderate rain,1004,3,7,,,,10.9,
South Uist Range,06/10/2019 00:00,11.9,20,,,3,7,94,31,140,Moderate rain,1004,1,7,,,,11.1,
South Uist Range,06/10/2019 01:00,12.1,14,,,2,,96,,150,Moderate rain,1004,1,2,,,,11.5,
South Uist Range,06/10/2019 02:00,12.1,7,,,2.6,,97,,260,Light rain,1004,7,5,,,,11.7,
South Uist Range,06/10/2019 03:00,12.6,12,,,0,,97,,300,Rain,1004,8,24,,,,12.2,
South Uist Range,06/10/2019 04:00,12.3,12,,,0,,96,,300,Dry,1005,2,21,,,,11.7,
South Uist Range,06/10/2019 05:00,12.5,14,,,0,,94,,300,Dry,1006,2,20,,,,11.7,
South Uist Range,06/10/2019 06:00,12.4,15,11.7,,0,5,94,,300,Dry,1006,1,17,,,,11.6,
South Uist Range,06/10/2019 07:00,11.6,18,,,0.4,,96,,320,Light shower,1007,1,4,,,,11,
South Uist Range,06/10/2019 08:00,12.5,15,,,0,,92,,300,Rain,1008,2,19,,,,11.3,
South Uist Range,06/10/2019 09:00,12.5,16,,,0,,91,,300,Dry,1009,1,17,,,,11.2,
South Uist Range,06/10/2019 10:00,12.7,15,,,0,,85,,310,Dry,1010,1,26,,,,10.3,
South Uist Range,06/10/2019 11:00,13.2,15,,,0,,80,,310,Dry,1010,7,30,,,,10,
South Uist Range,06/10/2019 12:00,13.7,10,,,0,0.4,79,,330,Dry,1010,1,35,,,,10.2,
South Uist Range,06/10/2019 13:00,13.4,9,,,0,,79,,300,Dry,1011,6,35,,,,10,
South Uist Range,06/10/2019 14:00,13.7,6,,,0,,75,,280,Dry,1011,2,35,,,,9.4,
South Uist Range,06/10/2019 15:00,13.4,8,,,0,,81,,240,Dry,1012,6,30,,,,10.3,
South Uist Range,06/10/2019 16:00,13,13,,,0,,82,,240,Dry,1013,1,35,,,,10.1,
South Uist Range,06/10/2019 17:00,11.1,5,,,0,,89,,140,Dry,1012,1,29,,,,9.5,
South Uist Range,06/10/2019 18:00,9.8,7,,14.2,0,0,90,,140,Dry,1012,,45,,,,8.3,
South Uist Range,06/10/2019 19:00,11.7,12,,,0,,87,,160,Dry,1011,7,40,,,,9.7,
South Uist Range,06/10/2019 20:00,11.6,16,,,0,,90,,160,Dry,1010,1,75,,,,10.1,
South Uist Range,06/10/2019 21:00,11.9,21,,,0,,85,38,160,Dry,1009,4,70,,,,9.6,
South Uist Range,06/10/2019 22:00,11.8,26,,,0,,83,37,140,Dry,1008,6,75,,,,9.1,
South Uist Range,06/10/2019 23:00,12,29,,,0,,82,44,150,Dry,1007,5,75,,,,9.1,
South Uist Range,07/10/2019 00:00,12.2,35,,,0,0,82,47,150,Dry,1006,5,55,,,,9.3,
South Uist Range,07/10/2019 01:00,11.8,37,,,0.2,,88,54,150,Light shower,1004,4,10,,,,10,
South Uist Range,07/10/2019 02:00,12,40,,,0,,87,62,150,Rain,1001,4,23,,,,10,
South Uist Range,07/10/2019 03:00,12,36,,,0,,86,60,160,Haze,1000,2,8,,,,9.9,
South Uist Range,07/10/2019 04:00,10.2,43,,,1,,92,62,160,Light rain,999,1,2,,,,9.1,
South Uist Range,07/10/2019 05:00,10,40,,,1,,97,66,160,Light rain,998,1,2,,,,9.6,
South Uist Range,07/10/2019 06:00,11.2,36,9.4,,0.6,3,96,56,170,Rain,997,6,8,,,,10.7,
South Uist Range,07/10/2019 07:00,12,31,,,0,,96,49,180,Rain,996,3,10,,,,11.4,
South Uist Range,07/10/2019 08:00,12.2,30,,,2.6,,97,46,180,Light shower,996,5,18,,,,11.8,
South Uist Range,07/10/2019 09:00,12.1,26,,,0.2,,94,41,190,Rain,996,8,17,,,,11.3,
South Uist Range,07/10/2019 10:00,13.7,33,,,0,,86,45,200,Haze,996,6,8,,,,11.5,
South Uist Range,07/10/2019 11:00,13.4,30,,,0,,80,45,210,Haze,996,1,10,,,,10.1,
South Uist Range,07/10/2019 12:00,12.4,31,,,0.4,3,85,46,210,Moderate shower,996,3,8,,,,10.1,
South Uist Range,07/10/2019 13:00,12.8,32,,,0.6,,83,45,210,Rain,995,3,11,,,,10,
South Uist Range,07/10/2019 14:00,13.8,32,,,0,,77,44,210,Dry,995,7,10,,,,9.9,
South Uist Range,07/10/2019 15:00,13.5,33,,,0,,76,46,220,Dry,995,7,11,,,,9.5,
South Uist Range,07/10/2019 16:00,13.4,32,,,0,,78,43,210,Haze,994,7,9,,,,9.7,
South Uist Range,07/10/2019 17:00,13.1,32,,,0,,79,45,210,Dry,994,7,11,,,,9.6,
South Uist Range,07/10/2019 18:00,12.4,29,,14,0,1,87,41,220,Light shower,994,5,4,,,,10.3,
South Uist Range,07/10/2019 19:00,12.4,29,,,5.6,,88,41,210,Rain,993,4,8,,,,10.6,
South Uist Range,07/10/2019 20:00,12.7,33,,,0,,80,45,220,Dry,993,5,10,,,,9.5,
South Uist Range,07/10/2019 21:00,12.7,33,,,0,,80,44,220,Dry,992,1,11,,,,9.4,
South Uist Range,07/10/2019 22:00,12.5,33,,,0,,79,45,220,Dry,992,6,11,,,,9.1,
South Uist Range,07/10/2019 23:00,12.6,33,,,0,,81,45,220,Dry,992,6,10,,,,9.5,
South Uist Range,08/10/2019 00:00,12.3,33,,,0,6,79,44,220,Dry,991,6,12,,,,8.9,
South Uist Range,08/10/2019 01:00,12.3,33,,,0,,79,45,220,Dry,990,1,12,,,,8.8,
South Uist Range,08/10/2019 02:00,10.8,32,,,0.2,,79,45,220,Light shower,990,1,14,,,,7.4,
South Uist Range,08/10/2019 03:00,11.6,35,,,0,,71,44,220,Rain,989,1,18,,,,6.7,
South Uist Range,08/10/2019 04:00,11.8,32,,,0,,73,43,220,Dry,988,3,12,,,,7.2,
South Uist Range,08/10/2019 05:00,12,35,,,0,,77,47,220,Dry,987,5,12,,,,8.2,
South Uist Range,08/10/2019 06:00,12,33,10.3,,0,0,79,49,210,Dry,986,3,12,,,,8.5,
South Uist Range,08/10/2019 07:00,11,35,,,0.4,,91,51,210,Drizzly rain,986,1,4,,,,9.6,
South Uist Range,08/10/2019 08:00,11.8,38,,,2.6,,86,51,220,Rain,985,1,7,,,,9.6,
South Uist Range,08/10/2019 09:00,12.5,35,,,0,,84,52,220,Dry,985,3,11,,,,9.9,
South Uist Range,08/10/2019 10:00,11.9,36,,,0.4,,91,49,220,Rain,984,2,11,,,,10.5,
South Uist Range,08/10/2019 11:00,12.4,32,,,0.6,,89,43,230,Light shower,984,4,11,,,,10.8,
South Uist Range,08/10/2019 12:00,12.4,33,,,0,4,88,43,230,Rain,985,1,12,,,,10.5,
South Uist Range,08/10/2019 13:00,11.6,30,,,0.6,,89,45,240,Light shower,985,2,18,,,,9.9,
South Uist Range,08/10/2019 14:00,12.3,28,,,0,,85,39,230,Rain,985,4,13,,,,10,
South Uist Range,08/10/2019 15:00,12.4,29,,,0,,83,40,230,Rain,985,7,15,,,,9.7,
South Uist Range,08/10/2019 16:00,12.3,29,,,0,,81,43,240,Dry,985,1,18,,,,9.3,
South Uist Range,08/10/2019 17:00,11.7,29,,,0.2,,85,38,250,Rain,985,3,17,,,,9.4,
South Uist Range,08/10/2019 18:00,11.8,29,,12.9,0,1,85,38,240,Dry,985,4,15,,,,9.4,
South Uist Range,08/10/2019 19:00,11.6,35,,,0,,85,44,240,Haze,985,2,9,,,,9.3,
South Uist Range,08/10/2019 20:00,10.3,33,,,1.6,,89,52,250,Thickening fog,986,1,1,,,,8.7,
South Uist Range,08/10/2019 21:00,11.7,31,,,0,,82,46,260,Rain,986,3,11,,,,8.9,
South Uist Range,08/10/2019 22:00,12,29,,,0,,81,45,250,Dry,986,1,15,,,,9,
South Uist Range,08/10/2019 23:00,10.7,32,,,0,,89,45,240,Rain,986,4,5,,,,9,
South Uist Range,09/10/2019 00:00,11.8,30,,,0.2,2,81,45,250,Rain,986,2,19,,,,8.7,
South Uist Range,09/10/2019 01:00,11.1,32,,,0.2,,84,45,250,Dry,987,2,16,,,,8.6,
South Uist Range,09/10/2019 02:00,12,31,,,0,,78,46,240,Rain,986,5,17,,,,8.4,
South Uist Range,09/10/2019 03:00,11.5,32,,,0,,81,44,250,Dry,986,1,18,,,,8.4,
South Uist Range,09/10/2019 04:00,11.4,32,,,0,,82,45,250,Rain,986,4,18,,,,8.5,
South Uist Range,09/10/2019 05:00,11.8,31,,,0,,80,45,250,Rain,986,1,15,,,,8.6,
South Uist Range,09/10/2019 06:00,11.8,30,10.3,,0,0,81,45,250,Dry,986,4,15,,,,8.7,
South Uist Range,09/10/2019 07:00,11.4,30,,,0.2,,86,41,250,Dry,986,4,17,,,,9.3,
South Uist Range,09/10/2019 08:00,11.3,32,,,0,,85,44,260,Haze,986,6,4,,,,9,
South Uist Range,09/10/2019 09:00,11.1,33,,,0,,86,44,250,Dry,986,8,13,,,,8.9,
South Uist Range,09/10/2019 10:00,11.3,32,,,0.2,,87,45,260,Dry,987,1,16,,,,9.3,
South Uist Range,09/10/2019 11:00,10.8,36,,,0,,90,48,260,Haze,987,1,5,,,,9.3,
South Uist Range,09/10/2019 12:00,11.1,35,,,0,0.4,87,48,250,Rain,987,4,14,,,,9.1,
South Uist Range,09/10/2019 13:00,11.5,33,,,0.2,,87,47,250,Rain,987,5,17,,,,9.5,
South Uist Range,09/10/2019 14:00,11.9,31,,,0,,86,45,250,Dry,988,5,14,,,,9.8,
South Uist Range,09/10/2019 15:00,12.1,32,,,0.2,,88,48,250,Dry,988,2,16,,,,10.3,
South Uist Range,09/10/2019 16:00,11.9,32,,,0,,87,46,250,Dry,988,1,15,,,,9.9,
South Uist Range,09/10/2019 17:00,11.6,32,,,0,,90,47,250,Dry,988,1,14,,,,10.1,
South Uist Range,09/10/2019 18:00,11.7,31,,12.3,0,0.4,89,43,260,Dry,989,3,17,,,,10.1,
South Uist Range,09/10/2019 19:00,11.4,31,,,0.4,,92,44,260,Rain,989,6,11,,,,10.3,
South Uist Range,09/10/2019 20:00,11.9,26,,,1,,91,40,270,Rain,990,3,15,,,,10.5,
South Uist Range,09/10/2019 21:00,11.6,28,,,0.2,,89,37,280,Drizzle,990,4,28,,,,9.9,
South Uist Range,09/10/2019 22:00,11.5,24,,,0,,88,33,270,Dry,991,6,22,,,,9.7,
South Uist Range,09/10/2019 23:00,11,22,,,0.6,,92,35,280,Drizzly rain,992,1,17,,,,9.8,
South Uist Range,10/10/2019 00:00,10.5,22,,,1.8,4,92,33,290,Rain,992,3,6,,,,9.4,
South Uist Range,10/10/2019 01:00,10.8,21,,,0.4,,90,30,290,Rain,993,1,27,,,,9.3,
South Uist Range,10/10/2019 02:00,11.2,20,,,0,,82,,300,Rain,994,6,23,,,,8.4,
South Uist Range,10/10/2019 03:00,10.7,16,,,0,,80,,300,Dry,995,4,23,,,,7.5,
South Uist Range,10/10/2019 04:00,11.2,14,,,0,,83,,300,Dry,996,2,20,,,,8.5,
South Uist Range,10/10/2019 05:00,10.8,17,,,0,,73,,280,Dry,996,2,45,,,,6.3,
South Uist Range,10/10/2019 06:00,10.9,14,10.3,,0,0,74,,280,Dry,996,1,40,,,,6.6,
South Uist Range,10/10/2019 07:00,10.4,12,,,0,,78,,270,Dry,997,1,35,,,,6.8,
South Uist Range,10/10/2019 08:00,11.1,13,,,0,,82,,250,Dry,997,1,35,,,,8.2,
South Uist Range,10/10/2019 09:00,10.3,10,,,0,,87,,280,Dry,997,6,55,,,,8.3,
South Uist Range,10/10/2019 10:00,10.9,7,,,0,,88,,220,Dry,997,4,45,,,,9,
South Uist Range,10/10/2019 11:00,11.4,15,,,0.2,,83,,220,Rain,996,1,70,,,,8.7,
South Uist Range,10/10/2019 12:00,11.6,13,,,0,0.2,88,,240,Dry,996,4,50,,,,9.7,
South Uist Range,10/10/2019 13:00,12.5,14,,,0,,75,,210,Dry,995,1,30,,,,8.3,
South Uist Range,10/10/2019 14:00,11.2,17,,,0,,89,,210,Dry,994,6,19,,,,9.5,
South Uist Range,10/10/2019 15:00,10.1,13,,,0.8,,92,,170,Light shower,993,1,10,,,,9,
South Uist Range,10/10/2019 16:00,9.9,14,,,1.4,,90,,150,Light rain,992,3,12,,,,8.5,
South Uist Range,10/10/2019 17:00,10.6,16,,,1.8,,93,,150,Light rain,990,7,15,,,,9.6,
South Uist Range,10/10/2019 18:00,11.5,18,,12.8,0.6,4.8,94,,190,Rain,989,3,26,,,,10.6,
South Uist Range,10/10/2019 19:00,12.2,23,,,0.6,,93,33,210,Rain,988,7,9,,,,11.2,
South Uist Range,10/10/2019 20:00,12.3,21,,,0.2,,93,33,220,Rain,988,5,13,,,,11.3,
South Uist Range,10/10/2019 21:00,12.1,24,,,0,,90,31,230,Dry,988,1,18,,,,10.6,
South Uist Range,10/10/2019 22:00,11.9,21,,,0,,88,31,220,Haze,988,1,9,,,,10,
South Uist Range,10/10/2019 23:00,11.7,22,,,2.4,,88,39,220,Rain,988,1,19,,,,9.9,
South Uist Range,11/10/2019 00:00,10.8,24,,,0.6,4,94,32,210,Moderate shower,988,3,1,,,,9.9,
South Uist Range,11/10/2019 01:00,11.4,24,,,0.8,,89,31,210,Rain,987,1,18,,,,9.7,
South Uist Range,11/10/2019 02:00,11.2,23,,,0,,91,35,200,Dry,986,1,9,,,,9.9,
South Uist Range,11/10/2019 03:00,11.5,31,,,0,,89,40,230,Rain,985,8,5,,,,9.9,
South Uist Range,11/10/2019 04:00,11.6,29,,,0.6,,86,46,230,Dry,985,4,23,,,,9.5,
South Uist Range,11/10/2019 05:00,11.6,29,,,0,,84,38,230,Dry,985,4,24,,,,9,
South Uist Range,11/10/2019 06:00,11.7,32,10.6,,0,1,79,41,230,Dry,985,3,26,,,,8.3,
South Uist Range,11/10/2019 07:00,11.3,32,,,0.2,,84,43,230,Dry,985,1,23,,,,8.8,
South Uist Range,11/10/2019 08:00,11.6,30,,,0,,85,40,230,Haze,986,1,19,,,,9.3,
South Uist Range,11/10/2019 09:00,11.4,28,,,0.4,,85,35,240,Rain,986,8,28,,,,9.1,
South Uist Range,11/10/2019 10:00,11.9,17,,,0.2,,89,35,260,Rain,987,1,35,,,,10.2,
South Uist Range,11/10/2019 11:00,11.6,16,,,0,,83,,260,Dry,988,3,40,,,,8.9,
South Uist Range,11/10/2019 12:00,11.7,18,,,0,0.8,82,,260,Dry,988,2,45,,,,8.9,
South Uist Range,11/10/2019 13:00,11.4,22,,,0,,85,,260,Dry,988,5,55,,,,9.1,
South Uist Range,11/10/2019 14:00,10.4,23,,,0.2,,95,30,280,Misty,988,2,1,,,,9.7,
South Uist Range,11/10/2019 15:00,10.6,13,,,6,,98,33,310,Moderate rain,989,7,15,,,,10.3,
South Uist Range,11/10/2019 16:00,9.7,23,,,0,,95,33,320,Rain,990,4,3,,,,9,
South Uist Range,11/10/2019 17:00,9.9,20,,,0.2,,86,32,320,Rain,991,1,35,,,,7.8,
South Uist Range,11/10/2019 18:00,10.1,18,,12.3,0,6.2,79,,310,Rain,992,3,35,,,,6.8,
South Uist Range,11/10/2019 19:00,10.4,16,,,0,,70,,300,Rain,993,2,65,,,,5.2,
South Uist Range,11/10/2019 20:00,10.4,17,,,0,,72,,290,Dry,994,1,65,,,,5.7,
South Uist Range,11/10/2019 21:00,10.1,15,,,0,,83,,300,Dry,994,8,45,,,,7.5,
South Uist Range,11/10/2019 22:00,10.6,17,,,0,,74,,290,Dry,995,5,60,,,,6.2,
South Uist Range,11/10/2019 23:00,10.5,20,,,0,,74,,260,Dry,995,1,50,,,,6.1,
South Uist Range,12/10/2019 00:00,10.2,20,,,0,0,79,,270,Dry,996,4,65,,,,6.8,
South Uist Range,12/10/2019 01:00,10.1,21,,,0,,81,29,260,Dry,996,1,40,,,,7.1,
South Uist Range,12/10/2019 02:00,10.8,22,,,0,,74,,250,Rain,996,1,45,,,,6.4,
South Uist Range,12/10/2019 03:00,10.6,22,,,0,,76,29,250,Dry,996,7,45,,,,6.6,
South Uist Range,12/10/2019 04:00,9.9,22,,,0.2,,89,30,250,Rain,996,6,22,,,,8.3,
South Uist Range,12/10/2019 05:00,9.8,21,,,1.4,,92,35,250,Rain,996,1,20,,,,8.6,
South Uist Range,12/10/2019 06:00,9.8,22,8.8,,0.2,2,90,29,240,Rain,996,1,30,,,,8.4,
South Uist Range,12/10/2019 07:00,10.3,22,,,0,,84,29,250,Dry,996,1,40,,,,7.8,
South Uist Range,12/10/2019 08:00,10.3,21,,,0,,86,30,260,Dry,997,4,30,,,,8.2,
South Uist Range,12/10/2019 09:00,10.1,17,,,0.6,,91,,250,Light shower,998,1,14,,,,8.8,
South Uist Range,12/10/2019 10:00,10.3,16,,,0,,87,,230,Rain,998,3,55,,,,8.3,
South Uist Range,12/10/2019 11:00,11.3,18,,,0,,84,,240,Dry,998,1,60,,,,8.8,
South Uist Range,12/10/2019 12:00,11.5,20,,,0,0.6,80,,240,Dry,999,1,70,,,,8.2,
South Uist Range,12/10/2019 13:00,11.7,18,,,0,,77,,250,Dry,999,7,70,,,,7.9,
South Uist Range,12/10/2019 14:00,12.1,17,,,0,,77,,250,Dry,999,1,70,,,,8.3,
South Uist Range,12/10/2019 15:00,11.3,14,,,0,,80,,260,Dry,999,3,65,,,,8,
South Uist Range,12/10/2019 16:00,11.5,10,,,0.2,,82,,250,Rain,999,1,50,,,,8.7,
South Uist Range,12/10/2019 17:00,10.8,14,,,0,,79,,240,Dry,999,1,75,,,,7.4,
South Uist Range,12/10/2019 18:00,10,12,,12.5,0,0.2,80,,250,Dry,1000,,60,,,,6.8,
South Uist Range,12/10/2019 19:00,9.6,9,,,0,,80,,250,Dry,1000,,50,,,,6.5,
South Uist Range,12/10/2019 20:00,8.3,6,,,0,,86,,200,Dry,1000,1,50,,,,6.2,
South Uist Range,12/10/2019 21:00,8.5,9,,,0,,91,,170,Dry,1001,5,21,,,,7.2,
South Uist Range,12/10/2019 22:00,7.3,5,,,0,,86,,170,Rain,1001,6,75,,,,5.2,
South Uist Range,12/10/2019 23:00,7.6,5,,,0,,92,,170,Rain,1001,3,75,,,,6.5,
South Uist Range,13/10/2019 00:00,6.5,10,,,0,0,94,,170,Dry,1001,2,75,,,,5.7,
South Uist Range,13/10/2019 01:00,6.2,9,,,0,,95,,160,Dry,1001,,75,,,,5.6,
South Uist Range,13/10/2019 02:00,5.8,9,,,0.2,,95,,160,Dry,1001,,75,,,,5.1,
South Uist Range,13/10/2019 03:00,5.7,8,,,0,,95,,170,Dry,1001,,75,,,,5.1,
South Uist Range,13/10/2019 04:00,5.6,6,,,0,,95,,120,Dry,1000,,75,,,,5,
South Uist Range,13/10/2019 05:00,6.2,6,,,0,,93,,120,Dry,1000,,75,,,,5.3,
South Uist Range,13/10/2019 06:00,7,5,5.2,,0,0.2,91,,140,Dry,1000,,75,,,,5.7,
South Uist Range,13/10/2019 07:00,6.4,3,,,0,,93,,100,Dry,1000,3,75,,,,5.4,
South Uist Range,13/10/2019 08:00,6.7,3,,,0,,95,,110,Dry,1000,1,75,,,,6.1,
South Uist Range,13/10/2019 09:00,7.5,6,,,0,,96,,110,Dry,1001,4,75,,,,7,
South Uist Range,13/10/2019 10:00,9.7,6,,,4.2,,83,,330,Moderate shower,1001,5,5,,,,7.1,
South Uist Range,13/10/2019 11:00,11,3,,,0.8,,89,,60,Rain,1001,2,75,,,,9.3,
South Uist Range,13/10/2019 12:00,11.7,9,,,0.2,5,82,,160,Rain,1001,1,75,,,,8.9,
South Uist Range,13/10/2019 13:00,11.5,5,,,0,,76,,310,Dry,1000,4,75,,,,7.6,
South Uist Range,13/10/2019 14:00,11.1,3,,,0,,83,,20,Dry,1000,1,75,,,,8.4,
South Uist Range,13/10/2019 15:00,11.3,9,,,0,,84,,110,Dry,1000,7,75,,,,8.8,
South Uist Range,13/10/2019 16:00,11.1,6,,,0,,85,,120,Dry,1000,,75,,,,8.7,
South Uist Range,13/10/2019 17:00,9.7,5,,,0,,91,,100,Dry,1001,,75,,,,8.4,
South Uist Range,13/10/2019 18:00,8.3,5,,12.3,0,0,93,,110,Dry,1001,,75,,,,7.3,
South Uist Range,13/10/2019 19:00,8.2,0,,,0,,95,,0,Dry,1002,,55,,,,7.6,
South Uist Range,13/10/2019 20:00,8.2,1,,,0,,96,,160,Dry,1002,,75,,,,7.7,
South Uist Range,13/10/2019 21:00,7.9,5,,,0,,95,,140,Dry,1002,,75,,,,7.3,
South Uist Range,13/10/2019 22:00,7.6,7,,,0,,95,,160,Dry,1002,,75,,,,6.9,
South Uist Range,13/10/2019 23:00,8.1,8,,,0,,94,,170,Dry,1003,1,75,,,,7.2,
South Uist Range,14/10/2019 00:00,8.2,7,,,0,0,94,,160,Dry,1003,1,75,,,,7.4,
South Uist Range,14/10/2019 01:00,8.6,8,,,0,,94,,170,Light shower,1004,8,75,,,,7.7,
South Uist Range,14/10/2019 02:00,8.8,5,,,0.8,,95,,170,Light shower,1004,8,8,,,,8.1,
South Uist Range,14/10/2019 03:00,8.4,5,,,0.2,,96,,130,Rain,1004,8,35,,,,7.8,
South Uist Range,14/10/2019 04:00,7.9,5,,,0,,96,,140,Dry,1004,8,35,,,,7.4,
South Uist Range,14/10/2019 05:00,6.8,8,,,0,,95,,160,Dry,1004,5,35,,,,6.1,
South Uist Range,14/10/2019 06:00,6.9,9,6.1,,0,1,97,,170,Dry,1004,1,5,,,,6.5,
South Uist Range,14/10/2019 07:00,8.8,8,,,0,,93,,180,Rain,1004,5,40,,,,7.8,
South Uist Range,14/10/2019 08:00,8.8,10,,,0,,94,,170,Dry,1005,1,75,,,,7.9,
South Uist Range,14/10/2019 09:00,9.6,9,,,0,,90,,170,Dry,1005,1,75,,,,8.1,
South Uist Range,14/10/2019 10:00,10.4,8,,,0,,89,,160,Dry,1006,,75,,,,8.7,
South Uist Range,14/10/2019 11:00,10.9,9,,,0,,87,,170,Dry,1006,,75,,,,8.9,
South Uist Range,14/10/2019 12:00,11.4,8,,,0,0,86,,180,Dry,1006,1,75,,,,9.3,
South Uist Range,14/10/2019 13:00,11.6,8,,,0,,85,,180,Dry,1006,2,75,,,,9.3,
South Uist Range,14/10/2019 14:00,11.6,6,,,0,,82,,170,Rain,1006,1,75,,,,8.8,
South Uist Range,14/10/2019 15:00,12.2,14,,,0,,77,,180,Dry,1006,1,75,,,,8.3,
South Uist Range,14/10/2019 16:00,12,13,,,0,,78,,170,Dry,1005,1,75,,,,8.4,
South Uist Range,14/10/2019 17:00,10.8,10,,,0,,81,,180,Dry,1005,2,75,,,,7.8,
South Uist Range,14/10/2019 18:00,8,8,,12.7,0,0,89,,160,Dry,1006,1,75,,,,6.4,
South Uist Range,14/10/2019 19:00,7.3,7,,,0,,87,,140,Dry,1005,2,75,,,,5.4,
South Uist Range,14/10/2019 20:00,8.1,7,,,0,,85,,120,Dry,1005,1,75,,,,5.9,
South Uist Range,14/10/2019 21:00,9.7,10,,,0,,82,,140,Dry,1005,7,75,,,,6.9,
South Uist Range,14/10/2019 22:00,10.2,12,,,0,,81,,130,Dry,1004,6,75,,,,7.2,
South Uist Range,16/10/2019 04:00,11.8,26,,,1.8,,93,39,140,Light rain,990,8,5,,,,10.8,
South Uist Range,16/10/2019 05:00,10.4,16,,,4.6,,94,35,260,Light rain,991,1,4,,,,9.5,
South Uist Range,16/10/2019 06:00,10.7,15,10.2,,1,9,89,,250,Rain,992,1,24,,,,9,
South Uist Range,16/10/2019 07:00,10.5,14,,,0,,85,,240,Dry,992,1,25,,,,8.1,
South Uist Range,16/10/2019 08:00,10.6,15,,,0,,82,,240,Dry,993,1,28,,,,7.7,
South Uist Range,16/10/2019 09:00,10.9,13,,,0,,81,,230,Dry,994,1,22,,,,7.9,
South Uist Range,16/10/2019 10:00,12.3,15,,,0,,79,,220,Dry,994,1,25,,,,8.8,
South Uist Range,16/10/2019 11:00,12.7,14,,,0,,75,,220,Dry,994,,35,,,,8.5,
South Uist Range,16/10/2019 12:00,12.9,14,,,0,0,73,,220,Dry,995,1,35,,,,8.3,
South Uist Range,16/10/2019 13:00,13,16,,,0,,72,,210,Dry,995,1,40,,,,8.1,
South Uist Range,16/10/2019 14:00,12.7,16,,,0,,72,,210,Dry,996,2,40,,,,7.8,
South Uist Range,16/10/2019 15:00,12.3,16,,,0.2,,71,,200,Rain,996,,40,,,,7.3,
South Uist Range,16/10/2019 16:00,11.6,15,,,0,,75,,190,Dry,996,,35,,,,7.4,
South Uist Range,16/10/2019 17:00,10.1,13,,,0,,82,,190,Dry,996,2,50,,,,7.2,
South Uist Range,16/10/2019 18:00,8.3,10,,13.4,0.2,0.4,89,,180,Rain,996,2,50,,,,6.6,
South Uist Range,16/10/2019 19:00,8,10,,,0,,89,,170,Dry,997,1,40,,,,6.4,
South Uist Range,16/10/2019 20:00,7.8,12,,,0,,90,,160,Dry,997,1,45,,,,6.3,
South Uist Range,16/10/2019 21:00,8.1,12,,,0,,88,,160,Dry,997,,45,,,,6.3,
South Uist Range,16/10/2019 22:00,8.4,12,,,0,,84,,150,Dry,997,,50,,,,6,
South Uist Range,16/10/2019 23:00,9.8,13,,,0,,83,,150,Dry,996,1,55,,,,7.1,
South Uist Range,17/10/2019 00:00,9.6,18,,,0.2,0.2,80,29,150,Rain,996,1,70,,,,6.5,
South Uist Range,17/10/2019 01:00,10.8,15,,,0,,82,,160,Dry,996,1,35,,,,7.9,
South Uist Range,17/10/2019 02:00,10.5,17,,,0,,79,30,160,Dry,996,2,45,,,,7.2,
South Uist Range,17/10/2019 03:00,10.7,21,,,0,,78,30,160,Dry,995,2,40,,,,7.2,
South Uist Range,17/10/2019 04:00,10.8,22,,,0,,80,30,160,Dry,995,4,35,,,,7.6,
South Uist Range,17/10/2019 05:00,10.4,18,,,0,,81,29,160,Dry,995,5,35,,,,7.4,
South Uist Range,17/10/2019 06:00,10.6,21,7.5,,0,0,82,30,160,Dry,995,2,30,,,,7.7,
South Uist Range,17/10/2019 07:00,10.6,18,,,0,,83,31,160,Dry,995,5,30,,,,8,
South Uist Range,17/10/2019 08:00,11,25,,,0,,80,35,150,Dry,995,6,35,,,,7.8,
South Uist Range,17/10/2019 09:00,11.4,22,,,0,,80,33,150,Dry,995,5,35,,,,8.1,
South Uist Range,17/10/2019 10:00,12.1,24,,,0,,77,35,150,Dry,995,4,40,,,,8.3,
South Uist Range,17/10/2019 11:00,11.8,23,,,0,,77,33,150,Dry,995,2,35,,,,8,
South Uist Range,17/10/2019 12:00,12.6,22,,,0,0,80,36,140,Rain,995,1,30,,,,9.3,
South Uist Range,17/10/2019 13:00,11.2,22,,,0.2,,88,32,140,Rain,995,2,4,,,,9.4,
South Uist Range,17/10/2019 14:00,12.5,22,,,0,,78,32,140,Rain,995,2,40,,,,8.9,
South Uist Range,17/10/2019 15:00,12.5,22,,,0,,78,30,130,Dry,994,4,45,,,,8.8,
South Uist Range,17/10/2019 16:00,12.1,21,,,0,,80,29,130,Dry,994,2,55,,,,8.8,
South Uist Range,17/10/2019 17:00,11.7,21,,,0,,80,33,130,Dry,994,3,55,,,,8.5,
South Uist Range,17/10/2019 18:00,11.3,22,,12.9,0,0.2,81,29,130,Dry,994,1,65,,,,8.2,
South Uist Range,17/10/2019 19:00,11.1,20,,,0,,81,29,130,Dry,994,,60,,,,8.1,
South Uist Range,17/10/2019 20:00,11.2,17,,,0,,76,,120,Dry,994,1,75,,,,7.3,
South Uist Range,17/10/2019 21:00,11.2,16,,,0,,77,,120,Dry,994,4,75,,,,7.4,
South Uist Range,17/10/2019 22:00,11.2,15,,,0,,80,,120,Rain,994,3,75,,,,8,
South Uist Range,17/10/2019 23:00,9.8,7,,,1,,92,,100,Rain,994,5,65,,,,8.6,
South Uist Range,18/10/2019 00:00,10,9,,,0,1,86,,60,Dry,994,2,75,,,,7.9,
South Uist Range,18/10/2019 01:00,10.8,12,,,0,,83,,80,Dry,994,7,75,,,,8.2,
South Uist Range,18/10/2019 02:00,9.9,3,,,0,,87,,110,Dry,994,7,75,,,,7.9,
South Uist Range,18/10/2019 03:00,9.9,1,,,0,,89,,60,Dry,994,6,75,,,,8.2,
South Uist Range,18/10/2019 04:00,10.9,9,,,0,,84,,80,Dry,994,4,75,,,,8.4,
South Uist Range,18/10/2019 05:00,9.9,7,,,0,,89,,120,Dry,994,3,70,,,,8.2,
South Uist Range,18/10/2019 06:00,8.7,6,8.7,,0,0,90,,120,Dry,994,1,75,,,,7.2,
South Uist Range,18/10/2019 07:00,9.2,3,,,0,,91,,100,Dry,994,7,75,,,,7.9,
South Uist Range,18/10/2019 08:00,9,1,,,0,,93,,40,Dry,995,6,75,,,,8,
South Uist Range,18/10/2019 09:00,9.4,1,,,0.2,,94,,300,Light shower,995,8,30,,,,8.6,
South Uist Range,18/10/2019 10:00,11,5,,,0.2,,86,,20,Rain,996,8,70,,,,8.9,
South Uist Range,18/10/2019 11:00,12,7,,,0,,77,,10,Dry,995,3,75,,,,8.1,
South Uist Range,18/10/2019 12:00,11.6,8,,,0,0.4,79,,360,Dry,996,3,75,,,,8.2,
South Uist Range,18/10/2019 13:00,11.4,8,,,2,,87,,350,Rain,996,3,65,,,,9.4,
South Uist Range,18/10/2019 14:00,12.1,13,,,0,,77,,50,Dry,996,4,75,,,,8.3,
South Uist Range,18/10/2019 15:00,11.7,17,,,0,,80,,50,Dry,996,1,75,,,,8.5,
South Uist Range,18/10/2019 16:00,11.4,16,,,0,,84,,40,Dry,996,1,75,,,,8.8,
South Uist Range,18/10/2019 17:00,10.7,13,,,0,,86,,40,Dry,997,5,75,,,,8.6,
South Uist Range,18/10/2019 18:00,9.7,14,,12.2,0,1.6,89,,20,Dry,997,5,75,,,,8,
South Uist Range,18/10/2019 19:00,10,15,,,0,,90,,10,Light shower,998,1,8,,,,8.6,
South Uist Range,18/10/2019 20:00,10.1,15,,,0,,89,,20,Rain,998,7,75,,,,8.5,
South Uist Range,18/10/2019 21:00,10.4,17,,,0,,86,,20,Dry,998,7,75,,,,8.3,
South Uist Range,18/10/2019 22:00,10.3,16,,,0,,90,,10,Dry,999,1,45,,,,8.8,
South Uist Range,18/10/2019 23:00,10.7,15,,,0,,87,,20,Dry,999,2,40,,,,8.7,
South Uist Range,19/10/2019 00:00,10.3,18,,,0,0,85,,30,Dry,1000,1,45,,,,8,
South Uist Range,19/10/2019 01:00,10,22,,,0,,83,,30,Dry,1000,,45,,,,7.4,
South Uist Range,19/10/2019 02:00,9.6,20,,,0,,85,,30,Dry,1001,,40,,,,7.3,
South Uist Range,19/10/2019 03:00,9.1,17,,,0,,86,,20,Dry,1001,,45,,,,7,
South Uist Range,19/10/2019 04:00,9.1,16,,,0,,86,,30,Dry,1002,,45,,,,6.9,
South Uist Range,19/10/2019 05:00,8.9,16,,,0,,86,,20,Dry,1002,,45,,,,6.7,
South Uist Range,19/10/2019 06:00,9,20,8.5,,0,0,86,,20,Dry,1003,,50,,,,6.8,
South Uist Range,19/10/2019 07:00,8.9,18,,,0,,89,,10,Dry,1004,,40,,,,7.2,
South Uist Range,19/10/2019 08:00,9.1,15,,,0,,89,,10,Dry,1004,,35,,,,7.5,
South Uist Range,19/10/2019 09:00,9.7,14,,,0,,89,,10,Dry,1005,,35,,,,8,
South Uist Range,19/10/2019 10:00,11.2,15,,,0,,80,,20,Dry,1005,1,45,,,,7.9,
South Uist Range,19/10/2019 11:00,11.4,21,,,0,,79,,10,Dry,1006,1,75,,,,7.9,
South Uist Range,19/10/2019 12:00,11.6,21,,,0,0,81,,10,Dry,1006,1,45,,,,8.6,
South Uist Range,19/10/2019 13:00,11.7,22,,,0,,78,29,10,Dry,1006,3,75,,,,8.1,
South Uist Range,19/10/2019 14:00,10.9,24,,,0,,81,31,30,Dry,1007,5,23,,,,7.9,
South Uist Range,19/10/2019 15:00,10.9,23,,,0,,75,36,20,Dry,1008,7,40,,,,6.7,
South Uist Range,19/10/2019 16:00,10.1,23,,,0,,75,33,20,Dry,1008,1,40,,,,6,
South Uist Range,19/10/2019 17:00,9.3,22,,,0,,79,30,20,Dry,1009,5,50,,,,6,
South Uist Range,19/10/2019 18:00,9.3,18,,11.9,0,0,85,35,360,Dry,1010,6,35,,,,7,
South Uist Range,19/10/2019 19:00,9.5,20,,,0,,88,32,360,Dry,1010,2,35,,,,7.7,
South Uist Range,19/10/2019 20:00,9.1,20,,,0,,91,29,10,Dry,1010,1,50,,,,7.8,
South Uist Range,19/10/2019 21:00,9.2,23,,,0,,91,29,20,Rain,1012,1,55,,,,7.9,
South Uist Range,19/10/2019 22:00,8.9,15,,,0.2,,91,,20,Rain,1012,1,55,,,,7.6,
South Uist Range,19/10/2019 23:00,8.7,20,,,0,,86,,20,Dry,1013,4,50,,,,6.5,
South Uist Range,20/10/2019 00:00,8.2,16,,,0,0.2,84,,30,Dry,1014,2,35,,,,5.7,
South Uist Range,20/10/2019 01:00,8.5,17,,,0,,79,,30,Dry,1015,1,35,,,,5.2,
South Uist Range,20/10/2019 02:00,7.5,20,,,0,,81,30,20,Dry,1015,1,65,,,,4.6,
South Uist Range,20/10/2019 03:00,6.9,14,,,0,,84,,20,Dry,1016,1,55,,,,4.5,
South Uist Range,20/10/2019 04:00,6.9,15,,,0,,80,,10,Dry,1016,1,55,,,,3.7,
South Uist Range,20/10/2019 05:00,6.9,15,,,0,,81,,20,Dry,1017,3,70,,,,4,
South Uist Range,20/10/2019 06:00,6.7,16,6.4,,0,0,84,,20,Dry,1017,3,70,,,,4.2,
South Uist Range,20/10/2019 07:00,6.7,16,,,0,,84,,10,Dry,1018,3,70,,,,4.2,
South Uist Range,20/10/2019 08:00,7,14,,,0,,84,,20,Dry,1019,1,75,,,,4.6,
South Uist Range,20/10/2019 09:00,7.6,10,,,0,,81,,10,Dry,1020,2,70,,,,4.6,
South Uist Range,20/10/2019 10:00,8.9,17,,,0,,72,,10,Dry,1020,,70,,,,4.2,
South Uist Range,20/10/2019 11:00,9.3,18,,,0,,68,,20,Dry,1021,1,75,,,,3.9,
South Uist Range,20/10/2019 12:00,8.9,20,,,0,0,70,,10,Dry,1021,1,75,,,,3.8,
South Uist Range,20/10/2019 13:00,10,17,,,0,,64,,20,Dry,1022,6,75,,,,3.7,
South Uist Range,20/10/2019 14:00,9.5,16,,,0,,70,,10,Dry,1022,7,75,,,,4.4,
South Uist Range,20/10/2019 15:00,8.7,17,,,0,,73,,20,Dry,1023,7,75,,,,4.3,
South Uist Range,20/10/2019 16:00,8.5,15,,,0,,78,,30,Dry,1023,7,75,,,,4.9,
South Uist Range,20/10/2019 17:00,7.9,15,,,0,,77,,30,Dry,1023,7,75,,,,4.2,
South Uist Range,20/10/2019 18:00,6.4,10,,10.2,0,0,85,,20,Dry,1024,2,75,,,,4.1,
South Uist Range,20/10/2019 19:00,6.6,7,,,0,,88,,10,Dry,1024,7,75,,,,4.8,
South Uist Range,20/10/2019 20:00,7.3,8,,,0,,79,,40,Dry,1024,7,75,,,,4,
South Uist Range,20/10/2019 21:00,8.3,8,,,0,,65,,40,Dry,1025,8,75,,,,2.3,
South Uist Range,20/10/2019 22:00,8.1,8,,,0,,60,,50,Dry,1025,8,75,,,,1,
South Uist Range,20/10/2019 23:00,7.4,6,,,0,,73,,40,Dry,1025,8,75,,,,3,
South Uist Range,21/10/2019 00:00,5.5,3,,,0,0,72,,110,Dry,1025,8,75,,,,1,
South Uist Range,21/10/2019 01:00,6,3,,,0,,73,,150,Dry,1024,8,75,,,,1.7,
South Uist Range,21/10/2019 02:00,6.1,6,,,0,,79,,160,Dry,1024,8,75,,,,2.8,
South Uist Range,21/10/2019 03:00,6.7,8,,,0,,75,,150,Dry,1024,8,75,,,,2.7,
South Uist Range,21/10/2019 04:00,6.7,7,,,0,,77,,150,Dry,1024,8,75,,,,3.1,
South Uist Range,21/10/2019 05:00,6.6,8,,,0,,81,,180,Dry,1023,8,75,,,,3.7,
South Uist Range,21/10/2019 06:00,7.6,9,5.3,,0,0,75,,190,Dry,1023,8,75,,,,3.6,
South Uist Range,21/10/2019 07:00,8.7,13,,,0,,67,,230,Dry,1022,8,75,,,,3.1,
South Uist Range,21/10/2019 08:00,9,16,,,0,,68,,230,Dry,1022,8,75,,,,3.5,
South Uist Range,21/10/2019 09:00,9.2,17,,,0,,70,,230,Dry,1022,8,75,,,,4.1,
South Uist Range,21/10/2019 10:00,9.6,17,,,0,,69,,230,Dry,1022,8,75,,,,4.4,
South Uist Range,21/10/2019 11:00,8.9,23,,,0,,83,32,230,Dry,1021,1,75,,,,6.3,
South Uist Range,21/10/2019 12:00,9.3,23,,,0,0,84,31,230,Dry,1021,6,16,,,,6.8,
South Uist Range,21/10/2019 13:00,10.5,24,,,0,,78,32,220,Dry,1020,6,65,,,,7,
South Uist Range,21/10/2019 14:00,9.3,26,,,0,,88,33,220,Haze,1019,1,6,,,,7.5,
South Uist Range,21/10/2019 15:00,10.4,29,,,0,,77,39,220,Dry,1018,7,45,,,,6.7,
South Uist Range,21/10/2019 16:00,10,29,,,0,,84,41,220,Dry,1018,6,35,,,,7.5,
South Uist Range,21/10/2019 17:00,10.3,29,,,0,,84,38,220,Dry,1017,1,30,,,,7.8,
South Uist Range,21/10/2019 18:00,10.5,30,,10.7,0,0,82,38,220,Dry,1016,7,28,,,,7.7,
South Uist Range,21/10/2019 19:00,10.9,30,,,0,,79,43,230,Dry,1016,2,28,,,,7.5,
South Uist Range,21/10/2019 20:00,11,29,,,0,,82,40,220,Dry,1015,1,20,,,,8.2,
South Uist Range,21/10/2019 21:00,11.2,30,,,0,,81,39,220,Dry,1014,1,22,,,,8.2,
South Uist Range,21/10/2019 22:00,11.4,30,,,0,,84,40,220,Dry,1014,8,17,,,,8.8,
South Uist Range,21/10/2019 23:00,11.6,30,,,0,,84,39,220,Dry,1014,7,18,,,,9.1,
South Uist Range,22/10/2019 00:00,11.8,28,,,0,0,85,40,220,Dry,1013,2,15,,,,9.4,
South Uist Range,22/10/2019 01:00,11.9,29,,,0,,85,38,230,Dry,1012,4,15,,,,9.6,
South Uist Range,22/10/2019 02:00,11.9,30,,,0,,85,39,220,Dry,1012,2,15,,,,9.5,
South Uist Range,22/10/2019 03:00,11.8,29,,,0,,87,40,230,Haze,1011,5,5,,,,9.8,
South Uist Range,22/10/2019 04:00,11.5,28,,,0.8,,92,38,220,Drizzly rain,1011,7,5,,,,10.4,
South Uist Range,22/10/2019 05:00,11.7,31,,,0.2,,92,41,220,Rain,1010,8,7,,,,10.5,
South Uist Range,22/10/2019 06:00,11.7,30,10.5,,0,1,92,38,220,Haze,1010,8,3,,,,10.6,
South Uist Range,22/10/2019 07:00,11.8,29,,,0,,92,41,220,Dry,1010,6,15,,,,10.6,
South Uist Range,22/10/2019 08:00,11.9,28,,,0,,91,39,230,Dry,1010,4,13,,,,10.5,
South Uist Range,22/10/2019 09:00,12.2,28,,,0,,89,39,220,Dry,1010,2,17,,,,10.5,
South Uist Range,22/10/2019 10:00,12.1,26,,,0,,88,37,220,Dry,1011,3,19,,,,10.3,
South Uist Range,22/10/2019 11:00,12,28,,,0.2,,91,36,220,Rain,1011,3,17,,,,10.6,
South Uist Range,22/10/2019 12:00,12.7,28,,,0,0.2,88,39,220,Dry,1010,1,18,,,,10.9,
South Uist Range,22/10/2019 13:00,11.6,29,,,0.2,,95,41,210,Dry,1010,4,22,,,,10.9,
South Uist Range,22/10/2019 14:00,12,29,,,0.2,,91,39,210,Dry,1009,6,17,,,,10.7,
South Uist Range,22/10/2019 15:00,11.8,29,,,0,,91,40,220,Haze,1009,1,6,,,,10.4,
South Uist Range,22/10/2019 16:00,11.8,30,,,0.6,,91,38,220,Rain,1008,2,13,,,,10.4,
South Uist Range,22/10/2019 17:00,11.3,30,,,0.6,,96,43,210,Rain,1008,4,5,,,,10.8,
South Uist Range,22/10/2019 18:00,11.3,29,,12.8,0,1.8,96,41,210,Misty,1008,1,6,,,,10.7,
South Uist Range,22/10/2019 19:00,11.8,31,,,0,,92,43,210,Dry,1007,7,13,,,,10.6,
South Uist Range,22/10/2019 20:00,11.5,31,,,0.4,,97,43,210,Rain,1007,6,3,,,,11.1,
South Uist Range,22/10/2019 21:00,11.5,32,,,0.6,,97,43,210,Rain,1007,4,2,,,,11.1,
South Uist Range,22/10/2019 22:00,11.4,31,,,0.8,,98,41,210,Misty,1007,5,3,,,,11.1,
South Uist Range,22/10/2019 23:00,11.3,32,,,0.2,,98,44,210,Misty,1006,5,4,,,,11,
South Uist Range,23/10/2019 00:00,11.4,32,,,0,2,97,45,210,Misty,1006,6,8,,,,11,
South Uist Range,23/10/2019 01:00,11.6,31,,,0,,96,44,210,Dry,1006,7,11,,,,11,
South Uist Range,23/10/2019 02:00,11.5,29,,,0.4,,97,40,210,Light shower,1005,6,3,,,,11.1,
South Uist Range,23/10/2019 03:00,11.4,29,,,1.8,,98,39,200,Light rain,1004,5,5,,,,11.1,
South Uist Range,23/10/2019 04:00,11.3,28,,,1.4,,97,41,200,Moderate rain,1003,6,3,,,,10.9,
South Uist Range,23/10/2019 05:00,11.1,26,,,1.4,,98,39,190,Moderate rain,1003,4,4,,,,10.8,
South Uist Range,23/10/2019 06:00,10.8,26,10.8,,1.4,6,97,38,190,Light rain,1002,7,3,,,,10.4,
South Uist Range,23/10/2019 07:00,10.9,26,,,2.8,,97,36,180,Moderate rain,1001,1,7,,,,10.5,
South Uist Range,23/10/2019 08:00,11,25,,,3.2,,96,36,180,Moderate rain,1001,8,6,,,,10.5,
South Uist Range,23/10/2019 09:00,10.7,31,,,3.4,,96,41,180,Moderate rain,1000,8,6,,,,10.2,
South Uist Range,23/10/2019 10:00,10.9,31,,,2.2,,97,44,180,Moderate rain,1000,2,6,,,,10.5,
South Uist Range,23/10/2019 11:00,10.9,31,,,2.2,,98,44,180,Moderate rain,1000,3,6,,,,10.7,
South Uist Range,23/10/2019 12:00,11.1,30,,,1.6,15,98,41,180,Light shower,999,3,5,,,,10.8,
South Uist Range,23/10/2019 13:00,11,30,,,0.2,,98,40,180,Moderate shower,998,5,3,,,,10.8,
South Uist Range,23/10/2019 14:00,11,29,,,1.8,,99,40,180,Moderate rain,997,4,6,,,,10.9,
South Uist Range,23/10/2019 15:00,11.2,26,,,1.8,,98,38,180,Light rain,996,5,5,,,,11,
South Uist Range,23/10/2019 16:00,11.2,26,,,2,,99,39,180,Moderate rain,994,4,3,,,,11.1,
South Uist Range,23/10/2019 17:00,11.5,26,,,2,,98,37,190,Moderate rain,994,5,10,,,,11.3,
South Uist Range,23/10/2019 18:00,11.5,26,,11.7,1.4,10,98,38,190,Moderate rain,993,7,5,,,,11.3,
South Uist Range,23/10/2019 19:00,11.5,21,,,0.6,,96,35,230,Rain,993,3,30,,,,10.9,
South Uist Range,23/10/2019 20:00,11.5,21,,,0,,93,,220,Dry,993,1,29,,,,10.5,
South Uist Range,23/10/2019 21:00,11.4,23,,,0,,89,31,220,Dry,993,2,30,,,,9.8,
South Uist Range,23/10/2019 22:00,11.4,22,,,0,,93,30,210,Rain,993,1,23,,,,10.4,
South Uist Range,23/10/2019 23:00,11.2,24,,,0.4,,92,33,210,Rain,993,3,22,,,,10,
South Uist Range,24/10/2019 00:00,10.8,24,,,0,1,88,31,220,Dry,993,3,29,,,,8.9,
South Uist Range,24/10/2019 01:00,10.9,23,,,0,,87,31,210,Dry,993,3,23,,,,8.9,
South Uist Range,24/10/2019 02:00,11,24,,,0,,86,36,210,Rain,992,1,25,,,,8.8,
South Uist Range,24/10/2019 03:00,11.1,26,,,0,,85,37,210,Dry,992,5,26,,,,8.7,
South Uist Range,24/10/2019 04:00,10.9,28,,,0.2,,86,39,210,Rain,991,2,22,,,,8.7,
South Uist Range,24/10/2019 05:00,11.2,29,,,0,,82,40,210,Dry,991,3,23,,,,8.3,
South Uist Range,24/10/2019 06:00,10.1,30,10,,0.2,0,94,46,230,Rain,991,2,7,,,,9.3,
South Uist Range,24/10/2019 07:00,9.5,24,,,0.2,,84,36,250,Rain,992,2,45,,,,7,
South Uist Range,24/10/2019 08:00,9.1,24,,,0,,79,33,270,Dry,993,2,35,,,,5.7,
South Uist Range,24/10/2019 09:00,8.7,24,,,0,,74,35,280,Dry,995,1,50,,,,4.4,
South Uist Range,24/10/2019 10:00,8.8,24,,,0,,75,33,290,Dry,996,1,50,,,,4.7,
South Uist Range,24/10/2019 11:00,8.3,23,,,0,,72,33,300,Dry,998,1,50,,,,3.6,
South Uist Range,24/10/2019 12:00,7.8,23,,,0,0.2,71,31,300,Dry,998,1,45,,,,2.9,
South Uist Range,24/10/2019 13:00,8.4,20,,,0,,66,31,300,Dry,999,1,75,,,,2.6,
South Uist Range,24/10/2019 14:00,7.9,20,,,0,,67,31,300,Dry,1000,2,55,,,,2.2,
South Uist Range,24/10/2019 15:00,6.8,17,,,0,,75,,310,Light shower,1000,3,30,,,,2.7,
South Uist Range,24/10/2019 16:00,6,14,,,0,,76,30,310,Light shower,1001,4,45,,,,2.2,
South Uist Range,24/10/2019 17:00,5.9,20,,,0.4,,71,31,290,Rain,1001,1,45,,,,1.1,
South Uist Range,24/10/2019 18:00,6.4,25,,10.4,0,0.4,60,35,280,Rain,1002,1,45,,,,-0.7,
South Uist Range,24/10/2019 19:00,5.8,28,,,0,,56,35,270,Dry,1002,2,55,,,,-2.1,
South Uist Range,24/10/2019 20:00,6.2,23,,,0,,58,35,270,Dry,1002,2,70,,,,-1.4,
South Uist Range,24/10/2019 21:00,5.6,25,,,0,,59,36,270,Rain,1002,1,75,,,,-1.7,
South Uist Range,24/10/2019 22:00,5.7,24,,,0,,67,35,260,Light shower,1003,1,50,,,,0.2,
South Uist Range,24/10/2019 23:00,5.8,23,,,0,,73,48,240,Rain,1003,5,55,,,,1.5,
South Uist Range,25/10/2019 00:00,6.3,28,,,0,0,58,52,260,Dry,1002,,70,,,,-1.2,
South Uist Range,25/10/2019 01:00,5.7,26,,,0.2,,68,54,240,Rain,1002,1,60,,,,0.3,
South Uist Range,25/10/2019 02:00,6.1,31,,,0,,63,43,260,Rain,1002,1,45,,,,-0.3,
South Uist Range,25/10/2019 03:00,5.8,32,,,0,,66,46,240,Dry,1001,1,50,,,,0,
South Uist Range,25/10/2019 04:00,6.3,31,,,0,,57,41,250,Dry,1002,1,50,,,,-1.4,
South Uist Range,25/10/2019 05:00,6,31,,,0,,70,47,250,Rain,1002,4,9,,,,1,
South Uist Range,25/10/2019 06:00,6.6,30,3.5,,0,0.2,62,47,250,Rain,1002,1,45,,,,0,
South Uist Range,25/10/2019 07:00,7.2,31,,,0,,61,44,250,Rain,1002,2,40,,,,0.4,
South Uist Range,25/10/2019 08:00,7.4,32,,,0,,56,43,250,Dry,1002,4,45,,,,-0.7,
South Uist Range,25/10/2019 09:00,6.3,35,,,0.8,,72,47,240,Rain,1002,1,40,,,,1.7,
South Uist Range,25/10/2019 10:00,7.5,26,,,0,,65,47,240,Dry,1002,1,35,,,,1.5,
South Uist Range,25/10/2019 11:00,8.4,30,,,0,,55,41,240,Dry,1002,3,40,,,,0.1,
South Uist Range,25/10/2019 12:00,8.2,30,,,0,0.8,61,47,250,Rain,1002,1,35,,,,1.3,
South Uist Range,25/10/2019 13:00,8.1,26,,,0,,63,40,230,Light shower,1002,6,19,,,,1.7,
South Uist Range,25/10/2019 14:00,7.8,23,,,0,,67,45,250,Rain,1002,3,45,,,,2.2,
South Uist Range,25/10/2019 15:00,8.1,28,,,0,,61,38,250,Rain,1001,1,35,,,,1.2,
South Uist Range,25/10/2019 16:00,7.5,26,,,0,,66,37,260,Dry,1001,2,40,,,,1.6,
South Uist Range,25/10/2019 17:00,6.8,28,,,0,,74,37,270,Dry,1001,1,50,,,,2.5,
South Uist Range,25/10/2019 18:00,6.8,26,,8.9,0,0,69,39,270,Dry,1001,1,60,,,,1.6,
South Uist Range,25/10/2019 19:00,6.1,25,,,0,,79,32,260,Light shower,1001,1,11,,,,2.8,
South Uist Range,25/10/2019 20:00,7.1,21,,,0.2,,71,,250,Rain,1000,4,50,,,,2.4,
South Uist Range,25/10/2019 21:00,6.2,23,,,0,,81,38,240,Haze,1000,3,5,,,,3.3,
South Uist Range,25/10/2019 22:00,7.3,24,,,0.2,,64,32,270,Rain,1000,2,40,,,,1,
South Uist Range,25/10/2019 23:00,7.3,23,,,0.2,,77,39,260,Rain,1000,3,30,,,,3.6,
South Uist Range,26/10/2019 00:00,7.8,25,,,0,0.6,70,36,260,Dry,1000,2,35,,,,2.8,
South Uist Range,26/10/2019 01:00,7.8,29,,,0,,69,37,260,Dry,1000,2,50,,,,2.5,
South Uist Range,26/10/2019 02:00,7.4,28,,,0,,74,39,270,Dry,1000,1,40,,,,3.2,
South Uist Range,26/10/2019 03:00,7.6,30,,,0,,73,40,260,Dry,1000,2,45,,,,3.1,
South Uist Range,26/10/2019 04:00,6.9,28,,,0.2,,85,41,250,Rain,1000,2,25,,,,4.7,
South Uist Range,26/10/2019 05:00,7.5,28,,,0.4,,81,40,260,Rain,1000,5,40,,,,4.6,
South Uist Range,26/10/2019 06:00,6.8,23,5.7,,0.4,1.4,86,38,280,Light shower,1000,4,40,,,,4.7,
South Uist Range,26/10/2019 07:00,7.2,23,,,0.2,,77,32,270,Rain,1000,2,65,,,,3.6,
South Uist Range,26/10/2019 08:00,7.3,23,,,0.4,,82,32,270,Rain,1000,5,40,,,,4.5,
South Uist Range,26/10/2019 09:00,7,16,,,0,,84,32,270,Rain,1001,2,60,,,,4.5,
South Uist Range,26/10/2019 10:00,7.1,24,,,0.2,,76,32,280,Rain,1001,1,45,,,,3.3,
South Uist Range,26/10/2019 11:00,7.6,17,,,0,,78,29,300,Rain,1001,1,60,,,,4.1,
South Uist Range,26/10/2019 12:00,7.4,18,,,1.8,3,80,40,260,Rain,1001,2,75,,,,4.3,
South Uist Range,26/10/2019 13:00,6.4,26,,,0.4,,86,32,260,Light shower,1001,2,11,,,,4.3,
South Uist Range,26/10/2019 14:00,7.5,23,,,1.8,,81,33,280,Rain,1001,3,55,,,,4.6,
South Uist Range,26/10/2019 15:00,8.3,22,,,0,,74,32,290,Rain,1001,6,55,,,,4.1,
South Uist Range,26/10/2019 16:00,8.5,22,,,0,,77,32,290,Rain,1002,3,40,,,,4.8,
South Uist Range,26/10/2019 17:00,7.7,26,,,0.2,,81,38,290,Rain,1002,7,30,,,,4.7,
South Uist Range,26/10/2019 18:00,8.3,26,,8.8,0.2,2,76,38,300,Rain,1003,1,35,,,,4.5,
South Uist Range,26/10/2019 19:00,8.2,24,,,0,,74,36,310,Rain,1004,1,50,,,,3.9,
South Uist Range,26/10/2019 20:00,7.1,21,,,0.4,,84,37,320,Rain,1005,3,40,,,,4.6,
South Uist Range,26/10/2019 21:00,8.1,23,,,0,,77,35,300,Rain,1006,2,40,,,,4.4,
South Uist Range,26/10/2019 22:00,8.4,25,,,0,,76,36,300,Rain,1008,2,35,,,,4.5,
South Uist Range,26/10/2019 23:00,8.6,28,,,0,,66,38,300,Dry,1008,,45,,,,2.8,
South Uist Range,27/10/2019 00:00,8.6,24,,,0,0.4,73,43,300,Rain,1010,2,30,,,,4.1,
South Uist Range,27/10/2019 01:00,8.8,25,,,0,,66,40,310,Dry,1010,2,35,,,,2.9,
South Uist Range,27/10/2019 02:00,8.5,26,,,0.2,,69,38,300,Rain,1011,1,30,,,,3.3,
South Uist Range,27/10/2019 03:00,8.4,29,,,0,,71,39,290,Dry,1012,3,40,,,,3.5,
South Uist Range,27/10/2019 04:00,8.3,22,,,0.4,,78,39,300,Rain,1013,4,16,,,,4.7,
South Uist Range,27/10/2019 05:00,7.9,18,,,0.6,,86,38,300,Rain,1014,4,28,,,,5.8,
South Uist Range,27/10/2019 06:00,7.8,17,6.4,,0,1.6,80,36,330,Rain,1015,2,45,,,,4.6,
South Uist Range,27/10/2019 07:00,8.4,24,,,0.2,,71,33,310,Rain,1016,1,40,,,,3.5,
South Uist Range,27/10/2019 08:00,8.2,17,,,0,,77,37,310,Rain,1018,3,35,,,,4.5,
South Uist Range,27/10/2019 09:00,8.8,15,,,0,,74,29,330,Rain,1019,2,30,,,,4.5,
South Uist Range,27/10/2019 10:00,9,14,,,0.2,,74,36,320,Rain,1020,3,45,,,,4.7,
South Uist Range,27/10/2019 11:00,8.7,16,,,0.2,,75,,330,Rain,1021,1,40,,,,4.7,
South Uist Range,27/10/2019 12:00,9.3,14,,,0.2,0.8,70,,320,Dry,1022,1,40,,,,4.3,
South Uist Range,27/10/2019 13:00,8,14,,,0,,77,30,330,Rain,1023,4,55,,,,4.3,
South Uist Range,27/10/2019 14:00,9,16,,,0,,65,,320,Rain,1023,1,70,,,,2.8,
South Uist Range,27/10/2019 15:00,8.4,16,,,0,,69,29,330,Rain,1024,1,65,,,,3.1,
South Uist Range,27/10/2019 16:00,7.5,14,,,0,,72,,330,Dry,1024,1,65,,,,2.8,
South Uist Range,27/10/2019 17:00,6.6,12,,,0,,84,,350,Light shower,1025,1,22,,,,4.1,
South Uist Range,27/10/2019 18:00,6.4,12,,9.8,0.2,0.2,84,,360,Rain,1026,1,55,,,,3.9,
South Uist Range,27/10/2019 19:00,4.5,7,,,0,,88,,10,Rain,1026,,26,,,,2.8,
South Uist Range,27/10/2019 20:00,5.9,10,,,0,,90,,40,Dry,1027,2,55,,,,4.4,
South Uist Range,27/10/2019 21:00,4.8,5,,,0,,91,,40,Dry,1028,1,65,,,,3.6,
South Uist Range,27/10/2019 22:00,4.4,5,,,0,,90,,60,Dry,1028,,55,,,,3,
South Uist Range,27/10/2019 23:00,4.7,8,,,0,,86,,20,Rain,1028,2,65,,,,2.6,
South Uist Range,28/10/2019 00:00,5.3,6,,,0,0,78,,340,Dry,1028,,75,,,,1.8,
South Uist Range,28/10/2019 01:00,4.4,5,,,0,,81,,30,Dry,1029,,75,,,,1.6,
South Uist Range,28/10/2019 02:00,4.2,6,,,0,,81,,30,Dry,1029,7,75,,,,1.4,
South Uist Range,28/10/2019 03:00,5.1,8,,,0,,85,,350,Dry,1029,3,75,,,,2.8,
South Uist Range,28/10/2019 04:00,5.2,9,,,0.2,,91,,30,Light shower,1029,1,17,,,,4,
South Uist Range,28/10/2019 05:00,5.1,5,,,0,,88,,30,Rain,1029,2,14,,,,3.3,
South Uist Range,28/10/2019 06:00,6,10,3.5,,0.4,0.6,90,,10,Rain,1029,5,75,,,,4.6,
South Uist Range,28/10/2019 07:00,5.9,12,,,0,,90,,10,Rain,1029,1,75,,,,4.4,
South Uist Range,28/10/2019 08:00,6,12,,,0.2,,88,,360,Light shower,1029,1,70,,,,4.2,
South Uist Range,28/10/2019 09:00,5.6,5,,,0,,91,,50,Rain,1030,4,65,,,,4.3,
South Uist Range,28/10/2019 10:00,7.5,8,,,0,,83,,20,Rain,1030,7,75,,,,4.9,
South Uist Range,28/10/2019 11:00,7.1,9,,,0,,85,,40,Dry,1030,3,75,,,,4.9,
South Uist Range,28/10/2019 12:00,8.7,8,,,0,0.2,77,,20,Dry,1030,2,75,,,,5,
South Uist Range,28/10/2019 13:00,8.2,9,,,0,,82,,30,Rain,1030,2,75,,,,5.4,
South Uist Range,28/10/2019 14:00,8.5,10,,,0,,74,,30,Dry,1030,,75,,,,4.3,
South Uist Range,28/10/2019 15:00,8.2,12,,,0,,73,,20,Dry,1030,,75,,,,3.7,
South Uist Range,28/10/2019 16:00,6.9,12,,,0,,81,,360,Dry,1030,3,70,,,,4,
South Uist Range,28/10/2019 17:00,6.3,6,,,0,,84,,360,-,1030,6,60,,,,3.8,
South Uist Range,28/10/2019 18:00,6.4,13,,8.8,0,0,87,,20,Dry,1031,7,60,,,,4.5,
South Uist Range,28/10/2019 19:00,5.2,10,,,0,,90,,10,Dry,1031,,70,,,,3.8,
South Uist Range,28/10/2019 20:00,5.6,10,,,0,,89,,20,Dry,1031,7,70,,,,4,
South Uist Range,28/10/2019 21:00,5.6,14,,,0,,88,,30,Dry,1031,4,75,,,,3.8,
South Uist Range,28/10/2019 22:00,6.4,9,,,0,,89,,60,Dry,1031,2,75,,,,4.8,
South Uist Range,28/10/2019 23:00,5.7,8,,,0.2,,91,,40,Light drizzle,1032,1,3,,,,4.5,
South Uist Range,29/10/2019 00:00,6.5,9,,,0,0.2,90,,60,Drizzle,1032,7,75,,,,5,
South Uist Range,29/10/2019 01:00,5.4,8,,,0,,90,,10,Dry,1032,6,75,,,,3.9,
South Uist Range,29/10/2019 02:00,4.4,5,,,0,,86,,100,Dry,1032,1,75,,,,2.4,
South Uist Range,29/10/2019 03:00,3.7,3,,,0,,88,,60,Dry,1032,0,75,,,,2,
South Uist Range,29/10/2019 04:00,3.2,3,,,0,,91,,50,Dry,1032,1,75,,,,1.9,
South Uist Range,29/10/2019 05:00,3.1,7,,,0,,89,,50,Dry,1032,,75,,,,1.5,
South Uist Range,29/10/2019 06:00,2.4,3,1.9,,0,0,88,,100,Dry,1032,,75,,,,0.7,
South Uist Range,29/10/2019 07:00,3.2,5,,,0,,87,,110,Dry,1032,,75,,,,1.4,
South Uist Range,29/10/2019 08:00,2.8,7,,,0,,87,,110,Dry,1032,,75,,,,0.9,
South Uist Range,29/10/2019 09:00,4.2,8,,,0,,86,,100,Dry,1033,,75,,,,2.2,
South Uist Range,29/10/2019 10:00,7.9,5,,,0.2,,80,,110,Dry,1033,,75,,,,4.7,
South Uist Range,29/10/2019 11:00,8.4,7,,,0,,76,,100,Dry,1033,,75,,,,4.5,
South Uist Range,29/10/2019 12:00,9,8,,,0,0.2,71,,100,Dry,1033,,75,,,,4.1,
South Uist Range,29/10/2019 13:00,8.5,10,,,0,,69,,90,Dry,1032,,75,,,,3.3,
South Uist Range,29/10/2019 14:00,8.8,6,,,0,,68,,90,Dry,1032,,75,,,,3.4,
South Uist Range,29/10/2019 15:00,8.3,6,,,0,,73,,80,Dry,1032,1,75,,,,3.9,
South Uist Range,29/10/2019 16:00,7.2,5,,,0,,79,,70,Dry,1032,,75,,,,3.9,
South Uist Range,29/10/2019 17:00,5.5,5,,,0,,88,,80,Dry,1032,,75,,,,3.7,
South Uist Range,29/10/2019 18:00,5.1,9,,9.4,0,0,89,,50,Dry,1032,,75,,,,3.5,
South Uist Range,29/10/2019 19:00,3.9,2,,,0,,89,,90,Dry,1032,,75,,,,2.3,
South Uist Range,29/10/2019 20:00,3.5,3,,,0,,91,,90,Dry,1032,,75,,,,2.3,
South Uist Range,29/10/2019 21:00,3,3,,,0,,95,,100,Dry,1032,,75,,,,2.4,
South Uist Range,29/10/2019 22:00,2.3,3,,,0,,94,,100,Dry,1032,,75,,,,1.5,
South Uist Range,29/10/2019 23:00,2,5,,,0,,96,,110,Dry,1031,,75,,,,1.5,
South Uist Range,30/10/2019 00:00,1.9,3,,,0,0,97,,110,Dry,1031,2,75,,,,1.5,
South Uist Range,30/10/2019 01:00,2.5,3,,,0,,96,,110,Dry,1031,6,75,,,,2,
South Uist Range,30/10/2019 02:00,3.1,5,,,0,,96,,110,Dry,1031,5,75,,,,2.6,
South Uist Range,30/10/2019 03:00,3.5,3,,,0,,92,,110,Dry,1030,7,75,,,,2.4,
South Uist Range,30/10/2019 04:00,3.6,3,,,0,,92,,130,Dry,1030,7,75,,,,2.5,
South Uist Range,30/10/2019 05:00,4.2,6,,,0,,86,,140,Dry,1030,6,75,,,,2.2,
South Uist Range,30/10/2019 06:00,3.1,6,1.4,,0,0,90,,110,Dry,1030,4,75,,,,1.7,
South Uist Range,30/10/2019 07:00,5.2,10,,,0,,85,,130,Dry,1029,3,75,,,,2.9,
South Uist Range,30/10/2019 08:00,6.2,9,,,0,,83,,130,Dry,1030,7,75,,,,3.6,
South Uist Range,30/10/2019 09:00,6.7,8,,,0,,81,,130,Dry,1029,1,75,,,,3.8,
South Uist Range,30/10/2019 10:00,7,7,,,0,,78,,130,Dry,1029,,75,,,,3.5,
South Uist Range,30/10/2019 11:00,9,12,,,0,,69,,130,Dry,1029,,75,,,,3.8,
South Uist Range,30/10/2019 12:00,8.2,13,,,0,0,71,,140,Dry,1028,4,75,,,,3.3,
South Uist Range,30/10/2019 13:00,9.4,14,,,0,,65,,130,Dry,1028,6,75,,,,3.2,
South Uist Range,30/10/2019 14:00,9.6,14,,,0,,65,,120,Dry,1027,4,75,,,,3.5,
South Uist Range,30/10/2019 15:00,8.4,14,,,0,,69,,110,Dry,1027,7,75,,,,3.2,
South Uist Range,30/10/2019 16:00,8.6,12,,,0,,69,,100,Dry,1026,8,75,,,,3.4,
South Uist Range,30/10/2019 17:00,7,7,,,0,,77,,110,Dry,1026,6,75,,,,3.4,
South Uist Range,30/10/2019 18:00,5.3,8,,9.7,0,0,82,,110,Dry,1026,2,75,,,,2.5,
South Uist Range,30/10/2019 19:00,7.4,9,,,0,,76,,120,Dry,1026,7,75,,,,3.5,
South Uist Range,30/10/2019 20:00,7.8,10,,,0,,72,,120,Dry,1025,8,75,,,,3.1,
South Uist Range,30/10/2019 21:00,6.7,9,,,0,,75,,120,Dry,1025,6,75,,,,2.6,
South Uist Range,30/10/2019 22:00,6.2,10,,,0,,75,,130,Dry,1025,4,75,,,,2.2,
South Uist Range,30/10/2019 23:00,5.1,10,,,0,,79,,120,Dry,1024,,75,,,,1.9,
South Uist Range,31/10/2019 00:00,5.6,12,,,0,0,79,,130,Dry,1024,,75,,,,2.4,
Stornoway Airport,01/09/2019 00:00,11,14,,,1.2,3,96,,300,Moderate shower,1004,1,10,,,,10.4,
Stornoway Airport,01/09/2019 01:00,10.9,18,,,2.6,,96,,310,Heavy shower,1005,8,1,0,0,,10.4,
Stornoway Airport,01/09/2019 02:00,10.4,21,,,3,,94,30,310,Light rain,1005,8,60,0,0,,9.6,
Stornoway Airport,01/09/2019 03:00,10.2,18,,,0.2,,94,29,320,Rain,1006,8,6,0,0,,9.4,
Stornoway Airport,01/09/2019 04:00,9.6,20,,,1.4,,96,32,310,Moderate shower,1007,7,19,0,0,,9,
Stornoway Airport,01/09/2019 05:00,9.3,16,,,0.4,,95,,330,Light shower,1008,8,50,0,0,,8.6,
Stornoway Airport,01/09/2019 06:00,9.3,9,9,,0.2,8,92,,300,Rain,1008,7,3,14,0,,8.2,
Stornoway Airport,01/09/2019 07:00,9.6,12,,,0.4,,91,,320,Rain,1009,5,50,120,6,,8.3,
Stornoway Airport,01/09/2019 08:00,10.4,15,,,0,,84,,330,Rain,1010,4,75,689,48,,7.9,
Stornoway Airport,01/09/2019 09:00,11.1,10,,,0,,83,,330,Dry,1011,4,65,1064,42,,8.5,
Stornoway Airport,01/09/2019 10:00,12,15,,,0,,70,,310,Dry,1011,6,75,1389,36,,6.9,
Stornoway Airport,01/09/2019 11:00,12.2,13,,,0,,72,,310,Dry,1012,8,75,1246,12,,7.4,
Stornoway Airport,01/09/2019 12:00,13.1,14,,,0,0.4,62,,300,Dry,1013,7,75,1544,30,,6.1,
Stornoway Airport,01/09/2019 13:00,11.5,14,,,0,,77,24,270,Dry,1013,8,11,861,0,,7.7,
Stornoway Airport,01/09/2019 14:00,11.1,12,,,1,,84,,330,Rain,1014,8,75,616,0,,8.6,
Stornoway Airport,01/09/2019 15:00,13.4,14,,,0,,72,,300,Dry,1014,7,75,1475,30,,8.5,
Stornoway Airport,01/09/2019 16:00,13.7,9,,,0,,66,,290,Dry,1014,6,70,1644,48,,7.6,
Stornoway Airport,01/09/2019 17:00,13.1,9,,,0,,66,,270,Dry,1014,4,75,1090,42,,6.9,
Stornoway Airport,01/09/2019 18:00,13,8,,14.2,0,0.6,70,,290,Dry,1014,2,75,702,42,,7.7,
Stornoway Airport,01/09/2019 19:00,11.7,7,,,0,,76,,260,Dry,1015,0,75,336,54,,7.7,
Stornoway Airport,01/09/2019 20:00,8.9,6,,,0,,87,,240,Dry,1015,1,75,30,12,,6.9,
Stornoway Airport,01/09/2019 21:00,7.7,9,,,0,,92,,240,Dry,1015,0,75,0,0,,6.6,
Stornoway Airport,01/09/2019 22:00,8.2,5,,,0,,94,,230,Dry,1015,5,75,0,0,,7.3,
Stornoway Airport,01/09/2019 23:00,7.7,7,,,0,,93,,230,Dry,1014,7,75,0,0,,6.7,
Stornoway Airport,02/09/2019 00:00,10,9,,,0,0,90,,210,Dry,1014,7,75,,,,8.6,
Stornoway Airport,02/09/2019 01:00,10.2,10,,,0,,92,,210,Dry,1014,8,75,0,0,,9.1,
Stornoway Airport,02/09/2019 02:00,10.4,10,,,0,,92,,220,Dry,1013,6,26,0,0,,9.2,
Stornoway Airport,02/09/2019 03:00,9.7,9,,,0,,94,,210,Dry,1013,8,75,0,0,,8.8,
Stornoway Airport,02/09/2019 04:00,10.4,10,,,0,,92,,210,Dry,1012,8,70,0,0,,9.2,
Stornoway Airport,02/09/2019 05:00,11,10,,,0,,88,,200,Dry,1011,8,65,0,0,,9.2,
Stornoway Airport,02/09/2019 06:00,11.5,13,7.5,,0.2,0.2,92,,210,Light shower,1011,8,23,1,0,,10.3,
Stornoway Airport,02/09/2019 07:00,11.4,14,,,0.6,,93,,200,Light rain,1010,8,12,43,0,,10.4,
Stornoway Airport,02/09/2019 08:00,11.3,17,,,0.6,,98,,170,Light rain,1008,8,4,122,0,,11,
Stornoway Airport,02/09/2019 09:00,13,18,,,1.8,,100,29,180,Rain,1007,6,10,217,0,,13,
Stornoway Airport,02/09/2019 10:00,14,14,,,0.8,,98,,230,Light rain,1006,8,28,443,0,,13.8,
Stornoway Airport,02/09/2019 11:00,14.3,17,,,0,,96,,240,Rain,1006,8,75,603,0,,13.8,
Stornoway Airport,02/09/2019 12:00,14.9,16,,,0.2,4,95,,250,Dry,1006,8,6,902,0,,14.2,
Stornoway Airport,02/09/2019 13:00,14.7,16,,,0.2,,95,,260,Light shower,1005,8,45,621,0,,14,
Stornoway Airport,02/09/2019 14:00,14.6,16,,,0,,94,,260,Rain,1005,8,6,854,0,,13.8,
Stornoway Airport,02/09/2019 15:00,15.2,17,,,0,,93,,270,Dry,1005,8,50,961,0,,14.2,
Stornoway Airport,02/09/2019 16:00,15.2,17,,,0.2,,91,,280,Rain,1006,8,75,1366,18,,13.9,
Stornoway Airport,02/09/2019 17:00,14.7,16,,,0.2,,93,,280,Rain,1006,8,75,642,0,,13.7,
Stornoway Airport,02/09/2019 18:00,12.7,13,,15.9,0,1,96,,20,Dry,1007,7,70,259,0,,12.1,
Stornoway Airport,02/09/2019 19:00,12.1,8,,,0,,96,,20,Dry,1009,8,75,177,6,,11.5,
Stornoway Airport,02/09/2019 20:00,11.5,10,,,0,,92,,10,Dry,1010,7,75,19,0,,10.3,
Stornoway Airport,02/09/2019 21:00,11.2,8,,,0,,90,,360,Dry,1011,7,75,0,0,,9.7,
Stornoway Airport,02/09/2019 22:00,11.3,7,,,0,,91,,360,Dry,1011,7,75,0,0,,9.9,
Stornoway Airport,02/09/2019 23:00,9.6,2,,,0,,94,,290,Dry,1012,3,75,0,0,,8.8,
Stornoway Airport,03/09/2019 00:00,8.5,5,,,0,0,96,,260,Dry,1013,0,75,,,,8,
Stornoway Airport,03/09/2019 01:00,7.7,2,,,0,,96,,280,Dry,1013,0,65,0,0,,7.2,
Stornoway Airport,03/09/2019 02:00,7.7,5,,,0,,97,,260,Dry,1013,0,75,0,0,,7.4,
Stornoway Airport,03/09/2019 03:00,7.1,3,,,0,,97,,290,Dry,1013,0,75,0,0,,6.8,
Stornoway Airport,03/09/2019 04:00,8.2,5,,,0,,99,,200,Dry,1013,6,75,0,0,,8.1,
Stornoway Airport,03/09/2019 05:00,7.7,1,,,0,,98,,320,Dry,1013,8,75,0,0,,7.5,
Stornoway Airport,03/09/2019 06:00,8.5,2,6.4,,0,0,99,,70,Dry,1013,8,35,7,0,,8.4,
Stornoway Airport,03/09/2019 07:00,10.7,3,,,0,,99,,110,Dry,1013,8,75,145,0,,10.6,
Stornoway Airport,03/09/2019 08:00,12.2,3,,,0,,99,,120,Dry,1013,8,75,622,24,,12.1,
Stornoway Airport,03/09/2019 09:00,12.8,9,,,0,,92,,170,Dry,1013,7,75,505,6,,11.6,
Stornoway Airport,03/09/2019 10:00,13.1,10,,,0,,93,,150,Dry,1012,8,75,875,0,,12.1,
Stornoway Airport,03/09/2019 11:00,13.6,10,,,0,,94,,160,Dry,1011,7,75,889,0,,12.7,
Stornoway Airport,03/09/2019 12:00,13.5,9,,,0,0,94,,150,Dry,1011,8,75,619,0,,12.7,
Stornoway Airport,03/09/2019 13:00,13.9,10,,,0,,96,,160,Dry,1010,8,13,423,0,,13.3,
Stornoway Airport,03/09/2019 14:00,13.7,14,,,0.4,,99,,170,Dry,1009,8,13,253,0,,13.6,
Stornoway Airport,03/09/2019 15:00,13.9,14,,,3,,100,,180,Rain,1008,2,13,319,0,,13.9,
Stornoway Airport,03/09/2019 16:00,14.3,17,,,0,,99,,200,Dry,1007,8,19,478,0,,14.2,
Stornoway Airport,03/09/2019 17:00,14.5,15,,,0,,98,,200,Dry,1006,8,50,306,0,,14.2,
Stornoway Airport,03/09/2019 18:00,14.4,16,,14.7,0.2,4,94,,240,Rain,1006,8,30,268,0,,13.6,
Stornoway Airport,03/09/2019 19:00,13.4,22,,,0,,88,30,260,Dry,1006,2,40,158,0,,11.6,
Stornoway Airport,03/09/2019 20:00,12.1,17,,,0,,86,30,240,Dry,1006,0,28,15,0,,10,
Stornoway Airport,03/09/2019 21:00,10.9,12,,,0,,85,,230,Dry,1006,1,30,0,0,,8.6,
Stornoway Airport,03/09/2019 22:00,11,12,,,0,,86,,220,Dry,1006,4,28,0,0,,8.9,
Stornoway Airport,03/09/2019 23:00,11,15,,,0,,86,,220,Dry,1005,4,19,0,0,,8.8,
Stornoway Airport,04/09/2019 00:00,10.6,14,,,0.2,0.2,88,,210,Rain,1004,4,30,,,,8.7,
Stornoway Airport,04/09/2019 01:00,10.4,15,,,0,,83,,220,Dry,1004,3,35,0,0,,7.8,
Stornoway Airport,04/09/2019 02:00,10.6,16,,,0,,83,,210,Rain,1003,3,35,0,0,,8,
Stornoway Airport,04/09/2019 03:00,10.5,15,,,0,,84,,210,Dry,1002,4,35,0,0,,8,
Stornoway Airport,04/09/2019 04:00,11.1,15,,,0,,85,,200,Dry,1001,3,30,0,0,,8.8,
Stornoway Airport,04/09/2019 05:00,11.6,18,,,0,,83,,200,Dry,1001,8,30,0,0,,8.9,
Stornoway Airport,04/09/2019 06:00,11.6,13,9.9,,0,0,85,,190,Dry,1000,8,30,11,0,,9.2,
Stornoway Airport,04/09/2019 07:00,11.1,14,,,0,,83,,190,Rain,1001,1,45,65,0,,8.5,
Stornoway Airport,04/09/2019 08:00,11.1,8,,,0,,81,,150,Dry,1002,7,70,231,0,,8.1,
Stornoway Airport,04/09/2019 09:00,12.9,5,,,0,,77,,30,Dry,1004,3,60,696,24,,9.1,
Stornoway Airport,04/09/2019 10:00,12.5,15,,,0,,85,,340,Dry,1005,7,6,1119,36,,10.1,
Stornoway Airport,04/09/2019 11:00,11.1,33,,,0,,89,44,360,Rain,1007,7,18,687,6,,9.5,
Stornoway Airport,04/09/2019 12:00,10.7,33,,,0,0,88,45,360,Dry,1009,8,15,830,0,,8.8,
Stornoway Airport,04/09/2019 13:00,10.3,29,,,0,,86,46,360,Rain,1011,8,18,609,0,,8.1,
Stornoway Airport,04/09/2019 14:00,9.6,31,,,0.2,,90,44,350,Rain,1013,8,22,761,0,,8.1,
Stornoway Airport,04/09/2019 15:00,9.7,30,,,0.2,,88,45,340,Rain,1014,8,30,700,0,,7.9,
Stornoway Airport,04/09/2019 16:00,10.3,30,,,0.4,,83,48,350,Rain,1015,1,23,747,6,,7.6,
Stornoway Airport,04/09/2019 17:00,10.1,30,,,0,,78,40,340,Dry,1017,8,13,361,0,,6.5,
Stornoway Airport,04/09/2019 18:00,10.2,29,,13.9,0,0.8,74,39,340,Dry,1018,7,19,293,6,,5.8,
Stornoway Airport,04/09/2019 19:00,9.7,23,,,0,,72,35,340,Dry,1019,3,27,185,6,,5,
Stornoway Airport,04/09/2019 20:00,9.5,17,,,0,,74,,330,Dry,1020,1,40,11,0,,5.2,
Stornoway Airport,04/09/2019 21:00,9.3,14,,,0,,75,,330,Dry,1020,1,50,0,0,,5.2,
Stornoway Airport,04/09/2019 22:00,8.8,17,,,0.4,,86,30,320,Moderate shower,1021,6,6,0,0,,6.6,
Stornoway Airport,04/09/2019 23:00,7.2,6,,,0,,90,,320,Rain,1021,6,60,0,0,,5.7,
Stornoway Airport,05/09/2019 00:00,8.6,10,,,0,0.4,81,,290,Rain,1020,1,75,,,,5.7,
Stornoway Airport,05/09/2019 01:00,8.6,9,,,0,,85,,280,Dry,1020,7,65,0,0,,6.3,
Stornoway Airport,05/09/2019 02:00,9.8,14,,,0,,82,,290,Moderate shower,1020,8,40,0,0,,7,
Stornoway Airport,05/09/2019 03:00,9.5,9,,,0.4,,87,,270,Rain,1020,8,40,0,0,,7.6,
Stornoway Airport,05/09/2019 04:00,9.7,8,,,0,,90,,270,Light shower,1019,7,23,0,0,,8.2,
Stornoway Airport,05/09/2019 05:00,9.7,9,,,0.4,,93,,260,Light rain,1019,8,16,0,0,,8.7,
Stornoway Airport,05/09/2019 06:00,9.3,12,7.2,,0.2,0.6,96,,230,Rain,1018,8,35,3,0,,8.7,
Stornoway Airport,05/09/2019 07:00,10.5,7,,,1,,98,,250,Light shower,1018,1,18,58,0,,10.3,
Stornoway Airport,05/09/2019 08:00,12.2,17,,,0.6,,92,,300,Light shower,1018,7,19,231,0,,11.1,
Stornoway Airport,05/09/2019 09:00,12.9,22,,,0,,89,31,290,Rain,1018,1,18,429,0,,11.3,
Stornoway Airport,05/09/2019 10:00,13.3,18,,,0.2,,86,32,290,Dry,1018,8,18,829,0,,11.1,
Stornoway Airport,05/09/2019 11:00,14.3,22,,,0,,78,29,270,Dry,1018,6,21,1502,30,,10.6,
Stornoway Airport,05/09/2019 12:00,13.9,20,,,0,2,74,29,270,Dry,1018,8,21,1221,6,,9.5,
Stornoway Airport,05/09/2019 13:00,13.8,16,,,0,,77,,260,Dry,1018,8,23,987,0,,9.9,
Stornoway Airport,05/09/2019 14:00,14,20,,,0,,79,29,250,Dry,1018,7,24,871,0,,10.5,
Stornoway Airport,05/09/2019 15:00,14.2,17,,,0,,76,31,250,Dry,1017,8,30,899,0,,10.1,
Stornoway Airport,05/09/2019 16:00,14.2,16,,,0,,75,,240,Dry,1016,7,35,624,0,,10,
Stornoway Airport,05/09/2019 17:00,13.5,23,,,0,,72,37,250,Dry,1015,7,27,258,0,,8.7,
Stornoway Airport,05/09/2019 18:00,10.3,17,,14.6,1.2,1,90,35,230,Light rain,1014,8,9,95,0,,8.8,
Stornoway Airport,05/09/2019 19:00,10.3,20,,,0.8,,91,,220,Light rain,1012,8,15,49,0,,8.9,
Stornoway Airport,05/09/2019 20:00,10.6,20,,,0.2,,95,31,210,Light rain,1010,8,26,5,0,,9.9,
Stornoway Airport,05/09/2019 21:00,12,20,,,1,,98,,230,Light drizzle,1008,8,5,0,0,,11.8,
Stornoway Airport,05/09/2019 22:00,12.9,23,,,0.2,,96,36,240,Rain,1007,5,17,0,0,,12.3,
Stornoway Airport,05/09/2019 23:00,12.9,16,,,0.6,,97,31,250,Light shower,1007,8,55,0,0,,12.5,
Stornoway Airport,06/09/2019 00:00,12.3,20,,,0.2,3,94,31,270,Rain,1006,1,35,,,,11.4,
Stornoway Airport,06/09/2019 01:00,11.8,14,,,0,,89,,270,Dry,1007,7,30,0,0,,10.1,
Stornoway Airport,06/09/2019 02:00,10.9,14,,,0.2,,88,,270,Rain,1007,7,29,0,0,,9,
Stornoway Airport,06/09/2019 03:00,11.3,15,,,0,,86,,260,Dry,1007,8,22,0,0,,9.1,
Stornoway Airport,06/09/2019 04:00,10.5,16,,,0.4,,93,,270,Light shower,1007,6,24,0,0,,9.5,
Stornoway Airport,06/09/2019 05:00,10,14,,,7,,96,,280,Moderate rain,1007,8,8,0,0,,9.4,
Stornoway Airport,06/09/2019 06:00,10.2,14,9.4,,0.2,8,93,,270,Rain,1007,8,35,3,0,,9.2,
Stornoway Airport,06/09/2019 07:00,10.5,8,,,0.2,,96,,250,Rain,1008,6,35,114,6,,9.9,
Stornoway Airport,06/09/2019 08:00,11.9,14,,,0,,91,,290,Rain,1008,2,45,434,18,,10.6,
Stornoway Airport,06/09/2019 09:00,13.1,18,,,0,,84,29,290,Dry,1009,1,5,951,54,,10.5,
Stornoway Airport,06/09/2019 10:00,13.8,21,,,0,,83,30,300,Rain,1009,5,45,1388,48,,11.1,
Stornoway Airport,06/09/2019 11:00,12.3,18,,,0.2,,93,35,300,Rain,1010,8,75,1330,24,,11.3,
Stornoway Airport,06/09/2019 12:00,13.7,21,,,0,0.4,85,32,310,Dry,1011,7,55,1312,30,,11.4,
Stornoway Airport,06/09/2019 13:00,13.2,23,,,0.2,,84,35,340,Rain,1012,7,55,1529,30,,10.7,
Stornoway Airport,06/09/2019 14:00,13.7,20,,,0,,79,31,330,Rain,1013,8,45,1356,24,,10.2,
Stornoway Airport,06/09/2019 15:00,12.6,22,,,0,,77,30,340,Rain,1015,7,40,814,6,,8.8,
Stornoway Airport,06/09/2019 16:00,13.3,22,,,0,,69,29,350,Dry,1016,2,60,1205,30,,7.8,
Stornoway Airport,06/09/2019 17:00,12.5,20,,,0,,75,,350,Dry,1017,7,50,946,36,,8.3,
Stornoway Airport,06/09/2019 18:00,12.1,14,,14.3,0,0.2,76,,340,Dry,1018,7,60,321,0,,8.1,
Stornoway Airport,06/09/2019 19:00,11.4,13,,,0,,84,,350,Dry,1019,7,45,128,0,,8.8,
Stornoway Airport,06/09/2019 20:00,10.2,16,,,0,,90,,10,Dry,1020,8,40,7,0,,8.7,
Stornoway Airport,06/09/2019 21:00,10.5,9,,,0,,86,,340,Dry,1021,1,35,0,0,,8.4,
Stornoway Airport,06/09/2019 22:00,10.2,10,,,0,,80,,360,Dry,1021,7,45,0,0,,7,
Stornoway Airport,06/09/2019 23:00,9.7,10,,,0,,81,,360,Dry,1022,6,35,0,0,,6.7,
Stornoway Airport,07/09/2019 00:00,9.5,9,,,0,0,78,,360,Dry,1022,7,40,,,,5.9,
Stornoway Airport,07/09/2019 01:00,9,8,,,0,,80,,30,Dry,1023,3,45,0,0,,5.9,
Stornoway Airport,07/09/2019 02:00,6.6,3,,,0,,86,,300,Dry,1024,7,65,0,0,,4.5,
Stornoway Airport,07/09/2019 03:00,7.7,2,,,0,,84,,310,Dry,1024,8,50,0,0,,5.3,
Stornoway Airport,07/09/2019 04:00,6.9,5,,,0,,84,,290,Dry,1024,7,70,0,0,,4.4,
Stornoway Airport,07/09/2019 05:00,6.9,5,,,0,,87,,290,Dry,1025,7,65,0,0,,4.9,
Stornoway Airport,07/09/2019 06:00,7.3,3,6.5,,0,0,85,,270,Dry,1025,7,70,4,0,,5,
Stornoway Airport,07/09/2019 07:00,7.2,3,,,0,,87,,270,Dry,1026,6,70,112,0,,5.3,
Stornoway Airport,07/09/2019 08:00,9.8,2,,,0,,83,,270,Dry,1026,6,75,445,12,,7.2,
Stornoway Airport,07/09/2019 09:00,13,1,,,0,,69,,200,Dry,1026,1,40,715,42,,7.5,
Stornoway Airport,07/09/2019 10:00,12.8,6,,,0,,65,,180,Dry,1027,4,60,1416,54,,6.4,
Stornoway Airport,07/09/2019 11:00,13.2,7,,,0,,63,,160,Dry,1027,1,70,1774,54,,6.5,
Stornoway Airport,07/09/2019 12:00,13.6,10,,,0,0,68,,170,Dry,1027,1,60,2218,60,,8,
Stornoway Airport,07/09/2019 13:00,13.7,12,,,0,,65,,170,Dry,1027,2,60,2256,60,,7.4,
Stornoway Airport,07/09/2019 14:00,13.9,12,,,0,,68,,160,Dry,1027,1,60,2053,60,,8.1,
Stornoway Airport,07/09/2019 15:00,14,14,,,0,,73,,180,Dry,1026,1,55,1593,54,,9.4,
Stornoway Airport,07/09/2019 16:00,14.2,10,,,0,,70,,190,Dry,1026,3,65,1585,54,,9,
Stornoway Airport,07/09/2019 17:00,14.4,7,,,0,,59,,350,Dry,1026,5,70,1021,42,,6.7,
Stornoway Airport,07/09/2019 18:00,14.5,2,,15,0,0,63,,320,Dry,1026,1,75,657,60,,7.6,
Stornoway Airport,07/09/2019 19:00,11.4,3,,,0,,72,,240,Dry,1026,0,75,199,24,,6.6,
Stornoway Airport,07/09/2019 20:00,9.3,5,,,0,,83,,240,Dry,1026,0,75,1,0,,6.6,
Stornoway Airport,07/09/2019 21:00,8.6,5,,,0,,88,,230,Dry,1026,0,75,0,0,,6.8,
Stornoway Airport,07/09/2019 22:00,8.8,6,,,0,,91,,210,Dry,1026,0,75,0,0,,7.5,
Stornoway Airport,07/09/2019 23:00,9.1,7,,,0,,90,,210,Dry,1025,0,50,0,0,,7.6,
Stornoway Airport,08/09/2019 00:00,9.1,6,,,0,0,94,,210,Dry,1024,0,75,,,,8.3,
Stornoway Airport,08/09/2019 01:00,10.6,8,,,0,,91,,200,Dry,1024,0,75,0,0,,9.2,
Stornoway Airport,08/09/2019 02:00,11.2,12,,,0,,88,,210,Dry,1023,3,75,0,0,,9.3,
Stornoway Airport,08/09/2019 03:00,12.1,10,,,0,,86,,200,Dry,1023,7,75,0,0,,9.9,
Stornoway Airport,08/09/2019 04:00,12.3,13,,,0,,85,,210,Dry,1022,7,55,0,0,,10,
Stornoway Airport,08/09/2019 05:00,12.4,16,,,0,,87,,210,Dry,1022,8,75,0,0,,10.3,
Stornoway Airport,08/09/2019 06:00,12.4,13,8.3,,0,0,89,,210,Dry,1021,8,18,3,0,,10.8,
Stornoway Airport,08/09/2019 07:00,12.5,16,,,0,,91,,200,Dry,1021,8,35,58,0,,11.2,
Stornoway Airport,08/09/2019 08:00,12.6,13,,,0,,93,,200,Dry,1020,8,25,105,0,,11.6,
Stornoway Airport,08/09/2019 09:00,12.9,21,,,0,,91,,190,Dry,1020,8,50,319,0,,11.5,
Stornoway Airport,08/09/2019 10:00,12.9,18,,,0,,89,29,190,Dry,1019,8,65,335,0,,11.3,
Stornoway Airport,08/09/2019 11:00,13.3,21,,,0,,90,,190,Dry,1019,8,70,550,0,,11.8,
Stornoway Airport,08/09/2019 12:00,14.4,21,,,0,0,86,30,190,Dry,1018,8,70,948,0,,12.2,
Stornoway Airport,08/09/2019 13:00,13.4,20,,,0,,93,30,190,Dry,1018,8,20,1193,12,,12.3,
Stornoway Airport,08/09/2019 14:00,13.3,22,,,0,,95,31,190,Dry,1017,8,35,593,0,,12.6,
Stornoway Airport,08/09/2019 15:00,13.2,22,,,0,,96,31,190,Dry,1016,8,21,440,0,,12.6,
Stornoway Airport,08/09/2019 16:00,13.1,20,,,0,,98,29,190,Misty,1015,8,10,257,0,,12.8,
Stornoway Airport,08/09/2019 17:00,13.1,22,,,0.2,,98,30,190,Drizzly rain,1014,8,5,269,0,,12.9,
Stornoway Airport,08/09/2019 18:00,13.4,16,,14.9,0.2,0.4,97,29,190,Rain,1014,8,40,106,0,,13,
Stornoway Airport,08/09/2019 19:00,13.2,23,,,0,,98,30,190,Dry,1013,8,18,33,0,,13,
Stornoway Airport,08/09/2019 20:00,13.3,14,,,0,,98,29,200,Dry,1013,8,22,2,0,,13.1,
Stornoway Airport,08/09/2019 21:00,13.3,16,,,0.2,,99,,190,Drizzly rain,1012,8,15,0,0,,13.2,
Stornoway Airport,08/09/2019 22:00,13.4,17,,,0,,96,,190,Rain,1011,7,50,0,0,,12.8,
Stornoway Airport,08/09/2019 23:00,13.2,13,,,0,,96,,190,Dry,1011,8,55,0,0,,12.6,
Stornoway Airport,09/09/2019 00:00,13.4,14,,,0,0.2,93,,190,Dry,1010,1,50,,,,12.3,
Stornoway Airport,09/09/2019 01:00,13.3,12,,,0,,94,,200,Dry,1010,8,45,0,0,,12.5,
Stornoway Airport,09/09/2019 02:00,13.2,10,,,0,,96,,190,Dry,1009,8,50,0,0,,12.7,
Stornoway Airport,09/09/2019 03:00,13.3,10,,,0,,96,,180,Dry,1008,8,35,0,0,,12.7,
Stornoway Airport,09/09/2019 04:00,13.1,12,,,0.4,,97,,170,Light shower,1008,8,15,0,0,,12.7,
Stornoway Airport,09/09/2019 05:00,12.9,12,,,0.6,,98,,170,Light drizzle,1008,8,11,0,0,,12.7,
Stornoway Airport,09/09/2019 06:00,12.3,9,12.3,,0.4,1.8,98,,290,Light rain,1008,8,18,0,0,,12.1,
Stornoway Airport,09/09/2019 07:00,11.9,14,,,0.6,,99,,300,Light rain,1008,8,9,31,0,,11.8,
Stornoway Airport,09/09/2019 08:00,11.4,21,,,1.6,,97,,330,Moderate rain,1008,8,6,75,0,,11,
Stornoway Airport,09/09/2019 09:00,11.4,20,,,1.4,,98,,340,Light rain,1009,7,13,192,0,,11.1,
Stornoway Airport,09/09/2019 10:00,11.5,16,,,0.6,,96,,340,Light rain,1009,8,17,309,0,,11,
Stornoway Airport,09/09/2019 11:00,11.8,16,,,0.6,,96,,350,Light rain,1010,8,18,517,0,,11.2,
Stornoway Airport,09/09/2019 12:00,12.3,17,,,0,5,90,,350,Rain,1010,8,50,683,0,,10.8,
Stornoway Airport,09/09/2019 13:00,11.8,16,,,0,,86,,340,Dry,1011,8,60,607,0,,9.7,
Stornoway Airport,09/09/2019 14:00,12.2,12,,,0,,92,,10,Drizzly rain,1011,8,20,581,0,,11,
Stornoway Airport,09/09/2019 15:00,13.2,13,,,0,,85,,350,Rain,1011,8,50,979,0,,10.9,
Stornoway Airport,09/09/2019 16:00,13,15,,,0,,84,,330,Dry,1012,8,55,473,0,,10.4,
Stornoway Airport,09/09/2019 17:00,12.9,14,,,0,,80,,330,Dry,1013,7,65,499,0,,9.7,
Stornoway Airport,09/09/2019 18:00,13.1,10,,13.6,0,0,80,,330,Dry,1014,7,60,616,36,,9.8,
Stornoway Airport,09/09/2019 19:00,11.1,8,,,0,,86,,320,Dry,1015,0,55,212,36,,8.9,
Stornoway Airport,09/09/2019 20:00,9.1,7,,,0,,92,,300,Dry,1015,0,55,0,0,,7.9,
Stornoway Airport,09/09/2019 21:00,8.3,7,,,0,,92,,290,Dry,1015,0,45,0,0,,7.2,
Stornoway Airport,09/09/2019 22:00,7.7,5,,,0,,92,,280,Dry,1016,0,35,0,0,,6.6,
Stornoway Airport,09/09/2019 23:00,6.6,6,,,0,,94,,270,Dry,1016,0,35,0,0,,5.8,
Stornoway Airport,10/09/2019 00:00,7,6,,,0,0,97,,250,Dry,1016,0,35,,,,6.6,
Stornoway Airport,10/09/2019 01:00,7.5,7,,,0.2,,97,,250,Dry,1016,1,35,0,0,,7.2,
Stornoway Airport,10/09/2019 02:00,6.9,7,,,0,,97,,260,Dry,1016,2,35,0,0,,6.6,
Stornoway Airport,10/09/2019 03:00,6.8,6,,,0,,97,,240,Dry,1016,0,35,0,0,,6.4,
Stornoway Airport,10/09/2019 04:00,6.3,3,,,0,,97,,240,Dry,1016,1,30,0,0,,5.9,
Stornoway Airport,10/09/2019 05:00,6.5,2,,,0,,98,,240,Dry,1016,4,26,0,0,,6.3,
Stornoway Airport,10/09/2019 06:00,6.4,3,6,,0,0.2,99,,250,Dry,1016,7,35,1,0,,6.3,
Stornoway Airport,10/09/2019 07:00,8.8,6,,,0,,98,,230,Dry,1016,7,28,104,0,,8.6,
Stornoway Airport,10/09/2019 08:00,11,10,,,0,,95,,200,Dry,1016,7,23,261,0,,10.3,
Stornoway Airport,10/09/2019 09:00,12.1,16,,,0,,86,,200,Dry,1014,5,28,661,6,,9.9,
Stornoway Airport,10/09/2019 10:00,12.5,21,,,0,,81,,190,Dry,1013,7,35,736,0,,9.4,
Stornoway Airport,10/09/2019 11:00,12.9,23,,,0,,79,31,200,Dry,1012,7,40,703,0,,9.4,
Stornoway Airport,10/09/2019 12:00,13.2,21,,,0,0,79,32,200,Dry,1012,8,45,659,0,,9.7,
Stornoway Airport,10/09/2019 13:00,12.6,28,,,0,,79,39,200,Drizzly rain,1010,7,29,657,0,,9.1,
Stornoway Airport,10/09/2019 14:00,12.1,28,,,0.2,,87,43,200,Light shower,1008,8,16,488,0,,10.1,
Stornoway Airport,10/09/2019 15:00,12,32,,,0.4,,92,48,200,Light rain,1006,8,15,252,0,,10.9,
Stornoway Airport,10/09/2019 16:00,11.6,33,,,0,,94,47,190,Rain,1005,8,10,154,0,,10.7,
Stornoway Airport,10/09/2019 17:00,11.7,33,,,1.8,,95,48,190,Light rain,1003,7,7,65,0,,11,
Stornoway Airport,10/09/2019 18:00,12.2,32,,13.2,2,4,97,51,190,Moderate rain,1001,8,5,48,0,,11.8,
Stornoway Airport,10/09/2019 19:00,13,31,,,0.4,,97,49,200,Light rain,999,8,10,29,0,,12.6,
Stornoway Airport,10/09/2019 20:00,13.8,33,,,0.2,,97,47,210,Rain,997,8,9,4,0,,13.4,
Stornoway Airport,10/09/2019 21:00,14.4,28,,,0.2,,98,41,200,Rain,997,7,6,0,0,,14.1,
Stornoway Airport,10/09/2019 22:00,14.6,15,,,0.2,,98,36,220,Rain,996,8,55,0,0,,14.3,
Stornoway Airport,10/09/2019 23:00,14.2,18,,,0.2,,98,30,230,Dry,997,8,75,0,0,,13.9,
Stornoway Airport,11/09/2019 00:00,14,16,,,1,2,98,,240,Moderate shower,997,6,2,,,,13.8,
Stornoway Airport,11/09/2019 01:00,12.7,17,,,0,,94,30,250,Rain,997,7,40,0,0,,11.9,
Stornoway Airport,11/09/2019 02:00,12.6,21,,,0,,90,30,240,Dry,998,7,40,0,0,,11.1,
Stornoway Airport,11/09/2019 03:00,12.2,18,,,0.4,,96,30,230,Moderate shower,997,7,4,0,0,,11.6,
Stornoway Airport,11/09/2019 04:00,12,17,,,3.8,,96,,250,Rain,998,3,26,0,0,,11.4,
Stornoway Airport,11/09/2019 05:00,11.9,20,,,0,,92,,240,Dry,998,6,25,0,0,,10.8,
Stornoway Airport,11/09/2019 06:00,12.1,22,11.6,,0,4,90,31,250,Dry,999,5,21,0,0,,10.6,
Stornoway Airport,11/09/2019 07:00,12,18,,,0,,86,36,260,Rain,1000,1,30,102,6,,9.9,
Stornoway Airport,11/09/2019 08:00,13,21,,,0,,84,30,250,Dry,1001,3,27,451,36,,10.5,
Stornoway Airport,11/09/2019 09:00,13.7,24,,,0,,82,38,250,Rain,1001,5,30,699,48,,10.8,
Stornoway Airport,11/09/2019 10:00,13.8,23,,,0,,80,37,250,Dry,1002,5,29,1168,42,,10.5,
Stornoway Airport,11/09/2019 11:00,12.6,26,,,0.4,,92,40,250,Moderate shower,1003,2,20,1250,30,,11.4,
Stornoway Airport,11/09/2019 12:00,13.8,28,,,0,0.4,79,37,270,Rain,1004,1,35,1178,24,,10.4,
Stornoway Airport,11/09/2019 13:00,14.4,26,,,0,,73,43,270,Dry,1005,2,45,1213,18,,9.8,
Stornoway Airport,11/09/2019 14:00,14.6,25,,,0,,75,38,270,Dry,1006,4,35,1303,24,,10.4,
Stornoway Airport,11/09/2019 15:00,13.6,21,,,0,,87,38,250,Haze,1007,5,3,948,6,,11.5,
Stornoway Airport,11/09/2019 16:00,13.8,20,,,0.4,,84,41,250,Rain,1007,2,18,892,12,,11.2,
Stornoway Airport,11/09/2019 17:00,13.4,18,,,0,,86,30,250,Haze,1008,7,6,643,18,,11.2,
Stornoway Airport,11/09/2019 18:00,12.7,21,,15.6,0,0.4,89,29,250,Dry,1009,6,40,335,18,,11,
Stornoway Airport,11/09/2019 19:00,12.6,15,,,0,,86,,250,Dry,1010,1,35,82,0,,10.4,
Stornoway Airport,11/09/2019 20:00,12.3,16,,,0,,88,,240,Dry,1010,6,30,0,0,,10.5,
Stornoway Airport,11/09/2019 21:00,12.2,18,,,0,,87,,250,Dry,1011,3,30,0,0,,10.2,
Stornoway Airport,11/09/2019 22:00,12.1,16,,,0,,89,,240,Dry,1011,5,30,0,0,,10.4,
Stornoway Airport,11/09/2019 23:00,11.9,15,,,0,,89,30,250,Rain,1012,6,35,0,0,,10.3,
Stornoway Airport,12/09/2019 00:00,11.5,18,,,0,0,90,,240,Haze,1012,1,3,,,,10,
Stornoway Airport,12/09/2019 01:00,11.3,17,,,0,,90,,240,Rain,1012,3,55,0,0,,9.8,
Stornoway Airport,12/09/2019 02:00,10.7,15,,,0.2,,94,,250,Rain,1012,7,75,0,0,,9.8,
Stornoway Airport,12/09/2019 03:00,10.6,14,,,0,,91,31,240,Rain,1012,8,50,0,0,,9.2,
Stornoway Airport,12/09/2019 04:00,10.9,12,,,0.2,,94,,230,Moderate shower,1012,8,15,0,0,,10,
Stornoway Airport,12/09/2019 05:00,10.8,14,,,0.4,,92,,230,Rain,1012,8,50,0,0,,9.6,
Stornoway Airport,12/09/2019 06:00,10.8,10,10.1,,0,0.8,93,,230,Dry,1013,8,40,0,0,,9.8,
Stornoway Airport,12/09/2019 07:00,10.7,12,,,1,,94,,240,Moderate shower,1013,8,29,35,0,,9.8,
Stornoway Airport,12/09/2019 08:00,11.1,14,,,0.2,,91,,230,Moderate shower,1014,8,13,273,0,,9.8,
Stornoway Airport,12/09/2019 09:00,11.9,14,,,0.4,,90,,250,Rain,1014,6,50,409,6,,10.4,
Stornoway Airport,12/09/2019 10:00,12.5,16,,,0,,80,,260,Rain,1015,4,60,592,0,,9.2,
Stornoway Airport,12/09/2019 11:00,13.6,20,,,0.2,,82,32,270,Rain,1016,6,70,1337,30,,10.6,
Stornoway Airport,12/09/2019 12:00,13.4,23,,,0,2,74,32,280,Rain,1016,6,55,1621,36,,9,
Stornoway Airport,12/09/2019 13:00,14,22,,,0,,68,30,280,Dry,1017,4,45,1688,48,,8.2,
Stornoway Airport,12/09/2019 14:00,14.4,20,,,0,,69,29,270,Dry,1018,7,40,1723,48,,8.9,
Stornoway Airport,12/09/2019 15:00,13.9,21,,,0,,68,31,280,Dry,1019,6,45,1294,24,,8.2,
Stornoway Airport,12/09/2019 16:00,13.4,22,,,0,,66,31,270,Dry,1020,8,45,1272,36,,7.2,
Stornoway Airport,12/09/2019 17:00,12.5,15,,,0,,76,29,260,Dry,1020,8,60,506,6,,8.5,
Stornoway Airport,12/09/2019 18:00,12.5,13,,14.8,0,0,76,,260,Dry,1021,3,40,403,30,,8.5,
Stornoway Airport,12/09/2019 19:00,10.6,10,,,0,,85,,250,Dry,1022,1,45,105,12,,8.3,
Stornoway Airport,12/09/2019 20:00,10.3,13,,,0,,87,,250,Dry,1022,5,40,0,0,,8.4,
Stornoway Airport,12/09/2019 21:00,9.2,10,,,0,,87,,250,Rain,1022,0,60,0,0,,7.2,
Stornoway Airport,12/09/2019 22:00,9.8,14,,,0.2,,87,30,260,Rain,1023,1,50,0,0,,7.9,
Stornoway Airport,12/09/2019 23:00,9.4,12,,,0,,88,,250,Dry,1024,0,45,0,0,,7.6,
Stornoway Airport,13/09/2019 00:00,10,17,,,0.4,0.6,86,30,260,Rain,1024,3,45,,,,7.9,
Stornoway Airport,13/09/2019 01:00,9.5,10,,,0,,88,,240,Dry,1025,2,35,0,0,,7.7,
Stornoway Airport,13/09/2019 02:00,9.4,12,,,0,,85,,260,Dry,1025,0,35,0,0,,7.1,
Stornoway Airport,13/09/2019 03:00,9.6,13,,,0,,85,,240,Dry,1026,0,35,0,0,,7.3,
Stornoway Airport,13/09/2019 04:00,9.7,12,,,0,,86,,250,Dry,1026,2,35,0,0,,7.5,
Stornoway Airport,13/09/2019 05:00,10.2,15,,,0,,85,,250,Rain,1026,0,35,0,0,,7.8,
Stornoway Airport,13/09/2019 06:00,10.2,13,9,,0.2,0.2,88,,260,Moderate shower,1027,4,13,0,0,,8.4,
Stornoway Airport,13/09/2019 07:00,9.7,15,,,0.4,,87,,280,Light shower,1027,6,55,89,0,,7.7,
Stornoway Airport,13/09/2019 08:00,11.4,15,,,0.2,,87,,250,Rain,1028,2,35,291,18,,9.4,
Stornoway Airport,13/09/2019 09:00,12.5,15,,,0.4,,84,,250,Rain,1028,1,30,585,24,,9.9,
Stornoway Airport,13/09/2019 10:00,13.6,23,,,0,,71,32,250,Dry,1029,6,35,1350,54,,8.5,
Stornoway Airport,13/09/2019 11:00,13.6,25,,,0,,78,37,250,Rain,1029,6,30,1210,30,,9.9,
Stornoway Airport,13/09/2019 12:00,13.6,23,,,0,1,71,38,260,Rain,1030,7,22,1459,36,,8.5,
Stornoway Airport,13/09/2019 13:00,14.5,22,,,0.2,,78,37,250,Rain,1030,5,35,1529,36,,10.8,
Stornoway Airport,13/09/2019 14:00,15,23,,,0,,69,37,250,Dry,1030,5,35,1759,48,,9.5,
Stornoway Airport,13/09/2019 15:00,14,23,,,0,,73,33,250,Dry,1030,1,35,945,18,,9.4,
Stornoway Airport,13/09/2019 16:00,12.4,20,,,1.4,,92,33,250,Rain,1030,7,35,374,0,,11.2,
Stornoway Airport,13/09/2019 17:00,12.6,17,,,0.4,,89,29,250,Rain,1030,3,30,405,0,,11,
Stornoway Airport,13/09/2019 18:00,12.2,16,,15.2,0.2,2,91,29,240,Drizzly rain,1030,2,4,195,0,,10.8,
Stornoway Airport,13/09/2019 19:00,11.8,16,,,0.4,,94,30,240,Light shower,1030,8,35,32,0,,10.9,
Stornoway Airport,13/09/2019 20:00,12.1,17,,,0,,90,29,240,Rain,1030,7,40,0,0,,10.6,
Stornoway Airport,13/09/2019 21:00,11.8,13,,,0,,92,,240,Dry,1030,8,25,0,0,,10.7,
Stornoway Airport,13/09/2019 22:00,11.7,16,,,0,,89,,240,Dry,1030,8,50,0,0,,10.1,
Stornoway Airport,13/09/2019 23:00,11.4,10,,,0.2,,96,,200,Rain,1029,8,30,0,0,,10.8,
Stornoway Airport,14/09/2019 00:00,12.3,16,,,0,0.6,92,,210,Dry,1028,2,30,,,,11.1,
Stornoway Airport,14/09/2019 01:00,12.4,20,,,0,,90,,210,Dry,1027,8,30,0,0,,10.9,
Stornoway Airport,14/09/2019 02:00,12.5,21,,,0,,89,29,210,Drizzly rain,1026,8,30,0,0,,10.9,
Stornoway Airport,14/09/2019 03:00,12.5,23,,,0,,88,33,210,Light shower,1024,1,30,0,0,,10.6,
Stornoway Airport,14/09/2019 04:00,12.8,24,,,0,,85,37,210,Rain,1022,2,30,0,0,,10.4,
Stornoway Airport,14/09/2019 05:00,12.4,29,,,0.2,,91,46,210,Light shower,1020,3,8,0,0,,11.1,
Stornoway Airport,14/09/2019 06:00,11.5,31,11.2,,2.8,3.4,97,47,200,Moderate rain,1018,8,12,0,0,,11.1,
Stornoway Airport,14/09/2019 07:00,12.1,35,,,1.2,,96,49,200,Moderate rain,1017,8,7,8,0,,11.6,
Stornoway Airport,14/09/2019 08:00,12.9,32,,,0.4,,97,48,210,Moderate shower,1016,8,12,42,0,,12.5,
Stornoway Airport,14/09/2019 09:00,13.5,33,,,0.4,,96,52,210,Drizzly rain,1014,2,5,191,0,,13,
Stornoway Airport,14/09/2019 10:00,14.3,33,,,0.2,,96,46,220,Rain,1014,8,10,246,0,,13.7,
Stornoway Airport,14/09/2019 11:00,14.9,35,,,0.2,,93,52,220,Haze,1013,8,14,543,0,,13.9,
Stornoway Airport,14/09/2019 12:00,14.8,33,,,0.6,3,94,51,230,Light shower,1012,8,6,323,0,,13.9,
Stornoway Airport,14/09/2019 13:00,14.9,29,,,3,,96,49,230,Moderate rain,1012,8,3,181,0,,14.3,
Stornoway Airport,14/09/2019 14:00,15,31,,,1.6,,94,45,240,Light rain,1011,8,28,199,0,,14.1,
Stornoway Airport,14/09/2019 15:00,14.6,31,,,0.2,,95,46,250,Light drizzle,1011,8,13,370,0,,13.9,
Stornoway Airport,14/09/2019 16:00,13.2,25,,,0.6,,88,41,270,Rain,1012,3,14,214,0,,11.3,
Stornoway Airport,14/09/2019 17:00,12.8,23,,,0,,83,39,260,Dry,1012,7,20,202,0,,10,
Stornoway Airport,14/09/2019 18:00,12.3,23,,15.1,0,5,81,37,260,Dry,1012,8,19,74,0,,9.2,
Stornoway Airport,14/09/2019 19:00,12,23,,,0,,78,38,260,Dry,1012,8,20,26,0,,8.4,
Stornoway Airport,14/09/2019 20:00,12,22,,,0,,79,39,250,Dry,1012,8,20,0,0,,8.6,
Stornoway Airport,14/09/2019 21:00,11.7,24,,,0,,75,39,260,Dry,1013,8,20,0,0,,7.5,
Stornoway Airport,14/09/2019 22:00,11.2,24,,,0,,76,38,260,Rain,1013,8,21,0,0,,7.3,
Stornoway Airport,14/09/2019 23:00,11.3,29,,,0,,72,43,270,Dry,1014,3,25,0,0,,6.6,
Stornoway Airport,15/09/2019 00:00,10.5,25,,,0,0,75,44,280,Drizzly rain,1014,3,17,,,,6.3,
Stornoway Airport,15/09/2019 01:00,10.6,26,,,0,,65,43,280,Rain,1015,8,21,0,0,,4.4,
Stornoway Airport,15/09/2019 02:00,10.5,24,,,0,,70,38,280,Dry,1015,8,19,0,0,,5.3,
Stornoway Airport,15/09/2019 03:00,10.6,24,,,0,,71,37,270,Dry,1015,8,18,0,0,,5.6,
Stornoway Airport,15/09/2019 04:00,10.6,23,,,0,,67,38,290,Dry,1016,8,18,0,0,,4.9,
Stornoway Airport,15/09/2019 05:00,10.6,22,,,0,,68,36,270,Dry,1016,8,20,0,0,,5.1,
Stornoway Airport,15/09/2019 06:00,10.6,20,10.2,,0,0,71,33,280,Dry,1016,8,18,0,0,,5.7,
Stornoway Airport,15/09/2019 07:00,10.6,20,,,0,,71,30,270,Dry,1018,8,18,39,0,,5.7,
Stornoway Airport,15/09/2019 08:00,10.9,21,,,0,,70,30,290,Dry,1018,8,19,209,0,,5.8,
Stornoway Airport,15/09/2019 09:00,11,17,,,0,,74,,290,Dry,1018,3,18,330,0,,6.7,
Stornoway Airport,15/09/2019 10:00,11.3,21,,,0,,67,30,290,Dry,1019,8,24,439,0,,5.5,
Stornoway Airport,15/09/2019 11:00,11.8,17,,,0,,68,29,280,Dry,1019,8,24,647,0,,6.2,
Stornoway Airport,15/09/2019 12:00,13.3,24,,,0,0,52,32,290,Dry,1020,7,45,1365,24,,3.7,
Stornoway Airport,15/09/2019 13:00,12.9,22,,,0,,57,33,290,Dry,1020,7,35,1492,30,,4.8,
Stornoway Airport,15/09/2019 14:00,13.2,21,,,0,,57,31,290,Dry,1020,5,35,1550,48,,5.1,
Stornoway Airport,15/09/2019 15:00,13.4,18,,,0,,58,29,300,Dry,1020,6,50,1429,42,,5.4,
Stornoway Airport,15/09/2019 16:00,12.2,17,,,0,,63,29,280,Dry,1020,5,40,1008,30,,5.4,
Stornoway Airport,15/09/2019 17:00,12.3,15,,,0,,71,,270,Dry,1020,6,30,475,18,,7.3,
Stornoway Airport,15/09/2019 18:00,11.2,12,,14.1,0,0,71,,270,Dry,1020,0,35,455,54,,6.3,
Stornoway Airport,15/09/2019 19:00,9.5,10,,,0,,80,,250,Dry,1020,0,40,96,18,,6.3,
Stornoway Airport,15/09/2019 20:00,7.9,10,,,0,,87,,250,Dry,1020,0,40,0,0,,5.9,
Stornoway Airport,15/09/2019 21:00,8.7,9,,,0,,92,,230,Rain,1020,7,40,0,0,,7.5,
Stornoway Airport,15/09/2019 22:00,8.9,12,,,0,,88,,230,Dry,1020,6,45,0,0,,7.1,
Stornoway Airport,15/09/2019 23:00,9.1,10,,,0.2,,90,,240,Drizzly rain,1020,7,40,0,0,,7.7,
Stornoway Airport,16/09/2019 00:00,9.3,12,,,0,0.2,89,,230,Rain,1020,7,55,,,,7.6,
Stornoway Airport,16/09/2019 01:00,9.3,17,,,0.2,,91,,260,Rain,1020,7,35,0,0,,8,
Stornoway Airport,16/09/2019 02:00,9.6,14,,,0,,90,,240,Dry,1019,6,50,0,0,,8.2,
Stornoway Airport,16/09/2019 03:00,9.3,10,,,0,,90,,250,Dry,1019,7,45,0,0,,7.8,
Stornoway Airport,16/09/2019 04:00,9.5,12,,,0.2,,94,,250,Light shower,1019,7,55,0,0,,8.6,
Stornoway Airport,16/09/2019 05:00,9.2,13,,,0,,94,,220,Rain,1018,5,55,0,0,,8.4,
Stornoway Airport,16/09/2019 06:00,9.5,12,7.9,,0,0.4,90,,250,Dry,1018,7,75,0,0,,8,
Stornoway Airport,16/09/2019 07:00,9.5,9,,,0.2,,93,,240,Rain,1018,7,50,48,0,,8.5,
Stornoway Airport,16/09/2019 08:00,10.7,14,,,0,,85,,250,Dry,1019,7,55,292,6,,8.4,
Stornoway Airport,16/09/2019 09:00,12,20,,,0,,78,,270,Dry,1019,7,50,601,18,,8.4,
Stornoway Airport,16/09/2019 10:00,12.5,21,,,0,,76,31,270,Dry,1019,7,40,944,24,,8.5,
Stornoway Airport,16/09/2019 11:00,12.1,18,,,0.8,,88,33,270,Rain,1019,6,45,825,12,,10.2,
Stornoway Airport,16/09/2019 12:00,12.7,21,,,0,1,79,32,280,Dry,1020,7,40,1201,18,,9.3,
Stornoway Airport,16/09/2019 13:00,13.2,21,,,0,,69,31,280,Dry,1020,3,40,1615,42,,7.8,
Stornoway Airport,16/09/2019 14:00,13.3,22,,,0,,64,33,290,Dry,1020,6,35,1749,48,,6.8,
Stornoway Airport,16/09/2019 15:00,12.8,23,,,0,,61,35,300,Dry,1020,7,30,1454,48,,5.7,
Stornoway Airport,16/09/2019 16:00,12.7,22,,,0,,61,33,290,Dry,1020,2,30,1357,54,,5.5,
Stornoway Airport,16/09/2019 17:00,11.5,20,,,0,,66,30,290,Dry,1020,2,30,791,54,,5.4,
Stornoway Airport,16/09/2019 18:00,10.8,15,,14.5,0,0,69,,290,Dry,1020,1,35,326,36,,5.4,
Stornoway Airport,16/09/2019 19:00,9.6,13,,,0,,80,30,290,Rain,1021,7,35,57,0,,6.4,
Stornoway Airport,16/09/2019 20:00,9.6,13,,,0,,80,,280,Dry,1021,7,35,0,0,,6.5,
Stornoway Airport,16/09/2019 21:00,9,13,,,0,,74,,280,Dry,1021,1,35,0,0,,4.8,
Stornoway Airport,16/09/2019 22:00,9.1,10,,,0,,77,,290,Dry,1022,2,35,0,0,,5.3,
Stornoway Airport,16/09/2019 23:00,8,10,,,0,,75,,290,Dry,1022,2,35,0,0,,3.9,
Stornoway Airport,17/09/2019 00:00,8.1,13,,,0,0,72,,290,Dry,1022,3,40,,,,3.4,
Stornoway Airport,17/09/2019 01:00,7.7,10,,,0,,74,,280,Dry,1022,2,35,0,0,,3.5,
Stornoway Airport,17/09/2019 02:00,8.5,10,,,0,,79,,300,Light shower,1023,6,12,0,0,,5.1,
Stornoway Airport,17/09/2019 03:00,7.7,9,,,0.2,,82,,300,Rain,1023,2,35,0,0,,4.9,
Stornoway Airport,17/09/2019 04:00,7.9,9,,,0,,84,,300,Rain,1023,1,35,0,0,,5.4,
Stornoway Airport,17/09/2019 05:00,8.5,10,,,0,,83,,310,Dry,1024,5,35,0,0,,5.9,
Stornoway Airport,17/09/2019 06:00,8.2,12,7.5,,0,0.2,81,,320,Dry,1024,2,45,0,0,,5.3,
Stornoway Airport,17/09/2019 07:00,7.2,7,,,0,,88,,300,Dry,1025,7,35,63,0,,5.4,
Stornoway Airport,17/09/2019 08:00,9.7,10,,,0,,74,,330,Dry,1025,1,40,323,18,,5.4,
Stornoway Airport,17/09/2019 09:00,11.1,13,,,0,,65,,340,Dry,1026,1,45,743,30,,4.8,
Stornoway Airport,17/09/2019 10:00,11.8,14,,,0,,56,,310,Dry,1026,8,45,1023,18,,3.4,
Stornoway Airport,17/09/2019 11:00,11.6,13,,,0,,57,,310,Dry,1027,8,50,993,0,,3.6,
Stornoway Airport,17/09/2019 12:00,11.9,13,,,0,0,62,,310,Dry,1027,8,35,917,0,,4.9,
Stornoway Airport,17/09/2019 13:00,12.6,12,,,0,,49,,310,Dry,1027,7,60,1588,42,,2.4,
Stornoway Airport,17/09/2019 14:00,12.6,9,,,0,,57,,320,Dry,1027,8,45,1261,18,,4.5,
Stornoway Airport,17/09/2019 15:00,12.3,10,,,0,,60,,320,Dry,1028,7,50,849,0,,4.8,
Stornoway Airport,17/09/2019 16:00,11.8,8,,,0,,59,,330,Dry,1028,1,40,661,0,,4.2,
Stornoway Airport,17/09/2019 17:00,11.4,6,,,0,,62,,310,Dry,1027,8,35,326,0,,4.6,
Stornoway Airport,17/09/2019 18:00,11.1,3,,13.2,0,0,68,,330,Dry,1027,8,28,153,0,,5.5,
Stornoway Airport,17/09/2019 19:00,10.3,3,,,0,,68,,310,Light shower,1028,7,45,16,0,,4.7,
Stornoway Airport,17/09/2019 20:00,9.9,2,,,0.2,,75,,290,Light rain,1028,8,20,0,0,,5.7,
Stornoway Airport,17/09/2019 21:00,9,0,,,0.4,,82,,0,Light rain,1028,8,17,0,0,,6.1,
Stornoway Airport,17/09/2019 22:00,8.2,6,,,0.4,,86,,110,Light rain,1028,8,35,0,0,,6.1,
Stornoway Airport,17/09/2019 23:00,8.6,6,,,0.6,,95,,160,Light drizzle,1027,8,4,0,0,,7.9,
Stornoway Airport,18/09/2019 00:00,8.6,13,,,0.4,2,96,,170,Rain,1027,6,7,,,,8,
Stornoway Airport,18/09/2019 01:00,8.9,14,,,0.6,,97,,170,Drizzly rain,1026,4,4,0,0,,8.5,
Stornoway Airport,18/09/2019 02:00,9.5,17,,,1.2,,98,,170,Light drizzle,1025,8,3,0,0,,9.3,
Stornoway Airport,18/09/2019 03:00,10.1,15,,,1.4,,99,,170,Light drizzle,1024,8,4,0,0,,10,
Stornoway Airport,18/09/2019 04:00,11.7,13,,,0.8,,100,,190,Rain,1024,8,4,0,0,,11.7,
Stornoway Airport,18/09/2019 05:00,11.9,7,,,0.4,,100,,240,Rain,1024,1,4,0,0,,11.9,
Stornoway Airport,18/09/2019 06:00,12.5,8,8.2,,0.4,5,100,,260,Misty,1024,8,4,0,0,,12.5,
Stornoway Airport,18/09/2019 07:00,12.7,8,,,0,,100,,270,Misty,1025,4,8,26,0,,12.7,
Stornoway Airport,18/09/2019 08:00,13.1,9,,,0,,100,,280,Dry,1025,5,15,140,0,,13.1,
Stornoway Airport,18/09/2019 09:00,13.6,10,,,0,,99,,280,Dry,1026,5,75,399,0,,13.5,
Stornoway Airport,18/09/2019 10:00,13.9,12,,,0,,98,,280,Dry,1026,8,70,546,0,,13.6,
Stornoway Airport,18/09/2019 11:00,14.4,10,,,0,,96,,260,Dry,1026,8,75,774,0,,13.8,
Stornoway Airport,18/09/2019 12:00,15.4,10,,,0,0,92,,270,Dry,1026,8,75,996,0,,14.2,
Stornoway Airport,18/09/2019 13:00,15.8,13,,,0,,89,,280,Dry,1027,8,75,1184,6,,14,
Stornoway Airport,18/09/2019 14:00,15.3,14,,,0,,90,,280,Dry,1027,8,75,1098,6,,13.7,
Stornoway Airport,18/09/2019 15:00,15.6,14,,,0,,87,,270,Dry,1027,8,75,1160,24,,13.5,
Stornoway Airport,18/09/2019 16:00,14.7,13,,,0,,90,,290,Dry,1027,3,75,649,0,,13.2,
Stornoway Airport,18/09/2019 17:00,14.5,12,,,0,,92,,280,Dry,1028,3,75,484,0,,13.3,
Stornoway Airport,18/09/2019 18:00,14.2,8,,16.1,0,0,94,,260,Dry,1028,8,75,183,0,,13.3,
Stornoway Airport,18/09/2019 19:00,13.8,9,,,0,,95,,260,Dry,1028,8,75,21,0,,13.1,
Stornoway Airport,18/09/2019 20:00,13.6,12,,,0,,96,,260,Dry,1028,8,75,0,0,,13.1,
Stornoway Airport,18/09/2019 21:00,13.4,10,,,0,,97,,270,Dry,1028,8,75,0,0,,13,
Stornoway Airport,18/09/2019 22:00,13,10,,,0,,96,,260,Dry,1028,8,75,0,0,,12.5,
Stornoway Airport,18/09/2019 23:00,12.8,13,,,0,,97,,260,Dry,1028,1,75,0,0,,12.4,
Stornoway Airport,19/09/2019 00:00,12.6,12,,,0,0,97,,250,Dry,1028,3,75,,,,12.2,
Stornoway Airport,19/09/2019 01:00,12.2,13,,,0,,98,,260,Dry,1028,3,75,0,0,,11.9,
Stornoway Airport,19/09/2019 02:00,12.2,7,,,0,,98,,250,Dry,1028,7,75,0,0,,12,
Stornoway Airport,19/09/2019 03:00,12.2,9,,,0,,96,,260,Dry,1028,7,75,0,0,,11.7,
Stornoway Airport,19/09/2019 04:00,12.2,5,,,0,,96,,220,Dry,1028,8,75,0,0,,11.7,
Stornoway Airport,19/09/2019 05:00,12.1,7,,,0,,97,,250,Misty,1028,8,8,0,0,,11.7,
Stornoway Airport,19/09/2019 06:00,11.9,7,11.8,,0,0,98,,240,Dry,1028,8,35,0,0,,11.7,
Stornoway Airport,19/09/2019 07:00,12.2,6,,,0,,98,,200,Dry,1028,8,75,14,0,,11.9,
Stornoway Airport,19/09/2019 08:00,12.8,6,,,0,,95,,210,Dry,1028,8,75,78,0,,12.1,
Stornoway Airport,19/09/2019 09:00,13,7,,,0,,94,,210,Dry,1028,8,11,150,0,,12.2,
Stornoway Airport,19/09/2019 10:00,13.9,9,,,0,,91,,230,Dry,1028,8,75,332,0,,12.5,
Stornoway Airport,19/09/2019 11:00,13.6,10,,,0,,90,,250,Dry,1028,8,70,314,0,,12.1,
Stornoway Airport,19/09/2019 12:00,14.7,14,,,0,0,79,,250,Dry,1028,8,70,619,0,,11.2,
Stornoway Airport,19/09/2019 13:00,16.4,12,,,0,,75,,250,Dry,1028,7,65,966,6,,12,
Stornoway Airport,19/09/2019 14:00,16,12,,,0,,74,,230,Dry,1028,5,70,1608,48,,11.4,
Stornoway Airport,19/09/2019 15:00,16.4,13,,,0,,68,,250,Dry,1028,1,75,1540,54,,10.6,
Stornoway Airport,19/09/2019 16:00,16.2,12,,,0,,69,,240,Dry,1027,0,75,1308,60,,10.6,
Stornoway Airport,19/09/2019 17:00,14.8,10,,,0,,79,,200,Dry,1027,0,75,825,60,,11.2,
Stornoway Airport,19/09/2019 18:00,13.2,14,,16.8,0,0,84,,210,Dry,1027,0,75,415,60,,10.7,
Stornoway Airport,19/09/2019 19:00,12.1,14,,,0,,89,,210,Dry,1027,0,75,68,30,,10.4,
Stornoway Airport,19/09/2019 20:00,11.7,10,,,0,,92,,200,Dry,1027,0,75,0,0,,10.6,
Stornoway Airport,19/09/2019 21:00,11.3,9,,,0,,94,,210,Dry,1027,0,65,0,0,,10.4,
Stornoway Airport,19/09/2019 22:00,11.8,15,,,0,,94,,210,Dry,1027,0,60,0,0,,10.9,
Stornoway Airport,19/09/2019 23:00,11.8,16,,,0,,94,,200,Dry,1027,0,55,0,0,,10.9,
Stornoway Airport,20/09/2019 00:00,11.7,14,,,0,0,92,,210,Dry,1026,0,65,,,,10.6,
Stornoway Airport,20/09/2019 01:00,11,5,,,0,,94,,210,Dry,1026,0,50,0,0,,10.2,
Stornoway Airport,20/09/2019 02:00,10.6,8,,,0,,94,,220,Dry,1025,0,50,0,0,,9.8,
Stornoway Airport,20/09/2019 03:00,12,13,,,0,,87,,200,Dry,1025,0,75,0,0,,10,
Stornoway Airport,20/09/2019 04:00,11.4,8,,,0,,92,,180,Dry,1024,0,50,0,0,,10.3,
Stornoway Airport,20/09/2019 05:00,11.2,5,,,0,,93,,180,Dry,1024,0,55,0,0,,10.2,
Stornoway Airport,20/09/2019 06:00,10.4,3,10.4,,0,0,86,,240,Dry,1024,0,75,0,0,,8.3,
Stornoway Airport,20/09/2019 07:00,12.1,6,,,0,,89,,210,Dry,1024,0,75,46,18,,10.5,
Stornoway Airport,20/09/2019 08:00,13.4,8,,,0,,84,,190,Dry,1023,0,75,264,60,,10.9,
Stornoway Airport,20/09/2019 09:00,14.7,8,,,0,,80,,180,Dry,1023,0,75,748,60,,11.4,
Stornoway Airport,20/09/2019 10:00,15.2,6,,,0,,77,,170,Dry,1023,0,65,1306,60,,11.3,
Stornoway Airport,20/09/2019 11:00,16,9,,,-0.2,,,,150,Dry,,1,55,1547,60,,11,
Stornoway Airport,20/09/2019 12:00,17,15,,,-0.2,,,,190,Fog,,0,75,1744,60,,12,
Stornoway Airport,20/09/2019 13:00,18,12,,,-0.2,,,,180,Dry,,0,55,1907,60,,12,
Stornoway Airport,20/09/2019 14:00,18,12,,,-0.2,,,,160,Dry,,0,75,1355,60,,12,
Stornoway Airport,20/09/2019 15:00,17,12,,,-0.2,,,,170,Dry,,0,75,1635,60,,12,
Stornoway Airport,20/09/2019 16:00,17.2,10,,,-0.2,,71,,180,Dry,1019,0,75,1280,60,,12.1,
Stornoway Airport,20/09/2019 17:00,17.2,8,,,0,,67,,200,Dry,1018,0,75,861,60,,11.2,
Stornoway Airport,20/09/2019 18:00,16.3,7,,,0,,73,,200,Dry,1018,0,75,396,60,,11.5,
Stornoway Airport,20/09/2019 19:00,12.3,6,,,0,,88,,110,Dry,1018,0,60,51,24,,10.5,
Stornoway Airport,20/09/2019 20:00,11.7,9,,,0,,92,,90,Dry,1017,0,70,0,0,,10.6,
Stornoway Airport,20/09/2019 21:00,12.4,8,,,0,,89,,100,Dry,1016,0,75,0,0,,10.8,
Stornoway Airport,20/09/2019 22:00,12.3,9,,,0,,89,,100,Dry,1016,0,75,0,0,,10.6,
Stornoway Airport,20/09/2019 23:00,11.4,5,,,0,,85,,80,Dry,1015,0,75,0,0,,9.1,
Stornoway Airport,21/09/2019 00:00,10,1,,,0,0,92,,360,Dry,1014,0,60,,,,8.8,
Stornoway Airport,21/09/2019 01:00,10.2,1,,,0,,96,,240,Dry,1014,0,50,0,0,,9.6,
Stornoway Airport,21/09/2019 02:00,11.5,3,,,0,,86,,160,Dry,1013,0,75,0,0,,9.3,
Stornoway Airport,21/09/2019 03:00,8.9,5,,,0,,93,,310,Dry,1013,0,45,0,0,,7.9,
Stornoway Airport,21/09/2019 04:00,10.1,2,,,0,,95,,60,Dry,1012,0,60,0,0,,9.4,
Stornoway Airport,21/09/2019 05:00,10.2,3,,,0,,96,,20,Dry,1012,0,45,0,0,,9.7,
Stornoway Airport,21/09/2019 06:00,10,5,8.6,,0,0,94,,50,Dry,1011,0,70,0,0,,9.2,
Stornoway Airport,21/09/2019 07:00,10.1,2,,,0,,85,,190,Dry,1011,0,75,42,24,,7.7,
Stornoway Airport,21/09/2019 08:00,13.6,1,,,0,,90,,130,Dry,1010,0,75,248,48,,12.1,
Stornoway Airport,21/09/2019 09:00,17.2,7,,,0,,68,,130,Dry,1010,0,75,750,60,,11.4,
Stornoway Airport,21/09/2019 10:00,18.3,8,,,0,,59,,140,Dry,1010,0,75,1326,60,,10.4,
Stornoway Airport,21/09/2019 11:00,19.2,8,,,0,,58,,150,Dry,1009,0,75,1533,60,,10.8,
Stornoway Airport,21/09/2019 12:00,18.8,7,,,0,0,61,,180,Dry,1008,0,75,1883,60,,11.2,
Stornoway Airport,21/09/2019 13:00,20,8,,,0,,58,,150,Dry,1008,0,75,1794,60,,11.7,
Stornoway Airport,21/09/2019 14:00,20.5,6,,,0,,52,,170,Dry,1007,0,75,1337,60,,10.4,
Stornoway Airport,21/09/2019 15:00,19.8,7,,,0,,54,,150,Dry,1007,0,75,1530,60,,10.3,
Stornoway Airport,21/09/2019 16:00,19.7,6,,,0,,57,,160,Dry,1006,0,75,1239,60,,11.1,
Stornoway Airport,21/09/2019 17:00,18,2,,,0,,68,,70,Dry,1005,0,75,767,60,,12.1,
Stornoway Airport,21/09/2019 18:00,16.8,6,,20.8,0,0,68,,60,Dry,1005,1,75,303,42,,11,
Stornoway Airport,21/09/2019 19:00,16.5,7,,,0,,67,,120,Dry,1005,0,75,17,0,,10.4,
Stornoway Airport,21/09/2019 20:00,16.8,16,,,0,,67,,120,Dry,1005,0,70,0,0,,10.7,
Stornoway Airport,21/09/2019 21:00,16.3,16,,,0,,69,,120,Dry,1005,0,55,0,0,,10.8,
Stornoway Airport,21/09/2019 22:00,15.7,9,,,0,,72,,130,Dry,1005,0,45,0,0,,10.7,
Stornoway Airport,21/09/2019 23:00,14.6,3,,,0,,76,,280,Dry,1005,0,40,0,0,,10.5,
Stornoway Airport,22/09/2019 00:00,14,1,,,0,0,80,,160,Dry,1004,0,20,,,,10.7,
Stornoway Airport,22/09/2019 01:00,11.9,3,,,0,,87,,280,Dry,1004,0,40,0,0,,9.9,
Stornoway Airport,22/09/2019 02:00,11.4,2,,,0,,89,,100,Dry,1004,0,35,0,0,,9.7,
Stornoway Airport,22/09/2019 03:00,12,3,,,0,,87,,70,Dry,1003,4,40,0,0,,10,
Stornoway Airport,22/09/2019 04:00,13.2,2,,,0,,87,,250,Dry,1003,7,45,0,0,,11.1,
Stornoway Airport,22/09/2019 05:00,12.4,3,,,0,,91,,130,Dry,1002,1,23,0,0,,11.1,
Stornoway Airport,22/09/2019 06:00,12.2,2,10.9,,0,0,94,,20,Dry,1002,0,30,0,0,,11.4,
Stornoway Airport,22/09/2019 07:00,12.9,2,,,0,,91,,40,Dry,1002,1,30,30,0,,11.5,
Stornoway Airport,22/09/2019 08:00,13.6,6,,,0,,91,,50,Dry,1002,6,30,138,0,,12.2,
Stornoway Airport,22/09/2019 09:00,14.7,6,,,0,,82,,80,Dry,1002,7,45,369,0,,11.8,
Stornoway Airport,22/09/2019 10:00,14.7,5,,,0,,87,,40,Dry,1002,7,30,523,0,,12.6,
Stornoway Airport,22/09/2019 11:00,16.6,9,,,0,,71,,110,Dry,1001,1,45,1273,48,,11.5,
Stornoway Airport,22/09/2019 12:00,16.6,7,,,0,0,77,,100,Dry,1001,7,40,741,6,,12.6,
Stornoway Airport,22/09/2019 13:00,17.9,6,,,0,,70,,110,Dry,1001,7,50,845,6,,12.5,
Stornoway Airport,22/09/2019 14:00,16.4,5,,,0,,78,,40,Dry,1001,7,35,1139,36,,12.7,
Stornoway Airport,22/09/2019 15:00,15.6,3,,,0.2,,85,,60,Moderate shower,1001,7,16,732,18,,13.1,
Stornoway Airport,22/09/2019 16:00,16.8,2,,,0,,81,,100,Rain,1001,8,24,359,0,,13.6,
Stornoway Airport,22/09/2019 17:00,18.4,7,,,0,,74,,120,Dry,1001,7,60,475,12,,13.7,
Stornoway Airport,22/09/2019 18:00,16.1,6,,18.9,0,0.2,84,,180,Dry,1001,8,35,192,0,,13.4,
Stornoway Airport,22/09/2019 19:00,15.6,3,,,0,,86,,360,Dry,1001,7,28,26,0,,13.4,
Stornoway Airport,22/09/2019 20:00,15.1,3,,,0,,90,,20,Dry,1001,7,18,0,0,,13.5,
Stornoway Airport,22/09/2019 21:00,15.4,5,,,0,,88,,100,Rain,1001,7,19,0,0,,13.5,
Stornoway Airport,22/09/2019 22:00,15.7,3,,,0,,86,,80,Dry,1001,8,19,0,0,,13.5,
Stornoway Airport,22/09/2019 23:00,14.6,5,,,0,,90,,240,Dry,1001,8,15,0,0,,13,
Stornoway Airport,23/09/2019 00:00,15,13,,,0.2,0.2,92,,150,Light shower,1001,8,17,,,,13.8,
Stornoway Airport,23/09/2019 01:00,14.3,6,,,0,,94,,170,Light shower,1001,8,11,0,0,,13.4,
Stornoway Airport,23/09/2019 02:00,13.7,5,,,0.2,,97,,150,Rain,1001,8,11,0,0,,13.3,
Stornoway Airport,23/09/2019 03:00,13.8,1,,,0,,98,,170,Dry,1001,8,15,0,0,,13.5,
Stornoway Airport,23/09/2019 04:00,13.8,2,,,0,,98,,340,Misty,1001,8,6,0,0,,13.6,
Stornoway Airport,23/09/2019 05:00,13.9,2,,,0,,98,,80,Rain,1001,8,12,0,0,,13.7,
Stornoway Airport,23/09/2019 06:00,13.9,3,13.4,,0.2,0.4,98,,50,Moderate shower,1001,8,6,0,0,,13.7,
Stornoway Airport,23/09/2019 07:00,14.3,6,,,1.6,,99,,130,Moderate rain,1001,8,3,4,0,,14.2,
Stornoway Airport,23/09/2019 08:00,13.8,9,,,1.2,,100,,150,Drizzly rain,1002,8,4,45,0,,13.8,
Stornoway Airport,23/09/2019 09:00,14.3,6,,,0.2,,100,,170,Rain,1001,8,4,191,0,,14.3,
Stornoway Airport,23/09/2019 10:00,14.4,8,,,0,,100,,150,Rain,1001,8,4,581,0,,14.4,
Stornoway Airport,23/09/2019 11:00,14.6,7,,,0,,100,,160,Misty,1001,8,5,744,0,,14.6,
Stornoway Airport,23/09/2019 12:00,14.7,7,,,0,3,99,,160,Misty,1001,8,5,570,0,,14.6,
Stornoway Airport,23/09/2019 13:00,16.2,7,,,0,,95,,160,Dry,1001,5,26,1013,18,,15.5,
Stornoway Airport,23/09/2019 14:00,17.8,7,,,0,,86,,150,Dry,1001,5,65,1492,60,,15.5,
Stornoway Airport,23/09/2019 15:00,15.4,6,,,0,,91,,180,Moderate shower,1001,7,35,722,18,,14,
Stornoway Airport,23/09/2019 16:00,15.2,9,,,0.8,,95,,150,Rain,1001,8,30,382,0,,14.5,
Stornoway Airport,23/09/2019 17:00,14.3,15,,,0,,89,,210,Dry,1001,8,75,520,12,,12.6,
Stornoway Airport,23/09/2019 18:00,13.5,10,,18.3,0,1,88,,200,Dry,1001,6,65,219,18,,11.7,
Stornoway Airport,23/09/2019 19:00,12.4,7,,,0,,90,,200,Dry,1001,1,70,26,0,,10.9,
Stornoway Airport,23/09/2019 20:00,11.5,6,,,0,,94,,210,Dry,1001,0,75,0,0,,10.7,
Stornoway Airport,23/09/2019 21:00,11.9,5,,,0,,90,,190,Dry,1001,0,75,0,0,,10.4,
Stornoway Airport,23/09/2019 22:00,12,7,,,0,,90,,130,Dry,1001,0,75,0,0,,10.5,
Stornoway Airport,23/09/2019 23:00,12.4,8,,,0,,96,,70,Dry,1000,0,50,0,0,,11.8,
Stornoway Airport,24/09/2019 00:00,11.8,9,,,0,0,91,,80,Dry,1000,0,75,,,,10.5,
Stornoway Airport,24/09/2019 01:00,11.8,10,,,0,,92,,90,Dry,999,0,70,0,0,,10.6,
Stornoway Airport,24/09/2019 02:00,12,9,,,0,,89,,90,Dry,998,6,65,0,0,,10.4,
Stornoway Airport,24/09/2019 03:00,12.4,12,,,0,,88,,90,Dry,998,8,60,0,0,,10.6,
Stornoway Airport,24/09/2019 04:00,12.2,9,,,0,,91,,100,Dry,997,8,45,0,0,,10.8,
Stornoway Airport,24/09/2019 05:00,12.9,9,,,0,,89,,110,Dry,997,8,50,0,0,,11.3,
Stornoway Airport,24/09/2019 06:00,12.7,7,11,,0,0,91,,110,Dry,996,7,40,0,0,,11.4,
Stornoway Airport,24/09/2019 07:00,13.3,9,,,0,,89,,150,Dry,997,8,55,12,0,,11.6,
Stornoway Airport,24/09/2019 08:00,14,9,,,0,,87,,150,Dry,997,7,75,120,0,,11.9,
Stornoway Airport,24/09/2019 09:00,13.5,7,,,0.2,,95,,170,Rain,997,8,60,197,0,,12.8,
Stornoway Airport,24/09/2019 10:00,14.7,10,,,0,,88,,150,Rain,997,8,70,600,0,,12.8,
Stornoway Airport,24/09/2019 11:00,14.6,6,,,0,,88,,180,Dry,997,8,65,842,12,,12.7,
Stornoway Airport,24/09/2019 12:00,15.7,8,,,0,0.2,85,,150,Dry,998,8,75,876,6,,13.3,
Stornoway Airport,24/09/2019 13:00,15.9,6,,,0,,84,,170,Dry,997,5,75,1401,48,,13.3,
Stornoway Airport,24/09/2019 14:00,17.8,6,,,0,,78,,150,Dry,997,7,75,1097,36,,14,
Stornoway Airport,24/09/2019 15:00,15.7,5,,,0,,88,,50,Dry,997,7,75,663,18,,13.8,
Stornoway Airport,24/09/2019 16:00,14.8,7,,,0,,92,,40,Dry,997,8,60,524,0,,13.6,
Stornoway Airport,24/09/2019 17:00,15.3,7,,,0,,90,,30,Dry,997,8,55,642,30,,13.7,
Stornoway Airport,24/09/2019 18:00,14.3,9,,18.4,0,0,91,,50,Dry,997,2,75,390,54,,12.9,
Stornoway Airport,24/09/2019 19:00,13.5,7,,,0,,94,,40,Dry,998,1,30,31,0,,12.6,
Stornoway Airport,24/09/2019 20:00,13.8,7,,,0,,95,,50,Dry,998,0,40,0,0,,13.1,
Stornoway Airport,24/09/2019 21:00,14.3,8,,,0,,97,,40,Dry,998,6,40,0,0,,13.9,
Stornoway Airport,24/09/2019 22:00,14.3,12,,,0,,95,,90,Dry,998,4,35,0,0,,13.6,
Stornoway Airport,24/09/2019 23:00,14.2,10,,,0,,94,,50,Dry,997,7,40,0,0,,13.4,
Stornoway Airport,25/09/2019 00:00,13.8,7,,,0,0,94,,110,Dry,997,7,50,,,,13,
Stornoway Airport,25/09/2019 01:00,14.2,10,,,0,,95,,70,Dry,997,7,70,0,0,,13.5,
Stornoway Airport,25/09/2019 02:00,14.1,7,,,0,,95,,50,Dry,997,8,60,0,0,,13.4,
Stornoway Airport,25/09/2019 03:00,14.4,7,,,0,,92,,70,Dry,997,6,35,0,0,,13.2,
Stornoway Airport,25/09/2019 04:00,14.4,10,,,0,,92,,70,Dry,997,6,35,0,0,,13.2,
Stornoway Airport,25/09/2019 05:00,13.9,12,,,0,,94,,90,Dry,997,7,35,0,0,,13.1,
Stornoway Airport,25/09/2019 06:00,13.7,9,13.5,,0,0,96,,60,Dry,996,6,26,0,0,,13.1,
Stornoway Airport,25/09/2019 07:00,13.9,12,,,0,,95,,70,Dry,996,8,50,26,0,,13.2,
Stornoway Airport,25/09/2019 08:00,14.9,16,,,0,,91,,90,Dry,996,8,45,283,30,,13.6,
Stornoway Airport,25/09/2019 09:00,16,17,,,0,,83,,110,Dry,996,1,75,655,60,,13.3,
Stornoway Airport,25/09/2019 10:00,16.3,20,,,0,,82,,110,Dry,996,1,75,1119,60,,13.3,
Stornoway Airport,25/09/2019 11:00,16.9,20,,,0,,79,,110,Dry,996,4,50,1656,60,,13.3,
Stornoway Airport,25/09/2019 12:00,17,18,,,0,0,81,,120,Dry,995,2,45,1440,60,,13.9,
Stornoway Airport,25/09/2019 13:00,16.3,17,,,0,,83,,130,Dry,995,7,75,1002,18,,13.5,
Stornoway Airport,25/09/2019 14:00,16.2,14,,,0,,83,,130,Dry,995,8,75,869,0,,13.4,
Stornoway Airport,25/09/2019 15:00,15.8,12,,,0,,86,,130,Dry,994,8,55,657,0,,13.5,
Stornoway Airport,25/09/2019 16:00,14.7,7,,,0,,91,,170,Dry,994,8,50,331,0,,13.3,
Stornoway Airport,25/09/2019 17:00,14.2,8,,,0,,98,,170,Rain,994,8,22,218,0,,13.9,
Stornoway Airport,25/09/2019 18:00,13.8,10,,17.3,0.6,0.6,98,,160,Rain,994,8,40,40,0,,13.6,
Stornoway Airport,25/09/2019 19:00,13.9,12,,,0.2,,98,,170,Light drizzle,994,8,3,5,0,,13.7,
Stornoway Airport,25/09/2019 20:00,13.9,13,,,0.2,,98,,170,Rain,993,8,35,0,0,,13.7,
Stornoway Airport,25/09/2019 21:00,14,14,,,0,,98,,150,Dry,993,6,40,0,0,,13.8,
Stornoway Airport,25/09/2019 22:00,13.9,12,,,0.4,,99,,150,Rain,992,8,45,0,0,,13.8,
Stornoway Airport,25/09/2019 23:00,14.1,12,,,0,,97,,120,Dry,992,8,35,0,0,,13.7,
Stornoway Airport,26/09/2019 00:00,14.2,14,,,0,0.8,96,,110,Dry,991,6,75,,,,13.6,
Stornoway Airport,26/09/2019 01:00,13.8,13,,,0,,95,,100,Dry,990,8,55,0,0,,13.1,
Stornoway Airport,26/09/2019 02:00,14.1,13,,,0.4,,93,,130,Moderate shower,990,8,8,0,0,,13.1,
Stornoway Airport,26/09/2019 03:00,13.8,15,,,0.6,,94,,130,Moderate rain,989,8,6,0,0,,12.9,
Stornoway Airport,26/09/2019 04:00,13.7,22,,,0.8,,94,29,120,Light shower,988,7,19,0,0,,12.8,
Stornoway Airport,26/09/2019 05:00,14.1,23,,,0,,90,30,120,Rain,987,8,35,0,0,,12.6,
Stornoway Airport,26/09/2019 06:00,13.6,15,13.6,,0,2.2,94,,160,Rain,988,8,3,0,0,,12.8,
Stornoway Airport,26/09/2019 07:00,13.3,16,,,1.4,,98,,150,Rain,988,8,26,9,0,,13.1,
Stornoway Airport,26/09/2019 08:00,13.4,14,,,0,,97,,170,Dry,988,7,19,132,0,,13,
Stornoway Airport,26/09/2019 09:00,13.7,15,,,0,,91,,160,Dry,988,8,18,482,6,,12.3,
Stornoway Airport,26/09/2019 10:00,13.8,18,,,0,,94,,200,Dry,988,7,55,390,0,,12.9,
Stornoway Airport,26/09/2019 11:00,13.9,18,,,0,,86,,220,Dry,988,8,50,636,0,,11.7,
Stornoway Airport,26/09/2019 12:00,14.3,13,,,0,1,84,,200,Dry,988,7,35,961,18,,11.8,
Stornoway Airport,26/09/2019 13:00,15.1,15,,,0,,81,,210,Rain,988,8,55,753,12,,12,
Stornoway Airport,26/09/2019 14:00,15.1,15,,,0,,80,,190,Dry,989,1,30,1381,60,,11.7,
Stornoway Airport,26/09/2019 15:00,14.8,12,,,0,,84,,180,Dry,989,3,40,1119,54,,12.3,
Stornoway Airport,26/09/2019 16:00,13.6,12,,,0,,89,,180,Dry,989,6,30,601,18,,11.9,
Stornoway Airport,26/09/2019 17:00,12.5,13,,,0,,95,,180,Drizzly rain,989,8,11,235,0,,11.8,
Stornoway Airport,26/09/2019 18:00,12.8,10,,16.5,0.2,1,96,,190,Drizzly rain,989,7,13,58,0,,12.3,
Stornoway Airport,26/09/2019 19:00,12.4,10,,,0.6,,95,,180,Moderate rain,990,1,3,2,0,,11.7,
Stornoway Airport,26/09/2019 20:00,12.5,12,,,0.8,,96,,160,Rain,990,8,28,0,0,,11.9,
Stornoway Airport,26/09/2019 21:00,12.3,10,,,0,,93,,180,Dry,990,0,30,0,0,,11.3,
Stornoway Airport,26/09/2019 22:00,12.4,12,,,0,,93,,180,Dry,990,6,26,0,0,,11.4,
Stornoway Airport,26/09/2019 23:00,12.2,10,,,0,,92,,180,Dry,991,1,35,0,0,,11.1,
Stornoway Airport,27/09/2019 00:00,12.1,12,,,0,1,93,,180,Dry,991,1,35,,,,11.1,
Stornoway Airport,27/09/2019 01:00,11.9,10,,,0,,94,,170,Dry,991,1,45,0,0,,11,
Stornoway Airport,27/09/2019 02:00,11.6,7,,,0,,95,,180,Dry,991,4,35,0,0,,10.9,
Stornoway Airport,27/09/2019 03:00,11.9,9,,,0,,96,,180,Dry,991,2,40,0,0,,11.3,
Stornoway Airport,27/09/2019 04:00,11.9,9,,,0,,96,,170,Dry,991,4,45,0,0,,11.4,
Stornoway Airport,27/09/2019 05:00,12,9,,,0.2,,95,,170,Dry,991,6,50,0,0,,11.3,
Stornoway Airport,27/09/2019 06:00,12,8,11.5,,0,1,94,,170,Dry,991,3,55,0,0,,11.2,
Stornoway Airport,27/09/2019 07:00,11.6,7,,,0,,95,,170,Dry,992,4,50,13,0,,10.9,
Stornoway Airport,27/09/2019 08:00,12.2,8,,,0,,91,,190,Dry,992,1,65,171,6,,10.9,
Stornoway Airport,27/09/2019 09:00,13.5,5,,,0,,89,,220,Dry,992,3,55,517,36,,11.8,
Stornoway Airport,27/09/2019 10:00,14.1,7,,,0,,82,,190,Dry,992,0,75,936,54,,11.2,
Stornoway Airport,27/09/2019 11:00,13.2,7,,,0,,88,,180,Dry,993,5,60,958,42,,11.3,
Stornoway Airport,27/09/2019 12:00,14.8,9,,,0,0,82,,180,Dry,993,7,75,1263,24,,11.8,
Stornoway Airport,27/09/2019 13:00,15.6,5,,,0,,79,,210,Dry,993,5,65,2017,60,,12,
Stornoway Airport,27/09/2019 14:00,12.1,6,,,0.4,,91,,310,Moderate shower,994,7,2,533,6,,10.8,
Stornoway Airport,27/09/2019 15:00,13,1,,,1.4,,90,,40,Moderate rain,994,7,7,897,0,,11.4,
Stornoway Airport,27/09/2019 16:00,13.3,3,,,0,,86,,320,Rain,994,7,75,1089,30,,11.1,
Stornoway Airport,27/09/2019 17:00,12.1,5,,,0,,92,,220,Dry,994,7,60,171,0,,10.9,
Stornoway Airport,27/09/2019 18:00,12,2,,16.1,1,3,94,,280,Rain,994,8,45,86,0,,11.1,
Stornoway Airport,27/09/2019 19:00,10,5,,,0,,96,,240,Dry,995,5,30,10,0,,9.5,
Stornoway Airport,27/09/2019 20:00,9.3,5,,,0,,97,,250,Misty,995,2,17,0,0,,9,
Stornoway Airport,27/09/2019 21:00,7.7,3,,,0,,97,,290,Dry,995,0,18,0,0,,7.4,
Stornoway Airport,27/09/2019 22:00,7.8,5,,,0,,98,,270,Dry,996,0,30,0,0,,7.6,
Stornoway Airport,27/09/2019 23:00,9,3,,,0,,99,,270,Dry,996,7,50,0,0,,8.9,
Stornoway Airport,28/09/2019 00:00,9.5,6,,,0,0,100,,270,Dry,996,8,40,,,,9.5,
Stornoway Airport,28/09/2019 01:00,9.5,3,,,0,,99,,270,Dry,997,8,45,0,0,,9.4,
Stornoway Airport,28/09/2019 02:00,9.4,2,,,0,,99,,290,Dry,997,8,30,0,0,,9.3,
Stornoway Airport,28/09/2019 03:00,9.2,5,,,0,,100,,260,Dry,997,7,40,0,0,,9.2,
Stornoway Airport,28/09/2019 04:00,9.6,6,,,0,,99,,250,Dry,997,7,35,0,0,,9.5,
Stornoway Airport,28/09/2019 05:00,8.6,5,,,0,,98,,290,Dry,997,5,20,0,0,,8.4,
Stornoway Airport,28/09/2019 06:00,7.5,6,7.5,,0,0,99,,230,Dry,998,5,23,0,0,,7.4,
Stornoway Airport,28/09/2019 07:00,9.4,5,,,0,,100,,300,Dry,998,7,45,11,0,,9.4,
Stornoway Airport,28/09/2019 08:00,10.6,6,,,0,,100,,300,Dry,999,7,50,123,0,,10.6,
Stornoway Airport,28/09/2019 09:00,11.5,6,,,0,,100,,290,Dry,999,6,65,280,0,,11.5,
Stornoway Airport,28/09/2019 10:00,12.8,10,,,0,,91,,290,Dry,1000,7,75,835,24,,11.4,
Stornoway Airport,28/09/2019 11:00,13.3,9,,,0,,87,,300,Dry,1000,7,65,1065,36,,11.2,
Stornoway Airport,28/09/2019 12:00,14,8,,,0,0,84,,300,Rain,1001,8,75,886,12,,11.4,
Stornoway Airport,28/09/2019 13:00,13.4,2,,,0.2,,88,,20,Rain,1001,7,75,770,18,,11.6,
Stornoway Airport,28/09/2019 14:00,14,5,,,0,,82,,320,Rain,1001,8,75,421,0,,11.1,
Stornoway Airport,28/09/2019 15:00,13.9,6,,,0,,83,,320,Dry,1001,8,65,440,0,,11.1,
Stornoway Airport,28/09/2019 16:00,12.7,6,,,0,,91,,160,Dry,1001,8,75,325,0,,11.3,
Stornoway Airport,28/09/2019 17:00,12.6,6,,,0,,93,,170,Dry,1001,7,50,161,0,,11.5,
Stornoway Airport,28/09/2019 18:00,11.4,5,,14.5,0,0.2,93,,170,Dry,1002,3,50,76,0,,10.4,
Stornoway Airport,28/09/2019 19:00,11,0,,,0,,95,,0,Dry,1002,5,35,2,0,,10.3,
Stornoway Airport,28/09/2019 20:00,10.1,2,,,0,,96,,300,Dry,1002,2,11,0,0,,9.6,
Stornoway Airport,28/09/2019 21:00,8.8,3,,,0,,97,,300,Fog,1002,5,19,0,0,,8.5,
Stornoway Airport,28/09/2019 22:00,9.8,2,,,0,,98,,360,Dry,1002,8,30,0,0,,9.6,
Stornoway Airport,28/09/2019 23:00,11.2,5,,,0,,99,,30,Dry,1002,8,45,0,0,,11.1,
Stornoway Airport,29/09/2019 00:00,11.4,7,,,0,0,96,,70,Dry,1001,8,75,,,,10.9,
Stornoway Airport,29/09/2019 01:00,10.6,6,,,0,,96,,70,Dry,1001,7,75,0,0,,10.1,
Stornoway Airport,29/09/2019 02:00,10.8,3,,,0,,98,,70,Dry,1001,7,75,0,0,,10.6,
Stornoway Airport,29/09/2019 03:00,12,9,,,0,,95,,50,Dry,1000,8,55,0,0,,11.3,
Stornoway Airport,29/09/2019 04:00,12.2,10,,,0,,94,,50,Dry,1000,8,45,0,0,,11.3,
Stornoway Airport,29/09/2019 05:00,12.2,10,,,0,,90,,60,Dry,1000,8,45,0,0,,10.7,
Stornoway Airport,29/09/2019 06:00,12.4,12,8.7,,0,0,89,,60,Dry,1000,8,40,0,0,,10.7,
Stornoway Airport,29/09/2019 07:00,12.2,9,,,0,,90,,70,Dry,1000,8,40,5,0,,10.7,
Stornoway Airport,29/09/2019 08:00,12.6,10,,,0,,92,,60,Dry,1000,8,35,62,0,,11.4,
Stornoway Airport,29/09/2019 09:00,12.9,9,,,0,,94,,50,Dry,1001,2,30,151,0,,12,
Stornoway Airport,29/09/2019 10:00,13.1,10,,,0,,92,,50,Rain,1001,8,40,281,0,,11.9,
Stornoway Airport,29/09/2019 11:00,13.5,12,,,0,,91,,50,Dry,1002,8,45,546,0,,12.2,
Stornoway Airport,29/09/2019 12:00,13.8,12,,,0,0,90,,40,Dry,1002,8,35,836,0,,12.2,
Stornoway Airport,29/09/2019 13:00,13.6,12,,,0,,91,,40,Dry,1002,8,35,870,0,,12.3,
Stornoway Airport,29/09/2019 14:00,12.5,15,,,0,,92,,20,Dry,1003,8,20,711,0,,11.3,
Stornoway Airport,29/09/2019 15:00,12.2,8,,,1.2,,95,,30,Light rain,1003,8,21,401,0,,11.5,
Stornoway Airport,29/09/2019 16:00,12.7,10,,,0,,94,,30,Rain,1003,8,40,352,0,,11.8,
Stornoway Airport,29/09/2019 17:00,12.2,13,,,0,,96,,40,Dry,1004,8,29,269,0,,11.7,
Stornoway Airport,29/09/2019 18:00,11.6,12,,13.9,0.2,1,96,,10,Rain,1004,8,17,62,0,,11.1,
Stornoway Airport,29/09/2019 19:00,11.2,14,,,0,,92,,10,Dry,1005,8,35,3,0,,10.1,
Stornoway Airport,29/09/2019 20:00,10.6,10,,,0,,91,,360,Dry,1006,8,35,0,0,,9.3,
Stornoway Airport,29/09/2019 21:00,10.3,8,,,0,,94,,340,Dry,1006,6,30,0,0,,9.5,
Stornoway Airport,29/09/2019 22:00,10.8,9,,,0,,94,,340,Dry,1006,7,27,0,0,,9.9,
Stornoway Airport,29/09/2019 23:00,10.8,17,,,0,,96,,20,Dry,1007,8,26,0,0,,10.2,
Stornoway Airport,30/09/2019 00:00,11.1,13,,,0,0,94,,20,Dry,1007,1,25,,,,10.3,
Stornoway Airport,30/09/2019 01:00,10.9,12,,,0,,91,,10,Dry,1008,8,27,0,0,,9.5,
Stornoway Airport,30/09/2019 02:00,10.4,16,,,0,,88,,10,Dry,1008,8,24,0,0,,8.6,
Stornoway Airport,30/09/2019 03:00,8.9,13,,,0,,86,,360,Dry,1009,3,25,0,0,,6.8,
Stornoway Airport,30/09/2019 04:00,9,15,,,0,,79,,360,Dry,1009,6,45,0,0,,5.6,
Stornoway Airport,30/09/2019 05:00,7.3,8,,,0,,86,,350,Dry,1009,6,21,0,0,,5.2,
Stornoway Airport,30/09/2019 06:00,8.6,17,7,,0,0,85,,30,Dry,1010,8,55,0,0,,6.3,
Stornoway Airport,30/09/2019 07:00,7.5,7,,,0,,93,,350,Drizzle,1010,5,29,10,0,,6.5,
Stornoway Airport,30/09/2019 08:00,8.5,13,,,0,,89,,10,Dry,1010,7,55,157,18,,6.9,
Stornoway Airport,30/09/2019 09:00,9.2,9,,,0,,87,,10,Dry,1010,6,45,379,18,,7.2,
Stornoway Airport,30/09/2019 10:00,9.5,16,,,0,,82,,20,Dry,1010,7,65,624,6,,6.7,
Stornoway Airport,30/09/2019 11:00,10.6,14,,,0,,75,,40,Dry,1010,3,45,1226,54,,6.5,
Stornoway Airport,30/09/2019 12:00,10.5,14,,,0,0,73,,40,Dry,1010,2,75,1678,54,,6,
Stornoway Airport,30/09/2019 13:00,11.2,14,,,0,,79,,40,Dry,1010,6,45,1683,54,,7.8,
Stornoway Airport,30/09/2019 14:00,10.5,17,,,0,,84,,30,Dry,1010,8,30,1081,36,,8,
Stornoway Airport,30/09/2019 15:00,10.2,15,,,0,,79,,60,Rain,1009,6,75,901,30,,6.9,
Stornoway Airport,30/09/2019 16:00,10.4,17,,,0,,72,,50,Dry,1009,6,75,966,54,,5.7,
Stornoway Airport,30/09/2019 17:00,9.8,18,,,0,,72,,50,Dry,1008,8,50,337,6,,5,
Stornoway Airport,30/09/2019 18:00,9.5,21,,11.2,0,0,69,,50,Dry,1008,7,50,93,0,,4.2,
Stornoway Airport,30/09/2019 19:00,9.7,21,,,0,,62,,60,Dry,1008,1,60,1,0,,3,
Stornoway Airport,30/09/2019 20:00,9.5,20,,,0,,64,,60,Dry,1008,0,55,0,0,,3.2,
Stornoway Airport,30/09/2019 21:00,9.4,20,,,0,,61,29,60,Dry,1008,0,50,0,0,,2.3,
Stornoway Airport,30/09/2019 22:00,8.5,17,,,0,,72,,70,Dry,1008,2,45,0,0,,3.8,
Stornoway Airport,30/09/2019 23:00,9.2,18,,,0,,67,,60,Dry,1008,7,55,0,0,,3.5,
Stornoway Airport,01/10/2019 00:00,9,17,,,0,0,71,29,70,Dry,1008,3,60,,,,4.1,
Stornoway Airport,01/10/2019 01:00,9.2,18,,,0,,68,,60,Dry,1008,4,55,0,0,,3.7,
Stornoway Airport,01/10/2019 02:00,9,20,,,0,,62,,50,Dry,1008,7,55,0,0,,2.3,
Stornoway Airport,01/10/2019 03:00,9,18,,,0,,66,,50,Dry,1008,7,35,0,0,,3,
Stornoway Airport,01/10/2019 04:00,8.7,18,,,0,,73,,40,Dry,1007,1,23,0,0,,4.2,
Stornoway Airport,01/10/2019 05:00,8.6,16,,,0,,72,29,50,Rain,1007,6,30,0,0,,3.9,
Stornoway Airport,01/10/2019 06:00,8.2,20,7.8,,0,0,72,,50,Dry,1008,8,16,0,0,,3.5,
Stornoway Airport,01/10/2019 07:00,8.8,18,,,0,,70,,40,Rain,1008,5,35,8,0,,3.8,
Stornoway Airport,01/10/2019 08:00,8.2,14,,,0,,79,,20,Rain,1008,3,35,167,24,,4.8,
Stornoway Airport,01/10/2019 09:00,8.6,16,,,0,,79,,10,Dry,1009,3,35,472,30,,5.2,
Stornoway Airport,01/10/2019 10:00,9.5,16,,,0,,77,,10,Rain,1010,7,30,1093,42,,5.7,
Stornoway Airport,01/10/2019 11:00,10.1,20,,,0,,70,,360,Rain,1010,2,30,921,24,,5,
Stornoway Airport,01/10/2019 12:00,9.7,18,,,0,0,73,,20,Rain,1010,6,35,1325,42,,5.2,
Stornoway Airport,01/10/2019 13:00,8.5,15,,,0.2,,84,,350,Moderate shower,1011,4,10,1306,36,,6,
Stornoway Airport,01/10/2019 14:00,9.9,17,,,0.2,,71,,350,Rain,1011,5,45,750,18,,4.9,
Stornoway Airport,01/10/2019 15:00,9.6,17,,,0,,69,,360,Dry,1012,1,30,685,42,,4.4,
Stornoway Airport,01/10/2019 16:00,7.7,13,,,0.8,,90,,340,Light shower,1012,7,70,607,24,,6.3,
Stornoway Airport,01/10/2019 17:00,8.1,17,,,0,,77,,10,Rain,1012,6,45,501,36,,4.5,
Stornoway Airport,01/10/2019 18:00,6.9,13,,11.3,0,1,82,,350,Dry,1013,0,19,152,18,,4.2,
Stornoway Airport,01/10/2019 19:00,6.4,12,,,0,,84,,350,Rain,1014,2,17,0,0,,3.9,
Stornoway Airport,01/10/2019 20:00,6.5,10,,,0,,84,,340,Dry,1014,3,23,0,0,,4,
Stornoway Airport,01/10/2019 21:00,7.2,18,,,0,,78,,20,Dry,1015,4,35,0,0,,3.7,
Stornoway Airport,01/10/2019 22:00,5,7,,,0,,89,,350,Dry,1015,0,19,0,0,,3.4,
Stornoway Airport,01/10/2019 23:00,4.3,8,,,0,,82,,340,Dry,1016,0,45,0,0,,1.6,
Stornoway Airport,02/10/2019 00:00,4,8,,,0,0,89,,350,Dry,1016,1,29,,,,2.4,
Stornoway Airport,02/10/2019 01:00,3,6,,,0,,90,,310,Dry,1016,0,60,0,0,,1.6,
Stornoway Airport,02/10/2019 02:00,3.5,7,,,0,,91,,310,Dry,1016,2,65,0,0,,2.2,
Stornoway Airport,02/10/2019 03:00,4.1,9,,,0.2,,87,,320,Rain,1016,0,35,0,0,,2.2,
Stornoway Airport,02/10/2019 04:00,5.5,9,,,0,,90,,320,Dry,1017,4,40,0,0,,4.1,
Stornoway Airport,02/10/2019 05:00,6.8,10,,,0,,88,,330,Light shower,1017,7,50,0,0,,5.1,
Stornoway Airport,02/10/2019 06:00,6.4,10,2.8,,0,0.2,90,,320,Rain,1018,3,40,0,0,,5,
Stornoway Airport,02/10/2019 07:00,7.5,10,,,0,,89,,350,Light shower,1018,7,11,4,0,,5.9,
Stornoway Airport,02/10/2019 08:00,7.2,7,,,0,,88,,300,Rain,1018,7,40,145,0,,5.4,
Stornoway Airport,02/10/2019 09:00,9.2,12,,,0,,82,,330,Dry,1019,7,10,315,0,,6.4,
Stornoway Airport,02/10/2019 10:00,9.9,12,,,0,,81,,320,Dry,1020,7,40,473,6,,6.9,
Stornoway Airport,02/10/2019 11:00,10.5,10,,,0,,69,,330,Dry,1020,8,30,613,0,,5.2,
Stornoway Airport,02/10/2019 12:00,10.9,14,,,0,0,72,,360,Dry,1020,7,16,1179,24,,6.1,
Stornoway Airport,02/10/2019 13:00,11.8,8,,,0,,64,,350,Dry,1020,7,19,1095,18,,5.4,
Stornoway Airport,02/10/2019 14:00,10.9,13,,,0,,68,,340,Dry,1021,4,29,1226,42,,5.3,
Stornoway Airport,02/10/2019 15:00,10.3,16,,,0,,75,,10,Dry,1021,1,24,762,24,,6.1,
Stornoway Airport,02/10/2019 16:00,10.3,9,,,0,,74,,320,Dry,1021,8,75,452,6,,5.9,
Stornoway Airport,02/10/2019 17:00,10.3,3,,,0,,78,,350,Rain,1021,1,14,309,0,,6.7,
Stornoway Airport,02/10/2019 18:00,9,9,,12.1,0,0,82,,20,Dry,1022,1,30,178,24,,6.2,
Stornoway Airport,02/10/2019 19:00,9.5,9,,,0,,76,,20,Dry,1022,7,27,0,0,,5.6,
Stornoway Airport,02/10/2019 20:00,8.6,7,,,0,,86,,330,Dry,1022,8,35,0,0,,6.4,
Stornoway Airport,02/10/2019 21:00,7.8,6,,,0,,88,,350,Haze,1022,5,10,0,0,,6,
Stornoway Airport,02/10/2019 22:00,6.4,5,,,0,,91,,340,Dry,1021,1,50,0,0,,5.1,
Stornoway Airport,02/10/2019 23:00,5.6,5,,,0,,91,,350,Dry,1021,1,20,0,0,,4.3,
Stornoway Airport,03/10/2019 00:00,5.2,3,,,0,0,91,,300,Dry,1021,7,70,,,,3.9,
Stornoway Airport,03/10/2019 01:00,6.2,2,,,0,,88,,270,Dry,1020,7,55,0,0,,4.4,
Stornoway Airport,03/10/2019 02:00,8.8,9,,,0,,77,,80,Dry,1020,8,45,0,0,,5,
Stornoway Airport,03/10/2019 03:00,9.5,10,,,0,,71,,100,Dry,1019,7,75,0,0,,4.6,
Stornoway Airport,03/10/2019 04:00,7.4,9,,,0,,87,,110,Haze,1018,3,7,0,0,,5.5,
Stornoway Airport,03/10/2019 05:00,7.2,9,,,0,,88,,110,Dry,1018,0,40,0,0,,5.5,
Stornoway Airport,03/10/2019 06:00,7.7,12,4.3,,0,0,85,,110,Dry,1017,0,35,0,0,,5.5,
Stornoway Airport,03/10/2019 07:00,7.9,13,,,0,,86,,110,Dry,1016,0,75,10,0,,5.8,
Stornoway Airport,03/10/2019 08:00,9,15,,,0,,84,,120,Dry,1016,0,30,159,42,,6.6,
Stornoway Airport,03/10/2019 09:00,9.5,21,,,0,,78,29,120,Dry,1015,0,75,451,42,,6,
Stornoway Airport,03/10/2019 10:00,10.7,17,,,0,,77,,130,Dry,1014,0,75,907,54,,6.9,
Stornoway Airport,03/10/2019 11:00,11.2,18,,,0,,73,,120,Dry,1013,0,75,1277,60,,6.6,
Stornoway Airport,03/10/2019 12:00,12.1,20,,,0,0,69,,110,Dry,1012,0,75,1374,60,,6.6,
Stornoway Airport,03/10/2019 13:00,11.9,18,,,0,,72,30,110,Dry,1010,0,75,895,48,,7.1,
Stornoway Airport,03/10/2019 14:00,12.1,24,,,0,,68,29,120,Dry,1009,7,75,830,6,,6.4,
Stornoway Airport,03/10/2019 15:00,11.9,23,,,0,,74,31,100,Dry,1007,1,75,653,0,,7.6,
Stornoway Airport,03/10/2019 16:00,11.5,24,,,0,,77,35,100,Dry,1005,1,65,434,0,,7.7,
Stornoway Airport,03/10/2019 17:00,11.6,24,,,0,,78,36,100,Dry,1004,1,60,173,0,,7.9,
Stornoway Airport,03/10/2019 18:00,11.5,26,,12.6,0,0,70,37,110,Dry,1004,8,45,43,0,,6.3,
Stornoway Airport,03/10/2019 19:00,11.3,21,,,0,,74,33,110,Dry,1003,8,60,0,0,,7,
Stornoway Airport,03/10/2019 20:00,11.2,21,,,0,,76,32,110,Dry,1003,8,50,0,0,,7.3,
Stornoway Airport,03/10/2019 21:00,10.8,22,,,0,,76,33,100,Dry,1002,8,55,0,0,,6.8,
Stornoway Airport,03/10/2019 22:00,10.6,25,,,0,,75,32,100,Dry,1001,8,45,0,0,,6.5,
Stornoway Airport,03/10/2019 23:00,10.5,28,,,0,,74,38,110,Dry,1001,8,55,0,0,,6.2,
Stornoway Airport,04/10/2019 00:00,10.7,25,,,0,0,76,37,110,Dry,1001,0,50,,,,6.8,
Stornoway Airport,04/10/2019 01:00,10.6,23,,,0,,81,32,100,Dry,1001,8,30,0,0,,7.6,
Stornoway Airport,04/10/2019 02:00,10.3,22,,,0,,81,37,100,Dry,1001,6,45,0,0,,7.2,
Stornoway Airport,04/10/2019 03:00,10.6,28,,,0,,79,38,100,Dry,1002,0,55,0,0,,7.2,
Stornoway Airport,04/10/2019 04:00,10.9,31,,,0,,77,43,100,Dry,1002,2,60,0,0,,7.1,
Stornoway Airport,04/10/2019 05:00,10.9,25,,,0,,78,38,90,Dry,1003,2,50,0,0,,7.4,
Stornoway Airport,04/10/2019 06:00,10.6,24,10.2,,0,0,81,37,80,Dry,1004,1,35,0,0,,7.6,
Stornoway Airport,04/10/2019 07:00,10.7,23,,,0,,80,35,80,Dry,1005,3,40,4,0,,7.4,
Stornoway Airport,04/10/2019 08:00,10.5,24,,,0,,83,33,90,Dry,1006,1,40,145,24,,7.9,
Stornoway Airport,04/10/2019 09:00,11.1,24,,,0,,78,37,90,Dry,1007,3,30,449,0,,7.6,
Stornoway Airport,04/10/2019 10:00,11.5,22,,,0,,76,32,80,Dry,1008,3,30,762,36,,7.6,
Stornoway Airport,04/10/2019 11:00,12.3,18,,,0,,76,,70,Dry,1010,7,35,998,24,,8.3,
Stornoway Airport,04/10/2019 12:00,11.9,18,,,0,0,71,,70,Dry,1010,5,50,963,18,,7,
Stornoway Airport,04/10/2019 13:00,12.5,21,,,0,,70,,80,Dry,1010,5,50,1382,48,,7.2,
Stornoway Airport,04/10/2019 14:00,12.8,17,,,0,,69,,80,Dry,1011,2,45,1494,60,,7.4,
Stornoway Airport,04/10/2019 15:00,12.2,17,,,0,,70,,90,Dry,1011,3,60,727,48,,7.1,
Stornoway Airport,04/10/2019 16:00,12.3,16,,,0,,70,,100,Dry,1011,1,70,651,42,,7.1,
Stornoway Airport,04/10/2019 17:00,11.5,18,,,0,,74,,100,Dry,1011,0,70,424,60,,7.1,
Stornoway Airport,04/10/2019 18:00,10.2,12,,13.4,0,0,79,,120,Dry,1012,1,23,77,12,,6.9,
Stornoway Airport,04/10/2019 19:00,10.1,15,,,0,,79,,110,Dry,1012,0,50,0,0,,6.8,
Stornoway Airport,04/10/2019 20:00,10.1,15,,,0,,80,,120,Dry,1013,4,26,0,0,,6.9,
Stornoway Airport,04/10/2019 21:00,9.8,18,,,0,,81,,110,Dry,1012,1,55,0,0,,6.8,
Stornoway Airport,04/10/2019 22:00,9.7,14,,,0,,80,,120,Dry,1013,4,60,0,0,,6.5,
Stornoway Airport,04/10/2019 23:00,9.7,13,,,0,,79,,130,Dry,1013,4,65,0,0,,6.3,
Stornoway Airport,05/10/2019 00:00,9.2,14,,,0,0,83,,130,Dry,1013,1,60,,,,6.5,
Stornoway Airport,05/10/2019 01:00,9.7,14,,,0,,80,,130,Dry,1012,7,65,0,0,,6.5,
Stornoway Airport,05/10/2019 02:00,10,12,,,0,,76,,130,Dry,1012,8,75,0,0,,6.1,
Stornoway Airport,05/10/2019 03:00,9.3,13,,,0,,79,,130,Dry,1012,8,75,0,0,,5.9,
Stornoway Airport,05/10/2019 04:00,9.5,14,,,0,,78,,130,Dry,1012,8,75,0,0,,5.9,
Stornoway Airport,05/10/2019 05:00,9.9,12,,,0,,78,,130,Dry,1011,8,70,0,0,,6.4,
Stornoway Airport,05/10/2019 06:00,10.3,8,8.9,,0,0,79,,130,Dry,1011,8,75,0,0,,7,
Stornoway Airport,05/10/2019 07:00,10.8,13,,,0,,75,,140,Dry,1012,8,75,6,0,,6.7,
Stornoway Airport,05/10/2019 08:00,11.3,13,,,0,,75,,140,Dry,1011,8,75,81,0,,7.2,
Stornoway Airport,05/10/2019 09:00,11.3,15,,,0,,80,,130,Dry,1011,1,70,205,0,,8,
Stornoway Airport,05/10/2019 10:00,11.9,15,,,0,,75,,130,Dry,1011,8,75,193,0,,7.7,
Stornoway Airport,05/10/2019 11:00,12.1,15,,,0,,74,,130,Dry,1011,8,75,200,0,,7.7,
Stornoway Airport,05/10/2019 12:00,12.3,12,,,0,0,77,,130,Dry,1010,8,75,185,0,,8.5,
Stornoway Airport,05/10/2019 13:00,12.6,12,,,0,,76,,130,Dry,1010,8,75,265,0,,8.5,
Stornoway Airport,05/10/2019 14:00,12.1,12,,,0,,81,,140,Light shower,1010,8,27,310,0,,9,
Stornoway Airport,05/10/2019 15:00,11.7,9,,,0.4,,85,,160,Light rain,1010,8,16,229,0,,9.4,
Stornoway Airport,05/10/2019 16:00,11,13,,,0.4,,90,,120,Light rain,1009,8,21,151,0,,9.5,
Stornoway Airport,05/10/2019 17:00,11.2,12,,,0.2,,89,,120,Rain,1009,8,75,90,0,,9.6,
Stornoway Airport,05/10/2019 18:00,11.6,16,,12.6,0,1,88,,120,Drizzly rain,1008,8,40,31,0,,9.7,
Stornoway Airport,05/10/2019 19:00,11.4,20,,,0,,89,,130,Light shower,1008,8,13,0,0,,9.8,
Stornoway Airport,05/10/2019 20:00,11,17,,,1.2,,94,,130,Light rain,1008,8,8,0,0,,10.1,
Stornoway Airport,05/10/2019 21:00,10.8,18,,,3.4,,96,,120,Moderate rain,1008,7,6,0,0,,10.3,
Stornoway Airport,05/10/2019 22:00,10.9,16,,,3.2,,96,,120,Moderate rain,1007,8,4,0,0,,10.4,
Stornoway Airport,05/10/2019 23:00,10.8,13,,,4,,97,,130,Moderate rain,1007,7,5,0,0,,10.4,
Stornoway Airport,06/10/2019 00:00,10.9,13,,,3.6,15,97,,120,Moderate rain,1006,7,8,,,,10.5,
Stornoway Airport,06/10/2019 01:00,11.1,10,,,1.6,,97,,130,Moderate rain,1006,7,4,0,0,,10.7,
Stornoway Airport,06/10/2019 02:00,11.2,10,,,1.8,,97,,130,Moderate rain,1006,7,11,0,0,,10.8,
Stornoway Airport,06/10/2019 03:00,11.2,10,,,1.6,,96,,140,Moderate rain,1006,7,11,0,0,,10.7,
Stornoway Airport,06/10/2019 04:00,11.2,10,,,1.4,,96,,140,Moderate rain,1006,8,9,0,0,,10.7,
Stornoway Airport,06/10/2019 05:00,11.2,12,,,1,,97,,150,Moderate rain,1006,8,10,0,0,,10.8,
Stornoway Airport,06/10/2019 06:00,11.3,10,10.8,,1,9,97,,140,Light rain,1006,8,10,0,0,,10.9,
Stornoway Airport,06/10/2019 07:00,11.4,10,,,0.6,,97,,140,Light drizzle,1007,8,8,1,0,,11,
Stornoway Airport,06/10/2019 08:00,11.4,12,,,1.6,,97,,140,Moderate drizzle,1008,8,3,21,0,,11,
Stornoway Airport,06/10/2019 09:00,11.4,13,,,0.8,,97,,140,Light drizzle,1008,8,10,137,0,,11,
Stornoway Airport,06/10/2019 10:00,11,14,,,1.8,,98,,140,Light drizzle,1009,8,5,221,0,,10.7,
Stornoway Airport,06/10/2019 11:00,11.2,16,,,0.4,,98,,140,Light drizzle,1010,8,5,479,0,,10.9,
Stornoway Airport,06/10/2019 12:00,11.7,15,,,0.6,6,95,,150,Rain,1010,8,75,546,0,,11,
Stornoway Airport,06/10/2019 13:00,12.6,14,,,0,,87,,160,Dry,1011,8,75,535,0,,10.6,
Stornoway Airport,06/10/2019 14:00,13.2,14,,,0,,85,,170,Dry,1011,8,75,827,0,,10.9,
Stornoway Airport,06/10/2019 15:00,13.3,17,,,0,,85,,170,Dry,1012,8,75,757,12,,11,
Stornoway Airport,06/10/2019 16:00,12.8,16,,,0,,84,,180,Dry,1012,7,75,362,0,,10.3,
Stornoway Airport,06/10/2019 17:00,11.4,22,,,0,,92,29,190,Drizzly rain,1013,7,12,64,0,,10.2,
Stornoway Airport,06/10/2019 18:00,11.2,17,,13.5,0.4,0,98,30,170,Rain,1012,7,7,22,0,,10.9,
Stornoway Airport,06/10/2019 19:00,11.9,16,,,0.2,,91,,170,Rain,1012,7,75,0,0,,10.5,
Stornoway Airport,06/10/2019 20:00,12.2,12,,,0,,88,,170,Dry,1011,7,75,0,0,,10.4,
Stornoway Airport,06/10/2019 21:00,12,14,,,0,,81,,160,Dry,1011,8,75,0,0,,9,
Stornoway Airport,06/10/2019 22:00,11.6,13,,,0,,85,,150,Dry,1010,8,75,0,0,,9.3,
Stornoway Airport,06/10/2019 23:00,12,16,,,0,,80,,160,Dry,1009,8,75,0,0,,8.8,
Stornoway Airport,07/10/2019 00:00,11.7,15,,,0,0.2,81,,150,Dry,1008,0,70,,,,8.7,
Stornoway Airport,07/10/2019 01:00,12.2,16,,,0,,79,,140,Dry,1006,8,70,0,0,,8.8,
Stornoway Airport,07/10/2019 02:00,12.8,22,,,0,,79,30,160,Dry,1004,8,55,0,0,,9.4,
Stornoway Airport,07/10/2019 03:00,12.4,21,,,0,,83,31,160,Light shower,1002,8,23,0,0,,9.7,
Stornoway Airport,07/10/2019 04:00,12.4,26,,,0.2,,86,39,170,Light shower,1000,8,21,0,0,,10.2,
Stornoway Airport,07/10/2019 05:00,12,37,,,0.6,,84,54,180,Light rain,999,7,40,0,0,,9.4,
Stornoway Airport,07/10/2019 06:00,10.5,37,10.5,,0.2,0.8,86,55,180,Light shower,998,8,4,0,0,,8.4,
Stornoway Airport,07/10/2019 07:00,11.1,31,,,0.8,,94,52,180,Light rain,997,8,5,1,0,,10.3,
Stornoway Airport,07/10/2019 08:00,11.2,28,,,0.4,,94,48,180,Drizzly rain,997,8,12,20,0,,10.3,
Stornoway Airport,07/10/2019 09:00,11.4,28,,,1.2,,95,44,180,Moderate rain,996,6,4,119,0,,10.7,
Stornoway Airport,07/10/2019 10:00,12.1,23,,,2.2,,94,45,200,Rain,995,6,20,196,0,,11.3,
Stornoway Airport,07/10/2019 11:00,13.9,21,,,0,,88,33,210,Dry,995,8,14,772,24,,12,
Stornoway Airport,07/10/2019 12:00,12.7,26,,,1.8,6,84,39,210,Rain,995,6,20,388,0,,10.2,
Stornoway Airport,07/10/2019 13:00,12.3,23,,,0,,79,37,210,Dry,995,8,22,535,0,,8.8,
Stornoway Airport,07/10/2019 14:00,12.9,20,,,0,,80,32,210,Dry,994,3,16,677,0,,9.6,
Stornoway Airport,07/10/2019 15:00,13,22,,,0,,75,35,220,Dry,994,7,17,559,6,,8.7,
Stornoway Airport,07/10/2019 16:00,9.8,24,,,1.4,,92,36,220,Moderate shower,994,6,3,335,0,,8.7,
Stornoway Airport,07/10/2019 17:00,12.3,23,,,0,,81,32,210,Rain,993,8,11,337,12,,9.3,
Stornoway Airport,07/10/2019 18:00,11.8,28,,14,0.2,2,84,40,210,Light shower,993,8,4,44,0,,9.3,
Stornoway Airport,07/10/2019 19:00,10.2,20,,,1.6,,91,32,230,Heavy shower,993,7,3,0,0,,8.8,
Stornoway Airport,07/10/2019 20:00,11,18,,,0.2,,88,,210,Rain,992,5,23,0,0,,9.1,
Stornoway Airport,07/10/2019 21:00,11.4,22,,,0,,86,29,210,Dry,991,5,21,0,0,,9.3,
Stornoway Airport,07/10/2019 22:00,11.1,18,,,0,,85,35,230,Rain,991,7,21,0,0,,8.7,
Stornoway Airport,07/10/2019 23:00,11.2,16,,,0,,85,30,200,Dry,991,8,18,0,0,,8.8,
Stornoway Airport,08/10/2019 00:00,11.3,24,,,0,2,82,35,220,Rain,990,1,22,,,,8.4,
Stornoway Airport,08/10/2019 01:00,11.2,22,,,0,,80,32,220,Rain,990,2,24,0,0,,7.9,
Stornoway Airport,08/10/2019 02:00,10.1,20,,,0,,75,43,220,Rain,989,4,45,0,0,,6,
Stornoway Airport,08/10/2019 03:00,11,21,,,0,,80,32,220,Dry,988,5,25,0,0,,7.8,
Stornoway Airport,08/10/2019 04:00,10.3,21,,,0,,80,35,210,Rain,987,0,30,0,0,,7.1,
Stornoway Airport,08/10/2019 05:00,10.7,22,,,0,,80,32,210,Dry,987,2,20,0,0,,7.5,
Stornoway Airport,08/10/2019 06:00,11.5,25,9.6,,0,0,77,36,210,Dry,986,6,18,0,0,,7.7,
Stornoway Airport,08/10/2019 07:00,11.2,30,,,0.2,,84,43,210,Light shower,985,8,15,0,0,,8.6,
Stornoway Airport,08/10/2019 08:00,10.9,28,,,0.4,,89,43,210,Light rain,984,7,12,27,0,,9.2,
Stornoway Airport,08/10/2019 09:00,10.9,24,,,0.8,,94,45,210,Light drizzle,984,1,7,132,0,,10.1,
Stornoway Airport,08/10/2019 10:00,11.7,20,,,0.2,,90,30,210,Light shower,983,8,23,255,0,,10.2,
Stornoway Airport,08/10/2019 11:00,12.2,23,,,0.2,,88,35,220,Light shower,983,7,22,581,0,,10.4,
Stornoway Airport,08/10/2019 12:00,11.7,23,,,0.6,2,91,35,230,Moderate rain,983,8,15,444,0,,10.4,
Stornoway Airport,08/10/2019 13:00,12,20,,,0.8,,91,31,230,Rain,983,7,40,459,0,,10.6,
Stornoway Airport,08/10/2019 14:00,12,13,,,0.6,,90,,230,Rain,983,7,26,402,0,,10.5,
Stornoway Airport,08/10/2019 15:00,11.9,17,,,0,,86,,230,Dry,983,7,30,474,0,,9.8,
Stornoway Airport,08/10/2019 16:00,11.3,16,,,0.4,,88,,220,Light shower,983,7,15,434,12,,9.5,
Stornoway Airport,08/10/2019 17:00,11.1,15,,,0,,88,,220,Rain,983,7,35,303,12,,9.3,
Stornoway Airport,08/10/2019 18:00,10.6,15,,12.3,0.4,3,91,31,220,Heavy rain,983,7,5,40,0,,9.3,
Stornoway Airport,08/10/2019 19:00,10.3,17,,,0,,91,,220,Moderate shower,983,6,9,0,0,,8.9,
Stornoway Airport,08/10/2019 20:00,9.8,14,,,0.4,,92,,220,Moderate shower,983,8,11,0,0,,8.6,
Stornoway Airport,08/10/2019 21:00,10.4,16,,,0.4,,93,,230,Light shower,983,2,16,0,0,,9.4,
Stornoway Airport,08/10/2019 22:00,10.5,20,,,0.2,,92,,240,Rain,983,6,28,0,0,,9.3,
Stornoway Airport,08/10/2019 23:00,10.5,23,,,0.2,,88,30,240,Dry,984,7,35,0,0,,8.7,
Stornoway Airport,09/10/2019 00:00,10.3,21,,,0.2,1,91,31,240,Rain,984,5,35,,,,9,
Stornoway Airport,09/10/2019 01:00,10.4,21,,,0.4,,91,39,240,Rain,984,7,23,0,0,,9,
Stornoway Airport,09/10/2019 02:00,10.7,21,,,0,,87,31,250,Dry,984,7,11,0,0,,8.7,
Stornoway Airport,09/10/2019 03:00,10.6,22,,,0,,89,33,240,Dry,983,8,30,0,0,,8.9,
Stornoway Airport,09/10/2019 04:00,10.5,21,,,0.2,,91,32,240,Light shower,983,8,6,0,0,,9.1,
Stornoway Airport,09/10/2019 05:00,10.3,20,,,0.6,,94,30,230,Moderate rain,983,8,29,0,0,,9.4,
Stornoway Airport,09/10/2019 06:00,10.3,18,9.7,,1,3,94,30,230,Light rain,983,7,9,0,0,,9.5,
Stornoway Airport,09/10/2019 07:00,10.5,23,,,0.8,,94,31,240,Rain,983,8,3,0,0,,9.7,
Stornoway Airport,09/10/2019 08:00,10.4,22,,,0.2,,94,32,240,Light shower,983,8,9,43,0,,9.6,
Stornoway Airport,09/10/2019 09:00,10.4,23,,,0.2,,94,36,250,Light shower,984,3,40,162,0,,9.5,
Stornoway Airport,09/10/2019 10:00,11,24,,,0,,89,36,240,Rain,983,7,40,325,0,,9.4,
Stornoway Airport,09/10/2019 11:00,11,26,,,0.2,,94,40,240,Moderate shower,983,8,24,423,0,,10.1,
Stornoway Airport,09/10/2019 12:00,11.5,24,,,0,1,91,36,250,Rain,984,8,45,605,0,,10.2,
Stornoway Airport,09/10/2019 13:00,12.2,25,,,0,,85,39,250,Dry,984,8,35,1223,36,,9.8,
Stornoway Airport,09/10/2019 14:00,11.1,25,,,0.4,,92,40,240,Moderate shower,984,8,4,667,6,,10,
Stornoway Airport,09/10/2019 15:00,11.1,24,,,1.2,,94,37,240,Rain,984,8,5,365,0,,10.3,
Stornoway Airport,09/10/2019 16:00,11.4,23,,,0.8,,96,37,250,Rain,984,5,12,250,0,,10.9,
Stornoway Airport,09/10/2019 17:00,11.3,21,,,1.2,,94,33,260,Rain,984,1,65,143,0,,10.5,
Stornoway Airport,09/10/2019 18:00,11,21,,12.7,0.8,5,92,33,270,Rain,985,3,50,45,0,,9.9,
Stornoway Airport,09/10/2019 19:00,11,20,,,0.2,,91,30,270,Rain,986,8,35,0,0,,9.6,
Stornoway Airport,09/10/2019 20:00,10.7,20,,,0,,89,30,270,Dry,986,3,45,0,0,,9,
Stornoway Airport,09/10/2019 21:00,10.7,17,,,0.4,,94,,270,Rain,987,7,45,0,0,,9.9,
Stornoway Airport,09/10/2019 22:00,10.4,17,,,1,,91,,290,Rain,988,8,40,0,0,,9.1,
Stornoway Airport,09/10/2019 23:00,9.8,17,,,0,,90,29,290,Dry,988,1,45,0,0,,8.4,
Stornoway Airport,10/10/2019 00:00,10,17,,,0,2,92,,290,Drizzly rain,990,1,12,,,,8.9,
Stornoway Airport,10/10/2019 01:00,10,14,,,0.2,,92,,290,Rain,990,8,13,0,0,,8.8,
Stornoway Airport,10/10/2019 02:00,9.4,18,,,0.6,,91,29,300,Rain,991,8,75,0,0,,8.1,
Stornoway Airport,10/10/2019 03:00,9.4,17,,,0.2,,88,29,300,Rain,993,8,15,0,0,,7.6,
Stornoway Airport,10/10/2019 04:00,9.2,14,,,0,,78,,290,Dry,993,6,60,0,0,,5.7,
Stornoway Airport,10/10/2019 05:00,9.3,12,,,0,,83,,280,Dry,994,8,40,0,0,,6.6,
Stornoway Airport,10/10/2019 06:00,9.3,12,8.8,,0,1,84,,280,Rain,995,7,50,0,0,,6.9,
Stornoway Airport,10/10/2019 07:00,9.1,14,,,0,,84,,280,Rain,995,8,55,0,0,,6.7,
Stornoway Airport,10/10/2019 08:00,9.4,12,,,0,,82,,270,Dry,996,8,60,59,0,,6.5,
Stornoway Airport,10/10/2019 09:00,10.1,8,,,0,,82,,240,Dry,996,8,60,270,6,,7.3,
Stornoway Airport,10/10/2019 10:00,11.7,12,,,0,,72,,270,Dry,996,5,65,679,36,,6.9,
Stornoway Airport,10/10/2019 11:00,11.8,8,,,0,,69,,240,Dry,996,6,70,875,30,,6.5,
Stornoway Airport,10/10/2019 12:00,11.3,10,,,0,0,72,,230,Dry,996,6,70,834,18,,6.6,
Stornoway Airport,10/10/2019 13:00,12.1,9,,,0,,77,,230,Dry,995,8,75,749,0,,8.3,
Stornoway Airport,10/10/2019 14:00,12,9,,,0,,72,,200,Dry,994,2,75,855,42,,7.3,
Stornoway Airport,10/10/2019 15:00,11.6,9,,,0,,82,,180,Dry,994,4,75,625,6,,8.8,
Stornoway Airport,10/10/2019 16:00,10.9,8,,,0,,84,,190,Dry,993,8,75,274,0,,8.4,
Stornoway Airport,10/10/2019 17:00,11.1,7,,,0,,83,,200,Dry,992,8,45,103,0,,8.5,
Stornoway Airport,10/10/2019 18:00,9.4,8,,12.8,1.6,2,92,,190,Light rain,991,8,13,7,0,,8.2,
Stornoway Airport,10/10/2019 19:00,9.8,9,,,0.6,,93,,140,Light rain,990,8,15,0,0,,8.8,
Stornoway Airport,10/10/2019 20:00,9.4,10,,,0.4,,95,,120,Light rain,989,8,20,0,0,,8.7,
Stornoway Airport,10/10/2019 21:00,9.5,14,,,3.6,,96,,110,Moderate rain,988,8,4,0,0,,9,
Stornoway Airport,10/10/2019 22:00,9.8,8,,,0.4,,97,,130,Rain,987,8,30,0,0,,9.4,
Stornoway Airport,10/10/2019 23:00,10.6,6,,,0.2,,98,,190,Rain,987,8,50,0,0,,10.3,
Stornoway Airport,11/10/2019 00:00,9.6,7,,,0,5,96,,230,Dry,987,3,40,,,,9,
Stornoway Airport,11/10/2019 01:00,9.6,7,,,0,,96,,220,Dry,987,7,24,0,0,,9,
Stornoway Airport,11/10/2019 02:00,10.4,12,,,0,,94,,210,Rain,986,6,23,0,0,,9.5,
Stornoway Airport,11/10/2019 03:00,10,13,,,0,,92,,210,Dry,986,4,35,0,0,,8.9,
Stornoway Airport,11/10/2019 04:00,9.9,10,,,0,,92,,210,Rain,985,3,35,0,0,,8.8,
Stornoway Airport,11/10/2019 05:00,8.7,3,,,0.2,,93,,270,Dry,985,1,30,0,0,,7.7,
Stornoway Airport,11/10/2019 06:00,7.8,6,7.8,,0,0,96,,230,Dry,985,7,35,0,0,,7.3,
Stornoway Airport,11/10/2019 07:00,8.6,5,,,0,,97,,230,Rain,985,7,50,0,0,,8.3,
Stornoway Airport,11/10/2019 08:00,9.9,7,,,0,,97,,210,Rain,985,8,60,52,0,,9.5,
Stornoway Airport,11/10/2019 09:00,11.7,10,,,0.2,,89,,220,Dry,985,7,45,449,6,,10.1,
Stornoway Airport,11/10/2019 10:00,12.2,7,,,0,,87,,220,Dry,985,5,60,806,48,,10.2,
Stornoway Airport,11/10/2019 11:00,12,14,,,0,,85,,260,Dry,985,5,75,951,48,,9.6,
Stornoway Airport,11/10/2019 12:00,12.2,15,,,0,0.2,88,,270,Light shower,986,7,70,847,12,,10.4,
Stornoway Airport,11/10/2019 13:00,12.1,13,,,0,,82,,270,Rain,986,7,55,687,6,,9.2,
Stornoway Airport,11/10/2019 14:00,12.3,9,,,0,,84,,300,Dry,987,7,75,447,0,,9.8,
Stornoway Airport,11/10/2019 15:00,11.6,7,,,0.6,,94,,340,Moderate shower,987,6,4,438,0,,10.8,
Stornoway Airport,11/10/2019 16:00,11.1,13,,,0.4,,93,,10,Rain,988,8,75,358,0,,10.1,
Stornoway Airport,11/10/2019 17:00,10.3,13,,,0.8,,96,,360,Light shower,989,8,40,71,0,,9.8,
Stornoway Airport,11/10/2019 18:00,9.7,13,,13,0,1.8,90,,330,Rain,990,7,65,42,0,,8.3,
Stornoway Airport,11/10/2019 19:00,8.9,9,,,0,,89,,310,Dry,991,6,75,0,0,,7.3,
Stornoway Airport,11/10/2019 20:00,7.7,9,,,0,,87,,280,Dry,992,4,75,0,0,,5.8,
Stornoway Airport,11/10/2019 21:00,7.7,8,,,0,,84,,270,Dry,993,1,75,0,0,,5.2,
Stornoway Airport,11/10/2019 22:00,8.1,10,,,0,,86,,270,Dry,993,8,75,0,0,,6,
Stornoway Airport,11/10/2019 23:00,7.4,9,,,0,,85,,250,Dry,994,7,75,0,0,,5.1,
Stornoway Airport,12/10/2019 00:00,7.8,10,,,0,0,86,,250,Dry,994,7,75,,,,5.7,
Stornoway Airport,12/10/2019 01:00,6.4,12,,,0,,90,,230,Dry,994,2,75,0,0,,5,
Stornoway Airport,12/10/2019 02:00,6.7,9,,,0,,92,,230,Dry,994,7,75,0,0,,5.6,
Stornoway Airport,12/10/2019 03:00,7.2,9,,,0,,90,,240,Dry,994,8,75,0,0,,5.8,
Stornoway Airport,12/10/2019 04:00,6.9,9,,,0,,92,,240,Dry,994,0,75,0,0,,5.8,
Stornoway Airport,12/10/2019 05:00,7,12,,,0,,95,,230,Dry,995,0,75,0,0,,6.3,
Stornoway Airport,12/10/2019 06:00,8.4,6,6,,0,0,94,,210,Dry,995,7,75,0,0,,7.6,
Stornoway Airport,12/10/2019 07:00,8.4,8,,,0,,94,,240,Rain,995,8,75,0,0,,7.5,
Stornoway Airport,12/10/2019 08:00,8.4,8,,,0,,96,,220,Dry,995,8,70,39,0,,7.8,
Stornoway Airport,12/10/2019 09:00,9.2,8,,,0.2,,96,,220,Rain,996,8,75,138,0,,8.7,
Stornoway Airport,12/10/2019 10:00,10.3,10,,,0,,94,,240,Dry,996,8,75,315,0,,9.4,
Stornoway Airport,12/10/2019 11:00,10.8,14,,,0,,92,,240,Dry,997,5,75,503,6,,9.7,
Stornoway Airport,12/10/2019 12:00,10.3,16,,,0,0.2,93,,240,Dry,997,8,60,589,0,,9.3,
Stornoway Airport,12/10/2019 13:00,10.3,14,,,0,,92,,250,Rain,998,7,75,323,0,,9.1,
Stornoway Airport,12/10/2019 14:00,10.5,13,,,0,,89,,260,Light shower,998,8,75,817,12,,8.9,
Stornoway Airport,12/10/2019 15:00,9.6,13,,,2.2,,91,,280,Heavy shower,998,8,3,566,18,,8.3,
Stornoway Airport,12/10/2019 16:00,10,7,,,0.6,,93,,300,Rain,998,8,75,207,0,,9,
Stornoway Airport,12/10/2019 17:00,9.6,8,,,0.2,,94,,240,Rain,998,4,75,158,0,,8.7,
Stornoway Airport,12/10/2019 18:00,8.8,6,,11.7,0,2.8,95,,260,Dry,999,7,75,53,0,,8.1,
Stornoway Airport,12/10/2019 19:00,8.3,2,,,0,,96,,270,Dry,1000,3,75,0,0,,7.8,
Stornoway Airport,12/10/2019 20:00,8.2,2,,,0,,97,,260,Dry,1000,4,75,0,0,,7.9,
Stornoway Airport,12/10/2019 21:00,5.9,1,,,0,,97,,270,Thickening fog,1000,1,1,0,0,,5.5,
Stornoway Airport,12/10/2019 22:00,7,2,,,0,,98,,230,Fog,1001,5,29,0,0,,6.8,
Stornoway Airport,12/10/2019 23:00,6.2,2,,,0,,98,,260,Dry,1001,7,28,0,0,,6,
Stornoway Airport,13/10/2019 00:00,6,3,,,0,0,99,,280,Light shower,1001,6,60,,,,5.9,
Stornoway Airport,13/10/2019 01:00,6.6,5,,,0,,99,,180,Rain,1001,1,75,0,0,,6.5,
Stornoway Airport,13/10/2019 02:00,4.7,2,,,0.2,,98,,290,Dry,1001,0,12,0,0,,4.5,
Stornoway Airport,13/10/2019 03:00,4.1,3,,,0,,99,,320,Dry,1001,3,50,0,0,,4,
Stornoway Airport,13/10/2019 04:00,5.7,1,,,0,,100,,300,Dry,1001,1,75,0,0,,5.7,
Stornoway Airport,13/10/2019 05:00,4.5,1,,,0,,100,,360,Dry,1001,1,75,0,0,,4.5,
Stornoway Airport,13/10/2019 06:00,5.5,2,3.6,,0,0.2,100,,180,Dry,1001,0,75,0,0,,5.5,
Stornoway Airport,13/10/2019 07:00,3.8,2,,,0,,99,,310,Fog,1001,1,1,0,0,,3.7,
Stornoway Airport,13/10/2019 08:00,4.7,2,,,1,,100,,300,Moderate shower,1002,6,2,34,0,,4.7,
Stornoway Airport,13/10/2019 09:00,6.1,2,,,0.4,,100,,360,Rain,1002,5,24,252,0,,6.1,
Stornoway Airport,13/10/2019 10:00,9.2,1,,,0,,100,,330,Dry,1002,6,30,431,6,,9.2,
Stornoway Airport,13/10/2019 11:00,11.1,3,,,0,,98,,50,Dry,1002,2,75,699,24,,10.8,
Stornoway Airport,13/10/2019 12:00,12.3,6,,,0,1,80,,140,Dry,1002,0,75,1215,60,,9,
Stornoway Airport,13/10/2019 13:00,12.3,8,,,0,,75,,100,Dry,1002,2,75,1128,60,,8.1,
Stornoway Airport,13/10/2019 14:00,11.9,8,,,0,,74,,80,Dry,1001,0,75,1110,60,,7.5,
Stornoway Airport,13/10/2019 15:00,11.8,8,,,0,,72,,60,Dry,1001,0,75,688,60,,7.1,
Stornoway Airport,13/10/2019 16:00,11.4,7,,,0,,75,,60,Dry,1001,0,75,561,60,,7.2,
Stornoway Airport,13/10/2019 17:00,10.9,7,,,0,,77,,60,Dry,1001,0,75,185,6,,7.2,
Stornoway Airport,13/10/2019 18:00,7.8,3,,12.8,0,0,86,,310,Dry,1002,4,75,25,0,,5.7,
Stornoway Airport,13/10/2019 19:00,6.8,2,,,0,,92,,360,Dry,1002,8,70,0,0,,5.7,
Stornoway Airport,13/10/2019 20:00,6.1,3,,,0,,95,,310,Dry,1002,8,75,0,0,,5.4,
Stornoway Airport,13/10/2019 21:00,6,6,,,0,,96,,310,Dry,1003,0,70,0,0,,5.5,
Stornoway Airport,13/10/2019 22:00,5.9,5,,,0,,96,,310,Dry,1003,3,75,0,0,,5.4,
Stornoway Airport,13/10/2019 23:00,5.7,5,,,0,,97,,300,Dry,1003,3,40,0,0,,5.4,
Stornoway Airport,14/10/2019 00:00,4.8,5,,,0,0,97,,310,Dry,1003,0,75,,,,4.5,
Stornoway Airport,14/10/2019 01:00,5.4,3,,,0,,98,,290,Dry,1004,8,75,0,0,,5.2,
Stornoway Airport,14/10/2019 02:00,5.9,2,,,0,,99,,270,Dry,1004,8,75,0,0,,5.8,
Stornoway Airport,14/10/2019 03:00,5.8,2,,,0,,98,,290,Dry,1004,8,75,0,0,,5.6,
Stornoway Airport,14/10/2019 04:00,6,3,,,0,,97,,220,Dry,1004,8,75,0,0,,5.6,
Stornoway Airport,14/10/2019 05:00,6.9,6,,,0,,98,,220,Dry,1005,8,75,0,0,,6.7,
Stornoway Airport,14/10/2019 06:00,7.2,5,4.5,,0.8,0.8,98,,230,Light shower,1005,8,75,0,0,,7,
Stornoway Airport,14/10/2019 07:00,7.2,2,,,0,,97,,220,Rain,1005,5,75,0,0,,6.9,
Stornoway Airport,14/10/2019 08:00,7.2,2,,,0,,98,,240,Dry,1006,7,75,25,0,,7,
Stornoway Airport,14/10/2019 09:00,10.3,14,,,0,,89,,180,Dry,1006,3,16,115,0,,8.6,
Stornoway Airport,14/10/2019 10:00,10.6,14,,,0,,87,,190,Haze,1006,5,6,220,0,,8.6,
Stornoway Airport,14/10/2019 11:00,10.7,12,,,0,,86,,190,Haze,1006,7,5,273,0,,8.5,
Stornoway Airport,14/10/2019 12:00,11.4,12,,,0,0,85,,190,Haze,1006,8,7,377,0,,9.1,
Stornoway Airport,14/10/2019 13:00,10.1,7,,,1.6,,93,,210,Moderate shower,1006,8,5,193,0,,9.1,
Stornoway Airport,14/10/2019 14:00,11,9,,,0.4,,92,,200,Rain,1006,8,10,335,0,,9.9,
Stornoway Airport,14/10/2019 15:00,11.9,13,,,0,,84,,190,Dry,1006,7,75,603,18,,9.3,
Stornoway Airport,14/10/2019 16:00,10.9,13,,,0,,85,,200,Dry,1006,7,75,439,24,,8.5,
Stornoway Airport,14/10/2019 17:00,9.3,7,,,0,,89,,220,Dry,1006,5,75,133,0,,7.6,
Stornoway Airport,14/10/2019 18:00,8.6,5,,11.9,0,2,90,,210,Dry,1006,1,75,18,0,,7.1,
Stornoway Airport,14/10/2019 19:00,7.5,3,,,0,,92,,220,Dry,1006,0,75,0,0,,6.4,
Stornoway Airport,14/10/2019 20:00,6.2,2,,,0,,95,,340,Dry,1006,0,22,0,0,,5.5,
Stornoway Airport,14/10/2019 21:00,5.4,1,,,0,,97,,60,Dry,1006,3,35,0,0,,5,
Stornoway Airport,14/10/2019 22:00,6.8,5,,,0,,97,,100,Dry,1006,3,75,0,0,,6.5,
Stornoway Airport,14/10/2019 23:00,7.9,8,,,0,,95,,100,Dry,1005,1,75,0,0,,7.2,
Stornoway Airport,15/10/2019 00:00,9,8,,,0,0,90,,120,Dry,1004,7,75,,,,7.6,
Stornoway Airport,15/10/2019 01:00,9.5,8,,,0,,85,,130,Dry,1004,7,75,0,0,,7.2,
Stornoway Airport,15/10/2019 02:00,10.5,9,,,0,,86,,130,Dry,1003,8,75,0,0,,8.3,
Stornoway Airport,15/10/2019 03:00,10.8,7,,,0,,83,,140,Dry,1002,8,75,0,0,,8.1,
Stornoway Airport,15/10/2019 04:00,10.9,8,,,0,,82,,140,Dry,1002,8,75,0,0,,8,
Stornoway Airport,15/10/2019 05:00,11,8,,,0,,82,,130,Dry,1001,7,75,0,0,,8.2,
Stornoway Airport,15/10/2019 06:00,11.2,10,5.1,,0,0,79,,140,Dry,1001,8,75,0,0,,7.8,
Stornoway Airport,15/10/2019 07:00,11.1,13,,,0,,82,,140,Rain,1001,8,75,0,0,,8.2,
Stornoway Airport,15/10/2019 08:00,11.1,13,,,0,,83,,130,Dry,1001,8,75,28,0,,8.4,
Stornoway Airport,15/10/2019 09:00,11.3,10,,,0,,83,,130,Dry,1000,8,75,116,0,,8.6,
Stornoway Airport,15/10/2019 10:00,12.6,12,,,0,,78,,140,Dry,1000,8,75,455,6,,8.9,
Stornoway Airport,15/10/2019 11:00,12.3,10,,,0,,81,,150,Dry,1000,8,75,757,12,,9.3,
Stornoway Airport,15/10/2019 12:00,13.1,12,,,0,0,74,,150,Dry,999,7,75,892,18,,8.6,
Stornoway Airport,15/10/2019 13:00,12.9,10,,,0,,75,,150,Dry,999,2,75,797,30,,8.6,
Stornoway Airport,15/10/2019 14:00,13.4,12,,,0,,71,,140,Dry,998,1,75,1001,60,,8.4,
Stornoway Airport,15/10/2019 15:00,12.5,10,,,0,,79,,140,Dry,998,3,75,340,18,,9.1,
Stornoway Airport,15/10/2019 16:00,12.7,9,,,0,,79,,140,Dry,998,8,75,375,0,,9.2,
Stornoway Airport,15/10/2019 17:00,11.8,8,,,0,,82,,130,Dry,998,8,75,130,0,,8.9,
Stornoway Airport,15/10/2019 18:00,12.1,8,,13.9,0,0,85,,130,Dry,998,8,75,9,0,,9.8,
Stornoway Airport,15/10/2019 19:00,12,14,,,0,,82,,130,Dry,997,7,70,0,0,,9.1,
Stornoway Airport,15/10/2019 20:00,11.2,16,,,0,,86,,120,Dry,997,8,45,0,0,,9,
Stornoway Airport,15/10/2019 21:00,11.4,15,,,0,,83,,130,Dry,997,1,60,0,0,,8.7,
Stornoway Airport,15/10/2019 22:00,11.2,22,,,0,,86,,120,Dry,996,8,50,0,0,,9,
Stornoway Airport,15/10/2019 23:00,11.2,17,,,0,,83,,130,Dry,996,8,60,0,0,,8.5,
Stornoway Airport,16/10/2019 00:00,11.3,18,,,0,0,83,,130,Dry,995,2,60,,,,8.6,
Stornoway Airport,16/10/2019 01:00,11.1,16,,,0,,82,,120,Dry,994,8,65,0,0,,8.3,
Stornoway Airport,16/10/2019 02:00,11.2,16,,,0,,83,,120,Dry,994,8,60,0,0,,8.5,
Stornoway Airport,16/10/2019 03:00,11.3,16,,,0,,80,,120,Dry,993,8,75,0,0,,8.1,
Stornoway Airport,16/10/2019 04:00,11,15,,,0,,83,,130,Dry,992,8,26,0,0,,8.3,
Stornoway Airport,16/10/2019 05:00,11.9,15,,,0,,77,,140,Rain,992,8,75,0,0,,8.1,
Stornoway Airport,16/10/2019 06:00,12.1,12,10.8,,0,0,79,,130,Dry,992,7,26,0,0,,8.6,
Stornoway Airport,16/10/2019 07:00,11.7,10,,,0,,86,,140,Rain,992,8,55,0,0,,9.5,
Stornoway Airport,16/10/2019 08:00,11.3,16,,,0.6,,96,,170,Moderate shower,992,8,6,5,0,,10.7,
Stornoway Airport,16/10/2019 09:00,10.3,8,,,0.4,,94,,260,Light shower,993,1,75,79,0,,9.4,
Stornoway Airport,16/10/2019 10:00,10.8,8,,,0,,94,,230,Rain,994,8,40,253,0,,9.9,
Stornoway Airport,16/10/2019 11:00,11.7,10,,,0,,85,,230,Dry,994,7,50,586,6,,9.4,
Stornoway Airport,16/10/2019 12:00,12.9,10,,,0,1,77,,210,Dry,995,6,45,860,24,,9.1,
Stornoway Airport,16/10/2019 13:00,13.6,10,,,0,,69,,230,Dry,995,4,55,1167,54,,8.1,
Stornoway Airport,16/10/2019 14:00,13.5,10,,,0,,71,,220,Dry,995,1,55,905,48,,8.4,
Stornoway Airport,16/10/2019 15:00,12,9,,,0,,70,,210,Dry,996,1,60,550,42,,6.8,
Stornoway Airport,16/10/2019 16:00,11,6,,,0.6,,83,,200,Light shower,996,7,25,279,0,,8.4,
Stornoway Airport,16/10/2019 17:00,10,6,,,0.2,,83,,210,Rain,996,1,55,221,18,,7.4,
Stornoway Airport,16/10/2019 18:00,9.4,7,,13.8,0,1,86,,200,Dry,997,0,45,17,0,,7.3,
Stornoway Airport,16/10/2019 19:00,9.7,12,,,0,,89,,200,Light shower,997,4,23,0,0,,8.1,
Stornoway Airport,16/10/2019 20:00,9.6,10,,,0,,86,,210,Rain,997,3,60,0,0,,7.5,
Stornoway Airport,16/10/2019 21:00,8.4,8,,,0,,89,,210,Dry,998,1,55,0,0,,6.8,
Stornoway Airport,16/10/2019 22:00,8.9,3,,,0,,93,,200,Dry,998,0,50,0,0,,7.9,
Stornoway Airport,16/10/2019 23:00,8.9,7,,,0,,87,,220,Dry,998,0,50,0,0,,7,
Stornoway Airport,17/10/2019 00:00,10.1,9,,,0,0,82,,180,Dry,998,1,55,,,,7.2,
Stornoway Airport,17/10/2019 01:00,10.3,13,,,0,,84,,170,Dry,998,4,55,0,0,,7.8,
Stornoway Airport,17/10/2019 02:00,10.4,16,,,0,,82,,170,Dry,998,0,60,0,0,,7.5,
Stornoway Airport,17/10/2019 03:00,10.5,16,,,0,,79,,170,Dry,997,0,65,0,0,,7.1,
Stornoway Airport,17/10/2019 04:00,10.3,16,,,0,,79,,160,Dry,997,0,55,0,0,,6.9,
Stornoway Airport,17/10/2019 05:00,10.3,17,,,0,,75,,150,Dry,997,0,60,0,0,,6.1,
Stornoway Airport,17/10/2019 06:00,10.3,14,8,,0,0,72,,140,Dry,997,0,60,0,0,,5.6,
Stornoway Airport,17/10/2019 07:00,10.1,13,,,0,,78,,130,Dry,997,0,50,0,0,,6.6,
Stornoway Airport,17/10/2019 08:00,10.1,15,,,0,,76,,130,Dry,997,0,55,55,0,,6.2,
Stornoway Airport,17/10/2019 09:00,10.6,15,,,0,,74,,130,Dry,998,1,60,303,24,,6.3,
Stornoway Airport,17/10/2019 10:00,11.4,14,,,0,,70,,130,Dry,998,0,70,648,60,,6.2,
Stornoway Airport,17/10/2019 11:00,12,14,,,0,,72,,130,Dry,998,0,65,781,48,,7.2,
Stornoway Airport,17/10/2019 12:00,12.5,14,,,0,0,67,,140,Dry,997,0,70,1003,60,,6.7,
Stornoway Airport,17/10/2019 13:00,12.6,10,,,0,,71,,130,Dry,997,1,65,1083,60,,7.5,
Stornoway Airport,17/10/2019 14:00,12,14,,,0,,71,,120,Dry,997,4,75,646,24,,7,
Stornoway Airport,17/10/2019 15:00,11.9,14,,,0,,73,,110,Dry,997,6,75,491,0,,7.3,
Stornoway Airport,17/10/2019 16:00,11.4,14,,,0,,77,,100,Dry,997,8,70,334,0,,7.7,
Stornoway Airport,17/10/2019 17:00,11,14,,,0,,78,,110,Dry,996,8,75,113,0,,7.4,
Stornoway Airport,17/10/2019 18:00,10.6,9,,12.9,0,0,82,,110,Dry,997,3,70,7,0,,7.7,
Stornoway Airport,17/10/2019 19:00,10.5,9,,,0,,85,,100,Dry,996,8,65,0,0,,8.2,
Stornoway Airport,17/10/2019 20:00,11,12,,,0,,84,,110,Dry,996,8,65,0,0,,8.5,
Stornoway Airport,17/10/2019 21:00,10.4,10,,,0,,86,,90,Dry,996,8,65,0,0,,8.2,
Stornoway Airport,17/10/2019 22:00,10.6,10,,,0,,85,,110,Dry,996,8,75,0,0,,8.3,
Stornoway Airport,17/10/2019 23:00,9.9,8,,,0,,89,,110,Dry,996,8,70,0,0,,8.3,
Stornoway Airport,18/10/2019 00:00,10,8,,,0,0,86,,120,Dry,996,2,30,,,,7.9,
Stornoway Airport,18/10/2019 01:00,9.6,7,,,0,,89,,110,Dry,996,8,40,0,0,,7.9,
Stornoway Airport,18/10/2019 02:00,9.8,7,,,0,,91,,80,Dry,995,8,70,0,0,,8.5,
Stornoway Airport,18/10/2019 03:00,10.1,9,,,0,,89,,90,Dry,995,8,55,0,0,,8.4,
Stornoway Airport,18/10/2019 04:00,10,10,,,0,,89,,90,Dry,995,7,55,0,0,,8.4,
Stornoway Airport,18/10/2019 05:00,9.9,10,,,0,,88,,90,Dry,995,7,55,0,0,,8.1,
Stornoway Airport,18/10/2019 06:00,9.5,12,8.6,,0,0,89,,100,Dry,995,5,50,0,0,,7.9,
Stornoway Airport,18/10/2019 07:00,9.3,8,,,0,,89,,100,Dry,996,2,40,0,0,,7.7,
Stornoway Airport,18/10/2019 08:00,10.2,15,,,0,,87,,100,Dry,996,7,55,44,0,,8.3,
Stornoway Airport,18/10/2019 09:00,11.2,13,,,0,,85,,80,Dry,996,1,60,336,36,,8.9,
Stornoway Airport,18/10/2019 10:00,11.7,15,,,0,,81,,70,Dry,996,6,70,584,30,,8.7,
Stornoway Airport,18/10/2019 11:00,12.5,15,,,0,,80,,80,Dry,996,4,75,983,54,,9.2,
Stornoway Airport,18/10/2019 12:00,11.7,15,,,0,0,78,,50,Dry,996,2,75,982,54,,8.1,
Stornoway Airport,18/10/2019 13:00,12.1,15,,,0,,83,,50,Dry,997,1,60,951,48,,9.4,
Stornoway Airport,18/10/2019 14:00,11.9,18,,,0,,80,,50,Dry,997,1,70,1039,48,,8.6,
Stornoway Airport,18/10/2019 15:00,11.5,20,,,0,,81,,50,Dry,997,7,55,407,18,,8.4,
Stornoway Airport,18/10/2019 16:00,11.6,22,,,0,,84,,50,Dry,997,8,45,411,6,,9.1,
Stornoway Airport,18/10/2019 17:00,11.2,21,,,0,,84,30,50,Dry,998,7,55,154,6,,8.6,
Stornoway Airport,18/10/2019 18:00,11,22,,12.7,0,0,88,31,50,Light shower,998,7,35,12,0,,9.1,
Stornoway Airport,18/10/2019 19:00,11.4,17,,,0,,88,29,50,Rain,999,8,30,0,0,,9.5,
Stornoway Airport,18/10/2019 20:00,11.5,23,,,0,,80,31,50,Dry,999,8,30,0,0,,8.3,
Stornoway Airport,18/10/2019 21:00,11.4,22,,,0,,80,32,50,Dry,1000,6,30,0,0,,8.2,
Stornoway Airport,18/10/2019 22:00,11.4,22,,,0,,81,31,50,Dry,1000,4,28,0,0,,8.3,
Stornoway Airport,18/10/2019 23:00,11.3,23,,,0,,82,30,50,Dry,1001,5,27,0,0,,8.4,
Stornoway Airport,19/10/2019 00:00,11.1,22,,,0,0,77,30,50,Dry,1001,3,30,,,,7.4,
Stornoway Airport,19/10/2019 01:00,11,22,,,0,,80,30,40,Dry,1002,4,25,0,0,,7.7,
Stornoway Airport,19/10/2019 02:00,11,23,,,0,,79,32,40,Dry,1002,2,26,0,0,,7.6,
Stornoway Airport,19/10/2019 03:00,10.9,21,,,0,,81,30,40,Dry,1002,4,19,0,0,,7.8,
Stornoway Airport,19/10/2019 04:00,11,20,,,0,,80,,40,Dry,1003,6,27,0,0,,7.8,
Stornoway Airport,19/10/2019 05:00,9.9,16,,,0,,84,,20,Dry,1003,7,22,0,0,,7.4,
Stornoway Airport,19/10/2019 06:00,10.2,18,9.6,,0,0,86,,20,Dry,1004,5,19,0,0,,8.1,
Stornoway Airport,19/10/2019 07:00,9.5,16,,,0,,87,,20,Dry,1004,2,18,0,0,,7.5,
Stornoway Airport,19/10/2019 08:00,9.8,18,,,0,,87,29,20,Rain,1005,6,21,18,0,,7.9,
Stornoway Airport,19/10/2019 09:00,9.8,21,,,0.2,,91,32,30,Rain,1005,3,25,208,0,,8.5,
Stornoway Airport,19/10/2019 10:00,10.2,18,,,0,,88,,10,Dry,1006,3,25,254,6,,8.4,
Stornoway Airport,19/10/2019 11:00,10.1,25,,,0.2,,91,35,30,Rain,1006,7,11,416,0,,8.8,
Stornoway Airport,19/10/2019 12:00,9.6,29,,,0.4,0.8,91,40,40,Moderate shower,1006,8,5,659,12,,8.3,
Stornoway Airport,19/10/2019 13:00,10.4,29,,,0.2,,81,41,30,Rain,1007,8,18,440,0,,7.4,
Stornoway Airport,19/10/2019 14:00,10.3,29,,,0,,84,41,30,Rain,1007,6,17,705,18,,7.8,
Stornoway Airport,19/10/2019 15:00,9.8,28,,,0,,82,39,20,Dry,1008,3,19,611,42,,6.9,
Stornoway Airport,19/10/2019 16:00,9.4,24,,,0,,90,38,10,Dry,1008,7,8,470,30,,8,
Stornoway Airport,19/10/2019 17:00,9.5,24,,,0,,93,37,10,Rain,1008,8,14,78,0,,8.5,
Stornoway Airport,19/10/2019 18:00,9.5,23,,10.6,0.6,1.2,94,32,20,Moderate shower,1009,7,3,8,0,,8.7,
Stornoway Airport,19/10/2019 19:00,9.5,21,,,0.4,,89,32,60,Rain,1010,8,22,0,0,,7.9,
Stornoway Airport,19/10/2019 20:00,10.3,23,,,0.2,,83,35,40,Rain,1011,8,16,0,0,,7.7,
Stornoway Airport,19/10/2019 21:00,9.9,26,,,0.6,,79,37,40,Rain,1012,8,16,0,0,,6.5,
Stornoway Airport,19/10/2019 22:00,9,25,,,0,,81,35,20,Rain,1013,6,14,0,0,,6,
Stornoway Airport,19/10/2019 23:00,8.4,22,,,0,,79,35,20,Dry,1014,4,19,0,0,,5,
Stornoway Airport,20/10/2019 00:00,7.8,23,,,0,1,79,31,10,Dry,1014,2,18,,,,4.5,
Stornoway Airport,20/10/2019 01:00,7.6,18,,,0,,75,,10,Dry,1014,3,14,0,0,,3.5,
Stornoway Airport,20/10/2019 02:00,7,16,,,0,,82,,360,Rain,1015,4,17,0,0,,4.3,
Stornoway Airport,20/10/2019 03:00,7.2,18,,,0,,81,,360,Dry,1015,4,16,0,0,,4.2,
Stornoway Airport,20/10/2019 04:00,6.3,13,,,0.2,,85,,350,Rain,1016,5,14,0,0,,4.1,
Stornoway Airport,20/10/2019 05:00,6.7,14,,,0,,85,30,360,Rain,1017,6,18,0,0,,4.5,
Stornoway Airport,20/10/2019 06:00,7.7,21,6.2,,0,0,76,,20,Dry,1017,7,18,0,0,,3.9,
Stornoway Airport,20/10/2019 07:00,7.3,21,,,0,,77,,10,Rain,1018,2,26,0,0,,3.6,
Stornoway Airport,20/10/2019 08:00,6.6,16,,,0,,82,,360,Dry,1019,2,25,31,0,,3.9,
Stornoway Airport,20/10/2019 09:00,7.6,18,,,0,,79,,20,Drizzly rain,1020,6,14,190,0,,4.2,
Stornoway Airport,20/10/2019 10:00,8.3,17,,,0,,73,,360,Rain,1020,7,17,289,0,,3.8,
Stornoway Airport,20/10/2019 11:00,8.8,16,,,0,,71,,360,Rain,1021,4,28,792,30,,3.9,
Stornoway Airport,20/10/2019 12:00,9.4,16,,,0,0,68,,360,Dry,1021,3,35,856,42,,3.9,
Stornoway Airport,20/10/2019 13:00,9,16,,,0,,71,,20,Dry,1022,6,25,670,18,,4.1,
Stornoway Airport,20/10/2019 14:00,8.4,15,,,0,,79,,360,Dry,1022,6,25,704,18,,5,
Stornoway Airport,20/10/2019 15:00,8.1,15,,,0,,76,,360,Dry,1023,7,30,464,0,,4.2,
Stornoway Airport,20/10/2019 16:00,8.1,12,,,0,,76,,30,Dry,1023,8,35,361,6,,4.3,
Stornoway Airport,20/10/2019 17:00,7.2,9,,,0,,80,,360,Dry,1023,7,35,110,0,,4,
Stornoway Airport,20/10/2019 18:00,7.8,8,,9.9,0,0,77,,360,Dry,1024,8,23,5,0,,4.2,
Stornoway Airport,20/10/2019 19:00,7.5,8,,,0,,74,,360,Dry,1024,8,30,0,0,,3.2,
Stornoway Airport,20/10/2019 20:00,8,7,,,0,,63,,40,Dry,1024,8,70,0,0,,1.6,
Stornoway Airport,20/10/2019 21:00,6.4,3,,,0,,78,,320,Dry,1024,8,75,0,0,,2.9,
Stornoway Airport,20/10/2019 22:00,6.5,3,,,0,,76,,280,Dry,1025,8,75,0,0,,2.6,
Stornoway Airport,20/10/2019 23:00,6.3,5,,,0,,79,,270,Dry,1025,8,75,0,0,,3,
Stornoway Airport,21/10/2019 00:00,6.6,5,,,0,0,75,,210,Dry,1024,8,75,,,,2.5,
Stornoway Airport,21/10/2019 01:00,6.6,6,,,0,,77,,260,Dry,1024,8,75,0,0,,2.9,
Stornoway Airport,21/10/2019 02:00,6.2,6,,,0,,78,,240,Dry,1024,8,75,0,0,,2.8,
Stornoway Airport,21/10/2019 03:00,6.6,3,,,0,,74,,220,Dry,1023,8,75,0,0,,2.4,
Stornoway Airport,21/10/2019 04:00,7.2,8,,,0,,72,,210,Dry,1023,8,75,0,0,,2.5,
Stornoway Airport,21/10/2019 05:00,7.5,10,,,0,,69,,210,Dry,1023,8,75,0,0,,2.2,
Stornoway Airport,21/10/2019 06:00,7.7,10,6.1,,0,0,69,,210,Dry,1022,8,75,0,0,,2.5,
Stornoway Airport,21/10/2019 07:00,7.9,12,,,0,,71,,210,Dry,1022,8,75,0,0,,3.1,
Stornoway Airport,21/10/2019 08:00,8.1,13,,,0,,72,,210,Dry,1021,8,75,11,0,,3.4,
Stornoway Airport,21/10/2019 09:00,8.5,14,,,0,,73,,210,Dry,1021,8,75,98,0,,4,
Stornoway Airport,21/10/2019 10:00,9.1,15,,,0,,71,,210,Dry,1020,8,75,213,0,,4.2,
Stornoway Airport,21/10/2019 11:00,9.5,16,,,0,,70,,220,Dry,1020,8,75,326,0,,4.5,
Stornoway Airport,21/10/2019 12:00,9.6,16,,,0,0,78,29,220,Dry,1019,8,75,465,0,,6,
Stornoway Airport,21/10/2019 13:00,10.4,21,,,0,,78,30,220,Dry,1018,7,75,618,12,,6.8,
Stornoway Airport,21/10/2019 14:00,9.7,24,,,0,,79,33,230,Dry,1017,7,75,606,6,,6.3,
Stornoway Airport,21/10/2019 15:00,9.6,25,,,0,,81,37,230,Dry,1016,8,75,332,0,,6.6,
Stornoway Airport,21/10/2019 16:00,9.7,22,,,0,,83,36,220,Dry,1015,8,75,274,0,,7,
Stornoway Airport,21/10/2019 17:00,9.7,25,,,0,,82,37,220,Dry,1014,8,75,62,0,,6.9,
Stornoway Airport,21/10/2019 18:00,10.1,28,,10.6,0,0,80,39,220,Dry,1013,8,60,2,0,,6.9,
Stornoway Airport,21/10/2019 19:00,10.4,29,,,0,,79,37,220,Dry,1013,8,60,0,0,,7,
Stornoway Airport,21/10/2019 20:00,10.6,26,,,0,,78,39,220,Dry,1013,8,55,0,0,,7,
Stornoway Airport,21/10/2019 21:00,11,29,,,0,,78,39,220,Dry,1012,7,40,0,0,,7.4,
Stornoway Airport,21/10/2019 22:00,11,26,,,0,,80,41,230,Dry,1011,8,40,0,0,,7.7,
Stornoway Airport,21/10/2019 23:00,11.2,25,,,0,,83,36,220,Drizzly rain,1011,8,25,0,0,,8.5,
Stornoway Airport,22/10/2019 00:00,11,24,,,0,0,88,38,220,Drizzly rain,1010,3,19,,,,9.2,
Stornoway Airport,22/10/2019 01:00,11,28,,,0.4,,91,37,230,Rain,1010,8,30,0,0,,9.7,
Stornoway Airport,22/10/2019 02:00,11,25,,,0.2,,93,37,240,Rain,1009,8,4,0,0,,10,
Stornoway Airport,22/10/2019 03:00,10.8,22,,,0.2,,95,35,230,Drizzly rain,1009,8,14,0,0,,10.1,
Stornoway Airport,22/10/2019 04:00,10.8,23,,,0.2,,96,32,230,Rain,1008,8,6,0,0,,10.2,
Stornoway Airport,22/10/2019 05:00,11,22,,,0.6,,96,32,220,Light drizzle,1008,8,4,0,0,,10.4,
Stornoway Airport,22/10/2019 06:00,11.2,21,10.1,,0.8,2,97,31,220,Light drizzle,1008,8,4,0,0,,10.8,
Stornoway Airport,22/10/2019 07:00,11.4,22,,,0.8,,96,30,230,Light drizzle,1008,8,5,0,0,,10.9,
Stornoway Airport,22/10/2019 08:00,11.5,23,,,0.4,,96,32,230,Light shower,1008,8,5,11,0,,11,
Stornoway Airport,22/10/2019 09:00,11.7,23,,,0.2,,96,32,230,Rain,1008,2,19,84,0,,11.1,
Stornoway Airport,22/10/2019 10:00,11.7,23,,,0.2,,95,32,220,Light rain,1008,7,15,100,0,,11,
Stornoway Airport,22/10/2019 11:00,11.8,22,,,0.4,,93,32,220,Light rain,1009,8,18,96,0,,10.8,
Stornoway Airport,22/10/2019 12:00,11.8,23,,,0.2,2,91,32,220,Rain,1008,8,25,173,0,,10.4,
Stornoway Airport,22/10/2019 13:00,11.9,21,,,0.2,,91,32,230,Rain,1008,8,45,217,0,,10.5,
Stornoway Airport,22/10/2019 14:00,12.3,24,,,0.2,,81,36,230,Dry,1008,6,70,746,6,,9.3,
Stornoway Airport,22/10/2019 15:00,12,24,,,0,,83,39,230,Dry,1007,7,28,299,0,,9.3,
Stornoway Airport,22/10/2019 16:00,12.1,25,,,0,,85,39,220,Dry,1006,8,75,225,0,,9.7,
Stornoway Airport,22/10/2019 17:00,11.7,22,,,0,,88,36,220,Dry,1006,8,26,69,0,,9.8,
Stornoway Airport,22/10/2019 18:00,11.6,25,,12.6,0,1,86,36,230,Dry,1006,8,40,1,0,,9.4,
Stornoway Airport,22/10/2019 19:00,11.3,28,,,0,,96,40,210,Dry,1006,8,23,0,0,,10.7,
Stornoway Airport,22/10/2019 20:00,11.4,25,,,0,,97,35,210,Rain,1006,8,8,0,0,,11,
Stornoway Airport,22/10/2019 21:00,11.5,25,,,0.4,,97,36,210,Light shower,1005,8,9,0,0,,11.1,
Stornoway Airport,22/10/2019 22:00,11.6,28,,,0.4,,96,41,210,Drizzly rain,1005,8,5,0,0,,11.1,
Stornoway Airport,22/10/2019 23:00,11.6,28,,,0.2,,96,38,220,Rain,1005,8,5,0,0,,11.1,
Stornoway Airport,23/10/2019 00:00,11.5,23,,,0,1,96,36,210,Dry,1005,2,22,,,,11,
Stornoway Airport,23/10/2019 01:00,11.6,22,,,0,,96,33,210,Dry,1005,7,11,0,0,,11.1,
Stornoway Airport,23/10/2019 02:00,11.5,21,,,0.2,,96,30,210,Dry,1004,8,21,0,0,,11,
Stornoway Airport,23/10/2019 03:00,11.6,20,,,0,,96,,210,Dry,1004,8,13,0,0,,11.1,
Stornoway Airport,23/10/2019 04:00,11.7,21,,,0.2,,96,32,210,Moderate shower,1003,8,8,0,0,,11.1,
Stornoway Airport,23/10/2019 05:00,11.5,24,,,0.6,,96,33,210,Drizzly rain,1002,8,5,0,0,,11,
Stornoway Airport,23/10/2019 06:00,11.4,24,11.2,,0.6,2,96,36,200,Light drizzle,1002,8,16,0,0,,10.8,
Stornoway Airport,23/10/2019 07:00,11.3,26,,,1.2,,95,38,200,Moderate rain,1001,8,9,0,0,,10.6,
Stornoway Airport,23/10/2019 08:00,11.1,29,,,1,,96,40,200,Light rain,1001,8,6,5,0,,10.5,
Stornoway Airport,23/10/2019 09:00,11.4,28,,,0.6,,94,39,200,Light rain,1000,7,8,46,0,,10.6,
Stornoway Airport,23/10/2019 10:00,11.4,28,,,0.4,,95,40,190,Light rain,1000,8,10,118,0,,10.7,
Stornoway Airport,23/10/2019 11:00,11.6,29,,,0.8,,94,43,190,Light rain,999,8,6,189,0,,10.8,
Stornoway Airport,23/10/2019 12:00,11.6,30,,,0.4,4,94,44,200,Rain,998,8,19,210,0,,10.7,
Stornoway Airport,23/10/2019 13:00,11.7,29,,,0.4,,94,45,200,Light shower,998,8,22,243,0,,10.8,
Stornoway Airport,23/10/2019 14:00,11.6,29,,,0,,94,47,200,Rain,997,8,10,261,0,,10.8,
Stornoway Airport,23/10/2019 15:00,11.6,29,,,0.2,,95,41,200,Light drizzle,996,8,14,140,0,,10.9,
Stornoway Airport,23/10/2019 16:00,11.6,29,,,0.4,,95,41,190,Light rain,995,8,8,76,0,,10.9,
Stornoway Airport,23/10/2019 17:00,11.4,29,,,0.6,,96,40,190,Light rain,994,8,5,19,0,,10.9,
Stornoway Airport,23/10/2019 18:00,11.6,30,,11.8,0.8,3,95,46,190,Moderate rain,993,8,10,1,0,,10.9,
Stornoway Airport,23/10/2019 19:00,11.9,31,,,0.6,,96,44,190,Light rain,992,8,9,0,0,,11.4,
Stornoway Airport,23/10/2019 20:00,11.9,29,,,0.6,,97,40,190,Light shower,992,8,8,0,0,,11.5,
Stornoway Airport,23/10/2019 21:00,10.3,14,,,0.4,,93,41,230,Rain,992,7,75,0,0,,9.3,
Stornoway Airport,23/10/2019 22:00,10.7,21,,,0,,92,,230,Dry,992,3,65,0,0,,9.6,
Stornoway Airport,23/10/2019 23:00,10.5,15,,,0,,90,,210,Dry,992,6,55,0,0,,9,
Stornoway Airport,24/10/2019 00:00,10.8,17,,,0,2,91,,210,Rain,992,3,50,,,,9.5,
Stornoway Airport,24/10/2019 01:00,10.2,16,,,0.2,,91,,220,Rain,992,3,75,0,0,,8.8,
Stornoway Airport,24/10/2019 02:00,9.7,16,,,0,,88,,220,Dry,992,0,70,0,0,,7.9,
Stornoway Airport,24/10/2019 03:00,10.1,21,,,0,,88,30,220,Dry,991,2,55,0,0,,8.3,
Stornoway Airport,24/10/2019 04:00,10.6,18,,,0,,89,31,210,Light shower,990,7,21,0,0,,9,
Stornoway Airport,24/10/2019 05:00,10.7,25,,,0,,86,37,210,Rain,990,6,40,0,0,,8.6,
Stornoway Airport,24/10/2019 06:00,10.9,22,9.4,,0,0,86,39,210,Dry,990,3,30,0,0,,8.8,
Stornoway Airport,24/10/2019 07:00,11,25,,,0,,83,37,210,Dry,990,4,30,0,0,,8.3,
Stornoway Airport,24/10/2019 08:00,9.2,20,,,0.8,,93,41,230,Rain,990,7,70,9,0,,8.2,
Stornoway Airport,24/10/2019 09:00,8.6,17,,,0,,90,31,250,Dry,991,6,55,133,6,,7.2,
Stornoway Airport,24/10/2019 10:00,8.1,26,,,0,,87,35,270,Dry,993,6,75,535,30,,6.2,
Stornoway Airport,24/10/2019 11:00,7.8,26,,,0,,80,39,280,Dry,994,3,75,740,36,,4.7,
Stornoway Airport,24/10/2019 12:00,7.3,28,,,0,0.8,78,39,290,Dry,996,2,70,808,42,,3.9,
Stornoway Airport,24/10/2019 13:00,6.9,17,,,0,,83,37,290,Dry,997,3,12,876,36,,4.3,
Stornoway Airport,24/10/2019 14:00,7,18,,,0.2,,78,31,290,Rain,998,3,75,711,18,,3.5,
Stornoway Airport,24/10/2019 15:00,7.2,18,,,0,,63,,300,Dry,998,1,70,530,36,,0.7,
Stornoway Airport,24/10/2019 16:00,6.2,14,,,0,,67,,280,Dry,998,1,50,348,36,,0.6,
Stornoway Airport,24/10/2019 17:00,3.6,14,,,0.4,,90,36,250,Light shower,1000,7,55,47,0,,2.2,
Stornoway Airport,24/10/2019 18:00,3,12,,11.1,0.2,1.2,90,,220,Rain,1000,5,60,0,0,,1.6,
Stornoway Airport,24/10/2019 19:00,3.5,16,,,0,,73,,270,Dry,1000,1,70,0,0,,-0.8,
Stornoway Airport,24/10/2019 20:00,3.3,15,,,0,,76,,260,Dry,1000,0,75,0,0,,-0.5,
Stornoway Airport,24/10/2019 21:00,3.2,18,,,0,,74,35,260,Dry,1000,3,75,0,0,,-0.8,
Stornoway Airport,24/10/2019 22:00,2.9,16,,,0,,80,30,240,Precipitation,1000,1,75,0,0,,-0.1,
Stornoway Airport,24/10/2019 23:00,2.4,14,,,0,,79,37,230,Precipitation,1000,2,75,0,0,,-0.7,
Stornoway Airport,25/10/2019 00:00,3.1,28,,,0.2,0.2,81,41,240,Rain,1000,0,75,,,,0.3,
Stornoway Airport,25/10/2019 01:00,2.6,15,,,0,,82,38,230,Rain,1000,2,75,0,0,,0,
Stornoway Airport,25/10/2019 02:00,4.1,16,,,0,,71,,240,Dry,999,4,70,0,0,,-0.5,
Stornoway Airport,25/10/2019 03:00,3.7,21,,,0,,73,35,230,Dry,998,0,75,0,0,,-0.6,
Stornoway Airport,25/10/2019 04:00,4.8,21,,,0,,71,31,250,Dry,998,4,60,0,0,,0.1,
Stornoway Airport,25/10/2019 05:00,5,24,,,0,,71,33,240,Dry,998,1,75,0,0,,0.2,
Stornoway Airport,25/10/2019 06:00,5.1,22,2.2,,0.2,0.2,77,36,240,Rain,998,4,55,0,0,,1.5,
Stornoway Airport,25/10/2019 07:00,5.5,25,,,0.8,,82,46,240,Rain,998,7,24,0,0,,2.8,
Stornoway Airport,25/10/2019 08:00,5.7,29,,,0.6,,81,41,250,Rain,998,8,50,19,0,,2.8,
Stornoway Airport,25/10/2019 09:00,5.2,33,,,0.2,,80,47,260,Light shower,998,7,2,110,0,,2.2,
Stornoway Airport,25/10/2019 10:00,6.1,29,,,0,,82,44,250,Rain,998,1,50,335,24,,3.4,
Stornoway Airport,25/10/2019 11:00,6.3,25,,,0.2,,87,47,240,Rain,999,3,60,505,30,,4.4,
Stornoway Airport,25/10/2019 12:00,6.6,30,,,0,2,81,48,250,Dry,999,1,9,1030,54,,3.7,
Stornoway Airport,25/10/2019 13:00,5.3,24,,,0.6,,90,44,260,Light shower,999,2,4,640,24,,3.8,
Stornoway Airport,25/10/2019 14:00,5.6,21,,,1.4,,90,36,250,Moderate shower,999,8,6,469,12,,4.1,
Stornoway Airport,25/10/2019 15:00,5.1,22,,,1.8,,91,38,250,Moderate rain,999,1,6,309,6,,3.8,
Stornoway Airport,25/10/2019 16:00,4.6,23,,,0.6,,89,35,250,Light shower,999,7,30,324,24,,3,
Stornoway Airport,25/10/2019 17:00,4.6,24,,,0.6,,91,37,240,Moderate shower,998,7,3,80,0,,3.4,
Stornoway Airport,25/10/2019 18:00,4.9,20,,7.9,0.2,5,89,33,230,Rain,998,4,20,0,0,,3.3,
Stornoway Airport,25/10/2019 19:00,4.7,18,,,0,,88,31,230,Rain,998,3,75,0,0,,2.9,
Stornoway Airport,25/10/2019 20:00,4.8,14,,,0,,88,,230,Dry,998,0,40,0,0,,3,
Stornoway Airport,25/10/2019 21:00,5.3,17,,,0,,81,,240,Dry,997,0,50,0,0,,2.4,
Stornoway Airport,25/10/2019 22:00,5.3,16,,,0,,83,29,250,Dry,997,1,28,0,0,,2.7,
Stornoway Airport,25/10/2019 23:00,5.4,22,,,0.2,,86,35,240,Rain,997,3,45,0,0,,3.3,
Stornoway Airport,26/10/2019 00:00,5.3,20,,,0.6,0.8,90,36,260,Moderate shower,997,4,5,,,,3.9,
Stornoway Airport,26/10/2019 01:00,5.2,17,,,1.6,,91,,270,Moderate rain,998,8,2,0,0,,4,
Stornoway Airport,26/10/2019 02:00,5.5,21,,,1.4,,93,31,240,Light rain,997,8,75,0,0,,4.5,
Stornoway Airport,26/10/2019 03:00,5.6,15,,,0,,91,,250,Rain,997,3,75,0,0,,4.4,
Stornoway Airport,26/10/2019 04:00,5.5,13,,,0,,91,,250,Dry,997,4,75,0,0,,4.2,
Stornoway Airport,26/10/2019 05:00,5.6,12,,,0.2,,92,,250,Light shower,997,5,75,0,0,,4.5,
Stornoway Airport,26/10/2019 06:00,5.7,14,4.6,,0,3.2,91,,250,Rain,997,2,75,0,0,,4.4,
Stornoway Airport,26/10/2019 07:00,5.1,9,,,0.4,,93,,230,Rain,997,7,60,0,0,,4.1,
Stornoway Airport,26/10/2019 08:00,5.3,10,,,0.6,,93,,230,Rain,998,6,75,10,0,,4.4,
Stornoway Airport,26/10/2019 09:00,5.5,9,,,0,,93,,250,Rain,998,3,75,143,6,,4.5,
Stornoway Airport,26/10/2019 10:00,7.1,13,,,0,,87,,250,Dry,998,5,75,550,42,,5.1,
Stornoway Airport,26/10/2019 11:00,7.9,13,,,0,,84,,250,Rain,998,2,75,807,60,,5.4,
Stornoway Airport,26/10/2019 12:00,8.7,12,,,0.2,1,86,,250,Rain,999,5,75,1058,54,,6.5,
Stornoway Airport,26/10/2019 13:00,8.3,13,,,0.4,,87,29,260,Rain,998,7,45,1029,42,,6.4,
Stornoway Airport,26/10/2019 14:00,7.3,12,,,0.2,,84,,280,Rain,998,4,75,406,6,,4.9,
Stornoway Airport,26/10/2019 15:00,7.3,13,,,0,,84,,270,Light shower,999,4,6,288,24,,4.9,
Stornoway Airport,26/10/2019 16:00,7,17,,,1,,83,29,290,Light shower,999,7,75,310,12,,4.4,
Stornoway Airport,26/10/2019 17:00,6.7,13,,,0.2,,89,,290,Light shower,999,8,35,65,0,,5.1,
Stornoway Airport,26/10/2019 18:00,6.9,15,,8.9,0.2,2,88,,280,Light shower,1000,8,10,0,0,,5.1,
Stornoway Airport,26/10/2019 19:00,7.3,16,,,0.6,,89,,300,Moderate shower,1001,8,40,0,0,,5.7,
Stornoway Airport,26/10/2019 20:00,7.3,15,,,0.2,,85,,290,Rain,1002,8,40,0,0,,5,
Stornoway Airport,26/10/2019 21:00,7.3,16,,,0,,85,29,300,Rain,1003,3,20,0,0,,5,
Stornoway Airport,26/10/2019 22:00,7.1,21,,,0.6,,81,33,300,Rain,1004,2,75,0,0,,4.2,
Stornoway Airport,26/10/2019 23:00,7.1,25,,,0,,84,39,300,Rain,1004,6,50,0,0,,4.7,
Stornoway Airport,27/10/2019 00:00,6.9,21,,,0.6,2,90,39,300,Moderate rain,1005,3,5,,,,5.5,
Stornoway Airport,27/10/2019 01:00,6.8,17,,,1.2,,92,38,300,Rain,1006,8,35,0,0,,5.6,
Stornoway Airport,27/10/2019 02:00,6.9,21,,,0.4,,89,38,300,Rain,1008,8,30,0,0,,5.3,
Stornoway Airport,27/10/2019 03:00,6.9,23,,,0.8,,89,37,300,Rain,1008,8,30,0,0,,5.3,
Stornoway Airport,27/10/2019 04:00,6.9,20,,,0.8,,89,35,300,Rain,1010,8,35,0,0,,5.3,
Stornoway Airport,27/10/2019 05:00,7.3,18,,,0,,85,,310,Dry,1011,6,35,0,0,,5.1,
Stornoway Airport,27/10/2019 06:00,7.5,17,5.8,,0.2,3,84,38,320,Rain,1012,6,35,0,0,,5,
Stornoway Airport,27/10/2019 07:00,7.2,21,,,0,,87,35,320,Light shower,1014,4,30,0,0,,5.3,
Stornoway Airport,27/10/2019 08:00,7.2,17,,,0.2,,88,37,320,Light shower,1015,5,18,5,0,,5.4,
Stornoway Airport,27/10/2019 09:00,7.5,20,,,0.2,,82,31,330,Rain,1016,1,35,165,12,,4.8,
Stornoway Airport,27/10/2019 10:00,6.9,26,,,0,,85,33,320,Light shower,1018,4,2,449,42,,4.6,
Stornoway Airport,27/10/2019 11:00,8.2,20,,,0.2,,76,30,320,Rain,1019,1,60,540,24,,4.3,
Stornoway Airport,27/10/2019 12:00,7.9,20,,,0,0.6,79,31,330,Dry,1020,4,50,833,36,,4.5,
Stornoway Airport,27/10/2019 13:00,6.7,20,,,0.2,,82,36,330,Moderate shower,1021,3,35,891,54,,3.9,
Stornoway Airport,27/10/2019 14:00,8.4,18,,,0,,71,,310,Rain,1022,0,75,771,36,,3.6,
Stornoway Airport,27/10/2019 15:00,6.4,17,,,0,,86,29,310,Light shower,1022,7,18,469,30,,4.3,
Stornoway Airport,27/10/2019 16:00,6.2,14,,,0.2,,85,,330,Rain,1023,7,75,268,0,,4,
Stornoway Airport,27/10/2019 17:00,6.2,18,,,0.2,,86,,360,Rain,1024,3,18,76,0,,4.1,
Stornoway Airport,27/10/2019 18:00,6.4,20,,8.9,0,0.4,85,,360,Light shower,1025,6,17,0,0,,4.2,
Stornoway Airport,27/10/2019 19:00,5.9,16,,,0,,77,,340,Rain,1025,2,24,0,0,,2.2,
Stornoway Airport,27/10/2019 20:00,5.4,12,,,0,,78,,340,Dry,1026,4,14,0,0,,1.9,
Stornoway Airport,27/10/2019 21:00,5.3,10,,,0,,78,29,330,Dry,1026,7,70,0,0,,1.8,
Stornoway Airport,27/10/2019 22:00,5.7,9,,,0,,77,,350,Rain,1027,7,16,0,0,,2,
Stornoway Airport,27/10/2019 23:00,5.8,14,,,0,,81,,340,Dry,1027,7,30,0,0,,2.9,
Stornoway Airport,28/10/2019 00:00,4.8,8,,,0,0,80,,340,Rain,1028,1,75,,,,1.7,
Stornoway Airport,28/10/2019 01:00,4.9,8,,,0.2,,90,,340,Rain,1028,7,70,0,0,,3.4,
Stornoway Airport,28/10/2019 02:00,3.9,8,,,0.2,,92,,310,Moderate shower,1028,2,75,0,0,,2.8,
Stornoway Airport,28/10/2019 03:00,5.4,9,,,0.4,,93,,330,Light drizzle,1028,6,45,0,0,,4.5,
Stornoway Airport,28/10/2019 04:00,5.5,14,,,0.2,,90,,340,Light shower,1028,7,55,0,0,,4.1,
Stornoway Airport,28/10/2019 05:00,4.6,8,,,0.2,,93,,320,Light shower,1028,7,75,0,0,,3.7,
Stornoway Airport,28/10/2019 06:00,4.8,9,3.3,,0.4,2,91,,330,Rain,1028,5,75,0,0,,3.6,
Stornoway Airport,28/10/2019 07:00,5.7,10,,,0.2,,88,,340,Rain,1028,7,50,0,0,,4,
Stornoway Airport,28/10/2019 08:00,5.2,12,,,0,,87,,360,Dry,1029,5,40,7,0,,3.3,
Stornoway Airport,28/10/2019 09:00,6.2,12,,,0,,83,,10,Dry,1029,3,55,168,18,,3.7,
Stornoway Airport,28/10/2019 10:00,7.1,9,,,0,,82,,340,Dry,1029,1,35,333,18,,4.3,
Stornoway Airport,28/10/2019 11:00,8,16,,,0,,76,,360,Dry,1030,2,45,775,60,,4.2,
Stornoway Airport,28/10/2019 12:00,8.5,13,,,0,0.2,73,,340,Dry,1030,0,40,825,48,,4,
Stornoway Airport,28/10/2019 13:00,8.8,14,,,0,,75,,350,Rain,1030,1,30,821,36,,4.7,
Stornoway Airport,28/10/2019 14:00,7.8,13,,,0,,78,,360,Dry,1030,6,45,670,18,,4.3,
Stornoway Airport,28/10/2019 15:00,7.7,15,,,0,,86,,350,Rain,1030,8,22,383,18,,5.6,
Stornoway Airport,28/10/2019 16:00,7.6,13,,,0,,79,,20,Dry,1030,3,40,232,18,,4.3,
Stornoway Airport,28/10/2019 17:00,7.3,15,,,0,,82,,40,Light shower,1031,7,10,122,0,,4.5,
Stornoway Airport,28/10/2019 18:00,6.3,14,,9.1,0,0,87,,10,Rain,1031,1,55,0,0,,4.3,
Stornoway Airport,28/10/2019 19:00,6.5,12,,,0,,83,,350,Dry,1031,7,45,0,0,,3.9,
Stornoway Airport,28/10/2019 20:00,6.6,9,,,0,,82,,350,Dry,1032,6,35,0,0,,3.9,
Stornoway Airport,28/10/2019 21:00,7.2,12,,,0,,77,,30,Light shower,1032,8,70,0,0,,3.5,
Stornoway Airport,28/10/2019 22:00,6.3,13,,,0,,85,,360,Rain,1032,3,45,0,0,,4,
Stornoway Airport,28/10/2019 23:00,7.2,10,,,0,,84,,70,Dry,1032,7,70,0,0,,4.8,
Stornoway Airport,29/10/2019 00:00,7.6,12,,,0,0,73,,40,Light shower,1032,7,60,,,,3.2,
Stornoway Airport,29/10/2019 01:00,7.8,10,,,0,,71,,60,Rain,1032,7,75,0,0,,3,
Stornoway Airport,29/10/2019 02:00,5.4,5,,,0,,89,,360,Dry,1033,7,40,0,0,,3.8,
Stornoway Airport,29/10/2019 03:00,6,7,,,0.2,,93,,350,Rain,1033,8,29,0,0,,5,
Stornoway Airport,29/10/2019 04:00,5.6,5,,,0,,93,,300,Rain,1033,8,65,0,0,,4.7,
Stornoway Airport,29/10/2019 05:00,7.2,8,,,0,,84,,80,Rain,1032,8,75,0,0,,4.8,
Stornoway Airport,29/10/2019 06:00,6.6,5,4.3,,0.2,0.4,88,,120,Rain,1033,8,65,0,0,,4.9,
Stornoway Airport,29/10/2019 07:00,5.8,2,,,0.4,,90,,280,Moderate rain,1033,8,5,0,0,,4.4,
Stornoway Airport,29/10/2019 08:00,5.5,2,,,0.2,,92,,270,Rain,1033,7,75,10,0,,4.4,
Stornoway Airport,29/10/2019 09:00,7.8,7,,,0,,87,,50,Dry,1034,4,30,121,6,,5.9,
Stornoway Airport,29/10/2019 10:00,7.6,5,,,0.4,,87,,10,Rain,1034,6,45,550,36,,5.7,
Stornoway Airport,29/10/2019 11:00,9.1,2,,,0,,78,,70,Dry,1034,0,75,701,54,,5.5,
Stornoway Airport,29/10/2019 12:00,9.8,6,,,0,1,71,,130,Dry,1034,5,75,996,60,,4.8,
Stornoway Airport,29/10/2019 13:00,9.7,7,,,0,,70,,110,Dry,1033,2,75,982,60,,4.6,
Stornoway Airport,29/10/2019 14:00,9.2,5,,,0,,70,,110,Dry,1033,2,75,790,36,,4.1,
Stornoway Airport,29/10/2019 15:00,9,5,,,0,,69,,110,Dry,1033,1,75,405,54,,3.8,
Stornoway Airport,29/10/2019 16:00,7.4,5,,,0,,73,,80,Dry,1033,0,75,308,48,,3,
Stornoway Airport,29/10/2019 17:00,6.3,3,,,0,,84,,90,Dry,1033,0,40,75,6,,3.9,
Stornoway Airport,29/10/2019 18:00,4.4,6,,10,0,0,88,,330,Dry,1033,0,65,0,0,,2.6,
Stornoway Airport,29/10/2019 19:00,3.2,2,,,0,,93,,320,Dry,1033,0,75,0,0,,2.3,
Stornoway Airport,29/10/2019 20:00,3,5,,,0,,94,,320,Dry,1033,0,75,0,0,,2.2,
Stornoway Airport,29/10/2019 21:00,2.7,5,,,0,,95,,320,Dry,1033,3,55,0,0,,2.1,
Stornoway Airport,29/10/2019 22:00,2.9,3,,,0,,95,,320,Dry,1032,7,75,0,0,,2.2,
Stornoway Airport,29/10/2019 23:00,3.2,2,,,0,,93,,340,Dry,1032,6,75,0,0,,2.2,
Stornoway Airport,30/10/2019 00:00,2.6,1,,,0,0,93,,10,Dry,1032,1,75,,,,1.7,
Stornoway Airport,30/10/2019 01:00,4.9,7,,,0,,86,,130,Dry,1032,1,75,0,0,,2.8,
Stornoway Airport,30/10/2019 02:00,2.9,5,,,0,,81,,120,Dry,1031,1,75,0,0,,0,
Stornoway Airport,30/10/2019 03:00,2.2,1,,,0,,91,,350,Dry,1031,6,75,0,0,,1,
Stornoway Airport,30/10/2019 04:00,2,2,,,0,,91,,350,Dry,1031,7,75,0,0,,0.8,
Stornoway Airport,30/10/2019 05:00,2.6,2,,,0,,94,,350,Dry,1030,8,75,0,0,,1.8,
Stornoway Airport,30/10/2019 06:00,3.5,3,1.9,,0,0,93,,290,Dry,1030,8,75,0,0,,2.6,
Stornoway Airport,30/10/2019 07:00,3.7,2,,,0,,94,,350,Dry,1030,8,75,0,0,,2.9,
Stornoway Airport,30/10/2019 08:00,4,3,,,0,,94,,290,Dry,1030,8,75,6,0,,3.2,
Stornoway Airport,30/10/2019 09:00,4.9,2,,,0,,93,,290,Dry,1030,8,75,77,0,,3.9,
Stornoway Airport,30/10/2019 10:00,5.9,1,,,0,,93,,10,Dry,1030,8,60,168,0,,5,
Stornoway Airport,30/10/2019 11:00,6.8,1,,,0,,90,,350,Dry,1029,8,60,213,0,,5.4,
Stornoway Airport,30/10/2019 12:00,7.2,1,,,0,0,88,,270,Dry,1029,8,70,197,0,,5.4,
Stornoway Airport,30/10/2019 13:00,8.3,6,,,0,,71,,170,Dry,1028,8,75,324,0,,3.5,
Stornoway Airport,30/10/2019 14:00,8.2,3,,,0,,69,,150,Dry,1028,8,75,360,0,,2.9,
Stornoway Airport,30/10/2019 15:00,8.7,5,,,0,,60,,120,Dry,1028,8,75,469,18,,1.5,
Stornoway Airport,30/10/2019 16:00,6.5,5,,,0,,70,,120,Dry,1027,7,75,227,0,,1.5,
Stornoway Airport,30/10/2019 17:00,5.3,5,,,0,,76,,100,Dry,1027,1,75,52,0,,1.6,
Stornoway Airport,30/10/2019 18:00,4.8,5,,9.4,0,0,83,,100,Dry,1027,0,40,0,0,,2.2,
Stornoway Airport,30/10/2019 19:00,3,0,,,0,,84,,0,Dry,1027,0,35,0,0,,0.7,
Stornoway Airport,30/10/2019 20:00,2.1,3,,,0,,89,,310,Dry,1027,0,55,0,0,,0.6,
Stornoway Airport,30/10/2019 21:00,1.7,5,,,0,,90,,310,Dry,1026,0,75,0,0,,0.3,
Stornoway Airport,30/10/2019 22:00,1.1,5,,,0,,91,,300,Dry,1026,0,70,0,0,,-0.1,
Stornoway Airport,30/10/2019 23:00,0.8,5,,,0,,90,,300,Dry,1026,0,75,0,0,,-0.6,
Stornoway Airport,31/10/2019 00:00,1,6,,,0,0,89,,290,Dry,1026,0,75,,,,-0.5,
Tulloch Bridge,01/09/2019 00:00,9.8,6,,,1,5,85,,210,Light rain,1007,7,45,,,,7.5,
Tulloch Bridge,01/09/2019 01:00,9.6,6,,,0.2,,83,,260,Rain,1008,4,50,0,,,7,
Tulloch Bridge,01/09/2019 02:00,9.3,5,,,1,,88,,240,Light rain,1008,7,45,0,,,7.5,
Tulloch Bridge,01/09/2019 03:00,9.6,6,,,0.6,,85,,270,Light shower,1008,8,23,0,,,7.3,
Tulloch Bridge,01/09/2019 04:00,9.3,8,,,1,,88,,290,Light rain,1009,8,50,0,,,7.5,
Tulloch Bridge,01/09/2019 05:00,9.2,8,,,0,,85,,290,Drizzly rain,1009,2,14,0,,,6.9,
Tulloch Bridge,01/09/2019 06:00,8.8,8,8.3,,0.4,3,92,,300,Rain,1010,8,45,8,,,7.6,
Tulloch Bridge,01/09/2019 07:00,9,7,,,0.6,,89,,270,Rain,1011,8,40,97,,,7.3,
Tulloch Bridge,01/09/2019 08:00,10.1,6,,,0,,79,,300,Dry,1011,3,50,405,,,6.7,
Tulloch Bridge,01/09/2019 09:00,10.2,10,,,0,,75,,280,Dry,1012,6,26,724,,,6.1,
Tulloch Bridge,01/09/2019 10:00,10.5,10,,,0,,77,,280,Dry,1013,8,28,1387,,,6.8,
Tulloch Bridge,01/09/2019 11:00,11.6,9,,,0,,67,,270,Dry,1013,6,30,1844,,,5.7,
Tulloch Bridge,01/09/2019 12:00,12.3,9,,,0,0.6,64,,280,Dry,1014,7,40,2061,,,5.8,
Tulloch Bridge,01/09/2019 13:00,9.7,5,,,0.2,,84,,290,Light shower,1015,8,15,984,,,7.2,
Tulloch Bridge,01/09/2019 14:00,10.4,7,,,2.4,,82,,300,Rain,1015,8,30,694,,,7.5,
Tulloch Bridge,01/09/2019 15:00,11.7,8,,,0,,69,,290,Dry,1015,5,50,1739,,,6.4,
Tulloch Bridge,01/09/2019 16:00,9.8,9,,,0,,76,,330,Moderate shower,1016,7,10,1190,,,5.9,
Tulloch Bridge,01/09/2019 17:00,10.2,1,,,0.8,,81,,190,Rain,1016,8,50,617,,,7.1,
Tulloch Bridge,01/09/2019 18:00,9.3,1,,13.1,0.2,3.4,90,,100,Dry,1017,4,45,312,,,7.9,
Tulloch Bridge,01/09/2019 19:00,9.2,7,,,0.2,,75,,250,Light shower,1017,8,30,78,,,5.1,
Tulloch Bridge,01/09/2019 20:00,7.9,2,,,1.2,,95,,70,Moderate rain,1018,8,26,3,,,7.3,
Tulloch Bridge,01/09/2019 21:00,6.3,1,,,0,,96,,90,Rain,1018,7,14,0,,,5.8,
Tulloch Bridge,01/09/2019 22:00,6.3,1,,,0,,99,,40,Fog,1018,7,40,0,,,6.2,
Tulloch Bridge,01/09/2019 23:00,6,2,,,0,,99,,360,Dry,1018,5,50,0,,,5.9,
Tulloch Bridge,02/09/2019 00:00,6.5,2,,,0,1,99,,110,Dry,1018,7,50,,,,6.4,
Tulloch Bridge,02/09/2019 01:00,8.4,6,,,0,,93,,190,Dry,1018,8,19,0,,,7.4,
Tulloch Bridge,02/09/2019 02:00,8.9,9,,,0,,89,,240,Dry,1018,1,50,0,,,7.2,
Tulloch Bridge,02/09/2019 03:00,8.2,5,,,0,,88,,240,Dry,1017,7,50,0,,,6.4,
Tulloch Bridge,02/09/2019 04:00,9,5,,,0,,89,,240,Dry,1016,8,50,0,,,7.3,
Tulloch Bridge,02/09/2019 05:00,8.7,6,,,0.2,,92,,200,Light shower,1016,8,29,0,,,7.6,
Tulloch Bridge,02/09/2019 06:00,9.1,7,5.7,,0.2,1,92,,190,Rain,1016,3,45,6,,,7.9,
Tulloch Bridge,02/09/2019 07:00,9.3,6,,,0.2,,97,,170,Light drizzle,1015,8,5,73,,,8.9,
Tulloch Bridge,02/09/2019 08:00,10.5,9,,,0.6,,91,,190,Light drizzle,1014,8,12,178,,,9.2,
Tulloch Bridge,02/09/2019 09:00,11.1,12,,,0.6,,92,,190,Light rain,1013,8,10,485,,,10,
Tulloch Bridge,02/09/2019 10:00,11.7,13,,,0.8,,95,,200,Moderate rain,1012,7,13,665,,,11,
Tulloch Bridge,02/09/2019 11:00,12.8,12,,,0.8,,95,,200,Moderate rain,1011,7,8,800,,,12.1,
Tulloch Bridge,02/09/2019 12:00,13,13,,,0.8,4,94,,210,Moderate rain,1010,8,4,711,,,12.1,
Tulloch Bridge,02/09/2019 13:00,13.1,13,,,2.4,,94,,210,Moderate rain,1010,1,6,452,,,12.3,
Tulloch Bridge,02/09/2019 14:00,13.6,13,,,0.6,,92,,210,Light rain,1009,8,13,703,,,12.4,
Tulloch Bridge,02/09/2019 15:00,14,14,,,0.2,,90,29,220,Moderate shower,1009,8,6,637,,,12.4,
Tulloch Bridge,02/09/2019 16:00,14,10,,,1.6,,90,,210,Moderate rain,1009,8,5,384,,,12.5,
Tulloch Bridge,02/09/2019 17:00,14,6,,,1.2,,91,,240,Light rain,1009,8,14,270,,,12.6,
Tulloch Bridge,02/09/2019 18:00,14.3,6,,14.6,0.2,6,86,,280,Light rain,1010,8,35,219,,,12.1,
Tulloch Bridge,02/09/2019 19:00,14,5,,,0.2,,88,,270,Light shower,1010,4,50,73,,,12.1,
Tulloch Bridge,02/09/2019 20:00,14.1,10,,,0,,85,,290,Drizzly rain,1011,8,21,9,,,11.7,
Tulloch Bridge,02/09/2019 21:00,13.6,8,,,0,,88,,290,Rain,1012,1,11,0,,,11.8,
Tulloch Bridge,02/09/2019 22:00,13.7,8,,,0,,84,,270,Dry,1012,8,50,0,,,11.2,
Tulloch Bridge,02/09/2019 23:00,13.3,8,,,0,,86,,290,Dry,1013,7,40,0,,,11.1,
Tulloch Bridge,03/09/2019 00:00,13.3,6,,,0,0.2,84,,290,Dry,1013,7,50,,,,10.8,
Tulloch Bridge,03/09/2019 01:00,12.2,8,,,0,,94,,330,Dry,1014,1,50,0,,,11.4,
Tulloch Bridge,03/09/2019 02:00,12.4,5,,,0,,90,,300,Dry,1014,6,50,0,,,10.9,
Tulloch Bridge,03/09/2019 03:00,12.8,3,,,0,,88,,250,Dry,1014,7,50,0,,,11,
Tulloch Bridge,03/09/2019 04:00,12.5,2,,,0,,89,,290,Dry,1014,7,50,0,,,10.9,
Tulloch Bridge,03/09/2019 05:00,12.4,3,,,0,,92,,270,Dry,1014,8,50,0,,,11.2,
Tulloch Bridge,03/09/2019 06:00,12.2,3,12,,0,0,94,,320,Dry,1015,8,50,10,,,11.3,
Tulloch Bridge,03/09/2019 07:00,12,2,,,0,,98,,60,Misty,1015,8,5,93,,,11.7,
Tulloch Bridge,03/09/2019 08:00,12.4,2,,,0,,96,,310,Drizzly rain,1015,7,6,142,,,11.9,
Tulloch Bridge,03/09/2019 09:00,12.8,7,,,0.2,,96,,170,Drizzly rain,1015,8,12,302,,,12.3,
Tulloch Bridge,03/09/2019 10:00,13.7,5,,,0,,94,,140,Rain,1014,2,13,575,,,12.9,
Tulloch Bridge,03/09/2019 11:00,14.5,7,,,0,,93,,170,Dry,1014,8,45,688,,,13.4,
Tulloch Bridge,03/09/2019 12:00,15.5,3,,,0,0.2,87,,130,Dry,1013,8,30,669,,,13.5,
Tulloch Bridge,03/09/2019 13:00,14.8,9,,,0,,94,,180,Drizzly rain,1013,8,3,624,,,14,
Tulloch Bridge,03/09/2019 14:00,15.1,7,,,0.4,,96,,190,Light rain,1012,8,6,767,,,14.6,
Tulloch Bridge,03/09/2019 15:00,15.8,14,,,0.4,,89,,210,Rain,1011,8,30,853,,,14,
Tulloch Bridge,03/09/2019 16:00,15.4,12,,,0,,82,,210,Rain,1011,7,45,557,,,12.4,
Tulloch Bridge,03/09/2019 17:00,14.7,15,,,0,,86,,200,Rain,1010,7,13,384,,,12.4,
Tulloch Bridge,03/09/2019 18:00,14.2,10,,16.1,0,0.8,89,,220,Rain,1010,8,50,226,,,12.5,
Tulloch Bridge,03/09/2019 19:00,14,10,,,0,,89,,220,Drizzly rain,1010,8,13,67,,,12.3,
Tulloch Bridge,03/09/2019 20:00,13.9,8,,,0,,82,,220,Rain,1010,8,50,3,,,10.9,
Tulloch Bridge,03/09/2019 21:00,12.6,6,,,0,,79,,240,Dry,1010,3,40,0,,,9.2,
Tulloch Bridge,03/09/2019 22:00,11.9,6,,,0,,78,,240,Dry,1010,3,40,0,,,8.3,
Tulloch Bridge,03/09/2019 23:00,11.6,6,,,0,,84,,270,Dry,1009,7,30,0,,,9,
Tulloch Bridge,04/09/2019 00:00,11.3,6,,,0,0,81,,260,Dry,1009,7,26,,,,8.2,
Tulloch Bridge,04/09/2019 01:00,10.4,8,,,0,,82,,270,Light shower,1009,1,16,0,,,7.5,
Tulloch Bridge,04/09/2019 02:00,9.7,10,,,0.4,,75,,220,Rain,1008,3,35,0,,,5.5,
Tulloch Bridge,04/09/2019 03:00,9.9,12,,,0,,76,,220,Dry,1007,1,30,0,,,6,
Tulloch Bridge,04/09/2019 04:00,9.7,10,,,0,,76,,220,Light shower,1007,7,30,0,,,5.8,
Tulloch Bridge,04/09/2019 05:00,8.2,7,,,0.2,,87,,220,Rain,1006,3,45,0,,,6.3,
Tulloch Bridge,04/09/2019 06:00,9,9,8.2,,0,0.6,82,,210,Rain,1005,3,45,8,,,6.2,
Tulloch Bridge,04/09/2019 07:00,8.8,7,,,0.4,,92,,190,Moderate shower,1005,8,11,130,,,7.6,
Tulloch Bridge,04/09/2019 08:00,9.4,8,,,0.2,,92,,170,Rain,1004,4,45,278,,,8.2,
Tulloch Bridge,04/09/2019 09:00,9.9,3,,,0.2,,85,,100,Moderate shower,1003,8,7,317,,,7.6,
Tulloch Bridge,04/09/2019 10:00,10.4,7,,,0.4,,83,,140,Rain,1003,2,40,382,,,7.7,
Tulloch Bridge,04/09/2019 11:00,11.3,5,,,0,,76,,50,Dry,1003,8,50,947,,,7.3,
Tulloch Bridge,04/09/2019 12:00,12.2,5,,,0,1,78,,60,Rain,1005,7,50,975,,,8.6,
Tulloch Bridge,04/09/2019 13:00,11.8,13,,,0,,77,,330,Rain,1007,8,50,783,,,8,
Tulloch Bridge,04/09/2019 14:00,14,12,,,0,,67,,340,Dry,1008,5,50,1230,,,8,
Tulloch Bridge,04/09/2019 15:00,11.6,9,,,0.2,,81,,290,Moderate shower,1010,7,11,814,,,8.5,
Tulloch Bridge,04/09/2019 16:00,10.8,14,,,0.4,,77,,340,Rain,1012,8,45,267,,,7.1,
Tulloch Bridge,04/09/2019 17:00,9.4,15,,,0.4,,86,32,340,Drizzly rain,1014,8,8,386,,,7.3,
Tulloch Bridge,04/09/2019 18:00,9.1,7,,14.2,0.4,2,84,,290,Drizzly rain,1016,8,15,129,,,6.7,
Tulloch Bridge,04/09/2019 19:00,8.5,8,,,0,,85,,290,Light shower,1017,8,40,44,,,6.2,
Tulloch Bridge,04/09/2019 20:00,8.3,8,,,0,,79,,300,Rain,1019,7,50,5,,,5,
Tulloch Bridge,04/09/2019 21:00,7.9,10,,,0,,83,,290,Rain,1020,7,35,0,,,5.2,
Tulloch Bridge,04/09/2019 22:00,7.7,8,,,0,,76,,280,Rain,1021,6,45,0,,,3.9,
Tulloch Bridge,04/09/2019 23:00,7.9,12,,,0,,69,,280,Dry,1021,5,40,0,,,2.7,
Tulloch Bridge,05/09/2019 00:00,7.7,10,,,0,0,73,,300,Dry,1021,3,35,,,,3.2,
Tulloch Bridge,05/09/2019 01:00,8.1,10,,,0,,70,,280,Rain,1022,7,50,0,,,3,
Tulloch Bridge,05/09/2019 02:00,7.8,10,,,0,,76,,280,Rain,1022,7,50,0,,,3.9,
Tulloch Bridge,05/09/2019 03:00,7.1,5,,,0,,82,,340,Light shower,1022,8,22,0,,,4.3,
Tulloch Bridge,05/09/2019 04:00,6.1,5,,,0,,88,,320,Rain,1022,1,45,0,,,4.3,
Tulloch Bridge,05/09/2019 05:00,4,1,,,0,,92,,240,Dry,1022,,40,0,,,2.9,
Tulloch Bridge,05/09/2019 06:00,5.6,2,3.8,,0,0,98,,360,Dry,1022,7,45,12,,,5.4,
Tulloch Bridge,05/09/2019 07:00,7.5,3,,,0,,92,,330,Light rain,1022,8,13,73,,,6.3,
Tulloch Bridge,05/09/2019 08:00,8.7,5,,,0.2,,96,,320,Light rain,1022,2,13,336,,,8.1,
Tulloch Bridge,05/09/2019 09:00,9.6,5,,,0,,95,,340,Rain,1021,8,30,526,,,8.9,
Tulloch Bridge,05/09/2019 10:00,10.8,10,,,1.2,,89,,290,Moderate rain,1021,8,4,386,,,9.2,
Tulloch Bridge,05/09/2019 11:00,13.1,10,,,0.6,,80,29,270,Rain,1021,8,23,830,,,9.9,
Tulloch Bridge,05/09/2019 12:00,14.1,10,,,0,2,75,30,280,Dry,1021,6,25,1502,,,9.8,
Tulloch Bridge,05/09/2019 13:00,13.6,9,,,0,,70,,290,Dry,1021,4,24,1839,,,8.3,
Tulloch Bridge,05/09/2019 14:00,14.2,12,,,0,,57,31,280,Dry,1021,1,25,2174,,,5.9,
Tulloch Bridge,05/09/2019 15:00,15,7,,,0,,57,,220,Dry,1020,2,26,1995,,,6.7,
Tulloch Bridge,05/09/2019 16:00,13.7,14,,,0,,61,,280,Dry,1020,4,25,1394,,,6.5,
Tulloch Bridge,05/09/2019 17:00,13.2,10,,,0,,64,,230,Dry,1020,7,30,878,,,6.7,
Tulloch Bridge,05/09/2019 18:00,12.5,12,,15.3,0,0,66,,240,Dry,1019,2,25,275,,,6.5,
Tulloch Bridge,05/09/2019 19:00,11.1,12,,,0,,75,,210,Light shower,1018,8,19,46,,,7,
Tulloch Bridge,05/09/2019 20:00,10.7,16,,,0.2,,76,,220,Light rain,1018,8,10,0,,,6.8,
Tulloch Bridge,05/09/2019 21:00,10.1,15,,,0.2,,86,,210,Light shower,1016,8,11,0,,,7.9,
Tulloch Bridge,05/09/2019 22:00,10.9,13,,,0.4,,88,,210,Light rain,1014,8,5,0,,,9.1,
Tulloch Bridge,05/09/2019 23:00,11.7,18,,,0.4,,89,,210,Light rain,1012,7,7,0,,,10,
Tulloch Bridge,06/09/2019 00:00,12.2,15,,,0.4,2,89,29,230,Drizzly rain,1011,8,9,,,,10.5,
Tulloch Bridge,06/09/2019 01:00,13.1,10,,,0.8,,82,29,230,Light shower,1010,7,50,0,,,10.2,
Tulloch Bridge,06/09/2019 02:00,12.7,7,,,0.6,,81,,270,Moderate shower,1009,5,10,0,,,9.7,
Tulloch Bridge,06/09/2019 03:00,11.4,13,,,1.2,,86,39,280,Rain,1010,7,40,0,,,9.2,
Tulloch Bridge,06/09/2019 04:00,10.2,10,,,0,,73,,200,Dry,1010,5,30,0,,,5.7,
Tulloch Bridge,06/09/2019 05:00,9.6,7,,,0,,86,,230,Rain,1011,1,23,0,,,7.4,
Tulloch Bridge,06/09/2019 06:00,9.3,7,8.9,,0,2,86,,270,Light shower,1011,8,11,3,,,7.2,
Tulloch Bridge,06/09/2019 07:00,9.2,8,,,0.6,,88,,290,Moderate shower,1011,8,15,56,,,7.4,
Tulloch Bridge,06/09/2019 08:00,9.9,9,,,0,,84,,210,Light rain,1011,8,28,183,,,7.4,
Tulloch Bridge,06/09/2019 09:00,9.9,7,,,1,,90,,310,Drizzly rain,1011,8,30,358,,,8.5,
Tulloch Bridge,06/09/2019 10:00,12,9,,,0,,81,29,260,Rain,1011,6,45,741,,,8.9,
Tulloch Bridge,06/09/2019 11:00,13.1,10,,,0,,69,,270,Dry,1012,5,45,2283,,,7.7,
Tulloch Bridge,06/09/2019 12:00,13.1,10,,,0,2,70,,290,Dry,1012,7,40,1396,,,7.8,
Tulloch Bridge,06/09/2019 13:00,13.9,10,,,0,,70,,280,Dry,1013,7,50,1851,,,8.6,
Tulloch Bridge,06/09/2019 14:00,13.9,10,,,0,,69,,280,Rain,1013,7,40,1487,,,8.4,
Tulloch Bridge,06/09/2019 15:00,11.9,12,,,0.6,,88,,270,Light shower,1015,8,13,634,,,10,
Tulloch Bridge,06/09/2019 16:00,13,12,,,0,,79,,280,Rain,1015,1,35,1027,,,9.6,
Tulloch Bridge,06/09/2019 17:00,12.2,13,,,0,,80,,280,Dry,1016,8,45,667,,,9,
Tulloch Bridge,06/09/2019 18:00,11.9,10,,14.7,0,0,76,,300,Dry,1016,8,50,232,,,8,
Tulloch Bridge,06/09/2019 19:00,11.4,7,,,0,,77,,310,Dry,1018,5,40,97,,,7.6,
Tulloch Bridge,06/09/2019 20:00,11,7,,,0,,77,,270,Dry,1019,8,45,3,,,7.3,
Tulloch Bridge,06/09/2019 21:00,10.3,7,,,0,,75,,300,Dry,1020,7,45,0,,,6.2,
Tulloch Bridge,06/09/2019 22:00,10.2,9,,,0,,71,,280,Dry,1021,6,45,0,,,5.2,
Tulloch Bridge,06/09/2019 23:00,10.2,6,,,0,,71,,280,Dry,1021,8,50,0,,,5.2,
Tulloch Bridge,07/09/2019 00:00,9.4,3,,,0,0,78,,330,Dry,1022,8,50,,,,5.9,
Tulloch Bridge,07/09/2019 01:00,9.6,6,,,0,,77,,290,Dry,1022,8,50,0,,,5.9,
Tulloch Bridge,07/09/2019 02:00,8.6,3,,,0,,87,,350,Dry,1023,8,45,0,,,6.6,
Tulloch Bridge,07/09/2019 03:00,8.2,3,,,0,,81,,340,Dry,1024,8,50,0,,,5.3,
Tulloch Bridge,07/09/2019 04:00,7.8,6,,,0,,77,,310,Dry,1024,7,45,0,,,4.2,
Tulloch Bridge,07/09/2019 05:00,6.8,1,,,0,,80,,330,Dry,1025,8,50,0,,,3.6,
Tulloch Bridge,07/09/2019 06:00,4.2,1,4.1,,0,0,95,,160,Dry,1026,7,35,6,,,3.6,
Tulloch Bridge,07/09/2019 07:00,4,1,,,0,,97,,160,Dry,1027,2,35,120,,,3.7,
Tulloch Bridge,07/09/2019 08:00,7.5,2,,,0,,84,,130,Dry,1027,2,50,639,,,5.1,
Tulloch Bridge,07/09/2019 09:00,10.1,5,,,0,,65,,320,Dry,1027,0,45,1205,,,4,
Tulloch Bridge,07/09/2019 10:00,10.9,5,,,0,,59,,20,Dry,1027,2,35,1639,,,3.4,
Tulloch Bridge,07/09/2019 11:00,12.6,3,,,0,,58,,40,Dry,1027,2,27,2187,,,4.8,
Tulloch Bridge,07/09/2019 12:00,13.1,3,,,0,0,55,,140,Dry,1027,1,40,2146,,,4.4,
Tulloch Bridge,07/09/2019 13:00,14.2,2,,,0,,53,,170,Dry,1027,2,30,2146,,,4.9,
Tulloch Bridge,07/09/2019 14:00,14,6,,,0,,48,,310,Dry,1027,0,26,2184,,,3.2,
Tulloch Bridge,07/09/2019 15:00,14.3,7,,,0,,48,,300,Dry,1027,0,45,2009,,,3.5,
Tulloch Bridge,07/09/2019 16:00,14.7,5,,,0,,51,,310,Dry,1027,0,35,1630,,,4.9,
Tulloch Bridge,07/09/2019 17:00,13.8,5,,,0,,54,,280,Dry,1027,0,45,1130,,,4.7,
Tulloch Bridge,07/09/2019 18:00,12.3,6,,14.9,0,0,60,,290,Dry,1027,,50,430,,,5,
Tulloch Bridge,07/09/2019 19:00,11.3,8,,,0,,71,,260,Dry,1028,0,50,76,,,6.3,
Tulloch Bridge,07/09/2019 20:00,9.5,6,,,0,,78,,280,Dry,1028,0,50,0,,,5.9,
Tulloch Bridge,07/09/2019 21:00,5,1,,,0,,93,,160,Dry,1028,,45,0,,,4.1,
Tulloch Bridge,07/09/2019 22:00,4.3,1,,,0,,99,,150,Fog,1028,,18,0,,,4.2,
Tulloch Bridge,07/09/2019 23:00,2.7,0,,,0,,98,,0,Fog,1028,0,2,0,,,2.5,
Tulloch Bridge,08/09/2019 00:00,1.5,1,,,0,0,99,,340,Fog thinning,1028,1,0,,,,1.4,
Tulloch Bridge,08/09/2019 01:00,2.7,1,,,0,,99,,230,Fog,1028,,4,0,,,2.6,
Tulloch Bridge,08/09/2019 02:00,3.1,5,,,0,,100,,180,Fog,1027,1,22,0,,,3.1,
Tulloch Bridge,08/09/2019 03:00,1.1,1,,,0,,100,,110,Fog,1027,1,1,0,,,1.1,
Tulloch Bridge,08/09/2019 04:00,2.3,2,,,0,,100,,10,Fog,1027,0,35,0,,,2.3,
Tulloch Bridge,08/09/2019 05:00,1.6,2,,,0,,100,,340,Dry,1026,0,17,0,,,1.6,
Tulloch Bridge,08/09/2019 06:00,1.5,1,1.1,,0,0,100,,40,Dry,1026,,16,6,,,1.5,
Tulloch Bridge,08/09/2019 07:00,4.9,3,,,0,,100,,190,Dry,1025,0,50,131,,,4.9,
Tulloch Bridge,08/09/2019 08:00,7.2,8,,,0,,94,,180,Dry,1025,,45,657,,,6.4,
Tulloch Bridge,08/09/2019 09:00,9.5,8,,,0,,84,,180,Dry,1024,7,45,1035,,,7,
Tulloch Bridge,08/09/2019 10:00,11,8,,,0,,76,,190,Dry,1023,7,50,1123,,,7,
Tulloch Bridge,08/09/2019 11:00,12.3,9,,,0,,76,,180,Dry,1022,8,45,1369,,,8.2,
Tulloch Bridge,08/09/2019 12:00,12.5,10,,,0,0,77,,180,Dry,1022,8,50,1355,,,8.6,
Tulloch Bridge,08/09/2019 13:00,13.4,12,,,0,,75,,190,Dry,1021,8,45,1443,,,9.2,
Tulloch Bridge,08/09/2019 14:00,13.8,10,,,0,,74,,190,Dry,1020,8,45,1409,,,9.3,
Tulloch Bridge,08/09/2019 15:00,13.8,2,,,0,,77,,310,Dry,1019,7,45,706,,,10,
Tulloch Bridge,08/09/2019 16:00,13.5,3,,,0,,82,,310,Dry,1019,8,45,637,,,10.5,
Tulloch Bridge,08/09/2019 17:00,13.1,7,,,0,,83,,210,Dry,1018,8,50,530,,,10.4,
Tulloch Bridge,08/09/2019 18:00,12.4,8,,14.5,0,0,87,,190,Dry,1018,6,50,253,,,10.4,
Tulloch Bridge,08/09/2019 19:00,12.2,7,,,0,,88,,180,Dry,1017,8,50,47,,,10.4,
Tulloch Bridge,08/09/2019 20:00,12,5,,,0,,88,,160,Rain,1016,8,50,0,,,10.2,
Tulloch Bridge,08/09/2019 21:00,11.5,7,,,0,,92,,150,Drizzly rain,1016,8,24,0,,,10.3,
Tulloch Bridge,08/09/2019 22:00,11.5,7,,,0.2,,91,,160,Rain,1015,3,29,0,,,10.2,
Tulloch Bridge,08/09/2019 23:00,11.6,6,,,0,,90,,150,Light shower,1014,8,50,0,,,10.1,
Tulloch Bridge,09/09/2019 00:00,11.6,6,,,0,0.2,91,,130,Rain,1013,7,8,,,,10.3,
Tulloch Bridge,09/09/2019 01:00,11.4,6,,,0,,93,,150,Drizzly rain,1012,2,8,0,,,10.4,
Tulloch Bridge,09/09/2019 02:00,11,2,,,0,,94,,330,Rain,1012,8,50,0,,,10.2,
Tulloch Bridge,09/09/2019 03:00,11.1,1,,,0.6,,95,,110,Moderate shower,1011,8,9,0,,,10.4,
Tulloch Bridge,09/09/2019 04:00,10.7,1,,,1.4,,98,,340,Light rain,1010,8,15,0,,,10.5,
Tulloch Bridge,09/09/2019 05:00,10.6,0,,,1.4,,98,,0,Moderate rain,1010,8,10,0,,,10.4,
Tulloch Bridge,09/09/2019 06:00,10.6,1,10.5,,1,4.8,98,,150,Light rain,1010,8,10,1,,,10.4,
Tulloch Bridge,09/09/2019 07:00,10.6,1,,,0.2,,98,,260,Light drizzle,1010,8,4,29,,,10.3,
Tulloch Bridge,09/09/2019 08:00,11.2,2,,,0.8,,98,,90,Light drizzle,1009,1,13,233,,,11,
Tulloch Bridge,09/09/2019 09:00,11.7,3,,,0,,94,,180,Light rain,1010,8,23,345,,,10.9,
Tulloch Bridge,09/09/2019 10:00,12.4,2,,,0.4,,92,,140,Light rain,1010,8,23,679,,,11.2,
Tulloch Bridge,09/09/2019 11:00,12.6,2,,,0,,91,,180,Light drizzle,1010,8,16,671,,,11.2,
Tulloch Bridge,09/09/2019 12:00,13,3,,,0,1,88,,180,Drizzly rain,1010,7,28,597,,,11.2,
Tulloch Bridge,09/09/2019 13:00,12.2,7,,,0.4,,91,,290,Light rain,1010,8,14,544,,,10.9,
Tulloch Bridge,09/09/2019 14:00,12.9,2,,,0,,88,,160,Rain,1010,8,45,765,,,11,
Tulloch Bridge,09/09/2019 15:00,13.8,6,,,0,,84,,310,Dry,1011,8,30,880,,,11.2,
Tulloch Bridge,09/09/2019 16:00,12.4,9,,,0,,90,,270,Rain,1012,8,17,517,,,10.9,
Tulloch Bridge,09/09/2019 17:00,12,8,,,0,,89,,270,Dry,1012,8,45,590,,,10.3,
Tulloch Bridge,09/09/2019 18:00,11.8,7,,14.1,0,1,86,,280,Dry,1013,7,45,217,,,9.7,
Tulloch Bridge,09/09/2019 19:00,11.5,8,,,0,,85,,280,Dry,1014,8,50,49,,,9.2,
Tulloch Bridge,09/09/2019 20:00,11.3,8,,,0,,84,,290,Dry,1015,8,50,2,,,8.8,
Tulloch Bridge,09/09/2019 21:00,11.2,6,,,0,,82,,280,Dry,1016,8,50,0,,,8.4,
Tulloch Bridge,09/09/2019 22:00,10.9,6,,,0,,84,,300,Dry,1016,1,50,0,,,8.4,
Tulloch Bridge,09/09/2019 23:00,10.8,5,,,0,,83,,300,Dry,1016,8,50,0,,,8.1,
Tulloch Bridge,10/09/2019 00:00,9.8,3,,,0,0,94,,70,Dry,1017,5,50,,,,9,
Tulloch Bridge,10/09/2019 01:00,10.3,5,,,0,,89,,300,Dry,1017,8,50,0,,,8.6,
Tulloch Bridge,10/09/2019 02:00,9.4,3,,,0,,96,,60,Dry,1017,1,45,0,,,8.8,
Tulloch Bridge,10/09/2019 03:00,9.3,2,,,0,,96,,30,Dry,1018,8,35,0,,,8.8,
Tulloch Bridge,10/09/2019 04:00,9.1,1,,,0,,96,,360,Dry,1018,8,45,0,,,8.6,
Tulloch Bridge,10/09/2019 05:00,8,2,,,0,,92,,360,Dry,1018,3,50,0,,,6.9,
Tulloch Bridge,10/09/2019 06:00,5.9,2,5.9,,0,0,97,,170,Thickening fog,1018,0,0,0,,,5.5,
Tulloch Bridge,10/09/2019 07:00,6.9,0,,,0,,100,,0,Fog,1019,0,18,207,,,6.9,
Tulloch Bridge,10/09/2019 08:00,9.9,2,,,0,,92,,70,Dry,1018,0,45,594,,,8.7,
Tulloch Bridge,10/09/2019 09:00,11,2,,,0,,79,,30,Dry,1018,0,40,1215,,,7.6,
Tulloch Bridge,10/09/2019 10:00,12.7,7,,,0,,64,,190,Dry,1017,4,35,1594,,,6.2,
Tulloch Bridge,10/09/2019 11:00,12.3,12,,,0,,66,,180,Dry,1016,2,45,1343,,,6.3,
Tulloch Bridge,10/09/2019 12:00,13.9,13,,,0,0,64,,190,Dry,1016,7,24,1920,,,7.3,
Tulloch Bridge,10/09/2019 13:00,13.4,9,,,0,,65,,180,Dry,1015,5,30,1309,,,7,
Tulloch Bridge,10/09/2019 14:00,13.3,13,,,0,,68,,190,Dry,1014,8,24,1105,,,7.6,
Tulloch Bridge,10/09/2019 15:00,12.2,7,,,0,,68,,210,Dry,1014,8,35,579,,,6.5,
Tulloch Bridge,10/09/2019 16:00,11.8,13,,,0,,68,,190,Dry,1012,7,40,310,,,6.2,
Tulloch Bridge,10/09/2019 17:00,10.4,16,,,0,,85,,200,Light shower,1011,1,16,163,,,8,
Tulloch Bridge,10/09/2019 18:00,10.3,14,,14,0.2,0.2,90,33,180,Light rain,1010,8,14,67,,,8.8,
Tulloch Bridge,10/09/2019 19:00,10.4,12,,,0.8,,91,31,190,Moderate rain,1009,8,9,13,,,9.1,
Tulloch Bridge,10/09/2019 20:00,11.1,16,,,3,,91,,200,Moderate rain,1008,7,11,0,,,9.7,
Tulloch Bridge,10/09/2019 21:00,11.7,13,,,1.4,,92,29,210,Moderate rain,1006,1,11,0,,,10.6,
Tulloch Bridge,10/09/2019 22:00,12.3,17,,,2,,93,33,200,Moderate rain,1005,8,7,0,,,11.3,
Tulloch Bridge,10/09/2019 23:00,13.3,15,,,2.2,,94,,200,Light rain,1004,8,5,0,,,12.5,
Tulloch Bridge,11/09/2019 00:00,13.8,15,,,1,10,94,31,220,Light rain,1003,3,6,,,,13,
Tulloch Bridge,11/09/2019 01:00,14.3,12,,,1.6,,94,,210,Moderate rain,1003,8,5,0,,,13.4,
Tulloch Bridge,11/09/2019 02:00,14.8,13,,,1.2,,88,,220,Moderate rain,1002,8,6,0,,,13,
Tulloch Bridge,11/09/2019 03:00,13.6,9,,,0.4,,77,36,230,Rain,1002,8,50,0,,,9.7,
Tulloch Bridge,11/09/2019 04:00,13.1,10,,,0,,71,,220,Rain,1002,5,45,0,,,8.1,
Tulloch Bridge,11/09/2019 05:00,12.9,16,,,0,,76,,220,Moderate shower,1003,8,24,0,,,8.8,
Tulloch Bridge,11/09/2019 06:00,11.3,12,10.2,,1.2,5,89,,300,Moderate rain,1004,8,7,0,,,9.6,
Tulloch Bridge,11/09/2019 07:00,11.5,8,,,0.6,,86,,290,Moderate shower,1005,8,14,30,,,9.4,
Tulloch Bridge,11/09/2019 08:00,12.3,8,,,0,,73,,230,Rain,1005,7,45,202,,,7.8,
Tulloch Bridge,11/09/2019 09:00,12.1,8,,,0,,74,,250,Rain,1006,8,30,231,,,7.7,
Tulloch Bridge,11/09/2019 10:00,12.2,7,,,0.2,,80,,260,Drizzly rain,1007,1,8,319,,,9,
Tulloch Bridge,11/09/2019 11:00,13.2,10,,,0,,67,37,220,Rain,1008,,50,452,,,7.3,
Tulloch Bridge,11/09/2019 12:00,13.5,15,,,0,0.8,68,31,210,Dry,1008,1,50,588,,,7.8,
Tulloch Bridge,11/09/2019 13:00,12.4,14,,,0,,77,33,270,Haze,1010,1,7,1064,,,8.5,
Tulloch Bridge,11/09/2019 14:00,13.8,10,,,0,,69,30,230,Dry,1010,6,30,763,,,8.3,
Tulloch Bridge,11/09/2019 15:00,13.8,12,,,0,,66,31,240,Rain,1011,1,26,978,,,7.6,
Tulloch Bridge,11/09/2019 16:00,12.7,15,,,0,,78,35,300,Rain,1012,8,26,995,,,9.1,
Tulloch Bridge,11/09/2019 17:00,12.3,14,,,0.2,,81,30,300,Rain,1012,8,35,468,,,9.2,
Tulloch Bridge,11/09/2019 18:00,12.9,7,,14.4,0,0.2,73,31,230,Dry,1013,3,50,340,,,8.3,
Tulloch Bridge,11/09/2019 19:00,12.7,7,,,0,,73,,260,Dry,1014,6,45,90,,,8,
Tulloch Bridge,11/09/2019 20:00,12,6,,,0,,76,,260,Rain,1015,7,50,0,,,8,
Tulloch Bridge,11/09/2019 21:00,11.8,9,,,0,,80,,280,Dry,1015,7,45,0,,,8.6,
Tulloch Bridge,11/09/2019 22:00,10.8,6,,,0.4,,91,,280,Moderate rain,1016,7,13,0,,,9.5,
Tulloch Bridge,11/09/2019 23:00,10.9,5,,,0.2,,86,,210,Rain,1016,8,50,0,,,8.7,
Tulloch Bridge,12/09/2019 00:00,11.6,6,,,0,0.6,79,,270,Dry,1016,7,50,,,,8.1,
Tulloch Bridge,12/09/2019 01:00,10.4,5,,,0,,92,,300,Drizzly rain,1016,8,22,0,,,9.2,
Tulloch Bridge,12/09/2019 02:00,10.3,6,,,0,,90,,330,Rain,1016,8,50,0,,,8.8,
Tulloch Bridge,12/09/2019 03:00,11,5,,,0,,80,,280,Light shower,1016,8,50,0,,,7.8,
Tulloch Bridge,12/09/2019 04:00,11.1,5,,,0,,78,,240,Rain,1016,8,27,0,,,7.5,
Tulloch Bridge,12/09/2019 05:00,11.3,7,,,0,,77,,240,Rain,1016,2,50,0,,,7.6,
Tulloch Bridge,12/09/2019 06:00,10.4,10,10.3,,0,0,87,,220,Light shower,1017,8,15,1,,,8.5,
Tulloch Bridge,12/09/2019 07:00,10.5,5,,,0,,88,,250,Rain,1017,6,45,45,,,8.6,
Tulloch Bridge,12/09/2019 08:00,10.8,9,,,0,,91,,300,Drizzly rain,1017,8,35,313,,,9.5,
Tulloch Bridge,12/09/2019 09:00,11.4,2,,,0,,89,,190,Light rain,1017,8,16,414,,,9.8,
Tulloch Bridge,12/09/2019 10:00,11.3,5,,,0.2,,88,,260,Light shower,1018,7,10,247,,,9.5,
Tulloch Bridge,12/09/2019 11:00,12,5,,,0,,88,,290,Light rain,1018,5,24,355,,,10.1,
Tulloch Bridge,12/09/2019 12:00,12.5,9,,,0,0.2,77,,240,Rain,1019,8,45,759,,,8.7,
Tulloch Bridge,12/09/2019 13:00,12.3,9,,,0,,78,,220,Rain,1019,8,50,688,,,8.6,
Tulloch Bridge,12/09/2019 14:00,14.2,8,,,0,,68,,240,Dry,1020,8,45,1193,,,8.5,
Tulloch Bridge,12/09/2019 15:00,12.7,9,,,0,,69,,270,Dry,1021,7,45,1310,,,7.2,
Tulloch Bridge,12/09/2019 16:00,13.7,6,,,0,,63,,260,Dry,1022,6,45,1316,,,6.9,
Tulloch Bridge,12/09/2019 17:00,12,7,,,0,,69,,260,Dry,1023,1,35,729,,,6.5,
Tulloch Bridge,12/09/2019 18:00,11.4,7,,15.1,0,0,69,,260,Dry,1024,5,40,196,,,6.1,
Tulloch Bridge,12/09/2019 19:00,10.1,6,,,0,,71,,210,Dry,1025,2,50,76,,,5.2,
Tulloch Bridge,12/09/2019 20:00,9.8,5,,,0,,77,,280,Dry,1026,3,40,0,,,6,
Tulloch Bridge,12/09/2019 21:00,10.2,5,,,0,,74,,280,Dry,1026,5,30,0,,,5.8,
Tulloch Bridge,12/09/2019 22:00,9.5,5,,,0,,83,,300,Moderate shower,1027,7,15,0,,,6.8,
Tulloch Bridge,12/09/2019 23:00,9.9,12,,,0.2,,74,,210,Rain,1027,1,50,0,,,5.6,
Tulloch Bridge,13/09/2019 00:00,9.2,8,,,1,1,86,,270,Moderate shower,1028,1,16,,,,7.1,
Tulloch Bridge,13/09/2019 01:00,9.1,5,,,0.2,,86,,300,Moderate shower,1029,7,19,0,,,7,
Tulloch Bridge,13/09/2019 02:00,9.2,5,,,0,,82,,280,Rain,1029,7,35,0,,,6.4,
Tulloch Bridge,13/09/2019 03:00,8.9,6,,,0,,89,,330,Drizzly rain,1030,8,40,0,,,7.2,
Tulloch Bridge,13/09/2019 04:00,8.9,9,,,0,,89,,300,Rain,1030,5,23,0,,,7.2,
Tulloch Bridge,13/09/2019 05:00,8.6,5,,,0,,83,,280,Dry,1031,0,30,0,,,5.9,
Tulloch Bridge,13/09/2019 06:00,8.5,6,6.5,,0,0,87,,310,Dry,1032,3,30,0,,,6.5,
Tulloch Bridge,13/09/2019 07:00,9.9,5,,,0,,77,,220,Dry,1032,7,30,95,,,6.1,
Tulloch Bridge,13/09/2019 08:00,9.2,3,,,0,,85,,300,Rain,1032,7,24,193,,,6.9,
Tulloch Bridge,13/09/2019 09:00,11.7,6,,,0,,71,,230,Dry,1032,6,28,632,,,6.7,
Tulloch Bridge,13/09/2019 10:00,12.4,12,,,0,,61,,220,Dry,1033,7,26,1018,,,5.2,
Tulloch Bridge,13/09/2019 11:00,12.7,12,,,0,,60,,230,Dry,1033,6,30,1039,,,5.2,
Tulloch Bridge,13/09/2019 12:00,12.9,8,,,0,0,57,,230,Dry,1034,2,40,1358,,,4.8,
Tulloch Bridge,13/09/2019 13:00,14.8,10,,,0,,52,,200,Dry,1034,3,40,2092,,,5.2,
Tulloch Bridge,13/09/2019 14:00,13.1,12,,,0,,64,,200,Dry,1034,1,35,1770,,,6.6,
Tulloch Bridge,13/09/2019 15:00,13.1,10,,,0,,58,,280,Dry,1034,6,30,946,,,5.2,
Tulloch Bridge,13/09/2019 16:00,12.4,10,,,0,,65,,280,Dry,1034,7,35,559,,,6.2,
Tulloch Bridge,13/09/2019 17:00,10.7,9,,,0,,86,,210,Rain,1034,7,30,282,,,8.5,
Tulloch Bridge,13/09/2019 18:00,10.6,7,,15,0,0,87,,210,Rain,1034,1,27,220,,,8.6,
Tulloch Bridge,13/09/2019 19:00,10.1,8,,,0,,87,,230,Light shower,1035,8,12,20,,,8.2,
Tulloch Bridge,13/09/2019 20:00,10.2,8,,,0,,87,,230,Rain,1034,8,24,0,,,8.3,
Tulloch Bridge,13/09/2019 21:00,10.2,6,,,0,,87,,230,Drizzly rain,1034,8,23,0,,,8.3,
Tulloch Bridge,13/09/2019 22:00,10.6,10,,,0.2,,84,,210,Rain,1034,8,18,0,,,8.1,
Tulloch Bridge,13/09/2019 23:00,10.8,12,,,0,,83,,200,Dry,1034,8,29,0,,,8.1,
Tulloch Bridge,14/09/2019 00:00,10.4,10,,,0,0.2,85,,190,Dry,1033,7,27,,,,8.1,
Tulloch Bridge,14/09/2019 01:00,10.1,10,,,0,,86,,200,Dry,1033,4,35,0,,,7.9,
Tulloch Bridge,14/09/2019 02:00,10.6,9,,,0,,81,,200,Dry,1032,8,35,0,,,7.5,
Tulloch Bridge,14/09/2019 03:00,10.8,7,,,0,,81,,230,Dry,1030,8,30,0,,,7.8,
Tulloch Bridge,14/09/2019 04:00,10.9,9,,,0,,82,,190,Dry,1029,8,40,0,,,8,
Tulloch Bridge,14/09/2019 05:00,11.6,13,,,0,,75,,200,Light shower,1027,8,45,0,,,7.4,
Tulloch Bridge,14/09/2019 06:00,12.4,17,10,,0,0,68,,210,Rain,1026,2,13,0,,,6.7,
Tulloch Bridge,14/09/2019 07:00,11.3,17,,,0,,78,29,200,Drizzly rain,1026,8,6,16,,,7.7,
Tulloch Bridge,14/09/2019 08:00,10.8,13,,,0,,86,32,210,Light shower,1026,8,5,106,,,8.7,
Tulloch Bridge,14/09/2019 09:00,10.3,18,,,0.8,,93,36,210,Light rain,1024,5,7,205,,,9.3,
Tulloch Bridge,14/09/2019 10:00,11.1,21,,,0.2,,92,37,200,Drizzly rain,1023,8,8,555,,,10,
Tulloch Bridge,14/09/2019 11:00,11.1,18,,,0.6,,95,33,200,Light drizzle,1022,8,4,359,,,10.4,
Tulloch Bridge,14/09/2019 12:00,12,21,,,0.2,2,89,36,200,Rain,1021,7,50,446,,,10.3,
Tulloch Bridge,14/09/2019 13:00,12.8,24,,,0,,85,35,200,Drizzly rain,1020,8,9,249,,,10.5,
Tulloch Bridge,14/09/2019 14:00,12.7,22,,,0.2,,90,37,200,Light rain,1019,8,7,393,,,11.2,
Tulloch Bridge,14/09/2019 15:00,13.7,16,,,0,,87,32,220,Light rain,1018,8,11,183,,,11.7,
Tulloch Bridge,14/09/2019 16:00,14.1,21,,,1.6,,88,40,200,Moderate rain,1017,7,9,283,,,12.3,
Tulloch Bridge,14/09/2019 17:00,14.3,20,,,3,,90,36,210,Moderate rain,1016,8,5,184,,,12.7,
Tulloch Bridge,14/09/2019 18:00,14.8,17,,15,1.4,6,86,36,220,Moderate rain,1016,8,6,108,,,12.6,
Tulloch Bridge,14/09/2019 19:00,13.6,16,,,1.6,,93,35,280,Moderate rain,1016,4,4,20,,,12.5,
Tulloch Bridge,14/09/2019 20:00,11.3,15,,,3.4,,93,36,280,Moderate rain,1017,8,5,0,,,10.3,
Tulloch Bridge,14/09/2019 21:00,10.4,15,,,2.8,,85,43,290,Moderate rain,1018,8,20,0,,,8.1,
Tulloch Bridge,14/09/2019 22:00,10.2,9,,,0.2,,84,43,240,Rain,1018,2,30,0,,,7.7,
Tulloch Bridge,14/09/2019 23:00,11.1,12,,,0,,73,,210,Dry,1017,7,17,0,,,6.5,
Tulloch Bridge,15/09/2019 00:00,11.1,9,,,0,8,74,30,250,Dry,1017,3,19,,,,6.7,
Tulloch Bridge,15/09/2019 01:00,10.1,8,,,0,,71,32,210,Dry,1018,7,17,0,,,5.2,
Tulloch Bridge,15/09/2019 02:00,10,7,,,0,,75,31,210,Dry,1018,8,14,0,,,5.8,
Tulloch Bridge,15/09/2019 03:00,9.2,5,,,0,,77,,350,Dry,1019,8,15,0,,,5.5,
Tulloch Bridge,15/09/2019 04:00,9.2,9,,,0,,67,29,280,Dry,1019,5,21,0,,,3.5,
Tulloch Bridge,15/09/2019 05:00,8.9,7,,,0,,69,29,270,Dry,1020,6,16,0,,,3.7,
Tulloch Bridge,15/09/2019 06:00,9.2,9,8.6,,0,0,66,29,200,Dry,1020,7,18,0,,,3.2,
Tulloch Bridge,15/09/2019 07:00,9.3,10,,,0,,68,,280,Dry,1020,8,15,65,,,3.9,
Tulloch Bridge,15/09/2019 08:00,9.8,10,,,0,,67,,280,Dry,1021,7,17,205,,,4,
Tulloch Bridge,15/09/2019 09:00,10.1,7,,,0,,69,,250,Dry,1021,7,17,406,,,4.7,
Tulloch Bridge,15/09/2019 10:00,10.8,8,,,0,,65,,220,Dry,1021,8,14,650,,,4.6,
Tulloch Bridge,15/09/2019 11:00,10.4,10,,,0,,70,,210,Dry,1022,7,15,468,,,5.2,
Tulloch Bridge,15/09/2019 12:00,11,10,,,0,0,68,,220,Dry,1022,7,17,781,,,5.5,
Tulloch Bridge,15/09/2019 13:00,11.3,9,,,0,,62,,250,Dry,1023,7,22,1047,,,4.4,
Tulloch Bridge,15/09/2019 14:00,11.8,10,,,0,,58,,280,Dry,1022,7,19,1332,,,4,
Tulloch Bridge,15/09/2019 15:00,12.5,9,,,0,,52,,280,Dry,1022,4,30,1643,,,3,
Tulloch Bridge,15/09/2019 16:00,11.6,14,,,0,,58,,290,Dry,1022,5,35,1495,,,3.7,
Tulloch Bridge,15/09/2019 17:00,10.7,8,,,0,,63,,210,Dry,1022,6,25,546,,,4.1,
Tulloch Bridge,15/09/2019 18:00,10,8,,13.3,0,0,63,,190,Dry,1022,3,30,195,,,3.5,
Tulloch Bridge,15/09/2019 19:00,8.1,2,,,0,,73,,240,Dry,1023,0,30,42,,,3.6,
Tulloch Bridge,15/09/2019 20:00,7.3,5,,,0,,76,,290,Dry,1023,5,40,0,,,3.5,
Tulloch Bridge,15/09/2019 21:00,7.7,3,,,0,,77,,270,Dry,1023,7,35,0,,,4,
Tulloch Bridge,15/09/2019 22:00,5.7,1,,,0,,90,,300,Dry,1023,7,30,0,,,4.3,
Tulloch Bridge,15/09/2019 23:00,3.4,2,,,0,,95,,70,Dry,1023,2,17,0,,,2.7,
Tulloch Bridge,16/09/2019 00:00,5.5,3,,,0,0,96,,220,Dry,1023,,27,,,,5,
Tulloch Bridge,16/09/2019 01:00,2.9,0,,,0,,96,,0,Dry,1023,5,15,0,,,2.4,
Tulloch Bridge,16/09/2019 02:00,3.5,1,,,0,,98,,270,Dry,1023,6,16,0,,,3.3,
Tulloch Bridge,16/09/2019 03:00,6.7,1,,,0,,100,,340,Dry,1022,8,24,1,,,6.7,
Tulloch Bridge,16/09/2019 04:00,6.1,2,,,0,,95,,310,Dry,1022,5,25,0,,,5.5,
Tulloch Bridge,16/09/2019 05:00,7.6,1,,,0,,87,,80,Dry,1022,7,30,0,,,5.6,
Tulloch Bridge,16/09/2019 06:00,7.5,3,2.2,,0,0,84,,280,Dry,1022,6,35,0,,,5.1,
Tulloch Bridge,16/09/2019 07:00,7.6,5,,,0,,88,,280,Dry,1022,5,40,54,,,5.8,
Tulloch Bridge,16/09/2019 08:00,8.2,5,,,0,,91,,300,Rain,1022,8,30,312,,,6.9,
Tulloch Bridge,16/09/2019 09:00,10.1,8,,,0,,72,,300,Dry,1022,6,45,681,,,5.4,
Tulloch Bridge,16/09/2019 10:00,10.1,9,,,0.2,,81,,210,Rain,1022,8,45,576,,,7,
Tulloch Bridge,16/09/2019 11:00,10.4,7,,,0,,78,,300,Dry,1022,8,18,509,,,6.8,
Tulloch Bridge,16/09/2019 12:00,9.8,9,,,0.2,0.4,84,,280,Light shower,1023,8,35,449,,,7.4,
Tulloch Bridge,16/09/2019 13:00,11.4,8,,,0,,65,,290,Rain,1022,7,50,1111,,,5.2,
Tulloch Bridge,16/09/2019 14:00,11.5,7,,,0,,70,,280,Dry,1022,8,40,736,,,6.4,
Tulloch Bridge,16/09/2019 15:00,11.7,10,,,0,,70,,290,Dry,1022,8,45,656,,,6.5,
Tulloch Bridge,16/09/2019 16:00,11.5,13,,,0,,68,,280,Dry,1022,7,22,581,,,6,
Tulloch Bridge,16/09/2019 17:00,10.5,7,,,0,,79,,250,Rain,1022,2,50,319,,,7.2,
Tulloch Bridge,16/09/2019 18:00,10.7,8,,12.4,0,0,72,,230,Dry,1022,7,40,143,,,6,
Tulloch Bridge,16/09/2019 19:00,9.5,8,,,0.2,,87,,270,Rain,1022,8,45,17,,,7.5,
Tulloch Bridge,16/09/2019 20:00,8.9,12,,,0,,86,,300,Dry,1023,3,45,0,,,6.8,
Tulloch Bridge,16/09/2019 21:00,8.6,7,,,0,,83,,300,Dry,1023,2,35,0,,,5.9,
Tulloch Bridge,16/09/2019 22:00,9.3,10,,,0,,84,,290,Dry,1023,7,30,0,,,6.9,
Tulloch Bridge,16/09/2019 23:00,9,13,,,0,,83,,280,Dry,1023,1,27,0,,,6.3,
Tulloch Bridge,17/09/2019 00:00,7.4,5,,,0,0.2,84,,280,Dry,1024,1,25,,,,5,
Tulloch Bridge,17/09/2019 01:00,8.1,12,,,0,,77,,290,Dry,1024,0,26,0,,,4.5,
Tulloch Bridge,17/09/2019 02:00,8.2,9,,,0,,75,,290,Dry,1024,2,30,0,,,4.1,
Tulloch Bridge,17/09/2019 03:00,8.4,7,,,0,,73,,280,Dry,1024,6,26,0,,,4,
Tulloch Bridge,17/09/2019 04:00,7.8,12,,,0,,75,,290,Dry,1024,,24,0,,,3.7,
Tulloch Bridge,17/09/2019 05:00,3.9,2,,,0,,94,,240,Dry,1025,,17,0,,,3.1,
Tulloch Bridge,17/09/2019 06:00,4.9,5,3.8,,0,0,82,,320,Dry,1026,0,22,0,,,2.1,
Tulloch Bridge,17/09/2019 07:00,6.9,8,,,0,,76,,260,Dry,1026,2,29,71,,,3,
Tulloch Bridge,17/09/2019 08:00,7.5,7,,,0,,75,,330,Dry,1026,1,30,418,,,3.4,
Tulloch Bridge,17/09/2019 09:00,9.2,5,,,0,,64,,300,Dry,1027,7,35,599,,,2.9,
Tulloch Bridge,17/09/2019 10:00,9.8,9,,,0.2,,62,,270,Dry,1027,8,30,1185,,,2.9,
Tulloch Bridge,17/09/2019 11:00,10.4,9,,,0,,64,,270,-,1028,7,30,1040,,,4.1,
Tulloch Bridge,17/09/2019 12:00,10.6,9,,,0,0.2,61,,260,Dry,1028,7,30,1110,,,3.5,
Tulloch Bridge,17/09/2019 13:00,10.6,8,,,0,,,,270,Dry,1028,8,35,789,,,,
Tulloch Bridge,17/09/2019 14:00,11.4,7,,,0.2,,,,290,Dry,1028,7,30,1190,,,,
Tulloch Bridge,17/09/2019 15:00,11.4,8,,,0,,,,310,Dry,1028,,35,974,,,,
Tulloch Bridge,17/09/2019 16:00,11.4,6,,,0,,,,310,Dry,1028,7,35,884,,,,
Tulloch Bridge,17/09/2019 17:00,10.9,5,,,0,,,,290,Dry,1028,8,30,441,,,,
Tulloch Bridge,17/09/2019 18:00,10.5,3,,11.7,0,0.2,,,270,Dry,1028,5,35,238,,,,
Tulloch Bridge,17/09/2019 19:00,9.4,5,,,0,,,,270,Dry,1028,8,35,52,,,,
Tulloch Bridge,17/09/2019 20:00,9.2,2,,,0,,,,270,Dry,1029,8,27,0,,,,
Tulloch Bridge,17/09/2019 21:00,8.2,1,,,0,,,,210,Rain,1030,8,26,0,,,,
Tulloch Bridge,17/09/2019 22:00,7.7,1,,,0,,,,170,Rain,1030,8,23,0,,,,
Tulloch Bridge,17/09/2019 23:00,7.5,0,,,0,,,,0,Light rain,1030,6,15,0,,,,
Tulloch Bridge,18/09/2019 00:00,7.4,1,,,0,0,,,60,Rain,1030,5,14,,,,,
Tulloch Bridge,18/09/2019 01:00,7.4,2,,,0,,,,220,Light shower,1030,2,6,0,,,,
Tulloch Bridge,18/09/2019 02:00,7.7,5,,,0,,,,210,Rain,1029,7,29,0,,,,
Tulloch Bridge,18/09/2019 03:00,7.4,2,,,0,,,,120,Dry,1029,7,18,0,,,,
Tulloch Bridge,18/09/2019 04:00,8,9,,,0,,,,190,Dry,1028,8,35,0,,,,
Tulloch Bridge,18/09/2019 05:00,8,9,,,0,,,,210,Dry,1028,8,40,0,,,,
Tulloch Bridge,18/09/2019 06:00,8.2,9,7.4,,0,0,,,210,Dry,1028,8,40,0,,,,
Tulloch Bridge,18/09/2019 07:00,8.6,6,,,0,,,,200,Dry,1029,7,45,32,,,,
Tulloch Bridge,18/09/2019 08:00,9.5,5,,,0,,,,220,Dry,1028,1,21,134,,,,
Tulloch Bridge,18/09/2019 09:00,10.5,8,,,0,,,,240,Dry,1028,8,18,279,,,,
Tulloch Bridge,18/09/2019 10:00,11.2,5,,,0,,,,310,Dry,1029,8,50,494,,,,
Tulloch Bridge,18/09/2019 11:00,13.2,7,,,0,,,,330,Dry,1028,8,24,1592,,,,
Tulloch Bridge,18/09/2019 12:00,13.1,5,,,0,0,,,340,Dry,1028,7,45,953,,,,
Tulloch Bridge,18/09/2019 13:00,14.5,7,,,0,,,,320,Dry,1028,8,13,644,,,,
Tulloch Bridge,18/09/2019 14:00,14.7,8,,,0,,,,310,Dry,1028,7,40,666,,,,
Tulloch Bridge,18/09/2019 15:00,15,8,,,0,,,,270,Dry,1028,8,45,653,,,,
Tulloch Bridge,18/09/2019 16:00,14.6,10,,,0,,,,290,Dry,1029,3,50,962,,,,
Tulloch Bridge,18/09/2019 17:00,14.3,9,,,0,,,,300,Dry,1029,7,50,642,,,,
Tulloch Bridge,18/09/2019 18:00,13.6,6,,15.7,0,0,,,300,Dry,1029,8,50,187,,,,
Tulloch Bridge,18/09/2019 19:00,13.1,5,,,0,,,,300,Dry,1030,8,50,33,,,,
Tulloch Bridge,18/09/2019 20:00,12.8,6,,,0,,,,310,Dry,1030,8,50,0,,,,
Tulloch Bridge,18/09/2019 21:00,12.3,3,,,0,,,,300,Dry,1030,6,45,0,,,,
Tulloch Bridge,18/09/2019 22:00,11.7,1,,,0,,,,80,Dry,1031,7,35,0,,,,
Tulloch Bridge,18/09/2019 23:00,11.7,2,,,0,,,,310,Dry,1031,8,50,0,,,,
Tulloch Bridge,19/09/2019 00:00,11.7,2,,,0,0,,,40,Dry,1031,7,50,,,,,
Tulloch Bridge,19/09/2019 01:00,11.7,3,,,0,,,,210,Dry,1031,1,50,0,,,,
Tulloch Bridge,19/09/2019 02:00,11.8,3,,,0,,,,210,Dry,1030,8,50,0,,,,
Tulloch Bridge,19/09/2019 03:00,11.4,1,,,0,,,,130,Dry,1030,8,13,0,,,,
Tulloch Bridge,19/09/2019 04:00,11.1,0,,,0,,,,0,Dry,1030,1,35,0,,,,
Tulloch Bridge,19/09/2019 05:00,11,2,,,0,,,,330,Dry,1030,8,40,0,,,,
Tulloch Bridge,19/09/2019 06:00,10.8,0,10.7,,0,0,,,0,Dry,1030,7,35,0,,,,
Tulloch Bridge,19/09/2019 07:00,11.5,5,,,0,,,,300,Dry,1030,8,19,61,,,,
Tulloch Bridge,19/09/2019 08:00,12.1,6,,,0,,,,190,Haze,1031,8,11,250,,,,
Tulloch Bridge,19/09/2019 09:00,12.3,6,,,0,,,,240,Rain,1031,8,5,452,,,,
Tulloch Bridge,19/09/2019 10:00,13.3,6,,,0,,,,190,Dry,1031,8,50,921,,,,
Tulloch Bridge,19/09/2019 11:00,12.9,8,,,0,,,,320,Dry,1031,8,24,747,,,,
Tulloch Bridge,19/09/2019 12:00,,9,,,0,0,,,310,Dry,,8,35,851,,,,
Tulloch Bridge,19/09/2019 13:00,,9,,,0,,,,310,Dry,,7,50,914,,,,
Tulloch Bridge,19/09/2019 14:00,,9,,,0,,,,290,Fog,,8,50,981,,,,
Tulloch Bridge,19/09/2019 15:00,14.2,9,,,0,,82,,320,Dry,1030,8,50,1125,,,11.3,
Tulloch Bridge,19/09/2019 16:00,13.6,8,,,0,,84,,300,Dry,1030,8,45,669,,,11,
Tulloch Bridge,19/09/2019 17:00,13.3,7,,,0,,84,,310,Dry,1030,8,40,527,,,10.8,
Tulloch Bridge,19/09/2019 18:00,12.3,3,,,0,0,88,,280,Dry,1030,4,50,194,,,10.4,
Tulloch Bridge,19/09/2019 19:00,10,1,,,0,,92,,120,Dry,1030,2,23,33,,,8.9,
Tulloch Bridge,19/09/2019 20:00,7.6,2,,,0,,97,,30,Fog,1030,4,15,0,,,7.2,
Tulloch Bridge,19/09/2019 21:00,8.4,6,,,0,,100,,180,Fog,1030,1,35,0,,,8.4,
Tulloch Bridge,19/09/2019 22:00,7.5,6,,,0,,99,,180,Fog,1030,0,24,0,,,7.4,
Tulloch Bridge,19/09/2019 23:00,7.4,6,,,0,,100,,160,Dry,1030,0,45,0,,,7.4,
Tulloch Bridge,20/09/2019 00:00,6.8,5,,,0,0,98,,150,Dry,1030,,50,,,,6.6,
Tulloch Bridge,20/09/2019 01:00,4,1,,,0,,96,,110,Fog,1030,1,10,0,,,3.5,
Tulloch Bridge,20/09/2019 02:00,1.9,1,,,0.2,,95,,40,Fog,1030,1,26,0,,,1.3,
Tulloch Bridge,20/09/2019 03:00,2.3,2,,,0,,100,,340,Thickening fog,1029,1,0,0,,,2.3,
Tulloch Bridge,20/09/2019 04:00,1.7,1,,,0,,100,,170,Thickening fog,1029,2,0,0,,,1.7,
Tulloch Bridge,20/09/2019 05:00,1,0,,,0,,100,,0,Fog,1028,3,1,0,,,1,
Tulloch Bridge,20/09/2019 06:00,0.4,0,-0.1,,0,0.2,100,,0,Thickening fog,1028,2,0,0,,,0.4,
Tulloch Bridge,20/09/2019 07:00,2.4,2,,,0,,100,,140,Fog,1028,0,19,79,,,2.4,
Tulloch Bridge,20/09/2019 08:00,6.7,2,,,0,,100,,150,Dry,1027,0,45,481,,,6.7,
Tulloch Bridge,20/09/2019 09:00,11.4,3,,,0,,79,,140,Dry,1026,,11,970,,,8,
Tulloch Bridge,20/09/2019 10:00,15.7,2,,,0,,57,,160,Dry,1025,,35,1431,,,7.4,
Tulloch Bridge,20/09/2019 11:00,18.8,5,,,0,,41,,190,Dry,1024,,35,1768,,,5.3,
Tulloch Bridge,20/09/2019 12:00,20.7,6,,,0,0,39,,170,Dry,1024,0,40,1992,,,6.6,
Tulloch Bridge,20/09/2019 13:00,21,7,,,0,,40,,190,Dry,1023,0,45,2053,,,7.1,
Tulloch Bridge,20/09/2019 14:00,21.2,8,,,0,,45,,180,Dry,1022,0,45,1950,,,8.9,
Tulloch Bridge,20/09/2019 15:00,21.5,8,,,0,,47,,170,Dry,1021,0,25,1696,,,10,
Tulloch Bridge,20/09/2019 16:00,20.9,8,,,0,,49,,160,Dry,1020,0,26,1317,,,10,
Tulloch Bridge,20/09/2019 17:00,19.7,15,,,0,,50,,150,Dry,1020,0,50,648,,,9.2,
Tulloch Bridge,20/09/2019 18:00,19,14,,21.9,0,0,52,,170,Dry,1020,,50,95,,,9.1,
Tulloch Bridge,20/09/2019 19:00,18.1,9,,,0,,54,,150,Dry,1020,0,50,16,,,8.7,
Tulloch Bridge,20/09/2019 20:00,16.8,6,,,0,,59,,110,Dry,1020,0,50,0,,,9,
Tulloch Bridge,20/09/2019 21:00,15.2,6,,,0,,71,,70,Dry,1020,0,50,0,,,10.1,
Tulloch Bridge,20/09/2019 22:00,12.5,3,,,0,,81,,60,Dry,1019,0,45,0,,,9.5,
Tulloch Bridge,20/09/2019 23:00,13.7,3,,,0,,75,,320,Dry,1018,0,50,0,,,9.5,
Tulloch Bridge,21/09/2019 00:00,13.6,2,,,0,0,74,,90,Dry,1018,,50,,,,9.1,
Tulloch Bridge,21/09/2019 01:00,13.2,3,,,0,,77,,180,Dry,1017,0,50,0,,,9.4,
Tulloch Bridge,21/09/2019 02:00,13.7,6,,,0,,72,,350,Dry,1016,0,50,0,,,8.9,
Tulloch Bridge,21/09/2019 03:00,11.8,2,,,0,,77,,340,Dry,1016,0,45,0,,,8,
Tulloch Bridge,21/09/2019 04:00,9.9,2,,,0,,83,,70,Dry,1016,0,50,0,,,7.2,
Tulloch Bridge,21/09/2019 05:00,11.8,3,,,0,,76,,160,Dry,1015,0,50,0,,,7.9,
Tulloch Bridge,21/09/2019 06:00,13.2,9,9.5,,0,0,70,,150,Dry,1014,0,50,0,,,7.9,
Tulloch Bridge,21/09/2019 07:00,13.4,13,,,0,,68,,160,Dry,1014,,45,57,,,7.8,
Tulloch Bridge,21/09/2019 08:00,14,9,,,0,,66,,160,Dry,1014,0,50,468,,,7.9,
Tulloch Bridge,21/09/2019 09:00,16.4,3,,,0,,57,,100,Dry,1013,0,45,964,,,8,
Tulloch Bridge,21/09/2019 10:00,17.5,8,,,0,,52,,110,Dry,1012,0,50,1405,,,7.8,
Tulloch Bridge,21/09/2019 11:00,18.3,12,,,0,,48,,140,Dry,1012,0,40,1755,,,7.3,
Tulloch Bridge,21/09/2019 12:00,19.7,12,,,0,0,42,,140,Dry,1011,0,50,1978,,,6.5,
Tulloch Bridge,21/09/2019 13:00,20.4,14,,,0,,42,,140,Dry,1010,0,30,2027,,,7.2,
Tulloch Bridge,21/09/2019 14:00,20.5,13,,,0,,42,,170,Dry,1010,0,35,1926,,,7.4,
Tulloch Bridge,21/09/2019 15:00,20.1,13,,,0,,45,,170,Dry,1009,0,45,1673,,,8.1,
Tulloch Bridge,21/09/2019 16:00,19,18,,,0,,52,33,150,Dry,1008,0,45,1259,,,9.1,
Tulloch Bridge,21/09/2019 17:00,18.1,10,,,0,,56,,90,Dry,1009,0,35,580,,,9.4,
Tulloch Bridge,21/09/2019 18:00,16.3,7,,21.1,0,0,64,,150,Dry,1009,,50,131,,,9.5,
Tulloch Bridge,21/09/2019 19:00,15.7,9,,,0,,63,,130,Dry,1009,0,45,11,,,8.8,
Tulloch Bridge,21/09/2019 20:00,14.7,7,,,0,,67,,150,Dry,1009,,45,0,,,8.7,
Tulloch Bridge,21/09/2019 21:00,14.1,5,,,0,,68,,150,Dry,1008,0,45,0,,,8.5,
Tulloch Bridge,21/09/2019 22:00,13.5,3,,,0,,72,,170,Dry,1008,,40,0,,,8.6,
Tulloch Bridge,21/09/2019 23:00,13,7,,,0,,75,,170,Dry,1008,0,40,0,,,8.8,
Tulloch Bridge,22/09/2019 00:00,12.2,7,,,0,0,78,,160,Dry,1008,0,50,,,,8.6,
Tulloch Bridge,22/09/2019 01:00,11.4,5,,,0,,83,,140,Dry,1007,0,35,0,,,8.7,
Tulloch Bridge,22/09/2019 02:00,11.6,6,,,0,,84,,150,Dry,1007,0,45,0,,,9,
Tulloch Bridge,22/09/2019 03:00,9.6,2,,,0,,89,,150,Dry,1006,7,30,0,,,7.9,
Tulloch Bridge,22/09/2019 04:00,11.8,3,,,0,,84,,140,Dry,1006,8,45,0,,,9.2,
Tulloch Bridge,22/09/2019 05:00,12,7,,,0,,82,,200,Dry,1005,8,40,0,,,9.2,
Tulloch Bridge,22/09/2019 06:00,11.1,3,9.1,,0,0,86,,150,Dry,1005,8,40,0,,,9,
Tulloch Bridge,22/09/2019 07:00,12.4,3,,,0,,82,,180,Dry,1004,8,40,36,,,9.5,
Tulloch Bridge,22/09/2019 08:00,13.9,3,,,0,,77,,350,Dry,1004,7,40,330,,,10,
Tulloch Bridge,22/09/2019 09:00,17.8,9,,,0,,62,,120,Dry,1003,7,45,843,,,10.5,
Tulloch Bridge,22/09/2019 10:00,18.1,12,,,0,,63,,150,Dry,1003,7,29,734,,,11.1,
Tulloch Bridge,22/09/2019 11:00,17.2,9,,,0,,68,,160,Dry,1003,7,30,823,,,11.3,
Tulloch Bridge,22/09/2019 12:00,17.1,3,,,0,0,74,,60,Moderate shower,1003,8,4,713,,,12.6,
Tulloch Bridge,22/09/2019 13:00,17.5,8,,,0.2,,72,,120,Light shower,1003,7,29,1171,,,12.6,
Tulloch Bridge,22/09/2019 14:00,17.5,9,,,0,,77,,150,Rain,1002,7,50,568,,,13.5,
Tulloch Bridge,22/09/2019 15:00,18.3,9,,,0,,75,,140,Rain,1002,7,45,823,,,13.8,
Tulloch Bridge,22/09/2019 16:00,18.2,9,,,0,,74,,140,Dry,1001,7,50,780,,,13.6,
Tulloch Bridge,22/09/2019 17:00,18.3,8,,,0,,73,,150,Dry,1001,,35,525,,,13.4,
Tulloch Bridge,22/09/2019 18:00,16.7,7,,18.6,0.2,0.4,80,,150,Light shower,1001,,21,159,,,13.4,
Tulloch Bridge,22/09/2019 19:00,16.9,7,,,0,,79,,140,Light shower,1002,8,35,5,,,13.3,
Tulloch Bridge,22/09/2019 20:00,16.3,6,,,0,,82,,160,Rain,1002,8,45,0,,,13.3,
Tulloch Bridge,22/09/2019 21:00,16.2,6,,,0,,81,,140,Light shower,1002,8,25,0,,,13,
Tulloch Bridge,22/09/2019 22:00,15.2,6,,,0.4,,90,,170,Moderate rain,1003,8,15,0,,,13.7,
Tulloch Bridge,22/09/2019 23:00,14.3,1,,,1,,96,,30,Moderate rain,1003,8,6,0,,,13.7,
Tulloch Bridge,23/09/2019 00:00,14.1,2,,,2.2,4,98,,160,Moderate rain,1003,8,4,,,,13.9,
Tulloch Bridge,23/09/2019 01:00,13.9,5,,,0.8,,99,,180,Light rain,1003,6,16,0,,,13.8,
Tulloch Bridge,23/09/2019 02:00,13.7,2,,,0.2,,98,,140,Rain,1003,8,7,0,,,13.5,
Tulloch Bridge,23/09/2019 03:00,13.8,5,,,0,,97,,160,Dry,1003,7,50,0,,,13.4,
Tulloch Bridge,23/09/2019 04:00,13.8,2,,,0,,93,,360,Rain,1003,8,50,0,,,12.8,
Tulloch Bridge,23/09/2019 05:00,13.4,3,,,0,,98,,170,Dry,1003,8,45,0,,,13.1,
Tulloch Bridge,23/09/2019 06:00,13.1,2,13.1,,0,1,98,,130,Dry,1003,8,18,0,,,12.8,
Tulloch Bridge,23/09/2019 07:00,13.1,2,,,0,,98,,160,Fog,1003,7,50,29,,,12.9,
Tulloch Bridge,23/09/2019 08:00,13.7,1,,,0,,98,,100,Dry,1003,7,29,103,,,13.5,
Tulloch Bridge,23/09/2019 09:00,14.7,6,,,0,,90,,150,Rain,1004,8,50,264,,,13.1,
Tulloch Bridge,23/09/2019 10:00,15.3,8,,,0,,75,,140,Dry,1003,5,45,752,,,11,
Tulloch Bridge,23/09/2019 11:00,17,9,,,0,,69,,130,Dry,1003,7,35,1442,,,11.3,
Tulloch Bridge,23/09/2019 12:00,16.1,12,,,0,0,72,,140,Dry,1003,4,40,1878,,,11.1,
Tulloch Bridge,23/09/2019 13:00,14.1,12,,,0,,88,,180,Light shower,1004,5,14,1526,,,12.2,
Tulloch Bridge,23/09/2019 14:00,14.1,13,,,0.2,,80,,190,Rain,1004,3,50,817,,,10.8,
Tulloch Bridge,23/09/2019 15:00,13.7,9,,,0,,78,,160,Dry,1004,4,40,395,,,10,
Tulloch Bridge,23/09/2019 16:00,14.9,8,,,0,,64,,190,Dry,1004,1,40,1171,,,8.3,
Tulloch Bridge,23/09/2019 17:00,14.1,8,,,0,,66,,150,Dry,1003,2,50,463,,,8,
Tulloch Bridge,23/09/2019 18:00,13.6,12,,17.5,0,0.2,67,,150,Dry,1003,1,45,233,,,7.7,
Tulloch Bridge,23/09/2019 19:00,12.5,6,,,0,,72,,140,Dry,1003,5,50,23,,,7.6,
Tulloch Bridge,23/09/2019 20:00,12.7,12,,,0,,74,,120,Dry,1003,0,50,0,,,8.2,
Tulloch Bridge,23/09/2019 21:00,12.9,9,,,0,,73,,130,Dry,1003,7,50,0,,,8.3,
Tulloch Bridge,23/09/2019 22:00,12.9,8,,,0,,74,,150,Dry,1002,8,50,0,,,8.4,
Tulloch Bridge,23/09/2019 23:00,13.3,10,,,0,,73,,130,Dry,1001,7,50,0,,,8.6,
Tulloch Bridge,24/09/2019 00:00,13.4,6,,,0,0,74,40,140,Rain,1000,7,50,,,,8.9,
Tulloch Bridge,24/09/2019 01:00,13.5,8,,,0,,77,,140,Dry,1000,1,50,0,,,9.6,
Tulloch Bridge,24/09/2019 02:00,13.4,10,,,0,,79,,130,Dry,999,5,50,0,,,10,
Tulloch Bridge,24/09/2019 03:00,13.7,7,,,0,,79,,60,Dry,999,7,50,0,,,10.3,
Tulloch Bridge,24/09/2019 04:00,12.9,7,,,0.2,,88,,80,Light shower,998,8,7,0,,,11.1,
Tulloch Bridge,24/09/2019 05:00,13,6,,,0.2,,88,,120,Rain,998,7,50,0,,,11.2,
Tulloch Bridge,24/09/2019 06:00,12.8,5,12.2,,0.2,0.6,93,,120,Moderate shower,998,8,11,0,,,11.7,
Tulloch Bridge,24/09/2019 07:00,12.4,2,,,0.6,,97,,150,Moderate rain,999,8,11,9,,,12,
Tulloch Bridge,24/09/2019 08:00,13.3,2,,,0.2,,94,,50,Rain,999,7,50,181,,,12.5,
Tulloch Bridge,24/09/2019 09:00,15.1,6,,,0,,86,,120,Dry,998,8,50,533,,,12.8,
Tulloch Bridge,24/09/2019 10:00,16.4,2,,,0,,85,,360,Rain,999,8,29,540,,,14,
Tulloch Bridge,24/09/2019 11:00,17.9,8,,,0.2,,74,,140,Dry,998,8,30,1530,,,13.3,
Tulloch Bridge,24/09/2019 12:00,17.4,7,,,0,1,73,,140,Dry,998,8,50,1310,,,12.7,
Tulloch Bridge,24/09/2019 13:00,18,7,,,0,,69,,130,Dry,998,7,45,941,,,12.4,
Tulloch Bridge,24/09/2019 14:00,17.9,6,,,0,,70,,140,Dry,997,7,35,1075,,,12.5,
Tulloch Bridge,24/09/2019 15:00,18.6,5,,,0,,65,,120,Dry,997,6,50,879,,,12,
Tulloch Bridge,24/09/2019 16:00,17.3,5,,,0,,74,,90,Dry,997,7,50,461,,,12.8,
Tulloch Bridge,24/09/2019 17:00,16.2,7,,,0,,79,,140,Drizzly rain,997,7,50,195,,,12.6,
Tulloch Bridge,24/09/2019 18:00,15.5,5,,19,0,0,80,,150,Rain,997,7,50,97,,,12.2,
Tulloch Bridge,24/09/2019 19:00,15.3,3,,,0,,80,,130,Dry,997,4,45,5,,,11.9,
Tulloch Bridge,24/09/2019 20:00,15.1,3,,,0,,82,,110,Dry,997,8,50,0,,,12.2,
Tulloch Bridge,24/09/2019 21:00,13.8,1,,,0.8,,93,,180,Moderate shower,998,8,10,0,,,12.8,
Tulloch Bridge,24/09/2019 22:00,13.9,5,,,0.8,,93,,110,Rain,997,1,50,0,,,12.9,
Tulloch Bridge,24/09/2019 23:00,13.9,3,,,0,,93,,140,Rain,997,8,45,0,,,12.9,
Tulloch Bridge,25/09/2019 00:00,13.7,5,,,0,2,94,,140,Drizzly rain,997,7,7,,,,12.9,
Tulloch Bridge,25/09/2019 01:00,13.7,3,,,0.2,,94,,150,Light shower,997,7,26,0,,,12.8,
Tulloch Bridge,25/09/2019 02:00,13.8,3,,,0,,93,,140,Rain,997,7,50,0,,,12.7,
Tulloch Bridge,25/09/2019 03:00,13.8,7,,,0,,92,,150,Rain,996,8,50,0,,,12.6,
Tulloch Bridge,25/09/2019 04:00,13.4,2,,,0,,94,,140,Dry,996,7,50,0,,,12.6,
Tulloch Bridge,25/09/2019 05:00,13.2,2,,,0,,93,,110,Dry,996,8,50,0,,,12.2,
Tulloch Bridge,25/09/2019 06:00,12.7,3,12.7,,0,0,96,,350,Dry,996,8,50,0,,,12.1,
Tulloch Bridge,25/09/2019 07:00,13.1,3,,,0,,94,,170,Dry,996,8,50,26,,,12.3,
Tulloch Bridge,25/09/2019 08:00,14,1,,,0,,90,,200,Dry,997,8,50,221,,,12.4,
Tulloch Bridge,25/09/2019 09:00,14.1,3,,,0,,90,,120,Dry,997,8,7,272,,,12.6,
Tulloch Bridge,25/09/2019 10:00,14.1,3,,,0,,88,,100,Light shower,997,1,6,437,,,12.2,
Tulloch Bridge,25/09/2019 11:00,14.5,3,,,0,,91,,70,Drizzly rain,997,1,22,636,,,13.1,
Tulloch Bridge,25/09/2019 12:00,14.8,3,,,0,0,91,,70,Rain,997,6,30,599,,,13.4,
Tulloch Bridge,25/09/2019 13:00,16.3,5,,,0,,81,,170,Dry,996,7,45,1161,,,13.1,
Tulloch Bridge,25/09/2019 14:00,14.9,7,,,0,,87,,200,Drizzly rain,997,7,5,1079,,,12.8,
Tulloch Bridge,25/09/2019 15:00,15.6,3,,,1,,86,,160,Rain,996,7,35,1242,,,13.4,
Tulloch Bridge,25/09/2019 16:00,15.2,3,,,0,,88,,360,Dry,996,8,50,467,,,13.3,
Tulloch Bridge,25/09/2019 17:00,14.9,3,,,0,,87,,310,Rain,996,7,50,134,,,12.8,
Tulloch Bridge,25/09/2019 18:00,14.6,3,,17.1,0,1,86,,20,Dry,996,7,45,43,,,12.3,
Tulloch Bridge,25/09/2019 19:00,14.2,2,,,0,,87,,120,Dry,996,8,45,5,,,12.1,
Tulloch Bridge,25/09/2019 20:00,13.9,3,,,0.6,,90,,300,Moderate shower,996,8,9,0,,,12.4,
Tulloch Bridge,25/09/2019 21:00,13.8,5,,,0.4,,91,,190,Rain,995,8,50,0,,,12.5,
Tulloch Bridge,25/09/2019 22:00,14.5,9,,,0,,82,,150,Dry,995,8,45,0,,,11.6,
Tulloch Bridge,25/09/2019 23:00,14.4,9,,,0,,79,,140,Dry,994,8,50,0,,,10.9,
Tulloch Bridge,26/09/2019 00:00,13.6,9,,,0,1,87,,140,Light shower,994,1,29,,,,11.5,
Tulloch Bridge,26/09/2019 01:00,13.5,13,,,0.6,,87,,140,Light rain,993,8,12,0,,,11.4,
Tulloch Bridge,26/09/2019 02:00,13.4,14,,,0.4,,87,,150,Light shower,991,4,35,0,,,11.4,
Tulloch Bridge,26/09/2019 03:00,13.1,14,,,2.2,,91,,150,Moderate rain,991,7,7,0,,,11.7,
Tulloch Bridge,26/09/2019 04:00,13.3,13,,,3.4,,88,,150,Light rain,990,7,17,0,,,11.5,
Tulloch Bridge,26/09/2019 05:00,13.1,10,,,1.6,,90,,140,Rain,990,8,9,0,,,11.5,
Tulloch Bridge,26/09/2019 06:00,12.1,6,12.1,,0.4,9,92,,220,Rain,990,8,13,0,,,10.9,
Tulloch Bridge,26/09/2019 07:00,11.5,3,,,0,,94,,60,Rain,991,6,22,35,,,10.6,
Tulloch Bridge,26/09/2019 08:00,12,10,,,0,,87,,170,Dry,991,7,20,453,,,10,
Tulloch Bridge,26/09/2019 09:00,11.4,3,,,0.2,,94,,320,Drizzly rain,992,8,4,341,,,10.5,
Tulloch Bridge,26/09/2019 10:00,11.2,8,,,0.6,,94,,180,Moderate drizzle,992,8,7,333,,,10.4,
Tulloch Bridge,26/09/2019 11:00,12.7,9,,,0.2,,86,,210,Rain,991,8,7,862,,,10.5,
Tulloch Bridge,26/09/2019 12:00,12.8,9,,,0.4,1,81,,240,Light shower,991,8,6,977,,,9.7,
Tulloch Bridge,26/09/2019 13:00,12.8,8,,,0,,87,,180,Light shower,991,8,6,997,,,10.8,
Tulloch Bridge,26/09/2019 14:00,11.9,9,,,0,,88,,180,Light shower,992,8,35,522,,,10.1,
Tulloch Bridge,26/09/2019 15:00,11.8,5,,,0.6,,89,,190,Light rain,992,8,40,344,,,10.2,
Tulloch Bridge,26/09/2019 16:00,11.4,10,,,0,,90,,170,Light rain,992,7,22,494,,,9.9,
Tulloch Bridge,26/09/2019 17:00,11.4,8,,,0.4,,89,,200,Rain,992,8,30,171,,,9.7,
Tulloch Bridge,26/09/2019 18:00,11.1,2,,14,0,1,86,,160,Dry,992,7,50,130,,,9,
Tulloch Bridge,26/09/2019 19:00,10.2,2,,,0,,89,,170,Dry,992,1,50,4,,,8.5,
Tulloch Bridge,26/09/2019 20:00,9.4,5,,,0,,95,,110,Dry,993,7,50,0,,,8.7,
Tulloch Bridge,26/09/2019 21:00,9,1,,,0,,97,,190,Dry,993,8,50,0,,,8.6,
Tulloch Bridge,26/09/2019 22:00,9.9,2,,,0,,98,,140,Light drizzle,993,8,5,0,,,9.6,
Tulloch Bridge,26/09/2019 23:00,9.6,1,,,0.4,,98,,180,Light rain,993,8,35,0,,,9.3,
Tulloch Bridge,27/09/2019 00:00,9.4,1,,,0.2,0.6,99,,340,Moderate shower,993,4,11,,,,9.3,
Tulloch Bridge,27/09/2019 01:00,9.5,2,,,0.2,,97,,80,Light rain,993,7,19,0,,,9.2,
Tulloch Bridge,27/09/2019 02:00,9.7,2,,,0.4,,99,,140,Rain,993,8,50,0,,,9.6,
Tulloch Bridge,27/09/2019 03:00,9.6,5,,,0,,97,,190,Dry,993,7,23,0,,,9.2,
Tulloch Bridge,27/09/2019 04:00,9.6,8,,,0.2,,96,,190,Misty,993,8,11,0,,,9.1,
Tulloch Bridge,27/09/2019 05:00,9.6,5,,,0,,97,,190,Moderate drizzle,993,6,3,0,,,9.2,
Tulloch Bridge,27/09/2019 06:00,9,2,8.7,,0.4,1.4,97,,180,Light shower,993,1,25,0,,,8.7,
Tulloch Bridge,27/09/2019 07:00,9.7,3,,,0,,97,,200,Rain,994,8,40,33,,,9.3,
Tulloch Bridge,27/09/2019 08:00,10.3,2,,,0,,90,,160,Dry,994,8,50,223,,,8.8,
Tulloch Bridge,27/09/2019 09:00,10.7,6,,,0,,89,,180,Dry,994,1,50,319,,,9.1,
Tulloch Bridge,27/09/2019 10:00,10.5,3,,,0,,92,,180,Light shower,994,8,18,229,,,9.4,
Tulloch Bridge,27/09/2019 11:00,11.8,6,,,0,,80,,170,Rain,994,2,45,886,,,8.6,
Tulloch Bridge,27/09/2019 12:00,11.9,6,,,0,0,81,,310,Dry,994,7,50,1265,,,8.9,
Tulloch Bridge,27/09/2019 13:00,11.4,5,,,0.6,,88,,310,Rain,994,8,28,800,,,9.5,
Tulloch Bridge,27/09/2019 14:00,10.7,1,,,2,,92,,70,Drizzly rain,994,8,19,349,,,9.6,
Tulloch Bridge,27/09/2019 15:00,11.4,2,,,1.2,,86,,130,Light rain,994,8,50,590,,,9.3,
Tulloch Bridge,27/09/2019 16:00,11,3,,,0.6,,86,,260,Moderate shower,995,7,12,330,,,8.8,
Tulloch Bridge,27/09/2019 17:00,10.7,2,,,0.6,,88,,210,Drizzly rain,995,8,7,277,,,8.8,
Tulloch Bridge,27/09/2019 18:00,10.1,2,,12.5,0.2,5,91,,330,Rain,996,7,50,115,,,8.8,
Tulloch Bridge,27/09/2019 19:00,8.8,0,,,0,,95,,0,Dry,996,8,11,7,,,8.1,
Tulloch Bridge,27/09/2019 20:00,7.7,1,,,0,,97,,350,Rain,997,1,14,0,,,7.4,
Tulloch Bridge,27/09/2019 21:00,8,3,,,0,,100,,170,Dry,997,7,23,0,,,8,
Tulloch Bridge,27/09/2019 22:00,6.2,1,,,0,,98,,150,Thickening fog,998,8,0,0,,,6,
Tulloch Bridge,27/09/2019 23:00,4.8,1,,,0,,98,,90,Fog thinning,998,7,0,0,,,4.6,
Tulloch Bridge,28/09/2019 00:00,4.7,3,,,0,0,100,,180,Thickening fog,998,1,1,,,,4.7,
Tulloch Bridge,28/09/2019 01:00,7.3,6,,,0,,100,,180,Fog,998,8,50,1,,,7.3,
Tulloch Bridge,28/09/2019 02:00,7.6,7,,,0,,99,,190,Dry,998,8,50,0,,,7.5,
Tulloch Bridge,28/09/2019 03:00,6.9,6,,,0,,99,,180,Dry,998,8,50,0,,,6.8,
Tulloch Bridge,28/09/2019 04:00,6.8,3,,,0,,99,,160,Dry,998,7,50,0,,,6.7,
Tulloch Bridge,28/09/2019 05:00,7.3,5,,,0,,98,,180,Dry,998,7,45,0,,,7.1,
Tulloch Bridge,28/09/2019 06:00,7.3,5,4.5,,0,0,97,,180,Dry,999,8,50,0,,,7,
Tulloch Bridge,28/09/2019 07:00,7.4,2,,,0,,97,,160,Dry,1000,8,50,13,,,7,
Tulloch Bridge,28/09/2019 08:00,8,1,,,0,,97,,140,Misty,1000,8,1,115,,,7.7,
Tulloch Bridge,28/09/2019 09:00,8.5,1,,,0,,98,,30,Fog,1001,8,13,325,,,8.3,
Tulloch Bridge,28/09/2019 10:00,10,2,,,0,,94,,30,Dry,1001,8,30,575,,,9.2,
Tulloch Bridge,28/09/2019 11:00,11.9,6,,,0,,73,,290,Dry,1001,6,45,859,,,7.4,
Tulloch Bridge,28/09/2019 12:00,12.3,7,,,0,0,74,,280,Dry,1002,8,50,1174,,,8,
Tulloch Bridge,28/09/2019 13:00,12.7,7,,,0,,71,,290,Dry,1002,7,45,746,,,7.7,
Tulloch Bridge,28/09/2019 14:00,12.9,7,,,0,,71,,280,Dry,1002,7,50,704,,,7.8,
Tulloch Bridge,28/09/2019 15:00,13,6,,,0,,76,,310,Dry,1002,8,50,682,,,8.9,
Tulloch Bridge,28/09/2019 16:00,13.8,5,,,0,,71,,350,Dry,1002,7,45,827,,,8.7,
Tulloch Bridge,28/09/2019 17:00,12.8,5,,,0,,72,,300,Dry,1002,8,50,446,,,7.9,
Tulloch Bridge,28/09/2019 18:00,11.4,1,,14.1,0,0,88,,30,Dry,1002,8,45,85,,,9.5,
Tulloch Bridge,28/09/2019 19:00,10.1,1,,,0,,96,,220,Dry,1003,8,50,0,,,9.5,
Tulloch Bridge,28/09/2019 20:00,9.2,1,,,0,,97,,170,Dry,1002,8,19,0,,,8.9,
Tulloch Bridge,28/09/2019 21:00,9,1,,,0,,98,,130,Dry,1002,8,23,0,,,8.8,
Tulloch Bridge,28/09/2019 22:00,8.1,0,,,0,,95,,0,Dry,1002,7,12,0,,,7.4,
Tulloch Bridge,28/09/2019 23:00,7,2,,,0,,100,,160,Fog,1002,6,13,0,,,7,
Tulloch Bridge,29/09/2019 00:00,7.4,2,,,0,0,99,,170,Dry,1001,7,40,,,,7.3,
Tulloch Bridge,29/09/2019 01:00,10.2,5,,,0,,90,,150,Dry,1001,8,50,0,,,8.7,
Tulloch Bridge,29/09/2019 02:00,10.1,2,,,0,,89,,120,Dry,1000,8,50,0,,,8.5,
Tulloch Bridge,29/09/2019 03:00,10.2,3,,,0,,89,,150,Dry,1000,8,50,0,,,8.6,
Tulloch Bridge,29/09/2019 04:00,10.4,5,,,0,,89,,110,Dry,999,8,45,0,,,8.7,
Tulloch Bridge,29/09/2019 05:00,10,3,,,0,,92,,150,Dry,999,8,50,0,,,8.9,
Tulloch Bridge,29/09/2019 06:00,9.9,3,6.3,,0,0,93,,160,Dry,999,8,50,0,,,8.9,
Tulloch Bridge,29/09/2019 07:00,10.2,1,,,0,,92,,360,Dry,999,7,50,13,,,9.1,
Tulloch Bridge,29/09/2019 08:00,10.9,5,,,0,,87,,160,Drizzly rain,999,8,50,125,,,8.9,
Tulloch Bridge,29/09/2019 09:00,11.6,6,,,0,,79,,120,Rain,1000,8,50,372,,,8.2,
Tulloch Bridge,29/09/2019 10:00,12.2,2,,,0,,77,,60,Dry,1000,8,50,563,,,8.3,
Tulloch Bridge,29/09/2019 11:00,12.6,5,,,0,,77,,70,Dry,1000,8,50,556,,,8.7,
Tulloch Bridge,29/09/2019 12:00,13.2,5,,,0,0,75,,60,Dry,1000,8,45,564,,,8.9,
Tulloch Bridge,29/09/2019 13:00,13.3,3,,,0,,71,,70,Dry,1001,3,50,658,,,8.2,
Tulloch Bridge,29/09/2019 14:00,12.5,7,,,0,,76,,330,Light shower,1002,8,50,309,,,8.5,
Tulloch Bridge,29/09/2019 15:00,12,9,,,0,,78,,340,Light shower,1002,8,45,275,,,8.4,
Tulloch Bridge,29/09/2019 16:00,11.3,5,,,1,,85,,280,Moderate rain,1003,8,50,166,,,9,
Tulloch Bridge,29/09/2019 17:00,11,2,,,0,,92,,20,Drizzly rain,1003,8,8,147,,,9.8,
Tulloch Bridge,29/09/2019 18:00,10.6,1,,13.7,0.2,1,95,,330,Rain,1004,8,45,62,,,9.9,
Tulloch Bridge,29/09/2019 19:00,10,1,,,0,,98,,100,Light shower,1005,8,9,0,,,9.8,
Tulloch Bridge,29/09/2019 20:00,9.8,2,,,0.4,,98,,170,Rain,1005,8,10,0,,,9.6,
Tulloch Bridge,29/09/2019 21:00,9.3,1,,,1,,99,,140,Rain,1006,8,28,0,,,9.2,
Tulloch Bridge,29/09/2019 22:00,8.6,1,,,0,,98,,80,Thickening fog,1006,8,0,0,,,8.4,
Tulloch Bridge,29/09/2019 23:00,8.7,1,,,0,,100,,280,Fog,1007,8,30,0,,,8.7,
Tulloch Bridge,30/09/2019 00:00,8.7,0,,,0,1,99,,0,Dry,1007,7,11,,,,8.6,
Tulloch Bridge,30/09/2019 01:00,8.9,2,,,0,,100,,70,Fog,1007,8,17,0,,,8.9,
Tulloch Bridge,30/09/2019 02:00,9.1,2,,,0,,100,,30,Rain,1007,8,19,0,,,9.1,
Tulloch Bridge,30/09/2019 03:00,8.7,0,,,0,,100,,0,Dry,1008,8,20,0,,,8.7,
Tulloch Bridge,30/09/2019 04:00,8.2,3,,,0,,95,,40,Dry,1008,5,30,0,,,7.6,
Tulloch Bridge,30/09/2019 05:00,6.9,1,,,0,,98,,200,Fog,1008,7,7,0,,,6.7,
Tulloch Bridge,30/09/2019 06:00,7.7,2,6.6,,0,0,100,,50,Dry,1009,8,30,0,,,7.7,
Tulloch Bridge,30/09/2019 07:00,8.4,3,,,0,,100,,300,Dry,1009,8,50,14,,,8.4,
Tulloch Bridge,30/09/2019 08:00,8.5,1,,,0,,95,,60,Dry,1009,8,50,80,,,7.8,
Tulloch Bridge,30/09/2019 09:00,9.1,1,,,0,,90,,100,Dry,1010,7,45,238,,,7.6,
Tulloch Bridge,30/09/2019 10:00,9.4,6,,,0,,88,,40,Dry,1010,8,50,406,,,7.6,
Tulloch Bridge,30/09/2019 11:00,9.8,5,,,0,,87,,40,Dry,1010,8,40,670,,,7.9,
Tulloch Bridge,30/09/2019 12:00,10.4,5,,,0,0,77,,50,Dry,1009,7,50,983,,,6.7,
Tulloch Bridge,30/09/2019 13:00,10.4,7,,,0,,76,,60,Dry,1009,8,45,1022,,,6.5,
Tulloch Bridge,30/09/2019 14:00,10.7,5,,,0,,75,,70,Dry,1009,8,50,618,,,6.5,
Tulloch Bridge,30/09/2019 15:00,10.6,6,,,0,,71,,80,Dry,1008,7,50,513,,,5.7,
Tulloch Bridge,30/09/2019 16:00,10.1,3,,,0,,70,,70,Dry,1007,8,50,343,,,4.9,
Tulloch Bridge,30/09/2019 17:00,9.2,6,,,0,,69,,70,Dry,1007,8,50,246,,,4,
Tulloch Bridge,30/09/2019 18:00,8.5,6,,11.3,0,0,76,,70,Dry,1007,7,50,63,,,4.7,
Tulloch Bridge,30/09/2019 19:00,7.9,5,,,0,,82,,120,Dry,1007,8,50,0,,,5.1,
Tulloch Bridge,30/09/2019 20:00,7.6,7,,,0,,83,,90,Dry,1007,8,50,0,,,5,
Tulloch Bridge,30/09/2019 21:00,7.1,7,,,0,,85,,80,Dry,1007,8,50,0,,,4.8,
Tulloch Bridge,30/09/2019 22:00,7,6,,,0,,84,,80,Dry,1007,3,50,0,,,4.6,
Tulloch Bridge,30/09/2019 23:00,6.8,6,,,0,,85,,80,Dry,1007,8,50,0,,,4.6,
Tulloch Bridge,01/10/2019 00:00,6.5,6,,,0,0,84,,90,Dry,1007,7,50,,,,4,
Tulloch Bridge,01/10/2019 01:00,6,5,,,0,,82,,100,Dry,1007,7,45,0,,,3.3,
Tulloch Bridge,01/10/2019 02:00,5.8,5,,,0,,83,,110,Dry,1006,7,45,0,,,3.2,
Tulloch Bridge,01/10/2019 03:00,5.7,6,,,0,,81,,90,Dry,1006,7,35,0,,,2.8,
Tulloch Bridge,01/10/2019 04:00,4.3,2,,,0,,84,,40,Dry,1006,1,50,0,,,2,
Tulloch Bridge,01/10/2019 05:00,3.5,1,,,0,,86,,110,Dry,1006,2,35,0,,,1.4,
Tulloch Bridge,01/10/2019 06:00,4.1,1,3.3,,0,0,86,,190,Dry,1007,7,45,0,,,2.1,
Tulloch Bridge,01/10/2019 07:00,4.3,2,,,0,,86,,80,Rain,1007,2,50,7,,,2.3,
Tulloch Bridge,01/10/2019 08:00,5.1,5,,,0,,84,,50,Rain,1008,7,50,147,,,2.7,
Tulloch Bridge,01/10/2019 09:00,6,5,,,0,,78,,80,Rain,1008,7,50,436,,,2.5,
Tulloch Bridge,01/10/2019 10:00,8.2,5,,,0,,71,,60,Dry,1008,8,40,1039,,,3.4,
Tulloch Bridge,01/10/2019 11:00,9.1,5,,,0,,57,,10,Dry,1009,4,35,1690,,,1.1,
Tulloch Bridge,01/10/2019 12:00,9.8,5,,,0,0,59,,80,Dry,1009,6,50,1737,,,2.2,
Tulloch Bridge,01/10/2019 13:00,9,8,,,0,,61,,350,Dry,1009,5,40,1189,,,2,
Tulloch Bridge,01/10/2019 14:00,9,8,,,0,,57,,340,Dry,1010,6,45,1374,,,1,
Tulloch Bridge,01/10/2019 15:00,10.2,8,,,0,,61,,20,Dry,1010,7,50,1059,,,3.1,
Tulloch Bridge,01/10/2019 16:00,8.4,12,,,0,,69,,340,Light shower,1010,6,50,497,,,3.2,
Tulloch Bridge,01/10/2019 17:00,7.6,5,,,0,,68,,340,Rain,1011,6,50,198,,,2.2,
Tulloch Bridge,01/10/2019 18:00,6.2,5,,10.6,0,0,74,,10,Dry,1012,4,50,79,,,2,
Tulloch Bridge,01/10/2019 19:00,4.2,3,,,0,,79,,30,Dry,1013,5,50,0,,,1,
Tulloch Bridge,01/10/2019 20:00,2.6,3,,,0,,81,,350,Dry,1014,2,50,0,,,-0.2,
Tulloch Bridge,01/10/2019 21:00,2,2,,,0,,97,,260,Dry,1015,7,50,0,,,1.6,
Tulloch Bridge,01/10/2019 22:00,4.2,5,,,0,,88,,340,Precipitation,1015,7,20,0,,,2.5,
Tulloch Bridge,01/10/2019 23:00,2.3,1,,,0,,95,,150,Rain,1016,7,50,0,,,1.6,
Tulloch Bridge,02/10/2019 00:00,1.5,3,,,0,0,97,,180,Dry,1017,6,50,,,,1.2,
Tulloch Bridge,02/10/2019 01:00,1.9,2,,,0,,98,,10,Dry,1017,6,50,0,,,1.7,
Tulloch Bridge,02/10/2019 02:00,3.2,6,,,0,,86,,310,Dry,1017,,50,0,,,1.1,
Tulloch Bridge,02/10/2019 03:00,0,1,,,0,,95,,110,Dry,1017,0,50,0,,,-0.6,
Tulloch Bridge,02/10/2019 04:00,-0.9,1,,,0,,98,,150,Dry,1018,3,50,0,,,-1.1,
Tulloch Bridge,02/10/2019 05:00,0.4,1,,,0,,100,,30,Dry,1018,4,45,0,,,0.4,
Tulloch Bridge,02/10/2019 06:00,-1.9,1,-1.9,,0,0,99,,150,Dry,1019,3,50,0,,,-2,
Tulloch Bridge,02/10/2019 07:00,-0.4,2,,,0,,99,,240,Dry,1019,3,45,17,,,-0.5,
Tulloch Bridge,02/10/2019 08:00,1.7,1,,,0,,99,,290,Dry,1019,6,45,222,,,1.6,
Tulloch Bridge,02/10/2019 09:00,3.3,5,,,0.2,,89,,50,Dry,1020,1,50,280,,,1.8,
Tulloch Bridge,02/10/2019 10:00,7.3,3,,,0,,75,,220,Dry,1020,7,40,360,,,3.2,
Tulloch Bridge,02/10/2019 11:00,8.5,7,,,0,,65,,260,Dry,1020,7,50,785,,,2.5,
Tulloch Bridge,02/10/2019 12:00,9.1,8,,,0,0.2,62,,300,Dry,1020,8,35,803,,,2.4,
Tulloch Bridge,02/10/2019 13:00,10.5,6,,,0,,61,,300,Dry,1020,8,40,1226,,,3.4,
Tulloch Bridge,02/10/2019 14:00,10.2,7,,,0,,59,,300,Dry,1020,8,45,894,,,2.7,
Tulloch Bridge,02/10/2019 15:00,9.8,8,,,0,,64,,280,Dry,1021,7,45,511,,,3.5,
Tulloch Bridge,02/10/2019 16:00,9.5,6,,,0,,68,,280,Dry,1021,8,50,267,,,3.9,
Tulloch Bridge,02/10/2019 17:00,9.4,6,,,0,,67,,280,Dry,1021,8,50,194,,,3.7,
Tulloch Bridge,02/10/2019 18:00,8.8,6,,10.6,0,0,71,,270,Dry,1022,8,50,44,,,3.9,
Tulloch Bridge,02/10/2019 19:00,7.9,3,,,0,,79,,20,Dry,1022,8,50,0,,,4.5,
Tulloch Bridge,02/10/2019 20:00,6.6,1,,,0,,88,,80,Dry,1022,8,50,0,,,4.9,
Tulloch Bridge,02/10/2019 21:00,6.1,2,,,0,,94,,190,Dry,1023,8,40,0,,,5.3,
Tulloch Bridge,02/10/2019 22:00,6.2,2,,,0,,92,,70,Dry,1023,8,50,0,,,5.1,
Tulloch Bridge,02/10/2019 23:00,5.3,1,,,0,,92,,320,Dry,1022,8,50,0,,,4.2,
Tulloch Bridge,03/10/2019 00:00,1.7,0,,,0,0,92,,0,Dry,1022,1,30,,,,0.6,
Tulloch Bridge,03/10/2019 01:00,0.9,3,,,0,,98,,60,Dry,1022,0,35,0,,,0.7,
Tulloch Bridge,03/10/2019 02:00,0,1,,,0,,98,,300,Dry,1022,0,50,0,,,-0.2,
Tulloch Bridge,03/10/2019 03:00,-1.3,1,,,0,,98,,170,Misty,1021,1,4,0,,,-1.5,
Tulloch Bridge,03/10/2019 04:00,-0.4,3,,,0,,100,,140,Dry,1021,0,45,0,,,-0.4,
Tulloch Bridge,03/10/2019 05:00,2.8,5,,,0,,94,,150,Dry,1020,0,50,0,,,2,
Tulloch Bridge,03/10/2019 06:00,1.6,6,-2,,0,0,97,,180,Dry,1020,0,50,0,,,1.2,
Tulloch Bridge,03/10/2019 07:00,2.9,7,,,0,,91,,120,Dry,1018,0,30,19,,,1.7,
Tulloch Bridge,03/10/2019 08:00,4.3,5,,,0,,88,,140,Dry,1018,0,50,238,,,2.6,
Tulloch Bridge,03/10/2019 09:00,8.2,7,,,0,,69,,90,Dry,1017,2,50,738,,,3,
Tulloch Bridge,03/10/2019 10:00,9.1,13,,,0,,66,,110,Dry,1016,6,50,1126,,,3.3,
Tulloch Bridge,03/10/2019 11:00,9.1,12,,,0,,66,,110,Dry,1014,6,30,1017,,,3.1,
Tulloch Bridge,03/10/2019 12:00,9.3,14,,,0,0,64,,120,Dry,1013,7,50,672,,,3,
Tulloch Bridge,03/10/2019 13:00,9.3,14,,,0,,64,29,120,Dry,1012,7,45,511,,,2.9,
Tulloch Bridge,03/10/2019 14:00,9.2,10,,,0,,63,,120,Dry,1011,8,45,442,,,2.7,
Tulloch Bridge,03/10/2019 15:00,9.2,10,,,0,,65,,130,Dry,1009,2,40,415,,,3.1,
Tulloch Bridge,03/10/2019 16:00,8.8,14,,,0,,67,29,130,Dry,1008,5,50,210,,,3.2,
Tulloch Bridge,03/10/2019 17:00,8.5,10,,,0,,69,31,130,Light rain,1007,8,50,53,,,3.3,
Tulloch Bridge,03/10/2019 18:00,8.6,12,,9.9,0,0,71,32,140,Rain,1007,8,50,13,,,3.8,
Tulloch Bridge,03/10/2019 19:00,8.6,9,,,0,,72,,120,Dry,1005,8,40,0,,,4,
Tulloch Bridge,03/10/2019 20:00,8.5,8,,,0,,72,,140,Light shower,1005,8,35,0,,,3.9,
Tulloch Bridge,03/10/2019 21:00,8.2,8,,,0.6,,78,,140,Light rain,1004,8,50,0,,,4.7,
Tulloch Bridge,03/10/2019 22:00,8.5,8,,,0,,75,,130,Rain,1004,8,45,0,,,4.4,
Tulloch Bridge,03/10/2019 23:00,8.6,7,,,0,,76,,100,Light shower,1003,8,50,0,,,4.8,
Tulloch Bridge,04/10/2019 00:00,8.4,6,,,0,0.6,79,,130,Light rain,1002,2,45,,,,5.1,
Tulloch Bridge,04/10/2019 01:00,8.9,7,,,0,,77,,110,Light rain,1002,7,45,0,,,5.2,
Tulloch Bridge,04/10/2019 02:00,9.4,9,,,0,,76,,110,Rain,1001,6,50,0,,,5.4,
Tulloch Bridge,04/10/2019 03:00,9.4,9,,,0,,77,,100,Dry,1001,8,40,0,,,5.6,
Tulloch Bridge,04/10/2019 04:00,9.5,5,,,0,,73,,100,Dry,1002,8,50,0,,,5.1,
Tulloch Bridge,04/10/2019 05:00,9.7,7,,,0,,77,,120,Dry,1002,8,50,0,,,6,
Tulloch Bridge,04/10/2019 06:00,9.5,5,7.9,,0,0,76,,120,Rain,1003,8,50,0,,,5.6,
Tulloch Bridge,04/10/2019 07:00,9.5,9,,,0,,77,,110,Dry,1004,7,50,4,,,5.7,
Tulloch Bridge,04/10/2019 08:00,9.6,5,,,0,,77,,120,Dry,1005,8,50,26,,,5.9,
Tulloch Bridge,04/10/2019 09:00,9.6,6,,,0,,76,,80,Dry,1006,7,45,99,,,5.6,
Tulloch Bridge,04/10/2019 10:00,10.2,7,,,0,,73,,70,Dry,1006,8,50,330,,,5.6,
Tulloch Bridge,04/10/2019 11:00,10.8,7,,,0,,72,,60,Dry,1007,7,35,596,,,6,
Tulloch Bridge,04/10/2019 12:00,11.2,7,,,0,0,72,,70,Dry,1008,8,50,452,,,6.4,
Tulloch Bridge,04/10/2019 13:00,11.4,6,,,0,,68,,90,Dry,1009,7,45,373,,,5.9,
Tulloch Bridge,04/10/2019 14:00,11.9,5,,,0,,66,,100,Dry,1009,7,50,335,,,5.8,
Tulloch Bridge,04/10/2019 15:00,11.5,5,,,0,,71,,100,Dry,1010,7,50,205,,,6.5,
Tulloch Bridge,04/10/2019 16:00,11.2,3,,,0,,76,,70,Dry,1010,8,35,267,,,7.3,
Tulloch Bridge,04/10/2019 17:00,9.9,2,,,0,,89,,50,Light shower,1012,8,4,135,,,8.2,
Tulloch Bridge,04/10/2019 18:00,9.1,0,,11.9,0.2,0.2,93,,0,Rain,1012,7,45,14,,,8.1,
Tulloch Bridge,04/10/2019 19:00,9.2,3,,,0,,84,,130,Dry,1013,7,50,0,,,6.8,
Tulloch Bridge,04/10/2019 20:00,9.4,6,,,0,,76,,150,Dry,1014,7,50,0,,,5.5,
Tulloch Bridge,04/10/2019 21:00,8.6,7,,,0,,74,,160,Dry,1014,7,50,0,,,4.4,
Tulloch Bridge,04/10/2019 22:00,8.2,9,,,0,,76,,160,Dry,1014,4,50,0,,,4.3,
Tulloch Bridge,04/10/2019 23:00,8.9,8,,,0,,73,,150,Dry,1015,7,50,0,,,4.4,
Tulloch Bridge,05/10/2019 00:00,8.2,5,,,0,0,76,,130,Dry,1015,8,50,,,,4.4,
Tulloch Bridge,05/10/2019 01:00,6.6,2,,,0,,87,,160,Dry,1015,8,50,0,,,4.6,
Tulloch Bridge,05/10/2019 02:00,8.8,7,,,0,,75,,170,Dry,1015,7,50,0,,,4.7,
Tulloch Bridge,05/10/2019 03:00,8.3,6,,,0,,78,,290,Dry,1014,7,50,0,,,4.8,
Tulloch Bridge,05/10/2019 04:00,8.8,8,,,0,,79,,140,Dry,1014,8,50,0,,,5.4,
Tulloch Bridge,05/10/2019 05:00,8.7,9,,,0,,80,,140,Dry,1014,8,50,0,,,5.5,
Tulloch Bridge,05/10/2019 06:00,8.5,9,6.6,,0,0,83,,140,Dry,1014,8,50,0,,,5.8,
Tulloch Bridge,05/10/2019 07:00,8.8,10,,,0,,82,,160,Dry,1015,8,50,6,,,6,
Tulloch Bridge,05/10/2019 08:00,9.3,8,,,0,,80,,160,Dry,1014,8,50,80,,,6.2,
Tulloch Bridge,05/10/2019 09:00,9.9,10,,,0,,76,,140,Dry,1014,8,45,300,,,6,
Tulloch Bridge,05/10/2019 10:00,10.2,10,,,0,,75,,140,Dry,1014,8,50,316,,,6,
Tulloch Bridge,05/10/2019 11:00,10.4,10,,,0,,74,,140,Dry,1013,8,45,379,,,6,
Tulloch Bridge,05/10/2019 12:00,10,14,,,0,0,80,29,130,Light shower,1013,8,29,503,,,6.8,
Tulloch Bridge,05/10/2019 13:00,10.1,8,,,0.2,,82,,120,Light rain,1013,8,25,310,,,7.2,
Tulloch Bridge,05/10/2019 14:00,9.9,6,,,0.6,,85,,110,Moderate rain,1013,8,18,167,,,7.5,
Tulloch Bridge,05/10/2019 15:00,9.8,6,,,1.4,,85,,110,Moderate rain,1012,8,20,147,,,7.5,
Tulloch Bridge,05/10/2019 16:00,9.8,8,,,0.8,,87,,90,Light rain,1012,8,27,125,,,7.9,
Tulloch Bridge,05/10/2019 17:00,10.2,8,,,0,,85,,110,Rain,1012,8,50,171,,,7.8,
Tulloch Bridge,05/10/2019 18:00,10.2,8,,10.5,0,3,83,,80,Dry,1011,8,29,29,,,7.5,
Tulloch Bridge,05/10/2019 19:00,10.4,5,,,0,,83,,70,Drizzly rain,1011,5,30,0,,,7.7,
Tulloch Bridge,05/10/2019 20:00,10.7,6,,,0,,82,,40,Light rain,1010,7,19,0,,,7.9,
Tulloch Bridge,05/10/2019 21:00,10.6,9,,,0.2,,84,,150,Light rain,1010,7,30,0,,,8.1,
Tulloch Bridge,05/10/2019 22:00,10.7,12,,,0,,84,,140,Rain,1010,8,18,0,,,8.2,
Tulloch Bridge,05/10/2019 23:00,10.5,9,,,0,,86,,140,Light rain,1009,7,13,0,,,8.4,
Tulloch Bridge,06/10/2019 00:00,10.8,9,,,0.2,0.4,84,,150,Light rain,1008,7,30,,,,8.3,
Tulloch Bridge,06/10/2019 01:00,10.9,12,,,0,,85,,160,Light rain,1008,8,30,0,,,8.6,
Tulloch Bridge,06/10/2019 02:00,10.7,9,,,1.8,,89,,150,Moderate rain,1007,8,16,0,,,9,
Tulloch Bridge,06/10/2019 03:00,10.5,10,,,3.2,,89,,140,Moderate rain,1007,8,9,0,,,8.8,
Tulloch Bridge,06/10/2019 04:00,10.3,6,,,2.2,,87,,140,Moderate rain,1007,8,15,0,,,8.4,
Tulloch Bridge,06/10/2019 05:00,10,8,,,1.4,,89,,140,Moderate rain,1008,8,12,0,,,8.3,
Tulloch Bridge,06/10/2019 06:00,9.3,8,9.3,,1.6,10.6,87,,100,Moderate rain,1009,8,14,0,,,7.3,
Tulloch Bridge,06/10/2019 07:00,9,6,,,1.6,,87,,80,Moderate rain,1009,7,16,0,,,7.1,
Tulloch Bridge,06/10/2019 08:00,8.7,6,,,0.6,,91,,80,Moderate rain,1010,8,18,47,,,7.4,
Tulloch Bridge,06/10/2019 09:00,9.1,6,,,0.6,,93,,80,Light rain,1011,7,19,241,,,8.1,
Tulloch Bridge,06/10/2019 10:00,9.7,6,,,0.2,,92,,50,Light rain,1012,8,25,327,,,8.5,
Tulloch Bridge,06/10/2019 11:00,11.1,5,,,0,,81,,100,Rain,1012,7,45,559,,,8,
Tulloch Bridge,06/10/2019 12:00,11.2,10,,,0,3,76,,120,Dry,1012,7,50,768,,,7.3,
Tulloch Bridge,06/10/2019 13:00,11.2,8,,,0,,73,,110,Dry,1013,8,50,756,,,6.7,
Tulloch Bridge,06/10/2019 14:00,11.1,7,,,0,,77,,150,Dry,1014,8,40,767,,,7.3,
Tulloch Bridge,06/10/2019 15:00,10.4,10,,,0,,79,,130,Dry,1015,8,50,276,,,7,
Tulloch Bridge,06/10/2019 16:00,10.4,9,,,0,,79,,150,Dry,1016,8,35,174,,,7,
Tulloch Bridge,06/10/2019 17:00,10,9,,,0,,79,,140,Dry,1017,8,50,57,,,6.7,
Tulloch Bridge,06/10/2019 18:00,9.8,9,,11.9,0,0,79,,140,Dry,1016,8,50,15,,,6.4,
Tulloch Bridge,06/10/2019 19:00,9.7,8,,,0,,76,,130,Dry,1015,6,50,0,,,5.7,
Tulloch Bridge,06/10/2019 20:00,10.3,14,,,0,,78,30,130,Dry,1014,8,50,0,,,6.7,
Tulloch Bridge,06/10/2019 21:00,9.9,12,,,0,,85,31,130,Drizzly rain,1014,7,7,0,,,7.5,
Tulloch Bridge,06/10/2019 22:00,10.3,12,,,0.2,,81,,150,Rain,1014,8,40,0,,,7.3,
Tulloch Bridge,06/10/2019 23:00,10.4,15,,,0,,81,,140,Dry,1013,8,29,0,,,7.4,
Tulloch Bridge,07/10/2019 00:00,10.6,23,,,0,0.2,80,33,170,Dry,1011,5,50,,,,7.4,
Tulloch Bridge,07/10/2019 01:00,10.8,13,,,0,,79,37,160,Dry,1011,8,50,0,,,7.4,
Tulloch Bridge,07/10/2019 02:00,10.7,23,,,0,,81,38,160,Dry,1010,7,40,0,,,7.7,
Tulloch Bridge,07/10/2019 03:00,10.3,16,,,0,,86,37,150,Haze,1008,8,11,0,,,8.2,
Tulloch Bridge,07/10/2019 04:00,10.8,22,,,0,,82,37,150,Rain,1007,8,50,0,,,7.9,
Tulloch Bridge,07/10/2019 05:00,11.1,21,,,0,,75,41,160,Rain,1006,8,50,0,,,7,
Tulloch Bridge,07/10/2019 06:00,9.9,16,9.5,,0.2,0.2,85,35,160,Light shower,1005,8,7,0,,,7.5,
Tulloch Bridge,07/10/2019 07:00,9.8,20,,,0.4,,90,33,160,Light rain,1004,8,5,0,,,8.4,
Tulloch Bridge,07/10/2019 08:00,9.6,17,,,1.4,,89,31,160,Light rain,1004,8,9,40,,,8,
Tulloch Bridge,07/10/2019 09:00,9.6,7,,,1.2,,94,32,180,Moderate rain,1003,8,10,150,,,8.7,
Tulloch Bridge,07/10/2019 10:00,10.3,14,,,1.6,,93,,190,Moderate rain,1002,8,7,193,,,9.3,
Tulloch Bridge,07/10/2019 11:00,11.2,10,,,1.8,,89,,180,Light rain,1001,7,30,352,,,9.5,
Tulloch Bridge,07/10/2019 12:00,12.1,17,,,0.8,7,80,,200,Rain,1001,8,19,655,,,8.9,
Tulloch Bridge,07/10/2019 13:00,13.3,12,,,0.4,,73,30,200,Rain,1000,4,22,984,,,8.6,
Tulloch Bridge,07/10/2019 14:00,11.9,9,,,0,,74,,240,Rain,1000,7,26,781,,,7.5,
Tulloch Bridge,07/10/2019 15:00,12.1,6,,,1,,70,,230,Rain,1000,7,22,687,,,7,
Tulloch Bridge,07/10/2019 16:00,9.3,8,,,0.8,,85,37,210,Rain,1000,8,30,507,,,7,
Tulloch Bridge,07/10/2019 17:00,9.3,8,,,1,,86,,230,Rain,1000,7,45,154,,,7.2,
Tulloch Bridge,07/10/2019 18:00,9.7,13,,13.6,0,3,81,,200,Dry,1000,5,17,46,,,6.7,
Tulloch Bridge,07/10/2019 19:00,9.7,10,,,2.4,,82,,220,Moderate shower,999,1,15,0,,,6.8,
Tulloch Bridge,07/10/2019 20:00,9.9,10,,,1,,85,,220,Heavy shower,1000,7,5,0,,,7.6,
Tulloch Bridge,07/10/2019 21:00,8.4,10,,,2,,86,32,210,Rain,999,8,45,0,,,6.3,
Tulloch Bridge,07/10/2019 22:00,8.8,10,,,0.2,,88,,210,Rain,998,7,45,0,,,7,
Tulloch Bridge,07/10/2019 23:00,8.8,8,,,2.8,,92,,210,Moderate shower,998,8,4,0,,,7.7,
Tulloch Bridge,08/10/2019 00:00,9.7,10,,,3,11,87,,210,Light rain,997,2,20,,,,7.8,
Tulloch Bridge,08/10/2019 01:00,8.9,13,,,1.4,,84,,210,Moderate rain,996,8,6,0,,,6.5,
Tulloch Bridge,08/10/2019 02:00,8.8,7,,,5,,86,30,230,Moderate rain,996,8,4,0,,,6.7,
Tulloch Bridge,08/10/2019 03:00,9.1,7,,,2.8,,86,,250,Moderate rain,995,8,12,0,,,6.9,
Tulloch Bridge,08/10/2019 04:00,8.3,10,,,4,,83,,220,Moderate rain,994,1,11,0,,,5.7,
Tulloch Bridge,08/10/2019 05:00,7.6,12,,,3.8,,88,,210,Moderate rain,994,8,23,0,,,5.9,
Tulloch Bridge,08/10/2019 06:00,8.4,9,7.5,,0.6,18,87,,210,Light shower,994,2,13,0,,,6.5,
Tulloch Bridge,08/10/2019 07:00,8.3,12,,,0,,81,,210,Rain,993,7,27,4,,,5.4,
Tulloch Bridge,08/10/2019 08:00,9.2,12,,,0,,82,,210,Light shower,992,8,12,90,,,6.3,
Tulloch Bridge,08/10/2019 09:00,8.1,13,,,1.6,,92,,200,Moderate rain,992,8,8,251,,,6.9,
Tulloch Bridge,08/10/2019 10:00,9,14,,,2.6,,92,,200,Moderate rain,991,4,9,250,,,7.9,
Tulloch Bridge,08/10/2019 11:00,9.1,16,,,2.8,,92,32,200,Moderate rain,990,2,8,356,,,7.9,
Tulloch Bridge,08/10/2019 12:00,9.5,17,,,2.6,10,90,35,200,Moderate rain,990,8,5,530,,,8.1,
Tulloch Bridge,08/10/2019 13:00,9.6,13,,,1.2,,91,31,210,Moderate rain,989,8,10,554,,,8.3,
Tulloch Bridge,08/10/2019 14:00,10.1,14,,,0.8,,89,,210,Moderate shower,989,8,16,325,,,8.4,
Tulloch Bridge,08/10/2019 15:00,9.9,13,,,2.2,,90,31,220,Light rain,989,8,8,165,,,8.4,
Tulloch Bridge,08/10/2019 16:00,9.7,13,,,1,,89,,210,Moderate rain,989,8,9,197,,,8,
Tulloch Bridge,08/10/2019 17:00,9.5,9,,,0.8,,87,,220,Moderate shower,989,8,7,130,,,7.6,
Tulloch Bridge,08/10/2019 18:00,9.3,13,,10.4,0.8,6,87,,220,Light shower,989,8,9,35,,,7.3,
Tulloch Bridge,08/10/2019 19:00,9.6,12,,,0.6,,84,,220,Light rain,989,8,17,0,,,7.1,
Tulloch Bridge,08/10/2019 20:00,9.5,13,,,2.2,,76,30,220,Rain,989,7,50,0,,,5.6,
Tulloch Bridge,08/10/2019 21:00,9.1,9,,,0.8,,86,,220,Moderate shower,990,8,7,0,,,6.9,
Tulloch Bridge,08/10/2019 22:00,8.6,6,,,4.2,,90,30,240,Light rain,990,8,45,0,,,7.2,
Tulloch Bridge,08/10/2019 23:00,9.6,10,,,0.2,,83,,230,Light shower,990,8,22,0,,,7,
Tulloch Bridge,09/10/2019 00:00,9.7,14,,,0,8,78,,220,Light shower,990,8,12,,,,6.2,
Tulloch Bridge,09/10/2019 01:00,9.5,13,,,0.4,,81,30,220,Moderate shower,990,8,7,0,,,6.5,
Tulloch Bridge,09/10/2019 02:00,9,10,,,1,,83,31,230,Moderate shower,990,8,16,0,,,6.4,
Tulloch Bridge,09/10/2019 03:00,9.4,15,,,0.4,,76,32,230,Rain,990,8,30,0,,,5.4,
Tulloch Bridge,09/10/2019 04:00,8.7,12,,,1,,86,31,210,Moderate shower,990,8,20,0,,,6.5,
Tulloch Bridge,09/10/2019 05:00,9.4,14,,,0,,77,,220,Drizzly rain,990,5,20,0,,,5.7,
Tulloch Bridge,09/10/2019 06:00,9.1,12,8.3,,0.6,3,79,,230,Drizzly rain,990,8,13,0,,,5.8,
Tulloch Bridge,09/10/2019 07:00,8.3,8,,,0.6,,83,,230,Light rain,991,8,40,0,,,5.6,
Tulloch Bridge,09/10/2019 08:00,8.9,13,,,0.2,,83,,220,Rain,990,8,22,64,,,6.2,
Tulloch Bridge,09/10/2019 09:00,8.5,12,,,0.4,,88,,220,Moderate shower,991,8,5,253,,,6.7,
Tulloch Bridge,09/10/2019 10:00,9.5,8,,,1,,80,,240,Light rain,990,5,35,324,,,6.4,
Tulloch Bridge,09/10/2019 11:00,9,14,,,0.4,,82,,230,Moderate shower,991,8,9,436,,,6.2,
Tulloch Bridge,09/10/2019 12:00,10.3,15,,,1,4,79,,220,Rain,991,8,23,873,,,6.9,
Tulloch Bridge,09/10/2019 13:00,8.8,7,,,1.6,,83,,230,Moderate rain,991,8,23,441,,,6.2,
Tulloch Bridge,09/10/2019 14:00,8.9,7,,,2.2,,89,,220,Light rain,991,8,35,241,,,7.2,
Tulloch Bridge,09/10/2019 15:00,9.9,12,,,0,,76,,220,Light shower,991,8,35,443,,,5.9,
Tulloch Bridge,09/10/2019 16:00,10,13,,,0,,75,,220,Light shower,991,6,40,464,,,5.8,
Tulloch Bridge,09/10/2019 17:00,9.3,13,,,0,,80,,230,Light shower,991,7,30,237,,,6.2,
Tulloch Bridge,09/10/2019 18:00,8.9,12,,10.4,1,4,85,,210,Moderate rain,992,2,10,24,,,6.6,
Tulloch Bridge,09/10/2019 19:00,9.6,13,,,0,,81,,220,Rain,992,8,50,0,,,6.6,
Tulloch Bridge,09/10/2019 20:00,9.9,12,,,0,,79,,220,Drizzly rain,992,8,15,0,,,6.5,
Tulloch Bridge,09/10/2019 21:00,9.9,14,,,0.2,,82,,200,Rain,992,5,50,0,,,7,
Tulloch Bridge,09/10/2019 22:00,9.9,12,,,1.6,,81,30,210,Moderate shower,992,8,8,0,,,6.9,
Tulloch Bridge,09/10/2019 23:00,9.8,8,,,4.6,,87,,220,Moderate rain,992,8,6,0,,,7.8,
Tulloch Bridge,10/10/2019 00:00,9.6,10,,,2.2,9,87,,200,Moderate rain,993,8,19,,,,7.6,
Tulloch Bridge,10/10/2019 01:00,10.1,8,,,1.8,,84,,280,Light rain,994,8,35,0,,,7.6,
Tulloch Bridge,10/10/2019 02:00,10.1,12,,,0,,79,29,240,Rain,994,8,50,0,,,6.8,
Tulloch Bridge,10/10/2019 03:00,9.7,8,,,0.6,,85,,230,Rain,995,8,11,0,,,7.4,
Tulloch Bridge,10/10/2019 04:00,9.2,7,,,0.6,,87,,250,Moderate shower,995,4,7,0,,,7.2,
Tulloch Bridge,10/10/2019 05:00,9.1,8,,,0,,82,,270,Rain,996,8,50,0,,,6.2,
Tulloch Bridge,10/10/2019 06:00,8.9,6,8.5,,0,3,82,,300,Dry,997,7,50,0,,,6.1,
Tulloch Bridge,10/10/2019 07:00,7.5,2,,,0,,94,,260,Light shower,998,7,20,1,,,6.6,
Tulloch Bridge,10/10/2019 08:00,7.4,3,,,0.2,,95,,20,Rain,999,8,40,68,,,6.8,
Tulloch Bridge,10/10/2019 09:00,8.3,3,,,0,,93,,340,Dry,999,8,40,171,,,7.3,
Tulloch Bridge,10/10/2019 10:00,9.1,3,,,0,,92,,320,Drizzly rain,999,8,13,336,,,7.9,
Tulloch Bridge,10/10/2019 11:00,9.3,5,,,0,,93,,330,Rain,999,1,28,380,,,8.3,
Tulloch Bridge,10/10/2019 12:00,9.5,8,,,0,0.2,91,,230,Drizzly rain,999,3,16,378,,,8.2,
Tulloch Bridge,10/10/2019 13:00,10.6,8,,,0,,76,,210,Rain,998,4,40,577,,,6.6,
Tulloch Bridge,10/10/2019 14:00,9.7,12,,,0,,86,,180,Light shower,998,8,23,509,,,7.5,
Tulloch Bridge,10/10/2019 15:00,8.8,8,,,0.2,,86,,160,Light rain,997,8,17,338,,,6.7,
Tulloch Bridge,10/10/2019 16:00,8.4,5,,,0.8,,90,,120,Moderate rain,996,1,12,132,,,6.9,
Tulloch Bridge,10/10/2019 17:00,8.2,7,,,2.4,,93,,130,Moderate rain,995,7,10,48,,,7.2,
Tulloch Bridge,10/10/2019 18:00,8.5,6,,10.7,2,5.8,96,,200,Moderate rain,994,8,8,16,,,7.9,
Tulloch Bridge,10/10/2019 19:00,9.8,7,,,0.4,,92,,220,Light shower,993,8,12,0,,,8.6,
Tulloch Bridge,10/10/2019 20:00,9.6,9,,,2.4,,95,,180,Moderate rain,992,8,22,0,,,8.9,
Tulloch Bridge,10/10/2019 21:00,10.8,20,,,2,,80,33,200,Moderate rain,992,8,11,0,,,7.6,
Tulloch Bridge,10/10/2019 22:00,10,9,,,4.6,,86,33,210,Light rain,992,8,21,0,,,7.8,
Tulloch Bridge,10/10/2019 23:00,10.3,10,,,0,,81,,210,Light shower,992,8,22,0,,,7.2,
Tulloch Bridge,11/10/2019 00:00,9.9,14,,,0.6,10,85,,200,Moderate shower,992,1,11,,,,7.6,
Tulloch Bridge,11/10/2019 01:00,9.3,10,,,0.4,,87,,200,Moderate shower,992,8,8,0,,,7.3,
Tulloch Bridge,11/10/2019 02:00,9.5,9,,,0.8,,85,,210,Moderate shower,992,8,45,0,,,7.2,
Tulloch Bridge,11/10/2019 03:00,9,12,,,0.6,,92,,210,Moderate shower,991,8,20,0,,,7.9,
Tulloch Bridge,11/10/2019 04:00,8.9,16,,,1.6,,91,32,200,Moderate rain,991,3,12,0,,,7.6,
Tulloch Bridge,11/10/2019 05:00,9,10,,,0.4,,92,,210,Moderate rain,991,8,35,0,,,7.8,
Tulloch Bridge,11/10/2019 06:00,9,14,8.6,,1.6,5,89,,200,Moderate rain,990,8,5,0,,,7.4,
Tulloch Bridge,11/10/2019 07:00,9.5,14,,,1,,82,29,210,Light rain,990,8,8,0,,,6.7,
Tulloch Bridge,11/10/2019 08:00,9,12,,,1.6,,82,,210,Light rain,991,8,9,45,,,6.2,
Tulloch Bridge,11/10/2019 09:00,9,16,,,0.2,,84,,200,Light shower,991,8,11,189,,,6.6,
Tulloch Bridge,11/10/2019 10:00,10.2,15,,,0.8,,81,,220,Rain,990,8,10,773,,,7.1,
Tulloch Bridge,11/10/2019 11:00,8.9,13,,,1.6,,90,29,220,Moderate rain,991,8,4,556,,,7.5,
Tulloch Bridge,11/10/2019 12:00,10,15,,,1.6,7,82,,210,Rain,991,8,27,666,,,7.2,
Tulloch Bridge,11/10/2019 13:00,9.3,16,,,1.2,,83,33,220,Moderate rain,991,8,6,456,,,6.6,
Tulloch Bridge,11/10/2019 14:00,9.2,14,,,1,,86,37,210,Light rain,991,8,18,257,,,7,
Tulloch Bridge,11/10/2019 15:00,9.3,14,,,1.4,,81,31,220,Light rain,992,8,20,369,,,6.3,
Tulloch Bridge,11/10/2019 16:00,8.8,9,,,1.8,,84,,230,Moderate rain,992,8,9,157,,,6.4,
Tulloch Bridge,11/10/2019 17:00,9.1,12,,,0.2,,83,,220,Drizzly rain,992,8,35,208,,,6.5,
Tulloch Bridge,11/10/2019 18:00,8.4,7,,10.3,0.2,6,88,,220,Rain,992,4,50,13,,,6.6,
Tulloch Bridge,11/10/2019 19:00,7.9,2,,,0.2,,95,,250,Drizzly rain,992,8,7,0,,,7.3,
Tulloch Bridge,11/10/2019 20:00,8.4,7,,,0.2,,87,,200,Light rain,993,1,22,0,,,6.4,
Tulloch Bridge,11/10/2019 21:00,8.5,12,,,0.2,,87,,210,Rain,994,8,35,0,,,6.6,
Tulloch Bridge,11/10/2019 22:00,8.3,6,,,0.2,,86,,250,Rain,995,4,50,0,,,6.1,
Tulloch Bridge,11/10/2019 23:00,8,6,,,0,,85,,270,Light shower,996,8,13,0,,,5.8,
Tulloch Bridge,12/10/2019 00:00,6.5,2,,,0,0.8,90,,300,Rain,997,8,45,,,,5,
Tulloch Bridge,12/10/2019 01:00,7.8,5,,,0,,80,,230,Rain,997,7,50,0,,,4.7,
Tulloch Bridge,12/10/2019 02:00,7.3,6,,,0,,81,,290,Rain,998,8,50,0,,,4.3,
Tulloch Bridge,12/10/2019 03:00,7.2,6,,,0.2,,81,,240,Rain,998,8,45,0,,,4.3,
Tulloch Bridge,12/10/2019 04:00,6.1,5,,,0,,95,,330,Rain,998,8,50,0,,,5.4,
Tulloch Bridge,12/10/2019 05:00,7.9,6,,,0,,78,,240,Dry,998,8,50,0,,,4.4,
Tulloch Bridge,12/10/2019 06:00,8,8,6.1,,0,0.2,74,,230,Dry,998,8,45,0,,,3.7,
Tulloch Bridge,12/10/2019 07:00,7.3,5,,,0,,75,,250,Dry,999,8,50,1,,,3.2,
Tulloch Bridge,12/10/2019 08:00,8.1,7,,,0,,72,,250,Dry,999,7,45,115,,,3.5,
Tulloch Bridge,12/10/2019 09:00,9.1,7,,,0,,76,,260,Dry,1000,8,40,370,,,5.1,
Tulloch Bridge,12/10/2019 10:00,8.9,10,,,0,,82,,200,Dry,1000,8,40,653,,,6,
Tulloch Bridge,12/10/2019 11:00,8.7,8,,,0,,83,,300,Drizzly rain,1001,8,50,536,,,6,
Tulloch Bridge,12/10/2019 12:00,9.5,6,,,0,0,86,,320,Rain,1001,8,40,541,,,7.4,
Tulloch Bridge,12/10/2019 13:00,8.6,5,,,1.4,,90,,250,Heavy shower,1001,8,6,405,,,7.1,
Tulloch Bridge,12/10/2019 14:00,8.8,10,,,0.4,,88,,210,Light shower,1002,8,45,955,,,7,
Tulloch Bridge,12/10/2019 15:00,8.4,8,,,1,,89,,200,Moderate shower,1002,8,30,753,,,6.7,
Tulloch Bridge,12/10/2019 16:00,8.9,6,,,0.6,,84,,260,Rain,1001,8,50,557,,,6.4,
Tulloch Bridge,12/10/2019 17:00,8.6,7,,,0,,87,,220,Rain,1002,7,50,151,,,6.7,
Tulloch Bridge,12/10/2019 18:00,8,3,,10.5,0,3,91,,240,Rain,1002,8,50,11,,,6.7,
Tulloch Bridge,12/10/2019 19:00,7.7,5,,,1.6,,90,,240,Light shower,1003,8,40,0,,,6.2,
Tulloch Bridge,12/10/2019 20:00,6.9,3,,,0,,89,,160,Rain,1003,7,50,0,,,5.3,
Tulloch Bridge,12/10/2019 21:00,6.3,2,,,0,,97,,120,Dry,1003,8,45,0,,,5.9,
Tulloch Bridge,12/10/2019 22:00,5.2,2,,,0,,93,,210,Dry,1004,5,50,0,,,4.2,
Tulloch Bridge,12/10/2019 23:00,6.4,2,,,0,,96,,170,Dry,1004,7,50,0,,,5.9,
Tulloch Bridge,13/10/2019 00:00,5.6,3,,,0,2,97,,180,Dry,1004,6,50,,,,5.2,
Tulloch Bridge,13/10/2019 01:00,5,1,,,0,,95,,110,Dry,1004,6,50,0,,,4.3,
Tulloch Bridge,13/10/2019 02:00,3.2,1,,,0,,97,,220,Thickening fog,1004,4,0,0,,,2.9,
Tulloch Bridge,13/10/2019 03:00,2.2,2,,,0,,98,,180,Fog,1004,4,20,0,,,2,
Tulloch Bridge,13/10/2019 04:00,3.8,2,,,0,,100,,60,Dry,1004,8,50,0,,,3.8,
Tulloch Bridge,13/10/2019 05:00,4.4,2,,,0,,100,,160,Dry,1004,8,50,0,,,4.4,
Tulloch Bridge,13/10/2019 06:00,4.8,2,1.8,,0,0,100,,170,Dry,1003,8,50,0,,,4.8,
Tulloch Bridge,13/10/2019 07:00,5,2,,,0,,99,,100,Dry,1003,8,50,0,,,4.9,
Tulloch Bridge,13/10/2019 08:00,4.9,2,,,0,,97,,170,Dry,1004,7,50,87,,,4.6,
Tulloch Bridge,13/10/2019 09:00,6,1,,,0,,95,,260,Dry,1003,1,50,322,,,5.3,
Tulloch Bridge,13/10/2019 10:00,6.8,5,,,0,,91,,120,Dry,1003,0,50,395,,,5.5,
Tulloch Bridge,13/10/2019 11:00,7.9,1,,,0,,89,,60,Dry,1003,1,50,497,,,6.3,
Tulloch Bridge,13/10/2019 12:00,9.3,5,,,0,0,82,,70,Dry,1002,7,45,785,,,6.4,
Tulloch Bridge,13/10/2019 13:00,9.8,3,,,0,,82,,60,Dry,1002,6,50,654,,,7,
Tulloch Bridge,13/10/2019 14:00,9.9,3,,,0,,82,,50,Dry,1002,8,45,505,,,7,
Tulloch Bridge,13/10/2019 15:00,10,3,,,0,,83,,90,Dry,1001,8,50,297,,,7.4,
Tulloch Bridge,13/10/2019 16:00,9.8,3,,,0,,82,,100,Dry,1001,8,45,302,,,6.9,
Tulloch Bridge,13/10/2019 17:00,8.7,1,,,0,,90,,140,Dry,1001,8,50,99,,,7.2,
Tulloch Bridge,13/10/2019 18:00,7.8,0,,10.1,0,0,95,,0,Light shower,1002,7,27,9,,,7.1,
Tulloch Bridge,13/10/2019 19:00,7.2,2,,,0.2,,98,,160,Light rain,1003,7,9,0,,,7,
Tulloch Bridge,13/10/2019 20:00,7.4,3,,,0,,99,,180,Light rain,1003,8,11,0,,,7.3,
Tulloch Bridge,13/10/2019 21:00,7.8,3,,,0.4,,97,,140,Light rain,1004,8,21,0,,,7.4,
Tulloch Bridge,13/10/2019 22:00,7.6,2,,,0.4,,97,,90,Light rain,1004,8,15,0,,,7.2,
Tulloch Bridge,13/10/2019 23:00,7,2,,,0,,97,,330,Rain,1005,8,27,0,,,6.7,
Tulloch Bridge,14/10/2019 00:00,6.9,3,,,0,1,95,,130,Dry,1005,7,50,,,,6.3,
Tulloch Bridge,14/10/2019 01:00,6.9,2,,,0,,95,,180,Dry,1006,8,50,0,,,6.3,
Tulloch Bridge,14/10/2019 02:00,7,3,,,0.2,,97,,120,Misty,1006,8,12,0,,,6.6,
Tulloch Bridge,14/10/2019 03:00,6.9,3,,,0,,96,,130,Dry,1007,8,50,0,,,6.4,
Tulloch Bridge,14/10/2019 04:00,5.9,2,,,0,,99,,240,Dry,1007,5,50,0,,,5.8,
Tulloch Bridge,14/10/2019 05:00,6,2,,,0,,97,,330,Dry,1008,3,50,0,,,5.7,
Tulloch Bridge,14/10/2019 06:00,4.5,1,4.1,,0,0,97,,140,Misty,1008,4,13,0,,,4.2,
Tulloch Bridge,14/10/2019 07:00,4.5,5,,,0,,100,,130,Fog,1008,2,30,0,,,4.5,
Tulloch Bridge,14/10/2019 08:00,5.6,2,,,0,,100,,160,Dry,1008,7,50,123,,,5.6,
Tulloch Bridge,14/10/2019 09:00,8.3,8,,,0,,86,,190,Dry,1008,0,40,477,,,6.1,
Tulloch Bridge,14/10/2019 10:00,8.2,3,,,0,,88,,150,Dry,1009,0,50,407,,,6.4,
Tulloch Bridge,14/10/2019 11:00,9,3,,,0,,83,,180,Dry,1009,5,50,581,,,6.4,
Tulloch Bridge,14/10/2019 12:00,9.8,3,,,0,0,75,,170,Dry,1008,8,45,553,,,5.6,
Tulloch Bridge,14/10/2019 13:00,9.9,6,,,0,,74,,190,Dry,1008,8,50,580,,,5.5,
Tulloch Bridge,14/10/2019 14:00,10.1,2,,,0,,72,,170,Dry,1008,8,50,453,,,5.3,
Tulloch Bridge,14/10/2019 15:00,9.7,3,,,0,,75,,150,Dry,1008,8,50,328,,,5.5,
Tulloch Bridge,14/10/2019 16:00,9,1,,,0,,87,,170,Dry,1008,8,50,180,,,7,
Tulloch Bridge,14/10/2019 17:00,8.6,2,,,0,,85,,90,Dry,1008,8,50,100,,,6.3,
Tulloch Bridge,14/10/2019 18:00,7.4,1,,10.2,0,0,91,,110,Dry,1008,8,50,11,,,6.1,
Tulloch Bridge,14/10/2019 19:00,8.4,5,,,0,,88,,90,Dry,1008,8,50,0,,,6.6,
Tulloch Bridge,14/10/2019 20:00,9.4,9,,,0,,76,,90,Dry,1007,8,50,0,,,5.4,
Tulloch Bridge,14/10/2019 21:00,9.3,6,,,0,,74,,110,Dry,1007,8,50,0,,,5.1,
Tulloch Bridge,14/10/2019 22:00,8.9,8,,,0,,78,,150,Dry,1007,8,50,0,,,5.3,
Tulloch Bridge,14/10/2019 23:00,8.4,3,,,0,,81,,160,Dry,1006,8,50,0,,,5.4,
Tulloch Bridge,15/10/2019 00:00,9.1,8,,,0,0,79,,120,Dry,1006,,50,,,,5.7,
Tulloch Bridge,15/10/2019 01:00,8.3,5,,,0,,80,,140,Dry,1006,8,50,0,,,5.1,
Tulloch Bridge,15/10/2019 02:00,7.7,7,,,0,,83,,140,Dry,1005,1,50,0,,,5,
Tulloch Bridge,15/10/2019 03:00,6.8,6,,,0,,88,,100,Dry,1005,7,50,0,,,5.1,
Tulloch Bridge,15/10/2019 04:00,8,6,,,0,,83,,110,Dry,1004,8,50,0,,,5.3,
Tulloch Bridge,15/10/2019 05:00,7.9,5,,,0,,86,,120,Dry,1004,8,50,0,,,5.8,
Tulloch Bridge,15/10/2019 06:00,9,5,5.8,,0,0,79,,140,Dry,1004,8,50,0,,,5.6,
Tulloch Bridge,15/10/2019 07:00,9.3,7,,,0,,77,,140,Dry,1004,8,50,0,,,5.6,
Tulloch Bridge,15/10/2019 08:00,8.7,2,,,0,,78,,130,Dry,1003,8,50,84,,,5.2,
Tulloch Bridge,15/10/2019 09:00,9.8,3,,,0,,76,,130,Dry,1003,6,45,412,,,5.9,
Tulloch Bridge,15/10/2019 10:00,9.9,8,,,0,,71,,120,Dry,1003,7,45,536,,,5,
Tulloch Bridge,15/10/2019 11:00,10.8,9,,,0,,73,,120,Dry,1002,7,40,725,,,6.2,
Tulloch Bridge,15/10/2019 12:00,11.8,9,,,0,0,65,,120,Dry,1002,1,45,1512,,,5.5,
Tulloch Bridge,15/10/2019 13:00,11.7,7,,,0,,66,,160,Dry,1001,5,35,1385,,,5.6,
Tulloch Bridge,15/10/2019 14:00,11.4,6,,,0,,67,,140,Dry,1001,5,45,882,,,5.6,
Tulloch Bridge,15/10/2019 15:00,12.5,10,,,0,,62,,180,Dry,1000,6,30,948,,,5.6,
Tulloch Bridge,15/10/2019 16:00,11.9,6,,,0,,64,,140,Dry,1000,7,45,750,,,5.5,
Tulloch Bridge,15/10/2019 17:00,10.9,7,,,0,,68,,100,Dry,1000,7,50,168,,,5.4,
Tulloch Bridge,15/10/2019 18:00,9,7,,12.7,0,0,76,,160,Dry,1000,3,50,7,,,5.1,
Tulloch Bridge,15/10/2019 19:00,9.9,14,,,0,,71,,190,Dry,1000,7,50,0,,,5,
Tulloch Bridge,15/10/2019 20:00,9.4,7,,,0,,75,,170,Dry,1000,,50,0,,,5.3,
Tulloch Bridge,15/10/2019 21:00,9,2,,,0,,78,,60,Dry,999,4,50,0,,,5.4,
Tulloch Bridge,15/10/2019 22:00,8.4,2,,,0,,83,,110,Dry,999,8,50,0,,,5.8,
Tulloch Bridge,15/10/2019 23:00,9.8,6,,,0,,77,,130,Dry,998,7,50,0,,,6,
Tulloch Bridge,16/10/2019 00:00,9.7,7,,,0,0,79,,140,Dry,998,8,50,,,,6.3,
Tulloch Bridge,16/10/2019 01:00,9.7,8,,,0,,81,,130,Dry,998,4,50,0,,,6.7,
Tulloch Bridge,16/10/2019 02:00,10.3,10,,,0,,77,,150,Dry,997,8,50,0,,,6.5,
Tulloch Bridge,16/10/2019 03:00,10.1,8,,,0,,79,,120,Dry,996,8,50,0,,,6.7,
Tulloch Bridge,16/10/2019 04:00,10.2,9,,,0,,80,,110,Dry,995,8,50,0,,,7,
Tulloch Bridge,16/10/2019 05:00,10.2,8,,,0,,81,,120,Rain,995,8,26,0,,,7.2,
Tulloch Bridge,16/10/2019 06:00,10.2,13,8,,0,0,85,,160,Light shower,994,7,40,0,,,7.9,
Tulloch Bridge,16/10/2019 07:00,10,3,,,0.6,,87,,140,Moderate rain,995,8,15,0,,,8.1,
Tulloch Bridge,16/10/2019 08:00,10.3,6,,,0.2,,83,,150,Rain,995,7,50,16,,,7.6,
Tulloch Bridge,16/10/2019 09:00,9.6,3,,,0.6,,91,,160,Moderate shower,995,8,15,134,,,8.3,
Tulloch Bridge,16/10/2019 10:00,8.3,6,,,0.6,,92,,280,Moderate rain,996,8,3,147,,,7.1,
Tulloch Bridge,16/10/2019 11:00,8.1,3,,,1,,92,,300,Moderate rain,997,7,5,225,,,7,
Tulloch Bridge,16/10/2019 12:00,9,3,,,0.2,3,90,,310,Rain,997,8,35,462,,,7.6,
Tulloch Bridge,16/10/2019 13:00,9.3,3,,,0,,80,,320,Rain,998,7,45,759,,,6.2,
Tulloch Bridge,16/10/2019 14:00,9.9,1,,,0,,88,,90,Dry,998,7,28,471,,,8.1,
Tulloch Bridge,16/10/2019 15:00,10.1,3,,,0,,75,,300,Dry,998,7,40,556,,,6,
Tulloch Bridge,16/10/2019 16:00,9,2,,,0,,78,,250,Dry,998,5,50,276,,,5.5,
Tulloch Bridge,16/10/2019 17:00,8,1,,,0,,90,,160,Dry,999,7,50,128,,,6.6,
Tulloch Bridge,16/10/2019 18:00,7.2,5,,11.2,0,0,88,,230,Dry,1000,3,50,7,,,5.4,
Tulloch Bridge,16/10/2019 19:00,8.3,12,,,0,,82,,210,Dry,1000,1,50,0,,,5.5,
Tulloch Bridge,16/10/2019 20:00,7.5,7,,,0,,88,,220,Rain,1000,4,45,0,,,5.7,
Tulloch Bridge,16/10/2019 21:00,5.9,7,,,0,,87,,200,Dry,1001,2,50,0,,,4,
Tulloch Bridge,16/10/2019 22:00,4.9,1,,,0,,94,,180,Dry,1001,6,40,0,,,4.1,
Tulloch Bridge,16/10/2019 23:00,2.8,3,,,0,,98,,170,Fog,1001,0,30,0,,,2.6,
Tulloch Bridge,17/10/2019 00:00,3.5,3,,,0,0,93,,80,Dry,1001,0,45,,,,2.5,
Tulloch Bridge,17/10/2019 01:00,1.7,2,,,0,,97,,250,Dry,1002,0,45,0,,,1.3,
Tulloch Bridge,17/10/2019 02:00,1.6,1,,,0,,100,,280,Dry,1002,0,29,0,,,1.6,
Tulloch Bridge,17/10/2019 03:00,0.9,2,,,0,,100,,130,Fog,1001,1,2,0,,,0.9,
Tulloch Bridge,17/10/2019 04:00,1,1,,,0,,100,,130,Fog,1001,1,21,0,,,1,
Tulloch Bridge,17/10/2019 05:00,3.1,5,,,0,,100,,90,Dry,1000,3,50,0,,,3.1,
Tulloch Bridge,17/10/2019 06:00,3.8,3,0,,0.2,0.2,95,,120,Dry,1000,6,40,0,,,3.1,
Tulloch Bridge,17/10/2019 07:00,3.4,2,,,0,,98,,70,Dry,1000,7,16,0,,,3.2,
Tulloch Bridge,17/10/2019 08:00,6,3,,,0,,91,,340,Dry,1000,2,50,85,,,4.8,
Tulloch Bridge,17/10/2019 09:00,7.7,5,,,0,,86,,340,Dry,1000,7,30,280,,,5.6,
Tulloch Bridge,17/10/2019 10:00,9.4,8,,,0,,78,,160,Dry,1000,3,30,600,,,5.9,
Tulloch Bridge,17/10/2019 11:00,10.6,9,,,0,,72,,160,Dry,999,2,20,1280,,,5.8,
Tulloch Bridge,17/10/2019 12:00,10.4,14,,,0,0,74,,160,Dry,999,0,35,1406,,,6.1,
Tulloch Bridge,17/10/2019 13:00,10.8,12,,,0,,71,,150,Dry,998,5,50,727,,,5.8,
Tulloch Bridge,17/10/2019 14:00,11,9,,,0,,69,,130,Dry,998,7,45,751,,,5.6,
Tulloch Bridge,17/10/2019 15:00,10.1,10,,,0,,77,,130,Rain,998,8,30,465,,,6.3,
Tulloch Bridge,17/10/2019 16:00,10.2,14,,,0,,71,31,150,Dry,998,1,50,411,,,5.3,
Tulloch Bridge,17/10/2019 17:00,9.9,5,,,0,,73,,140,Dry,998,2,50,196,,,5.4,
Tulloch Bridge,17/10/2019 18:00,10,8,,11.6,0,0,72,,140,Dry,998,4,50,5,,,5.3,
Tulloch Bridge,17/10/2019 19:00,9.1,7,,,0,,84,,130,Rain,997,8,17,0,,,6.7,
Tulloch Bridge,17/10/2019 20:00,9,8,,,0.2,,86,,140,Moderate shower,997,8,20,0,,,6.9,
Tulloch Bridge,17/10/2019 21:00,9,8,,,0.2,,84,,130,Rain,997,8,50,0,,,6.6,
Tulloch Bridge,17/10/2019 22:00,8.8,7,,,0.2,,82,,150,Dry,997,7,50,0,,,6,
Tulloch Bridge,17/10/2019 23:00,7.8,0,,,0,,84,,0,Dry,996,7,50,0,,,5.3,
Tulloch Bridge,18/10/2019 00:00,7.7,2,,,0,0.6,89,,160,Light shower,996,8,35,,,,6.1,
Tulloch Bridge,18/10/2019 01:00,8.3,6,,,0,,85,,140,Light rain,996,8,14,0,,,6,
Tulloch Bridge,18/10/2019 02:00,7.3,3,,,0.6,,85,,260,Rain,996,8,50,0,,,5.1,
Tulloch Bridge,18/10/2019 03:00,8.1,7,,,0,,80,,30,Dry,996,8,50,0,,,4.9,
Tulloch Bridge,18/10/2019 04:00,7,3,,,0,,88,,140,Dry,996,8,50,0,,,5.3,
Tulloch Bridge,18/10/2019 05:00,7.5,5,,,0,,87,,130,Light shower,996,8,35,0,,,5.6,
Tulloch Bridge,18/10/2019 06:00,7.3,6,6.3,,0,0.4,92,,100,Rain,995,1,29,0,,,6.1,
Tulloch Bridge,18/10/2019 07:00,6.9,1,,,0,,92,,170,Rain,996,8,21,0,,,5.8,
Tulloch Bridge,18/10/2019 08:00,7.2,3,,,0,,89,,110,Dry,996,7,50,57,,,5.6,
Tulloch Bridge,18/10/2019 09:00,7.8,3,,,0,,86,,20,Dry,996,3,45,291,,,5.7,
Tulloch Bridge,18/10/2019 10:00,8.6,2,,,0,,83,,130,Dry,996,5,50,484,,,6,
Tulloch Bridge,18/10/2019 11:00,9.5,3,,,0,,80,,120,Dry,996,0,45,662,,,6.4,
Tulloch Bridge,18/10/2019 12:00,9.8,3,,,0,0,76,,90,Dry,996,5,23,799,,,5.8,
Tulloch Bridge,18/10/2019 13:00,10.3,3,,,0,,69,,130,Dry,996,6,50,737,,,4.9,
Tulloch Bridge,18/10/2019 14:00,10.6,1,,,0,,68,,10,Dry,995,7,50,655,,,5.1,
Tulloch Bridge,18/10/2019 15:00,9.5,3,,,0.2,,85,,330,Rain,995,8,45,332,,,7.2,
Tulloch Bridge,18/10/2019 16:00,9.2,1,,,0.2,,90,,150,Rain,995,8,6,239,,,7.8,
Tulloch Bridge,18/10/2019 17:00,8.7,1,,,0,,83,,20,Light shower,996,7,45,31,,,6,
Tulloch Bridge,18/10/2019 18:00,7.7,1,,10.8,0.4,0.8,94,,240,Light rain,996,6,30,0,,,6.9,
Tulloch Bridge,18/10/2019 19:00,7.1,3,,,1.2,,92,,130,Moderate rain,997,8,17,0,,,5.9,
Tulloch Bridge,18/10/2019 20:00,6.5,2,,,0,,95,,310,Rain,997,8,50,0,,,5.8,
Tulloch Bridge,18/10/2019 21:00,6.2,1,,,0.4,,97,,180,Moderate shower,997,8,17,0,,,5.9,
Tulloch Bridge,18/10/2019 22:00,6.3,2,,,0.2,,97,,320,Light shower,998,8,40,0,,,6,
Tulloch Bridge,18/10/2019 23:00,6.8,5,,,0.2,,97,,330,Drizzly rain,998,7,50,0,,,6.4,
Tulloch Bridge,19/10/2019 00:00,6.5,0,,,0,2,97,,0,Rain,998,7,50,,,,6.2,
Tulloch Bridge,19/10/2019 01:00,6.5,2,,,0,,99,,60,Dry,998,8,50,0,,,6.4,
Tulloch Bridge,19/10/2019 02:00,6.6,3,,,0,,100,,10,Light drizzle,999,8,12,0,,,6.6,
Tulloch Bridge,19/10/2019 03:00,7,1,,,0.6,,99,,170,Moderate shower,999,8,6,0,,,6.9,
Tulloch Bridge,19/10/2019 04:00,7.1,1,,,0.6,,99,,220,Rain,1000,8,50,0,,,7,
Tulloch Bridge,19/10/2019 05:00,8.5,6,,,0,,85,,20,Rain,1000,8,50,0,,,6.2,
Tulloch Bridge,19/10/2019 06:00,7.8,5,6.1,,0,1,86,,30,Dry,1001,7,50,0,,,5.7,
Tulloch Bridge,19/10/2019 07:00,7.6,10,,,0,,86,,350,Rain,1002,7,30,0,,,5.5,
Tulloch Bridge,19/10/2019 08:00,7.6,10,,,0,,78,,10,Rain,1002,6,40,47,,,4.1,
Tulloch Bridge,19/10/2019 09:00,7.7,14,,,0,,76,,330,Dry,1003,2,45,197,,,3.8,
Tulloch Bridge,19/10/2019 10:00,8.4,7,,,0,,75,,340,Dry,1004,7,45,405,,,4.4,
Tulloch Bridge,19/10/2019 11:00,8.8,10,,,0,,76,,340,Dry,1004,7,45,517,,,4.9,
Tulloch Bridge,19/10/2019 12:00,8.5,9,,,0,0,78,,350,Dry,1004,8,50,244,,,5,
Tulloch Bridge,19/10/2019 13:00,9.4,6,,,0,,69,,40,Dry,1004,8,40,405,,,4.1,
Tulloch Bridge,19/10/2019 14:00,9,8,,,0,,83,,350,Rain,1004,7,50,334,,,6.3,
Tulloch Bridge,19/10/2019 15:00,8.4,7,,,0.2,,89,,360,Rain,1005,8,50,222,,,6.7,
Tulloch Bridge,19/10/2019 16:00,8.4,8,,,0,,79,,340,Dry,1006,7,50,193,,,5,
Tulloch Bridge,19/10/2019 17:00,8.3,8,,,0,,81,,350,Rain,1006,8,50,134,,,5.3,
Tulloch Bridge,19/10/2019 18:00,7.5,9,,9.6,0,0.2,90,,330,Moderate shower,1007,7,10,0,,,6,
Tulloch Bridge,19/10/2019 19:00,7.3,8,,,0,,91,,340,Light shower,1008,8,7,0,,,6,
Tulloch Bridge,19/10/2019 20:00,7.1,10,,,0.2,,91,,340,Light rain,1008,8,19,0,,,5.8,
Tulloch Bridge,19/10/2019 21:00,7.3,18,,,0,,84,29,340,Light shower,1009,8,29,0,,,4.9,
Tulloch Bridge,19/10/2019 22:00,7,14,,,0,,82,29,360,Rain,1010,8,35,0,,,4.2,
Tulloch Bridge,19/10/2019 23:00,7,13,,,0,,76,,350,Dry,1011,8,35,0,,,3.1,
Tulloch Bridge,20/10/2019 00:00,6.2,13,,,0,0.2,79,,350,Rain,1012,8,35,,,,2.9,
Tulloch Bridge,20/10/2019 01:00,5.9,16,,,0.2,,77,,350,Rain,1012,8,35,0,,,2.2,
Tulloch Bridge,20/10/2019 02:00,5.6,9,,,0,,78,,340,Dry,1013,5,45,0,,,2.1,
Tulloch Bridge,20/10/2019 03:00,5.4,16,,,0,,75,,340,Rain,1013,7,50,0,,,1.5,
Tulloch Bridge,20/10/2019 04:00,4.7,13,,,0,,84,,340,Light shower,1014,8,40,0,,,2.3,
Tulloch Bridge,20/10/2019 05:00,5.3,13,,,0.2,,82,,330,Rain,1015,8,45,0,,,2.6,
Tulloch Bridge,20/10/2019 06:00,5.2,12,4.5,,0,0.4,82,,320,Rain,1016,7,40,0,,,2.5,
Tulloch Bridge,20/10/2019 07:00,4.8,8,,,0.2,,86,,340,Rain,1016,8,35,0,,,2.8,
Tulloch Bridge,20/10/2019 08:00,5.5,10,,,0,,81,,350,Rain,1017,8,40,14,,,2.6,
Tulloch Bridge,20/10/2019 09:00,5.4,10,,,0,,84,,350,Rain,1018,7,50,78,,,3,
Tulloch Bridge,20/10/2019 10:00,5.9,10,,,0,,79,,350,Light shower,1019,7,35,160,,,2.6,
Tulloch Bridge,20/10/2019 11:00,6.6,12,,,0,,76,,350,Rain,1019,8,35,444,,,2.7,
Tulloch Bridge,20/10/2019 12:00,6.9,8,,,0,0.2,75,,360,Dry,1020,7,50,485,,,2.8,
Tulloch Bridge,20/10/2019 13:00,6.8,14,,,0,,75,,350,Drizzly rain,1020,7,40,553,,,2.8,
Tulloch Bridge,20/10/2019 14:00,7,9,,,0,,71,,10,Drizzly rain,1021,7,45,505,,,2.3,
Tulloch Bridge,20/10/2019 15:00,7.7,8,,,0,,65,,350,Rain,1021,5,40,751,,,1.7,
Tulloch Bridge,20/10/2019 16:00,7.4,10,,,0,,68,,360,Dry,1022,8,50,347,,,1.9,
Tulloch Bridge,20/10/2019 17:00,5.9,7,,,0,,78,,360,Dry,1023,6,50,116,,,2.5,
Tulloch Bridge,20/10/2019 18:00,5.7,2,,8.4,0,0,81,,360,Dry,1023,7,50,5,,,2.7,
Tulloch Bridge,20/10/2019 19:00,4.3,5,,,0,,84,,20,Dry,1024,4,50,0,,,1.9,
Tulloch Bridge,20/10/2019 20:00,1.5,1,,,0,,92,,230,Dry,1024,4,50,0,,,0.4,
Tulloch Bridge,20/10/2019 21:00,1.2,1,,,0,,97,,170,Dry,1025,4,45,0,,,0.9,
Tulloch Bridge,20/10/2019 22:00,1.7,2,,,0,,99,,40,Dry,1026,7,50,0,,,1.6,
Tulloch Bridge,20/10/2019 23:00,0.5,1,,,0,,95,,150,Dry,1026,4,30,0,,,-0.1,
Tulloch Bridge,21/10/2019 00:00,-0.5,1,,,0,0,98,,140,Dry,1026,1,35,,,,-0.7,
Tulloch Bridge,21/10/2019 01:00,-3.1,1,,,0,,96,,110,Dry,1027,1,29,0,,,-3.6,
Tulloch Bridge,21/10/2019 02:00,-3.8,0,,,0,,97,,0,Dry,1027,0,30,0,,,-4.2,
Tulloch Bridge,21/10/2019 03:00,-3.8,1,,,0,,97,,150,Fog,1027,0,40,0,,,-4.1,
Tulloch Bridge,21/10/2019 04:00,-3.6,2,,,0,,98,,130,Dry,1027,0,50,0,,,-3.8,
Tulloch Bridge,21/10/2019 05:00,-4.2,1,,,0,,97,,140,Dry,1026,0,50,0,,,-4.5,
Tulloch Bridge,21/10/2019 06:00,-4.7,1,-5.3,,0,0,97,,130,Dry,1026,0,45,0,,,-5,
Tulloch Bridge,21/10/2019 07:00,-5.4,1,,,0,,95,,360,Dry,1026,0,50,0,,,-6,
Tulloch Bridge,21/10/2019 08:00,-4,0,,,0,,97,,0,Dry,1026,0,30,51,,,-4.3,
Tulloch Bridge,21/10/2019 09:00,-0.9,1,,,0,,100,,30,Dry,1026,0,50,288,,,-0.9,
Tulloch Bridge,21/10/2019 10:00,2.6,2,,,0.2,,96,,300,Dry,1025,0,50,892,,,2.1,
Tulloch Bridge,21/10/2019 11:00,4.7,5,,,0,,82,,320,Dry,1024,1,50,895,,,1.9,
Tulloch Bridge,21/10/2019 12:00,6.6,6,,,0,0.2,69,,200,Dry,1024,7,35,1192,,,1.4,
Tulloch Bridge,21/10/2019 13:00,7,5,,,0,,72,,290,Dry,1023,8,50,713,,,2.4,
Tulloch Bridge,21/10/2019 14:00,7.3,8,,,0,,69,,220,Dry,1022,8,50,579,,,2,
Tulloch Bridge,21/10/2019 15:00,7.8,10,,,0,,67,,220,Dry,1022,7,45,686,,,2.2,
Tulloch Bridge,21/10/2019 16:00,7.3,9,,,0,,69,,220,Dry,1021,7,50,492,,,2.1,
Tulloch Bridge,21/10/2019 17:00,7,9,,,0,,73,,230,Dry,1021,8,50,133,,,2.6,
Tulloch Bridge,21/10/2019 18:00,7.4,12,,8.1,0,0,72,,220,Dry,1020,8,50,4,,,2.8,
Tulloch Bridge,21/10/2019 19:00,7.3,9,,,0,,75,,220,Dry,1020,8,50,0,,,3.3,
Tulloch Bridge,21/10/2019 20:00,7.6,12,,,0,,76,,220,Dry,1019,7,50,0,,,3.7,
Tulloch Bridge,21/10/2019 21:00,8.2,13,,,0,,74,,240,Dry,1019,8,50,0,,,4,
Tulloch Bridge,21/10/2019 22:00,8.5,10,,,0,,74,,220,Dry,1018,8,50,0,,,4.2,
Tulloch Bridge,21/10/2019 23:00,8.9,13,,,0,,73,,210,Dry,1018,8,50,0,,,4.4,
Tulloch Bridge,22/10/2019 00:00,8.6,9,,,0,0,78,,230,Dry,1017,4,28,,,,5,
Tulloch Bridge,22/10/2019 01:00,8.6,10,,,0,,82,,230,Dry,1016,8,50,0,,,5.8,
Tulloch Bridge,22/10/2019 02:00,8.5,7,,,0,,85,,250,Dry,1016,8,50,0,,,6.2,
Tulloch Bridge,22/10/2019 03:00,8.9,8,,,0,,80,,230,Dry,1015,8,50,0,,,5.8,
Tulloch Bridge,22/10/2019 04:00,9,13,,,0,,81,,220,Dry,1015,8,45,0,,,6,
Tulloch Bridge,22/10/2019 05:00,9.4,13,,,0,,79,,220,Rain,1014,8,50,0,,,6.1,
Tulloch Bridge,22/10/2019 06:00,9.5,12,7.1,,0,0,82,,220,Dry,1014,8,30,0,,,6.6,
Tulloch Bridge,22/10/2019 07:00,9.4,12,,,0,,86,,220,Dry,1014,7,13,0,,,7.2,
Tulloch Bridge,22/10/2019 08:00,9.5,10,,,0,,88,,220,Dry,1015,8,13,18,,,7.7,
Tulloch Bridge,22/10/2019 09:00,9.4,13,,,0,,91,,210,Dry,1015,8,8,119,,,8.1,
Tulloch Bridge,22/10/2019 10:00,9.7,13,,,0,,89,,210,Rain,1014,8,50,186,,,8,
Tulloch Bridge,22/10/2019 11:00,9.9,14,,,0,,88,,200,Rain,1014,8,30,291,,,8.1,
Tulloch Bridge,22/10/2019 12:00,9.9,15,,,0,0,90,,200,Light shower,1014,8,11,395,,,8.4,
Tulloch Bridge,22/10/2019 13:00,10.2,14,,,0,,87,29,210,Rain,1014,8,9,527,,,8.2,
Tulloch Bridge,22/10/2019 14:00,10.5,16,,,0,,84,,210,Rain,1013,8,27,491,,,8,
Tulloch Bridge,22/10/2019 15:00,10.1,15,,,0,,86,,200,Light shower,1013,8,27,497,,,8,
Tulloch Bridge,22/10/2019 16:00,9.8,15,,,0,,87,,210,Rain,1013,7,12,207,,,7.9,
Tulloch Bridge,22/10/2019 17:00,9.8,10,,,0,,85,,220,Rain,1013,8,16,55,,,7.5,
Tulloch Bridge,22/10/2019 18:00,10.1,12,,10.9,0,0,76,,220,Rain,1013,7,35,0,,,6.1,
Tulloch Bridge,22/10/2019 19:00,10,13,,,0,,75,,210,Dry,1012,7,35,0,,,5.9,
Tulloch Bridge,22/10/2019 20:00,9.4,14,,,0,,80,,200,Rain,1013,8,35,0,,,6.3,
Tulloch Bridge,22/10/2019 21:00,9.1,15,,,0,,84,,200,Dry,1012,7,24,0,,,6.7,
Tulloch Bridge,22/10/2019 22:00,9.2,10,,,0,,86,,200,Drizzly rain,1012,8,13,0,,,7.1,
Tulloch Bridge,22/10/2019 23:00,9.2,9,,,0,,87,,210,Rain,1012,8,17,0,,,7.2,
Tulloch Bridge,23/10/2019 00:00,9.4,9,,,0,0,83,,230,Dry,1011,7,45,,,,6.8,
Tulloch Bridge,23/10/2019 01:00,9.5,8,,,0,,80,,190,Dry,1011,7,50,0,,,6.3,
Tulloch Bridge,23/10/2019 02:00,9.2,14,,,0,,84,,200,Dry,1010,8,50,0,,,6.7,
Tulloch Bridge,23/10/2019 03:00,9.4,10,,,0,,84,,140,Dry,1010,8,12,0,,,6.9,
Tulloch Bridge,23/10/2019 04:00,9.6,12,,,0,,83,,180,Drizzly rain,1009,1,30,0,,,6.9,
Tulloch Bridge,23/10/2019 05:00,8.9,7,,,0,,89,,240,Rain,1008,7,9,0,,,7.2,
Tulloch Bridge,23/10/2019 06:00,8.3,7,8.3,,0.4,0.4,96,,180,Light drizzle,1008,6,3,0,,,7.8,
Tulloch Bridge,23/10/2019 07:00,8.4,14,,,0.6,,95,,200,Light drizzle,1008,8,9,0,,,7.7,
Tulloch Bridge,23/10/2019 08:00,8.7,13,,,0,,90,,190,Light shower,1007,7,14,7,,,7.2,
Tulloch Bridge,23/10/2019 09:00,9.1,7,,,0,,87,,230,Light shower,1007,8,18,43,,,7.1,
Tulloch Bridge,23/10/2019 10:00,9.7,5,,,0,,86,,250,Rain,1006,8,40,145,,,7.5,
Tulloch Bridge,23/10/2019 11:00,10.3,7,,,0,,77,,220,Dry,1006,8,40,299,,,6.6,
Tulloch Bridge,23/10/2019 12:00,11.1,6,,,0,0.6,74,,240,Rain,1004,5,35,352,,,6.7,
Tulloch Bridge,23/10/2019 13:00,11.7,10,,,0,,71,,210,Dry,1003,7,50,607,,,6.8,
Tulloch Bridge,23/10/2019 14:00,11.6,13,,,0,,71,,200,Dry,1002,7,50,502,,,6.7,
Tulloch Bridge,23/10/2019 15:00,11.2,12,,,0,,72,,180,Dry,1002,7,50,225,,,6.5,
Tulloch Bridge,23/10/2019 16:00,9.8,12,,,0,,86,,180,Light shower,1001,8,23,120,,,7.6,
Tulloch Bridge,23/10/2019 17:00,9.7,13,,,0.2,,89,,180,Light rain,1000,5,20,46,,,8.1,
Tulloch Bridge,23/10/2019 18:00,9.9,12,,11.8,0.4,0.4,89,,190,Light rain,1000,8,17,0,,,8.3,
Tulloch Bridge,23/10/2019 19:00,9.9,10,,,1,,91,,180,Moderate rain,999,8,12,0,,,8.6,
Tulloch Bridge,23/10/2019 20:00,9.9,15,,,1.2,,89,,200,Moderate rain,998,8,11,0,,,8.3,
Tulloch Bridge,23/10/2019 21:00,9.6,17,,,1.6,,92,,190,Moderate rain,998,8,5,0,,,8.4,
Tulloch Bridge,23/10/2019 22:00,9.4,9,,,1.8,,96,,180,Light rain,998,8,7,0,,,8.9,
Tulloch Bridge,23/10/2019 23:00,9.8,12,,,0.2,,92,,190,Rain,998,8,45,0,,,8.7,
Tulloch Bridge,24/10/2019 00:00,10,14,,,0.2,6,87,,190,Rain,997,6,50,,,,8.1,
Tulloch Bridge,24/10/2019 01:00,9.9,10,,,0,,85,,190,Rain,997,7,50,0,,,7.6,
Tulloch Bridge,24/10/2019 02:00,9.9,14,,,0,,85,,200,Rain,997,1,18,0,,,7.5,
Tulloch Bridge,24/10/2019 03:00,10,9,,,0,,75,,220,Rain,996,,50,0,,,5.8,
Tulloch Bridge,24/10/2019 04:00,9.4,6,,,0,,78,,270,Dry,996,0,50,0,,,5.9,
Tulloch Bridge,24/10/2019 05:00,9.4,8,,,0,,79,,200,Rain,997,6,50,0,,,6.1,
Tulloch Bridge,24/10/2019 06:00,8.7,7,8.6,,0,0,80,,280,Rain,997,2,50,0,,,5.5,
Tulloch Bridge,24/10/2019 07:00,8.4,12,,,0,,85,,190,Drizzly rain,997,4,21,0,,,6.1,
Tulloch Bridge,24/10/2019 08:00,7.8,7,,,0.4,,92,,160,Light shower,996,8,21,12,,,6.7,
Tulloch Bridge,24/10/2019 09:00,9.3,17,,,0.2,,80,,200,Rain,996,5,50,136,,,6.2,
Tulloch Bridge,24/10/2019 10:00,9.3,12,,,0,,85,,210,Light shower,997,7,12,307,,,7,
Tulloch Bridge,24/10/2019 11:00,9.5,12,,,0,,80,,220,Rain,997,8,40,660,,,6.4,
Tulloch Bridge,24/10/2019 12:00,9,12,,,0,0.6,73,,290,Rain,998,8,50,993,,,4.6,
Tulloch Bridge,24/10/2019 13:00,7.5,8,,,0.2,,82,,240,Drizzly rain,999,8,22,682,,,4.7,
Tulloch Bridge,24/10/2019 14:00,7.7,9,,,0,,73,,280,Rain,1000,5,45,669,,,3.3,
Tulloch Bridge,24/10/2019 15:00,6.8,6,,,0,,71,,240,Dry,1000,3,40,508,,,2.1,
Tulloch Bridge,24/10/2019 16:00,6.1,8,,,0,,74,,200,Dry,1001,1,45,225,,,1.9,
Tulloch Bridge,24/10/2019 17:00,3.9,3,,,0,,77,,330,Dry,1002,0,50,82,,,0.3,
Tulloch Bridge,24/10/2019 18:00,2.7,2,,10.4,0,0.2,89,,100,Dry,1003,0,45,0,,,1.1,
Tulloch Bridge,24/10/2019 19:00,3.6,5,,,0,,81,,230,Dry,1003,,50,0,,,0.7,
Tulloch Bridge,24/10/2019 20:00,3.3,3,,,0,,89,,210,Moderate precip.,1003,7,40,0,,,1.7,
Tulloch Bridge,24/10/2019 21:00,3.4,7,,,0.2,,90,,300,Rain,1004,8,50,0,,,2,
Tulloch Bridge,24/10/2019 22:00,2.9,3,,,0,,87,,310,Precipitation,1005,6,50,0,,,1,
Tulloch Bridge,24/10/2019 23:00,3.5,6,,,0,,66,,230,Dry,1004,5,50,0,,,-2.2,
Tulloch Bridge,25/10/2019 00:00,1.1,5,,,0.8,1,92,,290,Rain,1006,7,40,,,,0,
Tulloch Bridge,25/10/2019 01:00,1.5,8,,,0,,86,,300,Light sleet,1006,5,45,0,,,-0.5,
Tulloch Bridge,25/10/2019 02:00,1.1,8,,,0,,91,,330,Snow,1005,8,50,0,,,-0.1,
Tulloch Bridge,25/10/2019 03:00,2.3,13,,,0.2,,87,,210,Drizzly rain,1005,1,50,0,,,0.4,
Tulloch Bridge,25/10/2019 04:00,2,13,,,0.6,,89,,220,Moderate rain,1005,8,7,0,,,0.5,
Tulloch Bridge,25/10/2019 05:00,3.3,13,,,0.2,,84,,220,Light rain,1005,5,24,0,,,0.9,
Tulloch Bridge,25/10/2019 06:00,3.5,13,0.6,,0.4,1,81,,220,Light shower,1005,7,40,0,,,0.7,
Tulloch Bridge,25/10/2019 07:00,4.3,12,,,0,,62,,210,Rain,1005,4,50,0,,,-2.3,
Tulloch Bridge,25/10/2019 08:00,4.3,15,,,0,,66,,220,Dry,1006,3,45,29,,,-1.3,
Tulloch Bridge,25/10/2019 09:00,5,13,,,0,,66,33,220,Dry,1006,1,35,252,,,-0.8,
Tulloch Bridge,25/10/2019 10:00,5.9,15,,,0,,57,,210,Rain,1006,4,50,513,,,-1.8,
Tulloch Bridge,25/10/2019 11:00,6.8,14,,,0,,57,,220,Dry,1006,2,50,873,,,-1,
Tulloch Bridge,25/10/2019 12:00,7.1,12,,,0,0,61,,200,Dry,1005,7,50,1051,,,0.1,
Tulloch Bridge,25/10/2019 13:00,6.9,12,,,0,,61,,200,Dry,1005,7,40,826,,,0.1,
Tulloch Bridge,25/10/2019 14:00,5.2,9,,,0,,75,,200,Rain,1004,6,45,496,,,1.3,
Tulloch Bridge,25/10/2019 15:00,6,9,,,0,,67,,200,Dry,1004,7,50,357,,,0.4,
Tulloch Bridge,25/10/2019 16:00,5.2,7,,,0,,74,,230,Light shower,1004,8,45,168,,,1,
Tulloch Bridge,25/10/2019 17:00,4.2,8,,,0,,81,,220,Rain,1003,1,50,59,,,1.3,
Tulloch Bridge,25/10/2019 18:00,4.5,12,,7.5,0,0,79,,220,Dry,1003,6,50,0,,,1.2,
Tulloch Bridge,25/10/2019 19:00,4.2,10,,,0,,76,,230,Dry,1003,0,50,0,,,0.5,
Tulloch Bridge,25/10/2019 20:00,4.8,7,,,0,,67,,220,Dry,1003,5,50,0,,,-0.8,
Tulloch Bridge,25/10/2019 21:00,3.4,7,,,0,,71,,270,Rain,1003,1,50,0,,,-1.2,
Tulloch Bridge,25/10/2019 22:00,2.4,3,,,0,,76,,330,Dry,1003,6,50,0,,,-1.3,
Tulloch Bridge,25/10/2019 23:00,1.5,3,,,0,,80,,320,Dry,1003,6,50,0,,,-1.5,
Tulloch Bridge,26/10/2019 00:00,3.1,6,,,0,0,75,,310,Dry,1003,7,45,,,,-0.8,
Tulloch Bridge,26/10/2019 01:00,2.5,7,,,0,,86,,310,Light shower,1003,7,40,0,,,0.4,
Tulloch Bridge,26/10/2019 02:00,4.6,10,,,0,,65,,230,Rain,1003,5,50,0,,,-1.2,
Tulloch Bridge,26/10/2019 03:00,3.3,5,,,0.2,,83,,280,Light shower,1003,7,45,0,,,0.7,
Tulloch Bridge,26/10/2019 04:00,1.3,2,,,0,,89,,300,Rain,1003,5,40,0,,,-0.3,
Tulloch Bridge,26/10/2019 05:00,4.1,7,,,0,,76,,220,Dry,1003,7,40,0,,,0.4,
Tulloch Bridge,26/10/2019 06:00,3.7,9,0.8,,0,0.2,81,,220,Rain,1003,6,50,0,,,0.9,
Tulloch Bridge,26/10/2019 07:00,3.3,5,,,0,,86,,310,Moderate shower,1003,7,11,0,,,1.2,
Tulloch Bridge,26/10/2019 08:00,4.4,8,,,0.2,,76,,220,Rain,1003,7,45,19,,,0.7,
Tulloch Bridge,26/10/2019 09:00,5.3,5,,,0,,70,,260,Dry,1003,7,45,205,,,0.4,
Tulloch Bridge,26/10/2019 10:00,5.7,7,,,0,,68,,240,Light shower,1003,7,45,373,,,0.3,
Tulloch Bridge,26/10/2019 11:00,7.4,9,,,0,,65,,240,Rain,1003,8,40,510,,,1.4,
Tulloch Bridge,26/10/2019 12:00,7.5,10,,,0,0.2,66,,200,Rain,1003,6,50,1052,,,1.7,
Tulloch Bridge,26/10/2019 13:00,6.3,7,,,0.2,,79,,210,Rain,1003,1,40,1091,,,3.1,
Tulloch Bridge,26/10/2019 14:00,5.8,10,,,0,,74,,220,Drizzly rain,1003,8,30,988,,,1.7,
Tulloch Bridge,26/10/2019 15:00,5.5,8,,,0.6,,75,,230,Rain,1003,8,50,487,,,1.5,
Tulloch Bridge,26/10/2019 16:00,5.6,6,,,0,,74,,260,Rain,1003,7,50,333,,,1.4,
Tulloch Bridge,26/10/2019 17:00,3.5,6,,,0.6,,91,,300,Light shower,1004,8,15,28,,,2.2,
Tulloch Bridge,26/10/2019 18:00,2.8,5,,8.5,1.2,2.8,93,,300,Rain,1005,1,50,0,,,1.9,
Tulloch Bridge,26/10/2019 19:00,3,3,,,2,,92,,290,Moderate rain,1005,8,13,0,,,1.9,
Tulloch Bridge,26/10/2019 20:00,4,8,,,1.8,,90,,210,Moderate rain,1006,8,21,0,,,2.6,
Tulloch Bridge,26/10/2019 21:00,4.8,9,,,0.4,,83,,210,Rain,1006,8,50,0,,,2.3,
Tulloch Bridge,26/10/2019 22:00,5,6,,,0,,88,,280,Moderate shower,1007,8,11,0,,,3.2,
Tulloch Bridge,26/10/2019 23:00,4.6,10,,,0.6,,92,,300,Moderate shower,1008,7,5,0,,,3.5,
Tulloch Bridge,27/10/2019 00:00,4.3,6,,,0.4,5,93,,330,Light shower,1009,8,26,,,,3.3,
Tulloch Bridge,27/10/2019 01:00,5.4,7,,,0.2,,80,,230,Light shower,1009,1,45,0,,,2.3,
Tulloch Bridge,27/10/2019 02:00,5.8,7,,,0,,77,,260,Light shower,1011,3,21,0,,,2.1,
Tulloch Bridge,27/10/2019 03:00,5.2,10,,,0.6,,82,,280,Rain,1011,7,50,0,,,2.5,
Tulloch Bridge,27/10/2019 04:00,5.4,13,,,0,,78,29,300,Rain,1012,5,45,0,,,1.9,
Tulloch Bridge,27/10/2019 05:00,5.8,12,,,0,,73,30,300,Dry,1013,7,40,0,,,1.5,
Tulloch Bridge,27/10/2019 06:00,4.4,9,2.7,,0,1,89,,320,Dry,1014,1,40,0,,,2.9,
Tulloch Bridge,27/10/2019 07:00,5,8,,,0.6,,87,,290,Rain,1015,8,50,0,,,3.1,
Tulloch Bridge,27/10/2019 08:00,5.3,5,,,0,,88,,300,Drizzly rain,1016,7,45,24,,,3.6,
Tulloch Bridge,27/10/2019 09:00,5.8,10,,,0.2,,85,,300,Moderate shower,1018,8,12,188,,,3.6,
Tulloch Bridge,27/10/2019 10:00,6.2,14,,,0.2,,81,,280,Rain,1018,6,18,456,,,3.3,
Tulloch Bridge,27/10/2019 11:00,6.7,10,,,0,,82,,280,Rain,1020,6,35,841,,,4,
Tulloch Bridge,27/10/2019 12:00,7.6,9,,,0,1,81,,300,Rain,1020,3,23,1173,,,4.7,
Tulloch Bridge,27/10/2019 13:00,6.6,10,,,0,,80,,270,Light shower,1021,4,26,837,,,3.5,
Tulloch Bridge,27/10/2019 14:00,6.7,10,,,0,,76,,270,Rain,1022,1,45,732,,,2.8,
Tulloch Bridge,27/10/2019 15:00,6.2,7,,,0,,80,,270,Rain,1022,3,45,349,,,3.1,
Tulloch Bridge,27/10/2019 16:00,5.6,10,,,0.2,,80,,270,Rain,1024,7,45,207,,,2.6,
Tulloch Bridge,27/10/2019 17:00,5.6,9,,,0,,77,,270,Dry,1024,8,19,88,,,1.9,
Tulloch Bridge,27/10/2019 18:00,4.3,3,,8,0,0,84,,200,Rain,1025,7,50,0,,,1.9,
Tulloch Bridge,27/10/2019 19:00,4.6,8,,,0,,80,,280,Dry,1026,5,50,0,,,1.5,
Tulloch Bridge,27/10/2019 20:00,4.2,5,,,0,,83,,300,Dry,1026,7,45,0,,,1.6,
Tulloch Bridge,27/10/2019 21:00,3.9,3,,,0,,84,,330,Dry,1027,8,45,0,,,1.6,
Tulloch Bridge,27/10/2019 22:00,2.7,6,,,0,,89,,10,Dry,1027,8,45,0,,,1.2,
Tulloch Bridge,27/10/2019 23:00,3.8,5,,,0,,89,,310,Drizzly rain,1028,8,9,0,,,2.2,
Tulloch Bridge,28/10/2019 00:00,1.1,1,,,0.2,0.2,93,,280,Rain,1028,3,35,,,,0.1,
Tulloch Bridge,28/10/2019 01:00,0,2,,,0,,97,,90,Dry,1029,2,24,0,,,-0.3,
Tulloch Bridge,28/10/2019 02:00,-1.5,2,,,0,,97,,350,Dry,1029,3,50,0,,,-1.8,
Tulloch Bridge,28/10/2019 03:00,-2.1,2,,,0,,98,,170,Dry,1029,1,30,0,,,-2.3,
Tulloch Bridge,28/10/2019 04:00,-2.3,2,,,0,,99,,180,Dry,1029,4,30,0,,,-2.4,
Tulloch Bridge,28/10/2019 05:00,-2.6,1,,,0,,98,,310,Dry,1029,2,45,0,,,-2.8,
Tulloch Bridge,28/10/2019 06:00,-0.9,0,-2.9,,0,0,100,,0,Dry,1029,7,45,0,,,-0.9,
Tulloch Bridge,28/10/2019 07:00,-0.8,1,,,0,,100,,190,Dry,1030,7,22,0,,,-0.8,
Tulloch Bridge,28/10/2019 08:00,0,1,,,0,,100,,120,Dry,1030,7,27,16,,,0,
Tulloch Bridge,28/10/2019 09:00,0.8,1,,,0,,100,,340,Dry,1030,8,40,120,,,0.8,
Tulloch Bridge,28/10/2019 10:00,2.7,1,,,0,,100,,120,Dry,1030,8,40,285,,,2.7,
Tulloch Bridge,28/10/2019 11:00,4.7,3,,,0,,86,,340,Dry,1030,8,45,652,,,2.7,
Tulloch Bridge,28/10/2019 12:00,5.5,3,,,0,0,82,,320,Rain,1030,8,35,591,,,2.7,
Tulloch Bridge,28/10/2019 13:00,6.5,5,,,0,,68,,290,Dry,1030,8,40,1047,,,1.1,
Tulloch Bridge,28/10/2019 14:00,6.3,5,,,0,,70,,290,Dry,1030,8,50,533,,,1.3,
Tulloch Bridge,28/10/2019 15:00,6.4,5,,,0,,71,,330,Dry,1030,8,50,354,,,1.7,
Tulloch Bridge,28/10/2019 16:00,5.3,7,,,0,,75,,350,Rain,1030,5,50,236,,,1.3,
Tulloch Bridge,28/10/2019 17:00,2.3,1,,,0,,88,,20,Light shower,1031,6,30,47,,,0.6,
Tulloch Bridge,28/10/2019 18:00,2.1,2,,7.3,0,0,95,,290,Rain,1031,7,50,0,,,1.4,
Tulloch Bridge,28/10/2019 19:00,1.4,1,,,0,,90,,60,Dry,1032,7,45,0,,,0,
Tulloch Bridge,28/10/2019 20:00,1.1,3,,,0,,93,,250,Dry,1032,2,50,0,,,0.2,
Tulloch Bridge,28/10/2019 21:00,0.9,1,,,0,,96,,200,Dry,1032,6,50,0,,,0.4,
Tulloch Bridge,28/10/2019 22:00,0.4,3,,,0,,98,,180,Dry,1032,7,45,0,,,0.2,
Tulloch Bridge,28/10/2019 23:00,1.1,1,,,0,,99,,30,Dry,1033,8,50,0,,,1,
Tulloch Bridge,29/10/2019 00:00,-0.7,1,,,0,0,95,,20,Dry,1033,2,50,,,,-1.3,
Tulloch Bridge,29/10/2019 01:00,-0.3,3,,,0,,98,,360,Dry,1033,1,50,0,,,-0.5,
Tulloch Bridge,29/10/2019 02:00,-1.1,2,,,0,,98,,330,Dry,1033,6,45,0,,,-1.3,
Tulloch Bridge,29/10/2019 03:00,-0.1,1,,,0,,100,,290,Dry,1033,8,50,0,,,-0.1,
Tulloch Bridge,29/10/2019 04:00,0.7,2,,,0,,100,,350,Dry,1033,8,50,0,,,0.7,
Tulloch Bridge,29/10/2019 05:00,0.2,1,,,0,,99,,160,Dry,1033,7,50,0,,,0.1,
Tulloch Bridge,29/10/2019 06:00,0.6,1,-1.6,,0,0,100,,90,Dry,1033,8,45,0,,,0.6,
Tulloch Bridge,29/10/2019 07:00,0.6,2,,,0,,100,,160,Dry,1034,8,35,0,,,0.6,
Tulloch Bridge,29/10/2019 08:00,0.9,1,,,0,,100,,120,Dry,1034,8,35,19,,,0.9,
Tulloch Bridge,29/10/2019 09:00,0.9,1,,,0.2,,98,,140,Dry,1034,3,45,134,,,0.7,
Tulloch Bridge,29/10/2019 10:00,4.8,2,,,0,,86,,20,Dry,1034,2,35,617,,,2.7,
Tulloch Bridge,29/10/2019 11:00,5.4,5,,,0,,82,,60,Dry,1034,4,26,907,,,2.6,
Tulloch Bridge,29/10/2019 12:00,6,2,,,0,0.2,76,,90,Dry,1034,0,40,619,,,2.1,
Tulloch Bridge,29/10/2019 13:00,6.7,2,,,0,,72,,100,Dry,1033,7,45,684,,,2.2,
Tulloch Bridge,29/10/2019 14:00,7,3,,,0,,69,,110,Dry,1033,8,50,506,,,1.9,
Tulloch Bridge,29/10/2019 15:00,7.3,2,,,0,,70,,130,Dry,1033,8,40,493,,,2.2,
Tulloch Bridge,29/10/2019 16:00,6.2,3,,,0,,76,,150,Dry,1033,8,50,259,,,2.3,
Tulloch Bridge,29/10/2019 17:00,3.9,2,,,0,,85,,160,Dry,1033,6,50,44,,,1.7,
Tulloch Bridge,29/10/2019 18:00,2.7,5,,7.8,0,0,88,,160,Dry,1034,0,50,0,,,1,
Tulloch Bridge,29/10/2019 19:00,3.2,5,,,0,,89,,160,Dry,1034,4,50,0,,,1.6,
Tulloch Bridge,29/10/2019 20:00,0.6,1,,,0,,92,,160,Dry,1034,5,50,0,,,-0.5,
Tulloch Bridge,29/10/2019 21:00,1.7,1,,,0,,95,,250,Dry,1034,7,50,0,,,1.1,
Tulloch Bridge,29/10/2019 22:00,3.4,2,,,0,,90,,60,Dry,1034,8,50,1,,,2,
Tulloch Bridge,29/10/2019 23:00,2.8,2,,,0,,91,,310,Dry,1034,7,50,0,,,1.6,
Tulloch Bridge,30/10/2019 00:00,0.8,1,,,0,0,91,,140,Rain,1034,3,40,,,,-0.4,
Tulloch Bridge,30/10/2019 01:00,-1.7,1,,,0,,95,,170,Dry,1034,0,50,0,,,-2.3,
Tulloch Bridge,30/10/2019 02:00,0.8,3,,,0,,100,,330,Dry,1033,7,50,0,,,0.8,
Tulloch Bridge,30/10/2019 03:00,0.4,1,,,0,,99,,350,Dry,1033,8,50,0,,,0.3,
Tulloch Bridge,30/10/2019 04:00,1,1,,,0,,100,,190,Dry,1032,8,45,0,,,1,
Tulloch Bridge,30/10/2019 05:00,1.7,1,,,0,,100,,320,Dry,1032,8,50,0,,,1.7,
Tulloch Bridge,30/10/2019 06:00,2.1,2,-1.7,,0,0,95,,320,Dry,1032,8,50,0,,,1.5,
Tulloch Bridge,30/10/2019 07:00,1.7,2,,,0,,92,,10,Dry,1032,7,50,0,,,0.6,
Tulloch Bridge,30/10/2019 08:00,2.2,2,,,0,,93,,50,Dry,1032,7,50,15,,,1.2,
Tulloch Bridge,30/10/2019 09:00,2.6,3,,,0,,95,,350,Rain,1032,8,50,130,,,1.9,
Tulloch Bridge,30/10/2019 10:00,4.1,3,,,0,,92,,70,Dry,1031,2,50,337,,,3,
Tulloch Bridge,30/10/2019 11:00,5.8,6,,,0,,79,,120,Dry,1031,8,50,504,,,2.6,
Tulloch Bridge,30/10/2019 12:00,6.4,6,,,0,0,75,,140,Dry,1030,7,50,430,,,2.4,
Tulloch Bridge,30/10/2019 13:00,6.3,8,,,0,,77,,150,Dry,1030,8,12,462,,,2.6,
Tulloch Bridge,30/10/2019 14:00,6.5,9,,,0,,71,,140,Dry,1029,7,50,363,,,1.7,
Tulloch Bridge,30/10/2019 15:00,6.5,7,,,0,,72,,130,Dry,1029,8,45,229,,,1.9,
Tulloch Bridge,30/10/2019 16:00,6.1,9,,,0,,72,,150,Dry,1028,6,50,191,,,1.6,
Tulloch Bridge,30/10/2019 17:00,5.5,8,,,0,,71,,140,Dry,1028,7,45,58,,,0.7,
Tulloch Bridge,30/10/2019 18:00,5.6,8,,6.6,0,0,70,,140,Dry,1028,7,50,0,,,0.7,
Tulloch Bridge,30/10/2019 19:00,5.4,8,,,0,,69,,140,Dry,1028,4,50,0,,,0.2,
Tulloch Bridge,30/10/2019 20:00,5.6,8,,,0,,70,,130,Dry,1028,7,50,0,,,0.7,
Tulloch Bridge,30/10/2019 21:00,5.6,7,,,0,,68,,140,Dry,1027,7,50,0,,,0.3,
Tulloch Bridge,30/10/2019 22:00,5.3,6,,,0,,68,,130,Dry,1027,7,50,0,,,0,
Tulloch Bridge,30/10/2019 23:00,5.1,7,,,0,,69,,120,Dry,1027,7,50,0,,,0,
Tulloch Bridge,31/10/2019 00:00,5.8,6,,,0,0,68,,130,Dry,1026,7,50,,,,0.4,
Tain Range,01/09/2019 00:00,10.1,12,,,0,0.4,92,,240,Rain,1004,6,50,,,,8.9,
Tain Range,01/09/2019 01:00,9.6,10,,,0,,90,,220,Dry,1004,7,50,0,,,8.1,
Tain Range,01/09/2019 02:00,10,9,,,0,,91,,210,Dry,1004,8,50,0,,,8.7,
Tain Range,01/09/2019 03:00,10,7,,,0,,91,,250,Rain,1005,7,40,0,,,8.7,
Tain Range,01/09/2019 04:00,10.1,12,,,1.6,,88,,270,Moderate rain,1006,7,9,0,,,8.3,
Tain Range,01/09/2019 05:00,10.3,12,,,0.8,,91,,270,Moderate shower,1006,1,35,0,,,9,
Tain Range,01/09/2019 06:00,10.2,12,9.2,,0.8,3.6,95,,280,Moderate shower,1007,8,9,9,,,9.5,
Tain Range,01/09/2019 07:00,10.3,13,,,0.4,,94,,280,Rain,1008,1,20,127,,,9.4,
Tain Range,01/09/2019 08:00,10.3,15,,,0.4,,90,,290,Rain,1009,8,9,317,,,8.8,
Tain Range,01/09/2019 09:00,11.2,12,,,0,,88,,290,Rain,1010,7,30,601,,,9.3,
Tain Range,01/09/2019 10:00,10.7,20,,,0,,88,30,290,Light shower,1011,8,21,905,,,8.9,
Tain Range,01/09/2019 11:00,12.1,16,,,0.2,,79,,300,Rain,1011,2,45,1102,,,8.6,
Tain Range,01/09/2019 12:00,13.3,15,,,0,1,76,,290,Dry,1012,3,45,1416,,,9.3,
Tain Range,01/09/2019 13:00,12.2,13,,,0,,73,,290,Rain,1013,4,50,1797,,,7.7,
Tain Range,01/09/2019 14:00,12.5,14,,,0,,73,,330,Rain,1013,1,50,2249,,,7.8,
Tain Range,01/09/2019 15:00,12.5,17,,,0,,72,,290,Dry,1014,1,50,1301,,,7.7,
Tain Range,01/09/2019 16:00,12.1,15,,,0,,70,,290,Dry,1014,4,40,784,,,6.9,
Tain Range,01/09/2019 17:00,11,9,,,0,,78,,300,Light shower,1014,7,45,390,,,7.5,
Tain Range,01/09/2019 18:00,12.1,10,,14.8,0,0,74,,300,Rain,1015,7,50,442,,,7.7,
Tain Range,01/09/2019 19:00,10.2,7,,,0,,78,,300,Dry,1016,1,50,303,,,6.7,
Tain Range,01/09/2019 20:00,6.6,2,,,0,,92,,270,Dry,1016,0,50,14,,,5.4,
Tain Range,01/09/2019 21:00,6.2,5,,,0,,92,,250,Dry,1016,3,50,0,,,5,
Tain Range,01/09/2019 22:00,5.1,7,,,0,,90,,240,Dry,1016,1,50,0,,,3.7,
Tain Range,01/09/2019 23:00,4.4,6,,,0,,94,,230,Dry,1016,0,40,0,,,3.6,
Tain Range,02/09/2019 00:00,5.9,7,,,0,0,95,,220,Dry,1016,,50,,,,5.2,
Tain Range,02/09/2019 01:00,6.2,5,,,0,,94,,230,Dry,1016,,50,0,,,5.4,
Tain Range,02/09/2019 02:00,6.6,3,,,0,,97,,210,Dry,1016,6,50,0,,,6.2,
Tain Range,02/09/2019 03:00,6.9,7,,,0,,93,,210,Dry,1015,6,45,0,,,6,
Tain Range,02/09/2019 04:00,6.3,8,,,0,,93,,220,Dry,1014,5,50,0,,,5.3,
Tain Range,02/09/2019 05:00,7.6,9,,,0,,92,,220,Dry,1014,8,50,0,,,6.5,
Tain Range,02/09/2019 06:00,8,6,3.7,,0,0,92,,180,Dry,1014,8,50,23,,,6.8,
Tain Range,02/09/2019 07:00,9.6,6,,,0,,90,,230,Dry,1013,8,7,173,,,8.1,
Tain Range,02/09/2019 08:00,10,9,,,0.2,,89,,220,Light shower,1012,7,40,174,,,8.4,
Tain Range,02/09/2019 09:00,10.8,6,,,0.4,,93,,160,Light rain,1011,7,29,207,,,9.8,
Tain Range,02/09/2019 10:00,11.5,9,,,0,,89,,170,Light shower,1010,8,50,322,,,9.9,
Tain Range,02/09/2019 11:00,12.8,14,,,0,,85,,190,Rain,1008,7,35,473,,,10.4,
Tain Range,02/09/2019 12:00,14.2,10,,,0.2,0.8,88,,200,Rain,1007,8,50,428,,,12.4,
Tain Range,02/09/2019 13:00,14.7,10,,,0.2,,91,,210,Moderate shower,1007,1,12,823,,,13.4,
Tain Range,02/09/2019 14:00,16.1,14,,,0.2,,86,,220,Rain,1006,8,50,1252,,,13.8,
Tain Range,02/09/2019 15:00,15.4,15,,,0,,90,,230,Light shower,1006,7,27,635,,,13.9,
Tain Range,02/09/2019 16:00,15.5,12,,,0.4,,92,,230,Rain,1006,8,50,561,,,14.3,
Tain Range,02/09/2019 17:00,15.5,8,,,0,,90,,260,Drizzly rain,1006,8,5,388,,,14,
Tain Range,02/09/2019 18:00,14.8,5,,16.3,1.4,2.2,94,,230,Rain,1006,1,50,179,,,14,
Tain Range,02/09/2019 19:00,14.6,8,,,0.2,,91,,300,Rain,1007,5,40,50,,,13.3,
Tain Range,02/09/2019 20:00,14.1,9,,,0,,90,,270,Dry,1008,5,50,4,,,12.6,
Tain Range,02/09/2019 21:00,14.7,13,,,0,,86,,300,Dry,1009,5,50,0,,,12.5,
Tain Range,02/09/2019 22:00,12.1,8,,,1.8,,95,,350,Light drizzle,1010,1,8,0,,,11.4,
Tain Range,02/09/2019 23:00,11.4,6,,,0,,94,,330,Rain,1011,1,45,0,,,10.5,
Tain Range,03/09/2019 00:00,11.1,10,,,0,2,94,,320,Dry,1012,1,50,,,,10.2,
Tain Range,03/09/2019 01:00,11.1,5,,,0,,94,,310,Dry,1013,7,50,0,,,10.3,
Tain Range,03/09/2019 02:00,10.9,6,,,0,,92,,300,Dry,1013,8,50,0,,,9.8,
Tain Range,03/09/2019 03:00,10.2,5,,,0,,94,,230,Dry,1014,8,45,0,,,9.4,
Tain Range,03/09/2019 04:00,10.2,6,,,0,,95,,210,Dry,1014,7,45,0,,,9.5,
Tain Range,03/09/2019 05:00,10.4,3,,,0,,96,,200,Dry,1014,8,50,0,,,9.8,
Tain Range,03/09/2019 06:00,10.6,3,10.1,,0,0,96,,220,Dry,1014,7,40,22,,,10.1,
Tain Range,03/09/2019 07:00,11.3,3,,,0,,95,,220,Dry,1014,7,50,153,,,10.6,
Tain Range,03/09/2019 08:00,12.1,2,,,0,,90,,250,Dry,1015,8,50,264,,,10.6,
Tain Range,03/09/2019 09:00,13.2,3,,,0,,80,,110,Dry,1014,7,50,803,,,9.9,
Tain Range,03/09/2019 10:00,12.8,3,,,0,,79,,120,Dry,1014,7,50,470,,,9.3,
Tain Range,03/09/2019 11:00,13.3,5,,,0,,78,,110,Dry,1013,8,50,682,,,9.7,
Tain Range,03/09/2019 12:00,13.8,5,,,0,0,82,,80,Dry,1013,8,50,740,,,10.9,
Tain Range,03/09/2019 13:00,13.7,7,,,0,,88,,50,Dry,1012,8,50,720,,,11.8,
Tain Range,03/09/2019 14:00,14.2,6,,,0,,89,,70,Dry,1011,4,50,644,,,12.5,
Tain Range,03/09/2019 15:00,13.4,10,,,0.2,,94,,50,Rain,1010,8,19,410,,,12.6,
Tain Range,03/09/2019 16:00,13.9,6,,,0,,96,,50,Dry,1010,7,50,411,,,13.3,
Tain Range,03/09/2019 17:00,14,3,,,0,,95,,350,Dry,1008,8,14,250,,,13.3,
Tain Range,03/09/2019 18:00,14.3,2,,14.5,0,0.2,94,,280,Dry,1008,8,45,188,,,13.5,
Tain Range,03/09/2019 19:00,14.2,5,,,0,,95,,230,Dry,1007,8,40,152,,,13.5,
Tain Range,03/09/2019 20:00,13.6,8,,,0,,96,,230,Rain,1007,6,50,19,,,13,
Tain Range,03/09/2019 21:00,13.3,2,,,0,,93,,20,Dry,1007,6,30,0,,,12.2,
Tain Range,03/09/2019 22:00,11.5,3,,,0,,87,,300,Dry,1007,1,50,0,,,9.5,
Tain Range,03/09/2019 23:00,9.9,5,,,0,,91,,240,Dry,1007,,40,0,,,8.6,
Tain Range,04/09/2019 00:00,8.4,7,,,0,0,90,,210,Dry,1007,0,40,,,,7,
Tain Range,04/09/2019 01:00,10,8,,,0,,92,,210,Dry,1006,6,45,0,,,8.8,
Tain Range,04/09/2019 02:00,8.8,6,,,0,,91,,220,Dry,1006,4,29,0,,,7.5,
Tain Range,04/09/2019 03:00,8.1,9,,,0,,92,,220,Dry,1005,1,26,0,,,7,
Tain Range,04/09/2019 04:00,7,7,,,0,,92,,210,Dry,1005,5,22,0,,,5.9,
Tain Range,04/09/2019 05:00,6.9,9,,,0,,93,,200,Rain,1004,3,24,0,,,6,
Tain Range,04/09/2019 06:00,6.1,5,5.1,,0,0,97,,220,Dry,1004,1,21,23,,,5.7,
Tain Range,04/09/2019 07:00,9.8,5,,,0,,94,,200,Dry,1004,1,30,341,,,8.9,
Tain Range,04/09/2019 08:00,11.4,8,,,0,,82,,200,Dry,1003,1,30,587,,,8.6,
Tain Range,04/09/2019 09:00,12.1,6,,,0,,74,,200,Dry,1004,0,45,833,,,7.8,
Tain Range,04/09/2019 10:00,13,1,,,0,,72,,240,Dry,1004,0,30,987,,,8.2,
Tain Range,04/09/2019 11:00,13.6,3,,,0,,72,,270,Dry,1004,0,45,1107,,,8.8,
Tain Range,04/09/2019 12:00,15,5,,,0,0,66,,310,Dry,1005,3,22,2201,,,8.9,
Tain Range,04/09/2019 13:00,14.4,13,,,0,,69,,360,Rain,1006,7,45,1761,,,8.9,
Tain Range,04/09/2019 14:00,12.3,18,,,0.4,,89,29,320,Moderate shower,1007,8,45,1141,,,10.6,
Tain Range,04/09/2019 15:00,11.5,28,,,0,,82,40,340,Rain,1009,2,30,980,,,8.6,
Tain Range,04/09/2019 16:00,11,26,,,0,,78,41,340,Dry,1011,3,13,1324,,,7.5,
Tain Range,04/09/2019 17:00,10.7,25,,,0,,79,38,330,Rain,1012,7,45,740,,,7.3,
Tain Range,04/09/2019 18:00,9.9,18,,16.2,0,0.4,86,35,320,Rain,1014,3,40,537,,,7.8,
Tain Range,04/09/2019 19:00,9.1,18,,,0.2,,86,,310,Dry,1016,1,35,175,,,7,
Tain Range,04/09/2019 20:00,8.6,16,,,0,,89,29,310,Rain,1017,7,30,2,,,6.9,
Tain Range,04/09/2019 21:00,8.9,17,,,0,,83,30,320,Dry,1017,7,22,0,,,6.3,
Tain Range,04/09/2019 22:00,8.5,18,,,0,,76,30,310,Dry,1018,1,23,0,,,4.6,
Tain Range,04/09/2019 23:00,8.4,14,,,0,,80,,300,Haze,1019,2,9,0,,,5.3,
Tain Range,05/09/2019 00:00,8.9,18,,,0,0.2,77,,300,Dry,1019,,30,,,,5.1,
Tain Range,05/09/2019 01:00,9,12,,,0,,75,,300,Dry,1019,,35,0,,,4.9,
Tain Range,05/09/2019 02:00,8.6,10,,,0,,75,,290,Dry,1019,6,45,0,,,4.6,
Tain Range,05/09/2019 03:00,7,7,,,0,,82,,250,Dry,1019,4,45,0,,,4.2,
Tain Range,05/09/2019 04:00,6.3,9,,,0,,87,,250,Dry,1019,1,45,0,,,4.3,
Tain Range,05/09/2019 05:00,8.2,8,,,0,,90,,270,Rain,1019,7,50,0,,,6.7,
Tain Range,05/09/2019 06:00,7.9,8,4.8,,0,0,89,,210,Rain,1019,7,50,11,,,6.3,
Tain Range,05/09/2019 07:00,10.5,10,,,0,,76,,280,Dry,1018,8,40,117,,,6.5,
Tain Range,05/09/2019 08:00,10.3,10,,,0,,81,,230,Dry,1018,8,45,154,,,7.2,
Tain Range,05/09/2019 09:00,10.8,13,,,0,,85,,230,Rain,1018,8,50,358,,,8.5,
Tain Range,05/09/2019 10:00,11.9,7,,,0,,86,,250,Dry,1018,3,29,345,,,9.8,
Tain Range,05/09/2019 11:00,13.6,16,,,0,,79,,290,Rain,1018,7,50,779,,,10.1,
Tain Range,05/09/2019 12:00,14,17,,,0,0,74,,300,Dry,1018,8,40,1079,,,9.6,
Tain Range,05/09/2019 13:00,14.8,16,,,0,,76,30,290,Rain,1018,7,17,1153,,,10.7,
Tain Range,05/09/2019 14:00,15.3,14,,,0,,68,,310,Dry,1017,8,17,1014,,,9.6,
Tain Range,05/09/2019 15:00,15.3,14,,,0,,60,,270,Dry,1017,7,30,847,,,7.8,
Tain Range,05/09/2019 16:00,15.1,8,,,0,,63,,260,Dry,1017,4,27,483,,,8.3,
Tain Range,05/09/2019 17:00,15,15,,,0,,62,,250,Dry,1016,7,29,671,,,7.9,
Tain Range,05/09/2019 18:00,13.9,16,,15.9,0,0,66,,240,Dry,1015,,23,254,,,7.8,
Tain Range,05/09/2019 19:00,12.7,10,,,0,,73,,230,Drizzly rain,1015,7,21,27,,,8,
Tain Range,05/09/2019 20:00,11.8,17,,,0,,75,,230,Light shower,1014,1,25,0,,,7.7,
Tain Range,05/09/2019 21:00,10.9,7,,,0,,82,,230,Rain,1012,7,45,0,,,8,
Tain Range,05/09/2019 22:00,10.9,10,,,0,,83,,210,Dry,1010,8,45,0,,,8.2,
Tain Range,05/09/2019 23:00,10.9,10,,,0,,83,,230,Dry,1008,7,50,0,,,8.2,
Tain Range,06/09/2019 00:00,11,17,,,0,0,91,,220,Light shower,1007,7,45,,,,9.6,
Tain Range,06/09/2019 01:00,10.6,10,,,1.2,,96,,220,Light rain,1007,8,40,0,,,10,
Tain Range,06/09/2019 02:00,11.2,7,,,1.4,,96,,230,Light shower,1007,8,29,0,,,10.7,
Tain Range,06/09/2019 03:00,11.9,13,,,0.2,,86,,290,Rain,1007,7,30,0,,,9.7,
Tain Range,06/09/2019 04:00,11,10,,,0,,84,32,280,Moderate shower,1007,3,14,0,,,8.5,
Tain Range,06/09/2019 05:00,10.2,9,,,0,,83,29,270,Rain,1007,8,24,0,,,7.5,
Tain Range,06/09/2019 06:00,10,8,9.3,,0,3,88,,220,Dry,1007,8,27,1,,,8.2,
Tain Range,06/09/2019 07:00,10.6,8,,,0,,83,,210,Rain,1008,8,20,82,,,7.9,
Tain Range,06/09/2019 08:00,11.3,6,,,0,,84,,240,Dry,1008,8,45,359,,,8.7,
Tain Range,06/09/2019 09:00,11.9,13,,,0,,81,,280,Dry,1009,7,50,745,,,8.9,
Tain Range,06/09/2019 10:00,13.6,10,,,0,,73,,270,Dry,1009,6,45,972,,,9,
Tain Range,06/09/2019 11:00,14,15,,,0,,72,,280,Rain,1009,6,50,1288,,,9.2,
Tain Range,06/09/2019 12:00,13.5,20,,,0,0,77,29,290,Dry,1010,7,23,1847,,,9.7,
Tain Range,06/09/2019 13:00,14.3,16,,,0,,73,,300,Rain,1010,7,9,1614,,,9.7,
Tain Range,06/09/2019 14:00,14,16,,,0.6,,84,32,290,Rain,1011,6,45,1311,,,11.4,
Tain Range,06/09/2019 15:00,14.6,23,,,0,,78,31,300,Rain,1011,5,40,1097,,,10.9,
Tain Range,06/09/2019 16:00,13.1,22,,,0,,84,33,320,Rain,1013,3,50,1198,,,10.6,
Tain Range,06/09/2019 17:00,13.4,23,,,0,,76,33,310,Dry,1014,1,45,662,,,9.4,
Tain Range,06/09/2019 18:00,13.1,16,,15.8,0,0.6,77,30,290,Dry,1015,5,35,725,,,9.3,
Tain Range,06/09/2019 19:00,12.2,15,,,0,,81,,310,Dry,1016,1,40,203,,,9.1,
Tain Range,06/09/2019 20:00,11.4,8,,,0,,87,,310,Dry,1018,7,50,1,,,9.4,
Tain Range,06/09/2019 21:00,10.6,14,,,0,,88,,350,Haze,1019,8,4,0,,,8.7,
Tain Range,06/09/2019 22:00,10.2,10,,,0,,86,,360,Rain,1020,8,40,0,,,8.1,
Tain Range,06/09/2019 23:00,9.8,8,,,0,,81,,340,Dry,1020,8,45,0,,,6.8,
Tain Range,07/09/2019 00:00,9.6,10,,,0,0,78,,350,Dry,1022,8,40,,,,6,
Tain Range,07/09/2019 01:00,9.6,8,,,0,,75,,300,Dry,1022,7,35,0,,,5.5,
Tain Range,07/09/2019 02:00,8.7,6,,,0,,84,,290,Dry,1023,8,40,0,,,6.3,
Tain Range,07/09/2019 03:00,9.3,10,,,0,,78,,300,Dry,1023,7,30,0,,,5.7,
Tain Range,07/09/2019 04:00,8.4,9,,,0,,81,,290,Dry,1024,6,50,0,,,5.4,
Tain Range,07/09/2019 05:00,8.1,8,,,0,,82,,310,Rain,1024,2,50,0,,,5.3,
Tain Range,07/09/2019 06:00,8.6,9,7.7,,0,0,87,,310,Dry,1025,7,18,6,,,6.6,
Tain Range,07/09/2019 07:00,9,9,,,0,,85,,300,Rain,1025,7,50,134,,,6.7,
Tain Range,07/09/2019 08:00,9.9,8,,,0,,84,,290,Dry,1026,8,45,372,,,7.4,
Tain Range,07/09/2019 09:00,10.8,7,,,0,,78,,300,Dry,1026,4,40,1066,,,7.3,
Tain Range,07/09/2019 10:00,11.4,7,,,0,,71,,320,Dry,1027,8,30,788,,,6.5,
Tain Range,07/09/2019 11:00,11.8,6,,,0,,68,,300,Dry,1027,8,50,699,,,6.2,
Tain Range,07/09/2019 12:00,12.3,6,,,0,0,63,,290,Dry,1027,8,50,1132,,,5.6,
Tain Range,07/09/2019 13:00,14.1,6,,,0,,59,,300,Dry,1027,7,35,2031,,,6.3,
Tain Range,07/09/2019 14:00,14.1,6,,,0,,54,,320,Dry,1027,1,35,2446,,,5.1,
Tain Range,07/09/2019 15:00,14.1,5,,,0,,59,,230,Dry,1027,1,30,1919,,,6.3,
Tain Range,07/09/2019 16:00,13.5,9,,,0,,62,,140,Dry,1027,0,35,1572,,,6.6,
Tain Range,07/09/2019 17:00,12.9,8,,,0,,63,,150,Dry,1027,1,50,1065,,,6.1,
Tain Range,07/09/2019 18:00,12,6,,15.1,0,0,69,,130,Dry,1027,1,45,588,,,6.5,
Tain Range,07/09/2019 19:00,9.4,3,,,0,,78,,100,Dry,1027,0,50,143,,,5.8,
Tain Range,07/09/2019 20:00,5.8,2,,,0,,88,,170,Dry,1027,,45,0,,,4.1,
Tain Range,07/09/2019 21:00,5,3,,,0,,93,,280,Dry,1027,0,30,0,,,4.1,
Tain Range,07/09/2019 22:00,4.2,5,,,0,,95,,270,Dry,1027,0,40,0,,,3.6,
Tain Range,07/09/2019 23:00,3.2,3,,,0,,95,,270,Dry,1026,,35,0,,,2.6,
Tain Range,08/09/2019 00:00,2.9,5,,,0,0,97,,260,Dry,1026,,35,,,,2.5,
Tain Range,08/09/2019 01:00,3.1,5,,,0,,98,,290,Dry,1026,,18,0,,,2.9,
Tain Range,08/09/2019 02:00,2.6,5,,,0,,98,,250,Dry,1025,,30,0,,,2.4,
Tain Range,08/09/2019 03:00,2.6,3,,,0,,98,,250,Dry,1025,0,18,0,,,2.4,
Tain Range,08/09/2019 04:00,2.8,3,,,0,,99,,220,Misty,1024,0,6,0,,,2.7,
Tain Range,08/09/2019 05:00,2.3,2,,,0,,99,,220,Fog,1024,,4,0,,,2.2,
Tain Range,08/09/2019 06:00,0.7,2,0.6,,0,0,98,,230,Fog,1024,0,3,14,,,0.5,
Tain Range,08/09/2019 07:00,4.7,2,,,0,,100,,180,Fog,1023,0,35,354,,,4.7,
Tain Range,08/09/2019 08:00,8.2,3,,,0,,100,,220,Dry,1023,,50,661,,,8.2,
Tain Range,08/09/2019 09:00,10.6,8,,,0,,79,,200,Rain,1022,0,35,1130,,,7.2,
Tain Range,08/09/2019 10:00,12.8,8,,,0,,71,,210,Dry,1022,0,50,1609,,,7.8,
Tain Range,08/09/2019 11:00,14.4,10,,,0,,68,,220,Dry,1021,1,40,1927,,,8.6,
Tain Range,08/09/2019 12:00,15.9,9,,,0,0,67,,200,Dry,1020,0,45,2071,,,10,
Tain Range,08/09/2019 13:00,17,8,,,0,,62,,210,Dry,1019,1,28,2292,,,9.7,
Tain Range,08/09/2019 14:00,17.3,6,,,0,,61,,190,Dry,1018,7,50,1786,,,9.8,
Tain Range,08/09/2019 15:00,15.2,13,,,0,,71,,110,Dry,1018,8,35,1408,,,10.1,
Tain Range,08/09/2019 16:00,14.5,9,,,0,,72,,120,Dry,1017,8,35,858,,,9.6,
Tain Range,08/09/2019 17:00,14,6,,,0,,73,,100,Dry,1016,8,50,376,,,9.3,
Tain Range,08/09/2019 18:00,13.6,5,,18,0,0,84,,50,Dry,1016,8,45,132,,,11,
Tain Range,08/09/2019 19:00,12.9,3,,,0,,88,,60,Dry,1015,8,50,53,,,11.1,
Tain Range,08/09/2019 20:00,12.7,1,,,0,,90,,50,Dry,1015,8,30,0,,,11.2,
Tain Range,08/09/2019 21:00,12.4,2,,,0,,94,,310,Dry,1014,7,35,0,,,11.5,
Tain Range,08/09/2019 22:00,12.1,3,,,0,,95,,200,Dry,1013,8,35,0,,,11.4,
Tain Range,08/09/2019 23:00,12.2,2,,,0,,96,,140,Light shower,1013,8,13,0,,,11.6,
Tain Range,09/09/2019 00:00,12.5,3,,,0.4,0.4,95,,170,Moderate rain,1012,3,13,,,,11.8,
Tain Range,09/09/2019 01:00,12.5,3,,,0.4,,96,,130,Light rain,1012,7,18,0,,,12,
Tain Range,09/09/2019 02:00,12.6,5,,,0,,97,,130,Moderate drizzle,1011,8,9,0,,,12.2,
Tain Range,09/09/2019 03:00,12.3,5,,,0.2,,97,,130,Light shower,1010,7,25,0,,,11.9,
Tain Range,09/09/2019 04:00,12.3,5,,,1.2,,98,,140,Moderate rain,1009,8,9,0,,,12,
Tain Range,09/09/2019 05:00,12.2,3,,,2.4,,98,,150,Moderate rain,1009,7,19,0,,,11.9,
Tain Range,09/09/2019 06:00,12,7,11.9,,1.8,5.6,98,,140,Moderate rain,1009,8,16,1,,,11.8,
Tain Range,09/09/2019 07:00,12,8,,,1.4,,98,,150,Moderate rain,1008,8,5,34,,,11.8,
Tain Range,09/09/2019 08:00,12,12,,,1.4,,98,,160,Light drizzle,1008,1,5,120,,,11.7,
Tain Range,09/09/2019 09:00,12.2,12,,,0.2,,98,,160,Light drizzle,1008,8,9,290,,,11.9,
Tain Range,09/09/2019 10:00,12.7,9,,,0.4,,98,,170,Drizzle,1008,8,17,483,,,12.4,
Tain Range,09/09/2019 11:00,13.4,7,,,0,,96,,160,Dry,1009,8,15,529,,,12.9,
Tain Range,09/09/2019 12:00,13.9,10,,,0,3,94,,150,Dry,1009,8,22,1028,,,13.1,
Tain Range,09/09/2019 13:00,14.4,8,,,0,,91,,170,Dry,1009,8,22,1408,,,13,
Tain Range,09/09/2019 14:00,14.8,8,,,0,,88,,190,Rain,1009,8,50,1088,,,13,
Tain Range,09/09/2019 15:00,14.8,10,,,0,,87,,200,Rain,1010,7,40,718,,,12.8,
Tain Range,09/09/2019 16:00,14,7,,,1.2,,94,,230,Rain,1010,4,8,407,,,13.2,
Tain Range,09/09/2019 17:00,13.3,12,,,0.8,,94,,290,Moderate drizzle,1011,8,5,257,,,12.5,
Tain Range,09/09/2019 18:00,12.4,17,,15.1,0.2,3,91,,300,Rain,1012,4,50,131,,,11,
Tain Range,09/09/2019 19:00,12.1,14,,,0,,90,,300,Dry,1013,7,50,49,,,10.6,
Tain Range,09/09/2019 20:00,11.9,17,,,0,,89,,310,Dry,1014,8,50,0,,,10.2,
Tain Range,09/09/2019 21:00,11.5,16,,,0,,87,,310,Dry,1014,8,40,0,,,9.5,
Tain Range,09/09/2019 22:00,11.4,8,,,0,,91,,300,Rain,1015,5,50,0,,,10,
Tain Range,09/09/2019 23:00,11.2,9,,,0,,91,,290,Dry,1015,8,50,0,,,9.8,
Tain Range,10/09/2019 00:00,10.9,8,,,0,0,91,,280,Dry,1016,1,50,,,,9.6,
Tain Range,10/09/2019 01:00,10.6,8,,,0,,90,,290,Dry,1016,7,50,0,,,9.1,
Tain Range,10/09/2019 02:00,10.5,8,,,0,,88,,300,Dry,1016,8,40,0,,,8.7,
Tain Range,10/09/2019 03:00,10.1,7,,,0,,91,,300,Dry,1016,8,40,0,,,8.8,
Tain Range,10/09/2019 04:00,8.6,7,,,0,,92,,290,Dry,1016,7,45,0,,,7.5,
Tain Range,10/09/2019 05:00,7.6,6,,,0,,94,,270,Dry,1016,1,40,0,,,6.7,
Tain Range,10/09/2019 06:00,6,3,5.8,,0,0,96,,260,Fog,1016,0,11,6,,,5.5,
Tain Range,10/09/2019 07:00,7.2,5,,,0,,96,,210,Dry,1017,0,50,249,,,6.7,
Tain Range,10/09/2019 08:00,10.2,7,,,0,,89,,220,Dry,1017,0,45,744,,,8.5,
Tain Range,10/09/2019 09:00,11.8,9,,,0,,79,,210,Dry,1016,0,50,1002,,,8.4,
Tain Range,10/09/2019 10:00,12.5,10,,,0,,78,,220,Dry,1015,0,30,1359,,,8.8,
Tain Range,10/09/2019 11:00,13.4,10,,,0,,71,,200,Dry,1015,0,40,1538,,,8.3,
Tain Range,10/09/2019 12:00,14.7,13,,,0,0,65,,200,Dry,1014,0,35,1791,,,8.4,
Tain Range,10/09/2019 13:00,16,16,,,0,,58,,220,Dry,1013,1,26,1787,,,8,
Tain Range,10/09/2019 14:00,15.8,18,,,0,,57,,200,Dry,1011,0,21,1781,,,7.5,
Tain Range,10/09/2019 15:00,14.2,18,,,0,,63,,220,Dry,1011,7,30,752,,,7.4,
Tain Range,10/09/2019 16:00,14.3,17,,,0,,64,32,210,Dry,1009,8,50,226,,,7.6,
Tain Range,10/09/2019 17:00,13.9,15,,,0,,68,,200,Dry,1007,8,40,116,,,8.1,
Tain Range,10/09/2019 18:00,12.5,12,,16.3,0.2,0.2,77,,210,Moderate shower,1006,8,18,28,,,8.7,
Tain Range,10/09/2019 19:00,11.5,9,,,1.2,,89,,180,Moderate rain,1005,8,16,2,,,9.8,
Tain Range,10/09/2019 20:00,12,12,,,0.4,,89,,190,Light rain,1003,8,50,0,,,10.3,
Tain Range,10/09/2019 21:00,12.5,8,,,0.2,,87,36,180,Light shower,1001,8,50,0,,,10.5,
Tain Range,10/09/2019 22:00,13.5,16,,,0,,85,38,230,Rain,1000,7,40,0,,,11.1,
Tain Range,10/09/2019 23:00,14,22,,,0,,85,37,220,Dry,1000,6,50,0,,,11.6,
Tain Range,11/09/2019 00:00,14.4,3,,,0,2,82,30,210,Dry,999,1,45,,,,11.5,
Tain Range,11/09/2019 01:00,14.6,2,,,0,,84,,240,Dry,998,8,50,0,,,12,
Tain Range,11/09/2019 02:00,15.5,16,,,0,,79,31,240,Dry,998,0,40,0,,,11.9,
Tain Range,11/09/2019 03:00,14.4,14,,,0,,68,,280,Dry,999,0,50,0,,,8.6,
Tain Range,11/09/2019 04:00,13.6,14,,,0,,72,,240,Dry,999,2,50,0,,,8.8,
Tain Range,11/09/2019 05:00,13.8,16,,,0,,77,,220,Dry,999,5,45,0,,,9.9,
Tain Range,11/09/2019 06:00,13.2,15,11.3,,0,0,78,,240,Light shower,1000,7,40,1,,,9.5,
Tain Range,11/09/2019 07:00,12.7,10,,,0,,86,,220,Rain,1001,7,35,97,,,10.5,
Tain Range,11/09/2019 08:00,13.6,13,,,0,,72,,250,Dry,1002,6,30,457,,,8.7,
Tain Range,11/09/2019 09:00,14.3,18,,,0,,68,,260,Dry,1002,3,20,507,,,8.6,
Tain Range,11/09/2019 10:00,15,18,,,0,,70,31,260,Rain,1003,5,35,1330,,,9.6,
Tain Range,11/09/2019 11:00,15.8,23,,,0,,69,31,260,Dry,1004,1,26,1008,,,10.2,
Tain Range,11/09/2019 12:00,15.5,23,,,0,0,64,35,250,Dry,1005,5,40,1668,,,8.9,
Tain Range,11/09/2019 13:00,15.7,17,,,0,,69,31,250,Dry,1006,7,45,1090,,,10.2,
Tain Range,11/09/2019 14:00,16.6,20,,,0,,66,31,250,Dry,1007,3,23,804,,,10.3,
Tain Range,11/09/2019 15:00,16.7,12,,,0,,58,,250,Dry,1007,7,45,885,,,8.5,
Tain Range,11/09/2019 16:00,16.4,20,,,0,,61,33,260,Dry,1008,4,45,889,,,9,
Tain Range,11/09/2019 17:00,15.9,12,,,0,,65,,240,Dry,1009,5,50,960,,,9.5,
Tain Range,11/09/2019 18:00,14.6,13,,17.2,0,0,70,,230,Dry,1009,7,30,457,,,9.4,
Tain Range,11/09/2019 19:00,13.6,12,,,0,,75,,230,Dry,1010,7,45,81,,,9.4,
Tain Range,11/09/2019 20:00,12.6,7,,,0,,81,,200,Dry,1011,1,50,0,,,9.5,
Tain Range,11/09/2019 21:00,12.3,9,,,0,,80,,220,Dry,1012,7,50,0,,,9,
Tain Range,11/09/2019 22:00,12.5,13,,,0,,77,,210,Dry,1012,7,50,0,,,8.7,
Tain Range,11/09/2019 23:00,12.5,13,,,0,,82,,230,Dry,1012,7,50,0,,,9.6,
Tain Range,12/09/2019 00:00,11.4,9,,,0,0,86,,200,Dry,1013,5,45,,,,9.3,
Tain Range,12/09/2019 01:00,12.6,14,,,0,,77,,240,Dry,1013,7,28,0,,,8.7,
Tain Range,12/09/2019 02:00,12,15,,,0,,80,,240,Dry,1013,2,50,0,,,8.8,
Tain Range,12/09/2019 03:00,11.9,9,,,0,,83,,230,Dry,1013,7,50,0,,,9.2,
Tain Range,12/09/2019 04:00,11.8,6,,,0,,86,,200,Dry,1013,2,50,0,,,9.7,
Tain Range,12/09/2019 05:00,11.7,1,,,0,,85,,220,Dry,1014,1,50,0,,,9.4,
Tain Range,12/09/2019 06:00,11.4,8,10.3,,0,0,86,,220,Dry,1014,1,50,1,,,9.3,
Tain Range,12/09/2019 07:00,11.7,7,,,0,,84,,200,Dry,1014,2,50,83,,,9.2,
Tain Range,12/09/2019 08:00,12.5,10,,,0,,82,,210,Dry,1014,1,22,284,,,9.6,
Tain Range,12/09/2019 09:00,12.9,13,,,0,,81,,220,Dry,1015,2,50,439,,,9.9,
Tain Range,12/09/2019 10:00,13.5,10,,,0,,82,,240,Dry,1015,6,45,712,,,10.6,
Tain Range,12/09/2019 11:00,14.7,10,,,0,,75,,240,Dry,1016,1,40,897,,,10.5,
Tain Range,12/09/2019 12:00,15.3,14,,,0.2,0.2,73,,280,Rain,1016,6,30,1203,,,10.6,
Tain Range,12/09/2019 13:00,15.3,16,,,0,,65,,290,Dry,1017,1,30,1204,,,8.9,
Tain Range,12/09/2019 14:00,15.8,22,,,0,,60,,300,Dry,1018,5,35,1826,,,8.1,
Tain Range,12/09/2019 15:00,14.2,23,,,0,,63,33,290,Dry,1019,6,45,1455,,,7.4,
Tain Range,12/09/2019 16:00,14.8,18,,,0,,63,30,290,Dry,1019,1,26,1400,,,8,
Tain Range,12/09/2019 17:00,14.3,18,,,0,,56,30,290,Dry,1020,0,30,988,,,5.8,
Tain Range,12/09/2019 18:00,13.3,13,,16.4,0,0,66,,290,Dry,1021,5,20,379,,,7.3,
Tain Range,12/09/2019 19:00,10.5,9,,,0,,70,,260,Dry,1022,1,40,112,,,5.4,
Tain Range,12/09/2019 20:00,9.1,7,,,0,,78,,250,Dry,1022,4,30,0,,,5.6,
Tain Range,12/09/2019 21:00,9,6,,,0,,80,,250,Dry,1023,3,50,0,,,5.9,
Tain Range,12/09/2019 22:00,11.2,12,,,0,,68,,270,Dry,1024,6,30,0,,,5.6,
Tain Range,12/09/2019 23:00,10.6,9,,,0,,75,,240,Dry,1024,7,45,0,,,6.5,
Tain Range,13/09/2019 00:00,8.9,7,,,0,0,79,,250,Rain,1025,3,50,,,,5.6,
Tain Range,13/09/2019 01:00,7.2,7,,,0,,84,,250,Dry,1026,0,50,0,,,4.8,
Tain Range,13/09/2019 02:00,8.5,12,,,0,,84,,240,Dry,1026,1,50,0,,,6,
Tain Range,13/09/2019 03:00,8.1,7,,,0,,81,,260,Dry,1026,0,50,0,,,5.1,
Tain Range,13/09/2019 04:00,9.3,12,,,0,,77,,240,Dry,1027,,45,0,,,5.5,
Tain Range,13/09/2019 05:00,7.5,6,,,0,,81,,220,Dry,1027,0,40,0,,,4.6,
Tain Range,13/09/2019 06:00,8.4,13,6.4,,0,0,85,,220,Dry,1028,0,40,0,,,6.1,
Tain Range,13/09/2019 07:00,9.5,14,,,0,,82,,220,Dry,1028,0,35,170,,,6.7,
Tain Range,13/09/2019 08:00,12,18,,,0,,72,,220,Dry,1029,4,28,661,,,7.2,
Tain Range,13/09/2019 09:00,13.4,15,,,0,,73,,230,Dry,1029,7,30,895,,,8.8,
Tain Range,13/09/2019 10:00,14.3,18,,,0,,66,29,240,Dry,1030,5,35,1271,,,8.2,
Tain Range,13/09/2019 11:00,14.5,18,,,0,,63,32,240,Dry,1030,2,40,1551,,,7.6,
Tain Range,13/09/2019 12:00,14.9,18,,,0,0,57,32,260,Dry,1030,4,26,1359,,,6.6,
Tain Range,13/09/2019 13:00,15.5,22,,,0,,55,32,270,Dry,1031,6,35,1413,,,6.7,
Tain Range,13/09/2019 14:00,16.3,20,,,0,,57,33,270,Dry,1031,1,30,2036,,,7.8,
Tain Range,13/09/2019 15:00,16.4,18,,,0,,57,31,250,Dry,1031,1,40,2008,,,8,
Tain Range,13/09/2019 16:00,14.8,21,,,0,,58,36,270,Dry,1031,7,35,1197,,,6.8,
Tain Range,13/09/2019 17:00,13.5,17,,,0,,69,,240,Dry,1031,7,30,623,,,8,
Tain Range,13/09/2019 18:00,13.3,16,,17,0,0,68,,240,Dry,1031,7,40,245,,,7.7,
Tain Range,13/09/2019 19:00,12.3,15,,,0,,74,,220,Dry,1031,2,35,53,,,8,
Tain Range,13/09/2019 20:00,11.9,15,,,0,,77,,220,Dry,1031,7,35,0,,,8.1,
Tain Range,13/09/2019 21:00,11.6,15,,,0,,81,,220,Dry,1031,5,45,0,,,8.6,
Tain Range,13/09/2019 22:00,11.1,8,,,0,,83,,220,Dry,1031,7,45,0,,,8.5,
Tain Range,13/09/2019 23:00,11.6,14,,,0,,80,,230,Dry,1031,7,45,0,,,8.4,
Tain Range,14/09/2019 00:00,11.7,13,,,0,0,80,,210,Dry,1030,7,50,,,,8.4,
Tain Range,14/09/2019 01:00,10.5,2,,,0,,83,,340,Dry,1030,2,30,0,,,7.8,
Tain Range,14/09/2019 02:00,11.2,10,,,0,,82,,230,Dry,1028,5,35,0,,,8.3,
Tain Range,14/09/2019 03:00,12.2,21,,,0,,75,31,240,Dry,1027,7,40,0,,,8,
Tain Range,14/09/2019 04:00,12,16,,,0,,75,,220,Dry,1026,8,45,0,,,7.8,
Tain Range,14/09/2019 05:00,12.5,12,,,0,,77,,220,Dry,1024,,30,0,,,8.7,
Tain Range,14/09/2019 06:00,12.6,10,10.2,,0,0,76,,210,Rain,1023,,50,0,,,8.5,
Tain Range,14/09/2019 07:00,13.5,23,,,0,,65,40,220,Dry,1021,8,50,23,,,7.1,
Tain Range,14/09/2019 08:00,13.2,21,,,0,,71,37,230,Dry,1020,7,50,83,,,8.2,
Tain Range,14/09/2019 09:00,13,25,,,0,,77,43,220,Dry,1019,2,50,246,,,9.2,
Tain Range,14/09/2019 10:00,13.4,24,,,0,,78,37,210,Dry,1017,7,45,400,,,9.8,
Tain Range,14/09/2019 11:00,14.1,25,,,0,,79,36,210,Dry,1016,8,45,321,,,10.6,
Tain Range,14/09/2019 12:00,14.5,22,,,0,0,81,35,200,Dry,1015,8,16,341,,,11.3,
Tain Range,14/09/2019 13:00,14.9,22,,,0,,83,35,220,Haze,1014,8,11,477,,,12.2,
Tain Range,14/09/2019 14:00,16.6,24,,,0,,75,37,250,Dry,1013,8,45,686,,,12.3,
Tain Range,14/09/2019 15:00,17.3,21,,,0,,74,35,250,Rain,1012,6,35,581,,,12.7,
Tain Range,14/09/2019 16:00,17.4,18,,,0,,73,38,250,Dry,1011,7,45,494,,,12.7,
Tain Range,14/09/2019 17:00,17.1,25,,,0,,74,44,270,Dry,1011,1,40,334,,,12.5,
Tain Range,14/09/2019 18:00,15,17,,17.8,0.2,0.2,86,35,280,Light shower,1012,7,19,123,,,12.7,
Tain Range,14/09/2019 19:00,12.2,25,,,0.2,,76,41,280,Light rain,1013,7,16,14,,,8.2,
Tain Range,14/09/2019 20:00,12.4,25,,,0,,74,40,260,Light shower,1013,8,23,0,,,8,
Tain Range,14/09/2019 21:00,12.8,22,,,0,,64,31,270,Rain,1013,8,23,0,,,6.3,
Tain Range,14/09/2019 22:00,12.6,24,,,0,,63,36,270,Dry,1013,3,25,0,,,5.9,
Tain Range,14/09/2019 23:00,12.2,18,,,0,,70,31,260,Dry,1013,6,24,0,,,6.9,
Tain Range,15/09/2019 00:00,11.5,20,,,0,0.2,63,37,260,Dry,1013,,16,,,,4.8,
Tain Range,15/09/2019 01:00,11.4,22,,,0,,64,30,250,Dry,1013,3,19,0,,,4.9,
Tain Range,15/09/2019 02:00,11.6,23,,,0,,63,38,260,Dry,1014,7,27,0,,,5,
Tain Range,15/09/2019 03:00,11,21,,,0,,58,32,260,Dry,1014,6,18,0,,,3.3,
Tain Range,15/09/2019 04:00,10.8,22,,,0,,58,38,260,Dry,1014,1,16,0,,,3.1,
Tain Range,15/09/2019 05:00,10.6,18,,,0,,58,33,260,Dry,1015,3,17,0,,,2.9,
Tain Range,15/09/2019 06:00,11,21,10.4,,0,0,62,32,270,Dry,1015,0,19,0,,,4.2,
Tain Range,15/09/2019 07:00,11.2,24,,,0,,59,43,270,Dry,1015,,16,74,,,3.7,
Tain Range,15/09/2019 08:00,11.6,25,,,0,,61,45,280,Dry,1016,1,14,265,,,4.4,
Tain Range,15/09/2019 09:00,11.8,17,,,0,,59,32,290,Dry,1018,6,17,413,,,4.2,
Tain Range,15/09/2019 10:00,12.6,31,,,0,,59,44,290,Dry,1018,2,13,695,,,4.9,
Tain Range,15/09/2019 11:00,13.5,32,,,0,,54,46,280,Dry,1018,1,11,1766,,,4.5,
Tain Range,15/09/2019 12:00,12.1,24,,,0,0,70,44,300,Dry,1019,4,17,1489,,,7,
Tain Range,15/09/2019 13:00,12.4,22,,,0,,68,36,280,Dry,1020,7,17,1193,,,6.7,
Tain Range,15/09/2019 14:00,12.8,21,,,0,,56,30,290,Dry,1020,7,30,1252,,,4.5,
Tain Range,15/09/2019 15:00,12.7,18,,,0,,58,31,290,Dry,1020,7,20,926,,,4.9,
Tain Range,15/09/2019 16:00,13.2,13,,,0,,63,,290,Rain,1020,3,35,681,,,6.4,
Tain Range,15/09/2019 17:00,12.5,14,,,0,,63,,290,Dry,1020,6,24,878,,,5.8,
Tain Range,15/09/2019 18:00,11.4,14,,14.2,0,0,62,,270,Dry,1020,5,30,321,,,4.5,
Tain Range,15/09/2019 19:00,8.2,5,,,0,,69,,220,Dry,1020,0,40,62,,,3,
Tain Range,15/09/2019 20:00,8.8,8,,,0,,69,,270,Rain,1020,6,35,0,,,3.6,
Tain Range,15/09/2019 21:00,8.8,5,,,0,,81,,260,Light shower,1021,7,21,0,,,5.9,
Tain Range,15/09/2019 22:00,6.2,7,,,0,,80,,250,Rain,1021,1,30,0,,,3.1,
Tain Range,15/09/2019 23:00,6.6,3,,,0,,90,,270,Dry,1020,0,40,0,,,5.1,
Tain Range,16/09/2019 00:00,6.9,2,,,0,0,88,,240,Dry,1020,2,40,,,,5.1,
Tain Range,16/09/2019 01:00,4.9,2,,,0,,87,,280,Dry,1020,0,30,0,,,3,
Tain Range,16/09/2019 02:00,7.9,5,,,0,,81,,220,Dry,1020,5,50,0,,,5,
Tain Range,16/09/2019 03:00,9.6,13,,,0,,70,,260,Dry,1019,7,35,0,,,4.5,
Tain Range,16/09/2019 04:00,9.2,10,,,0,,74,,240,Dry,1019,5,40,0,,,5,
Tain Range,16/09/2019 05:00,8.6,13,,,0,,78,,230,Dry,1019,6,40,0,,,5,
Tain Range,16/09/2019 06:00,8.6,14,4.9,,0,0,79,,220,Dry,1018,2,45,0,,,5.3,
Tain Range,16/09/2019 07:00,8.6,5,,,0,,82,,230,Dry,1019,2,40,126,,,5.8,
Tain Range,16/09/2019 08:00,11.4,16,,,0,,71,,270,Dry,1019,4,45,296,,,6.4,
Tain Range,16/09/2019 09:00,10.8,16,,,0,,82,,260,Dry,1019,5,50,554,,,8,
Tain Range,16/09/2019 10:00,13.2,16,,,0,,66,,280,Dry,1019,7,30,1098,,,7.2,
Tain Range,16/09/2019 11:00,14.3,18,,,0,,59,,290,Dry,1019,6,23,1970,,,6.6,
Tain Range,16/09/2019 12:00,14.2,18,,,0,0,56,,280,Dry,1019,7,45,1537,,,5.6,
Tain Range,16/09/2019 13:00,12.4,23,,,0.2,,75,32,300,Moderate shower,1019,8,20,713,,,8.2,
Tain Range,16/09/2019 14:00,12.1,17,,,0.4,,77,32,280,Rain,1019,7,45,585,,,8.2,
Tain Range,16/09/2019 15:00,13.2,23,,,0,,67,33,280,Dry,1019,7,35,709,,,7.3,
Tain Range,16/09/2019 16:00,13.4,24,,,0,,62,36,290,Dry,1019,1,35,1197,,,6.3,
Tain Range,16/09/2019 17:00,11.5,18,,,0,,71,33,310,Rain,1019,6,23,789,,,6.6,
Tain Range,16/09/2019 18:00,10.2,17,,15.3,0.2,0.8,81,32,280,Rain,1019,4,24,111,,,7.2,
Tain Range,16/09/2019 19:00,9.8,18,,,0,,72,,290,Dry,1020,0,24,39,,,5,
Tain Range,16/09/2019 20:00,9.7,16,,,0,,70,,290,Dry,1020,4,30,0,,,4.6,
Tain Range,16/09/2019 21:00,9,13,,,0,,78,,280,Drizzly rain,1020,4,11,0,,,5.4,
Tain Range,16/09/2019 22:00,9.2,17,,,0.2,,78,,290,Rain,1020,4,30,0,,,5.7,
Tain Range,16/09/2019 23:00,9.2,16,,,0,,76,,290,Dry,1021,0,28,0,,,5.2,
Tain Range,17/09/2019 00:00,9.4,16,,,0,0.2,69,,290,Dry,1021,1,23,,,,4.1,
Tain Range,17/09/2019 01:00,9,15,,,0,,68,29,280,Dry,1021,0,26,0,,,3.6,
Tain Range,17/09/2019 02:00,8.6,14,,,0,,70,,290,Dry,1021,1,25,0,,,3.6,
Tain Range,17/09/2019 03:00,8.6,13,,,0,,76,,270,Rain,1022,7,28,0,,,4.8,
Tain Range,17/09/2019 04:00,8.4,10,,,0,,79,,270,Light shower,1022,8,28,0,,,5.1,
Tain Range,17/09/2019 05:00,7.9,13,,,0,,82,,280,Rain,1022,3,25,0,,,5.1,
Tain Range,17/09/2019 06:00,7.1,6,7.1,,0,0,84,,280,Dry,1023,3,21,0,,,4.6,
Tain Range,17/09/2019 07:00,8.4,14,,,0,,83,,290,Dry,1023,0,28,136,,,5.8,
Tain Range,17/09/2019 08:00,9.9,10,,,0,,76,,290,Dry,1024,1,30,558,,,6,
Tain Range,17/09/2019 09:00,10,16,,,0,,71,,300,Dry,1025,6,21,601,,,5.1,
Tain Range,17/09/2019 10:00,11.7,14,,,0,,68,,300,Dry,1025,0,21,1120,,,6.2,
Tain Range,17/09/2019 11:00,12,17,,,0,,67,,300,Dry,1026,5,17,1475,,,6.1,
Tain Range,17/09/2019 12:00,12.6,15,,,0,0,63,,290,Dry,1026,1,24,1535,,,5.9,
Tain Range,17/09/2019 13:00,12.5,15,,,0,,67,,290,Dry,1026,4,19,1375,,,6.7,
Tain Range,17/09/2019 14:00,12,14,,,0,,66,,290,Dry,1027,7,45,1074,,,5.9,
Tain Range,17/09/2019 15:00,12.2,16,,,0,,65,,290,Dry,1027,7,24,,,,5.9,
Tain Range,17/09/2019 16:00,12,12,,,0,,63,,300,Dry,1027,,40,,,,5.3,
Tain Range,17/09/2019 17:00,11.7,6,,,0,,71,,310,Dry,1027,1,40,,,,6.8,
Tain Range,17/09/2019 18:00,10.6,8,,13,0,0,63,,290,Dry,1027,8,45,,,,3.9,
Tain Range,17/09/2019 19:00,9.5,5,,,0,,76,,270,Dry,1028,8,40,,,,5.6,
Tain Range,17/09/2019 20:00,8.5,3,,,0,,78,,280,Dry,1028,8,30,,,,5,
Tain Range,17/09/2019 21:00,9.1,3,,,0,,77,,290,Rain,1028,8,17,,,,5.4,
Tain Range,17/09/2019 22:00,8.6,3,,,0,,82,,250,Drizzly rain,1028,8,35,,,,5.8,
Tain Range,17/09/2019 23:00,8.6,2,,,0,,81,,270,Rain,1028,8,35,,,,5.6,
Tain Range,18/09/2019 00:00,8.2,3,,,0,0,85,,220,Rain,1028,7,35,,,,6,
Tain Range,18/09/2019 01:00,8.2,2,,,0,,86,,240,Light shower,1028,8,30,,,,6.1,
Tain Range,18/09/2019 02:00,8.2,6,,,0.2,,91,,220,Light rain,1028,6,12,,,,6.9,
Tain Range,18/09/2019 03:00,8.3,6,,,0.2,,91,,210,Light rain,1027,8,20,,,,7,
Tain Range,18/09/2019 04:00,7.8,3,,,0.2,,95,,210,Light rain,1027,6,3,,,,7.1,
Tain Range,18/09/2019 05:00,7.9,5,,,0.8,,97,,160,Moderate drizzle,1027,1,4,0,,,7.6,
Tain Range,18/09/2019 06:00,8.3,6,7.7,,1,2,98,,150,Moderate drizzle,1027,3,4,0,,,8.1,
Tain Range,18/09/2019 07:00,8.8,6,,,0.8,,98,,150,Light drizzle,1027,3,4,34,,,8.6,
Tain Range,18/09/2019 08:00,9.3,6,,,0.4,,98,,150,Light drizzle,1027,8,5,157,,,9.1,
Tain Range,18/09/2019 09:00,9.8,6,,,0.6,,98,,120,Light drizzle,1027,8,4,310,,,9.6,
Tain Range,18/09/2019 10:00,10.3,3,,,0.4,,96,,120,Drizzle,1027,8,3,595,,,9.8,
Tain Range,18/09/2019 11:00,11.2,3,,,0,,96,,100,Misty,1027,8,4,768,,,10.6,
Tain Range,18/09/2019 12:00,10.8,8,,,0,2,96,,50,Misty,1027,8,4,698,,,10.2,
Tain Range,18/09/2019 13:00,11.3,7,,,0,,96,,60,Misty,1028,8,7,822,,,10.7,
Tain Range,18/09/2019 14:00,11.6,7,,,0,,91,,60,Dry,1028,8,50,1143,,,10.2,
Tain Range,18/09/2019 15:00,11.5,7,,,0,,91,,50,Dry,1028,8,50,829,,,10.2,
Tain Range,18/09/2019 16:00,11.4,6,,,0,,91,,60,Dry,1028,8,35,435,,,10,
Tain Range,18/09/2019 17:00,10.8,6,,,0.2,,96,,60,Misty,1028,6,3,246,,,10.3,
Tain Range,18/09/2019 18:00,10.8,3,,12.1,0.2,1,98,,40,Rain,1028,8,3,102,,,10.5,
Tain Range,18/09/2019 19:00,10.6,1,,,0,,98,,40,Misty,1029,8,5,21,,,10.3,
Tain Range,18/09/2019 20:00,10.6,1,,,0,,98,,350,Misty,1029,8,7,0,,,10.3,
Tain Range,18/09/2019 21:00,10.6,1,,,0,,98,,270,Misty,1029,8,4,0,,,10.4,
Tain Range,18/09/2019 22:00,10.7,1,,,0.2,,98,,300,Drizzly rain,1029,8,13,0,,,10.5,
Tain Range,18/09/2019 23:00,10.3,3,,,0,,98,,180,Rain,1029,8,8,0,,,10.1,
Tain Range,19/09/2019 00:00,10.3,2,,,0,0.2,98,,190,Misty,1029,8,5,,,,10.1,
Tain Range,19/09/2019 01:00,8.7,3,,,0,,98,,190,Thickening fog,1029,6,0,0,,,8.5,
Tain Range,19/09/2019 02:00,8.8,2,,,0,,98,,190,Fog,1028,9,0,0,,,8.6,
Tain Range,19/09/2019 03:00,8.7,3,,,0,,99,,240,Fog,1028,8,6,0,,,8.6,
Tain Range,19/09/2019 04:00,8.9,1,,,0,,99,,340,Misty,1028,4,7,0,,,8.8,
Tain Range,19/09/2019 05:00,8.1,3,,,0,,99,,240,Thickening fog,1028,,0,0,,,8,
Tain Range,19/09/2019 06:00,8.3,6,7.3,,0,0,100,,220,Fog,1028,6,2,0,,,8.3,
Tain Range,19/09/2019 07:00,10,6,,,0,,99,,200,Dry,1028,5,40,91,,,9.9,
Tain Range,19/09/2019 08:00,12.3,5,,,0,,100,,220,Dry,1029,1,45,515,,,12.3,
Tain Range,19/09/2019 09:00,14.9,1,,,0,,93,,220,Dry,1029,2,45,867,,,13.9,
Tain Range,19/09/2019 10:00,14.7,2,,,0,,87,,60,Dry,1029,7,45,864,,,12.6,
Tain Range,19/09/2019 11:00,15.6,2,,,0,,83,,30,Dry,1028,7,45,1009,,,12.9,
Tain Range,19/09/2019 12:00,15.8,5,,,0,0,80,,340,Dry,1028,1,35,1225,,,12.4,
Tain Range,19/09/2019 13:00,16,6,,,0,,80,,320,Dry,1028,7,35,1330,,,12.7,
Tain Range,19/09/2019 14:00,17.1,6,,,0,,79,,320,Dry,1028,5,50,1337,,,13.6,
Tain Range,19/09/2019 15:00,17.1,8,,,0,,76,,310,Dry,1028,0,45,1523,,,12.9,
Tain Range,19/09/2019 16:00,17,9,,,0,,74,,310,Dry,1027,0,50,1266,,,12.5,
Tain Range,19/09/2019 17:00,16,9,,,0,,76,,300,Dry,1027,0,45,856,,,11.9,
Tain Range,19/09/2019 18:00,14,7,,17.6,0,0,81,,310,Dry,1027,0,50,336,,,10.9,
Tain Range,19/09/2019 19:00,12.9,9,,,0,,87,,300,Dry,1027,,40,36,,,10.8,
Tain Range,19/09/2019 20:00,11.9,6,,,0,,91,,290,Dry,1028,0,40,0,,,10.5,
Tain Range,19/09/2019 21:00,10.6,6,,,0,,93,,290,Dry,1028,0,50,0,,,9.6,
Tain Range,19/09/2019 22:00,7.9,5,,,0,,95,,250,Fog,1028,,1,0,,,7.2,
Tain Range,19/09/2019 23:00,6.6,3,,,0,,97,,250,Thickening fog,1028,0,0,0,,,6.3,
Tain Range,20/09/2019 00:00,6.8,3,,,0,0,99,,190,Fog thinning,1027,1,0,,,,6.7,
Tain Range,20/09/2019 01:00,6,6,,,0,,99,,250,Fog,1027,0,1,0,,,5.9,
Tain Range,20/09/2019 02:00,3.2,2,,,0,,97,,230,-,1026,3,0,0,,,2.9,
Tain Range,20/09/2019 03:00,3.8,5,,,0,,99,,230,Fog thinning,1026,3,0,0,,,3.7,
Tain Range,20/09/2019 04:00,2.4,1,,,0.2,,99,,220,Moderate precip.,1026,9,0,0,,,2.3,
Tain Range,20/09/2019 05:00,2.4,3,,,0,,99,,280,-,1026,,4,0,,,2.3,
Tain Range,20/09/2019 06:00,3.2,5,1.8,,0,0.2,100,,250,-,1025,,10,0,,,3.2,
Tain Range,20/09/2019 07:00,3.5,3,,,0,,100,,270,Rain,1025,0,4,140,,,3.5,
Tain Range,20/09/2019 08:00,7.9,3,,,0,,100,,200,Dry,1025,0,50,512,,,7.9,
Tain Range,20/09/2019 09:00,11.6,3,,,0,,81,,210,Haze,1025,0,45,1019,,,8.5,
Tain Range,20/09/2019 10:00,14.3,3,,,0,,64,,180,Dry,1024,0,50,1395,,,7.8,
Tain Range,20/09/2019 11:00,16.6,5,,,0,,55,,170,Dry,1024,0,50,1741,,,7.6,
Tain Range,20/09/2019 12:00,18.7,6,,,0,0,43,,180,Dry,1023,0,35,1912,,,6.1,
Tain Range,20/09/2019 13:00,17.6,7,,,0,,69,,40,Dry,1022,0,50,1966,,,11.9,
Tain Range,20/09/2019 14:00,19.2,8,,,0,,40,,100,Dry,1022,0,40,1861,,,5.4,
Tain Range,20/09/2019 15:00,15.8,9,,,0,,62,,50,Dry,1021,0,45,1623,,,8.6,
Tain Range,20/09/2019 16:00,15.9,7,,,0,,48,,60,Dry,1020,0,45,1251,,,5,
Tain Range,20/09/2019 17:00,15.1,5,,,0,,58,,60,Dry,1020,0,50,798,,,7,
Tain Range,20/09/2019 18:00,13.1,3,,20,0,0,72,,10,Dry,1019,0,50,328,,,8.3,
Tain Range,20/09/2019 19:00,10.1,3,,,0,,88,,320,Dry,1019,0,28,26,,,8.3,
Tain Range,20/09/2019 20:00,6.8,1,,,0,,90,,260,Dry,1019,0,50,0,,,5.3,
Tain Range,20/09/2019 21:00,6.5,6,,,0,,94,,260,Dry,1019,0,30,0,,,5.7,
Tain Range,20/09/2019 22:00,5.6,3,,,0,,96,,240,Dry,1018,0,21,0,,,5.1,
Tain Range,20/09/2019 23:00,5.2,3,,,0,,96,,230,Fog,1018,0,3,0,,,4.7,
Tain Range,21/09/2019 00:00,4.4,2,,,0,0,97,,300,Precipitation,1017,1,0,,,,4.1,
Tain Range,21/09/2019 01:00,4.6,3,,,0,,99,,210,Fog,1017,4,0,0,,,4.5,
Tain Range,21/09/2019 02:00,3.7,2,,,0,,99,,220,Fog,1016,9,0,0,,,3.6,
Tain Range,21/09/2019 03:00,3.8,2,,,0,,98,,260,Fog thinning,1016,3,0,0,,,3.6,
Tain Range,21/09/2019 04:00,3.4,2,,,0,,99,,260,Fog,1015,9,0,0,,,3.3,
Tain Range,21/09/2019 05:00,4.1,1,,,0,,100,,160,Fog,1015,,0,0,,,4.1,
Tain Range,21/09/2019 06:00,3.4,2,2.9,,0,0,99,,230,Fog,1014,9,0,0,,,3.3,
Tain Range,21/09/2019 07:00,4.1,2,,,0,,100,,290,Fog,1014,9,0,82,,,4.1,
Tain Range,21/09/2019 08:00,10.1,1,,,0.2,,100,,290,Precipitation,1014,1,22,489,,,10.1,
Tain Range,21/09/2019 09:00,13.1,2,,,0,,100,,360,Dry,1013,,30,976,,,13.1,
Tain Range,21/09/2019 10:00,16,3,,,0,,80,,40,Dry,1013,0,40,1384,,,12.6,
Tain Range,21/09/2019 11:00,17.6,8,,,0,,67,,70,Dry,1012,0,25,1713,,,11.6,
Tain Range,21/09/2019 12:00,18.7,18,,,0,0.2,62,,120,Dry,1011,0,35,1893,,,11.4,
Tain Range,21/09/2019 13:00,19.5,18,,,0,,59,29,110,Dry,1010,,35,1936,,,11.3,
Tain Range,21/09/2019 14:00,21.2,17,,,0,,51,,120,Dry,1010,0,45,1824,,,10.7,
Tain Range,21/09/2019 15:00,20.4,12,,,0,,55,,110,Dry,1009,0,27,1580,,,11.3,
Tain Range,21/09/2019 16:00,20.3,16,,,0,,50,,130,Dry,1009,0,35,1213,,,9.6,
Tain Range,21/09/2019 17:00,19,16,,,0,,54,,120,Dry,1008,0,40,773,,,9.6,
Tain Range,21/09/2019 18:00,17,12,,21.4,0,0,60,,120,Dry,1008,0,45,303,,,9.3,
Tain Range,21/09/2019 19:00,15.1,18,,,0,,69,,120,Dry,1008,0,45,13,,,9.6,
Tain Range,21/09/2019 20:00,14.5,3,,,0,,69,,110,Dry,1008,0,50,0,,,8.9,
Tain Range,21/09/2019 21:00,12.9,6,,,0,,77,,160,Dry,1008,0,40,0,,,9,
Tain Range,21/09/2019 22:00,7.7,5,,,0,,88,,10,Dry,1008,0,16,0,,,5.9,
Tain Range,21/09/2019 23:00,8.4,5,,,0,,97,,40,Dry,1008,0,13,0,,,8,
Tain Range,22/09/2019 00:00,6.1,5,,,0,0,97,,40,Thickening fog,1007,0,1,,,,5.7,
Tain Range,22/09/2019 01:00,7.6,5,,,0,,97,,40,Fog,1007,0,25,0,,,7.2,
Tain Range,22/09/2019 02:00,8.2,5,,,0,,95,,100,Dry,1006,0,19,0,,,7.6,
Tain Range,22/09/2019 03:00,4.8,3,,,0,,94,,190,Thickening fog,1006,0,0,0,,,4,
Tain Range,22/09/2019 04:00,5.2,3,,,0,,98,,300,Thickening fog,1005,2,0,0,,,5,
Tain Range,22/09/2019 05:00,6,2,,,0,,97,,310,Thickening fog,1005,3,0,0,,,5.7,
Tain Range,22/09/2019 06:00,7.3,5,4.2,,0,0,100,,320,Fog thinning,1005,1,0,0,,,7.3,
Tain Range,22/09/2019 07:00,8.5,3,,,0,,99,,340,Fog,1005,5,4,75,,,8.4,
Tain Range,22/09/2019 08:00,11.1,2,,,0,,100,,340,Dry,1005,0,14,294,,,11.1,
Tain Range,22/09/2019 09:00,13.9,5,,,0,,99,,60,Dry,1005,1,18,812,,,13.8,
Tain Range,22/09/2019 10:00,15,7,,,0,,84,,100,Dry,1004,6,25,743,,,12.4,
Tain Range,22/09/2019 11:00,15.7,6,,,0,,81,,30,Dry,1004,5,17,888,,,12.5,
Tain Range,22/09/2019 12:00,16.1,10,,,0,0,82,,60,Dry,1004,3,13,1604,,,13.2,
Tain Range,22/09/2019 13:00,17.1,12,,,0,,80,,70,Dry,1004,1,23,1848,,,13.8,
Tain Range,22/09/2019 14:00,16.8,10,,,0,,81,,20,Dry,1003,1,12,1306,,,13.6,
Tain Range,22/09/2019 15:00,18.2,8,,,0,,81,,40,Dry,1003,1,15,1331,,,14.9,
Tain Range,22/09/2019 16:00,17.8,12,,,0,,75,,100,Dry,1002,,21,671,,,13.5,
Tain Range,22/09/2019 17:00,15.8,6,,,0,,83,,30,Haze,1002,5,12,273,,,13.1,
Tain Range,22/09/2019 18:00,14.8,5,,18.6,0,0,88,,30,Dry,1002,7,10,144,,,13,
Tain Range,22/09/2019 19:00,15.3,13,,,0,,89,,100,Dry,1002,7,14,9,,,13.5,
Tain Range,22/09/2019 20:00,14,12,,,0,,93,,30,Rain,1003,7,9,0,,,13,
Tain Range,22/09/2019 21:00,13.6,14,,,0,,94,,60,Misty,1003,6,8,0,,,12.7,
Tain Range,22/09/2019 22:00,13.6,18,,,0,,94,,60,Misty,1003,7,7,0,,,12.8,
Tain Range,22/09/2019 23:00,13.3,15,,,0,,96,,70,Misty,1003,8,6,0,,,12.8,
Tain Range,23/09/2019 00:00,13.2,13,,,0,0,97,,60,Misty,1003,7,6,,,,12.8,
Tain Range,23/09/2019 01:00,13.2,10,,,0,,97,,60,Misty,1003,8,6,0,,,12.8,
Tain Range,23/09/2019 02:00,13.1,10,,,0,,97,,70,Showers,1003,8,5,0,,,12.7,
Tain Range,23/09/2019 03:00,13.4,13,,,0,,96,,80,Precipitation,1003,1,8,0,,,12.9,
Tain Range,23/09/2019 04:00,13.2,10,,,0,,97,,80,Misty,1003,8,5,0,,,12.8,
Tain Range,23/09/2019 05:00,13.5,14,,,0,,97,,80,Light shower,1002,8,5,0,,,13.1,
Tain Range,23/09/2019 06:00,13.4,9,13.1,,0.2,0.2,98,,80,Light drizzle,1002,8,4,0,,,13.1,
Tain Range,23/09/2019 07:00,13.7,12,,,0,,98,,120,Rain,1002,8,5,12,,,13.4,
Tain Range,23/09/2019 08:00,13.6,5,,,0,,98,,110,Light drizzle,1003,5,3,48,,,13.3,
Tain Range,23/09/2019 09:00,14.4,3,,,0.2,,96,,160,Drizzle,1003,7,8,408,,,13.9,
Tain Range,23/09/2019 10:00,15.3,5,,,0,,93,,180,Haze,1003,8,9,678,,,14.2,
Tain Range,23/09/2019 11:00,16.8,2,,,0,,83,,100,Dry,1003,2,27,1245,,,13.9,
Tain Range,23/09/2019 12:00,19.2,3,,,0,0.2,76,,180,Dry,1003,0,30,1697,,,14.9,
Tain Range,23/09/2019 13:00,17.1,7,,,0,,83,,80,Dry,1003,4,23,1604,,,14.3,
Tain Range,23/09/2019 14:00,19.6,9,,,0,,68,,160,Dry,1003,2,50,1428,,,13.6,
Tain Range,23/09/2019 15:00,18.9,12,,,0,,62,,180,Dry,1002,1,50,1258,,,11.6,
Tain Range,23/09/2019 16:00,17.5,12,,,0,,66,,160,Dry,1003,3,45,945,,,11.2,
Tain Range,23/09/2019 17:00,16.9,13,,,0,,66,,190,Dry,1003,2,50,438,,,10.7,
Tain Range,23/09/2019 18:00,15,12,,19.9,0,0,69,,200,Dry,1003,0,50,246,,,9.4,
Tain Range,23/09/2019 19:00,13.4,7,,,0,,70,,180,Dry,1003,,45,11,,,8.2,
Tain Range,23/09/2019 20:00,10.8,3,,,0,,81,,170,Dry,1004,0,50,0,,,7.8,
Tain Range,23/09/2019 21:00,10.9,9,,,0,,85,,140,Dry,1003,0,45,0,,,8.5,
Tain Range,23/09/2019 22:00,10.5,8,,,0,,89,,140,Dry,1003,0,40,0,,,8.8,
Tain Range,23/09/2019 23:00,9.7,5,,,0,,92,,120,Dry,1003,0,50,0,,,8.6,
Tain Range,24/09/2019 00:00,10.5,8,,,0,0,91,,100,Dry,1002,5,45,,,,9.1,
Tain Range,24/09/2019 01:00,12.9,12,,,0,,84,,110,Dry,1002,,40,0,,,10.4,
Tain Range,24/09/2019 02:00,12.8,13,,,0,,88,,90,Dry,1001,8,25,0,,,11,
Tain Range,24/09/2019 03:00,12.5,12,,,0,,92,,90,Rain,1000,6,17,0,,,11.3,
Tain Range,24/09/2019 04:00,12.8,12,,,0,,92,,80,Dry,999,7,17,0,,,11.6,
Tain Range,24/09/2019 05:00,13.1,9,,,0,,91,,90,Dry,999,7,29,0,,,11.8,
Tain Range,24/09/2019 06:00,12.5,10,9.5,,0,0,93,,110,Dry,998,4,40,0,,,11.5,
Tain Range,24/09/2019 07:00,14,12,,,0,,90,,100,Dry,999,7,45,51,,,12.4,
Tain Range,24/09/2019 08:00,14.6,3,,,0,,89,,100,Dry,999,8,40,241,,,12.9,
Tain Range,24/09/2019 09:00,15,5,,,0,,87,,100,Light shower,999,8,21,283,,,13,
Tain Range,24/09/2019 10:00,15.6,5,,,0,,87,,90,Rain,999,7,45,593,,,13.5,
Tain Range,24/09/2019 11:00,16.8,7,,,0,,82,,110,Dry,999,6,45,1028,,,13.8,
Tain Range,24/09/2019 12:00,17,8,,,0,0,82,,100,-,999,5,10,1135,,,14,
Tain Range,24/09/2019 13:00,18.7,9,,,0,,78,,90,Dry,998,2,35,1727,,,14.8,
Tain Range,24/09/2019 14:00,17.8,12,,,0,,79,,80,Dry,998,3,40,1607,,,14.3,
Tain Range,24/09/2019 15:00,16.7,13,,,0,,86,,80,Dry,998,3,30,816,,,14.4,
Tain Range,24/09/2019 16:00,17.4,13,,,0,,82,,100,Dry,998,3,28,915,,,14.4,
Tain Range,24/09/2019 17:00,16.1,16,,,0,,86,,100,Dry,998,6,28,595,,,13.9,
Tain Range,24/09/2019 18:00,15.2,10,,19.3,0,0,88,,100,Dry,998,6,50,137,,,13.4,
Tain Range,24/09/2019 19:00,14.3,7,,,0,,92,,50,Dry,999,7,30,5,,,13.1,
Tain Range,24/09/2019 20:00,14.1,12,,,0,,95,,70,Dry,999,8,12,0,,,13.4,
Tain Range,24/09/2019 21:00,13.7,12,,,0.4,,97,,60,Heavy shower,999,7,5,0,,,13.3,
Tain Range,24/09/2019 22:00,14,9,,,0,,98,,70,Drizzly rain,999,7,10,0,,,13.8,
Tain Range,24/09/2019 23:00,13.8,12,,,0.2,,98,,90,Light drizzle,998,4,5,0,,,13.6,
Tain Range,25/09/2019 00:00,13.6,14,,,0,0.6,98,,80,Rain,998,7,3,,,,13.4,
Tain Range,25/09/2019 01:00,13.5,13,,,0,,98,,70,Rain,998,8,3,0,,,13.3,
Tain Range,25/09/2019 02:00,13.6,13,,,0,,98,,80,Misty,998,8,6,0,,,13.4,
Tain Range,25/09/2019 03:00,13.6,15,,,0,,99,,90,Fog,998,8,8,0,,,13.5,
Tain Range,25/09/2019 04:00,13.8,16,,,0,,98,,100,Fog,997,8,5,0,,,13.6,
Tain Range,25/09/2019 05:00,13.5,13,,,0,,98,,90,Fog,997,8,3,0,,,13.3,
Tain Range,25/09/2019 06:00,13.5,12,13.4,,0,0,99,,80,Misty,997,8,5,0,,,13.4,
Tain Range,25/09/2019 07:00,13.3,13,,,0,,98,,80,Misty,998,8,2,41,,,13.1,
Tain Range,25/09/2019 08:00,13.8,13,,,0,,99,,80,Misty,998,8,8,179,,,13.7,
Tain Range,25/09/2019 09:00,14,14,,,0,,97,,90,Misty,998,4,8,416,,,13.6,
Tain Range,25/09/2019 10:00,14.4,15,,,0,,93,,90,Dry,998,8,11,399,,,13.3,
Tain Range,25/09/2019 11:00,14.7,16,,,0,,90,,100,Dry,998,8,12,445,,,13.2,
Tain Range,25/09/2019 12:00,15,14,,,0,0,90,,90,Dry,997,8,14,414,,,13.4,
Tain Range,25/09/2019 13:00,15.6,15,,,0,,87,,90,Dry,997,8,21,721,,,13.5,
Tain Range,25/09/2019 14:00,17.2,18,,,0,,76,,120,Dry,996,7,12,1183,,,13.1,
Tain Range,25/09/2019 15:00,18.1,18,,,0,,73,,130,Dry,996,8,35,953,,,13.3,
Tain Range,25/09/2019 16:00,16.8,18,,,0,,75,,130,Dry,996,1,50,510,,,12.5,
Tain Range,25/09/2019 17:00,16.4,14,,,0,,77,,140,Dry,996,8,45,219,,,12.4,
Tain Range,25/09/2019 18:00,15.7,12,,18.1,0,0,80,,140,Dry,996,8,50,95,,,12.3,
Tain Range,25/09/2019 19:00,15.3,9,,,0,,82,,130,Dry,996,8,50,4,,,12.3,
Tain Range,25/09/2019 20:00,14.9,15,,,0.2,,84,,130,Rain,996,8,50,0,,,12.3,
Tain Range,25/09/2019 21:00,14.8,18,,,0,,85,,120,Dry,995,8,40,0,,,12.4,
Tain Range,25/09/2019 22:00,14.3,10,,,0,,88,,100,Rain,995,8,50,0,,,12.5,
Tain Range,25/09/2019 23:00,14.6,16,,,0.4,,88,,120,Rain,995,8,45,0,,,12.7,
Tain Range,26/09/2019 00:00,14.6,14,,,0,0.6,86,,130,Dry,994,8,30,,,,12.4,
Tain Range,26/09/2019 01:00,14.7,17,,,0,,85,,130,Dry,994,7,40,0,,,12.3,
Tain Range,26/09/2019 02:00,14.5,17,,,0,,85,,130,Dry,993,7,50,0,,,12.1,
Tain Range,26/09/2019 03:00,14.4,18,,,0,,86,,120,Dry,992,8,50,0,,,12.2,
Tain Range,26/09/2019 04:00,13.8,18,,,1,,93,,120,Light shower,992,8,14,0,,,12.8,
Tain Range,26/09/2019 05:00,13.6,16,,,0.8,,95,,110,Light rain,991,8,13,0,,,12.9,
Tain Range,26/09/2019 06:00,13.7,15,13.6,,0.4,2.4,94,,90,Light shower,990,8,21,0,,,12.9,
Tain Range,26/09/2019 07:00,13.6,15,,,0.4,,96,,90,Moderate shower,990,8,20,7,,,13,
Tain Range,26/09/2019 08:00,13.6,14,,,1,,95,,110,Moderate rain,989,8,11,51,,,12.9,
Tain Range,26/09/2019 09:00,14,7,,,0.6,,94,,160,Rain,989,8,45,196,,,13.2,
Tain Range,26/09/2019 10:00,14.8,10,,,0,,88,,200,Dry,989,2,30,724,,,13,
Tain Range,26/09/2019 11:00,16.3,13,,,0,,74,,190,Dry,989,4,40,1748,,,11.8,
Tain Range,26/09/2019 12:00,15.7,13,,,0,2,78,,210,Dry,990,8,50,919,,,12,
Tain Range,26/09/2019 13:00,14.6,9,,,0.2,,85,,230,Moderate shower,990,7,10,777,,,12.2,
Tain Range,26/09/2019 14:00,16.6,10,,,0.4,,76,,230,Rain,990,8,35,1147,,,12.5,
Tain Range,26/09/2019 15:00,16.4,8,,,0,,73,,230,Dry,990,7,50,1279,,,11.6,
Tain Range,26/09/2019 16:00,15.3,8,,,0,,75,,210,Dry,990,6,45,643,,,10.9,
Tain Range,26/09/2019 17:00,13.9,12,,,0,,79,,210,Rain,990,5,50,224,,,10.5,
Tain Range,26/09/2019 18:00,12.6,7,,17.1,0,1,86,,200,Rain,991,8,50,64,,,10.4,
Tain Range,26/09/2019 19:00,12.1,6,,,0,,88,,210,Light shower,991,8,50,0,,,10.3,
Tain Range,26/09/2019 20:00,10.9,1,,,0,,89,,90,Light shower,991,8,40,0,,,9.3,
Tain Range,26/09/2019 21:00,10.6,3,,,0,,94,,180,Rain,992,1,30,0,,,9.8,
Tain Range,26/09/2019 22:00,8.1,2,,,0,,95,,130,Fog,992,1,26,0,,,7.4,
Tain Range,26/09/2019 23:00,6.7,2,,,0,,97,,220,Fog,992,,2,0,,,6.3,
Tain Range,27/09/2019 00:00,6.2,0,,,0,0,98,,0,Thickening fog,992,6,0,,,,6,
Tain Range,27/09/2019 01:00,5.3,2,,,0,,97,,300,Fog,992,1,6,0,,,5,
Tain Range,27/09/2019 02:00,6.3,2,,,0,,99,,280,Dry,992,7,50,0,,,6.2,
Tain Range,27/09/2019 03:00,7.5,3,,,0,,99,,250,Dry,992,8,30,0,,,7.4,
Tain Range,27/09/2019 04:00,8.7,3,,,0,,100,,250,Dry,992,2,50,0,,,8.7,
Tain Range,27/09/2019 05:00,9.1,1,,,0.2,,99,,230,Light shower,992,7,45,0,,,9,
Tain Range,27/09/2019 06:00,9.1,1,4.5,,0.2,0.4,99,,190,Light rain,992,8,27,0,,,9,
Tain Range,27/09/2019 07:00,9.2,2,,,0,,99,,260,Rain,992,8,30,21,,,9.1,
Tain Range,27/09/2019 08:00,9.9,2,,,0.2,,100,,280,Light shower,993,7,15,85,,,9.9,
Tain Range,27/09/2019 09:00,11.2,2,,,0.4,,100,,270,Rain,993,1,35,447,,,11.2,
Tain Range,27/09/2019 10:00,14.6,1,,,0,,86,,240,Dry,993,4,26,1309,,,12.4,
Tain Range,27/09/2019 11:00,14.4,3,,,0,,76,,120,Dry,993,2,22,1393,,,10.3,
Tain Range,27/09/2019 12:00,13.9,3,,,0,0.6,78,,100,Dry,993,4,15,907,,,10.2,
Tain Range,27/09/2019 13:00,15.1,3,,,0,,72,,210,Dry,993,3,40,936,,,10.1,
Tain Range,27/09/2019 14:00,14.6,6,,,0,,78,,330,Dry,993,1,35,1387,,,10.9,
Tain Range,27/09/2019 15:00,15,5,,,0,,79,,20,Dry,993,3,45,770,,,11.5,
Tain Range,27/09/2019 16:00,14.5,7,,,0,,77,,140,Dry,993,7,45,873,,,10.7,
Tain Range,27/09/2019 17:00,11.4,8,,,7.2,,92,,350,Moderate shower,994,8,13,104,,,10.3,
Tain Range,27/09/2019 18:00,11.5,3,,16.4,0.6,7.4,94,,280,Moderate rain,994,7,50,32,,,10.6,
Tain Range,27/09/2019 19:00,11,6,,,0.4,,95,,290,Light rain,995,7,50,1,,,10.3,
Tain Range,27/09/2019 20:00,10.3,7,,,0,,95,,300,Rain,995,4,45,0,,,9.6,
Tain Range,27/09/2019 21:00,9.4,5,,,0,,95,,260,Dry,995,6,40,0,,,8.7,
Tain Range,27/09/2019 22:00,9.5,5,,,0,,96,,300,Dry,996,1,50,0,,,9,
Tain Range,27/09/2019 23:00,9.8,5,,,0,,96,,290,Dry,996,8,45,0,,,9.3,
Tain Range,28/09/2019 00:00,10.4,7,,,0,0.4,95,,300,Dry,996,8,50,,,,9.7,
Tain Range,28/09/2019 01:00,10.3,8,,,0,,95,,280,Dry,996,8,50,0,,,9.6,
Tain Range,28/09/2019 02:00,10.2,8,,,0,,94,,300,Dry,996,8,20,0,,,9.3,
Tain Range,28/09/2019 03:00,10.2,8,,,0,,93,,300,Dry,996,1,50,0,,,9.2,
Tain Range,28/09/2019 04:00,10.2,9,,,0,,94,,300,Light shower,996,8,30,0,,,9.3,
Tain Range,28/09/2019 05:00,10.1,7,,,0,,94,,310,Drizzly rain,997,8,50,0,,,9.3,
Tain Range,28/09/2019 06:00,10.1,9,9.1,,0.2,0.2,95,,300,Light rain,997,8,27,0,,,9.4,
Tain Range,28/09/2019 07:00,10.2,9,,,0.6,,96,,300,Light rain,997,7,16,5,,,9.6,
Tain Range,28/09/2019 08:00,10.6,10,,,0.6,,96,,300,Light rain,998,2,19,50,,,10,
Tain Range,28/09/2019 09:00,10.9,9,,,1,,96,,300,Moderate rain,999,5,15,104,,,10.3,
Tain Range,28/09/2019 10:00,11.1,9,,,2.2,,97,,280,Moderate rain,999,7,13,133,,,10.7,
Tain Range,28/09/2019 11:00,11.5,9,,,2.2,,96,,290,Moderate rain,1000,8,14,142,,,10.9,
Tain Range,28/09/2019 12:00,12.4,7,,,1.6,8,96,,300,Moderate rain,1000,8,20,288,,,11.8,
Tain Range,28/09/2019 13:00,13.5,10,,,0.6,,91,,300,Light rain,1000,8,22,827,,,12.2,
Tain Range,28/09/2019 14:00,13.1,13,,,0,,88,,290,Rain,1001,1,50,752,,,11.3,
Tain Range,28/09/2019 15:00,13,12,,,0,,87,,310,Dry,1001,7,50,416,,,10.9,
Tain Range,28/09/2019 16:00,13.2,7,,,0,,90,,300,Light shower,1001,7,45,297,,,11.6,
Tain Range,28/09/2019 17:00,13.2,9,,,0,,86,,320,Rain,1001,1,50,456,,,11,
Tain Range,28/09/2019 18:00,11.9,3,,14.2,0,1,88,,330,Dry,1002,6,50,156,,,10.1,
Tain Range,28/09/2019 19:00,10,1,,,0,,94,,290,Dry,1002,6,45,0,,,9.1,
Tain Range,28/09/2019 20:00,10.6,2,,,0,,95,,270,Dry,1002,8,30,0,,,9.9,
Tain Range,28/09/2019 21:00,9.3,6,,,0,,97,,320,Dry,1002,7,24,0,,,8.9,
Tain Range,28/09/2019 22:00,10.8,5,,,0,,98,,320,Dry,1002,8,30,0,,,10.6,
Tain Range,28/09/2019 23:00,10.5,5,,,0,,96,,320,Dry,1002,8,35,0,,,10,
Tain Range,29/09/2019 00:00,11.6,3,,,0,0,98,,90,Dry,1001,8,14,,,,11.3,
Tain Range,29/09/2019 01:00,11.9,6,,,0,,94,,50,Rain,1001,8,45,0,,,11,
Tain Range,29/09/2019 02:00,11.4,5,,,0,,95,,360,Dry,1001,8,22,0,,,10.7,
Tain Range,29/09/2019 03:00,11.3,5,,,0,,96,,340,Rain,1000,7,25,0,,,10.7,
Tain Range,29/09/2019 04:00,11.4,5,,,0,,95,,360,Rain,1000,8,17,0,,,10.7,
Tain Range,29/09/2019 05:00,11.8,9,,,0.2,,93,,40,Rain,1000,8,35,0,,,10.8,
Tain Range,29/09/2019 06:00,10.2,8,9.3,,0,0.2,95,,310,Dry,1000,8,30,0,,,9.5,
Tain Range,29/09/2019 07:00,10.6,8,,,0,,95,,320,Dry,1000,8,50,18,,,9.9,
Tain Range,29/09/2019 08:00,11,7,,,0,,94,,320,Rain,1000,8,50,125,,,10.2,
Tain Range,29/09/2019 09:00,11.7,6,,,0,,92,,340,Dry,1000,8,40,199,,,10.6,
Tain Range,29/09/2019 10:00,12.9,9,,,0,,87,,20,Dry,1001,8,30,343,,,10.8,
Tain Range,29/09/2019 11:00,13.3,12,,,0,,84,,50,Dry,1001,8,45,522,,,10.8,
Tain Range,29/09/2019 12:00,13.5,10,,,0,0,83,,50,Dry,1001,8,45,616,,,10.8,
Tain Range,29/09/2019 13:00,13.5,8,,,0,,83,,60,Dry,1001,8,30,695,,,10.7,
Tain Range,29/09/2019 14:00,13.2,7,,,0,,90,,80,Rain,1002,8,30,425,,,11.7,
Tain Range,29/09/2019 15:00,12.8,3,,,0.4,,91,,40,Light shower,1002,8,26,299,,,11.4,
Tain Range,29/09/2019 16:00,12.9,6,,,0.4,,90,,70,Moderate shower,1002,8,21,427,,,11.4,
Tain Range,29/09/2019 17:00,11.7,3,,,0.4,,91,,320,Rain,1003,8,50,94,,,10.4,
Tain Range,29/09/2019 18:00,11.5,6,,13.7,0,1,96,,300,Light shower,1003,2,50,46,,,10.9,
Tain Range,29/09/2019 19:00,11.5,10,,,0,,93,,310,Rain,1004,8,35,0,,,10.5,
Tain Range,29/09/2019 20:00,10.7,7,,,0,,95,,300,Dry,1004,8,45,0,,,10,
Tain Range,29/09/2019 21:00,9.9,7,,,0,,96,,290,Dry,1005,7,30,0,,,9.3,
Tain Range,29/09/2019 22:00,9.6,12,,,0,,91,,300,Dry,1005,1,50,0,,,8.3,
Tain Range,29/09/2019 23:00,10,5,,,0,,93,,270,Dry,1005,6,50,0,,,9,
Tain Range,30/09/2019 00:00,10.7,12,,,0,0,89,,300,Dry,1005,7,50,,,,9.1,
Tain Range,30/09/2019 01:00,10.5,10,,,0,,94,,320,Drizzly rain,1006,8,5,0,,,9.6,
Tain Range,30/09/2019 02:00,10.1,13,,,0.2,,86,,360,Rain,1006,8,40,0,,,8,
Tain Range,30/09/2019 03:00,9.8,6,,,0,,88,,290,Dry,1007,1,30,0,,,8,
Tain Range,30/09/2019 04:00,9.8,10,,,0,,87,,330,Dry,1007,8,30,0,,,7.9,
Tain Range,30/09/2019 05:00,9.3,8,,,0,,85,,320,Dry,1008,8,50,0,,,7,
Tain Range,30/09/2019 06:00,8.9,9,8.9,,0,0.2,83,,310,Dry,1008,7,50,0,,,6.2,
Tain Range,30/09/2019 07:00,7.7,8,,,0,,85,,300,Dry,1008,6,45,21,,,5.5,
Tain Range,30/09/2019 08:00,8.7,9,,,0,,87,,300,Dry,1009,2,45,307,,,6.7,
Tain Range,30/09/2019 09:00,9.8,9,,,0,,81,,320,Dry,1009,1,40,820,,,6.7,
Tain Range,30/09/2019 10:00,10.8,10,,,0,,73,,350,Dry,1010,3,40,1203,,,6.2,
Tain Range,30/09/2019 11:00,11,10,,,0,,76,,340,Rain,1010,5,30,1179,,,7.1,
Tain Range,30/09/2019 12:00,11.3,7,,,0,0,72,,10,Rain,1009,7,50,1231,,,6.6,
Tain Range,30/09/2019 13:00,11,13,,,0,,73,,20,Dry,1009,6,45,1151,,,6.5,
Tain Range,30/09/2019 14:00,10.8,10,,,0,,75,,30,Dry,1010,1,50,560,,,6.7,
Tain Range,30/09/2019 15:00,10,12,,,0,,81,,40,Dry,1009,8,50,626,,,7,
Tain Range,30/09/2019 16:00,8.6,13,,,0.4,,92,,40,Moderate shower,1009,8,8,444,,,7.5,
Tain Range,30/09/2019 17:00,9,8,,,1.2,,84,,80,Rain,1008,8,50,201,,,6.5,
Tain Range,30/09/2019 18:00,8.4,8,,12.2,0,2,86,,80,Rain,1008,3,45,35,,,6.2,
Tain Range,30/09/2019 19:00,8.5,13,,,0,,73,,60,Rain,1008,4,45,0,,,4,
Tain Range,30/09/2019 20:00,8.3,14,,,0,,71,,50,Rain,1008,1,40,0,,,3.5,
Tain Range,30/09/2019 21:00,8.2,12,,,0,,71,,60,Dry,1008,7,50,0,,,3.4,
Tain Range,30/09/2019 22:00,7.8,12,,,0,,72,,40,Dry,1008,8,22,0,,,3.2,
Tain Range,30/09/2019 23:00,7.7,10,,,0,,72,,50,Dry,1008,8,45,0,,,3.1,
Tain Range,01/10/2019 00:00,7.2,10,,,0,0,74,,30,Dry,1008,8,45,,,,3,
Tain Range,01/10/2019 01:00,4.7,8,,,0,,80,,350,Dry,1008,1,45,0,,,1.6,
Tain Range,01/10/2019 02:00,4.2,12,,,0,,81,,320,Dry,1007,,40,0,,,1.4,
Tain Range,01/10/2019 03:00,3.4,9,,,0,,86,,320,Dry,1007,1,40,0,,,1.4,
Tain Range,01/10/2019 04:00,3.3,10,,,0,,89,,310,Dry,1007,1,35,0,,,1.7,
Tain Range,01/10/2019 05:00,3,8,,,0,,91,,310,Dry,1007,,30,0,,,1.7,
Tain Range,01/10/2019 06:00,3.4,12,2.5,,0,0,92,,300,Dry,1007,,50,0,,,2.3,
Tain Range,01/10/2019 07:00,3.5,12,,,0,,91,,300,Dry,1007,,50,27,,,2.2,
Tain Range,01/10/2019 08:00,5.2,12,,,0,,91,,300,Dry,1007,1,50,346,,,4,
Tain Range,01/10/2019 09:00,6.5,12,,,0,,86,,290,Dry,1008,6,40,737,,,4.4,
Tain Range,01/10/2019 10:00,8.6,13,,,0,,78,,300,Dry,1008,7,35,1452,,,5,
Tain Range,01/10/2019 11:00,9.8,10,,,0,,77,,300,Dry,1008,3,50,1032,,,6.1,
Tain Range,01/10/2019 12:00,9,15,,,0.2,0.2,82,,290,Moderate shower,1009,3,6,1554,,,6.1,
Tain Range,01/10/2019 13:00,9.8,10,,,0,,76,,320,Rain,1009,1,45,1160,,,5.9,
Tain Range,01/10/2019 14:00,9.6,15,,,0,,64,,340,Dry,1009,2,50,1107,,,3.3,
Tain Range,01/10/2019 15:00,9.9,16,,,0,,65,,340,Dry,1010,2,40,915,,,3.8,
Tain Range,01/10/2019 16:00,8.5,15,,,0,,71,,330,Dry,1010,4,45,796,,,3.7,
Tain Range,01/10/2019 17:00,6.9,12,,,0,,76,29,330,Dry,1011,1,50,305,,,3.1,
Tain Range,01/10/2019 18:00,6.4,13,,10.9,0,0,79,,320,Dry,1011,2,50,75,,,3.2,
Tain Range,01/10/2019 19:00,5.6,8,,,0,,80,,310,Dry,1012,1,50,0,,,2.5,
Tain Range,01/10/2019 20:00,5.4,12,,,0,,83,,320,Dry,1013,4,35,0,,,2.8,
Tain Range,01/10/2019 21:00,5.3,9,,,0,,82,,290,Dry,1013,2,35,0,,,2.5,
Tain Range,01/10/2019 22:00,4.6,10,,,0,,84,,290,Dry,1013,1,50,0,,,2.2,
Tain Range,01/10/2019 23:00,3.5,9,,,0,,86,,270,Dry,1014,0,35,0,,,1.5,
Tain Range,02/10/2019 00:00,5.5,13,,,0,0,82,,300,Dry,1014,5,45,,,,2.7,
Tain Range,02/10/2019 01:00,6.3,16,,,0,,78,,300,Dry,1014,3,45,0,,,2.9,
Tain Range,02/10/2019 02:00,5.7,14,,,0,,84,,280,Rain,1014,5,50,0,,,3.3,
Tain Range,02/10/2019 03:00,6.5,13,,,0,,85,,300,Dry,1014,7,35,0,,,4.2,
Tain Range,02/10/2019 04:00,6.5,16,,,0,,84,,300,Rain,1014,2,40,0,,,4,
Tain Range,02/10/2019 05:00,6.9,17,,,0,,83,,290,Dry,1014,0,45,0,,,4.3,
Tain Range,02/10/2019 06:00,6.7,15,3.5,,0,0,84,,320,Dry,1015,1,20,0,,,4.3,
Tain Range,02/10/2019 07:00,7,16,,,0,,82,,300,Dry,1016,,45,18,,,4.3,
Tain Range,02/10/2019 08:00,7.8,15,,,0,,81,,290,Dry,1016,0,50,306,,,4.9,
Tain Range,02/10/2019 09:00,9.5,15,,,0,,78,,300,Dry,1017,3,30,745,,,5.9,
Tain Range,02/10/2019 10:00,10.2,16,,,0,,77,,300,Dry,1018,6,30,1027,,,6.4,
Tain Range,02/10/2019 11:00,10.6,20,,,0.2,,81,,310,Rain,1018,3,40,980,,,7.5,
Tain Range,02/10/2019 12:00,12.2,17,,,0,0.2,70,,330,Dry,1018,0,26,1245,,,6.9,
Tain Range,02/10/2019 13:00,11.7,13,,,0,,71,,310,Dry,1019,7,45,862,,,6.8,
Tain Range,02/10/2019 14:00,10.6,14,,,0,,78,,340,Moderate shower,1019,8,13,819,,,7.1,
Tain Range,02/10/2019 15:00,10.6,10,,,0.2,,80,,330,Rain,1019,1,18,494,,,7.4,
Tain Range,02/10/2019 16:00,10.5,9,,,0,,81,,280,Dry,1020,1,35,343,,,7.5,
Tain Range,02/10/2019 17:00,9.8,8,,,0,,83,,290,Dry,1020,1,50,283,,,7.1,
Tain Range,02/10/2019 18:00,9.3,7,,12.7,0,0.2,79,,310,Dry,1020,7,40,63,,,5.9,
Tain Range,02/10/2019 19:00,8.1,9,,,0,,81,,330,Dry,1021,5,50,0,,,5.1,
Tain Range,02/10/2019 20:00,7.1,7,,,0,,87,,250,Dry,1021,7,40,0,,,5.2,
Tain Range,02/10/2019 21:00,5.8,9,,,0,,90,,280,Dry,1022,1,35,0,,,4.3,
Tain Range,02/10/2019 22:00,6.9,5,,,0,,84,,280,Dry,1022,7,45,0,,,4.5,
Tain Range,02/10/2019 23:00,3.8,7,,,0,,92,,320,Dry,1021,1,35,0,,,2.7,
Tain Range,03/10/2019 00:00,3.1,7,,,0,0,94,,260,Dry,1021,4,40,,,,2.3,
Tain Range,03/10/2019 01:00,4.4,7,,,0,,97,,310,Dry,1021,1,45,0,,,4.1,
Tain Range,03/10/2019 02:00,3.3,5,,,0,,95,,250,Dry,1020,6,40,0,,,2.7,
Tain Range,03/10/2019 03:00,4.9,3,,,0,,94,,240,Dry,1020,8,45,0,,,4.1,
Tain Range,03/10/2019 04:00,3.9,6,,,0,,93,,240,Dry,1019,7,50,0,,,3,
Tain Range,03/10/2019 05:00,5.2,3,,,0,,91,,240,Dry,1019,7,40,0,,,3.9,
Tain Range,03/10/2019 06:00,4.4,3,2.1,,0,0,91,,280,Dry,1019,7,45,0,,,3.2,
Tain Range,03/10/2019 07:00,4.1,5,,,0,,95,,210,Dry,1018,7,45,14,,,3.4,
Tain Range,03/10/2019 08:00,6.2,3,,,0,,93,,210,Dry,1018,8,45,146,,,5.2,
Tain Range,03/10/2019 09:00,8.6,1,,,0,,83,,180,Dry,1017,8,35,520,,,6,
Tain Range,03/10/2019 10:00,9.9,5,,,0,,81,,150,Dry,1016,3,30,816,,,6.8,
Tain Range,03/10/2019 11:00,10.5,8,,,0,,78,,130,Dry,1016,5,40,1013,,,6.9,
Tain Range,03/10/2019 12:00,11.4,14,,,0,0,84,,100,Dry,1014,1,50,1468,,,8.8,
Tain Range,03/10/2019 13:00,11.2,20,,,0,,82,,100,Dry,1013,1,35,1519,,,8.3,
Tain Range,03/10/2019 14:00,11.1,18,,,0,,86,,100,Dry,1012,7,28,535,,,9,
Tain Range,03/10/2019 15:00,11.3,20,,,0,,87,,110,Dry,1011,7,40,455,,,9.3,
Tain Range,03/10/2019 16:00,10.8,23,,,0,,88,30,100,Dry,1009,1,50,408,,,8.9,
Tain Range,03/10/2019 17:00,10.7,21,,,0,,88,29,100,Dry,1008,6,21,266,,,8.9,
Tain Range,03/10/2019 18:00,10.3,17,,12.1,0,0,82,,110,Dry,1007,1,50,57,,,7.4,
Tain Range,03/10/2019 19:00,10.1,20,,,0,,76,,120,Dry,1007,7,50,0,,,6.2,
Tain Range,03/10/2019 20:00,9.8,18,,,0,,77,,120,Dry,1007,8,50,0,,,6,
Tain Range,03/10/2019 21:00,9.8,21,,,0,,79,,110,Dry,1006,8,50,0,,,6.5,
Tain Range,03/10/2019 22:00,9.7,21,,,0,,80,29,110,Dry,1005,,45,0,,,6.6,
Tain Range,03/10/2019 23:00,10,17,,,0,,79,,110,Dry,1005,8,35,0,,,6.7,
Tain Range,04/10/2019 00:00,10.2,21,,,0,0,78,30,110,Dry,1004,8,45,,,,6.6,
Tain Range,04/10/2019 01:00,10.3,24,,,0,,79,31,110,Dry,1004,8,7,0,,,7,
Tain Range,04/10/2019 02:00,10.4,22,,,0,,79,31,120,Dry,1004,8,45,0,,,7,
Tain Range,04/10/2019 03:00,10.3,22,,,0,,82,30,110,Dry,1004,8,45,0,,,7.4,
Tain Range,04/10/2019 04:00,10.8,21,,,0,,80,30,110,Dry,1004,7,30,0,,,7.6,
Tain Range,04/10/2019 05:00,10.5,23,,,0,,85,31,100,Dry,1005,8,30,0,,,8.2,
Tain Range,04/10/2019 06:00,10.1,20,9.4,,0,0,89,30,90,Dry,1006,7,30,0,,,8.5,
Tain Range,04/10/2019 07:00,10,21,,,0,,87,,100,Drizzle,1006,7,40,14,,,8.1,
Tain Range,04/10/2019 08:00,10.4,21,,,0,,90,,90,Rain,1007,7,13,151,,,8.9,
Tain Range,04/10/2019 09:00,11,18,,,0.2,,88,31,100,Rain,1008,7,18,331,,,9.1,
Tain Range,04/10/2019 10:00,10.4,20,,,0.2,,92,,100,Rain,1008,8,3,426,,,9.2,
Tain Range,04/10/2019 11:00,11.3,15,,,0,,86,,100,Rain,1009,7,30,704,,,9.2,
Tain Range,04/10/2019 12:00,11,17,,,0,0.4,83,,80,Haze,1010,8,18,491,,,8.4,
Tain Range,04/10/2019 13:00,11.8,18,,,0,,76,,80,Dry,1010,8,45,691,,,7.8,
Tain Range,04/10/2019 14:00,11.6,16,,,0,,74,,80,Dry,1011,8,27,695,,,7.3,
Tain Range,04/10/2019 15:00,11.4,15,,,0,,71,,70,Dry,1012,8,35,687,,,6.5,
Tain Range,04/10/2019 16:00,10.9,14,,,0,,72,,80,Dry,1012,8,45,503,,,6.1,
Tain Range,04/10/2019 17:00,10.4,12,,,0,,71,,70,Dry,1013,8,40,299,,,5.4,
Tain Range,04/10/2019 18:00,8.9,9,,11.8,0,0,72,,80,Dry,1013,5,50,75,,,4.3,
Tain Range,04/10/2019 19:00,6.9,6,,,0,,78,,110,Dry,1014,0,50,0,,,3.4,
Tain Range,04/10/2019 20:00,2.5,1,,,0,,84,,140,Dry,1014,,50,0,,,0.1,
Tain Range,04/10/2019 21:00,4.2,1,,,0,,95,,230,Dry,1015,7,50,0,,,3.5,
Tain Range,04/10/2019 22:00,3.1,3,,,0,,93,,190,Dry,1015,1,45,0,,,2.1,
Tain Range,04/10/2019 23:00,1.4,1,,,0,,93,,260,Dry,1015,0,24,0,,,0.4,
Tain Range,05/10/2019 00:00,0.5,5,,,0,0,95,,260,Dry,1015,0,30,,,,-0.1,
Tain Range,05/10/2019 01:00,0.5,2,,,0,,97,,40,Dry,1015,,9,0,,,0.2,
Tain Range,05/10/2019 02:00,0.4,3,,,0,,98,,270,Fog,1015,1,35,0,,,0.2,
Tain Range,05/10/2019 03:00,-0.9,1,,,0,,97,,350,Misty,1015,0,10,0,,,-1.2,
Tain Range,05/10/2019 04:00,-0.2,2,,,0,,99,,360,Thickening fog,1015,5,0,0,,,-0.3,
Tain Range,05/10/2019 05:00,2.4,1,,,0,,99,,250,Fog,1014,8,35,2,,,2.3,
Tain Range,05/10/2019 06:00,3.4,1,-1.5,,0,0,100,,40,Dry,1015,6,50,0,,,3.4,
Tain Range,05/10/2019 07:00,4.8,3,,,0,,100,,300,Dry,1015,1,35,23,,,4.8,
Tain Range,05/10/2019 08:00,6.6,5,,,0,,99,,230,Dry,1015,2,50,137,,,6.5,
Tain Range,05/10/2019 09:00,9.5,10,,,0,,91,,130,Dry,1015,4,45,318,,,8.2,
Tain Range,05/10/2019 10:00,10.6,15,,,0,,85,,120,Dry,1015,1,45,523,,,8.2,
Tain Range,05/10/2019 11:00,11.8,16,,,0,,77,,120,Dry,1014,5,40,710,,,8,
Tain Range,05/10/2019 12:00,12,17,,,0,0,82,,120,Dry,1014,7,40,773,,,9.2,
Tain Range,05/10/2019 13:00,12.5,16,,,0,,81,,120,Dry,1013,7,40,547,,,9.5,
Tain Range,05/10/2019 14:00,12.6,20,,,0,,79,,120,Dry,1012,7,40,536,,,9.2,
Tain Range,05/10/2019 15:00,12.5,16,,,0,,78,,130,Dry,1013,6,30,339,,,8.9,
Tain Range,05/10/2019 16:00,12.3,17,,,0,,77,,130,Dry,1012,8,45,162,,,8.4,
Tain Range,05/10/2019 17:00,11.7,17,,,0,,79,,130,Light shower,1012,8,23,61,,,8.2,
Tain Range,05/10/2019 18:00,10.7,16,,12.9,0.6,0.6,89,,120,Light rain,1012,8,13,7,,,9.1,
Tain Range,05/10/2019 19:00,10.7,17,,,0.6,,91,,120,Light rain,1012,8,19,0,,,9.3,
Tain Range,05/10/2019 20:00,10.5,15,,,0.8,,92,,130,Moderate rain,1012,8,15,0,,,9.3,
Tain Range,05/10/2019 21:00,10.4,13,,,0.8,,92,,120,Light rain,1011,8,35,0,,,9.2,
Tain Range,05/10/2019 22:00,10.3,9,,,1,,94,,120,Moderate rain,1011,8,18,0,,,9.4,
Tain Range,05/10/2019 23:00,10.3,9,,,0.6,,93,,120,Light rain,1010,8,21,0,,,9.3,
Tain Range,06/10/2019 00:00,10.4,13,,,1,5,94,,110,Moderate rain,1010,8,21,,,,9.6,
Tain Range,06/10/2019 01:00,10.5,17,,,0.6,,94,,110,Light rain,1009,8,14,0,,,9.7,
Tain Range,06/10/2019 02:00,10.8,17,,,0.8,,95,,110,Light rain,1008,8,13,0,,,10.1,
Tain Range,06/10/2019 03:00,11,17,,,0.8,,92,,120,Light rain,1008,8,11,0,,,9.9,
Tain Range,06/10/2019 04:00,10.7,17,,,1.2,,93,,120,Moderate rain,1009,1,11,0,,,9.7,
Tain Range,06/10/2019 05:00,10.7,17,,,1,,92,,120,Light rain,1009,1,11,0,,,9.6,
Tain Range,06/10/2019 06:00,10.2,15,10.2,,0.8,5,92,,120,Light rain,1010,8,16,0,,,9,
Tain Range,06/10/2019 07:00,10.1,13,,,0.8,,93,,120,Moderate rain,1010,8,16,1,,,9.1,
Tain Range,06/10/2019 08:00,10.2,12,,,0.8,,93,,120,Light rain,1011,8,26,68,,,9.2,
Tain Range,06/10/2019 09:00,10.5,14,,,0.4,,89,,120,Light rain,1012,8,35,214,,,8.8,
Tain Range,06/10/2019 10:00,10.9,14,,,0.2,,89,,120,Light rain,1012,8,35,366,,,9.3,
Tain Range,06/10/2019 11:00,12.2,14,,,0,,85,,120,Rain,1013,3,45,844,,,9.9,
Tain Range,06/10/2019 12:00,12.2,17,,,0,2,85,,120,Dry,1013,1,45,1473,,,9.8,
Tain Range,06/10/2019 13:00,13.1,20,,,0,,73,,130,Dry,1014,2,40,921,,,8.4,
Tain Range,06/10/2019 14:00,13.3,16,,,0,,73,,130,Dry,1014,0,45,1364,,,8.7,
Tain Range,06/10/2019 15:00,13.1,14,,,0,,71,,150,Dry,1015,2,45,829,,,8.1,
Tain Range,06/10/2019 16:00,12.9,13,,,0,,69,,160,Dry,1015,7,50,489,,,7.5,
Tain Range,06/10/2019 17:00,11.9,15,,,0,,73,,150,Dry,1016,6,50,201,,,7.4,
Tain Range,06/10/2019 18:00,11.9,14,,13.9,0,0,73,,150,Dry,1016,7,45,21,,,7.3,
Tain Range,06/10/2019 19:00,10.6,15,,,0,,80,,130,Dry,1015,4,35,0,,,7.4,
Tain Range,06/10/2019 20:00,10.3,17,,,0,,83,,130,Dry,1015,,29,0,,,7.7,
Tain Range,06/10/2019 21:00,10.7,20,,,0,,82,,130,Dry,1014,0,29,0,,,7.9,
Tain Range,06/10/2019 22:00,10.5,15,,,0,,83,,130,Dry,1014,0,19,0,,,7.9,
Tain Range,06/10/2019 23:00,10.9,16,,,0,,79,,140,Dry,1013,1,25,0,,,7.5,
Tain Range,07/10/2019 00:00,11.9,17,,,0,0,73,,150,Dry,1013,6,40,,,,7.3,
Tain Range,07/10/2019 01:00,12.1,21,,,0,,72,29,140,Dry,1011,8,45,0,,,7.3,
Tain Range,07/10/2019 02:00,11.9,15,,,0,,75,,150,Dry,1010,7,40,0,,,7.7,
Tain Range,07/10/2019 03:00,12.2,22,,,0,,75,32,150,Dry,1009,7,50,0,,,8,
Tain Range,07/10/2019 04:00,12.2,21,,,0,,76,31,150,Dry,1006,8,35,0,,,8.2,
Tain Range,07/10/2019 05:00,12.3,17,,,0,,76,35,150,Dry,1005,7,30,0,,,8.3,
Tain Range,07/10/2019 06:00,12.5,20,10.3,,0.2,0.2,77,30,180,Rain,1004,8,40,0,,,8.6,
Tain Range,07/10/2019 07:00,13,23,,,0,,69,36,180,Dry,1003,8,40,0,,,7.6,
Tain Range,07/10/2019 08:00,12.7,15,,,0,,72,30,180,Moderate shower,1002,8,50,20,,,7.8,
Tain Range,07/10/2019 09:00,12.3,13,,,0,,80,,190,Rain,1001,8,50,83,,,9,
Tain Range,07/10/2019 10:00,12.3,16,,,0.2,,81,,190,Light shower,1000,7,50,195,,,9.2,
Tain Range,07/10/2019 11:00,12.6,18,,,0,,79,,180,Rain,999,7,50,224,,,9.1,
Tain Range,07/10/2019 12:00,12.7,15,,,0,0.2,80,,180,Rain,998,7,45,250,,,9.5,
Tain Range,07/10/2019 13:00,13.4,14,,,0.6,,87,,210,Rain,998,6,35,771,,,11.4,
Tain Range,07/10/2019 14:00,14.9,9,,,0,,74,,250,Dry,998,2,23,1495,,,10.5,
Tain Range,07/10/2019 15:00,14.5,16,,,0,,63,,220,Dry,998,1,30,868,,,7.6,
Tain Range,07/10/2019 16:00,12.5,15,,,0,,72,,210,Dry,998,3,45,800,,,7.7,
Tain Range,07/10/2019 17:00,11.3,13,,,0,,75,,210,Dry,997,1,18,264,,,7.2,
Tain Range,07/10/2019 18:00,10.2,10,,15.4,0,0.6,81,,190,Rain,997,2,24,39,,,7.1,
Tain Range,07/10/2019 19:00,10.1,14,,,0,,83,,210,Dry,996,4,17,0,,,7.5,
Tain Range,07/10/2019 20:00,9.7,9,,,0.2,,87,,240,Moderate shower,997,7,7,0,,,7.7,
Tain Range,07/10/2019 21:00,7.7,2,,,0.4,,85,,80,Rain,996,8,45,0,,,5.4,
Tain Range,07/10/2019 22:00,7.5,10,,,0,,92,,190,Dry,995,1,50,0,,,6.3,
Tain Range,07/10/2019 23:00,8.2,9,,,0,,91,,180,Dry,995,2,45,0,,,6.9,
Tain Range,08/10/2019 00:00,8.1,12,,,0,0.6,92,,210,Dry,994,1,28,,,,6.9,
Tain Range,08/10/2019 01:00,6.9,5,,,0,,92,,240,Dry,994,1,28,0,,,5.7,
Tain Range,08/10/2019 02:00,8.4,10,,,0,,93,,210,Dry,993,2,40,0,,,7.4,
Tain Range,08/10/2019 03:00,9.9,14,,,0,,87,,200,Dry,992,2,35,0,,,7.9,
Tain Range,08/10/2019 04:00,10.1,16,,,0,,88,,200,Drizzly rain,992,7,12,0,,,8.3,
Tain Range,08/10/2019 05:00,9.3,9,,,0,,90,,200,Rain,991,7,50,0,,,7.8,
Tain Range,08/10/2019 06:00,9,13,6.6,,0.2,0.2,88,,210,Light shower,991,1,29,0,,,7.2,
Tain Range,08/10/2019 07:00,8.1,16,,,0,,82,,220,Rain,990,3,50,2,,,5.3,
Tain Range,08/10/2019 08:00,8.7,6,,,0,,89,,130,Dry,990,0,40,146,,,7,
Tain Range,08/10/2019 09:00,10.8,14,,,0,,78,,200,Dry,989,1,26,638,,,7.3,
Tain Range,08/10/2019 10:00,10.6,14,,,0,,83,,210,Dry,988,4,28,307,,,8,
Tain Range,08/10/2019 11:00,10.5,17,,,0.2,,86,,210,Moderate shower,987,6,18,549,,,8.3,
Tain Range,08/10/2019 12:00,11.6,12,,,0.2,0.4,86,,210,Drizzly rain,987,7,35,840,,,9.5,
Tain Range,08/10/2019 13:00,12.5,14,,,0,,83,,220,Drizzly rain,986,6,27,1251,,,9.7,
Tain Range,08/10/2019 14:00,12.7,13,,,0.2,,83,,220,Rain,986,7,13,1134,,,10,
Tain Range,08/10/2019 15:00,11.7,15,,,0.8,,89,,220,Moderate rain,986,8,5,572,,,10,
Tain Range,08/10/2019 16:00,11.4,14,,,0.4,,91,,210,Light shower,986,6,19,380,,,10.1,
Tain Range,08/10/2019 17:00,11.3,9,,,0,,90,,220,Rain,986,1,50,165,,,9.8,
Tain Range,08/10/2019 18:00,10.7,10,,13.2,0,1.6,91,,220,Drizzly rain,986,7,24,21,,,9.3,
Tain Range,08/10/2019 19:00,9.7,6,,,0.2,,92,,180,Rain,986,8,45,0,,,8.5,
Tain Range,08/10/2019 20:00,9.3,6,,,0,,91,,210,Dry,986,6,40,0,,,8,
Tain Range,08/10/2019 21:00,9,8,,,0,,92,,220,Dry,986,2,50,0,,,7.8,
Tain Range,08/10/2019 22:00,9.1,7,,,0,,89,,200,Dry,986,4,45,0,,,7.5,
Tain Range,08/10/2019 23:00,9.6,9,,,0,,89,,210,Dry,987,7,40,0,,,7.9,
Tain Range,09/10/2019 00:00,9.4,12,,,0,0.2,89,,220,Dry,986,7,40,,,,7.8,
Tain Range,09/10/2019 01:00,9.4,13,,,0,,89,,230,Dry,986,3,45,0,,,7.8,
Tain Range,09/10/2019 02:00,9.5,14,,,0,,87,,230,Dry,986,4,29,0,,,7.6,
Tain Range,09/10/2019 03:00,9.6,15,,,0,,86,,220,Dry,986,2,40,0,,,7.4,
Tain Range,09/10/2019 04:00,9.4,15,,,0,,86,,220,Dry,986,3,50,0,,,7.3,
Tain Range,09/10/2019 05:00,9.3,13,,,0,,87,,210,Dry,987,5,40,0,,,7.3,
Tain Range,09/10/2019 06:00,8.9,13,8.9,,0,0,89,,210,Rain,987,5,30,0,,,7.3,
Tain Range,09/10/2019 07:00,9,14,,,0,,88,,210,Dry,987,5,40,0,,,7.2,
Tain Range,09/10/2019 08:00,9.8,12,,,0,,84,,220,Dry,986,2,50,110,,,7.3,
Tain Range,09/10/2019 09:00,11.1,13,,,0,,80,,210,Dry,987,4,40,548,,,7.9,
Tain Range,09/10/2019 10:00,11.3,14,,,0,,79,,210,Dry,987,5,45,636,,,7.9,
Tain Range,09/10/2019 11:00,12.3,17,,,0,,78,,210,Dry,986,6,40,850,,,8.6,
Tain Range,09/10/2019 12:00,12.9,20,,,0,0,74,,220,Dry,986,3,35,971,,,8.5,
Tain Range,09/10/2019 13:00,12.3,18,,,0,,73,29,240,Dry,986,2,40,835,,,7.7,
Tain Range,09/10/2019 14:00,12.5,22,,,0,,71,31,230,Dry,987,1,45,735,,,7.5,
Tain Range,09/10/2019 15:00,12.5,21,,,0,,72,30,230,Dry,987,,50,956,,,7.7,
Tain Range,09/10/2019 16:00,11.7,20,,,0,,78,,230,Dry,987,4,50,374,,,8,
Tain Range,09/10/2019 17:00,11,17,,,0,,81,,210,Dry,987,5,50,222,,,7.9,
Tain Range,09/10/2019 18:00,10.9,15,,13.2,0,0,83,,200,Dry,987,4,50,36,,,8.3,
Tain Range,09/10/2019 19:00,11.2,15,,,0,,79,,220,Rain,987,7,40,0,,,7.7,
Tain Range,09/10/2019 20:00,10.5,15,,,0.2,,88,,220,Rain,987,8,50,0,,,8.6,
Tain Range,09/10/2019 21:00,10.5,17,,,0.4,,91,,230,Moderate shower,988,7,23,0,,,9.1,
Tain Range,09/10/2019 22:00,10.4,14,,,0.4,,91,,230,Light rain,988,8,35,0,,,9,
Tain Range,09/10/2019 23:00,10.3,12,,,0,,92,,220,Rain,988,8,35,0,,,9.1,
Tain Range,10/10/2019 00:00,10.1,13,,,0,1,91,,230,Dry,989,6,50,,,,8.8,
Tain Range,10/10/2019 01:00,10,9,,,0.2,,87,,240,Rain,990,5,35,0,,,8,
Tain Range,10/10/2019 02:00,10.3,16,,,0,,84,,260,Dry,990,4,45,0,,,7.8,
Tain Range,10/10/2019 03:00,9.1,10,,,0,,88,,250,Dry,991,1,50,0,,,7.3,
Tain Range,10/10/2019 04:00,9.8,20,,,0,,85,31,280,Rain,992,2,50,0,,,7.5,
Tain Range,10/10/2019 05:00,9.5,15,,,0,,83,33,290,Dry,993,1,30,0,,,6.9,
Tain Range,10/10/2019 06:00,9.6,12,9,,0,0,77,,260,Dry,994,6,45,0,,,5.9,
Tain Range,10/10/2019 07:00,9.5,12,,,0,,75,,260,Dry,995,7,40,1,,,5.4,
Tain Range,10/10/2019 08:00,9.4,10,,,0,,77,,220,Dry,996,3,45,131,,,5.7,
Tain Range,10/10/2019 09:00,11.1,14,,,0,,72,,220,Dry,996,6,50,655,,,6.4,
Tain Range,10/10/2019 10:00,11.9,14,,,0,,75,,240,Dry,996,1,30,909,,,7.7,
Tain Range,10/10/2019 11:00,12.9,12,,,0,,68,,250,Dry,997,7,30,1263,,,7.2,
Tain Range,10/10/2019 12:00,12.5,14,,,0,0,68,,240,Dry,996,7,50,1067,,,6.9,
Tain Range,10/10/2019 13:00,14,14,,,0,,64,,240,Dry,996,3,30,1362,,,7.5,
Tain Range,10/10/2019 14:00,12.6,12,,,0,,70,,210,Dry,996,5,30,676,,,7.4,
Tain Range,10/10/2019 15:00,12.5,7,,,0,,73,,210,Dry,995,7,45,584,,,7.8,
Tain Range,10/10/2019 16:00,11.6,6,,,0,,78,,190,Dry,995,1,50,350,,,8,
Tain Range,10/10/2019 17:00,10.8,6,,,0,,83,,180,Dry,994,7,50,99,,,8.2,
Tain Range,10/10/2019 18:00,9.9,8,,14.1,0.2,0.2,89,,190,Light shower,993,8,29,2,,,8.2,
Tain Range,10/10/2019 19:00,9.2,3,,,0.6,,94,,150,Light rain,993,1,19,0,,,8.3,
Tain Range,10/10/2019 20:00,9.3,9,,,0.6,,94,,160,Light rain,992,8,26,0,,,8.4,
Tain Range,10/10/2019 21:00,9.2,7,,,0,,94,,140,Rain,990,8,50,0,,,8.4,
Tain Range,10/10/2019 22:00,9.4,3,,,1,,94,,200,Moderate shower,990,8,9,0,,,8.6,
Tain Range,10/10/2019 23:00,9.3,2,,,0.8,,95,,220,Light shower,989,1,24,0,,,8.6,
Tain Range,11/10/2019 00:00,8.4,6,,,0,3,95,,210,Rain,989,8,40,,,,7.7,
Tain Range,11/10/2019 01:00,8.1,7,,,0,,95,,210,Dry,989,8,45,0,,,7.5,
Tain Range,11/10/2019 02:00,7.7,2,,,0,,95,,220,Dry,989,7,50,0,,,7.1,
Tain Range,11/10/2019 03:00,7.1,6,,,0,,97,,200,Rain,989,7,28,0,,,6.7,
Tain Range,11/10/2019 04:00,7.7,1,,,0,,97,,180,Dry,988,,35,0,,,7.4,
Tain Range,11/10/2019 05:00,7.5,3,,,0,,97,,210,Dry,988,6,28,0,,,7.2,
Tain Range,11/10/2019 06:00,7.8,8,6.2,,0.2,0,96,,220,Rain,988,8,27,0,,,7.3,
Tain Range,11/10/2019 07:00,7.6,8,,,0,,97,,220,Light shower,987,8,8,2,,,7.2,
Tain Range,11/10/2019 08:00,9,9,,,0,,95,,230,Rain,987,5,40,188,,,8.3,
Tain Range,11/10/2019 09:00,10.2,13,,,0,,87,,220,Dry,988,2,40,429,,,8.3,
Tain Range,11/10/2019 10:00,11.5,17,,,0,,84,,230,Rain,988,7,50,1058,,,9,
Tain Range,11/10/2019 11:00,11.7,13,,,0.2,,84,,230,Rain,988,3,40,938,,,9.1,
Tain Range,11/10/2019 12:00,13,12,,,0,0.2,77,,230,Dry,987,6,40,1465,,,9.1,
Tain Range,11/10/2019 13:00,12.2,16,,,0,,82,,230,Rain,987,3,50,762,,,9.4,
Tain Range,11/10/2019 14:00,11.7,9,,,0,,84,,230,Rain,988,8,15,395,,,9.2,
Tain Range,11/10/2019 15:00,12.2,14,,,0,,76,,250,Rain,988,8,50,274,,,8.2,
Tain Range,11/10/2019 16:00,11.9,12,,,0,,78,,270,Dry,988,7,50,182,,,8.3,
Tain Range,11/10/2019 17:00,11.4,10,,,0,,78,,250,Dry,988,8,50,193,,,7.8,
Tain Range,11/10/2019 18:00,10.5,9,,13.6,0,0,83,,230,Dry,989,7,40,15,,,7.8,
Tain Range,11/10/2019 19:00,10.1,5,,,0,,84,,350,Dry,989,6,50,0,,,7.6,
Tain Range,11/10/2019 20:00,8.8,6,,,0,,86,,220,Dry,990,7,50,0,,,6.6,
Tain Range,11/10/2019 21:00,8.9,5,,,0,,89,,260,Rain,991,7,50,0,,,7.2,
Tain Range,11/10/2019 22:00,9.6,16,,,0.2,,92,,290,Rain,992,8,50,0,,,8.5,
Tain Range,11/10/2019 23:00,9.3,12,,,0.2,,89,,290,Rain,993,,50,0,,,7.7,
Tain Range,12/10/2019 00:00,9,10,,,0,0.4,83,,270,Dry,994,8,50,,,,6.4,
Tain Range,12/10/2019 01:00,8.8,10,,,0,,74,,250,Light shower,994,7,50,0,,,4.6,
Tain Range,12/10/2019 02:00,8.1,6,,,0,,85,,230,Rain,995,,50,0,,,5.8,
Tain Range,12/10/2019 03:00,8.6,10,,,0,,86,,230,Rain,995,8,50,0,,,6.5,
Tain Range,12/10/2019 04:00,7.8,12,,,0,,88,,220,Dry,995,7,50,0,,,6,
Tain Range,12/10/2019 05:00,8.3,16,,,0,,86,,230,Dry,995,8,50,0,,,6.1,
Tain Range,12/10/2019 06:00,7.5,12,7.2,,0,0,89,,230,Dry,996,6,50,0,,,5.9,
Tain Range,12/10/2019 07:00,6.3,3,,,0,,88,,240,Dry,996,,50,0,,,4.5,
Tain Range,12/10/2019 08:00,7.9,5,,,0,,88,,220,Dry,996,0,35,167,,,6.2,
Tain Range,12/10/2019 09:00,9.8,9,,,0,,80,,230,Dry,997,0,30,594,,,6.6,
Tain Range,12/10/2019 10:00,11,14,,,0,,76,,220,Dry,997,4,40,966,,,7,
Tain Range,12/10/2019 11:00,12.6,9,,,0,,68,,260,Dry,998,2,50,880,,,6.9,
Tain Range,12/10/2019 12:00,12.8,15,,,0,0,67,,240,Dry,998,2,29,1507,,,7,
Tain Range,12/10/2019 13:00,13.1,15,,,0,,63,,260,Dry,998,3,29,1517,,,6.3,
Tain Range,12/10/2019 14:00,12.7,13,,,0,,65,,230,Dry,998,6,45,1272,,,6.4,
Tain Range,12/10/2019 15:00,13.2,13,,,0,,59,,250,Dry,999,4,40,1026,,,5.6,
Tain Range,12/10/2019 16:00,11.6,10,,,0,,62,,260,Dry,999,1,50,463,,,4.7,
Tain Range,12/10/2019 17:00,10.3,9,,,0,,74,,230,Dry,999,7,50,192,,,5.9,
Tain Range,12/10/2019 18:00,8,7,,14.1,0,0,81,,230,Dry,1000,1,50,22,,,5,
Tain Range,12/10/2019 19:00,7.4,9,,,0,,86,,220,Dry,1000,0,50,0,,,5.3,
Tain Range,12/10/2019 20:00,7.9,8,,,0,,87,,300,Dry,1001,5,50,0,,,6,
Tain Range,12/10/2019 21:00,6.5,6,,,0,,87,,260,Dry,1001,0,50,0,,,4.6,
Tain Range,12/10/2019 22:00,6.7,8,,,0,,90,,220,Dry,1002,0,50,0,,,5.2,
Tain Range,12/10/2019 23:00,4.8,10,,,0,,94,,210,Dry,1002,,50,0,,,4,
Tain Range,13/10/2019 00:00,4.4,6,,,0,0,91,,200,Dry,1002,,50,,,,3.2,
Tain Range,13/10/2019 01:00,2.6,1,,,0,,93,,290,Dry,1002,,27,0,,,1.7,
Tain Range,13/10/2019 02:00,3.2,5,,,0,,97,,260,Fog,1002,0,50,0,,,2.8,
Tain Range,13/10/2019 03:00,1.8,5,,,0,,97,,250,Dry,1002,,50,0,,,1.4,
Tain Range,13/10/2019 04:00,0.4,2,,,0,,97,,210,Dry,1002,0,35,0,,,0,
Tain Range,13/10/2019 05:00,-0.6,5,,,0,,97,,240,Fog,1002,0,35,0,,,-0.9,
Tain Range,13/10/2019 06:00,-1.1,3,-1.1,,0,0,97,,220,Thickening fog,1002,2,0,0,,,-1.4,
Tain Range,13/10/2019 07:00,-0.7,1,,,0,,98,,300,Patchy fog,1003,1,0,0,,,-0.9,
Tain Range,13/10/2019 08:00,0.3,2,,,0,,99,,220,Thickening fog,1003,5,0,139,,,0.2,
Tain Range,13/10/2019 09:00,4.5,3,,,0,,99,,310,Fog,1003,0,35,448,,,4.4,
Tain Range,13/10/2019 10:00,7.4,1,,,0,,97,,320,Dry,1003,0,30,858,,,7.1,
Tain Range,13/10/2019 11:00,8.6,2,,,0,,86,,110,Dry,1003,0,35,1069,,,6.5,
Tain Range,13/10/2019 12:00,10.5,3,,,0,0,81,,90,Dry,1002,0,30,1252,,,7.4,
Tain Range,13/10/2019 13:00,10,7,,,0,,85,,50,Dry,1002,1,35,1322,,,7.6,
Tain Range,13/10/2019 14:00,10.6,8,,,0,,86,,50,Dry,1002,2,19,1215,,,8.4,
Tain Range,13/10/2019 15:00,10.7,8,,,0,,79,,80,Dry,1002,0,40,753,,,7.3,
Tain Range,13/10/2019 16:00,10.4,5,,,0,,82,,70,Dry,1002,0,16,549,,,7.6,
Tain Range,13/10/2019 17:00,8.4,5,,,0,,84,,70,Dry,1002,3,17,195,,,6,
Tain Range,13/10/2019 18:00,6.1,2,,10.9,0,0,95,,40,Dry,1002,7,50,10,,,5.4,
Tain Range,13/10/2019 19:00,4.7,1,,,0,,96,,270,Dry,1002,8,20,0,,,4.2,
Tain Range,13/10/2019 20:00,4.8,6,,,0,,97,,300,Dry,1003,4,18,0,,,4.5,
Tain Range,13/10/2019 21:00,5.2,7,,,0,,99,,290,Fog,1003,3,13,0,,,5.1,
Tain Range,13/10/2019 22:00,4.4,5,,,0,,98,,290,Fog,1004,4,23,0,,,4.2,
Tain Range,13/10/2019 23:00,5.4,3,,,0,,100,,310,Fog,1004,8,50,0,,,5.4,
Tain Range,14/10/2019 00:00,6.8,5,,,0,0,99,,290,Dry,1004,8,50,,,,6.7,
Tain Range,14/10/2019 01:00,5.5,3,,,0,,98,,250,Dry,1005,8,50,0,,,5.3,
Tain Range,14/10/2019 02:00,4.8,2,,,0,,98,,250,Dry,1005,8,45,0,,,4.6,
Tain Range,14/10/2019 03:00,5.7,3,,,0,,98,,240,Dry,1005,8,50,0,,,5.5,
Tain Range,14/10/2019 04:00,5.7,3,,,0,,99,,210,Rain,1006,3,40,0,,,5.6,
Tain Range,14/10/2019 05:00,5.8,0,,,0,,99,,0,Drizzle,1006,8,12,0,,,5.7,
Tain Range,14/10/2019 06:00,5.9,2,3.9,,0,0,98,,250,Rain,1006,8,50,0,,,5.7,
Tain Range,14/10/2019 07:00,5.6,1,,,0,,98,,290,Dry,1006,5,45,0,,,5.4,
Tain Range,14/10/2019 08:00,5.6,2,,,0,,99,,260,Dry,1007,2,20,168,,,5.5,
Tain Range,14/10/2019 09:00,7.2,5,,,0,,98,,270,Dry,1007,0,45,557,,,7,
Tain Range,14/10/2019 10:00,9.2,2,,,0,,90,,270,Dry,1008,1,50,976,,,7.8,
Tain Range,14/10/2019 11:00,11.8,7,,,0,,78,,190,Dry,1008,7,50,1234,,,8.2,
Tain Range,14/10/2019 12:00,12.4,7,,,0,0,72,,180,Dry,1008,1,50,1384,,,7.7,
Tain Range,14/10/2019 13:00,12.8,7,,,0,,73,,170,Dry,1007,4,50,1377,,,8.2,
Tain Range,14/10/2019 14:00,12.7,6,,,0,,71,,160,Dry,1007,7,35,1125,,,7.6,
Tain Range,14/10/2019 15:00,12.3,3,,,0,,71,,140,Dry,1007,8,45,613,,,7.3,
Tain Range,14/10/2019 16:00,11.1,5,,,0,,81,,130,Dry,1007,8,35,230,,,8.1,
Tain Range,14/10/2019 17:00,10.3,6,,,0,,85,,100,Dry,1007,8,50,80,,,8,
Tain Range,14/10/2019 18:00,9.6,5,,13.2,0,0,89,,110,Dry,1008,8,45,5,,,7.9,
Tain Range,14/10/2019 19:00,8.5,2,,,0,,94,,40,Dry,1007,8,35,0,,,7.6,
Tain Range,14/10/2019 20:00,8.1,2,,,0,,94,,290,Dry,1007,8,35,0,,,7.3,
Tain Range,14/10/2019 21:00,8.5,3,,,0,,96,,310,Dry,1007,8,50,0,,,8,
Tain Range,14/10/2019 22:00,8.4,1,,,0,,97,,340,Dry,1006,8,18,0,,,8,
Tain Range,14/10/2019 23:00,7.9,1,,,0,,97,,10,Dry,1006,8,12,0,,,7.5,
Tain Range,15/10/2019 00:00,6.7,5,,,0,0,97,,220,Thickening fog,1006,8,0,,,,6.3,
Tain Range,15/10/2019 01:00,5.6,2,,,0,,97,,210,Fog thinning,1005,,0,0,,,5.2,
Tain Range,15/10/2019 02:00,4.3,2,,,0,,97,,180,Fog,1005,7,0,0,,,3.9,
Tain Range,15/10/2019 03:00,2.8,0,,,0,,97,,0,Fog,1004,9,0,0,,,2.5,
Tain Range,15/10/2019 04:00,1.4,3,,,0,,97,,120,Fog thinning,1004,1,1,0,,,1.1,
Tain Range,15/10/2019 05:00,0.8,1,,,0,,97,,130,Fog,1004,0,27,0,,,0.4,
Tain Range,15/10/2019 06:00,1.2,0,0.2,,0,0,98,,0,Thickening fog,1003,0,0,0,,,1,
Tain Range,15/10/2019 07:00,0.8,1,,,0,,97,,310,Thickening fog,1003,1,0,0,,,0.5,
Tain Range,15/10/2019 08:00,2.4,6,,,0,,100,,240,Fog,1004,1,2,175,,,2.4,
Tain Range,15/10/2019 09:00,5.7,0,,,0.2,,100,,0,Dry,1003,0,29,487,,,5.7,
Tain Range,15/10/2019 10:00,10.6,9,,,0,,82,,140,Dry,1003,0,30,870,,,7.7,
Tain Range,15/10/2019 11:00,12,8,,,0,,74,,160,Dry,1002,0,30,1171,,,7.6,
Tain Range,15/10/2019 12:00,12,8,,,0,0.2,73,,110,Dry,1002,0,50,1347,,,7.4,
Tain Range,15/10/2019 13:00,12.3,8,,,0,,79,,90,Dry,1001,0,45,1372,,,8.9,
Tain Range,15/10/2019 14:00,12.3,14,,,0,,80,,90,Dry,1001,0,50,1245,,,9,
Tain Range,15/10/2019 15:00,11.4,16,,,0,,83,,110,Dry,1001,0,40,773,,,8.7,
Tain Range,15/10/2019 16:00,10.9,15,,,0,,83,,100,Dry,1000,1,30,299,,,8.3,
Tain Range,15/10/2019 17:00,10.3,14,,,0,,89,,100,Dry,1000,4,45,204,,,8.6,
Tain Range,15/10/2019 18:00,9.7,12,,12.6,0,0,93,,110,Dry,1000,1,45,8,,,8.7,
Tain Range,15/10/2019 19:00,8.9,3,,,0,,92,,90,Dry,1000,4,50,0,,,7.8,
Tain Range,15/10/2019 20:00,9.6,7,,,0,,94,,40,Dry,1000,8,40,0,,,8.7,
Tain Range,15/10/2019 21:00,9.9,14,,,0,,94,,110,Dry,999,8,50,0,,,9,
Tain Range,15/10/2019 22:00,9.5,14,,,0,,94,,110,Dry,999,3,50,0,,,8.7,
Tain Range,15/10/2019 23:00,9,12,,,0,,94,,110,Dry,999,1,50,0,,,8.1,
Tain Range,16/10/2019 00:00,8.5,9,,,0,0,94,,110,Dry,998,0,50,,,,7.7,
Tain Range,16/10/2019 01:00,7.9,7,,,0,,95,,100,Dry,998,3,45,0,,,7.2,
Tain Range,16/10/2019 02:00,6.9,2,,,0,,95,,30,Dry,997,4,17,0,,,6.2,
Tain Range,16/10/2019 03:00,8.5,2,,,0,,91,,110,Dry,996,6,50,0,,,7.2,
Tain Range,16/10/2019 04:00,6.7,5,,,0,,92,,130,Dry,996,2,40,0,,,5.6,
Tain Range,16/10/2019 05:00,6.5,1,,,0,,93,,180,Dry,995,,50,0,,,5.6,
Tain Range,16/10/2019 06:00,7.2,7,5.4,,0,0,97,,130,Dry,994,8,35,0,,,6.8,
Tain Range,16/10/2019 07:00,9.4,9,,,0,,90,,130,Dry,995,8,50,2,,,7.9,
Tain Range,16/10/2019 08:00,9.7,3,,,0,,92,,150,Drizzly rain,995,8,45,43,,,8.5,
Tain Range,16/10/2019 09:00,10.1,7,,,0.6,,92,,110,Moderate rain,995,8,9,149,,,9,
Tain Range,16/10/2019 10:00,11,6,,,0.2,,93,,100,Rain,995,8,35,434,,,10,
Tain Range,16/10/2019 11:00,12,6,,,0,,87,,180,Dry,995,7,40,682,,,10,
Tain Range,16/10/2019 12:00,11.8,3,,,0.4,1,88,,190,Light shower,995,8,21,418,,,9.9,
Tain Range,16/10/2019 13:00,11.5,5,,,0.2,,92,,220,Rain,996,8,8,303,,,10.4,
Tain Range,16/10/2019 14:00,10.8,6,,,0.4,,92,,350,Rain,996,7,40,286,,,9.7,
Tain Range,16/10/2019 15:00,11.2,5,,,0,,89,,220,Rain,997,8,50,405,,,9.5,
Tain Range,16/10/2019 16:00,11.7,5,,,0,,89,,230,Dry,997,8,50,320,,,10,
Tain Range,16/10/2019 17:00,9.8,6,,,0,,87,,240,Dry,997,2,40,216,,,7.8,
Tain Range,16/10/2019 18:00,6.6,2,,12.2,0,1,92,,260,Dry,998,,50,3,,,5.5,
Tain Range,16/10/2019 19:00,5.7,8,,,0,,92,,220,Dry,998,2,30,0,,,4.6,
Tain Range,16/10/2019 20:00,5.2,9,,,0,,91,,210,Dry,998,0,35,0,,,4,
Tain Range,16/10/2019 21:00,4.5,3,,,0,,93,,220,Dry,999,,40,0,,,3.5,
Tain Range,16/10/2019 22:00,4.1,8,,,0,,93,,200,Dry,999,0,45,0,,,3.2,
Tain Range,16/10/2019 23:00,3.9,10,,,0,,97,,220,Dry,1000,0,35,0,,,3.5,
Tain Range,17/10/2019 00:00,2.2,3,,,0,0,95,,270,Dry,1000,0,30,,,,1.5,
Tain Range,17/10/2019 01:00,1.9,3,,,0,,96,,180,Dry,1000,0,35,0,,,1.4,
Tain Range,17/10/2019 02:00,1.2,2,,,0,,97,,230,Misty,1000,0,9,0,,,0.9,
Tain Range,17/10/2019 03:00,1.5,3,,,0,,97,,230,Dry,1000,0,7,0,,,1.2,
Tain Range,17/10/2019 04:00,-0.3,2,,,0,,97,,220,Fog,1000,0,2,0,,,-0.6,
Tain Range,17/10/2019 05:00,1.4,1,,,0,,99,,90,Thickening fog,1000,0,0,0,,,1.3,
Tain Range,17/10/2019 06:00,-1.2,1,-1.3,,0,0,98,,280,Thickening fog,1000,9,0,0,,,-1.4,
Tain Range,17/10/2019 07:00,-1.1,3,,,0,,99,,290,Thickening fog,1000,9,0,0,,,-1.2,
Tain Range,17/10/2019 08:00,-0.6,2,,,0,,100,,270,Fog,1000,9,0,117,,,-0.6,
Tain Range,17/10/2019 09:00,2,1,,,0,,100,,60,Precipitation,1000,3,2,524,,,2,
Tain Range,17/10/2019 10:00,5.5,1,,,0.2,,100,,320,Dry,1000,0,45,779,,,5.5,
Tain Range,17/10/2019 11:00,8.4,2,,,0,,99,,30,Dry,1000,0,40,1078,,,8.3,
Tain Range,17/10/2019 12:00,11.8,7,,,0,0.2,71,,150,Dry,1000,0,30,1226,,,6.8,
Tain Range,17/10/2019 13:00,12,8,,,0,,72,,120,Haze,999,0,6,1364,,,7.2,
Tain Range,17/10/2019 14:00,12.9,7,,,0,,67,,140,Dry,999,0,6,1221,,,7.1,
Tain Range,17/10/2019 15:00,12,2,,,0,,73,,180,Dry,998,1,40,555,,,7.4,
Tain Range,17/10/2019 16:00,11.9,9,,,0,,69,,170,Dry,998,1,40,410,,,6.5,
Tain Range,17/10/2019 17:00,10.2,5,,,0,,74,,190,Dry,998,4,45,150,,,5.9,
Tain Range,17/10/2019 18:00,9.3,3,,13,0,0,84,,40,Dry,998,8,35,2,,,6.8,
Tain Range,17/10/2019 19:00,8.4,5,,,0,,88,,120,Dry,998,7,50,0,,,6.6,
Tain Range,17/10/2019 20:00,9.2,3,,,0,,86,,90,Dry,998,7,35,0,,,7.1,
Tain Range,17/10/2019 21:00,9.1,2,,,0,,87,,180,Dry,998,7,35,0,,,7.2,
Tain Range,17/10/2019 22:00,9.7,9,,,0,,87,,120,Dry,998,8,24,0,,,7.8,
Tain Range,17/10/2019 23:00,9.3,8,,,0,,89,,110,Dry,997,8,22,0,,,7.6,
Tain Range,18/10/2019 00:00,8.3,3,,,0,0,92,,220,Dry,997,7,35,,,,7.2,
Tain Range,18/10/2019 01:00,8.3,10,,,0,,90,,140,Dry,997,1,30,0,,,6.8,
Tain Range,18/10/2019 02:00,6.4,5,,,0,,94,,130,Dry,996,1,24,0,,,5.6,
Tain Range,18/10/2019 03:00,9.6,9,,,0,,90,,110,Dry,996,6,21,0,,,8.2,
Tain Range,18/10/2019 04:00,9.8,10,,,0.4,,92,,110,Rain,996,8,18,0,,,8.7,
Tain Range,18/10/2019 05:00,9.8,9,,,0,,94,,110,Rain,996,8,13,0,,,8.9,
Tain Range,18/10/2019 06:00,9,7,5.1,,0,0.4,92,,120,Rain,996,7,40,0,,,7.9,
Tain Range,18/10/2019 07:00,6.4,6,,,0,,94,,70,Dry,996,2,14,0,,,5.6,
Tain Range,18/10/2019 08:00,4.5,2,,,0,,96,,20,Fog,996,4,1,66,,,4,
Tain Range,18/10/2019 09:00,6.5,3,,,0,,98,,320,Fog,997,0,7,258,,,6.3,
Tain Range,18/10/2019 10:00,9.4,2,,,0,,99,,330,Dry,996,1,35,523,,,9.3,
Tain Range,18/10/2019 11:00,10.8,6,,,0,,91,,50,Dry,996,0,45,598,,,9.4,
Tain Range,18/10/2019 12:00,11.2,10,,,0,0,85,,70,Dry,996,3,40,1106,,,8.8,
Tain Range,18/10/2019 13:00,12.1,7,,,0,,81,,40,Dry,996,1,35,1261,,,9.1,
Tain Range,18/10/2019 14:00,11.8,13,,,0,,83,,50,Dry,996,1,35,729,,,9.1,
Tain Range,18/10/2019 15:00,11.1,12,,,0,,88,,60,Dry,996,7,35,521,,,9.2,
Tain Range,18/10/2019 16:00,10.7,13,,,0,,89,,50,Dry,996,7,30,272,,,9.1,
Tain Range,18/10/2019 17:00,10.5,10,,,0,,92,,40,Rain,996,8,25,63,,,9.3,
Tain Range,18/10/2019 18:00,11.1,15,,12.3,0.2,0.2,91,,50,Rain,997,2,18,0,,,9.8,
Tain Range,18/10/2019 19:00,10.9,17,,,0,,88,,50,Dry,997,7,21,0,,,9.1,
Tain Range,18/10/2019 20:00,11.3,18,,,0,,89,,50,Dry,997,7,17,0,,,9.6,
Tain Range,18/10/2019 21:00,11,21,,,0.6,,92,,50,Light shower,998,8,16,0,,,9.9,
Tain Range,18/10/2019 22:00,11.1,20,,,0,,90,,50,Rain,998,7,17,0,,,9.6,
Tain Range,18/10/2019 23:00,10.7,22,,,0,,92,30,40,Light drizzle,998,7,14,0,,,9.5,
Tain Range,19/10/2019 00:00,10.2,22,,,1.2,2,94,31,30,Light rain,999,8,14,,,,9.4,
Tain Range,19/10/2019 01:00,10.1,22,,,1.4,,92,31,40,Moderate shower,999,3,12,0,,,9,
Tain Range,19/10/2019 02:00,10.4,21,,,0,,87,32,40,Rain,1000,8,21,1,,,8.4,
Tain Range,19/10/2019 03:00,9.9,20,,,0,,86,29,20,Dry,1000,8,22,0,,,7.7,
Tain Range,19/10/2019 04:00,9.7,18,,,0,,83,,20,Dry,1001,8,22,0,,,7,
Tain Range,19/10/2019 05:00,9.2,15,,,0,,83,,360,Dry,1001,8,28,0,,,6.6,
Tain Range,19/10/2019 06:00,7.8,12,7.8,,0,1,87,,360,Dry,1002,2,27,0,,,5.8,
Tain Range,19/10/2019 07:00,6.8,10,,,0,,88,,330,Dry,1002,0,35,0,,,5.1,
Tain Range,19/10/2019 08:00,7.5,13,,,0,,89,,310,Dry,1003,0,30,41,,,5.9,
Tain Range,19/10/2019 09:00,7.5,13,,,0,,90,,310,Dry,1003,1,30,123,,,6.1,
Tain Range,19/10/2019 10:00,8.5,10,,,0,,89,,310,Dry,1003,0,30,375,,,6.8,
Tain Range,19/10/2019 11:00,10.5,10,,,0,,81,,350,Dry,1003,6,28,954,,,7.5,
Tain Range,19/10/2019 12:00,10.1,10,,,0,0,85,,30,Rain,1004,8,50,703,,,7.7,
Tain Range,19/10/2019 13:00,11.1,13,,,0,,77,,30,Rain,1004,8,40,766,,,7.4,
Tain Range,19/10/2019 14:00,10.6,14,,,0,,80,,10,Rain,1004,8,45,634,,,7.4,
Tain Range,19/10/2019 15:00,10.6,15,,,0,,80,,360,Dry,1004,1,50,373,,,7.3,
Tain Range,19/10/2019 16:00,9.6,14,,,0,,83,,360,Dry,1005,6,50,291,,,6.9,
Tain Range,19/10/2019 17:00,9,12,,,0,,87,,360,Dry,1006,2,35,94,,,7.1,
Tain Range,19/10/2019 18:00,9.3,16,,11.9,0,0,83,,20,Moderate shower,1007,7,20,3,,,6.7,
Tain Range,19/10/2019 19:00,9.5,18,,,0,,80,,20,Rain,1008,8,27,0,,,6.4,
Tain Range,19/10/2019 20:00,8.9,18,,,0,,77,30,20,Dry,1008,8,26,0,,,5.1,
Tain Range,19/10/2019 21:00,8.8,20,,,0,,75,30,20,Dry,1009,8,21,0,,,4.7,
Tain Range,19/10/2019 22:00,7.9,16,,,0,,76,,360,Dry,1010,5,22,0,,,4,
Tain Range,19/10/2019 23:00,6.5,14,,,0,,81,,350,Rain,1011,2,22,0,,,3.5,
Tain Range,20/10/2019 00:00,6.6,13,,,0.2,0.2,85,,340,Light shower,1011,7,19,,,,4.3,
Tain Range,20/10/2019 01:00,6.7,15,,,0,,84,,340,Rain,1012,8,35,0,,,4.3,
Tain Range,20/10/2019 02:00,7.1,16,,,0,,82,,330,Dry,1012,8,45,0,,,4.4,
Tain Range,20/10/2019 03:00,6.8,14,,,0,,84,,330,Dry,1012,7,40,0,,,4.3,
Tain Range,20/10/2019 04:00,6.7,13,,,0,,83,,320,Dry,1013,7,16,0,,,4.1,
Tain Range,20/10/2019 05:00,6.3,15,,,0,,84,,330,Dry,1014,2,45,0,,,3.8,
Tain Range,20/10/2019 06:00,6.4,12,6.2,,0,0,84,,330,Rain,1015,7,45,0,,,4,
Tain Range,20/10/2019 07:00,6.4,15,,,0,,84,,320,Dry,1016,6,50,0,,,3.9,
Tain Range,20/10/2019 08:00,6.5,10,,,0,,84,,320,Rain,1017,5,40,36,,,4,
Tain Range,20/10/2019 09:00,7.3,12,,,0,,79,,330,Dry,1017,6,35,291,,,4,
Tain Range,20/10/2019 10:00,7.9,12,,,0,,79,,360,Drizzly rain,1018,8,27,333,,,4.6,
Tain Range,20/10/2019 11:00,8.8,13,,,0,,75,,360,Rain,1019,7,35,663,,,4.7,
Tain Range,20/10/2019 12:00,9.3,15,,,0,0,68,,360,Rain,1019,6,40,557,,,3.9,
Tain Range,20/10/2019 13:00,8.6,14,,,0,,80,,340,Light shower,1020,8,45,729,,,5.4,
Tain Range,20/10/2019 14:00,7.7,13,,,0.6,,85,,350,Rain,1021,5,45,740,,,5.5,
Tain Range,20/10/2019 15:00,8.2,10,,,0,,83,,340,Dry,1021,8,45,666,,,5.6,
Tain Range,20/10/2019 16:00,7.8,13,,,0,,78,,350,Rain,1022,8,40,336,,,4.3,
Tain Range,20/10/2019 17:00,7,12,,,0,,79,,340,Dry,1022,7,50,159,,,3.7,
Tain Range,20/10/2019 18:00,6.8,10,,9.9,0,0.6,82,,330,Rain,1023,7,50,0,,,4,
Tain Range,20/10/2019 19:00,5.4,8,,,0,,88,,310,Dry,1023,7,50,0,,,3.7,
Tain Range,20/10/2019 20:00,5.8,7,,,0,,87,,310,Dry,1024,8,50,0,,,3.9,
Tain Range,20/10/2019 21:00,6.3,7,,,0,,84,,290,Dry,1024,8,50,0,,,3.8,
Tain Range,20/10/2019 22:00,6,8,,,0,,88,,290,Dry,1024,8,50,0,,,4.2,
Tain Range,20/10/2019 23:00,6,8,,,0,,85,,280,Dry,1024,8,30,0,,,3.8,
Tain Range,21/10/2019 00:00,6.2,9,,,0,0,85,,290,Dry,1024,8,50,,,,4,
Tain Range,21/10/2019 01:00,6.1,6,,,0,,81,,300,Dry,1024,8,50,0,,,3.2,
Tain Range,21/10/2019 02:00,6,3,,,0,,81,,310,Dry,1024,8,50,0,,,3.1,
Tain Range,21/10/2019 03:00,5.3,3,,,0,,86,,200,Dry,1024,8,35,0,,,3.3,
Tain Range,21/10/2019 04:00,5.6,7,,,0,,78,,260,Dry,1024,8,50,0,,,2.2,
Tain Range,21/10/2019 05:00,5.4,7,,,0,,75,,270,Dry,1024,8,50,0,,,1.5,
Tain Range,21/10/2019 06:00,5.1,7,5.1,,0,0,76,,280,Dry,1024,8,50,0,,,1.3,
Tain Range,21/10/2019 07:00,4.6,7,,,0,,75,,270,Dry,1023,8,40,0,,,0.6,
Tain Range,21/10/2019 08:00,2.8,6,,,0,,86,,200,Dry,1023,4,50,44,,,0.7,
Tain Range,21/10/2019 09:00,5.4,10,,,0,,79,,210,Dry,1023,7,50,273,,,2.1,
Tain Range,21/10/2019 10:00,5.9,10,,,0,,78,,210,Dry,1022,5,45,525,,,2.4,
Tain Range,21/10/2019 11:00,6.9,14,,,0,,73,,220,Dry,1022,4,35,734,,,2.5,
Tain Range,21/10/2019 12:00,7.3,12,,,0,0,73,,210,Dry,1021,1,45,818,,,2.9,
Tain Range,21/10/2019 13:00,8.3,12,,,0,,71,,220,Dry,1020,3,35,974,,,3.5,
Tain Range,21/10/2019 14:00,8.9,9,,,0,,71,,210,Dry,1019,3,50,861,,,4.1,
Tain Range,21/10/2019 15:00,9.5,10,,,0,,69,,230,Dry,1018,7,50,496,,,4.3,
Tain Range,21/10/2019 16:00,9.4,10,,,0,,69,,230,Dry,1018,,50,283,,,4.2,
Tain Range,21/10/2019 17:00,9,12,,,0,,72,,230,Dry,1017,,50,78,,,4.3,
Tain Range,21/10/2019 18:00,8.5,9,,9.8,0,0,74,,220,Dry,1016,6,50,3,,,4.2,
Tain Range,21/10/2019 19:00,8.3,12,,,0,,78,,220,Dry,1016,8,50,0,,,4.8,
Tain Range,21/10/2019 20:00,8.6,10,,,0,,78,,200,Dry,1015,8,40,0,,,5,
Tain Range,21/10/2019 21:00,9,13,,,0,,77,,220,Dry,1014,8,40,0,,,5.2,
Tain Range,21/10/2019 22:00,9.6,14,,,0,,72,,240,Dry,1014,8,40,0,,,5,
Tain Range,21/10/2019 23:00,9,8,,,0,,77,,200,Dry,1013,1,50,0,,,5.2,
Tain Range,22/10/2019 00:00,9.8,12,,,0,0,76,,190,Dry,1013,7,50,,,,5.8,
Tain Range,22/10/2019 01:00,10.5,16,,,0,,75,,250,Dry,1012,1,50,0,,,6.4,
Tain Range,22/10/2019 02:00,10.5,17,,,0,,77,,230,Light shower,1011,8,50,0,,,6.7,
Tain Range,22/10/2019 03:00,9.7,12,,,0.8,,86,,240,Light rain,1011,8,30,0,,,7.6,
Tain Range,22/10/2019 04:00,9.1,6,,,1.2,,92,,210,Moderate rain,1010,8,16,0,,,8,
Tain Range,22/10/2019 05:00,9,8,,,1.2,,94,,200,Moderate rain,1010,2,30,0,,,8.1,
Tain Range,22/10/2019 06:00,10.9,13,8.2,,1,4,85,,240,Moderate rain,1010,7,25,0,,,8.6,
Tain Range,22/10/2019 07:00,11.4,20,,,0.8,,81,,240,Light rain,1009,6,50,0,,,8.4,
Tain Range,22/10/2019 08:00,10.6,7,,,0.2,,86,,170,Rain,1010,8,50,10,,,8.5,
Tain Range,22/10/2019 09:00,10.8,5,,,0,,88,,110,Dry,1010,8,40,100,,,8.9,
Tain Range,22/10/2019 10:00,11.5,8,,,0,,83,,220,Light shower,1010,8,50,165,,,8.8,
Tain Range,22/10/2019 11:00,11.4,14,,,0.2,,88,,220,Rain,1010,8,50,293,,,9.6,
Tain Range,22/10/2019 12:00,12.3,15,,,0,1,83,,230,Dry,1010,8,40,230,,,9.5,
Tain Range,22/10/2019 13:00,13.1,9,,,0,,76,,220,Dry,1010,1,50,176,,,9.1,
Tain Range,22/10/2019 14:00,13.4,18,,,0,,72,29,230,Dry,1010,7,50,134,,,8.5,
Tain Range,22/10/2019 15:00,12.5,8,,,0,,81,,220,Rain,1010,7,45,208,,,9.4,
Tain Range,22/10/2019 16:00,12.3,16,,,0,,80,,220,Dry,1009,5,35,256,,,9.1,
Tain Range,22/10/2019 17:00,11.7,14,,,0,,83,,210,Dry,1009,7,50,56,,,9,
Tain Range,22/10/2019 18:00,10.8,14,,13.6,0,0,86,,220,Dry,1009,6,50,0,,,8.6,
Tain Range,22/10/2019 19:00,10.7,8,,,0,,85,,220,Dry,1009,7,50,0,,,8.3,
Tain Range,22/10/2019 20:00,11,9,,,0,,82,,210,Dry,1009,8,50,0,,,8.2,
Tain Range,22/10/2019 21:00,11.2,9,,,0,,77,,220,Dry,1009,8,45,0,,,7.5,
Tain Range,22/10/2019 22:00,11.1,10,,,0,,77,,220,Dry,1009,8,50,0,,,7.4,
Tain Range,22/10/2019 23:00,11.2,15,,,0,,79,,220,Dry,1008,7,50,0,,,7.7,
Tain Range,23/10/2019 00:00,11.1,12,,,0,0,80,,230,Dry,1008,4,50,,,,7.9,
Tain Range,23/10/2019 01:00,11.3,10,,,0,,80,,280,Dry,1008,8,50,0,,,8,
Tain Range,23/10/2019 02:00,11.4,3,,,0,,76,,260,Dry,1007,1,50,0,,,7.5,
Tain Range,23/10/2019 03:00,11.1,2,,,0,,78,,240,Dry,1007,6,50,0,,,7.6,
Tain Range,23/10/2019 04:00,10.9,10,,,0,,81,,210,Dry,1006,8,50,0,,,7.9,
Tain Range,23/10/2019 05:00,11,13,,,0,,79,,230,Dry,1006,8,50,0,,,7.6,
Tain Range,23/10/2019 06:00,10.9,12,10.7,,0,0,81,,210,Dry,1005,8,50,0,,,7.8,
Tain Range,23/10/2019 07:00,11.1,10,,,0,,80,,210,Dry,1005,8,50,0,,,7.8,
Tain Range,23/10/2019 08:00,11.1,20,,,0,,80,30,200,Dry,1004,8,50,6,,,7.8,
Tain Range,23/10/2019 09:00,11.1,14,,,0,,80,29,200,Rain,1004,8,50,36,,,7.8,
Tain Range,23/10/2019 10:00,11.3,14,,,0,,77,,220,Dry,1004,8,50,75,,,7.6,
Tain Range,23/10/2019 11:00,11.7,12,,,0,,74,,190,Dry,1003,2,35,115,,,7.3,
Tain Range,23/10/2019 12:00,11.8,17,,,0,0,74,,200,Dry,1002,8,50,111,,,7.5,
Tain Range,23/10/2019 13:00,12.2,10,,,0,,71,,210,Dry,1001,8,27,120,,,7.2,
Tain Range,23/10/2019 14:00,12.1,14,,,0,,73,,200,Dry,1000,8,50,121,,,7.5,
Tain Range,23/10/2019 15:00,12.8,8,,,0,,68,,210,Dry,999,8,50,85,,,7.1,
Tain Range,23/10/2019 16:00,12.6,14,,,0,,69,,190,Dry,999,7,50,98,,,7.2,
Tain Range,23/10/2019 17:00,12.6,13,,,0,,70,,190,Dry,998,6,50,25,,,7.4,
Tain Range,23/10/2019 18:00,12,14,,13.2,0,0,74,,190,Dry,998,7,45,0,,,7.6,
Tain Range,23/10/2019 19:00,11.6,8,,,0,,77,,160,Dry,997,4,45,0,,,7.8,
Tain Range,23/10/2019 20:00,11.2,9,,,0,,77,,190,Dry,996,7,45,0,,,7.5,
Tain Range,23/10/2019 21:00,11.4,9,,,0,,79,,180,Dry,996,8,50,0,,,8,
Tain Range,23/10/2019 22:00,11.8,10,,,0,,78,,210,Dry,995,8,50,0,,,8.1,
Tain Range,23/10/2019 23:00,11.5,18,,,0,,80,33,200,Dry,995,,13,0,,,8.2,
Tain Range,24/10/2019 00:00,11.3,17,,,0,0,83,,200,Dry,994,2,50,,,,8.6,
Tain Range,24/10/2019 01:00,10.8,9,,,0,,84,,220,Dry,995,5,35,0,,,8.3,
Tain Range,24/10/2019 02:00,11.1,14,,,0,,83,,210,Rain,994,7,50,0,,,8.4,
Tain Range,24/10/2019 03:00,9.4,9,,,0,,86,,190,Dry,994,1,50,0,,,7.3,
Tain Range,24/10/2019 04:00,9.3,6,,,0,,89,,200,Dry,994,7,40,0,,,7.6,
Tain Range,24/10/2019 05:00,8.1,7,,,0,,91,,170,Dry,994,6,50,0,,,6.8,
Tain Range,24/10/2019 06:00,10.5,9,7.8,,0,0,84,,200,Dry,994,7,40,0,,,8,
Tain Range,24/10/2019 07:00,8.9,7,,,0,,83,,210,Dry,994,3,50,0,,,6.2,
Tain Range,24/10/2019 08:00,9.6,9,,,0,,83,,190,Dry,994,0,50,32,,,7,
Tain Range,24/10/2019 09:00,10.9,14,,,0,,75,,200,Dry,993,1,50,263,,,6.7,
Tain Range,24/10/2019 10:00,11.3,17,,,0,,74,,220,Dry,994,0,35,681,,,7,
Tain Range,24/10/2019 11:00,12,14,,,0,,75,,250,Dry,995,1,50,853,,,7.9,
Tain Range,24/10/2019 12:00,11.2,21,,,0,0,66,30,260,Dry,995,5,50,1081,,,5.1,
Tain Range,24/10/2019 13:00,9.7,23,,,0,,70,31,300,Dry,996,4,45,1056,,,4.7,
Tain Range,24/10/2019 14:00,8.9,17,,,0,,68,29,290,Dry,998,3,50,536,,,3.4,
Tain Range,24/10/2019 15:00,8.5,18,,,0,,65,29,290,Dry,998,,45,543,,,2.5,
Tain Range,24/10/2019 16:00,7,17,,,0,,71,29,290,Dry,999,,40,478,,,2.3,
Tain Range,24/10/2019 17:00,5.4,12,,,0,,75,,280,Dry,999,0,50,107,,,1.5,
Tain Range,24/10/2019 18:00,4.1,9,,12.8,0,0,79,,250,Dry,1000,,50,0,,,0.8,
Tain Range,24/10/2019 19:00,3.6,7,,,0,,84,,220,Dry,1000,6,30,0,,,1.3,
Tain Range,24/10/2019 20:00,4.6,8,,,0,,80,,260,Dry,1001,4,50,0,,,1.6,
Tain Range,24/10/2019 21:00,2.3,7,,,0,,87,,250,Dry,1001,6,40,0,,,0.5,
Tain Range,24/10/2019 22:00,1,7,,,0,,89,,230,Dry,1002,4,50,0,,,-0.6,
Tain Range,24/10/2019 23:00,2.6,13,,,0,,86,,230,Dry,1002,1,45,0,,,0.5,
Tain Range,25/10/2019 00:00,1.8,8,,,0,0,82,,240,Dry,1002,2,35,,,,-0.8,
Tain Range,25/10/2019 01:00,1.7,15,,,0,,82,,220,Dry,1002,,50,0,,,-1,
Tain Range,25/10/2019 02:00,2.1,14,,,0,,81,,230,Dry,1002,,50,0,,,-0.7,
Tain Range,25/10/2019 03:00,2.1,15,,,0,,82,,220,Dry,1001,,50,0,,,-0.6,
Tain Range,25/10/2019 04:00,2.2,18,,,0,,85,,210,Dry,1001,,50,0,,,0.1,
Tain Range,25/10/2019 05:00,2.3,18,,,0,,89,32,210,Dry,1001,,50,0,,,0.8,
Tain Range,25/10/2019 06:00,2.9,18,1,,0,0,88,,220,Dry,1001,0,45,0,,,1.2,
Tain Range,25/10/2019 07:00,2.7,15,,,0,,85,,220,Dry,1001,0,50,0,,,0.5,
Tain Range,25/10/2019 08:00,2.5,6,,,0,,80,,240,Dry,1001,0,45,39,,,-0.5,
Tain Range,25/10/2019 09:00,5.2,16,,,0,,65,,240,Dry,1001,0,50,309,,,-0.7,
Tain Range,25/10/2019 10:00,6.4,18,,,0,,66,,250,Dry,1002,0,26,677,,,0.7,
Tain Range,25/10/2019 11:00,7.6,22,,,0,,62,31,240,Dry,1001,0,35,985,,,0.8,
Tain Range,25/10/2019 12:00,8.2,24,,,0,0,59,38,240,Dry,1001,0,50,1159,,,0.7,
Tain Range,25/10/2019 13:00,8.7,22,,,0,,54,36,230,Dry,1001,2,30,1165,,,0.1,
Tain Range,25/10/2019 14:00,8.1,23,,,0,,58,35,230,Dry,1000,0,45,1011,,,0.5,
Tain Range,25/10/2019 15:00,7.9,17,,,0,,59,30,240,Dry,1000,0,35,761,,,0.6,
Tain Range,25/10/2019 16:00,7.2,13,,,0,,60,,230,Dry,1000,0,45,421,,,0,
Tain Range,25/10/2019 17:00,5.3,12,,,0,,69,,230,Dry,1000,0,50,93,,,0.2,
Tain Range,25/10/2019 18:00,4.3,12,,8.7,0,0,77,,210,Dry,1000,0,50,0,,,0.7,
Tain Range,25/10/2019 19:00,3.9,13,,,0,,78,,230,Dry,1000,0,40,0,,,0.5,
Tain Range,25/10/2019 20:00,4,12,,,0,,79,,220,Dry,1000,0,50,0,,,0.8,
Tain Range,25/10/2019 21:00,4.1,7,,,0,,81,,340,Dry,1000,,50,0,,,1.2,
Tain Range,25/10/2019 22:00,2.5,2,,,0,,84,,220,Dry,1000,0,50,0,,,0.1,
Tain Range,25/10/2019 23:00,3.2,7,,,0,,81,,200,Dry,999,,50,0,,,0.4,
Tain Range,26/10/2019 00:00,3.2,15,,,0,0,83,,220,Dry,999,,50,,,,0.6,
Tain Range,26/10/2019 01:00,3.5,13,,,0,,82,,210,Dry,999,,50,0,,,0.8,
Tain Range,26/10/2019 02:00,4.2,15,,,0,,81,,230,Dry,999,,40,0,,,1.3,
Tain Range,26/10/2019 03:00,4.6,16,,,0,,80,,220,Dry,998,,30,0,,,1.5,
Tain Range,26/10/2019 04:00,3.8,7,,,0,,80,,170,Dry,998,1,50,0,,,0.8,
Tain Range,26/10/2019 05:00,4.3,9,,,0,,77,,180,Dry,999,1,45,0,,,0.7,
Tain Range,26/10/2019 06:00,4.4,8,1.3,,0,0,76,,200,Dry,999,1,40,0,,,0.7,
Tain Range,26/10/2019 07:00,3.7,5,,,0,,81,,190,Dry,999,,35,0,,,0.9,
Tain Range,26/10/2019 08:00,5.1,7,,,0,,79,,220,Dry,999,3,50,35,,,1.8,
Tain Range,26/10/2019 09:00,6.2,7,,,0,,76,,260,Dry,999,5,45,334,,,2.4,
Tain Range,26/10/2019 10:00,7.9,10,,,0,,75,,210,Dry,1000,7,50,794,,,3.8,
Tain Range,26/10/2019 11:00,8.6,20,,,0,,71,,260,Dry,1000,6,26,898,,,3.7,
Tain Range,26/10/2019 12:00,7.8,17,,,0,0,71,,250,Dry,1000,4,40,849,,,2.9,
Tain Range,26/10/2019 13:00,8.2,17,,,0,,67,,260,Dry,1000,1,50,1186,,,2.5,
Tain Range,26/10/2019 14:00,8.1,13,,,0,,70,,240,Dry,999,2,50,861,,,3,
Tain Range,26/10/2019 15:00,8.5,16,,,0,,66,,240,Dry,999,,50,813,,,2.7,
Tain Range,26/10/2019 16:00,7.1,13,,,0,,73,,240,Dry,999,6,50,329,,,2.7,
Tain Range,26/10/2019 17:00,5.6,14,,,0,,81,,220,Dry,999,4,50,44,,,2.7,
Tain Range,26/10/2019 18:00,4.5,16,,9.6,0,0,86,,220,Rain,1000,2,50,0,,,2.4,
Tain Range,26/10/2019 19:00,4.7,15,,,0,,89,,230,Light shower,1000,7,13,0,,,3.1,
Tain Range,26/10/2019 20:00,4.9,12,,,0.8,,93,,220,Moderate rain,1001,8,13,0,,,4,
Tain Range,26/10/2019 21:00,5.5,12,,,1,,93,,230,Moderate rain,1002,8,15,0,,,4.6,
Tain Range,26/10/2019 22:00,5.7,13,,,0.4,,91,,230,Rain,1002,7,50,0,,,4.5,
Tain Range,26/10/2019 23:00,5.3,7,,,0,,91,,230,Rain,1003,4,23,0,,,4.1,
Tain Range,27/10/2019 00:00,5.6,10,,,0,2,88,,240,Light shower,1003,7,50,,,,3.8,
Tain Range,27/10/2019 01:00,7.2,22,,,0.2,,82,38,280,Light shower,1004,7,19,0,,,4.4,
Tain Range,27/10/2019 02:00,6.2,31,,,1,,88,43,290,Moderate rain,1005,8,9,0,,,4.4,
Tain Range,27/10/2019 03:00,6.7,26,,,2,,88,39,290,Light rain,1006,8,9,0,,,5,
Tain Range,27/10/2019 04:00,7,24,,,0.6,,88,40,290,Light rain,1007,8,13,0,,,5.2,
Tain Range,27/10/2019 05:00,7.1,28,,,0.2,,83,40,290,Rain,1008,7,40,0,,,4.5,
Tain Range,27/10/2019 06:00,6.8,23,4.3,,0.4,5,89,37,290,Moderate shower,1009,5,9,0,,,5.2,
Tain Range,27/10/2019 07:00,7,21,,,0.6,,89,32,290,Moderate shower,1011,6,10,0,,,5.4,
Tain Range,27/10/2019 08:00,7.3,22,,,0.8,,87,30,290,Light rain,1012,8,18,11,,,5.4,
Tain Range,27/10/2019 09:00,7.1,22,,,0.6,,90,30,290,Light rain,1013,8,11,79,,,5.7,
Tain Range,27/10/2019 10:00,7.4,16,,,1,,92,29,290,Light rain,1015,7,19,120,,,6.3,
Tain Range,27/10/2019 11:00,7.8,17,,,0.2,,90,29,300,Light shower,1016,8,30,373,,,6.3,
Tain Range,27/10/2019 12:00,8.8,12,,,0,3,87,,300,Rain,1018,8,30,644,,,6.9,
Tain Range,27/10/2019 13:00,8.3,18,,,0,,78,,290,Dry,1019,7,50,879,,,4.8,
Tain Range,27/10/2019 14:00,9.1,13,,,0,,76,,310,Dry,1020,1,22,1046,,,5.2,
Tain Range,27/10/2019 15:00,7.6,10,,,0,,80,,290,Dry,1020,0,35,572,,,4.4,
Tain Range,27/10/2019 16:00,7.1,13,,,0,,77,,290,Dry,1021,,50,440,,,3.4,
Tain Range,27/10/2019 17:00,6.6,15,,,0,,82,,290,Dry,1022,7,45,107,,,3.8,
Tain Range,27/10/2019 18:00,5.7,13,,9.5,0.2,0,87,,290,Rain,1023,7,50,0,,,3.8,
Tain Range,27/10/2019 19:00,5.5,8,,,0,,88,,300,Dry,1024,7,50,0,,,3.8,
Tain Range,27/10/2019 20:00,5,12,,,0,,89,,300,Dry,1024,4,40,0,,,3.4,
Tain Range,27/10/2019 21:00,4.2,10,,,0,,90,,290,Dry,1025,1,45,0,,,2.8,
Tain Range,27/10/2019 22:00,3.4,9,,,0,,89,,310,Dry,1026,3,45,0,,,1.9,
Tain Range,27/10/2019 23:00,4.4,8,,,0,,86,,280,Dry,1026,6,50,0,,,2.4,
Tain Range,28/10/2019 00:00,4.2,10,,,0,0,86,,280,Dry,1026,6,50,,,,2.1,
Tain Range,28/10/2019 01:00,3.8,10,,,0,,89,,270,Dry,1026,4,28,0,,,2.2,
Tain Range,28/10/2019 02:00,4.9,12,,,0,,77,,290,Dry,1026,7,50,0,,,1.3,
Tain Range,28/10/2019 03:00,3.6,10,,,0,,83,,290,Dry,1027,2,50,0,,,1.1,
Tain Range,28/10/2019 04:00,3.1,5,,,0,,89,,260,Dry,1027,1,50,0,,,1.5,
Tain Range,28/10/2019 05:00,2.8,7,,,0,,89,,240,Dry,1027,0,50,0,,,1.3,
Tain Range,28/10/2019 06:00,3.8,13,1.6,,0,0,88,,290,Dry,1026,,50,0,,,2,
Tain Range,28/10/2019 07:00,3.2,9,,,0,,88,,270,Dry,1027,,50,0,,,1.5,
Tain Range,28/10/2019 08:00,2.9,7,,,0,,90,,280,Dry,1028,0,50,17,,,1.5,
Tain Range,28/10/2019 09:00,4.3,8,,,0,,89,,280,Dry,1028,3,50,238,,,2.7,
Tain Range,28/10/2019 10:00,5.8,9,,,0,,86,,280,Dry,1028,3,50,495,,,3.8,
Tain Range,28/10/2019 11:00,6.5,15,,,0,,77,,300,Dry,1028,2,45,687,,,2.8,
Tain Range,28/10/2019 12:00,7.6,13,,,0,0,73,,310,Dry,1029,1,45,997,,,3.2,
Tain Range,28/10/2019 13:00,7.4,13,,,0.2,,81,,340,Rain,1029,7,28,827,,,4.4,
Tain Range,28/10/2019 14:00,7.5,9,,,0,,80,,320,Dry,1029,2,35,454,,,4.3,
Tain Range,28/10/2019 15:00,7.5,6,,,0,,80,,340,Rain,1029,8,40,482,,,4.3,
Tain Range,28/10/2019 16:00,6.7,10,,,0,,77,,330,Dry,1029,1,35,246,,,3,
Tain Range,28/10/2019 17:00,5,9,,,0,,85,,320,Dry,1030,6,50,74,,,2.8,
Tain Range,28/10/2019 18:00,4.1,8,,8.9,0,0.2,89,,300,Dry,1030,6,27,0,,,2.5,
Tain Range,28/10/2019 19:00,3.1,9,,,0,,91,,320,Dry,1031,4,30,0,,,1.9,
Tain Range,28/10/2019 20:00,2.6,9,,,0,,90,,320,Dry,1031,2,50,0,,,1.2,
Tain Range,28/10/2019 21:00,2.8,10,,,0,,93,,310,Dry,1031,2,50,0,,,1.8,
Tain Range,28/10/2019 22:00,2.7,9,,,0,,93,,300,Dry,1031,0,45,0,,,1.8,
Tain Range,28/10/2019 23:00,3.4,10,,,0,,91,,310,Dry,1032,1,50,0,,,2.2,
Tain Range,29/10/2019 00:00,3.6,12,,,0,0,93,,300,Dry,1032,5,50,,,,2.6,
Tain Range,29/10/2019 01:00,4.1,13,,,0,,92,,300,Dry,1032,7,40,0,,,3,
Tain Range,29/10/2019 02:00,3.7,12,,,0,,91,,300,Dry,1032,4,50,0,,,2.4,
Tain Range,29/10/2019 03:00,3.5,14,,,0,,91,,300,Dry,1032,4,45,0,,,2.2,
Tain Range,29/10/2019 04:00,3.4,15,,,0,,91,,300,Dry,1032,6,50,0,,,2.1,
Tain Range,29/10/2019 05:00,2.9,13,,,0,,90,,300,Dry,1032,2,30,0,,,1.5,
Tain Range,29/10/2019 06:00,2.2,10,1.4,,0,0,93,,310,Dry,1032,0,50,0,,,1.2,
Tain Range,29/10/2019 07:00,2.1,13,,,0,,93,,300,Dry,1033,0,50,0,,,1.2,
Tain Range,29/10/2019 08:00,2,13,,,0,,94,,300,Dry,1033,0,35,14,,,1.2,
Tain Range,29/10/2019 09:00,2.9,10,,,0,,93,,300,Dry,1033,0,50,225,,,1.9,
Tain Range,29/10/2019 10:00,4.5,8,,,0,,88,,280,Dry,1034,0,35,607,,,2.8,
Tain Range,29/10/2019 11:00,5.5,10,,,0,,82,,290,Dry,1034,0,45,845,,,2.8,
Tain Range,29/10/2019 12:00,6.2,9,,,0,0,83,,300,Dry,1034,1,50,638,,,3.6,
Tain Range,29/10/2019 13:00,8.2,5,,,0,,78,,250,Dry,1033,1,40,751,,,4.7,
Tain Range,29/10/2019 14:00,7.3,7,,,0,,78,,220,Dry,1033,0,50,810,,,3.8,
Tain Range,29/10/2019 15:00,7.3,6,,,0,,81,,230,Dry,1033,7,50,311,,,4.3,
Tain Range,29/10/2019 16:00,6.9,5,,,0,,84,,230,Dry,1033,8,45,154,,,4.4,
Tain Range,29/10/2019 17:00,6.2,7,,,0,,92,,90,Light shower,1033,3,11,37,,,5.1,
Tain Range,29/10/2019 18:00,5.5,6,,8.5,0.2,0.2,93,,270,Light shower,1033,7,35,0,,,4.5,
Tain Range,29/10/2019 19:00,4.8,3,,,0,,94,,320,Rain,1033,8,50,0,,,4,
Tain Range,29/10/2019 20:00,2.2,8,,,0.2,,96,,340,Dry,1033,2,30,0,,,1.7,
Tain Range,29/10/2019 21:00,2.2,6,,,0,,97,,280,Dry,1033,6,30,0,,,1.8,
Tain Range,29/10/2019 22:00,1.5,1,,,0,,97,,250,Dry,1033,8,14,0,,,1.2,
Tain Range,29/10/2019 23:00,2.2,6,,,0,,98,,280,Dry,1033,8,20,0,,,2,
Tain Range,30/10/2019 00:00,3.3,6,,,0,0.2,98,,290,Dry,1033,8,23,,,,3.1,
Tain Range,30/10/2019 01:00,2.7,5,,,0,,97,,250,Dry,1033,8,45,0,,,2.3,
Tain Range,30/10/2019 02:00,2.1,5,,,0,,96,,280,Dry,1032,8,45,0,,,1.6,
Tain Range,30/10/2019 03:00,1.1,5,,,0,,97,,270,Dry,1032,8,24,0,,,0.7,
Tain Range,30/10/2019 04:00,0.3,5,,,0,,97,,230,Dry,1032,8,23,0,,,0,
Tain Range,30/10/2019 05:00,1.3,2,,,0,,98,,270,Fog,1032,8,10,0,,,1.1,
Tain Range,30/10/2019 06:00,1.9,5,0.2,,0,0,99,,230,Thickening fog,1032,9,0,1,,,1.8,
Tain Range,30/10/2019 07:00,1.7,2,,,0,,99,,190,Moderate precip.,1032,9,0,0,,,1.6,
Tain Range,30/10/2019 08:00,0.4,1,,,0,,99,,240,Thickening fog,1032,8,0,18,,,0.3,
Tain Range,30/10/2019 09:00,1.2,2,,,0,,99,,240,Fog,1032,8,7,184,,,1.1,
Tain Range,30/10/2019 10:00,3.1,1,,,0,,100,,270,Dry,1031,8,45,522,,,3.1,
Tain Range,30/10/2019 11:00,4.7,1,,,0,,99,,240,Dry,1031,1,45,728,,,4.6,
Tain Range,30/10/2019 12:00,6,3,,,0,0,90,,80,Dry,1030,2,28,943,,,4.6,
Tain Range,30/10/2019 13:00,7.5,2,,,0,,85,,120,Dry,1030,2,30,943,,,5.2,
Tain Range,30/10/2019 14:00,7.3,3,,,0,,78,,110,Dry,1029,0,40,895,,,3.8,
Tain Range,30/10/2019 15:00,7.3,3,,,0,,78,,90,Dry,1029,0,45,663,,,3.8,
Tain Range,30/10/2019 16:00,5.1,5,,,0,,83,,320,Dry,1028,1,50,276,,,2.6,
Tain Range,30/10/2019 17:00,4,3,,,0,,91,,260,Dry,1028,7,35,34,,,2.8,
Tain Range,30/10/2019 18:00,2.7,2,,7.9,0,0,94,,250,Dry,1028,2,20,0,,,1.9,
Tain Range,30/10/2019 19:00,1.7,2,,,0,,95,,300,Fog,1028,6,8,0,,,1.1,
Tain Range,30/10/2019 20:00,0.5,5,,,0,,96,,260,Dry,1027,4,21,0,,,0,
Tain Range,30/10/2019 21:00,-0.6,2,,,0,,97,,310,Dry,1027,3,23,0,,,-1,
Tain Range,30/10/2019 22:00,-1,1,,,0,,98,,210,Misty,1027,0,7,0,,,-1.2,
Tain Range,30/10/2019 23:00,-1.5,5,,,0,,98,,270,Snow,1027,4,15,0,,,-1.7,
Tain Range,31/10/2019 00:00,-2.7,5,,,0,0,98,,250,Dry,1026,0,28,,,,-2.9,
Tiree,01/09/2019 00:00,11.6,13,,,0,0.8,83,,290,Rain,1009,1,28,,,,8.9,
Tiree,01/09/2019 01:00,11.3,16,,,0,,80,,290,Dry,1009,7,50,0,0,,8.1,
Tiree,01/09/2019 02:00,11.3,14,,,0,,81,,290,Dry,1009,2,40,0,0,,8.3,
Tiree,01/09/2019 03:00,11.2,14,,,0.8,,86,,290,Rain,1010,6,27,0,0,,9.1,
Tiree,01/09/2019 04:00,11.4,15,,,0,,80,,300,Dry,1010,7,29,0,0,,8.1,
Tiree,01/09/2019 05:00,11.2,15,,,0,,81,,300,Dry,1010,6,21,0,0,,8.1,
Tiree,01/09/2019 06:00,11.4,16,10.8,,0,1.2,79,,310,Dry,1011,7,27,6,0,,8,
Tiree,01/09/2019 07:00,10.6,14,,,0.8,,88,33,310,Light shower,1012,8,24,92,0,,8.8,
Tiree,01/09/2019 08:00,11.8,12,,,0,,85,,320,Rain,1013,3,18,295,12,,9.4,
Tiree,01/09/2019 09:00,13.2,14,,,0,,68,,320,Dry,1013,6,30,1023,24,,7.5,
Tiree,01/09/2019 10:00,12.9,16,,,0,,69,,300,Dry,1014,6,25,1465,36,,7.5,
Tiree,01/09/2019 11:00,13.1,10,,,0.4,,81,,320,Rain,1014,7,30,1329,24,,10,
Tiree,01/09/2019 12:00,13.8,16,,,0,1,72,,280,Rain,1015,7,26,1742,36,,8.9,
Tiree,01/09/2019 13:00,13.7,16,,,0,,70,,290,Dry,1016,7,40,1735,30,,8.4,
Tiree,01/09/2019 14:00,14.3,16,,,0,,70,,290,Dry,1016,8,45,1580,42,,9.1,
Tiree,01/09/2019 15:00,13.6,13,,,0,,69,,280,Dry,1016,8,26,1454,24,,8.1,
Tiree,01/09/2019 16:00,10.9,13,,,1,,86,,260,Light shower,1016,7,12,460,0,,8.8,
Tiree,01/09/2019 17:00,11.8,9,,,0.2,,80,,260,Rain,1016,8,45,547,0,,8.6,
Tiree,01/09/2019 18:00,11.9,8,,14.7,0,1,74,,270,Dry,1016,8,45,371,0,,7.5,
Tiree,01/09/2019 19:00,11.2,6,,,0,,82,,260,Dry,1017,8,45,150,0,,8.4,
Tiree,01/09/2019 20:00,10.9,1,,,0,,86,,210,Rain,1017,8,40,19,0,,8.8,
Tiree,01/09/2019 21:00,11.1,9,,,1.2,,91,,210,Moderate shower,1017,8,6,0,0,,9.8,
Tiree,01/09/2019 22:00,10.1,8,,,0.2,,94,,190,Rain,1016,7,11,0,0,,9.2,
Tiree,01/09/2019 23:00,10.5,6,,,0,,95,,210,Dry,1016,7,40,0,0,,9.8,
Tiree,02/09/2019 00:00,10,8,,,0,1,92,,240,Dry,1016,0,45,,,,8.9,
Tiree,02/09/2019 01:00,11.4,8,,,0,,91,,230,Dry,1016,7,35,0,0,,10.1,
Tiree,02/09/2019 02:00,12.2,10,,,0,,87,,230,Dry,1016,8,30,0,0,,10.2,
Tiree,02/09/2019 03:00,12.4,10,,,0,,87,,230,Rain,1016,7,27,0,0,,10.4,
Tiree,02/09/2019 04:00,11.7,12,,,0.6,,92,,210,Light shower,1015,8,15,0,0,,10.5,
Tiree,02/09/2019 05:00,12,13,,,0.4,,94,,200,Drizzly rain,1014,8,5,0,0,,11.1,
Tiree,02/09/2019 06:00,12.8,17,9.4,,0.8,2,96,,210,Light drizzle,1013,8,4,1,0,,12.3,
Tiree,02/09/2019 07:00,13.1,18,,,2.2,,95,,230,Light rain,1013,8,9,21,0,,12.4,
Tiree,02/09/2019 08:00,13.7,21,,,0.4,,96,30,220,Light drizzle,1012,8,6,112,0,,13.1,
Tiree,02/09/2019 09:00,13.7,24,,,1,,96,35,230,Light rain,1012,5,5,229,0,,13.1,
Tiree,02/09/2019 10:00,13.7,23,,,1.4,,96,32,230,Rain,1011,8,3,310,0,,13.2,
Tiree,02/09/2019 11:00,14,26,,,0,,96,36,230,Misty,1011,8,4,575,0,,13.5,
Tiree,02/09/2019 12:00,14.3,26,,,0.2,5,96,37,230,Misty,1010,7,8,559,0,,13.8,
Tiree,02/09/2019 13:00,14.3,25,,,0.2,,96,36,240,Misty,1010,8,5,751,0,,13.8,
Tiree,02/09/2019 14:00,14.4,28,,,0.2,,96,40,250,Rain,1010,8,8,756,0,,13.9,
Tiree,02/09/2019 15:00,14.5,26,,,0,,96,38,240,Misty,1010,8,4,658,0,,14,
Tiree,02/09/2019 16:00,14.5,24,,,0.2,,97,35,250,Misty,1010,8,5,448,0,,14.1,
Tiree,02/09/2019 17:00,14.4,24,,,0.6,,98,35,260,Rain,1011,8,8,243,0,,14.1,
Tiree,02/09/2019 18:00,14.4,22,,14.7,0.2,2,96,33,260,Dry,1011,8,14,260,0,,13.9,
Tiree,02/09/2019 19:00,14.1,21,,,0,,96,31,270,Dry,1012,8,18,129,0,,13.6,
Tiree,02/09/2019 20:00,14.2,17,,,0,,94,29,270,Dry,1013,8,14,19,0,,13.3,
Tiree,02/09/2019 21:00,13.9,17,,,0,,94,,260,Misty,1013,7,4,0,0,,13.1,
Tiree,02/09/2019 22:00,13.8,15,,,0,,94,,260,Dry,1013,7,14,0,0,,13,
Tiree,02/09/2019 23:00,13.5,14,,,0,,95,,270,Rain,1014,7,3,0,0,,12.8,
Tiree,03/09/2019 00:00,13.4,13,,,0,0,95,,270,Dry,1014,1,20,,,,12.7,
Tiree,03/09/2019 01:00,13.6,10,,,0,,94,,270,Dry,1014,8,15,0,0,,12.8,
Tiree,03/09/2019 02:00,13.1,8,,,0,,95,,270,Dry,1014,8,23,0,0,,12.4,
Tiree,03/09/2019 03:00,13.4,6,,,0,,95,,260,Dry,1014,8,23,0,0,,12.7,
Tiree,03/09/2019 04:00,13.5,5,,,0,,96,,220,Dry,1014,8,14,0,0,,13,
Tiree,03/09/2019 05:00,13.7,5,,,0.2,,96,,220,Misty,1014,8,2,0,0,,13.2,
Tiree,03/09/2019 06:00,14.1,7,13,,0.4,0.6,98,,230,Rain,1013,7,7,4,0,,13.8,
Tiree,03/09/2019 07:00,14.3,7,,,0.8,,98,,220,Rain,1014,8,3,41,0,,14,
Tiree,03/09/2019 08:00,14.3,10,,,0,,98,,200,Misty,1014,7,26,186,0,,14,
Tiree,03/09/2019 09:00,14.8,9,,,0,,98,,190,Fog,1013,8,5,357,0,,14.5,
Tiree,03/09/2019 10:00,15.1,10,,,0,,98,,180,Misty,1013,8,3,348,0,,14.9,
Tiree,03/09/2019 11:00,14.9,14,,,0.2,,98,,210,Misty,1012,8,3,413,0,,14.7,
Tiree,03/09/2019 12:00,15,13,,,0.2,1,99,,220,Rain,1012,8,15,461,0,,14.9,
Tiree,03/09/2019 13:00,14.9,16,,,0.2,,99,,220,Misty,1012,8,12,536,0,,14.8,
Tiree,03/09/2019 14:00,15,17,,,0,,97,,220,Dry,1012,8,35,675,0,,14.6,
Tiree,03/09/2019 15:00,14.8,20,,,0,,96,29,220,Misty,1011,8,7,529,0,,14.2,
Tiree,03/09/2019 16:00,14.7,20,,,0,,97,,230,Misty,1011,6,7,408,0,,14.3,
Tiree,03/09/2019 17:00,14.3,17,,,0,,94,29,250,Dry,1010,2,20,308,0,,13.4,
Tiree,03/09/2019 18:00,14.4,22,,15.3,0,0,88,29,260,Dry,1011,4,19,271,0,,12.5,
Tiree,03/09/2019 19:00,13.8,16,,,0,,87,,260,Dry,1011,1,14,291,0,,11.7,
Tiree,03/09/2019 20:00,13.1,13,,,0,,86,,250,Dry,1011,8,12,22,0,,10.9,
Tiree,03/09/2019 21:00,12.9,14,,,0,,84,,250,Dry,1010,1,14,0,0,,10.3,
Tiree,03/09/2019 22:00,12.5,15,,,0.2,,84,,240,Rain,1010,8,13,0,0,,9.9,
Tiree,03/09/2019 23:00,11.7,18,,,0.4,,81,,250,Rain,1010,2,20,0,0,,8.7,
Tiree,04/09/2019 00:00,12,18,,,0,0.6,79,30,250,Dry,1009,2,17,,,,8.5,
Tiree,04/09/2019 01:00,11.2,17,,,0,,80,30,250,Rain,1008,1,19,0,0,,8,
Tiree,04/09/2019 02:00,11.4,16,,,0,,84,,240,Dry,1008,0,18,0,0,,8.8,
Tiree,04/09/2019 03:00,11.7,18,,,0.2,,77,31,240,Rain,1006,2,17,0,0,,7.9,
Tiree,04/09/2019 04:00,12,21,,,0,,80,31,230,Dry,1005,7,20,0,0,,8.7,
Tiree,04/09/2019 05:00,12.1,23,,,0,,79,36,230,Rain,1004,8,16,0,0,,8.6,
Tiree,04/09/2019 06:00,11.5,28,10.2,,0,0.2,80,39,220,Rain,1002,8,15,0,0,,8.2,
Tiree,04/09/2019 07:00,13,23,,,0.8,,93,41,270,Rain,1000,8,14,60,0,,12,
Tiree,04/09/2019 08:00,13.2,26,,,0,,89,37,270,Dry,1000,8,13,330,6,,11.5,
Tiree,04/09/2019 09:00,13.5,30,,,0,,80,45,290,Dry,1000,7,11,741,18,,10.2,
Tiree,04/09/2019 10:00,13.9,28,,,0,,84,47,330,Dry,1000,7,15,891,12,,11.4,
Tiree,04/09/2019 11:00,13.4,36,,,0.2,,90,54,340,Light shower,1004,3,5,1033,12,,11.8,
Tiree,04/09/2019 12:00,14.1,36,,,0.4,1,82,46,340,Rain,1007,2,15,1410,30,,11.1,
Tiree,04/09/2019 13:00,12.2,40,,,0,,84,51,350,Rain,1010,1,15,1665,30,,9.6,
Tiree,04/09/2019 14:00,11.7,39,,,0,,81,52,340,Haze,1013,1,6,1197,6,,8.7,
Tiree,04/09/2019 15:00,11.8,38,,,0,,76,52,340,Rain,1015,4,18,1191,18,,7.8,
Tiree,04/09/2019 16:00,11.5,32,,,0,,77,47,340,Dry,1016,1,16,1134,12,,7.7,
Tiree,04/09/2019 17:00,11.8,33,,,0,,73,47,340,Dry,1018,1,14,761,18,,7.3,
Tiree,04/09/2019 18:00,11.5,33,,14.5,0,0,67,46,340,Rain,1019,7,14,406,6,,5.8,
Tiree,04/09/2019 19:00,11.2,30,,,0,,64,44,340,Dry,1021,4,14,264,24,,4.8,
Tiree,04/09/2019 20:00,11.2,28,,,0,,72,39,340,Dry,1022,5,19,17,0,,6.5,
Tiree,04/09/2019 21:00,11.4,23,,,0,,71,36,330,Rain,1023,7,23,0,0,,6.5,
Tiree,04/09/2019 22:00,9.9,18,,,0.2,,80,37,330,Rain,1023,8,35,0,0,,6.7,
Tiree,04/09/2019 23:00,10.6,18,,,0,,77,31,320,Dry,1023,6,25,0,0,,6.9,
Tiree,05/09/2019 00:00,11.1,18,,,0,0.2,73,,310,Dry,1023,1,22,,,,6.6,
Tiree,05/09/2019 01:00,11.6,20,,,0,,74,29,310,Dry,1023,6,25,0,0,,7.3,
Tiree,05/09/2019 02:00,11.1,18,,,0,,79,,300,Dry,1023,7,18,0,0,,7.7,
Tiree,05/09/2019 03:00,11.5,18,,,0,,76,,300,Dry,1023,6,20,0,0,,7.5,
Tiree,05/09/2019 04:00,12.1,18,,,0,,76,,300,Dry,1023,8,16,0,0,,8.1,
Tiree,05/09/2019 05:00,12.1,18,,,0,,80,,280,Dry,1023,8,20,0,0,,8.9,
Tiree,05/09/2019 06:00,12.5,20,9.7,,0,0,85,32,280,Rain,1022,8,16,1,0,,10.2,
Tiree,05/09/2019 07:00,12.6,24,,,0.4,,87,35,290,Rain,1022,8,13,90,0,,10.6,
Tiree,05/09/2019 08:00,13.2,23,,,0,,84,33,280,Dry,1023,6,15,430,0,,10.6,
Tiree,05/09/2019 09:00,13.5,23,,,0,,81,32,280,Dry,1023,1,11,622,0,,10.4,
Tiree,05/09/2019 10:00,14,21,,,0,,78,30,280,Dry,1023,8,13,984,0,,10.4,
Tiree,05/09/2019 11:00,15,21,,,0,,78,,270,Dry,1023,8,11,1370,30,,11.3,
Tiree,05/09/2019 12:00,14,21,,,0,0.4,73,30,280,Dry,1023,7,12,1773,42,,9.4,
Tiree,05/09/2019 13:00,14.7,23,,,0,,75,30,270,Dry,1022,8,11,1948,48,,10.5,
Tiree,05/09/2019 14:00,14.2,21,,,0,,78,29,260,Dry,1022,8,13,1219,0,,10.6,
Tiree,05/09/2019 15:00,14.5,17,,,0,,83,30,250,Haze,1022,8,11,993,0,,11.8,
Tiree,05/09/2019 16:00,13.8,18,,,0,,86,30,240,Dry,1021,8,11,916,12,,11.6,
Tiree,05/09/2019 17:00,13.6,22,,,0,,86,31,240,Dry,1020,8,10,259,0,,11.4,
Tiree,05/09/2019 18:00,12.7,15,,15.6,0.6,0.6,92,31,230,Light rain,1019,8,9,64,0,,11.5,
Tiree,05/09/2019 19:00,12.9,18,,,0,,87,35,220,Rain,1017,8,12,54,0,,10.9,
Tiree,05/09/2019 20:00,13.3,25,,,0,,86,39,220,Dry,1016,8,11,4,0,,11.1,
Tiree,05/09/2019 21:00,13,28,,,0.2,,93,41,230,Haze,1015,8,4,0,0,,11.9,
Tiree,05/09/2019 22:00,13.1,30,,,0.6,,95,44,230,Drizzly rain,1014,8,5,0,0,,12.4,
Tiree,05/09/2019 23:00,13.2,30,,,0.6,,96,43,240,Rain,1013,8,2,0,0,,12.6,
Tiree,06/09/2019 00:00,13.4,24,,,0.4,2,97,39,250,Rain,1012,7,2,,,,13,
Tiree,06/09/2019 01:00,12.6,18,,,1,,95,38,270,Rain,1012,8,16,0,0,,11.9,
Tiree,06/09/2019 02:00,11.9,22,,,0,,81,32,280,Dry,1012,2,16,0,0,,8.8,
Tiree,06/09/2019 03:00,12.2,22,,,0,,79,33,290,Dry,1012,7,13,0,0,,8.8,
Tiree,06/09/2019 04:00,12.1,22,,,0,,70,36,290,Dry,1012,7,18,0,0,,7,
Tiree,06/09/2019 05:00,11.4,16,,,0,,82,30,280,Rain,1012,8,19,0,0,,8.5,
Tiree,06/09/2019 06:00,11.5,22,10.8,,0.4,1,83,33,270,Rain,1012,8,25,0,0,,8.8,
Tiree,06/09/2019 07:00,11.7,22,,,0,,87,31,270,Rain,1012,8,21,40,0,,9.7,
Tiree,06/09/2019 08:00,12.4,22,,,1,,89,33,270,Rain,1012,8,14,275,6,,10.8,
Tiree,06/09/2019 09:00,12.7,25,,,0.4,,86,41,280,Rain,1013,1,14,756,18,,10.5,
Tiree,06/09/2019 10:00,13.5,29,,,0,,82,40,290,Dry,1013,8,16,1121,24,,10.6,
Tiree,06/09/2019 11:00,14.1,28,,,0,,79,38,290,Dry,1014,7,8,1726,42,,10.7,
Tiree,06/09/2019 12:00,14.4,26,,,0,1,80,35,280,Dry,1015,7,13,1960,48,,11.1,
Tiree,06/09/2019 13:00,14.8,25,,,0,,83,33,290,Dry,1015,8,16,1512,24,,12.1,
Tiree,06/09/2019 14:00,14.4,21,,,0,,82,32,310,Dry,1016,8,12,1627,30,,11.4,
Tiree,06/09/2019 15:00,14.9,20,,,0,,82,,310,Dry,1017,7,23,1373,30,,12,
Tiree,06/09/2019 16:00,14.3,18,,,0,,80,,310,Dry,1017,2,28,1685,54,,11,
Tiree,06/09/2019 17:00,13.4,16,,,0,,84,,320,Rain,1018,8,19,697,12,,10.9,
Tiree,06/09/2019 18:00,13.1,15,,15.4,0,0,84,,330,Dry,1018,7,25,440,0,,10.5,
Tiree,06/09/2019 19:00,12.1,12,,,0,,82,,330,Dry,1019,6,21,117,0,,9.3,
Tiree,06/09/2019 20:00,11.6,13,,,0,,86,,330,Dry,1020,1,22,9,0,,9.4,
Tiree,06/09/2019 21:00,11.7,13,,,0,,86,,330,Dry,1021,3,24,0,0,,9.5,
Tiree,06/09/2019 22:00,11.6,12,,,0,,84,,340,Dry,1021,2,30,0,0,,9,
Tiree,06/09/2019 23:00,10.9,13,,,0,,84,,340,Dry,1022,0,27,0,0,,8.4,
Tiree,07/09/2019 00:00,11,12,,,0,0,84,,340,Dry,1023,2,29,,,,8.5,
Tiree,07/09/2019 01:00,10.8,10,,,0,,86,,330,Dry,1023,4,27,0,0,,8.7,
Tiree,07/09/2019 02:00,11.7,13,,,0,,88,,340,Dry,1024,5,35,0,0,,9.8,
Tiree,07/09/2019 03:00,9.8,10,,,0,,84,,360,Dry,1024,1,45,0,0,,7.4,
Tiree,07/09/2019 04:00,10,10,,,0,,83,,350,Dry,1024,1,50,0,0,,7.4,
Tiree,07/09/2019 05:00,11.1,7,,,0,,80,,350,Dry,1025,7,50,0,0,,7.9,
Tiree,07/09/2019 06:00,10.4,7,9.4,,0,0,82,,360,Dry,1025,6,50,0,0,,7.5,
Tiree,07/09/2019 07:00,10.4,5,,,0,,85,,30,Dry,1026,7,35,74,0,,8,
Tiree,07/09/2019 08:00,12.3,6,,,0,,75,,20,Dry,1026,8,40,272,0,,8.1,
Tiree,07/09/2019 09:00,12.5,6,,,0,,73,,30,Dry,1027,7,40,483,0,,7.9,
Tiree,07/09/2019 10:00,13.4,2,,,0,,69,,100,Dry,1027,8,30,756,0,,8,
Tiree,07/09/2019 11:00,13.3,3,,,0,,68,,350,Dry,1027,8,30,927,0,,7.6,
Tiree,07/09/2019 12:00,13.7,3,,,0,0,68,,290,Dry,1028,8,28,1260,6,,8.1,
Tiree,07/09/2019 13:00,13.6,5,,,0,,74,,10,Dry,1028,8,30,897,0,,9.2,
Tiree,07/09/2019 14:00,14,8,,,0,,68,,330,Dry,1028,1,26,1553,30,,8.4,
Tiree,07/09/2019 15:00,14,7,,,0,,65,,340,Dry,1028,1,35,2099,60,,7.6,
Tiree,07/09/2019 16:00,14.1,5,,,0,,66,,360,Dry,1028,1,30,1723,60,,8,
Tiree,07/09/2019 17:00,14.2,5,,,0,,63,,300,Dry,1027,0,35,1231,60,,7.3,
Tiree,07/09/2019 18:00,13.2,3,,14.8,0,0,70,,290,Dry,1028,7,45,399,12,,8,
Tiree,07/09/2019 19:00,12.5,2,,,0,,75,,210,Dry,1028,8,50,133,0,,8.2,
Tiree,07/09/2019 20:00,12.2,7,,,0,,78,,210,Dry,1028,8,50,4,0,,8.6,
Tiree,07/09/2019 21:00,12.1,3,,,0,,79,,220,Dry,1027,8,40,0,0,,8.7,
Tiree,07/09/2019 22:00,11.9,3,,,0,,85,,210,Dry,1027,8,45,0,0,,9.5,
Tiree,07/09/2019 23:00,12.2,6,,,0,,80,,230,Dry,1026,8,50,0,0,,8.9,
Tiree,08/09/2019 00:00,11.8,6,,,0,0,81,,210,Dry,1026,8,50,,,,8.7,
Tiree,08/09/2019 01:00,11.4,7,,,0,,81,,210,Dry,1026,7,50,0,0,,8.4,
Tiree,08/09/2019 02:00,11.8,7,,,0,,82,,190,Dry,1025,8,50,0,0,,8.9,
Tiree,08/09/2019 03:00,12.3,7,,,0,,81,,200,Dry,1025,7,50,0,0,,9.3,
Tiree,08/09/2019 04:00,12.3,10,,,0,,81,,190,Dry,1024,7,50,0,0,,9.3,
Tiree,08/09/2019 05:00,12.5,10,,,0,,84,,200,Dry,1024,8,50,0,0,,9.9,
Tiree,08/09/2019 06:00,12.9,12,10.4,,0,0,86,,190,Dry,1023,7,40,3,0,,10.7,
Tiree,08/09/2019 07:00,12.8,15,,,0,,90,,180,Dry,1023,8,13,101,0,,11.3,
Tiree,08/09/2019 08:00,12.7,16,,,0,,94,,180,Dry,1022,7,22,273,0,,11.8,
Tiree,08/09/2019 09:00,12.8,18,,,0,,94,,170,Dry,1022,8,25,331,0,,11.9,
Tiree,08/09/2019 10:00,12.6,18,,,0,,96,,170,Misty,1021,8,9,546,0,,12,
Tiree,08/09/2019 11:00,13,20,,,0.2,,96,,160,Misty,1021,8,5,645,0,,12.5,
Tiree,08/09/2019 12:00,13,21,,,0.2,0.4,97,,170,Dry,1020,8,24,736,0,,12.6,
Tiree,08/09/2019 13:00,13.8,20,,,0,,96,,170,Dry,1020,8,28,889,0,,13.2,
Tiree,08/09/2019 14:00,13.7,21,,,0,,95,,180,Dry,1019,8,25,598,0,,13,
Tiree,08/09/2019 15:00,13.8,20,,,0,,96,,170,Dry,1018,8,21,420,0,,13.2,
Tiree,08/09/2019 16:00,14,18,,,0,,95,,170,Dry,1017,8,21,343,0,,13.3,
Tiree,08/09/2019 17:00,13.8,17,,,0,,96,,170,Misty,1016,8,3,197,0,,13.2,
Tiree,08/09/2019 18:00,13.9,15,,14,0.6,0.6,97,,170,Rain,1015,8,5,106,0,,13.5,
Tiree,08/09/2019 19:00,13.2,13,,,3.6,,98,,210,Light drizzle,1015,8,2,16,0,,12.9,
Tiree,08/09/2019 20:00,13.4,10,,,0.2,,97,,170,Drizzle,1014,8,30,2,0,,13,
Tiree,08/09/2019 21:00,13.6,13,,,0,,96,,170,Dry,1013,8,20,1,0,,13.1,
Tiree,08/09/2019 22:00,13.5,12,,,0,,96,,180,Dry,1012,8,21,0,0,,12.9,
Tiree,08/09/2019 23:00,13.8,9,,,0,,96,,180,Dry,1012,8,19,0,0,,13.3,
Tiree,09/09/2019 00:00,13.2,10,,,0,4,94,,210,Dry,1011,2,21,,,,12.3,
Tiree,09/09/2019 01:00,13.4,10,,,0,,94,,200,Drizzly rain,1010,8,13,0,0,,12.6,
Tiree,09/09/2019 02:00,13.4,13,,,0.4,,96,,210,Light drizzle,1009,8,11,0,0,,12.8,
Tiree,09/09/2019 03:00,12.8,13,,,0.4,,96,,290,Light drizzle,1009,8,12,0,0,,12.2,
Tiree,09/09/2019 04:00,11.6,21,,,0.2,,96,,320,Light drizzle,1009,7,14,0,0,,11,
Tiree,09/09/2019 05:00,11.4,17,,,0.4,,92,,330,Rain,1009,8,22,0,0,,10.2,
Tiree,09/09/2019 06:00,11.8,16,11.3,,0,1,91,,320,Dry,1009,7,26,0,0,,10.4,
Tiree,09/09/2019 07:00,12,15,,,0,,87,,320,Dry,1009,8,30,41,0,,10,
Tiree,09/09/2019 08:00,11.6,15,,,0.2,,91,,350,Light drizzle,1010,8,5,138,0,,10.3,
Tiree,09/09/2019 09:00,11.9,14,,,0.6,,94,,320,Rain,1010,2,12,251,0,,11,
Tiree,09/09/2019 10:00,12.9,20,,,0.4,,86,,320,Rain,1010,8,29,439,0,,10.7,
Tiree,09/09/2019 11:00,13.6,18,,,0,,82,,330,Dry,1011,8,17,1032,0,,10.6,
Tiree,09/09/2019 12:00,14.6,20,,,0,1,80,,330,Dry,1011,8,13,1617,30,,11.2,
Tiree,09/09/2019 13:00,13.4,20,,,0,,78,,330,Dry,1012,5,24,1881,48,,9.8,
Tiree,09/09/2019 14:00,14.9,21,,,0,,72,,330,Dry,1012,7,26,2348,54,,10.1,
Tiree,09/09/2019 15:00,14.2,20,,,0,,74,,330,Dry,1013,6,23,2132,54,,9.7,
Tiree,09/09/2019 16:00,13.6,18,,,0,,76,,330,Dry,1013,2,21,1563,54,,9.5,
Tiree,09/09/2019 17:00,13.6,18,,,0,,74,,330,Dry,1014,1,45,1117,54,,9.2,
Tiree,09/09/2019 18:00,13,15,,15.6,0,0,77,,330,Dry,1015,1,30,646,60,,9.1,
Tiree,09/09/2019 19:00,12.4,16,,,0,,81,,320,Dry,1016,7,27,133,6,,9.3,
Tiree,09/09/2019 20:00,11.5,15,,,0,,82,,320,Dry,1016,2,18,1,0,,8.7,
Tiree,09/09/2019 21:00,10.7,12,,,0,,82,,330,Dry,1017,1,19,0,0,,7.9,
Tiree,09/09/2019 22:00,9.9,9,,,0,,86,,320,Dry,1017,1,18,0,0,,7.8,
Tiree,09/09/2019 23:00,10.1,10,,,0,,87,,320,Dry,1017,2,22,0,0,,8.2,
Tiree,10/09/2019 00:00,10.5,8,,,0,0,87,,310,Dry,1017,3,24,,,,8.5,
Tiree,10/09/2019 01:00,9.7,9,,,0,,87,,310,Dry,1018,3,21,0,0,,7.8,
Tiree,10/09/2019 02:00,9.3,8,,,0,,86,,310,Dry,1018,1,16,0,0,,7.2,
Tiree,10/09/2019 03:00,9.9,7,,,0,,89,,310,Dry,1017,6,12,0,0,,8.2,
Tiree,10/09/2019 04:00,9.6,6,,,0,,89,,280,Dry,1017,7,12,0,0,,8,
Tiree,10/09/2019 05:00,7.6,6,,,0,,90,,260,Dry,1017,6,12,0,0,,6.2,
Tiree,10/09/2019 06:00,7.9,7,7.1,,0,0,93,,240,Dry,1017,7,14,0,0,,6.9,
Tiree,10/09/2019 07:00,10.7,6,,,0,,91,,210,Dry,1018,8,15,102,0,,9.3,
Tiree,10/09/2019 08:00,12.1,9,,,0,,84,,210,Dry,1017,7,28,259,0,,9.6,
Tiree,10/09/2019 09:00,12.8,12,,,0,,77,,210,Dry,1017,4,40,477,0,,9,
Tiree,10/09/2019 10:00,14.2,16,,,0,,69,,200,Dry,1016,6,23,1034,24,,8.8,
Tiree,10/09/2019 11:00,13.3,18,,,0,,76,,190,Dry,1015,8,28,743,6,,9.3,
Tiree,10/09/2019 12:00,12.8,20,,,0,0,83,31,190,Light shower,1015,8,12,570,0,,10.1,
Tiree,10/09/2019 13:00,12.4,24,,,0.4,,88,35,190,Light rain,1014,8,11,433,0,,10.6,
Tiree,10/09/2019 14:00,11.6,28,,,0.8,,92,36,180,Moderate rain,1012,8,6,438,0,,10.4,
Tiree,10/09/2019 15:00,11.9,32,,,0.6,,94,44,170,Moderate shower,1011,7,6,271,0,,11.1,
Tiree,10/09/2019 16:00,12.2,32,,,1.2,,96,44,170,Moderate rain,1009,8,3,161,0,,11.7,
Tiree,10/09/2019 17:00,12.8,30,,,4,,97,40,170,Light rain,1008,8,4,84,0,,12.4,
Tiree,10/09/2019 18:00,13.3,31,,14.3,6.4,13,97,40,170,Moderate rain,1006,8,4,33,0,,12.9,
Tiree,10/09/2019 19:00,14.3,25,,,3,,98,41,190,Moderate rain,1005,8,3,19,0,,14,
Tiree,10/09/2019 20:00,15,26,,,1.2,,98,41,200,Moderate rain,1004,8,4,0,0,,14.7,
Tiree,10/09/2019 21:00,15.1,26,,,3.6,,98,39,210,Moderate rain,1003,8,3,0,0,,14.8,
Tiree,10/09/2019 22:00,14.9,25,,,0.4,,98,39,220,Rain,1003,8,2,0,0,,14.7,
Tiree,10/09/2019 23:00,14.8,24,,,0.4,,98,36,230,Misty,1003,8,4,0,0,,14.6,
Tiree,11/09/2019 00:00,14.7,23,,,0.8,9,98,35,240,Light drizzle,1003,7,2,,,,14.4,
Tiree,11/09/2019 01:00,13.9,21,,,0,,93,39,240,Rain,1003,8,13,1,0,,12.9,
Tiree,11/09/2019 02:00,13.4,18,,,0,,91,30,250,Dry,1003,4,11,0,0,,12,
Tiree,11/09/2019 03:00,13.4,23,,,0,,91,36,230,Dry,1003,5,10,0,0,,12.1,
Tiree,11/09/2019 04:00,13.2,24,,,0,,87,38,250,Dry,1004,7,11,0,0,,11.1,
Tiree,11/09/2019 05:00,13.3,28,,,0,,84,39,260,Dry,1004,7,12,0,0,,10.8,
Tiree,11/09/2019 06:00,13.2,25,13,,0,0,84,35,250,Dry,1005,6,12,0,0,,10.7,
Tiree,11/09/2019 07:00,13.4,23,,,0,,85,36,260,Dry,1006,7,11,91,0,,11,
Tiree,11/09/2019 08:00,13.4,24,,,0,,85,33,250,Dry,1007,6,15,396,18,,11.1,
Tiree,11/09/2019 09:00,14.4,26,,,0,,83,35,250,Dry,1008,7,12,853,30,,11.7,
Tiree,11/09/2019 10:00,14.9,26,,,0,,79,36,260,Dry,1008,6,12,1222,36,,11.4,
Tiree,11/09/2019 11:00,13.5,28,,,0,,80,38,260,Light shower,1009,5,5,1757,48,,10.2,
Tiree,11/09/2019 12:00,15.2,29,,,0,0,78,38,260,Rain,1010,1,13,1702,36,,11.4,
Tiree,11/09/2019 13:00,14.6,24,,,0,,75,40,250,Dry,1011,4,13,2060,54,,10.4,
Tiree,11/09/2019 14:00,14.9,25,,,0,,78,36,250,Dry,1012,2,12,1833,48,,11.2,
Tiree,11/09/2019 15:00,14.6,24,,,0,,78,35,250,Dry,1013,2,12,1574,48,,10.9,
Tiree,11/09/2019 16:00,14.3,23,,,0,,81,35,240,Dry,1013,5,13,1114,30,,11.2,
Tiree,11/09/2019 17:00,13.8,22,,,0,,84,33,250,Dry,1013,7,12,613,6,,11.2,
Tiree,11/09/2019 18:00,13.7,20,,15.7,0,0,82,29,250,Dry,1014,8,24,399,0,,10.7,
Tiree,11/09/2019 19:00,12.2,22,,,0.2,,91,37,260,Haze,1014,2,14,129,0,,10.9,
Tiree,11/09/2019 20:00,12.3,16,,,0,,91,,260,Dry,1015,7,15,2,0,,10.9,
Tiree,11/09/2019 21:00,12.7,16,,,0,,90,,240,Dry,1016,3,16,0,0,,11.2,
Tiree,11/09/2019 22:00,12.3,13,,,0.2,,93,,240,Rain,1016,7,3,0,0,,11.3,
Tiree,11/09/2019 23:00,11.9,15,,,0.2,,90,,250,Drizzle,1016,8,28,0,0,,10.4,
Tiree,12/09/2019 00:00,12.3,17,,,0,0.6,88,,230,Dry,1016,1,19,,,,10.5,
Tiree,12/09/2019 01:00,12.4,17,,,0,,86,,240,Dry,1016,8,24,0,0,,10.2,
Tiree,12/09/2019 02:00,12.4,14,,,0,,85,,240,Dry,1016,8,24,0,0,,10,
Tiree,12/09/2019 03:00,12.5,16,,,0,,81,,240,Dry,1016,8,26,0,0,,9.4,
Tiree,12/09/2019 04:00,11.5,12,,,0,,90,,230,Dry,1016,8,28,0,0,,10,
Tiree,12/09/2019 05:00,11.7,12,,,0,,88,,230,Rain,1016,7,28,0,0,,9.9,
Tiree,12/09/2019 06:00,12.2,9,11.2,,0,0,89,,240,Drizzly rain,1016,8,17,0,0,,10.5,
Tiree,12/09/2019 07:00,11.9,13,,,0.2,,93,,230,Light drizzle,1017,7,9,23,0,,10.9,
Tiree,12/09/2019 08:00,12.3,8,,,0.6,,94,,240,Light shower,1017,8,13,164,0,,11.5,
Tiree,12/09/2019 09:00,13,10,,,0,,91,,250,Rain,1017,1,28,347,0,,11.6,
Tiree,12/09/2019 10:00,13.4,14,,,0,,84,,260,Rain,1018,8,35,533,0,,10.8,
Tiree,12/09/2019 11:00,12.5,9,,,0,,88,,270,Rain,1019,7,27,869,6,,10.7,
Tiree,12/09/2019 12:00,14,17,,,0,0.8,75,,280,Dry,1020,3,26,1945,60,,9.7,
Tiree,12/09/2019 13:00,14.6,18,,,0,,73,,290,Dry,1020,4,15,2100,54,,10,
Tiree,12/09/2019 14:00,14.6,18,,,0,,70,,290,Dry,1022,1,21,2197,60,,9.3,
Tiree,12/09/2019 15:00,14.4,20,,,0,,69,,290,Dry,1022,3,30,1891,54,,8.9,
Tiree,12/09/2019 16:00,14.2,20,,,0,,68,,290,Dry,1023,2,22,1634,60,,8.6,
Tiree,12/09/2019 17:00,13.6,18,,,0,,69,,280,Dry,1024,0,28,1067,60,,8.2,
Tiree,12/09/2019 18:00,12.8,16,,15.6,0,0,71,,280,Dry,1025,4,25,559,48,,7.7,
Tiree,12/09/2019 19:00,12.4,16,,,0,,73,,270,Dry,1026,3,22,131,12,,7.8,
Tiree,12/09/2019 20:00,11.7,13,,,0,,80,,270,Dry,1026,3,22,0,0,,8.4,
Tiree,12/09/2019 21:00,11.3,16,,,0.2,,85,,260,Rain,1027,4,18,0,0,,9,
Tiree,12/09/2019 22:00,12.1,18,,,0,,83,,260,Dry,1027,7,19,0,0,,9.4,
Tiree,12/09/2019 23:00,11.4,16,,,0,,84,,260,Dry,1028,4,23,0,0,,8.8,
Tiree,13/09/2019 00:00,12,17,,,0,0.2,75,,270,Dry,1029,2,21,,,,7.9,
Tiree,13/09/2019 01:00,11.8,17,,,0,,76,,280,Dry,1029,2,20,0,0,,7.8,
Tiree,13/09/2019 02:00,11.5,14,,,0,,76,,280,Dry,1029,4,17,0,0,,7.5,
Tiree,13/09/2019 03:00,11.5,14,,,0,,76,,280,Dry,1030,2,17,0,0,,7.6,
Tiree,13/09/2019 04:00,11.6,15,,,0,,75,,270,Dry,1030,4,17,0,0,,7.5,
Tiree,13/09/2019 05:00,11,13,,,0,,80,,270,Dry,1031,1,15,0,0,,7.7,
Tiree,13/09/2019 06:00,11.5,13,10.9,,0,0,76,,270,Dry,1031,1,17,0,0,,7.6,
Tiree,13/09/2019 07:00,11.7,12,,,0,,80,,260,Dry,1032,3,20,115,24,,8.4,
Tiree,13/09/2019 08:00,13.4,15,,,0,,72,,260,Dry,1032,4,17,534,42,,8.6,
Tiree,13/09/2019 09:00,13.5,22,,,0,,72,,250,Dry,1033,2,15,944,54,,8.7,
Tiree,13/09/2019 10:00,14.4,20,,,0,,72,,250,Dry,1033,5,18,1421,48,,9.5,
Tiree,13/09/2019 11:00,14.7,20,,,0,,67,29,260,Dry,1034,4,12,1839,60,,8.7,
Tiree,13/09/2019 12:00,15.2,21,,,0,0,69,,250,Dry,1034,5,16,2100,60,,9.7,
Tiree,13/09/2019 13:00,15.3,21,,,0,,72,32,240,Rain,1034,2,15,2142,54,,10.4,
Tiree,13/09/2019 14:00,14.7,21,,,0,,72,30,240,Dry,1034,5,21,1931,54,,9.9,
Tiree,13/09/2019 15:00,14.8,20,,,0,,71,,250,Dry,1034,1,14,1714,60,,9.8,
Tiree,13/09/2019 16:00,14.6,20,,,0,,75,,240,Dry,1034,4,17,1379,54,,10.4,
Tiree,13/09/2019 17:00,13.8,18,,,0,,81,,240,Dry,1034,7,15,877,42,,10.6,
Tiree,13/09/2019 18:00,13.1,15,,15.6,0,0,84,,240,Dry,1034,6,14,446,24,,10.5,
Tiree,13/09/2019 19:00,12.8,13,,,0,,87,,240,Dry,1034,7,15,69,0,,10.8,
Tiree,13/09/2019 20:00,12.5,12,,,0,,89,,230,Dry,1034,8,14,0,0,,10.8,
Tiree,13/09/2019 21:00,12.7,13,,,0,,87,,230,Dry,1033,7,17,0,0,,10.7,
Tiree,13/09/2019 22:00,12.3,12,,,0,,87,,220,Dry,1033,8,18,0,0,,10.3,
Tiree,13/09/2019 23:00,12.2,12,,,0,,87,,210,Dry,1033,7,19,0,0,,10.2,
Tiree,14/09/2019 00:00,12.8,15,,,0,0,83,,210,Dry,1032,0,21,,,,10.1,
Tiree,14/09/2019 01:00,13.1,18,,,0,,82,,200,Dry,1031,8,24,0,0,,10.2,
Tiree,14/09/2019 02:00,13.1,21,,,0,,87,29,190,Light shower,1029,8,16,0,0,,11,
Tiree,14/09/2019 03:00,13.4,22,,,0,,83,30,190,Rain,1028,7,19,0,0,,10.7,
Tiree,14/09/2019 04:00,13,23,,,0,,82,31,190,Haze,1027,8,11,0,0,,10.1,
Tiree,14/09/2019 05:00,13.3,26,,,0.2,,79,36,190,Rain,1025,8,17,0,0,,9.9,
Tiree,14/09/2019 06:00,13.3,25,11.7,,0,0.2,82,39,190,Rain,1024,8,16,0,0,,10.3,
Tiree,14/09/2019 07:00,12.4,28,,,0.6,,91,39,210,Moderate shower,1024,8,5,20,0,,11,
Tiree,14/09/2019 08:00,13.6,26,,,0.4,,85,37,210,Rain,1023,8,13,64,0,,11.2,
Tiree,14/09/2019 09:00,13.9,30,,,0,,84,41,210,Dry,1023,8,11,106,0,,11.4,
Tiree,14/09/2019 10:00,14.2,31,,,0,,85,48,210,Dry,1022,7,11,175,0,,11.8,
Tiree,14/09/2019 11:00,14.3,31,,,0,,86,44,210,Dry,1021,8,10,201,0,,12,
Tiree,14/09/2019 12:00,14.6,32,,,0,1,86,45,210,Haze,1020,8,10,250,0,,12.4,
Tiree,14/09/2019 13:00,14.2,30,,,0,,94,47,220,Rain,1020,8,4,237,0,,13.3,
Tiree,14/09/2019 14:00,14.4,31,,,0,,94,45,220,Rain,1019,8,5,221,0,,13.6,
Tiree,14/09/2019 15:00,14.1,30,,,2.6,,97,47,220,Light shower,1018,8,3,212,0,,13.7,
Tiree,14/09/2019 16:00,14.2,32,,,2.4,,98,45,230,Light drizzle,1017,8,4,169,0,,13.9,
Tiree,14/09/2019 17:00,14.2,30,,,0.8,,98,44,230,Drizzle,1018,8,3,178,0,,13.9,
Tiree,14/09/2019 18:00,13.4,21,,14.6,1,7,98,38,260,Rain,1018,8,2,92,0,,13.1,
Tiree,14/09/2019 19:00,12.5,16,,,0.6,,96,29,270,Rain,1018,8,4,26,0,,11.9,
Tiree,14/09/2019 20:00,12.4,17,,,0.4,,94,29,260,Rain,1019,7,8,0,0,,11.5,
Tiree,14/09/2019 21:00,12.8,17,,,0,,85,30,270,Dry,1019,7,10,0,0,,10.4,
Tiree,14/09/2019 22:00,12.6,20,,,0,,80,30,270,Dry,1020,8,12,0,0,,9.3,
Tiree,14/09/2019 23:00,12.7,21,,,0,,79,31,270,Dry,1020,8,12,0,0,,9.2,
Tiree,15/09/2019 00:00,11.9,21,,,0,1,71,31,280,Dry,1020,1,12,,,,6.9,
Tiree,15/09/2019 01:00,11.9,20,,,0,,74,,280,Dry,1020,7,10,0,0,,7.6,
Tiree,15/09/2019 02:00,11.7,21,,,0,,69,29,280,Dry,1021,7,13,0,0,,6.3,
Tiree,15/09/2019 03:00,11.1,22,,,0,,66,30,290,Dry,1021,7,15,0,0,,5.2,
Tiree,15/09/2019 04:00,11.4,16,,,0,,73,29,300,Dry,1021,7,12,0,0,,6.9,
Tiree,15/09/2019 05:00,11.2,21,,,0,,66,,290,Dry,1021,8,14,0,0,,5.1,
Tiree,15/09/2019 06:00,11.3,18,10.9,,0,0,66,,290,Dry,1021,8,14,0,0,,5.3,
Tiree,15/09/2019 07:00,11.1,14,,,0,,71,,290,Dry,1022,7,12,17,0,,6.1,
Tiree,15/09/2019 08:00,11.5,16,,,0,,68,,280,Dry,1022,8,12,116,0,,6,
Tiree,15/09/2019 09:00,12,15,,,0,,70,,280,Dry,1022,1,13,241,0,,6.8,
Tiree,15/09/2019 10:00,12.4,14,,,0,,68,,290,Dry,1023,2,15,527,0,,6.7,
Tiree,15/09/2019 11:00,12.7,17,,,0,,65,,280,Dry,1023,1,18,984,6,,6.5,
Tiree,15/09/2019 12:00,12.9,14,,,0,0,64,,300,Dry,1023,8,14,849,0,,6.4,
Tiree,15/09/2019 13:00,13.9,15,,,0,,62,,280,Dry,1023,3,17,1569,30,,6.9,
Tiree,15/09/2019 14:00,13.5,13,,,0,,62,,280,Dry,1023,1,17,2002,60,,6.5,
Tiree,15/09/2019 15:00,14.1,13,,,0,,63,,280,Dry,1023,3,19,1910,60,,7.4,
Tiree,15/09/2019 16:00,13.6,12,,,0,,64,,270,Dry,1023,2,20,1495,60,,7.1,
Tiree,15/09/2019 17:00,13.1,12,,,0,,67,,290,Dry,1023,2,15,924,48,,7.3,
Tiree,15/09/2019 18:00,11.6,8,,14.4,0,0,73,,280,Dry,1022,0,18,404,30,,7,
Tiree,15/09/2019 19:00,8.7,7,,,0,,80,,280,Dry,1023,4,15,56,0,,5.5,
Tiree,15/09/2019 20:00,7.9,7,,,0,,86,,270,Dry,1023,2,16,0,0,,5.8,
Tiree,15/09/2019 21:00,7.6,6,,,0,,88,,260,Dry,1023,4,13,0,0,,5.9,
Tiree,15/09/2019 22:00,10.6,12,,,0,,92,,310,Rain,1023,8,6,0,0,,9.4,
Tiree,15/09/2019 23:00,10.9,10,,,0,,90,,260,Rain,1023,8,18,0,0,,9.4,
Tiree,16/09/2019 00:00,10.8,8,,,0,0,88,,290,Rain,1022,1,20,,,,8.9,
Tiree,16/09/2019 01:00,10.4,7,,,0,,85,,250,Dry,1022,7,30,0,0,,8.1,
Tiree,16/09/2019 02:00,11.1,8,,,0,,80,,280,Dry,1022,7,30,0,0,,7.8,
Tiree,16/09/2019 03:00,9.3,9,,,0,,78,,280,Dry,1022,0,25,0,0,,5.7,
Tiree,16/09/2019 04:00,10.3,8,,,0,,82,,270,Dry,1022,6,29,0,0,,7.5,
Tiree,16/09/2019 05:00,10.2,7,,,0,,80,,250,Dry,1022,7,30,0,0,,7,
Tiree,16/09/2019 06:00,11,10,7.3,,0,0,87,,270,Dry,1022,8,25,0,0,,9,
Tiree,16/09/2019 07:00,11.5,10,,,0,,76,,290,Dry,1022,7,35,56,0,,7.6,
Tiree,16/09/2019 08:00,12.6,8,,,0,,78,,280,Dry,1022,6,20,341,12,,9,
Tiree,16/09/2019 09:00,11.9,16,,,0,,76,,280,Dry,1023,7,25,555,18,,7.9,
Tiree,16/09/2019 10:00,13.8,16,,,0,,65,30,280,Dry,1023,5,30,767,12,,7.4,
Tiree,16/09/2019 11:00,12.7,15,,,0,,77,,310,Dry,1023,8,24,934,12,,8.8,
Tiree,16/09/2019 12:00,12.3,20,,,0,0,72,,290,Dry,1024,8,18,821,0,,7.5,
Tiree,16/09/2019 13:00,14.8,17,,,0,,72,,290,Dry,1024,6,27,1265,24,,9.9,
Tiree,16/09/2019 14:00,14.2,18,,,0,,73,,280,Dry,1024,2,25,2040,60,,9.5,
Tiree,16/09/2019 15:00,14.1,18,,,0,,69,,280,Dry,1023,0,23,1804,60,,8.6,
Tiree,16/09/2019 16:00,13.9,16,,,0,,68,,290,Dry,1024,1,26,1458,54,,8.3,
Tiree,16/09/2019 17:00,13.1,17,,,0,,74,,290,Dry,1024,4,20,857,42,,8.6,
Tiree,16/09/2019 18:00,12.3,16,,14.8,0,0,76,,290,Dry,1024,2,23,524,60,,8.2,
Tiree,16/09/2019 19:00,11.7,15,,,0,,79,,290,Dry,1024,5,22,89,12,,8.2,
Tiree,16/09/2019 20:00,12,16,,,0,,79,,300,Dry,1024,6,19,0,0,,8.5,
Tiree,16/09/2019 21:00,12.2,16,,,0,,78,,290,Dry,1024,2,18,0,0,,8.6,
Tiree,16/09/2019 22:00,11.4,15,,,0.2,,79,30,310,Rain,1024,8,19,0,0,,7.9,
Tiree,16/09/2019 23:00,10.9,17,,,0,,76,,300,Dry,1025,2,20,0,0,,6.9,
Tiree,17/09/2019 00:00,11.6,15,,,0,0.2,75,,310,Dry,1025,7,18,,,,7.4,
Tiree,17/09/2019 01:00,11.8,10,,,0,,77,,300,Dry,1024,7,16,0,0,,8,
Tiree,17/09/2019 02:00,11.1,15,,,0,,83,,320,Rain,1025,8,29,0,0,,8.4,
Tiree,17/09/2019 03:00,10.8,15,,,0,,84,28,310,Light shower,1025,7,11,0,0,,8.3,
Tiree,17/09/2019 04:00,10.4,15,,,0,,79,,320,Rain,1025,3,18,0,0,,7,
Tiree,17/09/2019 05:00,10,13,,,0,,74,,320,Dry,1025,7,19,0,0,,5.6,
Tiree,17/09/2019 06:00,10,12,9.7,,0,0,73,,320,Dry,1026,7,18,0,0,,5.5,
Tiree,17/09/2019 07:00,11.2,10,,,0,,76,,350,Dry,1026,8,18,53,0,,7.2,
Tiree,17/09/2019 08:00,11.9,10,,,0,,70,,350,Rain,1027,8,22,550,42,,6.8,
Tiree,17/09/2019 09:00,12.6,10,,,0,,65,,340,Dry,1027,0,19,913,54,,6.3,
Tiree,17/09/2019 10:00,13.1,10,,,0,,62,,350,Dry,1028,8,21,1462,60,,6.2,
Tiree,17/09/2019 11:00,13.4,8,,,0,,61,,310,Dry,1028,8,18,1565,48,,6.2,
Tiree,17/09/2019 12:00,13.5,7,,,0,0,59,,340,Dry,1028,8,15,1803,60,,5.8,
Tiree,17/09/2019 13:00,12.9,9,,,0,,61,,310,Dry,1029,8,26,1403,18,,5.6,
Tiree,17/09/2019 14:00,13.3,8,,,0,,63,,300,Dry,1028,8,19,1253,6,,6.6,
Tiree,17/09/2019 15:00,12.7,8,,,0,,67,,290,Dry,1028,8,23,854,0,,6.9,
Tiree,17/09/2019 16:00,12.7,7,,,0,,67,,290,Dry,1028,0,27,721,0,,6.9,
Tiree,17/09/2019 17:00,12.7,6,,,0,,68,,280,Dry,1028,8,19,595,0,,7,
Tiree,17/09/2019 18:00,12.4,3,,13.9,0,0,73,,280,Rain,1028,8,25,279,0,,7.8,
Tiree,17/09/2019 19:00,11.8,2,,,0,,76,,210,Dry,1028,8,20,52,0,,7.9,
Tiree,17/09/2019 20:00,11.5,3,,,0,,81,,200,Dry,1028,8,20,0,0,,8.5,
Tiree,17/09/2019 21:00,11.8,6,,,0,,84,,200,Dry,1028,8,19,0,0,,9.3,
Tiree,17/09/2019 22:00,11.8,7,,,0,,86,,200,Dry,1028,8,18,0,0,,9.6,
Tiree,17/09/2019 23:00,12.4,8,,,0,,87,,200,Dry,1028,8,22,0,0,,10.3,
Tiree,18/09/2019 00:00,12.6,8,,,0,0,88,,210,Dry,1028,2,17,,,,10.7,
Tiree,18/09/2019 01:00,12.6,9,,,0,,85,,230,Dry,1028,8,30,0,0,,10.2,
Tiree,18/09/2019 02:00,12.7,10,,,0,,84,,230,Dry,1028,8,45,0,0,,10.1,
Tiree,18/09/2019 03:00,12.2,16,,,0,,87,,250,Haze,1027,8,9,0,0,,10.2,
Tiree,18/09/2019 04:00,12.8,13,,,0,,88,,230,Dry,1027,8,18,0,0,,10.9,
Tiree,18/09/2019 05:00,12.1,14,,,0.2,,95,,240,Misty,1027,4,2,0,0,,11.4,
Tiree,18/09/2019 06:00,12.2,15,11.4,,0.8,1,97,,250,Rain,1027,6,3,0,0,,11.8,
Tiree,18/09/2019 07:00,12.5,15,,,0.2,,97,,250,Misty,1028,7,13,23,0,,12.1,
Tiree,18/09/2019 08:00,13,15,,,0,,98,,250,Misty,1028,8,9,136,0,,12.7,
Tiree,18/09/2019 09:00,13.4,16,,,0,,98,,260,Dry,1028,8,12,331,0,,13.1,
Tiree,18/09/2019 10:00,13.9,16,,,0,,97,,250,Misty,1028,8,10,715,0,,13.5,
Tiree,18/09/2019 11:00,13.8,17,,,0,,97,,260,Misty,1029,8,7,723,0,,13.4,
Tiree,18/09/2019 12:00,14.5,17,,,0,0.2,95,,260,Misty,1029,8,5,1180,6,,13.8,
Tiree,18/09/2019 13:00,15.1,16,,,0,,91,,260,Dry,1029,8,35,1593,24,,13.7,
Tiree,18/09/2019 14:00,14.8,16,,,0,,91,,260,Dry,1029,8,26,1207,0,,13.4,
Tiree,18/09/2019 15:00,14.1,15,,,0,,93,,270,Haze,1029,8,8,1043,6,,13.1,
Tiree,18/09/2019 16:00,14.1,12,,,0,,95,,280,Dry,1029,7,20,564,0,,13.4,
Tiree,18/09/2019 17:00,13.6,10,,,0,,96,,270,Misty,1029,7,11,324,0,,13.1,
Tiree,18/09/2019 18:00,13.9,9,,15.3,0,0,96,,270,Dry,1030,8,18,250,0,,13.3,
Tiree,18/09/2019 19:00,13.4,6,,,0,,95,,260,Dry,1030,8,28,65,0,,12.7,
Tiree,18/09/2019 20:00,13,8,,,0,,96,,260,Dry,1030,8,24,0,0,,12.5,
Tiree,18/09/2019 21:00,12.6,7,,,0,,97,,270,Dry,1030,8,24,0,0,,12.2,
Tiree,18/09/2019 22:00,12.3,7,,,0,,98,,260,Dry,1031,8,40,0,0,,12,
Tiree,18/09/2019 23:00,12.2,5,,,0,,97,,240,Dry,1031,8,45,0,0,,11.8,
Tiree,19/09/2019 00:00,12.4,5,,,0,0,98,,210,Dry,1031,1,35,,,,12.1,
Tiree,19/09/2019 01:00,12.3,6,,,0,,97,,220,Dry,1030,8,16,0,0,,11.9,
Tiree,19/09/2019 02:00,12,6,,,0,,97,,210,Misty,1030,8,10,0,0,,11.6,
Tiree,19/09/2019 03:00,11.5,3,,,0,,97,,220,Misty,1030,8,10,0,0,,11.1,
Tiree,19/09/2019 04:00,11.3,7,,,0.2,,98,,220,Dry,1030,8,50,0,0,,11,
Tiree,19/09/2019 05:00,11.2,7,,,0,,97,,240,Misty,1030,8,5,0,0,,10.8,
Tiree,19/09/2019 06:00,11.1,3,11.1,,0,0.2,97,,220,Dry,1030,8,45,0,0,,10.7,
Tiree,19/09/2019 07:00,11.8,2,,,0.2,,98,,220,Misty,1030,8,5,31,0,,11.5,
Tiree,19/09/2019 08:00,12.3,5,,,0,,97,,230,Dry,1030,8,35,152,0,,11.9,
Tiree,19/09/2019 09:00,12.7,7,,,0,,96,,220,Misty,1030,8,5,399,0,,12.2,
Tiree,19/09/2019 10:00,13,5,,,0,,95,,240,Dry,1030,7,50,598,0,,12.3,
Tiree,19/09/2019 11:00,13.3,7,,,0,,89,,230,Dry,1030,8,45,999,6,,11.6,
Tiree,19/09/2019 12:00,13.3,7,,,0,0.2,91,,220,Haze,1030,8,5,1162,6,,11.9,
Tiree,19/09/2019 13:00,13.7,8,,,0,,88,,200,Rain,1030,8,30,925,0,,11.9,
Tiree,19/09/2019 14:00,15,8,,,0,,80,,200,Dry,1030,6,40,1664,48,,11.6,
Tiree,19/09/2019 15:00,14.1,9,,,0,,80,,170,Dry,1030,2,29,1590,60,,10.8,
Tiree,19/09/2019 16:00,14.3,8,,,0,,82,,170,Dry,1029,0,40,1366,60,,11.4,
Tiree,19/09/2019 17:00,13.9,9,,,0,,85,,160,Dry,1029,0,22,877,60,,11.5,
Tiree,19/09/2019 18:00,13.2,10,,15.1,0,0,88,,150,Dry,1028,0,29,413,60,,11.4,
Tiree,19/09/2019 19:00,12.9,12,,,0,,91,,150,Dry,1028,0,22,85,36,,11.6,
Tiree,19/09/2019 20:00,12.9,12,,,0,,93,,150,Dry,1028,0,29,0,0,,11.8,
Tiree,19/09/2019 21:00,12.9,9,,,0,,93,,150,Dry,1028,0,19,0,0,,11.9,
Tiree,19/09/2019 22:00,13.1,12,,,0,,94,,150,Dry,1028,0,15,0,0,,12.2,
Tiree,19/09/2019 23:00,13.3,10,,,0,,93,,150,Dry,1028,0,17,0,0,,12.3,
Tiree,20/09/2019 00:00,13.3,12,,,0,0,92,,140,Dry,1027,0,19,,,,12.1,
Tiree,20/09/2019 01:00,13.3,12,,,0,,91,,130,Dry,1027,0,27,0,0,,11.9,
Tiree,20/09/2019 02:00,13.6,12,,,0,,89,,150,Dry,1026,0,18,0,0,,11.9,
Tiree,20/09/2019 03:00,13.5,14,,,0,,90,,150,Dry,1025,0,15,0,0,,12,
Tiree,20/09/2019 04:00,13.4,16,,,0,,91,,150,Dry,1025,0,15,0,0,,12.1,
Tiree,20/09/2019 05:00,13.5,17,,,0,,91,,150,Dry,1024,0,14,0,0,,12.2,
Tiree,20/09/2019 06:00,13.4,18,12.7,,0,0,91,,140,Dry,1024,0,14,0,0,,12,
Tiree,20/09/2019 07:00,13.6,18,,,0,,90,,140,Dry,1024,0,12,56,18,,12.1,
Tiree,20/09/2019 08:00,14.1,22,,,0,,86,,140,Dry,1024,0,21,434,60,,11.9,
Tiree,20/09/2019 09:00,14.5,22,,,0,,86,,150,Dry,1023,0,22,919,60,,12.3,
Tiree,20/09/2019 10:00,15,21,,,0,,86,,140,Dry,1023,0,22,1404,60,,12.7,
Tiree,20/09/2019 11:00,15.8,16,,,0,,82,,140,Dry,1023,0,25,1767,60,,12.9,
Tiree,20/09/2019 12:00,15.9,18,,,0,0,82,,130,Dry,1022,0,18,2001,60,,12.9,
Tiree,20/09/2019 13:00,16.3,21,,,0,,81,,130,Dry,1021,0,12,2077,60,,13.2,
Tiree,20/09/2019 14:00,16.3,21,,,0,,81,,140,Dry,1020,0,12,2002,60,,13.1,
Tiree,20/09/2019 15:00,17,20,,,0,,77,29,130,Dry,1019,0,21,1767,60,,13,
Tiree,20/09/2019 16:00,16.9,21,,,0,,77,,130,Dry,1018,0,18,1402,60,,13,
Tiree,20/09/2019 17:00,16.3,20,,,0,,80,30,130,Dry,1018,0,15,935,60,,13,
Tiree,20/09/2019 18:00,16.1,17,,17.2,0,0,78,,140,Dry,1017,0,20,433,60,,12.4,
Tiree,20/09/2019 19:00,15.6,20,,,0,,79,,150,Dry,1017,0,18,62,30,,12.1,
Tiree,20/09/2019 20:00,15.4,14,,,0,,81,,140,Dry,1016,0,17,0,0,,12.2,
Tiree,20/09/2019 21:00,15.9,18,,,0,,77,,140,Dry,1016,0,17,0,0,,12,
Tiree,20/09/2019 22:00,15.3,20,,,0,,82,,120,Dry,1015,0,21,0,0,,12.4,
Tiree,20/09/2019 23:00,15,16,,,0,,84,,120,Dry,1014,0,17,0,0,,12.4,
Tiree,21/09/2019 00:00,15.5,17,,,0,0,81,,130,Dry,1014,0,19,,,,12.3,
Tiree,21/09/2019 01:00,15.2,20,,,0,,83,,130,Dry,1013,0,26,0,0,,12.4,
Tiree,21/09/2019 02:00,15,22,,,0,,83,30,130,Dry,1012,0,18,0,0,,12.3,
Tiree,21/09/2019 03:00,15.2,25,,,0,,81,36,130,Dry,1012,0,18,0,0,,12.1,
Tiree,21/09/2019 04:00,14.5,25,,,0,,83,33,120,Dry,1011,0,17,0,0,,11.8,
Tiree,21/09/2019 05:00,14.4,26,,,0,,80,36,130,Dry,1010,0,18,0,0,,11,
Tiree,21/09/2019 06:00,14.1,24,14,,0,0,78,36,130,Dry,1010,0,19,0,0,,10.5,
Tiree,21/09/2019 07:00,14.5,26,,,0,,75,36,130,Dry,1009,0,20,60,24,,10.2,
Tiree,21/09/2019 08:00,15,28,,,0,,71,39,130,Dry,1009,0,19,430,60,,9.9,
Tiree,21/09/2019 09:00,15.7,23,,,0,,70,35,120,Dry,1009,0,14,931,60,,10.3,
Tiree,21/09/2019 10:00,16.6,24,,,0,,64,30,120,Dry,1008,0,20,1346,60,,9.8,
Tiree,21/09/2019 11:00,17.6,20,,,0,,62,29,120,Dry,1008,0,20,1692,60,,10.3,
Tiree,21/09/2019 12:00,18,29,,,0,0,58,36,130,Dry,1007,0,20,1917,60,,9.8,
Tiree,21/09/2019 13:00,18.6,23,,,0,,57,35,110,Dry,1006,0,17,1998,60,,10.1,
Tiree,21/09/2019 14:00,18.7,24,,,0,,56,31,120,Dry,1005,0,20,1933,60,,9.9,
Tiree,21/09/2019 15:00,18.6,25,,,0,,60,35,130,Dry,1005,0,18,1664,60,,10.7,
Tiree,21/09/2019 16:00,17.9,21,,,0,,66,35,130,Dry,1004,0,19,1258,60,,11.6,
Tiree,21/09/2019 17:00,17,21,,,0,,70,,120,Dry,1004,0,16,479,24,,11.7,
Tiree,21/09/2019 18:00,16.5,21,,18.9,0,0,75,,130,Dry,1004,0,18,216,0,,12.1,
Tiree,21/09/2019 19:00,16.7,21,,,0,,75,,130,Dry,1004,0,17,37,0,,12.3,
Tiree,21/09/2019 20:00,16.7,24,,,0,,73,29,130,Dry,1004,3,19,0,0,,11.9,
Tiree,21/09/2019 21:00,16.7,22,,,0,,73,30,130,Dry,1003,0,20,0,0,,11.9,
Tiree,21/09/2019 22:00,16.5,21,,,0,,73,,120,Dry,1003,5,21,0,0,,11.7,
Tiree,21/09/2019 23:00,16.4,20,,,0,,73,,120,Dry,1003,7,17,0,0,,11.7,
Tiree,22/09/2019 00:00,16.5,20,,,0,0,73,,120,Dry,1002,4,18,,,,11.8,
Tiree,22/09/2019 01:00,16.1,16,,,0,,76,,120,Dry,1002,8,18,0,0,,12,
Tiree,22/09/2019 02:00,15.2,15,,,0.2,,83,,140,Light shower,1002,8,11,0,0,,12.4,
Tiree,22/09/2019 03:00,14.6,14,,,0.4,,88,,150,Light shower,1002,8,11,0,0,,12.7,
Tiree,22/09/2019 04:00,15.1,20,,,0,,82,,120,Rain,1001,8,21,0,0,,12.2,
Tiree,22/09/2019 05:00,15.1,18,,,0,,82,,130,Dry,1001,7,23,0,0,,12.2,
Tiree,22/09/2019 06:00,15,17,14.5,,0,0.6,82,,120,Dry,1001,7,18,0,0,,12,
Tiree,22/09/2019 07:00,14.6,18,,,0.2,,86,,120,Light shower,1001,8,12,15,0,,12.3,
Tiree,22/09/2019 08:00,15.2,12,,,0,,84,,110,Rain,1001,8,22,179,0,,12.6,
Tiree,22/09/2019 09:00,15.8,15,,,0,,82,,110,Dry,1000,7,24,188,0,,12.8,
Tiree,22/09/2019 10:00,15.6,10,,,0,,83,,120,Rain,1000,1,13,259,0,,12.8,
Tiree,22/09/2019 11:00,15.6,12,,,0.2,,85,,120,Rain,1000,1,15,308,0,,13.2,
Tiree,22/09/2019 12:00,16.2,10,,,0,0.4,82,,120,Dry,1000,7,17,383,0,,13.3,
Tiree,22/09/2019 13:00,16.5,10,,,0,,82,,110,Dry,1000,2,21,454,0,,13.6,
Tiree,22/09/2019 14:00,17,15,,,0,,84,,120,Dry,1000,7,30,433,0,,14.3,
Tiree,22/09/2019 15:00,16.5,13,,,0,,84,,110,Dry,999,8,30,227,0,,13.9,
Tiree,22/09/2019 16:00,16.4,15,,,0,,86,,130,Dry,999,8,25,81,0,,14.1,
Tiree,22/09/2019 17:00,15.2,15,,,0,,94,,140,Misty,1000,8,4,30,0,,14.3,
Tiree,22/09/2019 18:00,14.9,8,,17.2,0.2,0.2,96,,140,Light shower,1000,8,6,22,0,,14.3,
Tiree,22/09/2019 19:00,14.8,9,,,1.6,,97,,130,Light rain,1000,7,5,5,0,,14.4,
Tiree,22/09/2019 20:00,14.8,9,,,0.2,,97,,150,Rain,1000,8,8,0,0,,14.4,
Tiree,22/09/2019 21:00,14.6,9,,,0,,98,,160,Misty,1001,5,6,0,0,,14.3,
Tiree,22/09/2019 22:00,14.2,8,,,0.2,,98,,170,Rain,1001,3,4,0,0,,13.9,
Tiree,22/09/2019 23:00,13.6,2,,,0,,98,,130,Misty,1001,1,3,0,0,,13.3,
Tiree,23/09/2019 00:00,14.2,7,,,0,2,98,,150,Fog,1002,7,4,,,,14,
Tiree,23/09/2019 02:00,14.4,5,,,0,,98,,170,Misty,1001,8,5,0,0,,14.2,
Tiree,23/09/2019 03:00,14.4,7,,,0,,98,,150,Dry,1002,8,14,0,0,,14.1,
Tiree,23/09/2019 04:00,14.3,5,,,0.6,,98,,150,Rain,1001,8,12,0,0,,14.1,
Tiree,23/09/2019 05:00,14.4,7,,,0,,98,,140,Dry,1001,8,19,0,0,,14.2,
Tiree,23/09/2019 06:00,14.5,12,13.3,,0,1,98,,140,Dry,1001,8,22,0,0,,14.2,
Tiree,23/09/2019 07:00,14.3,9,,,2.2,,98,,160,Drizzly rain,1001,3,7,6,0,,14,
Tiree,23/09/2019 08:00,14.6,8,,,0.8,,98,,130,Rain,1001,3,9,100,0,,14.4,
Tiree,23/09/2019 09:00,14.7,12,,,0,,98,,130,Dry,1001,1,26,333,0,,14.5,
Tiree,23/09/2019 10:00,14.9,13,,,0,,96,,140,Dry,1001,8,30,478,0,,14.3,
Tiree,23/09/2019 11:00,14.6,16,,,0.4,,97,,130,Rain,1001,6,6,497,0,,14.2,
Tiree,23/09/2019 12:00,14.3,16,,,0,3,97,,170,Dry,1001,8,7,635,0,,13.9,
Tiree,23/09/2019 13:00,13.9,14,,,0.4,,96,,190,Rain,1001,8,29,1014,6,,13.4,
Tiree,23/09/2019 14:00,15,20,,,0,,84,,160,Dry,1001,7,20,1790,48,,12.5,
Tiree,23/09/2019 15:00,15.3,21,,,0,,81,,150,Dry,1001,0,27,1683,60,,12.2,
Tiree,23/09/2019 16:00,15,24,,,0,,81,31,140,Dry,1000,0,29,1224,60,,11.9,
Tiree,23/09/2019 17:00,14.6,24,,,0,,85,33,130,Dry,1000,7,16,672,18,,12.2,
Tiree,23/09/2019 18:00,14.5,22,,15.6,0,1,86,31,130,Dry,1000,8,15,225,6,,12.2,
Tiree,23/09/2019 19:00,14.7,24,,,0,,83,32,130,Dry,999,8,17,15,0,,12,
Tiree,23/09/2019 20:00,14.4,23,,,0,,84,29,120,Dry,999,8,18,0,0,,11.8,
Tiree,23/09/2019 21:00,14.4,23,,,0,,81,32,120,Dry,998,8,19,0,0,,11.3,
Tiree,23/09/2019 22:00,14.6,21,,,0,,81,32,120,Dry,998,8,18,0,0,,11.5,
Tiree,23/09/2019 23:00,14.8,21,,,0,,79,29,110,Dry,997,8,26,0,0,,11.3,
Tiree,24/09/2019 00:00,14.4,23,,,0,0,82,33,120,Dry,997,7,20,,,,11.4,
Tiree,24/09/2019 01:00,14.3,22,,,0,,84,32,120,Dry,996,8,28,0,0,,11.8,
Tiree,24/09/2019 03:00,14.2,21,,,0,,92,,130,Haze,996,7,8,0,0,,13,
Tiree,24/09/2019 04:00,14.5,18,,,0,,94,,130,Dry,995,6,11,0,0,,13.7,
Tiree,24/09/2019 05:00,14.5,17,,,0,,95,,130,Dry,995,5,16,0,0,,13.8,
Tiree,24/09/2019 06:00,14.5,17,14.1,,0,0,96,,130,Dry,996,6,17,0,0,,13.9,
Tiree,24/09/2019 07:00,14.4,16,,,0,,96,,130,Dry,996,2,18,23,0,,13.8,
Tiree,24/09/2019 08:00,14.8,15,,,0,,95,,120,Dry,996,3,14,108,0,,14.1,
Tiree,24/09/2019 09:00,15,16,,,0,,96,,130,Misty,996,5,10,230,0,,14.5,
Tiree,24/09/2019 10:00,15.4,15,,,0,,94,,130,Misty,996,8,7,626,6,,14.6,
Tiree,24/09/2019 11:00,16.3,14,,,0,,93,,130,Dry,996,6,13,962,12,,15.3,
Tiree,24/09/2019 12:00,15.8,10,,,0,0,91,,140,Dry,996,8,13,986,0,,14.5,
Tiree,24/09/2019 13:00,16.6,14,,,0,,89,,110,Dry,996,8,14,1145,6,,14.9,
Tiree,24/09/2019 14:00,16.7,10,,,0,,87,,120,Dry,996,4,13,1353,42,,14.6,
Tiree,24/09/2019 15:00,17.3,12,,,0,,86,,120,Dry,995,7,15,766,0,,15,
Tiree,24/09/2019 16:00,17.3,7,,,0,,84,,130,Dry,995,4,21,838,30,,14.7,
Tiree,24/09/2019 17:00,17.3,7,,,0,,83,,70,Dry,996,7,24,568,18,,14.4,
Tiree,24/09/2019 18:00,16.3,6,,18.1,0,0,85,,110,Dry,996,5,25,215,0,,13.8,
Tiree,24/09/2019 19:00,15.1,5,,,0,,88,,50,Dry,996,7,18,45,0,,13.2,
Tiree,24/09/2019 20:00,14.3,3,,,0,,91,,360,Dry,996,8,19,0,0,,13,
Tiree,24/09/2019 21:00,14.7,5,,,0,,94,,360,Dry,996,5,18,0,0,,13.8,
Tiree,24/09/2019 22:00,14.8,7,,,0,,93,,350,Dry,996,8,17,0,0,,13.8,
Tiree,24/09/2019 23:00,14.4,6,,,0,,94,,340,Dry,996,8,22,0,0,,13.5,
Tiree,25/09/2019 00:00,13.5,7,,,0,0,94,,350,Dry,996,2,22,,,,12.6,
Tiree,25/09/2019 01:00,13.9,6,,,0,,95,,340,Rain,996,7,20,0,0,,13.2,
Tiree,25/09/2019 02:00,14,6,,,0,,96,,360,Dry,996,8,19,0,0,,13.5,
Tiree,25/09/2019 03:00,13.8,3,,,0,,96,,10,Dry,995,8,24,0,0,,13.3,
Tiree,25/09/2019 04:00,14.2,5,,,0,,96,,350,Dry,995,8,21,0,0,,13.6,
Tiree,25/09/2019 05:00,14.3,6,,,0,,96,,10,Dry,995,8,16,0,0,,13.7,
Tiree,25/09/2019 06:00,14.2,2,13.5,,0,0,96,,50,Dry,995,8,11,0,0,,13.6,
Tiree,25/09/2019 07:00,13.9,1,,,0,,96,,70,Dry,995,8,14,25,0,,13.3,
Tiree,25/09/2019 08:00,14.6,1,,,0,,96,,210,Dry,995,8,11,199,0,,14,
Tiree,25/09/2019 09:00,15.4,3,,,0,,94,,140,Dry,996,2,22,453,0,,14.5,
Tiree,25/09/2019 10:00,15.6,7,,,0,,91,,130,Dry,996,7,16,739,6,,14.3,
Tiree,25/09/2019 11:00,15.7,9,,,0,,91,,170,Dry,996,8,22,840,0,,14.4,
Tiree,25/09/2019 12:00,15.9,9,,,0,0,92,,180,Haze,996,8,6,746,0,,14.7,
Tiree,25/09/2019 13:00,15.2,9,,,0,,93,,180,Dry,996,8,26,774,6,,14.2,
Tiree,25/09/2019 14:00,15.1,9,,,0.2,,96,,200,Drizzle,995,7,5,380,0,,14.5,
Tiree,25/09/2019 15:00,14.3,10,,,0,,96,,210,Misty,995,8,10,338,0,,13.8,
Tiree,25/09/2019 16:00,14.3,12,,,0,,96,,190,Dry,995,8,22,780,6,,13.8,
Tiree,25/09/2019 17:00,14.2,13,,,0,,96,,160,Dry,994,8,20,370,6,,13.6,
Tiree,25/09/2019 18:00,14.4,12,,16.6,0,0.2,96,,150,Dry,994,8,19,122,0,,13.9,
Tiree,25/09/2019 19:00,14.3,13,,,0,,96,,130,Dry,993,8,13,13,0,,13.8,
Tiree,25/09/2019 20:00,14.4,17,,,0,,97,,130,Rain,992,8,7,0,0,,14,
Tiree,25/09/2019 21:00,14.6,22,,,0.2,,96,,130,Light shower,992,2,10,0,0,,14.1,
Tiree,25/09/2019 22:00,14.4,21,,,3.4,,96,29,150,Moderate shower,991,8,4,0,0,,13.9,
Tiree,25/09/2019 23:00,14,21,,,2.6,,96,30,140,Light rain,990,8,7,0,0,,13.5,
Tiree,26/09/2019 00:00,14,25,,,0.8,7,97,33,140,Rain,989,7,10,,,,13.6,
Tiree,26/09/2019 01:00,14.4,23,,,0.2,,97,31,150,Drizzly rain,988,8,5,0,0,,14,
Tiree,26/09/2019 02:00,14.1,20,,,0.4,,94,38,200,Rain,988,8,15,0,0,,13.3,
Tiree,26/09/2019 03:00,13.8,23,,,0,,91,35,210,Dry,988,7,13,0,0,,12.5,
Tiree,26/09/2019 04:00,13.4,21,,,0,,89,33,200,Dry,988,5,14,0,0,,11.7,
Tiree,26/09/2019 05:00,13.4,23,,,0,,87,31,200,Dry,988,8,13,0,0,,11.4,
Tiree,26/09/2019 06:00,13.2,20,13,,0,1,87,38,210,Dry,989,8,24,0,0,,11.2,
Tiree,26/09/2019 07:00,13.1,14,,,0,,88,,210,Dry,989,8,18,22,0,,11.3,
Tiree,26/09/2019 08:00,13.1,13,,,0,,87,,210,Dry,989,5,16,180,0,,11.1,
Tiree,26/09/2019 09:00,14.1,16,,,0,,88,,190,Dry,990,4,16,598,12,,12.2,
Tiree,26/09/2019 10:00,13.6,18,,,0.2,,90,,190,Rain,990,7,7,755,18,,12,
Tiree,26/09/2019 11:00,14.1,17,,,0,,86,,190,Rain,990,8,15,918,12,,11.8,
Tiree,26/09/2019 12:00,13.6,18,,,0,0.2,90,29,190,Light shower,990,8,10,642,0,,12.1,
Tiree,26/09/2019 13:00,13.7,16,,,0.2,,91,,200,Rain,990,8,18,682,0,,12.4,
Tiree,26/09/2019 14:00,14.1,15,,,0.2,,86,,200,Rain,990,8,13,1211,30,,11.8,
Tiree,26/09/2019 15:00,12.8,14,,,0.8,,91,,210,Light shower,990,8,23,744,6,,11.4,
Tiree,26/09/2019 16:00,13.7,15,,,0,,87,,200,Rain,990,8,15,645,0,,11.6,
Tiree,26/09/2019 17:00,12.4,14,,,0.2,,88,,220,Light shower,990,7,35,399,6,,10.6,
Tiree,26/09/2019 18:00,12.8,10,,15,0,1.8,89,,210,Rain,990,8,19,177,6,,11.1,
Tiree,26/09/2019 19:00,12.6,14,,,0,,90,,190,Dry,990,1,18,15,0,,11.1,
Tiree,26/09/2019 20:00,11.9,8,,,1.6,,92,,200,Rain,990,7,19,0,0,,10.8,
Tiree,26/09/2019 21:00,11.7,8,,,0,,94,,210,Dry,990,7,19,0,0,,10.8,
Tiree,26/09/2019 22:00,11,8,,,0,,94,,210,Dry,991,5,22,0,0,,10.1,
Tiree,26/09/2019 23:00,10.4,6,,,1,,92,,210,Rain,991,6,20,0,0,,9.3,
Tiree,27/09/2019 00:00,10.4,8,,,0,3,92,,210,Dry,991,0,26,,,,9.3,
Tiree,27/09/2019 01:00,11.6,10,,,0,,92,,230,Dry,991,5,35,0,0,,10.4,
Tiree,27/09/2019 02:00,10.4,7,,,0,,92,,230,Dry,991,6,18,0,0,,9.2,
Tiree,27/09/2019 04:00,9.3,7,,,0,,94,,210,Dry,991,2,14,0,0,,8.4,
Tiree,27/09/2019 05:00,9.9,6,,,0.2,,93,,200,Rain,992,1,29,0,0,,8.9,
Tiree,27/09/2019 06:00,9.7,3,9.1,,0,0,94,,230,Dry,992,0,20,0,0,,8.8,
Tiree,27/09/2019 07:00,10.2,7,,,0,,94,,190,Rain,992,1,14,15,0,,9.3,
Tiree,27/09/2019 08:00,11.2,6,,,0.2,,94,,210,Dry,992,1,28,181,0,,10.3,
Tiree,27/09/2019 09:00,11.4,2,,,0,,89,,150,Drizzly rain,992,1,40,226,0,,9.7,
Tiree,27/09/2019 10:00,13,5,,,0,,89,,90,Rain,993,7,30,531,0,,11.3,
Tiree,27/09/2019 11:00,11.6,5,,,0.8,,90,,40,Light shower,993,7,40,428,0,,10.1,
Tiree,27/09/2019 12:00,12,6,,,0.2,1,88,,120,Moderate shower,994,8,12,610,0,,10.1,
Tiree,27/09/2019 13:00,13,5,,,0.2,,86,,170,Rain,994,5,25,1113,18,,10.8,
Tiree,27/09/2019 14:00,14.5,6,,,0,,78,,180,Dry,994,5,30,1261,30,,10.9,
Tiree,27/09/2019 15:00,13.6,9,,,0,,83,,240,Rain,994,5,40,1080,24,,10.8,
Tiree,27/09/2019 16:00,13.6,12,,,0,,78,,250,Dry,994,3,50,1044,42,,10,
Tiree,27/09/2019 17:00,12.5,8,,,0,,85,,260,Dry,995,5,40,539,24,,10.1,
Tiree,27/09/2019 18:00,11.1,8,,14.8,0,0,89,,260,Dry,995,2,30,121,0,,9.5,
Tiree,27/09/2019 19:00,10.1,8,,,0,,93,,230,Dry,995,2,27,14,0,,9.1,
Tiree,27/09/2019 20:00,9.5,6,,,0,,94,,270,Dry,996,3,27,0,0,,8.6,
Tiree,28/09/2019 02:00,8.9,7,,,0,,94,,320,Dry,997,4,40,0,0,,8,
Tiree,28/09/2019 03:00,9.7,8,,,0,,94,,310,Dry,997,5,35,0,0,,8.9,
Tiree,28/09/2019 04:00,9.7,7,,,0,,94,,300,Dry,998,2,24,0,0,,8.9,
Tiree,28/09/2019 05:00,9.5,7,,,0.2,,94,,300,Rain,998,2,19,0,0,,8.6,
Tiree,28/09/2019 06:00,9.7,8,7.5,,0,0.2,94,,300,Dry,998,3,35,0,0,,8.9,
Tiree,28/09/2019 07:00,9.7,6,,,0,,95,,300,Dry,999,1,21,25,0,,9,
Tiree,28/09/2019 08:00,11.9,6,,,0,,94,,290,Dry,1000,2,40,256,24,,11.1,
Tiree,28/09/2019 09:00,13.5,9,,,0,,87,,290,Dry,1000,1,30,755,60,,11.4,
Tiree,28/09/2019 13:00,13.9,8,,,0,,78,,300,Dry,1002,6,40,1341,30,,10.3,
Tiree,28/09/2019 14:00,15.1,7,,,0,,79,,310,Dry,1002,5,35,929,18,,11.5,
Tiree,28/09/2019 15:00,15,8,,,0,,74,,250,Dry,1002,3,24,1647,42,,10.5,
Tiree,28/09/2019 16:00,15,6,,,0,,72,,260,Dry,1002,3,35,1229,48,,10.1,
Tiree,28/09/2019 17:00,14,5,,,0,,77,,220,Dry,1002,1,30,480,18,,10.1,
Tiree,28/09/2019 18:00,13.1,1,,15.8,0,0,77,,290,Dry,1002,1,28,294,60,,9.3,
Tiree,28/09/2019 19:00,10.1,2,,,0,,87,,360,Dry,1001,0,15,7,0,,8.1,
Tiree,28/09/2019 20:00,8.9,6,,,0,,92,,60,Dry,1001,0,19,0,0,,7.8,
Tiree,28/09/2019 21:00,7.7,10,,,0,,95,,50,Dry,1001,0,15,0,0,,7,
Tiree,28/09/2019 22:00,7.8,7,,,0,,96,,50,Misty,1000,0,11,0,0,,7.3,
Tiree,28/09/2019 23:00,8.1,6,,,0,,96,,40,Misty,1000,1,2,0,0,,7.6,
Tiree,29/09/2019 00:00,7.4,8,,,0,0,97,,40,Fog,1000,0,9,,,,7,
Tiree,29/09/2019 01:00,7.5,8,,,0,,97,,40,Dry,999,0,30,0,0,,7.2,
Tiree,29/09/2019 02:00,7.6,8,,,0.2,,97,,50,Dry,999,0,35,0,0,,7.3,
Tiree,29/09/2019 03:00,9.8,8,,,0,,98,,40,Dry,998,4,21,0,0,,9.6,
Tiree,29/09/2019 04:00,11.3,10,,,0,,97,,40,Dry,998,8,45,0,0,,10.9,
Tiree,29/09/2019 05:00,11.1,8,,,0,,96,,40,Dry,998,8,35,0,0,,10.6,
Tiree,29/09/2019 06:00,11.5,10,6.9,,0,0.2,93,,50,Dry,998,8,45,0,0,,10.5,
Tiree,29/09/2019 07:00,10.9,9,,,0,,94,,50,Dry,998,7,35,8,0,,10,
Tiree,29/09/2019 08:00,12.1,6,,,0,,94,,30,Dry,999,8,35,115,0,,11.2,
Tiree,29/09/2019 09:00,13.3,9,,,0,,90,,20,Dry,999,8,50,335,0,,11.7,
Tiree,29/09/2019 10:00,13.6,12,,,0,,88,,40,Dry,1000,5,35,591,6,,11.8,
Tiree,29/09/2019 11:00,14.3,14,,,0,,83,,20,Dry,1000,7,35,1461,48,,11.5,
Tiree,29/09/2019 12:00,14.7,13,,,0,0,83,,10,Light shower,1001,8,30,1388,30,,12,
Tiree,29/09/2019 13:00,14.5,12,,,0,,81,,360,Rain,1002,8,35,1198,18,,11.4,
Tiree,29/09/2019 14:00,14.1,14,,,0,,84,,360,Dry,1002,8,40,881,0,,11.5,
Tiree,29/09/2019 15:00,14.1,12,,,0,,86,,360,Dry,1002,8,30,593,0,,11.8,
Tiree,29/09/2019 16:00,13.6,12,,,0,,87,,350,Dry,1003,8,35,396,0,,11.5,
Tiree,29/09/2019 17:00,13.4,12,,,0,,88,,350,Dry,1003,8,30,189,0,,11.5,
Tiree,29/09/2019 18:00,13.1,10,,15.5,0,0,89,,340,Rain,1004,8,29,82,0,,11.4,
Tiree,29/09/2019 19:00,12.8,12,,,0,,91,,340,Drizzly rain,1005,8,19,1,0,,11.4,
Tiree,29/09/2019 20:00,12.2,10,,,0.2,,92,,310,Rain,1005,8,30,0,0,,11.1,
Tiree,29/09/2019 21:00,12.5,9,,,0,,93,,350,Dry,1006,3,40,0,0,,11.5,
Tiree,29/09/2019 22:00,10.6,8,,,0,,91,,330,Dry,1006,1,27,0,0,,9.3,
Tiree,29/09/2019 23:00,10.8,8,,,0,,94,,330,Dry,1007,1,50,0,0,,10,
Tiree,30/09/2019 00:00,11,8,,,0,0.2,94,,330,Dry,1007,2,45,,,,10.2,
Tiree,30/09/2019 01:00,11,9,,,0.2,,93,,360,Dry,1007,2,50,0,0,,10,
Tiree,30/09/2019 02:00,11.4,10,,,0,,91,,10,Dry,1008,5,30,0,0,,10,
Tiree,30/09/2019 03:00,10.3,9,,,0,,90,,10,Dry,1008,2,40,0,0,,8.8,
Tiree,30/09/2019 04:00,11.7,9,,,0,,88,,10,Dry,1008,7,40,0,0,,9.8,
Tiree,30/09/2019 05:00,11.5,12,,,0,,82,,360,Dry,1008,7,50,0,0,,8.6,
Tiree,30/09/2019 06:00,11.2,8,9.8,,0,0.2,84,,10,Dry,1008,6,50,0,0,,8.7,
Tiree,30/09/2019 07:00,11,9,,,0,,88,,40,Dry,1008,1,50,11,0,,9.2,
Tiree,30/09/2019 08:00,11.2,14,,,0,,88,,50,Dry,1009,2,30,280,24,,9.4,
Tiree,30/09/2019 09:00,12.4,13,,,0,,84,,40,Dry,1009,6,28,861,42,,9.8,
Tiree,30/09/2019 10:00,12.2,14,,,0,,77,,30,Dry,1009,7,25,914,24,,8.4,
Tiree,30/09/2019 11:00,12.4,14,,,0,,74,,40,Dry,1009,2,35,1100,48,,8,
Tiree,30/09/2019 12:00,12.5,10,,,0,0,72,,40,Dry,1009,1,35,1253,54,,7.7,
Tiree,30/09/2019 13:00,12.4,13,,,0,,72,,30,Dry,1008,0,35,1112,0,,7.5,
Tiree,30/09/2019 14:00,12,12,,,0,,71,,40,Dry,1007,3,30,990,0,,7.1,
Tiree,30/09/2019 15:00,11.6,12,,,0,,72,,30,Dry,1006,8,40,659,0,,6.9,
Tiree,30/09/2019 16:00,11.7,13,,,0,,76,,40,Dry,1005,8,45,368,0,,7.8,
Tiree,30/09/2019 17:00,11.5,12,,,0,,79,,50,Dry,1005,8,45,216,0,,8,
Tiree,30/09/2019 18:00,11.5,13,,12.8,0,0,82,,50,Dry,1004,8,35,62,0,,8.7,
Tiree,30/09/2019 19:00,11.2,10,,,0,,84,,60,Dry,1004,8,50,0,0,,8.7,
Tiree,30/09/2019 20:00,11.8,14,,,0,,81,,60,Dry,1004,8,45,0,0,,8.7,
Tiree,30/09/2019 21:00,11.5,15,,,0,,79,,60,Dry,1004,8,50,0,0,,8.1,
Tiree,30/09/2019 22:00,11.2,16,,,0,,76,,60,Dry,1003,8,45,0,0,,7.3,
Tiree,30/09/2019 23:00,11.1,17,,,0,,75,,70,Dry,1004,8,50,0,0,,7,
Tiree,01/10/2019 00:00,10.9,14,,,0,0,77,,70,Dry,1004,8,50,,,,7.2,
Tiree,01/10/2019 01:00,10.6,15,,,0,,76,,70,Dry,1004,8,50,0,0,,6.7,
Tiree,01/10/2019 02:00,9.8,10,,,0,,80,,50,Dry,1004,8,50,0,0,,6.6,
Tiree,01/10/2019 03:00,9.3,14,,,0,,80,,40,Dry,1004,8,50,0,0,,6.2,
Tiree,01/10/2019 04:00,8.7,14,,,0,,78,,40,Dry,1004,6,50,0,0,,5.2,
Tiree,01/10/2019 05:00,7.8,10,,,0,,80,,40,Dry,1004,7,50,0,0,,4.6,
Tiree,01/10/2019 06:00,6.8,13,6.8,,0,0,81,,50,Dry,1005,0,50,0,0,,3.8,
Tiree,01/10/2019 07:00,7.4,16,,,0,,76,,50,Dry,1005,0,35,4,0,,3.6,
Tiree,01/10/2019 08:00,8,17,,,0,,73,29,60,Dry,1006,3,29,240,48,,3.5,
Tiree,01/10/2019 09:00,9.3,20,,,0,,67,,50,Dry,1007,0,45,771,60,,3.5,
Tiree,01/10/2019 10:00,10,17,,,0,,63,,40,Dry,1008,5,35,1341,60,,3.5,
Tiree,01/10/2019 11:00,10.4,17,,,0,,58,,30,Dry,1009,0,50,1558,54,,2.7,
Tiree,01/10/2019 12:00,10.7,18,,,0,0,58,,30,Dry,1009,0,40,1839,60,,2.8,
Tiree,01/10/2019 13:00,11.5,18,,,0,,60,,20,Dry,1010,1,30,1912,60,,4.1,
Tiree,01/10/2019 14:00,11,17,,,0,,62,,20,Dry,1010,5,40,1653,54,,4.1,
Tiree,01/10/2019 15:00,11,22,,,0,,68,29,10,Dry,1011,1,30,1110,36,,5.4,
Tiree,01/10/2019 16:00,11,21,,,0,,69,31,10,Dry,1011,5,40,985,30,,5.6,
Tiree,01/10/2019 17:00,10,18,,,0,,68,,10,Dry,1012,6,35,439,18,,4.4,
Tiree,01/10/2019 18:00,9.6,18,,12,0,0,68,,350,Dry,1012,5,35,181,12,,4,
Tiree,01/10/2019 19:00,9.6,21,,,0,,74,29,10,Dry,1013,4,40,3,0,,5.3,
Tiree,01/10/2019 20:00,9.6,17,,,0,,68,,360,Dry,1014,7,40,0,0,,4.1,
Tiree,01/10/2019 21:00,9,17,,,0,,72,,10,Dry,1015,4,45,0,0,,4.3,
Tiree,01/10/2019 22:00,8.1,20,,,0,,78,29,340,Moderate shower,1016,7,40,0,0,,4.6,
Tiree,01/10/2019 23:00,8.6,16,,,0,,71,,10,Rain,1016,6,40,0,0,,3.8,
Tiree,02/10/2019 00:00,7.8,14,,,0,0,75,,360,Rain,1017,2,45,,,,3.7,
Tiree,02/10/2019 01:00,7.7,15,,,0.2,,75,,350,Rain,1017,4,45,0,0,,3.6,
Tiree,02/10/2019 02:00,8.3,20,,,0,,77,31,360,Dry,1017,7,45,0,0,,4.6,
Tiree,02/10/2019 03:00,8,13,,,0,,74,29,340,Dry,1018,7,40,0,0,,3.8,
Tiree,02/10/2019 04:00,7.6,15,,,0,,71,,350,Dry,1018,1,40,0,0,,2.7,
Tiree,02/10/2019 05:00,8.1,16,,,0,,70,,360,Rain,1018,4,40,0,0,,3.1,
Tiree,02/10/2019 06:00,8.3,12,7.1,,0,0.2,73,,340,Dry,1018,6,35,0,0,,3.9,
Tiree,02/10/2019 07:00,8.6,13,,,0,,71,,340,Dry,1019,6,45,12,0,,3.7,
Tiree,02/10/2019 08:00,8.6,10,,,0,,77,,350,Rain,1020,5,35,142,18,,4.9,
Tiree,02/10/2019 09:00,10.2,12,,,0,,67,,350,Dry,1020,1,20,612,36,,4.4,
Tiree,02/10/2019 10:00,10.8,10,,,0,,65,,340,Dry,1021,1,30,1096,54,,4.5,
Tiree,02/10/2019 11:00,10.4,12,,,0,,64,,340,Dry,1021,1,30,1233,48,,4,
Tiree,02/10/2019 12:00,11.8,12,,,0,0,58,,330,Dry,1021,1,29,1709,54,,3.9,
Tiree,02/10/2019 13:00,11.5,13,,,0,,63,,350,Dry,1021,1,28,1757,60,,4.8,
Tiree,02/10/2019 14:00,11.8,10,,,0,,58,,350,Dry,1021,0,30,1424,54,,3.9,
Tiree,02/10/2019 15:00,12,9,,,0,,60,,330,Dry,1022,1,40,1276,60,,4.5,
Tiree,02/10/2019 16:00,11,8,,,0,,69,,350,Dry,1022,1,28,904,24,,5.7,
Tiree,02/10/2019 17:00,9.7,6,,,0,,69,,360,Dry,1022,4,40,548,30,,4.4,
Tiree,02/10/2019 18:00,9.1,7,,12.5,0,0,72,,350,Dry,1022,7,45,55,0,,4.4,
Tiree,02/10/2019 19:00,8.7,6,,,0,,68,,10,Dry,1022,7,40,0,0,,3.2,
Tiree,02/10/2019 20:00,8,3,,,0,,69,,340,Dry,1022,5,50,0,0,,2.7,
Tiree,02/10/2019 21:00,8.9,1,,,0,,68,,300,Dry,1022,7,45,0,0,,3.5,
Tiree,02/10/2019 22:00,8.4,5,,,0,,72,,260,Dry,1021,8,40,0,0,,3.8,
Tiree,02/10/2019 23:00,7.5,1,,,0,,67,,300,Dry,1021,2,50,0,0,,1.8,
Tiree,03/10/2019 00:00,8.4,5,,,0,0,75,,70,Dry,1020,8,40,,,,4.3,
Tiree,03/10/2019 01:00,7.6,8,,,0,,74,,100,Dry,1020,8,45,0,0,,3.3,
Tiree,03/10/2019 02:00,5.6,8,,,0,,80,,100,Dry,1019,1,50,0,0,,2.5,
Tiree,03/10/2019 03:00,6.9,8,,,0,,79,,120,Dry,1018,2,50,0,0,,3.6,
Tiree,03/10/2019 04:00,9.1,13,,,0,,71,,120,Dry,1017,2,45,0,0,,4.2,
Tiree,03/10/2019 05:00,10,17,,,0,,73,,120,Dry,1016,7,45,0,0,,5.5,
Tiree,03/10/2019 06:00,10,17,5.6,,0,0,68,,130,Dry,1015,8,45,0,0,,4.4,
Tiree,03/10/2019 07:00,10.1,22,,,0,,81,,120,Dry,1014,8,28,16,0,,7,
Tiree,03/10/2019 08:00,10.3,25,,,0,,77,32,120,Dry,1014,8,27,47,0,,6.5,
Tiree,03/10/2019 09:00,10.6,29,,,0,,74,37,120,Dry,1012,8,29,235,0,,6.2,
Tiree,03/10/2019 10:00,10.4,30,,,0,,71,37,120,Dry,1011,7,26,447,0,,5.5,
Tiree,03/10/2019 11:00,10.8,31,,,0,,74,40,120,Dry,1010,8,21,433,0,,6.4,
Tiree,03/10/2019 12:00,10.6,32,,,0,0,75,43,120,Dry,1008,7,18,518,0,,6.5,
Tiree,03/10/2019 13:00,11,33,,,0,,73,45,120,Dry,1007,8,18,385,0,,6.5,
Tiree,03/10/2019 14:00,10.9,37,,,0,,71,46,120,Rain,1005,8,20,232,0,,5.9,
Tiree,03/10/2019 15:00,11,39,,,0,,70,49,120,Dry,1003,8,20,340,0,,5.8,
Tiree,03/10/2019 16:00,10.4,40,,,0,,76,54,120,Drizzly rain,1002,8,8,197,0,,6.5,
Tiree,03/10/2019 17:00,9.8,40,,,1,,89,53,120,Light shower,1000,8,5,124,0,,8.1,
Tiree,03/10/2019 18:00,9.5,40,,11.3,1.2,2,90,54,120,Light rain,999,8,5,27,0,,8,
Tiree,03/10/2019 19:00,9.7,41,,,0.2,,90,54,120,Rain,998,8,9,1,0,,8.3,
Tiree,03/10/2019 20:00,9.9,43,,,0,,90,55,120,Rain,997,8,8,0,0,,8.5,
Tiree,03/10/2019 21:00,10.3,41,,,0,,84,53,110,Dry,997,4,11,0,0,,7.8,
Tiree,03/10/2019 22:00,10.5,36,,,0,,83,49,110,Dry,997,8,19,0,0,,7.9,
Tiree,03/10/2019 23:00,10.9,38,,,0,,81,51,110,Dry,996,8,24,0,0,,7.8,
Tiree,04/10/2019 00:00,10.9,38,,,0,0.2,82,49,110,Dry,996,5,21,,,,8,
Tiree,04/10/2019 01:00,11,37,,,0,,80,46,110,Dry,996,4,35,0,0,,7.8,
Tiree,04/10/2019 02:00,11.1,29,,,0,,81,48,100,Dry,996,8,35,0,0,,8,
Tiree,04/10/2019 03:00,10.7,28,,,0,,81,38,100,Dry,997,7,45,0,0,,7.7,
Tiree,04/10/2019 04:00,11.4,29,,,0,,77,40,90,Dry,997,7,45,0,0,,7.6,
Tiree,04/10/2019 05:00,11.7,26,,,0,,78,35,90,Dry,998,7,35,0,0,,8,
Tiree,04/10/2019 06:00,11.5,17,9.4,,0,0,78,31,80,Dry,999,7,40,0,0,,7.9,
Tiree,04/10/2019 07:00,11.2,18,,,0,,78,30,70,Dry,1000,1,45,2,0,,7.6,
Tiree,04/10/2019 08:00,11.6,16,,,0,,80,,70,Dry,1001,2,35,141,18,,8.3,
Tiree,04/10/2019 09:00,13.1,16,,,0,,71,,70,Dry,1003,1,50,712,60,,8,
Tiree,04/10/2019 10:00,13.7,12,,,0,,70,,70,Dry,1004,6,45,765,30,,8.4,
Tiree,04/10/2019 11:00,13.8,13,,,0,,68,,60,Dry,1006,7,35,698,0,,8.2,
Tiree,04/10/2019 12:00,14.3,12,,,0,0,68,,70,Dry,1007,8,30,876,6,,8.5,
Tiree,04/10/2019 13:00,14.5,14,,,0,,69,,80,Dry,1007,8,35,906,0,,9.1,
Tiree,04/10/2019 14:00,14.4,13,,,0,,66,,90,Dry,1008,8,40,942,6,,8.3,
Tiree,04/10/2019 15:00,14.5,13,,,0,,68,,90,Dry,1008,8,45,1078,18,,8.7,
Tiree,04/10/2019 16:00,14.7,13,,,0,,65,,90,Dry,1009,6,30,1235,60,,8.4,
Tiree,04/10/2019 17:00,13.3,12,,,0,,72,,130,Dry,1010,4,27,438,30,,8.5,
Tiree,04/10/2019 18:00,13.1,14,,15.6,0,0,74,,130,Dry,1010,6,22,111,6,,8.7,
Tiree,04/10/2019 19:00,12.5,16,,,0,,77,,120,Dry,1010,5,27,0,0,,8.6,
Tiree,04/10/2019 20:00,12.7,18,,,0,,77,,130,Dry,1011,7,22,0,0,,8.8,
Tiree,04/10/2019 21:00,12.3,18,,,0,,79,,120,Dry,1011,0,24,0,0,,8.8,
Tiree,04/10/2019 22:00,12.1,20,,,0,,75,,120,Dry,1012,8,22,0,0,,8,
Tiree,04/10/2019 23:00,11.9,21,,,0,,78,,120,Dry,1011,8,26,0,0,,8.3,
Tiree,05/10/2019 00:00,12.1,21,,,0,0,79,,130,Dry,1012,4,24,,,,8.6,
Tiree,05/10/2019 01:00,12.1,22,,,0,,78,29,130,Dry,1011,8,24,0,0,,8.4,
Tiree,05/10/2019 02:00,12.1,25,,,0,,78,32,140,Dry,1011,7,20,0,0,,8.5,
Tiree,05/10/2019 03:00,12.1,26,,,0,,78,33,140,Dry,1010,8,21,0,0,,8.5,
Tiree,05/10/2019 04:00,12,24,,,0,,82,33,130,Dry,1010,8,20,0,0,,9.2,
Tiree,05/10/2019 05:00,11.6,28,,,0,,88,37,140,Haze,1010,8,8,0,0,,9.7,
Tiree,05/10/2019 06:00,11.9,28,11.5,,0,0,88,36,130,Dry,1010,7,12,0,0,,10,
Tiree,05/10/2019 07:00,12.5,28,,,0,,81,36,130,Dry,1010,8,12,0,0,,9.5,
Tiree,05/10/2019 08:00,12.5,29,,,0,,81,39,130,Dry,1010,8,16,31,0,,9.5,
Tiree,05/10/2019 09:00,12.2,29,,,0,,84,40,140,Rain,1010,8,13,109,0,,9.6,
Tiree,05/10/2019 10:00,12.1,32,,,0.2,,85,41,140,Rain,1010,8,9,215,0,,9.7,
Tiree,05/10/2019 11:00,12,32,,,0.2,,85,41,140,Light shower,1009,8,10,193,0,,9.7,
Tiree,05/10/2019 12:00,12.2,32,,,0.4,0.8,86,40,130,Rain,1009,8,14,448,0,,10,
Tiree,05/10/2019 13:00,12.3,31,,,0,,89,43,130,Light shower,1008,6,11,303,0,,10.6,
Tiree,05/10/2019 14:00,12.1,31,,,0.2,,89,41,130,Rain,1008,6,14,396,0,,10.5,
Tiree,05/10/2019 15:00,12,33,,,0.2,,91,43,130,Light shower,1008,2,9,287,0,,10.7,
Tiree,05/10/2019 16:00,12.2,31,,,0,,92,44,130,Rain,1007,8,13,94,0,,11.1,
Tiree,05/10/2019 17:00,12.2,31,,,0,,92,41,130,Dry,1006,8,17,70,0,,11.1,
Tiree,05/10/2019 18:00,12.3,32,,12.7,0,0.2,93,43,130,Haze,1006,8,5,27,0,,11.3,
Tiree,05/10/2019 19:00,12.1,30,,,0.8,,95,39,130,Moderate rain,1006,8,4,0,0,,11.4,
Tiree,05/10/2019 20:00,12.1,32,,,0.6,,96,41,130,Light rain,1005,8,4,0,0,,11.6,
Tiree,05/10/2019 21:00,12.1,31,,,1.4,,96,41,130,Moderate rain,1005,5,4,0,0,,11.6,
Tiree,05/10/2019 22:00,12.2,31,,,2,,96,41,130,Light rain,1004,8,6,0,0,,11.7,
Tiree,05/10/2019 23:00,12.5,23,,,2,,96,40,140,Light rain,1004,1,8,0,0,,12,
Tiree,06/10/2019 00:00,12.6,15,,,0.6,7,96,,270,Rain,1005,7,15,,,,12.1,
Tiree,06/10/2019 01:00,12.8,15,,,0,,94,,280,Rain,1005,2,13,0,0,,12,
Tiree,06/10/2019 02:00,12.7,13,,,1,,95,,280,Light rain,1005,7,10,0,0,,12,
Tiree,06/10/2019 04:00,12.4,13,,,0,,94,,290,Dry,1006,1,12,0,0,,11.6,
Tiree,06/10/2019 05:00,12.4,13,,,0,,93,,300,Dry,1006,2,13,0,0,,11.4,
Tiree,06/10/2019 06:00,12.5,14,12,,0,2,93,,300,Dry,1007,4,13,0,0,,11.4,
Tiree,06/10/2019 07:00,12.5,15,,,0,,91,,310,Dry,1008,3,15,1,0,,11.1,
Tiree,06/10/2019 08:00,12.4,16,,,0,,91,,310,Rain,1009,4,14,73,0,,11,
Tiree,06/10/2019 09:00,13,17,,,0,,88,,310,Dry,1010,6,15,331,6,,11.2,
Tiree,06/10/2019 10:00,13.8,17,,,0,,84,,320,Dry,1010,2,25,847,36,,11.2,
Tiree,06/10/2019 11:00,13.8,16,,,0,,79,,320,Dry,1011,1,18,1381,54,,10.4,
Tiree,06/10/2019 12:00,14,,,,0,0,77,,,Dry,1011,0,26,1509,54,,10.1,
Tiree,06/10/2019 13:00,13.8,9,,,0,,77,,330,Dry,1012,5,22,1478,48,,9.9,
Tiree,06/10/2019 14:00,14.4,7,,,0,,73,,290,Dry,1013,4,16,1732,48,,9.8,
Tiree,06/10/2019 15:00,13,7,,,0,,79,,260,Drizzly rain,1014,8,4,471,0,,9.6,
Tiree,06/10/2019 16:00,12.7,7,,,0,,79,,260,Rain,1014,7,26,950,36,,9.3,
Tiree,06/10/2019 17:00,12.1,12,,,0,,89,,120,Dry,1013,6,17,254,0,,10.5,
Tiree,06/10/2019 18:00,12.1,16,,15,0,0,87,,140,Dry,1013,8,45,44,0,,10.1,
Tiree,06/10/2019 19:00,12.2,22,,,0.2,,86,29,140,Rain,1012,8,30,0,0,,10.1,
Tiree,06/10/2019 20:00,11.7,25,,,0,,88,31,130,Dry,1011,8,12,0,0,,9.9,
Tiree,06/10/2019 22:00,12,30,,,0,,85,39,140,Dry,1010,8,21,0,0,,9.7,
Tiree,06/10/2019 23:00,12.2,30,,,0,,85,39,140,Dry,1009,1,24,0,0,,9.9,
Tiree,07/10/2019 00:00,12.6,31,,,0,0.2,87,39,140,Dry,1008,3,15,,,,10.5,
Tiree,07/10/2019 01:00,12.5,37,,,0,,87,48,150,Drizzly rain,1006,3,12,0,0,,10.4,
Tiree,07/10/2019 02:00,12.3,40,,,0.6,,89,52,140,Light rain,1004,7,8,0,0,,10.6,
Tiree,07/10/2019 03:00,12.5,41,,,0,,85,58,160,Rain,1003,6,9,0,0,,10.1,
Tiree,07/10/2019 04:00,10.2,45,,,0,,89,64,160,Light shower,1002,7,4,0,0,,8.6,
Tiree,07/10/2019 05:00,10.5,41,,,1,,98,61,160,Light rain,1001,8,2,0,0,,10.2,
Tiree,07/10/2019 06:00,11.7,38,9.8,,1.6,2.8,98,56,170,Light rain,1000,8,3,0,0,,11.4,
Tiree,07/10/2019 07:00,12.4,38,,,0.4,,97,52,170,Rain,999,8,10,1,0,,12,
Tiree,07/10/2019 08:00,13,31,,,0,,94,49,180,Dry,999,8,14,25,0,,12.2,
Tiree,07/10/2019 09:00,13.4,26,,,0,,90,48,200,Rain,999,5,10,161,0,,11.9,
Tiree,07/10/2019 10:00,11.4,28,,,0.2,,85,40,230,Haze,999,1,7,564,18,,9.1,
Tiree,07/10/2019 11:00,14.2,25,,,2.2,,78,41,220,Rain,999,7,8,866,30,,10.6,
Tiree,07/10/2019 12:00,12.6,26,,,0.4,3,87,40,200,Rain,999,7,10,1011,24,,10.5,
Tiree,07/10/2019 13:00,10.5,30,,,1.8,,85,44,230,Heavy shower,999,4,6,1289,42,,8.2,
Tiree,07/10/2019 14:00,14.1,22,,,0,,82,37,210,Rain,998,7,10,1282,42,,11.1,
Tiree,07/10/2019 15:00,13.6,28,,,0,,78,39,220,Dry,998,4,9,1178,48,,9.9,
Tiree,07/10/2019 16:00,13.5,25,,,0,,78,38,210,Haze,998,7,9,801,42,,9.9,
Tiree,07/10/2019 17:00,13.2,28,,,0,,80,39,210,Haze,997,8,9,334,6,,10,
Tiree,07/10/2019 18:00,13.1,28,,14.6,0,2,81,41,210,Rain,997,7,9,41,0,,10.1,
Tiree,07/10/2019 19:00,12.3,28,,,0,,81,44,220,Rain,997,1,11,0,0,,9.2,
Tiree,07/10/2019 20:00,12.8,28,,,0,,81,39,220,Haze,996,7,9,0,0,,9.7,
Tiree,07/10/2019 21:00,12.7,26,,,0,,80,39,220,Haze,996,7,10,0,0,,9.5,
Tiree,07/10/2019 22:00,12.8,26,,,0,,79,40,220,Dry,996,8,10,0,0,,9.4,
Tiree,07/10/2019 23:00,12.5,28,,,0,,79,39,220,Dry,995,3,10,0,0,,9.1,
Tiree,08/10/2019 00:00,12.6,26,,,0,0,79,40,220,Dry,995,6,11,,,,9.2,
Tiree,08/10/2019 01:00,12.7,24,,,0,,79,37,210,Dry,994,8,11,0,0,,9.3,
Tiree,08/10/2019 02:00,11.3,24,,,1.2,,86,38,210,Rain,993,1,11,0,0,,9.1,
Tiree,08/10/2019 03:00,11.2,23,,,0,,83,37,210,Dry,992,1,17,0,0,,8.5,
Tiree,08/10/2019 04:00,11.1,25,,,0,,76,39,230,Dry,992,8,14,0,0,,7.1,
Tiree,08/10/2019 05:00,11.7,24,,,0,,73,38,230,Dry,991,8,10,0,0,,7.1,
Tiree,08/10/2019 06:00,11.8,28,9.3,,0,1,71,40,220,Dry,991,4,15,0,0,,6.9,
Tiree,08/10/2019 07:00,11.6,30,,,0,,81,45,220,Drizzly rain,990,7,8,0,0,,8.5,
Tiree,08/10/2019 08:00,11.6,32,,,1.2,,84,48,220,Rain,990,8,11,25,0,,9,
Tiree,08/10/2019 09:00,12.7,30,,,0,,81,48,220,Haze,989,8,11,339,0,,9.7,
Tiree,08/10/2019 10:00,12.3,31,,,0.2,,83,47,220,Rain,989,8,9,551,0,,9.5,
Tiree,08/10/2019 11:00,11.8,28,,,1.8,,91,47,230,Rain,988,8,10,351,0,,10.4,
Tiree,08/10/2019 12:00,12.6,29,,,0.2,3,88,43,230,Light shower,988,8,11,917,18,,10.8,
Tiree,08/10/2019 13:00,12.8,29,,,0,,84,40,240,Rain,988,7,11,909,18,,10.3,
Tiree,08/10/2019 14:00,13.4,28,,,0,,83,41,240,Rain,988,7,11,1202,36,,10.6,
Tiree,08/10/2019 15:00,12.5,26,,,0,,82,44,240,Dry,988,6,12,985,36,,9.6,
Tiree,08/10/2019 16:00,12.1,28,,,0,,81,40,240,Dry,988,6,13,628,18,,9,
Tiree,08/10/2019 17:00,12.2,25,,,0,,81,38,240,Dry,988,7,12,242,6,,9.1,
Tiree,08/10/2019 18:00,11.1,22,,13.5,1.2,2,88,38,250,Rain,989,7,14,26,0,,9.3,
Tiree,08/10/2019 19:00,11.8,23,,,0,,86,37,240,Dry,989,8,11,0,0,,9.6,
Tiree,08/10/2019 20:00,11,26,,,0.6,,89,43,250,Rain,990,8,13,0,0,,9.3,
Tiree,08/10/2019 21:00,11.2,26,,,0,,83,37,250,Dry,990,8,12,0,0,,8.5,
Tiree,08/10/2019 22:00,10.5,23,,,0.2,,86,39,260,Rain,990,7,15,0,0,,8.3,
Tiree,08/10/2019 23:00,11.7,28,,,0,,80,39,250,Dry,990,7,12,0,0,,8.4,
Tiree,09/10/2019 00:00,10.6,26,,,0.2,1,85,39,240,Moderate shower,991,5,12,,,,8.3,
Tiree,09/10/2019 01:00,10.6,28,,,0.2,,86,43,250,Rain,990,7,12,0,0,,8.5,
Tiree,09/10/2019 02:00,11.4,28,,,0,,82,40,250,Dry,990,8,11,0,0,,8.6,
Tiree,09/10/2019 03:00,10.3,28,,,0.2,,82,39,250,Rain,990,7,19,0,0,,7.4,
Tiree,09/10/2019 04:00,10.9,24,,,0,,85,36,250,Drizzly rain,990,5,12,0,0,,8.6,
Tiree,09/10/2019 05:00,10.2,29,,,0,,78,45,250,Rain,990,8,10,0,0,,6.6,
Tiree,09/10/2019 06:00,10.2,24,9.2,,0.8,1,89,40,250,Rain,990,8,12,0,0,,8.5,
Tiree,09/10/2019 07:00,9.8,28,,,0.2,,87,40,260,Light shower,990,7,7,0,0,,7.8,
Tiree,09/10/2019 08:00,11,30,,,0.2,,81,45,260,Rain,990,8,13,95,0,,7.9,
Tiree,09/10/2019 09:00,11.6,30,,,0,,79,43,260,Dry,991,1,13,285,0,,8.1,
Tiree,09/10/2019 10:00,9.8,30,,,0.6,,86,47,260,Drizzly rain,991,8,14,425,6,,7.7,
Tiree,09/10/2019 11:00,11.2,24,,,0.2,,85,43,260,Rain,991,8,10,545,0,,8.8,
Tiree,09/10/2019 12:00,11.3,28,,,0.2,1,82,40,250,Rain,991,8,22,810,0,,8.5,
Tiree,09/10/2019 13:00,10.6,28,,,0.2,,85,45,260,Rain,992,8,10,581,0,,8.3,
Tiree,09/10/2019 14:00,11.6,30,,,0.4,,79,43,260,Rain,992,7,14,828,12,,8.2,
Tiree,09/10/2019 15:00,11.6,32,,,0.2,,76,43,250,Rain,992,5,12,604,0,,7.7,
Tiree,09/10/2019 17:00,11.6,28,,,0,,76,44,260,Dry,992,8,13,247,0,,7.6,
Tiree,09/10/2019 18:00,10.4,28,,12.1,0.4,2,90,46,260,Rain,993,3,15,42,0,,8.9,
Tiree,09/10/2019 19:00,11,29,,,,,87,39,260,Haze,993,7,14,0,0,,9,
Tiree,09/10/2019 20:00,11,28,,,0.2,,89,38,260,Dry,993,3,16,0,0,,9.4,
Tiree,09/10/2019 21:00,11,28,,,0.2,,94,40,260,Drizzly rain,993,1,4,0,0,,10.1,
Tiree,09/10/2019 22:00,11.2,29,,,1.8,,91,44,270,Rain,994,3,6,0,0,,9.8,
Tiree,09/10/2019 23:00,11.3,26,,,0.6,,93,39,260,Light shower,994,1,9,0,0,,10.3,
Tiree,10/10/2019 00:00,11.3,25,,,0,3,91,37,270,Rain,995,4,14,,,,10,
Tiree,10/10/2019 01:00,11.3,23,,,0.4,,86,35,270,Rain,995,1,23,0,0,,9.1,
Tiree,10/10/2019 02:00,11.1,23,,,0,,87,36,280,Haze,996,1,17,0,0,,9.1,
Tiree,10/10/2019 03:00,11.1,22,,,0,,87,31,280,Dry,996,4,19,0,0,,9.1,
Tiree,10/10/2019 04:00,11,16,,,0.8,,90,,290,Light shower,997,5,14,0,0,,9.5,
Tiree,10/10/2019 05:00,10.3,14,,,1,,91,,280,Light shower,998,4,20,0,0,,9,
Tiree,10/10/2019 06:00,10,14,9.9,,2.2,4,93,,270,Rain,998,1,20,0,0,,9,
Tiree,10/10/2019 07:00,10,12,,,0.8,,94,,260,Moderate shower,998,1,4,0,0,,9.1,
Tiree,10/10/2019 08:00,10.4,15,,,0.4,,92,,260,Rain,999,1,27,94,6,,9.2,
Tiree,10/10/2019 09:00,11.1,16,,,1.2,,91,33,260,Rain,999,7,18,365,6,,9.7,
Tiree,10/10/2019 10:00,11.7,15,,,0,,80,,240,Dry,999,7,20,730,18,,8.5,
Tiree,10/10/2019 11:00,11.9,13,,,0,,80,,230,Dry,998,7,27,617,0,,8.7,
Tiree,10/10/2019 12:00,11.4,14,,,0,2,84,,210,Drizzly rain,998,6,9,390,0,,8.9,
Tiree,10/10/2019 13:00,10.2,16,,,0.8,,90,,190,Light rain,997,7,10,347,0,,8.7,
Tiree,10/10/2019 14:00,10.4,21,,,1.4,,92,,170,Light rain,996,2,7,192,0,,9.3,
Tiree,10/10/2019 15:00,10.4,22,,,1.8,,94,,150,Moderate rain,994,6,4,163,0,,9.6,
Tiree,10/10/2019 16:00,12.5,28,,,1.4,,95,38,230,Rain,992,8,5,139,0,,11.8,
Tiree,10/10/2019 17:00,12.8,25,,,0.2,,91,36,220,Rain,992,4,8,137,0,,11.4,
Tiree,10/10/2019 18:00,11.7,23,,12.9,2.2,8,93,37,210,Moderate shower,991,8,2,19,0,,10.7,
Tiree,10/10/2019 19:00,10.9,15,,,3.4,,94,37,240,Rain,991,8,16,0,0,,10,
Tiree,10/10/2019 20:00,12.4,22,,,0,,88,33,230,Dry,991,8,10,0,0,,10.6,
Tiree,10/10/2019 21:00,12.3,22,,,0,,86,33,230,Dry,991,7,10,0,0,,10.2,
Tiree,10/10/2019 22:00,11.9,26,,,0,,81,35,220,Dry,991,7,16,0,0,,8.9,
Tiree,10/10/2019 23:00,11.7,21,,,0,,86,36,220,Dry,991,5,11,0,0,,9.5,
Tiree,11/10/2019 00:00,11.2,25,,,0.2,4,89,40,220,Moderate shower,990,2,5,,,,9.6,
Tiree,11/10/2019 01:00,11.8,28,,,0.2,,83,40,230,Rain,990,7,14,0,0,,9.1,
Tiree,11/10/2019 02:00,11.2,32,,,0.2,,85,48,230,Rain,990,8,14,0,0,,8.9,
Tiree,11/10/2019 03:00,11.5,32,,,0,,82,48,220,Dry,989,7,12,0,0,,8.6,
Tiree,11/10/2019 04:00,11.3,31,,,0.4,,85,51,230,Rain,989,8,12,0,0,,8.9,
Tiree,11/10/2019 05:00,11.3,30,,,0,,84,46,240,Dry,989,5,13,0,0,,8.8,
Tiree,11/10/2019 06:00,11.5,26,10.7,,0,0,84,48,240,Rain,989,7,12,0,0,,8.9,
Tiree,11/10/2019 07:00,11.2,29,,,0,,77,43,240,Dry,989,3,14,0,0,,7.4,
Tiree,11/10/2019 08:00,10.9,26,,,0,,83,43,230,Dry,990,5,14,62,0,,8.2,
Tiree,11/10/2019 09:00,11.7,30,,,0,,81,41,240,Haze,990,2,15,274,6,,8.6,
Tiree,11/10/2019 10:00,12.5,30,,,0,,80,41,230,Rain,990,7,14,968,36,,9.3,
Tiree,11/10/2019 11:00,10.9,29,,,2.4,,92,46,240,Light shower,990,8,8,805,12,,9.8,
Tiree,11/10/2019 12:00,10.9,32,,,0,2,85,45,240,Rain,991,7,12,997,30,,8.5,
Tiree,11/10/2019 13:00,11.4,26,,,1,,91,40,250,Light shower,991,7,17,583,12,,10.1,
Tiree,11/10/2019 14:00,10.2,24,,,0.6,,92,40,240,Light shower,991,7,7,682,6,,9,
Tiree,11/10/2019 15:00,9.9,22,,,0,,89,33,260,Light shower,992,8,16,522,0,,8.3,
Tiree,11/10/2019 16:00,9.4,8,,,4,,94,31,290,Heavy shower,991,8,6,223,0,,8.5,
Tiree,11/10/2019 18:00,9.8,15,,12.6,,8,90,30,300,Rain,993,5,29,51,0,,8.4,
Tiree,12/10/2019 00:00,9.5,13,,,0,0,76,,270,Dry,998,6,35,,,,5.5,
Tiree,12/10/2019 01:00,9.5,14,,,0,,77,,260,Dry,998,1,35,0,0,,5.7,
Tiree,12/10/2019 02:00,9.5,15,,,0,,76,,260,Dry,998,1,45,0,0,,5.5,
Tiree,12/10/2019 03:00,8.8,10,,,0,,74,,260,Dry,998,2,30,0,0,,4.5,
Tiree,12/10/2019 04:00,9.4,14,,,0,,70,,250,Dry,998,3,45,0,0,,4.4,
Tiree,12/10/2019 05:00,9.2,12,,,0,,74,,250,Dry,998,0,35,0,0,,4.9,
Tiree,12/10/2019 06:00,10,13,8.6,,0,0,73,,250,Dry,998,6,50,0,0,,5.5,
Tiree,12/10/2019 07:00,9.7,10,,,0,,83,,230,Dry,998,7,35,0,0,,7,
Tiree,12/10/2019 08:00,9.5,8,,,0.8,,91,,230,Rain,999,4,35,90,6,,8.2,
Tiree,12/10/2019 09:00,11.4,14,,,0,,84,,230,Rain,999,7,35,439,18,,8.8,
Tiree,12/10/2019 10:00,12.1,15,,,0,,78,,260,Dry,1000,1,27,1170,42,,8.4,
Tiree,12/10/2019 11:00,12,16,,,,,,,240,-,,3,10,,,,8,
Tiree,12/10/2019 12:00,12.4,14,,,0,0.8,77,,240,Rain,1000,2,30,803,18,,8.5,
Tiree,12/10/2019 13:00,11.9,12,,,0.2,,84,,230,Rain,1000,3,35,1153,36,,9.4,
Tiree,12/10/2019 14:00,11.3,14,,,0,,84,,220,Light shower,1000,1,8,981,30,,8.8,
Tiree,12/10/2019 15:00,11.7,15,,,0,,79,,230,Rain,1000,1,35,827,42,,8.2,
Tiree,12/10/2019 16:00,12.2,13,,,0,,76,,240,Dry,1000,0,30,716,36,,8.2,
Tiree,12/10/2019 17:00,10.3,12,,,0,,82,,230,Dry,1001,2,30,309,24,,7.4,
Tiree,12/10/2019 18:00,9.2,8,,13.2,0,0.2,85,,240,Dry,1001,1,30,48,0,,6.9,
Tiree,12/10/2019 19:00,8.4,8,,,0,,87,,230,Dry,1001,1,35,0,0,,6.5,
Tiree,12/10/2019 20:00,8,6,,,0,,90,,220,Rain,1001,2,45,0,0,,6.5,
Tiree,12/10/2019 21:00,7.2,6,,,0,,91,,230,Dry,1002,2,35,0,0,,5.9,
Tiree,12/10/2019 22:00,7.5,7,,,0,,92,,210,Dry,1002,2,40,0,0,,6.3,
Tiree,13/10/2019 09:00,11.3,14,,,0,,88,,140,Dry,1000,2,40,313,6,,9.5,
Tiree,13/10/2019 10:00,11.9,16,,,0,,86,,130,Dry,1000,1,27,702,54,,9.8,
Tiree,13/10/2019 11:00,11.8,15,,,0,,84,,130,Dry,1000,0,26,1136,60,,9.3,
Tiree,13/10/2019 12:00,11.8,12,,,0,0,82,,130,Dry,1000,0,21,919,30,,9,
Tiree,13/10/2019 13:00,12,10,,,0,,81,,130,Dry,1000,5,30,802,6,,9,
Tiree,13/10/2019 14:00,11.9,9,,,0,,79,,110,Dry,1000,4,40,747,12,,8.5,
Tiree,13/10/2019 15:00,11.8,7,,,0,,80,,80,Dry,1000,2,45,344,0,,8.6,
Tiree,13/10/2019 16:00,9.3,12,,,0.4,,89,,190,Light shower,1000,8,12,67,0,,7.6,
Tiree,13/10/2019 17:00,8.9,6,,,3,,94,,230,Light rain,1001,8,12,14,0,,8,
Tiree,13/10/2019 18:00,9,5,,12.6,1,4,94,,190,Light rain,1001,7,11,5,0,,8.2,
Tiree,13/10/2019 19:00,9.6,10,,,1.4,,92,,170,Light rain,1002,7,13,0,0,,8.4,
Tiree,13/10/2019 20:00,9.5,9,,,0.6,,91,,190,Light rain,1002,8,30,0,0,,8.2,
Tiree,13/10/2019 21:00,10.1,10,,,0,,88,,160,Rain,1003,4,50,0,0,,8.3,
Tiree,14/10/2019 01:00,8,7,,,0,,87,,200,Dry,1004,3,50,0,0,,6,
Tiree,14/10/2019 02:00,8.4,9,,,0,,90,,190,Dry,1004,0,50,0,0,,6.9,
Tiree,14/10/2019 03:00,8.2,8,,,0,,90,,210,Dry,1005,1,50,0,0,,6.8,
Tiree,14/10/2019 04:00,8.1,8,,,0,,90,,210,Dry,1005,1,50,0,0,,6.6,
Tiree,14/10/2019 05:00,7.5,8,,,0,,89,,210,Dry,1005,1,35,0,0,,5.9,
Tiree,14/10/2019 06:00,8.9,9,7.2,,0,0,88,,200,Dry,1005,0,45,0,0,,7.1,
Tiree,14/10/2019 07:00,9.1,8,,,0,,89,,200,Dry,1006,3,50,0,0,,7.4,
Tiree,14/10/2019 08:00,10.6,10,,,0,,86,,180,Dry,1006,7,35,66,0,,8.4,
Tiree,14/10/2019 09:00,11.4,13,,,0,,82,,180,Dry,1006,4,35,245,0,,8.5,
Tiree,14/10/2019 10:00,11.6,15,,,0,,80,,170,Dry,1006,8,45,699,18,,8.3,
Tiree,14/10/2019 11:00,12,15,,,0,,79,,160,Dry,1006,8,35,867,6,,8.6,
Tiree,14/10/2019 12:00,11.8,16,,,0,0,80,,150,Dry,1006,2,40,749,0,,8.6,
Tiree,14/10/2019 13:00,12.1,15,,,0,,77,,160,Dry,1006,1,45,583,0,,8.2,
Tiree,14/10/2019 14:00,11.7,15,,,0,,78,,160,Light shower,1006,7,24,550,0,,8.1,
Tiree,14/10/2019 15:00,10.8,8,,,0.2,,85,,150,Light rain,1006,8,13,298,0,,8.4,
Tiree,14/10/2019 16:00,11,13,,,0,,85,,120,Drizzly rain,1006,8,30,179,0,,8.7,
Tiree,14/10/2019 17:00,10,13,,,0.2,,83,,100,Light rain,1006,8,17,74,0,,7.4,
Tiree,14/10/2019 18:00,10.1,13,,12.5,0.2,0.6,87,,90,Rain,1005,8,45,10,0,,8.2,
Tiree,14/10/2019 19:00,9.8,15,,,0.2,,87,,100,Light shower,1005,8,10,0,0,,7.8,
Tiree,14/10/2019 20:00,9.8,13,,,0.6,,90,,100,Light rain,1005,8,10,0,0,,8.4,
Tiree,14/10/2019 21:00,10.1,10,,,0.2,,92,,80,Rain,1004,8,35,0,0,,8.9,
Tiree,14/10/2019 22:00,11.5,20,,,0,,86,,120,Dry,1004,8,40,0,0,,9.4,
Tiree,14/10/2019 23:00,11.8,21,,,0,,85,,130,Dry,1003,8,29,0,0,,9.5,
Tiree,15/10/2019 00:00,12,21,,,0,1,84,30,130,Dry,1003,4,30,,,,9.5,
Tiree,15/10/2019 01:00,12.1,23,,,0,,84,31,140,Dry,1002,8,30,0,0,,9.5,
Tiree,15/10/2019 02:00,11.9,21,,,0,,85,30,140,Dry,1002,8,30,0,0,,9.5,
Tiree,15/10/2019 03:00,11.5,22,,,0,,87,30,130,Dry,1001,8,22,0,0,,9.5,
Tiree,15/10/2019 04:00,11.4,21,,,0,,86,29,130,Dry,1001,8,24,0,0,,9.3,
Tiree,15/10/2019 05:00,11.4,23,,,0,,88,30,130,Dry,1001,8,26,0,0,,9.5,
Tiree,15/10/2019 06:00,11.5,24,9.7,,0,0,86,30,130,Dry,1001,8,22,0,0,,9.3,
Tiree,15/10/2019 07:00,11.2,26,,,0,,88,33,130,Dry,1000,8,19,0,0,,9.3,
Tiree,15/10/2019 08:00,11.4,24,,,0,,86,33,140,Dry,1000,8,18,40,0,,9.2,
Tiree,15/10/2019 09:00,11.4,24,,,0,,84,31,140,Dry,1000,8,21,219,0,,8.9,
Tiree,15/10/2019 10:00,11.8,24,,,0,,79,32,150,Dry,1000,6,18,628,24,,8.4,
Tiree,15/10/2019 11:00,11.7,25,,,0,,82,33,150,Dry,999,7,24,853,30,,8.8,
Tiree,15/10/2019 12:00,11.8,26,,,0,0,81,35,140,Dry,999,8,22,419,0,,8.8,
Tiree,15/10/2019 13:00,12.2,25,,,0,,80,35,150,Dry,998,7,28,569,0,,8.9,
Tiree,15/10/2019 14:00,12.2,28,,,0,,80,35,150,Dry,998,8,25,309,0,,9,
Tiree,15/10/2019 15:00,12.4,28,,,0,,80,36,140,Dry,997,8,26,163,0,,9.1,
Tiree,15/10/2019 16:00,12.6,26,,,0,,80,37,140,Dry,997,8,29,165,0,,9.3,
Tiree,15/10/2019 17:00,12.6,29,,,0,,83,37,140,Dry,997,8,24,81,0,,9.8,
Tiree,15/10/2019 18:00,12.5,28,,12.7,0,0,84,39,140,Dry,996,8,23,14,0,,9.9,
Tiree,15/10/2019 19:00,12.4,30,,,0,,84,38,140,Dry,996,8,20,0,0,,9.9,
Tiree,15/10/2019 20:00,12.5,33,,,0,,83,41,130,Dry,995,3,22,0,0,,9.8,
Tiree,15/10/2019 21:00,12.6,30,,,0,,84,41,130,Dry,995,4,22,0,0,,10,
Tiree,15/10/2019 22:00,12.7,28,,,0,,87,39,140,Dry,994,8,14,0,0,,10.7,
Tiree,15/10/2019 23:00,13.2,29,,,0,,81,39,140,Dry,994,8,17,0,0,,10.1,
Tiree,16/10/2019 00:00,13.1,30,,,0,0,85,39,140,Dry,993,8,14,,,,10.7,
Tiree,16/10/2019 01:00,12.1,30,,,1.6,,95,40,140,Light shower,992,8,3,0,0,,11.4,
Tiree,16/10/2019 02:00,12.1,31,,,3.4,,97,43,140,Moderate rain,992,8,3,0,0,,11.7,
Tiree,16/10/2019 03:00,12.1,26,,,2.2,,98,39,140,Light rain,991,8,3,0,0,,11.8,
Tiree,16/10/2019 04:00,10.2,15,,,2.8,,96,37,260,Light rain,992,1,4,0,0,,9.7,
Tiree,16/10/2019 05:00,9.9,12,,,1.8,,95,,260,Light rain,992,3,6,0,0,,9.2,
Tiree,16/10/2019 06:00,9.9,9,9.8,,0.2,12,91,,250,Light rain,993,8,19,0,0,,8.6,
Tiree,16/10/2019 07:00,8.9,7,,,0,,90,,230,Rain,994,7,22,0,0,,7.4,
Tiree,16/10/2019 08:00,9.6,7,,,0.4,,91,,230,Rain,995,6,5,39,0,,8.3,
Tiree,16/10/2019 09:00,11.1,8,,,0.2,,86,,240,Rain,995,1,19,321,30,,9,
Tiree,16/10/2019 10:00,11.1,12,,,0,,79,,240,Dry,996,1,30,425,12,,7.7,
Tiree,16/10/2019 11:00,12.5,14,,,0,,71,,240,Dry,996,0,30,1133,54,,7.4,
Tiree,16/10/2019 12:00,12.3,15,,,0,0.6,71,,220,Dry,996,0,40,1368,60,,7.4,
Tiree,16/10/2019 13:00,13.2,15,,,0,,71,,220,Dry,997,3,24,1505,60,,8.2,
Tiree,16/10/2019 14:00,12.1,15,,,0,,70,,210,Dry,997,4,30,1303,54,,7,
Tiree,16/10/2019 15:00,12.2,17,,,0,,74,,210,Dry,997,3,30,1008,36,,7.9,
Tiree,16/10/2019 16:00,11.5,14,,,0,,72,,220,Dry,997,1,26,750,60,,6.7,
Tiree,16/10/2019 17:00,10.2,12,,,0,,78,,210,Dry,997,0,30,323,54,,6.6,
Tiree,16/10/2019 18:00,9.5,12,,13.6,0,0,79,,210,Dry,998,1,30,22,0,,6.2,
Tiree,16/10/2019 19:00,9.1,10,,,0,,80,,200,Dry,998,1,27,0,0,,5.9,
Tiree,16/10/2019 20:00,10.8,15,,,0,,80,,160,Dry,998,0,25,0,0,,7.5,
Tiree,16/10/2019 21:00,10.8,16,,,0,,70,,180,Dry,998,6,30,0,0,,5.6,
Tiree,16/10/2019 22:00,11.3,20,,,0,,73,,170,Dry,997,2,29,0,0,,6.8,
Tiree,16/10/2019 23:00,11.5,23,,,0,,73,29,170,Dry,997,1,20,0,0,,6.9,
Tiree,17/10/2019 00:00,11.5,24,,,0,0,76,33,170,Dry,997,3,18,,,,7.5,
Tiree,17/10/2019 01:00,11.6,24,,,0,,76,35,160,Dry,997,4,20,0,0,,7.7,
Tiree,17/10/2019 02:00,11.3,26,,,0,,78,38,160,Dry,997,4,17,0,0,,7.7,
Tiree,17/10/2019 03:00,11.1,26,,,0,,79,35,170,Dry,996,1,15,0,0,,7.7,
Tiree,17/10/2019 04:00,10.9,25,,,0,,81,35,160,Dry,996,1,16,0,0,,7.8,
Tiree,17/10/2019 05:00,10.8,25,,,0,,83,36,150,Dry,996,4,13,0,0,,8.2,
Tiree,17/10/2019 06:00,10.9,26,8.8,,0,0,82,35,150,Dry,995,3,17,0,0,,8.1,
Tiree,17/10/2019 07:00,10.9,25,,,0,,83,36,150,Dry,996,4,16,0,0,,8.2,
Tiree,17/10/2019 08:00,11,26,,,0,,81,36,150,Dry,996,7,15,40,0,,8,
Tiree,17/10/2019 10:00,12,23,,,,,,,150,-,,3,10,,,,8,
Tiree,17/10/2019 11:00,12,26,,,,,,,150,-,,3,10,,,,8,
Tiree,17/10/2019 15:00,13,28,,,,,,,130,-,,3,10,,,,10,
Tiree,18/10/2019 09:00,11,10,,,,,,,100,-,,3,10,,,,9,
Tiree,18/10/2019 10:00,11,9,,,,,,,100,-,,3,10,,,,8,
Tiree,18/10/2019 12:00,13,9,,,,,,,70,-,,1,10,,,,9,
Tiree,18/10/2019 13:00,12,12,,,,,,,50,-,,3,10,,,,8,
Tiree,18/10/2019 14:00,12,9,,,,,,,40,-,,5,10,,,,8,
Tiree,18/10/2019 15:00,12,13,,,,,,,10,-,,3,10,,,,7,
Tiree,18/10/2019 16:00,12,12,,,,,,,10,-,,1,10,,,,7,
Tiree,18/10/2019 17:00,10,9,,,,,,,20,-,,1,10,,,,6,
Tiree,18/10/2019 18:00,9,8,,,,,,,20,-,,1,10,,,,6,
Tiree,19/10/2019 07:00,10.5,20,,,,,78,,20,Dry,1002,0,25,0,0,,6.9,
Tiree,19/10/2019 08:00,10.3,21,,,0,,76,,20,Dry,1002,,30,31,0,,6.4,
Tiree,19/10/2019 09:00,10.8,20,,,0,,74,,20,Dry,1003,1,20,244,18,,6.4,
Tiree,19/10/2019 10:00,11.4,20,,,0,,69,,20,Dry,1004,0,20,695,60,,6.1,
Tiree,19/10/2019 11:00,12,21,,,0,,69,,20,Dry,1004,0,30,1146,60,,6.6,
Tiree,19/10/2019 12:00,12.3,20,,,0,0,71,,360,Dry,1004,1,30,1368,60,,7.4,
Tiree,19/10/2019 13:00,12.4,23,,,0,,77,31,10,Dry,1005,3,16,1208,54,,8.6,
Tiree,19/10/2019 14:00,11.6,25,,,0,,76,32,360,Dry,1005,4,24,1193,54,,7.7,
Tiree,19/10/2019 15:00,11.9,24,,,0,,81,33,360,Dry,1005,6,28,989,54,,8.9,
Tiree,19/10/2019 16:00,11.4,28,,,0,,79,37,10,Dry,1006,3,17,431,24,,8,
Tiree,19/10/2019 17:00,10.7,28,,,0,,76,38,10,Dry,1007,6,18,272,24,,6.8,
Tiree,19/10/2019 18:00,10,26,,12.7,0,0,81,38,360,Dry,1008,5,21,21,0,,6.9,
Tiree,19/10/2019 19:00,10.1,,,,-0.2,,83,,,Dry,1008,1,9,,,,7.4,
Tiree,19/10/2019 20:00,10.3,24,,,0.2,,89,39,350,Rain,1009,4,5,0,0,,8.6,
Tiree,19/10/2019 21:00,10.6,25,,,0,,84,36,360,Rain,1009,1,18,0,0,,8.1,
Tiree,19/10/2019 22:00,10.5,22,,,0,,82,31,10,Dry,1010,2,30,0,0,,7.6,
Tiree,19/10/2019 23:00,10.2,17,,,0,,79,,20,Dry,1011,1,35,0,0,,6.9,
Tiree,20/10/2019 00:00,10.6,17,,,0,0.2,80,,20,Dry,1012,7,35,,,,7.3,
Tiree,20/10/2019 01:00,9.6,25,,,0,,71,33,20,Dry,1013,6,30,0,0,,4.7,
Tiree,20/10/2019 02:00,9,24,,,0,,74,33,20,Dry,1014,3,23,0,0,,4.8,
Tiree,20/10/2019 03:00,9.2,26,,,0,,71,35,10,Dry,1014,4,25,0,0,,4.3,
Tiree,20/10/2019 04:00,8.9,29,,,0,,63,37,360,Dry,1014,4,29,0,0,,2.3,
Tiree,20/10/2019 05:00,8.8,25,,,0,,65,36,10,Dry,1015,3,27,0,0,,2.8,
Tiree,20/10/2019 06:00,8.8,26,8.4,,0,0,71,32,10,Dry,1016,7,30,0,0,,4,
Tiree,20/10/2019 07:00,8.6,23,,,0,,72,33,10,Dry,1017,5,40,0,0,,3.9,
Tiree,20/10/2019 08:00,9.2,23,,,0,,73,32,20,Rain,1018,4,24,59,6,,4.7,
Tiree,20/10/2019 09:00,9.3,24,,,0,,72,30,10,Dry,1018,4,28,371,30,,4.7,
Tiree,20/10/2019 10:00,9.5,22,,,0,,66,32,20,Dry,1019,0,28,679,42,,3.6,
Tiree,20/10/2019 11:00,9.9,22,,,0,,69,32,10,Dry,1020,7,26,672,18,,4.5,
Tiree,20/10/2019 12:00,9.7,23,,,0,0,67,29,10,Dry,1020,7,35,1206,42,,3.9,
Tiree,20/10/2019 13:00,10,20,,,0,,71,30,10,Dry,1021,7,30,770,18,,5,
Tiree,20/10/2019 14:00,9.8,18,,,0,,72,,20,Dry,1021,7,27,831,18,,5,
Tiree,20/10/2019 15:00,9.5,24,,,0,,75,30,10,Dry,1021,7,35,595,6,,5.3,
Tiree,20/10/2019 16:00,9.5,21,,,0,,71,,10,Dry,1022,2,35,324,0,,4.6,
Tiree,20/10/2019 17:00,8.7,17,,,0,,70,,30,Dry,1022,7,45,89,0,,3.7,
Tiree,20/10/2019 18:00,8.1,15,,11.2,0,0,68,,20,Dry,1023,2,45,8,0,,2.6,
Tiree,20/10/2019 19:00,7.5,13,,,0,,70,,20,Dry,1023,1,40,0,0,,2.5,
Tiree,20/10/2019 20:00,7.6,13,,,0,,70,,20,Dry,1023,6,50,0,0,,2.5,
Tiree,20/10/2019 21:00,8.6,14,,,0,,69,,10,Dry,1024,7,40,0,0,,3.4,
Tiree,20/10/2019 22:00,7.5,10,,,0,,72,,20,Dry,1024,7,45,0,0,,2.8,
Tiree,20/10/2019 23:00,7.9,8,,,0,,71,,360,Dry,1025,8,50,0,0,,3.1,
Tiree,21/10/2019 00:00,7.8,5,,,0,0,71,,40,Dry,1024,8,50,,,,3,
Tiree,21/10/2019 01:00,7,5,,,0,,74,,60,Dry,1024,8,50,0,0,,2.7,
Tiree,21/10/2019 02:00,7.5,1,,,0,,74,,60,Dry,1024,8,50,0,0,,3.2,
Tiree,21/10/2019 03:00,7.3,2,,,0,,77,,110,Dry,1024,8,50,0,0,,3.6,
Tiree,21/10/2019 04:00,7.4,1,,,0,,75,,100,Dry,1024,8,50,0,0,,3.4,
Tiree,21/10/2019 05:00,7,3,,,0,,79,,240,Dry,1024,8,50,0,0,,3.7,
Tiree,21/10/2019 06:00,7.9,6,6.7,,0,0,72,,260,Dry,1024,8,50,0,0,,3.3,
Tiree,21/10/2019 07:00,7.9,5,,,0,,71,,290,Dry,1024,8,50,0,0,,3.1,
Tiree,21/10/2019 08:00,7.7,5,,,0,,74,,270,Dry,1024,8,50,31,0,,3.4,
Tiree,21/10/2019 09:00,8.6,3,,,0,,74,,210,Dry,1024,8,35,139,0,,4.3,
Tiree,21/10/2019 10:00,9.6,7,,,0,,71,,230,Dry,1024,8,50,255,0,,4.8,
Tiree,21/10/2019 11:00,9.7,10,,,0,,68,,230,Dry,1023,7,50,392,0,,4.2,
Tiree,21/10/2019 12:00,9.8,12,,,0,0,67,,230,Dry,1023,8,50,465,0,,4.1,
Tiree,21/10/2019 13:00,9.9,14,,,0,,67,,220,Dry,1022,8,50,547,0,,4.1,
Tiree,21/10/2019 14:00,10,15,,,0,,71,,230,Dry,1022,8,35,392,0,,5,
Tiree,21/10/2019 15:00,9.9,17,,,0,,70,,240,Dry,1021,8,45,291,0,,4.7,
Tiree,21/10/2019 16:00,9.9,17,,,0,,71,,230,Dry,1021,8,35,170,0,,5,
Tiree,21/10/2019 17:00,10,18,,,0,,72,,230,Dry,1020,8,30,53,0,,5.2,
Tiree,21/10/2019 18:00,10.1,17,,10.2,0,0,73,,230,Dry,1019,8,30,3,0,,5.6,
Tiree,21/10/2019 19:00,10.3,18,,,0,,75,,230,Dry,1019,2,30,0,0,,6.2,
Tiree,21/10/2019 20:00,10.3,20,,,0,,78,29,230,Dry,1019,8,19,0,0,,6.7,
Tiree,21/10/2019 21:00,10,20,,,0,,83,29,230,Dry,1018,8,35,0,0,,7.3,
Tiree,21/10/2019 22:00,10.2,20,,,0,,85,30,230,Dry,1017,1,26,0,0,,7.8,
Tiree,21/10/2019 23:00,10.6,20,,,0,,83,29,230,Dry,1017,2,19,0,0,,8,
Tiree,22/10/2019 00:00,10.9,17,,,0,0,82,30,220,Dry,1017,7,18,,,,8.1,
Tiree,22/10/2019 01:00,11,18,,,0,,84,,230,Haze,1016,2,16,0,0,,8.5,
Tiree,22/10/2019 02:00,11.3,18,,,0,,84,,220,Dry,1016,1,15,0,0,,8.7,
Tiree,22/10/2019 03:00,11.3,21,,,0,,84,32,220,Dry,1015,6,17,0,0,,8.7,
Tiree,22/10/2019 04:00,10.7,21,,,0,,92,31,230,Dry,1014,1,16,0,0,,9.5,
Tiree,22/10/2019 05:00,11.3,21,,,0,,88,32,220,Dry,1014,8,17,0,0,,9.5,
Tiree,22/10/2019 06:00,11.4,21,9.4,,-0.2,0,86,,220,Dry,1014,8,17,,,,9.3,
Tiree,22/10/2019 07:00,11.6,23,,,0,,86,31,220,Dry,1014,3,21,0,0,,9.5,
Tiree,22/10/2019 08:00,11.7,22,,,0,,86,31,220,Dry,1014,2,16,8,0,,9.6,
Tiree,22/10/2019 09:00,11.6,23,,,0,,88,36,220,Haze,1014,7,9,92,0,,9.8,
Tiree,22/10/2019 10:00,12.2,21,,,0,,86,33,220,Dry,1014,8,18,246,0,,10.1,
Tiree,22/10/2019 11:00,12,23,,,0,,91,35,220,Rain,1014,8,9,499,0,,10.7,
Tiree,22/10/2019 12:00,12.2,21,,,0.2,0.2,92,35,220,Moderate shower,1014,8,17,731,18,,11.1,
Tiree,22/10/2019 13:00,13,23,,,0,,90,35,220,Rain,1013,8,18,919,24,,11.5,
Tiree,22/10/2019 14:00,11.2,21,,,0.6,,94,36,210,Rain,1012,8,12,593,6,,10.3,
Tiree,22/10/2019 15:00,12.1,24,,,0,,88,35,220,Fog,1012,7,13,687,24,,10.2,
Tiree,22/10/2019 16:00,12.1,22,,,0,,83,37,210,Dry,1012,8,17,335,0,,9.4,
Tiree,22/10/2019 17:00,11.7,20,,,0,,87,35,210,Dry,1012,1,14,104,0,,9.7,
Tiree,22/10/2019 18:00,11.8,25,,13.3,0,0.6,82,33,210,Dry,1011,1,19,4,0,,9,
Tiree,22/10/2019 19:00,11.1,22,,,0,,92,37,200,Rain,1011,1,17,0,0,,10,
Tiree,22/10/2019 20:00,11.8,23,,,0,,86,36,200,Dry,1011,1,18,0,0,,9.6,
Tiree,22/10/2019 21:00,12,24,,,0,,83,39,200,Dry,1010,2,19,0,0,,9.3,
Tiree,22/10/2019 22:00,11.3,25,,,0.2,,89,36,200,Drizzly rain,1010,6,8,0,0,,9.7,
Tiree,22/10/2019 23:00,11.2,25,,,0,,88,37,200,Rain,1010,8,7,0,0,,9.3,
Tiree,23/10/2019 00:00,11.1,23,,,0,0.2,90,37,200,Dry,1009,7,25,,,,9.6,
Tiree,23/10/2019 01:00,11.2,24,,,0,,86,35,200,Drizzly rain,1009,7,15,0,0,,9.1,
Tiree,23/10/2019 02:00,11.1,22,,,0.2,,90,33,190,Light shower,1008,8,16,0,0,,9.6,
Tiree,23/10/2019 03:00,11,22,,,0.6,,92,32,190,Light shower,1007,7,8,0,0,,9.9,
Tiree,23/10/2019 04:00,11,24,,,0.8,,91,33,190,Light rain,1006,7,12,0,0,,9.7,
Tiree,23/10/2019 05:00,10.8,24,,,0.6,,91,36,190,Light rain,1006,8,10,0,0,,9.4,
Tiree,23/10/2019 06:00,11.3,28,10.8,,0,1.8,86,37,180,Rain,1005,3,19,0,0,,9.2,
Tiree,23/10/2019 07:00,11.6,28,,,0,,83,37,190,Dry,1004,8,21,0,0,,8.9,
Tiree,23/10/2019 08:00,11.7,29,,,0,,85,39,180,Dry,1004,8,18,8,0,,9.3,
Tiree,23/10/2019 09:00,11.5,30,,,0,,89,39,180,Light shower,1004,8,11,71,0,,9.8,
Tiree,23/10/2019 10:00,11.3,30,,,1,,91,41,180,Moderate rain,1003,8,5,104,0,,9.9,
Tiree,23/10/2019 11:00,11.1,33,,,2.4,,92,44,180,Moderate rain,1002,8,5,171,0,,10,
Tiree,23/10/2019 12:00,11.3,30,,,2,5,93,41,180,Light rain,1002,7,7,177,0,,10.3,
Tiree,23/10/2019 13:00,11.3,32,,,1.8,,93,43,180,Moderate rain,1000,7,8,165,0,,10.3,
Tiree,23/10/2019 14:00,11.4,29,,,2,,93,41,180,Moderate rain,1000,5,6,139,0,,10.4,
Tiree,23/10/2019 15:00,11.4,29,,,2,,94,43,180,Moderate rain,998,8,5,100,0,,10.5,
Tiree,23/10/2019 16:00,11.6,32,,,2.6,,94,43,180,Light rain,997,8,6,57,0,,10.7,
Tiree,23/10/2019 17:00,11.6,35,,,0.6,,94,45,180,Moderate shower,996,8,7,21,0,,10.7,
Tiree,23/10/2019 18:00,11.5,32,,11.8,1.8,11,95,46,180,Moderate rain,996,8,4,2,0,,10.8,
Tiree,23/10/2019 19:00,12,28,,,0.4,,92,41,190,Rain,996,8,15,0,0,,10.9,
Tiree,23/10/2019 20:00,11.7,25,,,0.4,,95,40,190,Rain,996,8,8,0,0,,11,
Tiree,23/10/2019 21:00,11.6,17,,,0,,92,36,220,Rain,996,2,14,0,0,,10.5,
Tiree,23/10/2019 22:00,11.5,16,,,0,,91,,210,Dry,996,8,18,0,0,,10.2,
Tiree,23/10/2019 23:00,11.3,20,,,0.2,,91,29,210,Rain,996,7,21,0,0,,10,
Tiree,24/10/2019 00:00,11.2,20,,,0,1,89,,210,Dry,996,3,24,,,,9.6,
Tiree,24/10/2019 01:00,10.4,16,,,0.2,,91,31,220,Rain,996,2,18,0,0,,9,
Tiree,24/10/2019 02:00,10.9,20,,,0,,86,,220,Dry,995,2,19,0,0,,8.8,
Tiree,24/10/2019 03:00,10.8,20,,,0,,86,,220,Dry,994,4,16,0,0,,8.7,
Tiree,24/10/2019 04:00,10.6,21,,,0,,88,31,200,Dry,994,1,19,0,0,,8.7,
Tiree,24/10/2019 05:00,10.8,18,,,0,,86,29,220,Dry,994,6,17,0,0,,8.7,
Tiree,24/10/2019 06:00,11,22,10.3,,0,0,81,33,210,Dry,994,4,22,0,0,,8,
Tiree,24/10/2019 07:00,9.9,18,,,0.8,,92,32,240,Drizzly rain,995,1,26,0,0,,8.7,
Tiree,24/10/2019 08:00,9.3,20,,,0,,85,,260,Rain,995,8,30,17,0,,7,
Tiree,24/10/2019 09:00,9,15,,,0,,84,,280,Dry,997,6,29,165,6,,6.5,
Tiree,24/10/2019 10:00,9.4,20,,,0,,75,,290,Dry,998,1,29,493,18,,5.2,
Tiree,24/10/2019 11:00,9.2,18,,,0,,70,29,300,Dry,999,6,30,696,18,,4.1,
Tiree,24/10/2019 12:00,9.6,20,,,0,0.8,69,,300,Dry,1000,7,27,823,18,,4.2,
Tiree,24/10/2019 13:00,9.3,17,,,0,,66,,310,Dry,1000,7,30,980,24,,3.4,
Tiree,24/10/2019 14:00,9.1,14,,,0,,67,,310,Dry,1001,7,30,637,12,,3.5,
Tiree,24/10/2019 15:00,7.4,12,,,0,,74,,300,Drizzly rain,1001,8,21,474,6,,3.1,
Tiree,24/10/2019 16:00,7.2,13,,,0,,71,,300,Rain,1002,7,40,297,6,,2.4,
Tiree,24/10/2019 17:00,6.1,14,,,0,,85,,290,Rain,1002,8,45,90,0,,3.8,
Tiree,24/10/2019 18:00,5.9,20,,11.3,1,1.2,84,29,310,Rain,1003,8,35,2,0,,3.5,
Tiree,24/10/2019 19:00,6,15,,,0.2,,76,,290,Rain,1004,8,30,0,0,,2.2,
Tiree,24/10/2019 20:00,5.3,16,,,0,,62,,280,Dry,1004,5,35,0,0,,-1.2,
Tiree,24/10/2019 21:00,4.9,16,,,0,,52,,270,Dry,1004,2,50,0,0,,-3.9,
Tiree,24/10/2019 22:00,4.9,13,,,0,,64,,270,Rain,1005,3,35,0,0,,-1.2,
Tiree,24/10/2019 23:00,5.3,13,,,0,,67,,280,Dry,1005,2,35,0,0,,-0.3,
Tiree,25/10/2019 00:00,5.8,16,,,0,0.2,67,,260,Dry,1005,2,40,,,,0.2,
Tiree,25/10/2019 01:00,5.4,22,,,0.2,,79,35,260,Light shower,1005,1,9,0,0,,2.2,
Tiree,25/10/2019 02:00,4.7,18,,,0,,82,30,250,Rain,1005,7,22,0,0,,2,
Tiree,25/10/2019 03:00,5.4,21,,,0.2,,77,30,260,Rain,1005,4,45,0,0,,1.7,
Tiree,25/10/2019 04:00,5.6,21,,,0,,74,37,250,Rain,1005,5,28,0,0,,1.4,
Tiree,25/10/2019 05:00,6.3,25,,,0,,65,36,250,Rain,1005,6,30,0,0,,0.3,
Tiree,25/10/2019 06:00,6.1,21,4.1,,0,0.4,61,35,250,Dry,1005,4,40,0,0,,-0.7,
Tiree,25/10/2019 07:00,6.1,22,,,0,,57,32,250,Dry,1005,1,45,0,0,,-1.6,
Tiree,25/10/2019 08:00,5.6,20,,,0.2,,75,33,250,Rain,1006,5,35,11,0,,1.7,
Tiree,25/10/2019 09:00,7,20,,,0,,64,29,250,Dry,1006,5,45,195,6,,0.8,
Tiree,25/10/2019 10:00,6.4,21,,,0,,77,38,240,Rain,1006,6,9,584,24,,2.7,
Tiree,25/10/2019 11:00,8.1,18,,,0,,56,29,250,Dry,1005,2,45,1014,60,,-0.1,
Tiree,25/10/2019 12:00,8.6,18,,,0,0.2,53,,250,Dry,1005,4,50,1120,60,,-0.4,
Tiree,25/10/2019 13:00,8.6,17,,,0,,58,,250,Dry,1004,5,30,1198,54,,0.9,
Tiree,25/10/2019 14:00,8.2,16,,,0,,60,,250,Dry,1004,8,35,769,18,,1,
Tiree,25/10/2019 15:00,8.3,14,,,0,,67,,240,Rain,1004,1,30,694,18,,2.6,
Tiree,25/10/2019 16:00,7,14,,,0,,60,,260,Dry,1003,1,35,527,48,,-0.1,
Tiree,25/10/2019 17:00,6.8,13,,,0,,63,,250,Dry,1003,3,35,156,18,,0.4,
Tiree,25/10/2019 18:00,5.8,10,,9.7,0,0,68,,250,Dry,1003,5,45,1,0,,0.5,
Tiree,25/10/2019 19:00,5.6,14,,,0,,72,,260,Rain,1003,1,45,0,0,,1.1,
Tiree,25/10/2019 20:00,5.9,14,,,0.2,,74,30,260,Rain,1003,5,40,0,0,,1.7,
Tiree,25/10/2019 21:00,5.6,23,,,0,,70,32,260,Dry,1003,1,14,0,0,,0.6,
Tiree,25/10/2019 22:00,6.5,16,,,0,,66,,280,Rain,1003,5,20,0,0,,0.7,
Tiree,25/10/2019 23:00,5.2,15,,,0.2,,79,30,260,Rain,1003,5,50,0,0,,1.9,
Tiree,26/10/2019 00:00,5.6,17,,,0,0.4,72,,250,Dry,1003,1,45,,,,1.1,
Tiree,26/10/2019 01:00,5.7,16,,,0,,78,32,250,Rain,1003,1,30,0,0,,2.2,
Tiree,26/10/2019 02:00,5.8,18,,,0,,81,,290,Dry,1003,2,29,0,0,,2.9,
Tiree,26/10/2019 03:00,5.6,15,,,0,,77,,250,Dry,1003,4,40,0,0,,1.9,
Tiree,26/10/2019 04:00,6.2,17,,,0,,73,,270,Rain,1002,2,30,0,0,,1.8,
Tiree,26/10/2019 05:00,7.1,16,,,0,,69,,270,Light shower,1003,6,27,0,0,,2,
Tiree,26/10/2019 06:00,6.1,15,4.6,,0,0,72,,260,Rain,1003,5,28,0,0,,1.5,
Tiree,26/10/2019 07:00,5.7,14,,,0.2,,78,32,260,Rain,1003,5,35,0,0,,2.2,
Tiree,26/10/2019 08:00,6.6,17,,,0,,71,,250,Rain,1003,4,30,13,0,,1.9,
Tiree,26/10/2019 09:00,7.1,15,,,0,,80,,250,Rain,1003,6,20,296,12,,4,
Tiree,26/10/2019 10:00,7.3,23,,,0,,73,32,250,Rain,1003,3,30,374,18,,2.9,
Tiree,26/10/2019 11:00,8.2,20,,,0,,69,31,250,Dry,1004,1,45,730,30,,3,
Tiree,26/10/2019 12:00,8.5,22,,,0,0.2,72,33,270,Dry,1003,6,30,776,24,,3.9,
Tiree,26/10/2019 13:00,7.3,20,,,0,,77,31,270,Haze,1004,5,30,997,42,,3.6,
Tiree,26/10/2019 14:00,8.1,18,,,0,,69,31,270,Dry,1004,8,40,816,24,,2.9,
Tiree,26/10/2019 15:00,6.8,22,,,0.2,,85,33,270,Rain,1004,8,22,564,12,,4.5,
Tiree,26/10/2019 16:00,6.4,15,,,1.2,,90,36,280,Rain,1004,8,20,127,0,,4.9,
Tiree,26/10/2019 17:00,6.9,22,,,1.4,,84,37,280,Rain,1004,8,40,41,0,,4.5,
Tiree,26/10/2019 18:00,7.2,24,,8.9,0,2.8,78,36,270,Rain,1005,5,45,0,0,,3.7,
Tiree,26/10/2019 19:00,6.8,22,,,1.4,,88,39,290,Rain,1006,7,35,0,0,,5,
Tiree,26/10/2019 20:00,7.9,26,,,0.2,,80,37,300,Rain,1007,6,27,0,0,,4.8,
Tiree,26/10/2019 21:00,7.5,28,,,0.2,,80,39,300,Light shower,1008,3,12,0,0,,4.3,
Tiree,26/10/2019 22:00,7.5,25,,,0,,84,41,300,Light shower,1009,4,13,0,0,,5,
Tiree,26/10/2019 23:00,8.2,24,,,0,,78,35,300,Rain,1010,6,28,0,0,,4.7,
Tiree,27/10/2019 00:00,8,23,,,0,2,74,35,290,Dry,1011,2,40,,,,3.7,
Tiree,27/10/2019 01:00,8.5,22,,,0,,75,35,290,Dry,1012,6,30,0,0,,4.4,
Tiree,27/10/2019 02:00,8.2,25,,,0,,73,37,300,Rain,1013,6,29,0,0,,3.8,
Tiree,27/10/2019 03:00,8.2,23,,,0,,75,33,290,Rain,1014,4,22,0,0,,4.1,
Tiree,27/10/2019 04:00,8.1,18,,,0.2,,79,30,300,Rain,1015,6,21,0,0,,4.7,
Tiree,27/10/2019 05:00,6.6,20,,,1.2,,85,45,310,Rain,1016,6,27,0,0,,4.3,
Tiree,27/10/2019 06:00,8,25,5.3,,0,1,76,40,290,Rain,1017,7,5,0,0,,4.1,
Tiree,27/10/2019 07:00,7.6,24,,,0.2,,85,40,300,Moderate shower,1018,7,9,0,0,,5.3,
Tiree,27/10/2019 08:00,7.1,18,,,0.2,,88,38,300,Light shower,1019,8,28,5,0,,5.4,
Tiree,27/10/2019 09:00,8.6,21,,,0,,80,,320,Rain,1020,2,18,180,12,,5.4,
Tiree,27/10/2019 10:00,7.3,20,,,0.2,,86,36,340,Light shower,1021,7,23,483,30,,5.2,
Tiree,27/10/2019 11:00,8.2,18,,,0,,75,31,320,Light shower,1022,8,30,707,18,,4.1,
Tiree,27/10/2019 12:00,8.5,20,,,0,0.6,74,,330,Rain,1022,3,30,995,48,,4.3,
Tiree,27/10/2019 13:00,9.7,18,,,0,,68,,320,Dry,1023,4,13,1029,42,,4.2,
Tiree,27/10/2019 14:00,8.5,17,,,0,,70,31,320,Rain,1024,6,30,727,24,,3.5,
Tiree,27/10/2019 15:00,8.8,17,,,0,,71,29,330,Rain,1024,2,30,642,36,,4,
Tiree,27/10/2019 16:00,8.6,15,,,0,,69,,320,Dry,1024,2,28,231,6,,3.4,
Tiree,27/10/2019 17:00,7.9,17,,,0,,68,,320,Dry,1025,3,35,115,6,,2.4,
Tiree,27/10/2019 18:00,7.4,18,,10.8,0,0,68,,330,Dry,1026,3,40,0,0,,1.9,
Tiree,27/10/2019 19:00,7.2,15,,,0,,70,,340,Dry,1026,1,40,0,0,,2.3,
Tiree,27/10/2019 20:00,7.3,13,,,0,,73,,330,Dry,1027,3,45,0,0,,2.9,
Tiree,27/10/2019 21:00,6.8,13,,,0.2,,80,25,340,Moderate shower,1027,4,30,0,0,,3.7,
Tiree,27/10/2019 22:00,6.4,16,,,0.6,,85,,360,Rain,1028,3,45,0,0,,4.1,
Tiree,27/10/2019 23:00,6.5,14,,,0,,81,,20,Rain,1028,7,40,0,0,,3.6,
Tiree,28/10/2019 00:00,5.9,9,,,0,0.8,81,,20,Rain,1028,3,40,,,,3,
Tiree,28/10/2019 01:00,6.4,12,,,0,,76,,360,Dry,1029,2,40,0,0,,2.5,
Tiree,28/10/2019 02:00,6.7,12,,,0.2,,82,,10,Rain,1029,7,50,0,0,,4,
Tiree,28/10/2019 03:00,6.2,12,,,0,,73,,360,Dry,1029,3,45,0,0,,1.8,
Tiree,28/10/2019 04:00,5.9,12,,,0,,73,,360,Dry,1029,1,40,0,0,,1.5,
Tiree,28/10/2019 05:00,7.2,14,,,0,,68,,350,Dry,1029,5,50,0,0,,1.7,
Tiree,28/10/2019 06:00,6.6,17,5.4,,0,0.2,74,,350,Rain,1029,0,50,0,0,,2.4,
Tiree,28/10/2019 07:00,7,16,,,0,,74,,350,Rain,1029,1,50,0,0,,2.7,
Tiree,28/10/2019 08:00,7.1,16,,,0,,85,,350,Dry,1029,7,30,14,0,,4.8,
Tiree,28/10/2019 09:00,7,12,,,0.8,,90,,360,Light shower,1030,3,13,197,0,,5.5,
Tiree,28/10/2019 10:00,8.5,13,,,0,,83,,10,Rain,1030,7,30,585,42,,5.9,
Tiree,28/10/2019 11:00,7.8,13,,,0.2,,75,,360,Rain,1030,4,50,672,24,,3.7,
Tiree,28/10/2019 12:00,9.2,12,,,0,1,74,,10,Dry,1030,3,35,1191,60,,4.9,
Tiree,28/10/2019 13:00,9.6,14,,,0,,70,,10,Dry,1030,4,35,1262,54,,4.6,
Tiree,28/10/2019 14:00,8.9,14,,,0,,71,,360,Dry,1030,1,35,928,42,,4,
Tiree,28/10/2019 15:00,9,13,,,0,,71,,30,Dry,1030,7,45,721,36,,4.2,
Tiree,28/10/2019 16:00,8.4,8,,,0,,76,,50,Dry,1030,6,45,319,18,,4.6,
Tiree,28/10/2019 17:00,6.2,7,,,0,,79,,40,Dry,1030,3,45,68,0,,2.9,
Tiree,28/10/2019 18:00,7.8,16,,9.9,0,0,73,,30,Dry,1030,7,45,1,0,,3.3,
Tiree,28/10/2019 19:00,6,7,,,0,,85,,40,Dry,1030,8,35,0,0,,3.7,
Tiree,28/10/2019 20:00,5.9,8,,,0,,84,,50,Dry,1030,7,40,0,0,,3.5,
Tiree,28/10/2019 21:00,4.8,6,,,0,,83,,50,Dry,1030,3,40,0,0,,2.2,
Tiree,28/10/2019 22:00,3.7,6,,,0,,89,,60,Dry,1031,2,30,0,0,,2.1,
Tiree,28/10/2019 23:00,3.5,8,,,0,,84,,70,Dry,1031,2,40,0,0,,1.1,
Tiree,29/10/2019 00:00,4.8,12,,,0,0,81,,70,Dry,1031,0,50,,,,1.9,
Tiree,29/10/2019 01:00,4,10,,,0,,83,,80,Dry,1031,0,50,0,0,,1.4,
Tiree,29/10/2019 02:00,2.3,6,,,0,,84,,80,Dry,1031,0,50,0,0,,-0.1,
Tiree,29/10/2019 03:00,1.7,7,,,0,,89,,50,Dry,1031,0,50,0,0,,0.1,
Tiree,29/10/2019 04:00,1.6,9,,,0,,93,,50,Dry,1031,0,45,0,0,,0.6,
Tiree,29/10/2019 05:00,1.4,7,,,0,,92,,50,Dry,1031,0,45,0,0,,0.3,
Tiree,29/10/2019 06:00,1.3,10,0.3,,0,0,93,,50,Dry,1031,0,45,0,0,,0.4,
Tiree,29/10/2019 07:00,1.5,10,,,0,,93,,60,Dry,1032,0,50,0,0,,0.5,
Tiree,29/10/2019 08:00,1.3,9,,,0,,92,,70,Dry,1032,0,45,12,0,,0.2,
Tiree,29/10/2019 09:00,4.9,6,,,0.2,,88,,80,Dry,1032,1,40,252,60,,3.2,
Tiree,29/10/2019 10:00,7.9,9,,,0,,77,,70,Dry,1032,0,30,643,60,,4.2,
Tiree,29/10/2019 11:00,9.1,10,,,0,,67,,100,Dry,1032,0,35,963,60,,3.4,
Tiree,29/10/2019 12:00,9.2,8,,,0,0.2,63,,90,Dry,1032,0,35,1177,60,,2.6,
Tiree,29/10/2019 13:00,,9,,,-0.2,,,,90,-,,0,,,,,,
Tiree,29/10/2019 14:00,,10,,,-0.2,,,,80,-,,0,10,,,,,
Tiree,29/10/2019 15:00,9,10,,,-0.2,,66,,70,Fog,1031,0,50,,,,3.2,
Tiree,29/10/2019 16:00,8.4,6,,,0,,73,,70,Dry,1031,5,45,452,42,,4,
Tiree,29/10/2019 17:00,7,7,,,0,,75,,90,Dry,1031,7,50,117,12,,3,
Tiree,29/10/2019 18:00,6.9,7,,,0,,75,,80,Dry,1032,8,50,0,0,,2.8,
Tiree,29/10/2019 19:00,5.7,8,,,0,,75,,80,Dry,1032,7,50,0,0,,1.8,
Tiree,29/10/2019 20:00,2.9,10,,,0,,83,,80,Dry,1032,1,50,0,0,,0.4,
Tiree,29/10/2019 21:00,2.2,8,,,0,,87,,70,Dry,1032,0,50,0,0,,0.4,
Tiree,29/10/2019 22:00,4.1,12,,,0,,88,,100,Dry,1031,0,50,0,0,,2.4,
Tiree,29/10/2019 23:00,6.1,13,,,0,,83,,100,Dry,1031,0,45,0,0,,3.6,
Tiree,30/10/2019 00:00,6.6,15,,,0,0,76,,110,Dry,1031,0,50,,,,2.8,
Tiree,30/10/2019 01:00,7.5,16,,,0,,75,,120,Dry,1030,1,45,0,0,,3.4,
Tiree,30/10/2019 02:00,6.4,13,,,0,,81,,110,Dry,1030,2,45,0,0,,3.4,
Tiree,30/10/2019 03:00,7.1,15,,,0,,77,,110,Dry,1030,0,40,0,0,,3.4,
Tiree,30/10/2019 04:00,7.1,15,,,0,,77,,110,Dry,1030,2,50,0,0,,3.4,
Tiree,30/10/2019 05:00,7.1,16,,,0,,79,,110,Dry,1029,1,45,0,0,,3.8,
Tiree,30/10/2019 06:00,7.1,17,1.8,,0,0,79,,120,Dry,1029,2,35,0,0,,3.8,
Tiree,30/10/2019 07:00,7.1,17,,,0,,77,,110,Dry,1029,1,45,0,0,,3.4,
Tiree,30/10/2019 08:00,7,16,,,0,,77,,110,Dry,1029,1,45,10,0,,3.4,
Tiree,30/10/2019 09:00,7.9,20,,,0,,75,,120,Dry,1029,1,45,227,48,,3.9,
Tiree,30/10/2019 10:00,8.4,20,,,0,,72,,120,Dry,1028,0,28,596,60,,3.7,
Tiree,30/10/2019 11:00,8.9,20,,,0,,70,,110,Dry,1028,0,50,938,60,,3.8,
Tiree,30/10/2019 12:00,9.4,20,,,0,0,69,,120,Dry,1028,0,30,1151,60,,4.2,
Tiree,30/10/2019 13:00,9.7,20,,,0,,68,,120,Dry,1027,0,21,1163,60,,4.2,
Tiree,30/10/2019 14:00,9.9,18,,,0,,67,,130,Dry,1026,0,28,1098,60,,4.2,
Tiree,30/10/2019 15:00,9.8,18,,,0,,67,,130,Dry,1026,0,30,847,60,,4.1,
Tiree,30/10/2019 16:00,9.2,21,,,0,,66,,130,Dry,1026,0,30,489,60,,3.2,
Tiree,30/10/2019 17:00,8.2,17,,,0,,72,,120,Dry,1025,0,40,129,30,,3.6,
Tiree,30/10/2019 18:00,8.3,21,,10,0,0,70,,130,Dry,1025,0,45,0,0,,3.2,
Tiree,30/10/2019 19:00,7.9,20,,,0,,72,,120,Dry,1025,0,35,0,0,,3.2,
Tiree,30/10/2019 20:00,8.2,20,,,0,,70,,120,Dry,1025,0,45,0,0,,3.1,
Tiree,30/10/2019 21:00,8.3,22,,,0,,69,,130,Dry,1025,0,45,0,0,,3,
Tiree,30/10/2019 22:00,8.1,21,,,0,,70,29,130,Dry,1024,0,45,0,0,,3.1,
Tiree,30/10/2019 23:00,7.9,23,,,0,,73,30,130,Dry,1024,0,40,0,0,,3.4,
Tiree,31/10/2019 00:00,7.9,21,,,0,0,75,29,130,Dry,1024,0,40,,,,3.9,
West Freugh,01/09/2019 00:00,10.7,10,,,0,0,86,,260,Dry,1012,,35,,,,8.5,
West Freugh,01/09/2019 01:00,11.3,13,,,0,,86,,250,Dry,1012,4,26,,,,9.2,
West Freugh,01/09/2019 02:00,10.9,14,,,0,,86,,260,Dry,1012,2,27,,,,8.8,
West Freugh,01/09/2019 03:00,11,14,,,0,,86,,260,Dry,1012,4,30,,,,8.8,
West Freugh,01/09/2019 04:00,10.5,12,,,0,,88,,260,Rain,1012,5,35,,,,8.6,
West Freugh,01/09/2019 05:00,10.4,12,,,0,,87,,260,Dry,1012,,24,,,,8.5,
West Freugh,01/09/2019 06:00,10.3,12,10.2,,0,0,87,,250,Dry,1013,,25,,,,8.4,
West Freugh,01/09/2019 07:00,11.4,13,,,0,,84,,270,Dry,1013,0,30,,,,8.8,
West Freugh,01/09/2019 08:00,12.2,15,,,0,,80,,270,Dry,1014,2,24,,,,8.9,
West Freugh,01/09/2019 09:00,12.3,17,,,0,,86,,290,Moderate shower,1014,7,35,,,,10.1,
West Freugh,01/09/2019 10:00,11.5,17,,,0.6,,85,,290,Moderate shower,1015,7,12,,,,9.1,
West Freugh,01/09/2019 11:00,13.9,14,,,0,,82,,290,Rain,1016,2,35,,,,11,
West Freugh,01/09/2019 12:00,15,16,,,0,0.6,72,,290,Dry,1016,3,35,,,,10.1,
West Freugh,01/09/2019 13:00,15.2,18,,,0,,62,,290,Dry,1017,2,35,,,,8.2,
West Freugh,01/09/2019 14:00,15.2,17,,,0,,66,,290,Dry,1017,2,35,,,,9.1,
West Freugh,01/09/2019 15:00,15.1,18,,,0,,63,,300,Dry,1017,,30,,,,8.2,
West Freugh,01/09/2019 16:00,14.4,13,,,0,,68,,310,Dry,1017,7,30,,,,8.7,
West Freugh,01/09/2019 17:00,13.8,8,,,0,,71,,310,Light shower,1018,8,27,,,,8.8,
West Freugh,01/09/2019 18:00,13.1,3,,16,0,0,80,,270,Drizzly rain,1018,7,18,,,,9.9,
West Freugh,01/09/2019 19:00,11.7,5,,,1,,94,,190,Light shower,1019,8,15,,,,10.8,
West Freugh,01/09/2019 20:00,11.6,1,,,0,,95,,160,Rain,1019,1,17,,,,10.9,
West Freugh,01/09/2019 21:00,11.2,3,,,0.2,,96,,100,Dry,1019,8,15,,,,10.6,
West Freugh,01/09/2019 22:00,11.3,2,,,0,,97,,220,Light shower,1019,8,13,,,,10.9,
West Freugh,01/09/2019 23:00,11.3,5,,,0,,96,,240,Rain,1019,8,21,,,,10.8,
West Freugh,02/09/2019 00:00,10,5,,,0,1,96,,250,Dry,1019,4,25,,,,9.5,
West Freugh,02/09/2019 01:00,9.8,5,,,0,,96,,300,Dry,1019,3,30,,,,9.2,
West Freugh,02/09/2019 02:00,10.4,8,,,0,,94,,260,Dry,1019,3,35,,,,9.6,
West Freugh,02/09/2019 03:00,11.1,5,,,0.2,,96,,250,Dry,1019,4,29,,,,10.6,
West Freugh,02/09/2019 04:00,11.8,5,,,0,,95,,240,Dry,1019,7,21,,,,11.1,
West Freugh,02/09/2019 05:00,12,9,,,0,,93,,220,Dry,1018,7,21,,,,11,
West Freugh,02/09/2019 06:00,12.1,9,9.5,,0,0,92,,220,Rain,1018,8,24,,,,11,
West Freugh,02/09/2019 07:00,12.4,9,,,0,,92,,210,Light shower,1018,8,22,,,,11.2,
West Freugh,02/09/2019 08:00,12.5,12,,,1.4,,95,,230,Moderate rain,1018,8,7,,,,11.8,
West Freugh,02/09/2019 09:00,12.5,13,,,2.6,,96,,210,Moderate rain,1018,7,5,,,,11.9,
West Freugh,02/09/2019 10:00,13.1,15,,,1.2,,96,,210,Light drizzle,1018,1,5,,,,12.5,
West Freugh,02/09/2019 11:00,13.6,17,,,0,,94,,200,Drizzle,1017,8,18,,,,12.7,
West Freugh,02/09/2019 12:00,13.9,17,,,0.2,5,93,,200,Rain,1017,8,20,,,,12.8,
West Freugh,02/09/2019 13:00,13.9,18,,,0.8,,95,30,210,Light rain,1017,7,11,,,,13.2,
West Freugh,02/09/2019 14:00,14,12,,,2.4,,96,,240,Moderate rain,1016,8,13,,,,13.4,
West Freugh,02/09/2019 15:00,14.3,13,,,0.4,,96,,220,Light drizzle,1016,7,18,,,,13.8,
West Freugh,02/09/2019 16:00,14.3,15,,,0,,91,,220,Light shower,1016,8,11,,,,12.9,
West Freugh,02/09/2019 17:00,14.2,18,,,0.2,,93,,230,Light shower,1016,8,9,,,,13.1,
West Freugh,02/09/2019 18:00,14.7,15,,14.9,0,4,88,,250,Rain,1016,8,25,,,,12.8,
West Freugh,02/09/2019 19:00,14.5,14,,,0,,88,,240,Dry,1016,8,22,,,,12.6,
West Freugh,02/09/2019 20:00,14.5,15,,,0,,86,,250,Dry,1016,7,22,,,,12.3,
West Freugh,02/09/2019 21:00,14.7,13,,,0,,87,,250,Dry,1016,2,25,,,,12.7,
West Freugh,02/09/2019 22:00,14.7,14,,,0,,88,,250,Dry,1016,8,22,,,,12.8,
West Freugh,02/09/2019 23:00,14.4,12,,,0,,91,,240,Light shower,1017,8,21,,,,13,
West Freugh,03/09/2019 00:00,14.5,14,,,0,0,91,,230,Rain,1017,8,28,,,,13.2,
West Freugh,03/09/2019 01:00,14.8,14,,,0,,91,,240,Dry,1017,7,40,,,,13.4,
West Freugh,03/09/2019 02:00,14.8,14,,,0,,90,,220,Dry,1017,6,35,,,,13.3,
West Freugh,03/09/2019 03:00,14.6,15,,,0,,91,,220,Dry,1017,1,30,,,,13.2,
West Freugh,03/09/2019 04:00,14.6,20,,,0,,89,,230,Dry,1017,7,40,,,,12.9,
West Freugh,03/09/2019 05:00,14.2,10,,,0,,93,,210,Dry,1017,8,25,,,,13.2,
West Freugh,03/09/2019 06:00,14.1,10,14.1,,0,0,96,,200,Rain,1017,1,4,,,,13.5,
West Freugh,03/09/2019 07:00,14.3,16,,,0.2,,97,,210,Moderate drizzle,1017,8,4,,,,13.9,
West Freugh,03/09/2019 08:00,14.7,15,,,0.2,,95,,210,Drizzly rain,1017,8,10,,,,14,
West Freugh,03/09/2019 09:00,15,16,,,0,,95,,210,Rain,1017,8,11,,,,14.3,
West Freugh,03/09/2019 10:00,15.3,15,,,0,,93,,210,Rain,1017,4,19,,,,14.3,
West Freugh,03/09/2019 11:00,15.4,13,,,0,,94,,200,Dry,1016,8,17,,,,14.5,
West Freugh,03/09/2019 12:00,16.3,14,,,0,0.4,92,,200,Dry,1016,8,15,,,,15.1,
West Freugh,03/09/2019 13:00,16.7,18,,,0,,87,,210,Dry,1016,7,22,,,,14.7,
West Freugh,03/09/2019 14:00,17,16,,,0,,88,,210,Dry,1015,8,20,,,,15.1,
West Freugh,03/09/2019 15:00,16.3,13,,,0,,91,,210,Rain,1015,8,22,,,,14.9,
West Freugh,03/09/2019 16:00,16,8,,,0,,92,,200,Light shower,1015,8,21,,,,14.8,
West Freugh,03/09/2019 17:00,15.4,8,,,1.6,,94,,210,Moderate rain,1014,7,6,,,,14.6,
West Freugh,03/09/2019 18:00,15.2,5,,18.4,3,4.6,96,,180,Moderate rain,1014,1,5,,,,14.7,
West Freugh,03/09/2019 19:00,15.6,9,,,3.4,,98,,200,Light rain,1013,8,15,,,,15.3,
West Freugh,03/09/2019 20:00,15.6,12,,,0.2,,96,,200,Rain,1012,8,35,,,,15.1,
West Freugh,03/09/2019 21:00,14.7,8,,,0.2,,95,,300,Rain,1012,8,22,,,,14,
West Freugh,03/09/2019 22:00,14.3,1,,,0.2,,97,,270,Light drizzle,1012,8,11,,,,13.9,
West Freugh,03/09/2019 23:00,13.9,2,,,0,,97,,210,Rain,1012,8,12,,,,13.5,
West Freugh,04/09/2019 00:00,13.5,10,,,0.8,5,96,,290,Moderate shower,1012,1,13,,,,13,
West Freugh,04/09/2019 01:00,12.1,5,,,0,,95,,310,Rain,1012,7,18,,,,11.4,
West Freugh,04/09/2019 02:00,10.9,6,,,0,,92,,280,Dry,1012,1,22,,,,9.8,
West Freugh,04/09/2019 03:00,10.2,7,,,0,,91,,280,Dry,1011,0,19,,,,8.9,
West Freugh,04/09/2019 04:00,9.8,3,,,0,,92,,340,Dry,1011,1,20,,,,8.6,
West Freugh,04/09/2019 05:00,10.5,5,,,0,,93,,210,Dry,1010,7,24,,,,9.5,
West Freugh,04/09/2019 06:00,10.6,9,8.9,,0,0,92,,230,Dry,1010,7,22,,,,9.4,
West Freugh,04/09/2019 07:00,11.2,17,,,0,,88,,230,Dry,1010,4,20,,,,9.3,
West Freugh,04/09/2019 08:00,12.1,18,,,0,,84,,230,Dry,1009,,26,,,,9.5,
West Freugh,04/09/2019 09:00,11.1,18,,,1.6,,90,,220,Moderate rain,1008,7,8,,,,9.6,
West Freugh,04/09/2019 10:00,12.4,24,,,0.2,,87,36,240,Rain,1007,8,19,,,,10.3,
West Freugh,04/09/2019 11:00,12.5,22,,,0.4,,93,38,250,Drizzly rain,1007,8,4,,,,11.4,
West Freugh,04/09/2019 12:00,13,23,,,0.8,3,91,35,250,Moderate shower,1007,8,13,,,,11.7,
West Freugh,04/09/2019 13:00,14.4,25,,,0.8,,88,39,280,Rain,1006,7,12,,,,12.5,
West Freugh,04/09/2019 14:00,13.5,30,,,0.2,,90,48,300,Light shower,1007,8,9,,,,12,
West Freugh,04/09/2019 15:00,14.5,23,,,0,,80,46,310,Rain,1009,7,20,,,,11.1,
West Freugh,04/09/2019 16:00,14.3,32,,,0,,78,48,310,Dry,1011,6,14,,,,10.7,
West Freugh,04/09/2019 17:00,13.6,28,,,0,,76,45,310,Dry,1013,5,18,,,,9.5,
West Freugh,04/09/2019 18:00,12.5,32,,15.1,0,1,74,48,320,Dry,1014,6,22,,,,8.1,
West Freugh,04/09/2019 19:00,12.1,29,,,0,,77,46,320,Dry,1016,6,20,,,,8.2,
West Freugh,04/09/2019 20:00,11.7,28,,,0,,74,43,320,Dry,1018,3,22,,,,7.4,
West Freugh,04/09/2019 21:00,11.6,23,,,0,,71,40,330,Dry,1019,5,22,,,,6.6,
West Freugh,04/09/2019 22:00,11.5,22,,,0,,71,40,330,Dry,1020,3,17,,,,6.6,
West Freugh,04/09/2019 23:00,11,21,,,0,,65,36,330,Dry,1022,2,20,,,,4.9,
West Freugh,05/09/2019 00:00,11,17,,,0,0,67,33,340,Dry,1022,5,24,,,,5.3,
West Freugh,05/09/2019 01:00,11.4,16,,,0,,74,,320,Dry,1023,1,24,,,,7,
West Freugh,05/09/2019 02:00,10.6,12,,,0,,76,,310,Dry,1024,8,35,,,,6.7,
West Freugh,05/09/2019 03:00,11,9,,,0,,76,,310,Dry,1024,6,35,,,,7,
West Freugh,05/09/2019 04:00,10.3,8,,,0,,82,,330,Dry,1024,7,40,,,,7.5,
West Freugh,05/09/2019 05:00,11,15,,,0,,78,,310,Rain,1024,6,35,,,,7.5,
West Freugh,05/09/2019 06:00,11.6,13,9.9,,0,0,78,,300,Dry,1024,7,23,,,,7.9,
West Freugh,05/09/2019 07:00,10.9,7,,,0.4,,91,,280,Rain,1025,7,18,,,,9.6,
West Freugh,05/09/2019 08:00,11.8,14,,,0,,84,,270,Dry,1025,8,18,,,,9.3,
West Freugh,05/09/2019 09:00,11.4,12,,,0.4,,90,,270,Moderate shower,1025,8,9,,,,9.9,
West Freugh,05/09/2019 10:00,12.8,17,,,0,,88,,280,Rain,1025,2,17,,,,10.9,
West Freugh,05/09/2019 11:00,14.3,16,,,0,,79,31,290,Dry,1025,6,22,,,,10.9,
West Freugh,05/09/2019 12:00,15.7,18,,,0,0.8,74,32,290,Dry,1025,7,21,,,,11.2,
West Freugh,05/09/2019 13:00,15.9,15,,,0,,68,,280,Dry,1025,7,20,,,,10.2,
West Freugh,05/09/2019 14:00,15.8,12,,,0,,72,,300,Dry,1025,5,21,,,,10.8,
West Freugh,05/09/2019 15:00,16.1,10,,,0,,74,,310,Dry,1025,5,20,,,,11.6,
West Freugh,05/09/2019 16:00,15.7,8,,,0,,72,,320,Dry,1024,6,15,,,,10.8,
West Freugh,05/09/2019 17:00,15.1,5,,,0,,76,,340,Dry,1024,1,16,,,,11.1,
West Freugh,05/09/2019 18:00,15,5,,16.8,0,0,74,,230,Dry,1023,2,18,,,,10.6,
West Freugh,05/09/2019 19:00,13.9,10,,,0,,78,,240,Dry,1023,7,21,,,,10.2,
West Freugh,05/09/2019 20:00,13.4,9,,,0,,80,,260,Dry,1023,8,22,,,,10.1,
West Freugh,05/09/2019 21:00,13.4,7,,,0,,84,,250,Rain,1022,8,22,,,,10.9,
West Freugh,05/09/2019 22:00,13.7,18,,,0,,77,31,260,Rain,1021,8,23,,,,9.8,
West Freugh,05/09/2019 23:00,12.2,8,,,1.4,,89,,220,Moderate shower,1020,8,17,,,,10.5,
West Freugh,06/09/2019 00:00,12.7,20,,,0.4,2,85,,220,Rain,1019,8,20,,,,10.3,
West Freugh,06/09/2019 01:00,12.7,18,,,0,,86,29,220,Rain,1018,8,18,,,,10.5,
West Freugh,06/09/2019 02:00,13.2,21,,,0,,84,31,230,Dry,1016,8,19,,,,10.6,
West Freugh,06/09/2019 03:00,13.4,22,,,0,,84,32,230,Rain,1015,8,21,,,,10.9,
West Freugh,06/09/2019 04:00,13,21,,,0.2,,92,31,230,Moderate drizzle,1015,7,22,,,,11.8,
West Freugh,06/09/2019 05:00,13.3,18,,,0.2,,93,,240,Light drizzle,1014,8,6,,,,12.3,
West Freugh,06/09/2019 06:00,12.5,17,12.1,,1,1,90,30,290,Light shower,1014,8,18,,,,11,
West Freugh,06/09/2019 07:00,12.1,9,,,0,,84,,290,Rain,1015,7,15,,,,9.6,
West Freugh,06/09/2019 08:00,13.3,17,,,0,,77,,270,Dry,1015,6,17,,,,9.5,
West Freugh,06/09/2019 09:00,12.2,20,,,0,,80,29,280,Light shower,1016,7,11,,,,8.9,
West Freugh,06/09/2019 10:00,13.8,17,,,0,,77,,280,Rain,1016,8,21,,,,9.9,
West Freugh,06/09/2019 11:00,12.6,18,,,0.2,,88,30,280,Drizzly rain,1016,8,19,,,,10.8,
West Freugh,06/09/2019 12:00,13.7,20,,,0.2,0.4,81,32,280,Rain,1017,1,28,,,,10.6,
West Freugh,06/09/2019 13:00,14.1,20,,,0.2,,79,33,280,Rain,1017,7,14,,,,10.7,
West Freugh,06/09/2019 14:00,15.4,21,,,0,,73,30,290,Rain,1017,7,18,,,,10.6,
West Freugh,06/09/2019 15:00,14.4,22,,,0,,76,31,290,Dry,1018,4,24,,,,10.4,
West Freugh,06/09/2019 16:00,14.9,22,,,0,,75,32,300,Dry,1018,1,18,,,,10.6,
West Freugh,06/09/2019 17:00,14.1,18,,,0,,80,31,290,Rain,1018,7,25,,,,10.8,
West Freugh,06/09/2019 18:00,13.9,18,,16.3,0,0.2,82,30,290,Dry,1019,1,20,,,,10.9,
West Freugh,06/09/2019 19:00,13.2,15,,,0,,86,,300,Dry,1019,6,16,,,,11,
West Freugh,06/09/2019 20:00,13.4,17,,,0,,83,,300,Dry,1020,6,24,,,,10.7,
West Freugh,06/09/2019 21:00,12.9,14,,,0,,85,,300,Dry,1020,7,26,,,,10.6,
West Freugh,06/09/2019 22:00,12.2,14,,,0,,89,,310,Dry,1020,0,24,,,,10.5,
West Freugh,06/09/2019 23:00,12.2,10,,,0,,88,,320,Dry,1021,3,19,,,,10.4,
West Freugh,07/09/2019 00:00,11.9,12,,,0,0,88,,310,Dry,1021,1,21,,,,10.1,
West Freugh,07/09/2019 01:00,12.2,13,,,0,,88,,320,Dry,1022,2,28,,,,10.3,
West Freugh,07/09/2019 02:00,11.3,8,,,0,,91,,310,Dry,1022,1,19,,,,10,
West Freugh,07/09/2019 03:00,12.1,9,,,0,,91,,330,Dry,1022,2,21,,,,10.8,
West Freugh,07/09/2019 04:00,11.6,10,,,0,,87,,330,Dry,1022,0,23,,,,9.6,
West Freugh,07/09/2019 05:00,11.4,9,,,0,,88,,330,Dry,1023,,25,,,,9.5,
West Freugh,07/09/2019 06:00,11.3,7,10.9,,0,0,87,,340,Dry,1024,0,27,,,,9.3,
West Freugh,07/09/2019 07:00,12,7,,,0,,83,,340,Dry,1024,0,35,,,,9.3,
West Freugh,07/09/2019 08:00,13.6,7,,,0,,75,,350,Dry,1025,4,50,,,,9.4,
West Freugh,07/09/2019 09:00,12.9,8,,,0,,73,,340,Dry,1026,1,45,,,,8.2,
West Freugh,07/09/2019 10:00,13.1,12,,,0,,72,,310,Dry,1026,7,45,,,,8.2,
West Freugh,07/09/2019 11:00,14.9,9,,,0,,67,,310,Dry,1026,1,35,,,,9,
West Freugh,07/09/2019 12:00,14.8,12,,,0,0,69,,310,Dry,1027,4,35,,,,9.3,
West Freugh,07/09/2019 13:00,15.4,13,,,0,,70,,320,Dry,1027,1,50,,,,10,
West Freugh,07/09/2019 14:00,15,14,,,0,,67,,310,Dry,1027,1,45,,,,9,
West Freugh,07/09/2019 15:00,14.9,12,,,0,,60,,320,Dry,1027,0,50,,,,7.4,
West Freugh,07/09/2019 16:00,14.6,13,,,0,,63,,320,Dry,1027,0,35,,,,7.8,
West Freugh,07/09/2019 17:00,14.2,10,,,0,,65,,320,Dry,1027,0,50,,,,7.8,
West Freugh,07/09/2019 18:00,13.3,10,,15.7,0,0,71,,310,Dry,1027,,45,,,,8.3,
West Freugh,07/09/2019 19:00,11.7,8,,,0,,79,,310,Dry,1028,0,50,,,,8.3,
West Freugh,07/09/2019 20:00,8.7,3,,,0,,88,,320,Dry,1028,0,45,,,,6.9,
West Freugh,07/09/2019 21:00,6.2,2,,,0,,90,,10,Dry,1028,0,40,,,,4.8,
West Freugh,07/09/2019 22:00,6.7,2,,,0,,95,,300,Dry,1028,0,12,,,,6,
West Freugh,07/09/2019 23:00,6.6,6,,,0,,96,,290,Dry,1027,,29,,,,6.1,
West Freugh,08/09/2019 00:00,4.3,5,,,0,0,95,,290,Dry,1027,,30,,,,3.6,
West Freugh,08/09/2019 01:00,4.2,5,,,0,,96,,20,Drizzle,1027,,11,,,,3.7,
West Freugh,08/09/2019 02:00,4.8,3,,,0,,97,,10,Dry,1026,6,17,,,,4.5,
West Freugh,08/09/2019 03:00,7,1,,,0,,98,,40,Dry,1026,8,35,,,,6.8,
West Freugh,08/09/2019 04:00,6.8,2,,,0,,98,,20,Dry,1026,6,20,,,,6.6,
West Freugh,08/09/2019 05:00,8,1,,,0,,98,,140,Dry,1025,8,40,,,,7.8,
West Freugh,08/09/2019 06:00,8.6,2,3.4,,0,0,98,,50,Dry,1025,8,40,,,,8.4,
West Freugh,08/09/2019 07:00,9.3,0,,,0,,98,,0,Dry,1025,8,40,,,,9.1,
West Freugh,08/09/2019 08:00,11.3,3,,,0,,96,,110,Dry,1024,8,50,,,,10.8,
West Freugh,08/09/2019 09:00,13.1,3,,,0,,90,,100,Dry,1024,7,23,,,,11.5,
West Freugh,08/09/2019 10:00,14.7,9,,,0,,78,,190,Dry,1024,7,50,,,,11,
West Freugh,08/09/2019 11:00,15,9,,,0,,73,,210,Dry,1023,6,35,,,,10.4,
West Freugh,08/09/2019 12:00,15.8,9,,,0,0,78,,160,Dry,1022,7,40,,,,12,
West Freugh,08/09/2019 13:00,14.1,10,,,0,,82,,200,Dry,1022,8,30,,,,11.1,
West Freugh,08/09/2019 14:00,13.5,8,,,0,,87,,160,Dry,1021,8,20,,,,11.4,
West Freugh,08/09/2019 15:00,13.8,9,,,0,,88,,190,Dry,1020,8,11,,,,12,
West Freugh,08/09/2019 16:00,13.5,8,,,0,,90,,190,Dry,1020,7,9,,,,12,
West Freugh,08/09/2019 17:00,13.4,6,,,0,,93,,160,Rain,1019,8,45,,,,12.3,
West Freugh,08/09/2019 18:00,13.2,8,,16.5,0.2,0.2,96,,160,Light drizzle,1018,8,13,,,,12.6,
West Freugh,08/09/2019 19:00,13.4,6,,,0,,91,,150,Drizzle,1018,7,45,,,,12.1,
West Freugh,08/09/2019 20:00,13.3,5,,,0,,93,,200,Light drizzle,1017,8,4,,,,12.2,
West Freugh,08/09/2019 21:00,13.7,5,,,0,,94,,150,Rain,1016,2,30,,,,12.8,
West Freugh,08/09/2019 22:00,13.7,9,,,0,,93,,180,Dry,1015,8,16,,,,12.7,
West Freugh,08/09/2019 23:00,13.8,8,,,0.2,,95,,170,Moderate drizzle,1014,8,4,,,,13.1,
West Freugh,09/09/2019 00:00,13.5,9,,,1.4,2,97,,180,Moderate rain,1013,7,3,,,,13.1,
West Freugh,09/09/2019 01:00,13.6,8,,,3.2,,98,,180,Moderate rain,1012,7,4,,,,13.4,
West Freugh,09/09/2019 02:00,13.5,10,,,6.6,,98,,210,Moderate rain,1011,8,9,,,,13.2,
West Freugh,09/09/2019 03:00,13.4,7,,,2.2,,98,,230,Moderate rain,1011,8,12,,,,13.1,
West Freugh,09/09/2019 04:00,13,3,,,1.4,,97,,280,Moderate rain,1010,7,9,,,,12.6,
West Freugh,09/09/2019 05:00,12.5,2,,,1.6,,97,,70,Moderate rain,1009,8,5,,,,12.1,
West Freugh,09/09/2019 06:00,12,3,12,,0.6,15,98,,160,Light rain,1009,8,5,,,,11.7,
West Freugh,09/09/2019 07:00,12.7,1,,,0.4,,98,,320,Light rain,1009,8,7,,,,12.5,
West Freugh,09/09/2019 08:00,12.6,3,,,0.2,,98,,20,Moderate rain,1009,8,11,,,,12.4,
West Freugh,09/09/2019 09:00,13.4,1,,,0.6,,96,,340,Light rain,1009,8,30,,,,12.9,
West Freugh,09/09/2019 10:00,14.5,2,,,0,,86,,300,Drizzly rain,1009,8,30,,,,12.3,
West Freugh,09/09/2019 11:00,12.8,13,,,0.4,,96,,320,Light drizzle,1010,7,8,,,,12.2,
West Freugh,09/09/2019 12:00,13.4,14,,,0,2,88,,320,Drizzle,1010,8,45,,,,11.6,
West Freugh,09/09/2019 13:00,14.5,14,,,0,,78,,330,Dry,1010,8,45,,,,10.8,
West Freugh,09/09/2019 14:00,14.7,17,,,0,,78,,330,Dry,1010,3,35,,,,11,
West Freugh,09/09/2019 15:00,15.3,17,,,0,,76,,320,Dry,1011,4,21,,,,11.2,
West Freugh,09/09/2019 16:00,13.9,15,,,0,,77,,320,Dry,1012,1,35,,,,10.1,
West Freugh,09/09/2019 17:00,14.2,15,,,0,,78,,320,Dry,1012,1,35,,,,10.6,
West Freugh,09/09/2019 18:00,13.3,12,,15.5,0,0,79,,330,Dry,1013,0,35,,,,9.9,
West Freugh,09/09/2019 19:00,12.5,9,,,0,,85,,320,Dry,1014,3,30,,,,10.1,
West Freugh,09/09/2019 20:00,12.5,13,,,0,,88,,320,Dry,1015,5,21,,,,10.7,
West Freugh,09/09/2019 21:00,12.6,15,,,0,,85,,320,Dry,1015,6,22,,,,10.3,
West Freugh,09/09/2019 22:00,12.4,14,,,0,,85,,320,Dry,1016,4,30,,,,10.1,
West Freugh,09/09/2019 23:00,11.9,10,,,0,,89,,300,Dry,1016,1,22,,,,10.3,
West Freugh,10/09/2019 00:00,12,10,,,0,0,88,,300,Dry,1016,1,26,,,,10.2,
West Freugh,10/09/2019 01:00,11.5,10,,,0,,89,,310,Dry,1017,7,25,,,,9.8,
West Freugh,10/09/2019 02:00,10.9,8,,,0,,91,,310,Dry,1017,1,23,,,,9.6,
West Freugh,10/09/2019 03:00,11,8,,,0,,90,,320,Dry,1017,5,18,,,,9.5,
West Freugh,10/09/2019 04:00,10.4,9,,,0,,92,,310,Dry,1017,1,18,,,,9.2,
West Freugh,10/09/2019 05:00,9.6,6,,,0,,92,,310,Dry,1018,1,17,,,,8.5,
West Freugh,10/09/2019 06:00,8,6,8,,0,0,93,,270,Dry,1018,0,19,,,,7,
West Freugh,10/09/2019 07:00,8.8,3,,,0,,94,,270,Dry,1018,1,22,,,,8,
West Freugh,10/09/2019 08:00,12,1,,,0,,91,,200,Dry,1019,5,25,,,,10.7,
West Freugh,10/09/2019 09:00,13.7,8,,,0,,83,,300,Rain,1019,7,14,,,,11,
West Freugh,10/09/2019 10:00,13.8,8,,,0,,76,,290,Dry,1019,0,17,,,,9.7,
West Freugh,10/09/2019 11:00,14.5,6,,,0,,72,,270,Dry,1019,0,15,,,,9.6,
West Freugh,10/09/2019 12:00,14.4,10,,,0,0,66,,240,Dry,1019,0,24,,,,8.2,
West Freugh,10/09/2019 13:00,14.2,10,,,0,,67,,230,Dry,1018,,27,,,,8.3,
West Freugh,10/09/2019 14:00,15.2,14,,,0,,70,,210,Dry,1018,7,18,,,,9.8,
West Freugh,10/09/2019 15:00,13.9,14,,,0,,81,,190,Light shower,1017,8,16,,,,10.8,
West Freugh,10/09/2019 16:00,13.4,14,,,0,,81,,200,Rain,1016,8,11,,,,10.3,
West Freugh,10/09/2019 17:00,13.2,13,,,0,,83,,180,Rain,1015,7,21,,,,10.4,
West Freugh,10/09/2019 18:00,12.7,16,,15.6,0.2,0.2,89,,200,Light shower,1015,7,16,,,,11.1,
West Freugh,10/09/2019 19:00,12.7,15,,,0.2,,89,,170,Light rain,1014,8,10,,,,11,
West Freugh,10/09/2019 20:00,13,16,,,0.8,,91,,180,Light rain,1013,7,14,,,,11.6,
West Freugh,10/09/2019 21:00,13.5,24,,,0,,87,35,200,Rain,1012,7,19,,,,11.4,
West Freugh,10/09/2019 22:00,13.6,22,,,0.8,,94,33,200,Rain,1011,8,13,,,,12.7,
West Freugh,10/09/2019 23:00,14.1,22,,,0,,94,32,200,Rain,1010,7,12,,,,13.2,
West Freugh,11/09/2019 00:00,14.7,18,,,0,2,93,,210,Dry,1009,8,14,,,,13.7,
West Freugh,11/09/2019 01:00,15,22,,,0.4,,95,29,210,Light shower,1008,8,11,,,,14.3,
West Freugh,11/09/2019 02:00,15.1,18,,,0.4,,96,29,210,Rain,1008,8,12,,,,14.5,
West Freugh,11/09/2019 03:00,15.2,16,,,0.8,,97,,210,Light shower,1008,8,7,,,,14.8,
West Freugh,11/09/2019 04:00,16.2,17,,,0.2,,92,,230,Light drizzle,1007,7,7,,,,15,
West Freugh,11/09/2019 05:00,14.9,15,,,0.8,,87,,270,Rain,1008,6,50,,,,12.9,
West Freugh,11/09/2019 06:00,13.5,14,12.5,,0,2,85,,280,Dry,1009,1,24,,,,11.2,
West Freugh,11/09/2019 07:00,13.4,10,,,0,,89,,240,Dry,1010,1,27,,,,11.7,
West Freugh,11/09/2019 08:00,14.4,15,,,0,,80,,260,Dry,1011,5,22,,,,11.1,
West Freugh,11/09/2019 09:00,15.1,16,,,0,,78,,270,Dry,1012,0,23,,,,11.3,
West Freugh,11/09/2019 10:00,15.6,15,,,0,,75,,260,Dry,1013,1,19,,,,11.2,
West Freugh,11/09/2019 11:00,16.7,14,,,0,,72,,260,Dry,1013,1,17,,,,11.8,
West Freugh,11/09/2019 12:00,15.8,22,,,0,0,77,29,240,Dry,1014,7,20,,,,11.8,
West Freugh,11/09/2019 13:00,16.1,15,,,0,,77,,250,Rain,1015,1,24,,,,12.2,
West Freugh,11/09/2019 14:00,16.3,16,,,0,,73,,260,Dry,1015,7,27,,,,11.5,
West Freugh,11/09/2019 15:00,15.7,15,,,0,,73,,280,Dry,1016,5,28,,,,11,
West Freugh,11/09/2019 16:00,16.5,12,,,0,,68,,290,Dry,1016,1,30,,,,10.7,
West Freugh,11/09/2019 17:00,15.4,9,,,0,,74,,270,Drizzly rain,1017,8,19,,,,10.9,
West Freugh,11/09/2019 18:00,14.6,10,,17.6,0,0,76,,280,Rain,1017,7,29,,,,10.5,
West Freugh,11/09/2019 19:00,13.9,7,,,0,,77,,280,Dry,1018,5,30,,,,10,
West Freugh,11/09/2019 20:00,13.1,6,,,0,,84,,240,Dry,1019,8,28,,,,10.6,
West Freugh,11/09/2019 21:00,13.2,6,,,0,,85,,260,Dry,1019,8,26,,,,10.8,
West Freugh,11/09/2019 22:00,13.4,7,,,0,,84,,240,Dry,1019,8,25,,,,10.8,
West Freugh,11/09/2019 23:00,13.5,10,,,0,,79,,250,Dry,1019,8,25,,,,10.1,
West Freugh,12/09/2019 00:00,12.8,6,,,0,0,86,,250,Dry,1020,,16,,,,10.6,
West Freugh,12/09/2019 01:00,13.2,8,,,0,,88,,220,Dry,1020,7,28,,,,11.3,
West Freugh,12/09/2019 02:00,13.3,10,,,0,,87,,220,Dry,1020,7,30,,,,11.3,
West Freugh,12/09/2019 03:00,13.6,12,,,0,,86,,220,Dry,1019,8,30,,,,11.4,
West Freugh,12/09/2019 04:00,13.5,9,,,0,,88,,200,Dry,1019,8,30,,,,11.6,
West Freugh,12/09/2019 05:00,13.6,8,,,0,,90,,200,Drizzly rain,1019,8,15,,,,12.1,
West Freugh,12/09/2019 06:00,13.4,7,12.6,,0.2,0.2,94,,190,Light rain,1019,8,5,,,,12.5,
West Freugh,12/09/2019 07:00,13.1,8,,,1.2,,97,,200,Light drizzle,1019,8,4,,,,12.7,
West Freugh,12/09/2019 08:00,13.4,7,,,0.8,,97,,170,Light drizzle,1019,8,3,,,,13,
West Freugh,12/09/2019 09:00,14.3,12,,,2.2,,98,,190,Moderate rain,1018,8,2,,,,14,
West Freugh,12/09/2019 10:00,14.9,16,,,2.2,,98,,200,Moderate rain,1018,8,4,,,,14.6,
West Freugh,12/09/2019 11:00,15.7,18,,,0.4,,97,,210,Light rain,1018,5,6,,,,15.3,
West Freugh,12/09/2019 12:00,16.1,16,,,0.2,7,96,,210,Light drizzle,1018,8,4,,,,15.6,
West Freugh,12/09/2019 13:00,15,13,,,0.6,,96,,320,Light drizzle,1019,8,5,,,,14.5,
West Freugh,12/09/2019 14:00,14.9,15,,,0.2,,94,,320,Rain,1020,8,22,,,,14.1,
West Freugh,12/09/2019 15:00,14.5,20,,,0,,85,,320,Rain,1022,4,50,,,,12.1,
West Freugh,12/09/2019 16:00,14.6,22,,,0,,80,30,300,Dry,1023,3,27,,,,11.3,
West Freugh,12/09/2019 17:00,14.3,20,,,0,,76,30,300,Dry,1024,,26,,,,10.2,
West Freugh,12/09/2019 18:00,13.4,16,,16.3,0,1,77,,300,Dry,1025,0,27,,,,9.5,
West Freugh,12/09/2019 19:00,12.2,13,,,0,,81,,310,Dry,1027,0,26,,,,9.2,
West Freugh,12/09/2019 20:00,11.8,9,,,0,,82,,310,Dry,1028,0,29,,,,9,
West Freugh,12/09/2019 21:00,11.5,8,,,0,,82,,280,Dry,1029,1,26,,,,8.7,
West Freugh,12/09/2019 22:00,10.5,7,,,0,,86,,270,Dry,1029,0,23,,,,8.3,
West Freugh,12/09/2019 23:00,10.9,9,,,0,,89,,280,Dry,1030,0,23,,,,9.2,
West Freugh,13/09/2019 00:00,9.9,9,,,0,0,90,,250,Dry,1031,,22,,,,8.4,
West Freugh,13/09/2019 01:00,9.1,6,,,0,,92,,220,Dry,1031,0,23,,,,7.9,
West Freugh,13/09/2019 02:00,9.4,6,,,0,,90,,260,Dry,1032,0,24,,,,7.9,
West Freugh,13/09/2019 03:00,10.3,9,,,0,,91,,270,Dry,1032,0,23,,,,8.9,
West Freugh,13/09/2019 04:00,8.1,1,,,0,,94,,70,Dry,1032,0,19,,,,7.3,
West Freugh,13/09/2019 05:00,6,5,,,0,,93,,300,Dry,1033,0,16,,,,5.1,
West Freugh,13/09/2019 06:00,7.6,5,5.5,,0,0,97,,170,Dry,1034,4,16,,,,7.3,
West Freugh,13/09/2019 07:00,9.7,7,,,0,,96,,260,Dry,1034,1,20,,,,9.2,
West Freugh,13/09/2019 08:00,12.2,12,,,0,,87,,240,Dry,1035,4,23,,,,10.2,
West Freugh,13/09/2019 09:00,13.3,10,,,0,,84,,240,Dry,1036,0,18,,,,10.7,
West Freugh,13/09/2019 10:00,13.5,12,,,0,,79,,260,Dry,1036,0,22,,,,10,
West Freugh,13/09/2019 11:00,13.8,12,,,0,,76,,260,Dry,1036,0,18,,,,9.8,
West Freugh,13/09/2019 12:00,15.5,10,,,0,0,69,,280,Dry,1036,1,30,,,,10,
West Freugh,13/09/2019 13:00,15.6,12,,,0,,66,,270,Dry,1037,0,22,,,,9.5,
West Freugh,13/09/2019 14:00,16.3,9,,,0,,60,,290,Dry,1036,0,30,,,,8.7,
West Freugh,13/09/2019 15:00,16.2,7,,,0,,61,,240,Dry,1036,0,35,,,,8.8,
West Freugh,13/09/2019 16:00,16.2,7,,,0,,64,,220,Dry,1036,0,22,,,,9.4,
West Freugh,13/09/2019 17:00,14.9,9,,,0,,68,,210,Dry,1036,0,27,,,,9.2,
West Freugh,13/09/2019 18:00,13.2,7,,16.7,0,0,80,,200,Dry,1036,0,23,,,,9.9,
West Freugh,13/09/2019 19:00,10.8,5,,,0,,86,,180,Dry,1036,0,27,,,,8.7,
West Freugh,13/09/2019 20:00,8.7,1,,,0,,92,,120,Dry,1036,,22,,,,7.5,
West Freugh,13/09/2019 21:00,8.2,2,,,0,,95,,70,Dry,1036,0,15,,,,7.5,
West Freugh,13/09/2019 22:00,8.1,1,,,0,,96,,200,Dry,1036,,16,,,,7.6,
West Freugh,13/09/2019 23:00,10.5,8,,,0,,98,,200,Dry,1035,0,20,,,,10.2,
West Freugh,14/09/2019 00:00,11.2,8,,,0,0,94,,200,Dry,1035,0,17,,,,10.4,
West Freugh,14/09/2019 01:00,11.5,7,,,0,,96,,190,Dry,1035,1,15,,,,10.9,
West Freugh,14/09/2019 02:00,11.5,8,,,0,,95,,200,Dry,1034,2,17,,,,10.8,
West Freugh,14/09/2019 03:00,11.4,9,,,0,,91,,200,Dry,1034,0,20,,,,10.1,
West Freugh,14/09/2019 04:00,11.2,8,,,0,,93,,170,Dry,1032,6,24,,,,10.2,
West Freugh,14/09/2019 05:00,12.2,8,,,0,,89,,190,Dry,1032,,28,,,,10.5,
West Freugh,14/09/2019 06:00,12.7,8,7.6,,0,0,86,,180,Dry,1031,8,27,,,,10.5,
West Freugh,14/09/2019 07:00,13.1,10,,,0,,84,,190,Dry,1031,8,29,,,,10.6,
West Freugh,14/09/2019 08:00,13.8,13,,,0,,80,,190,Dry,1031,5,24,,,,10.5,
West Freugh,14/09/2019 09:00,14.5,16,,,0,,80,,200,Dry,1030,6,24,,,,11.2,
West Freugh,14/09/2019 10:00,15.2,14,,,0,,76,,190,Dry,1029,8,23,,,,11.1,
West Freugh,14/09/2019 11:00,15.5,16,,,0,,72,,190,Dry,1029,7,35,,,,10.5,
West Freugh,14/09/2019 12:00,15.4,16,,,0,0,73,,190,Dry,1028,7,35,,,,10.6,
West Freugh,14/09/2019 13:00,16,20,,,0,,67,29,190,Dry,1027,3,30,,,,9.9,
West Freugh,14/09/2019 14:00,15.5,20,,,0,,71,,200,Dry,1026,2,25,,,,10.4,
West Freugh,14/09/2019 15:00,15.1,18,,,0,,71,29,200,Dry,1025,1,30,,,,10,
West Freugh,14/09/2019 16:00,15.1,17,,,0,,73,,200,Dry,1024,0,30,,,,10.5,
West Freugh,14/09/2019 17:00,15.2,13,,,0,,73,,190,Dry,1023,0,29,,,,10.6,
West Freugh,14/09/2019 18:00,15.3,15,,17.3,0,0,78,,200,Dry,1023,7,30,,,,11.5,
West Freugh,14/09/2019 19:00,15.2,10,,,0,,80,,190,Dry,1023,7,21,,,,11.8,
West Freugh,14/09/2019 20:00,15.7,14,,,0,,79,,210,Dry,1022,7,26,,,,12.2,
West Freugh,14/09/2019 21:00,15.4,10,,,0,,84,,220,Dry,1022,8,20,,,,12.8,
West Freugh,14/09/2019 22:00,15.9,14,,,0,,84,,230,Dry,1022,8,35,,,,13.3,
West Freugh,14/09/2019 23:00,15.6,17,,,0,,87,,240,Dry,1022,8,22,,,,13.6,
West Freugh,15/09/2019 00:00,12.7,14,,,0.4,0.4,96,,310,Light drizzle,1022,6,4,,,,12.1,
West Freugh,15/09/2019 01:00,12.6,12,,,0,,94,,300,Drizzle,1022,8,17,,,,11.8,
West Freugh,15/09/2019 02:00,12.6,8,,,0,,91,,280,Dry,1022,8,20,,,,11.2,
West Freugh,15/09/2019 03:00,13,12,,,0,,87,,300,Dry,1022,8,13,,,,11,
West Freugh,15/09/2019 04:00,12.9,13,,,0,,87,,300,Dry,1022,7,12,,,,10.9,
West Freugh,15/09/2019 05:00,12.6,13,,,0,,88,,290,Dry,1022,8,11,,,,10.7,
West Freugh,15/09/2019 06:00,12.6,8,12.4,,0,0,84,,290,Dry,1023,8,11,,,,10,
West Freugh,15/09/2019 07:00,12.7,7,,,0,,83,,290,Dry,1023,8,11,,,,10,
West Freugh,15/09/2019 08:00,13.2,8,,,0,,82,,290,Rain,1023,8,10,,,,10.2,
West Freugh,15/09/2019 09:00,13.9,8,,,0,,78,,320,Rain,1024,8,12,,,,10.2,
West Freugh,15/09/2019 10:00,13.8,10,,,0,,70,,300,Dry,1024,7,17,,,,8.5,
West Freugh,15/09/2019 11:00,13.7,10,,,0,,75,,300,Drizzly rain,1024,8,14,,,,9.4,
West Freugh,15/09/2019 12:00,13.1,12,,,0,0,78,,320,Light shower,1024,8,13,,,,9.5,
West Freugh,15/09/2019 13:00,13.4,8,,,0,,73,,310,Rain,1024,7,21,,,,8.7,
West Freugh,15/09/2019 14:00,13.2,7,,,0,,80,,270,Dry,1024,8,16,,,,9.9,
West Freugh,15/09/2019 15:00,13.6,9,,,0,,75,,310,Rain,1024,8,24,,,,9.3,
West Freugh,15/09/2019 16:00,14,7,,,0,,75,,310,Dry,1023,7,17,,,,9.7,
West Freugh,15/09/2019 17:00,13.2,7,,,0,,74,,310,Dry,1023,8,29,,,,8.8,
West Freugh,15/09/2019 18:00,12.7,5,,14.5,0,0,80,,280,Fog,1023,8,25,,,,9.5,
West Freugh,15/09/2019 19:00,12,6,,,0,,85,,270,Dry,1023,8,20,,,,9.6,
West Freugh,15/09/2019 20:00,11.6,6,,,0,,88,,270,Dry,1023,8,22,,,,9.8,
West Freugh,15/09/2019 21:00,11.4,6,,,0,,89,,280,Dry,1023,8,20,,,,9.8,
West Freugh,15/09/2019 22:00,11.2,1,,,0,,91,,310,Dry,1023,8,19,,,,9.9,
West Freugh,15/09/2019 23:00,11,1,,,0,,92,,40,Dry,1023,8,21,,,,9.9,
West Freugh,16/09/2019 00:00,11,2,,,0,0,94,,340,Dry,1023,8,18,,,,10.1,
West Freugh,16/09/2019 01:00,10.9,1,,,0,,94,,300,Dry,1023,8,17,,,,10.1,
West Freugh,16/09/2019 02:00,10.8,0,,,0,,94,,0,Dry,1023,8,18,,,,10,
West Freugh,16/09/2019 03:00,10.9,1,,,0,,95,,340,Dry,1023,8,15,,,,10.2,
West Freugh,16/09/2019 04:00,10.6,1,,,0,,96,,360,Dry,1022,8,17,,,,10.1,
West Freugh,16/09/2019 05:00,10.7,2,,,0,,96,,300,Fog,1022,8,15,,,,10.2,
West Freugh,16/09/2019 06:00,9,3,9,,0,0,94,,20,Dry,1023,4,18,,,,8.2,
West Freugh,16/09/2019 07:00,10.1,3,,,0,,98,,240,Dry,1023,8,16,,,,9.8,
West Freugh,16/09/2019 08:00,11.5,2,,,0,,94,,280,Dry,1023,8,16,,,,10.7,
West Freugh,16/09/2019 09:00,12,2,,,0,,91,,280,Rain,1024,8,15,,,,10.7,
West Freugh,16/09/2019 10:00,12.9,5,,,0,,86,,290,Rain,1024,7,26,,,,10.7,
West Freugh,16/09/2019 11:00,13.9,9,,,0,,80,,310,Dry,1024,6,28,,,,10.6,
West Freugh,16/09/2019 12:00,14.5,10,,,0,0,68,,290,Dry,1024,7,40,,,,8.7,
West Freugh,16/09/2019 13:00,14.8,13,,,0,,71,,300,Dry,1024,7,40,,,,9.8,
West Freugh,16/09/2019 14:00,15,14,,,0,,63,,310,Dry,1024,7,30,,,,8.2,
West Freugh,16/09/2019 15:00,14.5,16,,,0,,69,,310,Dry,1024,7,40,,,,9,
West Freugh,16/09/2019 16:00,13.7,14,,,0,,67,,310,Dry,1024,,40,,,,7.8,
West Freugh,16/09/2019 17:00,13.3,15,,,0,,73,,310,Dry,1024,5,30,,,,8.7,
West Freugh,16/09/2019 18:00,13,15,,16,0,0,73,,300,Dry,1024,6,30,,,,8.4,
West Freugh,16/09/2019 19:00,12.3,9,,,0,,74,,290,Dry,1025,5,30,,,,8,
West Freugh,16/09/2019 20:00,11.9,10,,,0,,73,,300,Dry,1024,4,40,,,,7.3,
West Freugh,16/09/2019 21:00,11.3,8,,,0,,77,,290,Dry,1025,5,35,,,,7.5,
West Freugh,16/09/2019 22:00,11.4,6,,,0,,82,,270,Dry,1025,7,40,,,,8.5,
West Freugh,16/09/2019 23:00,12.2,8,,,0,,79,,290,Dry,1025,7,25,,,,8.8,
West Freugh,17/09/2019 00:00,12.2,10,,,0,0,78,,310,Rain,1025,7,30,,,,8.6,
West Freugh,17/09/2019 01:00,10.4,9,,,0,,83,,290,Dry,1025,0,30,,,,7.8,
West Freugh,17/09/2019 02:00,11.4,9,,,0,,81,,300,Dry,1025,0,21,,,,8.4,
West Freugh,17/09/2019 03:00,11.7,9,,,0,,82,,300,Dry,1025,3,25,,,,8.9,
West Freugh,17/09/2019 04:00,11.6,13,,,0,,79,,320,Rain,1025,1,21,,,,8.2,
West Freugh,17/09/2019 05:00,9.9,6,,,0,,85,,310,Dry,1025,0,27,,,,7.5,
West Freugh,17/09/2019 06:00,9.5,3,9,,0,0,87,,290,Dry,1025,5,22,,,,7.6,
West Freugh,17/09/2019 07:00,11.8,8,,,0,,80,,330,Dry,1026,5,27,,,,8.5,
West Freugh,17/09/2019 08:00,12.8,8,,,0,,78,,320,Dry,1026,1,25,,,,9.1,
West Freugh,17/09/2019 09:00,12.9,7,,,0,,75,,350,Dry,1027,3,27,,,,8.6,
West Freugh,17/09/2019 10:00,14,13,,,0,,71,,330,Dry,1027,1,27,,,,9,
West Freugh,17/09/2019 11:00,14.6,16,,,0,,68,,320,Dry,1028,4,22,,,,8.8,
West Freugh,17/09/2019 12:00,,10,,,-0.2,,,,330,-,,6,,,,,,
West Freugh,17/09/2019 13:00,,9,,,-0.2,,,,330,Dry,,7,20,,,,,
West Freugh,17/09/2019 14:00,,12,,,-0.2,,,,320,Dry,,8,21,,,,,
West Freugh,17/09/2019 15:00,,10,,,-0.2,,,,320,Dry,,7,20,,,,,
West Freugh,17/09/2019 16:00,,9,,,-0.2,,,,330,Dry,,8,23,,,,,
West Freugh,17/09/2019 17:00,,8,,,-0.2,,,,330,Dry,,1,24,,,,,
West Freugh,17/09/2019 18:00,,7,,,-0.2,,,,320,Dry,,4,22,,,,,
West Freugh,17/09/2019 19:00,,7,,,-0.2,,,,310,Dry,,7,20,,,,,
West Freugh,17/09/2019 20:00,9.7,2,,,-0.2,,85,,300,Dry,1029,4,19,,,,7.4,
West Freugh,17/09/2019 21:00,8.4,6,,,0,,88,,300,Dry,1029,0,17,,,,6.6,
West Freugh,17/09/2019 22:00,6.8,3,,,0,,92,,30,Dry,1029,,21,,,,5.6,
West Freugh,17/09/2019 23:00,6.1,3,,,0,,94,,240,Dry,1029,3,18,,,,5.3,
West Freugh,18/09/2019 00:00,5.2,1,,,0,,93,,330,Dry,1029,,15,,,,4.3,
West Freugh,18/09/2019 01:00,6.8,3,,,0,,97,,30,Dry,1029,6,17,,,,6.5,
West Freugh,18/09/2019 02:00,7.8,1,,,0,,97,,320,Dry,1029,8,23,,,,7.5,
West Freugh,18/09/2019 03:00,8.2,0,,,0,,97,,0,Dry,1029,8,23,,,,7.9,
West Freugh,18/09/2019 04:00,8.3,0,,,0,,97,,0,Dry,1029,8,23,,,,8,
West Freugh,18/09/2019 05:00,8.7,3,,,0,,97,,40,Dry,1029,8,22,,,,8.4,
West Freugh,18/09/2019 06:00,9.1,2,,,0,,97,,290,Dry,1029,8,24,,,,8.8,
West Freugh,18/09/2019 07:00,9.6,1,,,0,,98,,50,Dry,1030,8,26,,,,9.3,
West Freugh,18/09/2019 08:00,11.7,2,,,0,,96,,120,Dry,1030,1,22,,,,11.2,
West Freugh,18/09/2019 09:00,12.9,3,,,0,,89,,120,Dry,1030,8,21,,,,11.2,
West Freugh,18/09/2019 10:00,13.7,7,,,0,,80,,240,Dry,1030,8,23,,,,10.5,
West Freugh,18/09/2019 11:00,14.5,5,,,0,,80,,260,Dry,1030,8,26,,,,11.2,
West Freugh,18/09/2019 12:00,15.6,6,,,0,0,73,,280,Dry,1030,8,40,,,,10.9,
West Freugh,18/09/2019 13:00,15.7,7,,,0,,69,,290,Dry,1030,8,30,,,,10.2,
West Freugh,18/09/2019 14:00,15.6,7,,,0,,68,,300,Dry,1030,8,30,,,,9.9,
West Freugh,18/09/2019 15:00,15.3,7,,,0,,74,,320,Dry,1030,8,30,,,,10.7,
West Freugh,18/09/2019 16:00,15.2,7,,,0,,74,,340,Dry,1030,5,35,,,,10.7,
West Freugh,18/09/2019 17:00,14.7,8,,,0,,76,,330,Dry,1030,0,35,,,,10.6,
West Freugh,18/09/2019 18:00,12.9,3,,16,0,0,86,,330,Dry,1030,0,29,,,,10.7,
West Freugh,18/09/2019 19:00,11,3,,,0,,92,,360,Dry,1030,0,15,,,,9.8,
West Freugh,18/09/2019 20:00,9.3,2,,,0,,92,,30,Haze,1031,,4,,,,8.2,
West Freugh,18/09/2019 21:00,7.9,2,,,0,,95,,350,Fog,1031,,5,,,,7.2,
West Freugh,18/09/2019 22:00,7.3,3,,,0,,97,,220,Fog,1031,1,11,,,,7,
West Freugh,18/09/2019 23:00,7.2,5,,,0,,97,,300,Fog,1031,0,6,,,,6.9,
West Freugh,19/09/2019 00:00,7.1,5,,,0,0,97,,360,Fog,1031,0,9,,,,6.8,
West Freugh,19/09/2019 01:00,6.6,1,,,0,,98,,10,Thickening fog,1031,0,1,,,,6.4,
West Freugh,19/09/2019 02:00,8.4,3,,,0,,98,,310,Fog,1031,7,13,,,,8.2,
West Freugh,19/09/2019 03:00,6.4,1,,,0,,97,,30,Fog,1031,3,1,,,,6.1,
West Freugh,19/09/2019 04:00,5.4,1,,,0,,98,,50,Thickening fog,1031,4,0,,,,5.2,
West Freugh,19/09/2019 05:00,5.3,2,,,0,,98,,250,Thickening fog,1031,5,0,,,,5.1,
West Freugh,19/09/2019 06:00,4.8,1,4.4,,0,0,98,,270,Fog,1031,9,0,,,,4.6,
West Freugh,19/09/2019 07:00,5.5,2,,,0,,99,,30,Thickening fog,1031,9,0,,,,5.4,
West Freugh,19/09/2019 08:00,10.7,1,,,0,,100,,360,Fog,1031,1,29,,,,10.7,
West Freugh,19/09/2019 09:00,14.1,2,,,0,,98,,140,Dry,1032,6,30,,,,13.9,
West Freugh,19/09/2019 10:00,15.4,6,,,0,,87,,150,Dry,1031,7,30,,,,13.3,
West Freugh,19/09/2019 11:00,16.2,7,,,0,,84,,140,Dry,1031,6,21,,,,13.6,
West Freugh,19/09/2019 12:00,17.2,6,,,0,0,77,,130,Dry,1031,2,23,,,,13.2,
West Freugh,19/09/2019 13:00,17.7,9,,,0,,73,,210,Dry,1031,0,18,,,,13,
West Freugh,19/09/2019 14:00,18.1,8,,,0,,72,,210,Dry,1030,0,26,,,,13.1,
West Freugh,19/09/2019 15:00,17.4,10,,,0,,65,,200,Dry,1030,0,22,,,,10.9,
West Freugh,19/09/2019 16:00,17,9,,,0,,68,,200,Dry,1030,0,25,,,,11.1,
West Freugh,19/09/2019 17:00,16.4,3,,,0,,70,,180,Dry,1030,0,35,,,,11.1,
West Freugh,19/09/2019 18:00,13.8,8,,18.3,0,0,80,,190,Dry,1029,,21,,,,10.5,
West Freugh,19/09/2019 19:00,11,1,,,0,,89,,120,Dry,1030,,13,,,,9.3,
West Freugh,19/09/2019 20:00,8.7,2,,,0,,90,,50,Haze,1030,0,10,,,,7.3,
West Freugh,19/09/2019 21:00,7.4,1,,,0,,94,,350,Fog,1030,0,3,,,,6.5,
West Freugh,19/09/2019 22:00,6.8,2,,,0,,95,,10,Fog,1030,,2,,,,6.2,
West Freugh,19/09/2019 23:00,6,1,,,0,,96,,10,Thickening fog,1029,1,0,,,,5.5,
West Freugh,20/09/2019 00:00,6.4,2,,,0,0,97,,300,Thickening fog,1029,6,0,,,,6.1,
West Freugh,20/09/2019 01:00,6.2,2,,,0,,98,,280,Fog,1028,7,0,,,,6,
West Freugh,20/09/2019 02:00,5.3,2,,,0,,97,,300,Fog,1028,8,0,,,,5,
West Freugh,20/09/2019 03:00,4.7,1,,,0,,97,,270,Fog,1028,8,0,,,,4.4,
West Freugh,20/09/2019 04:00,4.5,0,,,0,,98,,0,Fog thinning,1027,8,0,,,,4.3,
West Freugh,20/09/2019 05:00,5,3,,,0,,99,,70,Fog thinning,1026,4,0,,,,4.9,
West Freugh,20/09/2019 06:00,10.4,8,3.6,,0,0,100,,90,Thickening fog,1026,7,0,,,,10.4,
West Freugh,20/09/2019 07:00,11.3,7,,,0,,99,,80,Fog thinning,1026,8,1,,,,11.2,
West Freugh,20/09/2019 08:00,12.2,8,,,0,,100,,90,Fog,1026,8,4,,,,12.2,
West Freugh,20/09/2019 09:00,13.1,10,,,0,,100,,110,Misty,1026,8,7,,,,13.1,
West Freugh,20/09/2019 10:00,14.5,13,,,0,,94,,110,Misty,1025,8,9,,,,13.7,
West Freugh,20/09/2019 11:00,16.1,16,,,0,,84,,120,Haze,1025,1,9,,,,13.4,
West Freugh,20/09/2019 12:00,17.1,15,,,0,0,78,,120,Dry,1024,0,15,,,,13.4,
West Freugh,20/09/2019 13:00,17.2,18,,,0,,77,,110,Dry,1023,0,14,,,,13.3,
West Freugh,20/09/2019 14:00,18,17,,,0,,70,,110,Dry,1022,0,20,,,,12.5,
West Freugh,20/09/2019 15:00,17.4,20,,,0,,71,,120,Dry,1022,0,35,,,,12.1,
West Freugh,20/09/2019 16:00,17,12,,,0,,78,,130,Dry,1020,0,17,,,,13.2,
West Freugh,20/09/2019 17:00,16.9,10,,,0,,78,,110,Dry,1020,,21,,,,13.1,
West Freugh,20/09/2019 18:00,15.8,6,,18.1,0,0,81,,130,Dry,1019,,19,,,,12.6,
West Freugh,20/09/2019 19:00,14.9,7,,,0,,83,,100,Dry,1018,0,19,,,,12.1,
West Freugh,20/09/2019 20:00,15.7,10,,,0,,79,,100,Dry,1018,0,25,,,,12.2,
West Freugh,20/09/2019 21:00,15.9,14,,,0,,80,,100,Dry,1017,0,30,,,,12.6,
West Freugh,20/09/2019 22:00,15.9,17,,,0,,82,,120,Dry,1016,0,23,,,,12.9,
West Freugh,20/09/2019 23:00,15.8,18,,,0,,81,,120,Dry,1016,0,30,,,,12.6,
West Freugh,21/09/2019 00:00,15.2,17,,,0,0,83,,110,Dry,1016,,27,,,,12.4,
West Freugh,21/09/2019 01:00,15.2,18,,,0,,82,29,110,Dry,1015,0,18,,,,12.2,
West Freugh,21/09/2019 02:00,14.6,17,,,0,,83,29,120,Dry,1015,0,15,,,,11.9,
West Freugh,21/09/2019 03:00,14.2,18,,,0,,82,,120,Dry,1014,0,16,,,,11.2,
West Freugh,21/09/2019 04:00,14,17,,,0,,81,30,120,Dry,1014,0,15,,,,10.9,
West Freugh,21/09/2019 05:00,14,18,,,0,,79,,110,Dry,1013,0,15,,,,10.5,
West Freugh,21/09/2019 06:00,14,20,13.8,,0,0,78,30,110,Dry,1012,0,18,,,,10.3,
West Freugh,21/09/2019 07:00,14.5,16,,,0,,76,29,120,Dry,1012,,14,,,,10.4,
West Freugh,21/09/2019 08:00,15.3,18,,,0,,68,31,100,Dry,1011,0,27,,,,9.5,
West Freugh,21/09/2019 09:00,16.3,17,,,0,,65,,110,Dry,1011,0,29,,,,9.8,
West Freugh,21/09/2019 10:00,17.4,22,,,0,,63,32,110,Dry,1011,,23,,,,10.3,
West Freugh,21/09/2019 11:00,18.3,20,,,0,,56,,110,Dry,1010,0,30,,,,9.4,
West Freugh,21/09/2019 12:00,19,17,,,0,0,57,,100,Dry,1009,2,30,,,,10.3,
West Freugh,21/09/2019 13:00,19.7,20,,,0,,53,31,100,Dry,1008,0,30,,,,10,
West Freugh,21/09/2019 14:00,20.1,21,,,0,,51,31,110,Dry,1008,,30,,,,9.7,
West Freugh,21/09/2019 15:00,19.3,16,,,0,,56,29,110,Dry,1007,7,30,,,,10.5,
West Freugh,21/09/2019 16:00,18.6,12,,,0,,59,,100,Dry,1007,8,28,,,,10.6,
West Freugh,21/09/2019 17:00,18.8,14,,,0,,59,,100,Rain,1006,8,13,,,,10.7,
West Freugh,21/09/2019 18:00,18.5,10,,20.3,0,0,56,,90,Rain,1006,8,40,,,,9.8,
West Freugh,21/09/2019 19:00,17.8,7,,,0,,62,,80,Dry,1006,8,40,,,,10.5,
West Freugh,21/09/2019 20:00,17.7,9,,,0,,64,,70,Dry,1006,8,50,,,,10.9,
West Freugh,21/09/2019 21:00,17.3,12,,,0,,62,,90,Dry,1005,5,40,,,,10.1,
West Freugh,21/09/2019 22:00,17.7,14,,,0,,61,,90,Dry,1004,5,35,,,,10.2,
West Freugh,21/09/2019 23:00,17.4,14,,,0,,63,,80,Dry,1004,7,40,,,,10.4,
West Freugh,22/09/2019 00:00,16.9,13,,,0,0,67,,90,Dry,1004,2,35,,,,10.8,
West Freugh,22/09/2019 01:00,16.8,15,,,0,,71,,100,Light shower,1003,8,27,,,,11.6,
West Freugh,22/09/2019 02:00,16,10,,,0,,79,,110,Light shower,1003,8,12,,,,12.4,
West Freugh,22/09/2019 03:00,15.2,12,,,4.6,,86,,100,Drizzly rain,1003,7,17,,,,12.9,
West Freugh,22/09/2019 04:00,14.7,10,,,0.2,,90,,100,Rain,1002,8,19,,,,13.1,
West Freugh,22/09/2019 05:00,14.8,13,,,0,,90,,110,Dry,1001,8,19,,,,13.2,
West Freugh,22/09/2019 06:00,15.1,10,14.5,,0,5,85,,70,Dry,1000,8,30,,,,12.6,
West Freugh,22/09/2019 07:00,15.2,9,,,0,,86,,90,Light shower,1001,8,25,,,,13,
West Freugh,22/09/2019 08:00,15.9,14,,,0,,85,,100,Drizzly rain,1001,8,19,,,,13.4,
West Freugh,22/09/2019 09:00,15.9,17,,,0,,90,31,90,Light shower,1000,7,16,,,,14.3,
West Freugh,22/09/2019 10:00,17.4,13,,,0,,87,,90,Rain,1000,7,27,,,,15.3,
West Freugh,22/09/2019 11:00,18.6,17,,,0,,81,,110,Dry,1000,8,30,,,,15.4,
West Freugh,22/09/2019 12:00,17.1,17,,,0,0,88,29,120,Dry,1000,7,27,,,,15.1,
West Freugh,22/09/2019 13:00,16.5,14,,,0,,92,,120,Rain,1000,8,12,,,,15.2,
West Freugh,22/09/2019 14:00,15.9,10,,,0.6,,96,,120,Light shower,1000,7,5,,,,15.3,
West Freugh,22/09/2019 15:00,15.8,7,,,0.4,,96,,170,Moderate rain,1000,8,12,,,,15.2,
West Freugh,22/09/2019 16:00,15.4,7,,,1,,96,,180,Light rain,1001,7,8,,,,14.9,
West Freugh,22/09/2019 17:00,15.4,3,,,0.2,,96,,90,Light shower,1001,8,13,,,,14.9,
West Freugh,22/09/2019 18:00,15.1,6,,18.7,0,2,98,,120,Rain,1001,8,1,,,,14.8,
West Freugh,22/09/2019 19:00,14.7,5,,,0,,98,,80,Misty,1001,7,3,,,,14.4,
West Freugh,22/09/2019 20:00,13.1,6,,,0,,98,,90,Fog,1001,1,8,,,,12.8,
West Freugh,22/09/2019 21:00,13.9,7,,,0,,98,,90,Misty,1001,6,7,,,,13.7,
West Freugh,22/09/2019 22:00,14.8,7,,,0,,98,,90,Misty,1002,8,4,,,,14.6,
West Freugh,22/09/2019 23:00,15,9,,,0,,98,,120,Misty,1002,8,8,,,,14.7,
West Freugh,23/09/2019 00:00,14.9,10,,,0,0,98,,130,Dry,1002,6,26,,,,14.6,
West Freugh,23/09/2019 01:00,14.6,14,,,0,,94,,150,Dry,1002,5,25,,,,13.7,
West Freugh,23/09/2019 02:00,14.4,13,,,0,,94,,140,Dry,1002,7,28,,,,13.5,
West Freugh,23/09/2019 03:00,13.9,14,,,0,,95,,160,Dry,1002,8,18,,,,13.2,
West Freugh,23/09/2019 04:00,13.7,16,,,0,,96,,160,Dry,1002,8,23,,,,13.1,
West Freugh,23/09/2019 05:00,13.5,15,,,0,,96,,190,Drizzly rain,1002,8,4,,,,12.9,
West Freugh,23/09/2019 06:00,13,10,12.9,,0,0,96,,200,Rain,1003,7,35,,,,12.4,
West Freugh,23/09/2019 07:00,12.9,9,,,0,,94,,190,Dry,1004,8,45,,,,12.1,
West Freugh,23/09/2019 08:00,13,12,,,0,,91,,200,Dry,1004,7,35,,,,11.6,
West Freugh,23/09/2019 09:00,13.6,16,,,0,,89,,190,Dry,1005,8,28,,,,11.9,
West Freugh,23/09/2019 10:00,14.9,14,,,0,,84,,180,Dry,1005,3,27,,,,12.3,
West Freugh,23/09/2019 11:00,15.5,16,,,0,,73,,170,Dry,1005,6,35,,,,10.7,
West Freugh,23/09/2019 12:00,15.4,16,,,0,0,79,,160,Dry,1005,7,30,,,,11.8,
West Freugh,23/09/2019 13:00,16.4,16,,,0,,80,,150,Dry,1004,6,20,,,,13,
West Freugh,23/09/2019 14:00,16.6,15,,,0,,75,,140,Dry,1004,6,27,,,,12.3,
West Freugh,23/09/2019 15:00,16.2,21,,,0,,79,,130,Dry,1003,7,29,,,,12.7,
West Freugh,23/09/2019 16:00,15.6,17,,,0,,83,,120,Dry,1003,1,23,,,,12.8,
West Freugh,23/09/2019 17:00,15.3,20,,,0,,84,29,110,Light shower,1002,7,19,,,,12.7,
West Freugh,23/09/2019 18:00,15,21,,17.4,0,0,89,30,120,Rain,1001,1,14,,,,13.3,
West Freugh,23/09/2019 19:00,14.5,20,,,0.6,,93,33,120,Moderate shower,1000,7,7,,,,13.4,
West Freugh,23/09/2019 20:00,14.1,24,,,1.2,,97,37,110,Light rain,999,8,4,,,,13.7,
West Freugh,23/09/2019 21:00,14.7,22,,,0.8,,98,37,130,Moderate rain,999,8,4,,,,14.4,
West Freugh,23/09/2019 22:00,15.4,16,,,0.4,,96,31,150,Rain,999,8,9,,,,14.9,
West Freugh,23/09/2019 23:00,15.6,13,,,0,,97,,170,Moderate shower,998,7,4,,,,15.2,
West Freugh,24/09/2019 00:00,15.6,15,,,2,5,98,,180,Light shower,998,8,5,,,,15.3,
West Freugh,24/09/2019 01:00,15.8,14,,,0,,97,,170,Rain,998,4,5,,,,15.4,
West Freugh,24/09/2019 02:00,15.6,14,,,0,,98,,170,Rain,998,7,5,,,,15.3,
West Freugh,24/09/2019 03:00,15.7,16,,,0,,96,,180,Misty,998,2,6,,,,15.1,
West Freugh,24/09/2019 04:00,15.6,13,,,0,,96,,170,Misty,998,8,7,,,,15,
West Freugh,24/09/2019 05:00,15.5,12,,,0,,96,,170,Misty,998,8,5,,,,15,
West Freugh,24/09/2019 06:00,15.5,8,14,,0,0,97,,140,Misty,997,8,5,,,,15.1,
West Freugh,24/09/2019 07:00,15.4,10,,,0,,98,,130,Rain,997,7,9,,,,15.1,
West Freugh,24/09/2019 08:00,15.6,10,,,0,,98,,120,Rain,997,8,9,,,,15.3,
West Freugh,24/09/2019 09:00,15.9,13,,,0,,97,,110,Misty,997,8,8,,,,15.5,
West Freugh,24/09/2019 10:00,16.2,14,,,0,,95,,120,Misty,997,8,10,,,,15.5,
West Freugh,24/09/2019 11:00,16.2,14,,,0.2,,95,,110,Rain,996,8,11,,,,15.5,
West Freugh,24/09/2019 12:00,16.7,14,,,0,0.2,93,,120,Rain,996,8,15,,,,15.6,
West Freugh,24/09/2019 13:00,16.6,13,,,0,,94,,120,Dry,996,8,15,,,,15.7,
West Freugh,24/09/2019 14:00,16.8,13,,,0,,92,,120,Dry,995,7,19,,,,15.6,
West Freugh,24/09/2019 15:00,16.2,9,,,0,,93,,130,Drizzly rain,995,8,18,,,,15.1,
West Freugh,24/09/2019 16:00,16.5,8,,,0,,95,,150,Rain,995,8,10,,,,15.8,
West Freugh,24/09/2019 17:00,15.7,6,,,0,,94,,110,Drizzly rain,995,8,11,,,,14.9,
West Freugh,24/09/2019 18:00,15.2,6,,17.4,0.2,0.2,96,,120,Rain,995,8,11,,,,14.7,
West Freugh,24/09/2019 19:00,14.4,3,,,0,,96,,130,Dry,995,3,14,,,,13.9,
West Freugh,24/09/2019 20:00,14,2,,,0,,96,,130,Dry,995,8,16,,,,13.5,
West Freugh,24/09/2019 21:00,13.2,2,,,0,,97,,80,Thickening fog,995,7,0,,,,12.8,
West Freugh,24/09/2019 22:00,13.1,2,,,0,,98,,70,Fog,995,7,6,,,,12.8,
West Freugh,24/09/2019 23:00,13.2,0,,,0,,98,,0,Misty,995,8,5,,,,13,
West Freugh,25/09/2019 00:00,13.4,2,,,0,0,98,,310,Misty,995,8,5,,,,13.2,
West Freugh,25/09/2019 01:00,13.5,1,,,0,,98,,250,Misty,995,8,5,,,,13.3,
West Freugh,25/09/2019 02:00,13.7,1,,,0,,98,,210,Misty,995,8,8,,,,13.5,
West Freugh,25/09/2019 03:00,13.5,1,,,0,,98,,130,Misty,995,8,5,,,,13.3,
West Freugh,25/09/2019 04:00,13.8,2,,,0,,98,,210,Misty,995,8,5,,,,13.6,
West Freugh,25/09/2019 05:00,13.9,3,,,0,,98,,190,Misty,995,8,5,,,,13.7,
West Freugh,25/09/2019 06:00,13.8,5,12.6,,0,0,98,,210,Misty,996,8,3,,,,13.6,
West Freugh,25/09/2019 07:00,14,6,,,0.2,,98,,220,Rain,996,8,4,,,,13.8,
West Freugh,25/09/2019 08:00,14.1,8,,,0,,98,,230,Rain,996,8,4,,,,13.9,
West Freugh,25/09/2019 09:00,14.7,7,,,0,,98,,240,Misty,996,8,9,,,,14.4,
West Freugh,25/09/2019 10:00,15.7,6,,,0,,94,,230,Rain,997,8,10,,,,14.9,
West Freugh,25/09/2019 11:00,16.5,6,,,0,,89,,210,Dry,997,8,14,,,,14.7,
West Freugh,25/09/2019 12:00,16.1,8,,,0,0.2,91,,210,Haze,998,8,10,,,,14.8,
West Freugh,25/09/2019 13:00,16.4,9,,,0,,87,,150,Haze,998,8,8,,,,14.4,
West Freugh,25/09/2019 14:00,16.7,9,,,0,,86,,130,Dry,998,8,11,,,,14.4,
West Freugh,25/09/2019 15:00,16.5,7,,,0,,89,,130,Dry,998,6,15,,,,14.7,
West Freugh,25/09/2019 16:00,17.3,8,,,0,,87,,150,Dry,997,7,22,,,,15.2,
West Freugh,25/09/2019 17:00,16,6,,,0,,88,,160,Dry,997,7,35,,,,14.1,
West Freugh,25/09/2019 18:00,15.6,14,,17.7,0,0,89,,170,Dry,997,8,25,,,,13.9,
West Freugh,25/09/2019 19:00,15.2,14,,,0,,93,,160,Dry,996,8,18,,,,14.2,
West Freugh,25/09/2019 20:00,15.3,15,,,0,,93,,160,Dry,996,8,23,,,,14.3,
West Freugh,25/09/2019 21:00,15,15,,,0.2,,94,,160,Moderate shower,996,8,5,,,,14.2,
West Freugh,25/09/2019 22:00,14.9,16,,,0.6,,95,,150,Moderate rain,995,8,12,,,,14.2,
West Freugh,25/09/2019 23:00,15,16,,,1.2,,97,,140,Moderate rain,994,7,8,,,,14.6,
West Freugh,26/09/2019 00:00,15.2,17,,,0.4,2,97,,170,Light rain,993,8,7,,,,14.8,
West Freugh,26/09/2019 01:00,15.2,17,,,0.6,,97,,200,Rain,992,4,16,,,,14.8,
West Freugh,26/09/2019 02:00,14.6,14,,,0,,94,,200,Dry,992,6,17,,,,13.7,
West Freugh,26/09/2019 03:00,12.9,6,,,0,,90,,230,Dry,992,2,23,,,,11.4,
West Freugh,26/09/2019 04:00,12.5,8,,,0,,91,,230,Dry,993,2,18,,,,11.2,
West Freugh,26/09/2019 05:00,12,7,,,0,,92,,220,Dry,993,3,15,,,,10.9,
West Freugh,26/09/2019 06:00,13.2,12,11.9,,0,1,90,,220,Dry,993,7,19,,,,11.7,
West Freugh,26/09/2019 07:00,12.8,12,,,0,,89,,230,Moderate shower,993,7,7,,,,11.2,
West Freugh,26/09/2019 08:00,13.3,14,,,0,,90,,210,Rain,993,8,15,,,,11.7,
West Freugh,26/09/2019 09:00,13.3,14,,,0.8,,93,,210,Light rain,994,7,11,,,,12.2,
West Freugh,26/09/2019 10:00,13.6,15,,,0,,89,,200,Light rain,994,7,17,,,,11.9,
West Freugh,26/09/2019 11:00,14.9,16,,,0,,81,,210,Rain,994,8,21,,,,11.8,
West Freugh,26/09/2019 12:00,14.7,16,,,0,0.8,86,,200,Light shower,994,8,20,,,,12.4,
West Freugh,26/09/2019 13:00,15.2,16,,,0,,83,,200,Rain,994,8,19,,,,12.4,
West Freugh,26/09/2019 14:00,15.5,21,,,0,,79,29,200,Dry,994,8,17,,,,12,
West Freugh,26/09/2019 15:00,15,21,,,0,,81,30,200,Dry,994,8,17,,,,11.8,
West Freugh,26/09/2019 16:00,14.6,16,,,0,,85,30,190,Dry,994,7,18,,,,12.2,
West Freugh,26/09/2019 17:00,13.8,17,,,0.4,,88,,190,Rain,993,3,30,,,,11.9,
West Freugh,26/09/2019 18:00,13.9,8,,15.9,0.8,1.2,94,,180,Rain,993,3,13,,,,13.1,
West Freugh,26/09/2019 19:00,11.6,17,,,7,,94,45,230,Moderate shower,993,1,9,,,,10.7,
West Freugh,26/09/2019 20:00,10.6,7,,,0,,95,,180,Rain,993,5,35,,,,9.9,
West Freugh,26/09/2019 21:00,13.3,15,,,0,,93,,210,Dry,994,7,21,,,,12.3,
West Freugh,26/09/2019 22:00,12.8,17,,,0,,87,,220,Rain,994,7,30,,,,10.8,
West Freugh,26/09/2019 23:00,12.5,17,,,0,,89,,230,Drizzly rain,995,8,13,,,,10.8,
West Freugh,27/09/2019 00:00,12.1,14,,,0.2,7,89,,230,Rain,995,6,25,,,,10.4,
West Freugh,27/09/2019 01:00,12.2,12,,,0,,88,,230,Dry,995,5,30,,,,10.4,
West Freugh,27/09/2019 02:00,11.9,9,,,0,,89,,220,Dry,995,7,20,,,,10.2,
West Freugh,27/09/2019 03:00,11.4,8,,,0,,91,,220,Dry,995,7,20,,,,10.1,
West Freugh,27/09/2019 04:00,11,6,,,0,,91,,220,Dry,994,7,21,,,,9.7,
West Freugh,27/09/2019 05:00,10.7,6,,,0,,94,,210,Dry,994,1,19,,,,9.8,
West Freugh,27/09/2019 06:00,11.4,6,10.2,,0.6,1,96,,170,Light rain,994,6,11,,,,10.9,
West Freugh,27/09/2019 07:00,11.2,2,,,0.6,,96,,170,Moderate rain,993,1,8,,,,10.7,
West Freugh,27/09/2019 08:00,11.1,5,,,6.4,,96,,180,Moderate rain,993,1,3,,,,10.6,
West Freugh,27/09/2019 09:00,11.4,5,,,4.4,,98,,320,Moderate rain,993,5,4,,,,11.1,
West Freugh,27/09/2019 10:00,12,6,,,0.2,,98,,310,Rain,993,8,40,,,,11.7,
West Freugh,27/09/2019 11:00,13,9,,,0,,90,,310,Dry,993,7,50,,,,11.5,
West Freugh,27/09/2019 12:00,13.1,7,,,0,12,90,,300,Rain,994,8,30,,,,11.6,
West Freugh,27/09/2019 13:00,13.9,13,,,0,,82,,300,Dry,994,6,45,,,,11,
West Freugh,27/09/2019 14:00,14.8,14,,,0,,77,,300,Dry,995,6,50,,,,10.9,
West Freugh,27/09/2019 15:00,14.6,12,,,0,,74,,270,Dry,996,5,50,,,,10.2,
West Freugh,27/09/2019 16:00,13.1,8,,,0.2,,88,,260,Light shower,996,7,25,,,,11.2,
West Freugh,27/09/2019 17:00,13.8,6,,,0,,84,,260,Rain,997,8,35,,,,11.3,
West Freugh,27/09/2019 18:00,11.3,7,,15.1,0,0,89,,250,Rain,997,1,45,,,,9.7,
West Freugh,27/09/2019 19:00,11.5,6,,,0,,89,,240,Dry,997,7,45,,,,9.9,
West Freugh,27/09/2019 20:00,12,7,,,0,,91,,230,Light shower,998,1,40,,,,10.7,
West Freugh,27/09/2019 21:00,12.5,14,,,0,,88,,250,Rain,998,7,22,,,,10.6,
West Freugh,27/09/2019 22:00,12,15,,,0.2,,90,,240,Moderate shower,998,7,13,,,,10.5,
West Freugh,27/09/2019 23:00,11.8,13,,,0.4,,92,,230,Light rain,998,7,13,,,,10.7,
West Freugh,28/09/2019 00:00,11.3,7,,,1.2,2,93,,230,Moderate rain,998,8,18,,,,10.3,
West Freugh,28/09/2019 01:00,11,5,,,5.6,,96,,60,Moderate rain,997,6,6,,,,10.5,
West Freugh,28/09/2019 02:00,12.7,14,,,3,,97,,220,Light rain,996,8,22,,,,12.3,
West Freugh,28/09/2019 03:00,10.5,7,,,0.6,,96,,300,Light shower,996,7,20,,,,9.9,
West Freugh,28/09/2019 04:00,10.2,5,,,0,,95,,320,Rain,997,8,40,,,,9.5,
West Freugh,28/09/2019 05:00,8.8,5,,,0,,96,,310,Dry,998,5,40,,,,8.2,
West Freugh,28/09/2019 06:00,9.9,6,8.2,,0,9,98,,310,Drizzly rain,999,6,4,,,,9.6,
West Freugh,28/09/2019 07:00,10.7,5,,,0.2,,97,,280,Drizzly rain,1000,6,40,,,,10.3,
West Freugh,28/09/2019 08:00,12.4,10,,,0,,92,,280,Rain,1000,7,30,,,,11.2,
West Freugh,28/09/2019 09:00,12.8,13,,,0,,91,,270,Rain,1002,1,30,,,,11.4,
West Freugh,28/09/2019 10:00,14,13,,,0,,85,,290,Dry,1002,4,35,,,,11.6,
West Freugh,28/09/2019 11:00,13.9,12,,,0,,80,,280,Dry,1003,5,50,,,,10.6,
West Freugh,28/09/2019 12:00,15.1,9,,,0,0.2,76,,280,Dry,1003,3,40,,,,11,
West Freugh,28/09/2019 13:00,14.8,10,,,0,,77,,260,Dry,1003,0,45,,,,10.9,
West Freugh,28/09/2019 14:00,15.4,6,,,0,,75,,260,Dry,1003,6,45,,,,11,
West Freugh,28/09/2019 15:00,15.2,7,,,0,,71,,210,Dry,1003,3,45,,,,10.1,
West Freugh,28/09/2019 16:00,14.7,5,,,0,,72,,180,Dry,1003,0,45,,,,9.9,
West Freugh,28/09/2019 17:00,13.9,7,,,0,,82,,140,Dry,1002,2,45,,,,11,
West Freugh,28/09/2019 18:00,13.5,7,,16.6,0,0,84,,160,Dry,1002,7,50,,,,10.9,
West Freugh,28/09/2019 19:00,13.3,7,,,0,,84,,130,Dry,1002,8,50,,,,10.8,
West Freugh,28/09/2019 20:00,13.1,7,,,0,,87,,100,Drizzly rain,1001,8,17,,,,11.1,
West Freugh,28/09/2019 21:00,12.4,9,,,0,,89,,70,Rain,1000,8,50,,,,10.7,
West Freugh,28/09/2019 22:00,11.9,9,,,0.2,,92,,70,Drizzly rain,999,8,4,,,,10.8,
West Freugh,28/09/2019 23:00,11.5,7,,,0.8,,94,,90,Moderate shower,998,8,11,,,,10.7,
West Freugh,29/09/2019 00:00,11.6,8,,,2,3,97,,70,Light shower,998,8,5,,,,11.2,
West Freugh,29/09/2019 01:00,11.4,15,,,1.4,,97,,70,Moderate rain,997,8,13,,,,11,
West Freugh,29/09/2019 02:00,11.1,13,,,2.2,,96,,60,Moderate rain,996,8,5,,,,10.5,
West Freugh,29/09/2019 03:00,11.2,9,,,2.2,,95,,60,Moderate rain,995,8,14,,,,10.5,
West Freugh,29/09/2019 04:00,11.1,10,,,1.6,,94,,50,Moderate rain,994,1,26,,,,10.2,
West Freugh,29/09/2019 05:00,11,9,,,0.6,,92,,40,Light rain,994,8,30,,,,9.9,
West Freugh,29/09/2019 06:00,11,8,10.9,,0,8,92,,20,Light rain,994,8,45,,,,9.9,
West Freugh,29/09/2019 07:00,10.7,5,,,0.2,,92,,350,Rain,994,,50,,,,9.5,
West Freugh,29/09/2019 08:00,11.6,8,,,0,,89,,340,Dry,995,8,50,,,,9.9,
West Freugh,29/09/2019 09:00,12.2,8,,,0,,86,,350,Dry,996,8,45,,,,10,
West Freugh,29/09/2019 10:00,13.3,16,,,0,,84,,10,Dry,996,6,45,,,,10.8,
West Freugh,29/09/2019 11:00,14.9,12,,,0,,81,,340,Dry,997,5,45,,,,11.8,
West Freugh,29/09/2019 12:00,14.8,13,,,0,0.2,79,,330,Dry,998,4,35,,,,11.3,
West Freugh,29/09/2019 13:00,15.8,13,,,0,,74,,350,Dry,999,1,45,,,,11.2,
West Freugh,29/09/2019 14:00,15.1,10,,,0,,77,,330,Dry,1000,7,50,,,,11.2,
West Freugh,29/09/2019 15:00,15.2,10,,,0,,77,,320,Dry,1001,8,45,,,,11.2,
West Freugh,29/09/2019 16:00,15.5,13,,,0,,74,,320,Dry,1001,7,40,,,,11,
West Freugh,29/09/2019 17:00,14,10,,,0,,83,,330,Dry,1002,7,45,,,,11.2,
West Freugh,29/09/2019 18:00,13.6,9,,16.2,0,0,87,,310,Dry,1003,8,45,,,,11.5,
West Freugh,29/09/2019 19:00,12.2,7,,,0,,89,,300,Dry,1004,5,40,,,,10.6,
West Freugh,29/09/2019 20:00,12.5,6,,,0,,94,,280,Dry,1005,7,29,,,,11.6,
West Freugh,29/09/2019 21:00,12.8,9,,,0,,88,,310,Dry,1005,8,40,,,,10.9,
West Freugh,29/09/2019 22:00,11.9,5,,,0,,91,,290,Dry,1006,7,35,,,,10.5,
West Freugh,29/09/2019 23:00,12.5,6,,,0,,91,,290,Rain,1006,8,45,,,,11.1,
West Freugh,30/09/2019 00:00,11.8,7,,,0,0,94,,270,Dry,1007,,30,,,,10.9,
West Freugh,30/09/2019 01:00,10.1,3,,,0,,94,,270,Dry,1007,2,22,,,,9.3,
West Freugh,30/09/2019 02:00,8.7,3,,,0,,96,,250,Misty,1007,0,8,,,,8.2,
West Freugh,30/09/2019 03:00,9.8,6,,,0,,98,,300,Dry,1008,0,26,,,,9.5,
West Freugh,30/09/2019 04:00,9.6,5,,,0,,96,,280,Dry,1008,0,21,,,,9.1,
West Freugh,30/09/2019 05:00,8.6,3,,,0,,97,,290,Dry,1008,1,15,,,,8.2,
West Freugh,30/09/2019 06:00,7,2,7,,0,0,97,,270,Fog,1008,5,8,,,,6.6,
West Freugh,30/09/2019 07:00,7.5,2,,,0,,97,,30,Fog,1008,7,1,,,,7.2,
West Freugh,30/09/2019 08:00,11,1,,,0,,99,,120,Rain,1009,2,13,,,,10.9,
West Freugh,30/09/2019 09:00,14.7,1,,,0,,94,,70,Dry,1008,0,35,,,,13.8,
West Freugh,30/09/2019 10:00,14.1,3,,,0,,88,,140,Dry,1008,5,45,,,,12.3,
West Freugh,30/09/2019 11:00,15.2,3,,,0,,80,,200,Dry,1008,7,40,,,,11.9,
West Freugh,30/09/2019 12:00,14.6,6,,,0,0,81,,170,Rain,1008,3,40,,,,11.4,
West Freugh,30/09/2019 13:00,14.2,7,,,0,,84,,150,Dry,1008,6,40,,,,11.7,
West Freugh,30/09/2019 14:00,13.6,7,,,0,,87,,130,Dry,1006,,40,,,,11.6,
West Freugh,30/09/2019 15:00,13.4,8,,,0,,88,,130,Dry,1006,7,35,,,,11.5,
West Freugh,30/09/2019 16:00,13.1,8,,,0,,88,,110,Dry,1004,8,30,,,,11.3,
West Freugh,30/09/2019 17:00,12.9,12,,,0.2,,91,,110,Moderate shower,1003,8,14,,,,11.5,
West Freugh,30/09/2019 18:00,11.7,13,,15.4,4,4,89,,140,Moderate rain,1003,8,8,,,,10,
West Freugh,30/09/2019 19:00,10.8,10,,,3.2,,92,,100,Moderate rain,1002,7,20,,,,9.7,
West Freugh,30/09/2019 20:00,10.9,12,,,2,,94,,90,Moderate rain,1002,7,15,,,,10,
West Freugh,30/09/2019 21:00,10.3,10,,,0.6,,94,,70,Light rain,1001,7,30,,,,9.5,
West Freugh,30/09/2019 22:00,10.3,10,,,0.2,,95,,70,Rain,1001,7,22,,,,9.6,
West Freugh,30/09/2019 23:00,10.4,13,,,0,,92,,70,Drizzly rain,1000,8,45,,,,9.2,
West Freugh,01/10/2019 00:00,10,12,,,0,6,90,,60,Light shower,1000,1,50,,,,8.5,
West Freugh,01/10/2019 01:00,9.6,,,,0.2,,91,,,Light rain,999,8,12,,,,8.3,
West Freugh,01/10/2019 02:00,9.5,16,,,1.4,,91,,50,Light rain,999,8,18,,,,8.2,
West Freugh,01/10/2019 03:00,9.3,18,,,0.6,,91,,50,Light rain,998,8,11,,,,8,
West Freugh,01/10/2019 04:00,9.3,18,,,0.6,,89,30,50,Light rain,998,8,11,,,,7.6,
West Freugh,01/10/2019 05:00,9.5,18,,,0.6,,87,31,50,Light rain,998,8,30,,,,7.6,
West Freugh,01/10/2019 06:00,9.7,16,9.1,,0,3,82,,50,Rain,998,7,50,,,,6.8,
West Freugh,01/10/2019 07:00,8.9,15,,,0.4,,84,29,50,Light shower,999,8,24,,,,6.5,
West Freugh,01/10/2019 08:00,8.4,14,,,0.2,,87,,60,Light rain,1001,8,45,,,,6.5,
West Freugh,01/10/2019 09:00,8.4,6,,,1.2,,89,,360,Moderate rain,1002,8,24,,,,6.7,
West Freugh,01/10/2019 10:00,8.9,8,,,0.4,,86,,30,Light rain,1003,7,45,,,,6.8,
West Freugh,01/10/2019 11:00,9.8,7,,,0,,81,,30,-,1004,7,,,,,6.7,
West Freugh,01/10/2019 12:00,10.4,10,,,0,2,77,,40,-,1005,7,,,,,6.7,
West Freugh,01/10/2019 13:00,12.6,10,,,0,,70,,40,Dry,1005,3,50,,,,7.4,
West Freugh,01/10/2019 14:00,13.3,10,,,0,,68,,30,Dry,1006,5,30,,,,7.6,
West Freugh,01/10/2019 15:00,11.5,13,,,0,,68,,10,Dry,1007,8,50,,,,6,
West Freugh,01/10/2019 16:00,10.8,14,,,0,,65,,20,Dry,1008,5,45,,,,4.7,
West Freugh,01/10/2019 17:00,9.1,9,,,0,,69,,10,Dry,1009,1,45,,,,3.9,
West Freugh,01/10/2019 18:00,7.4,7,,13.4,0,0,74,,10,Dry,1010,,50,,,,3.2,
West Freugh,01/10/2019 19:00,5,3,,,0,,84,,30,Dry,1011,0,45,,,,2.6,
West Freugh,01/10/2019 20:00,3.5,3,,,0,,89,,270,Dry,1012,0,35,,,,1.9,
West Freugh,01/10/2019 21:00,2.4,2,,,0,,93,,360,Dry,1012,0,30,,,,1.5,
West Freugh,01/10/2019 22:00,2.2,2,,,0,,95,,310,Dry,1013,0,45,,,,1.6,
West Freugh,01/10/2019 23:00,2.3,3,,,0,,96,,290,Dry,1014,1,35,,,,1.8,
West Freugh,02/10/2019 00:00,1.7,2,,,0,0,96,,320,Dry,1015,5,40,,,,1.2,
West Freugh,02/10/2019 01:00,6.7,8,,,0,,95,,320,Dry,1015,1,45,,,,6.1,
West Freugh,02/10/2019 02:00,4.9,3,,,0,,88,,350,Dry,1016,2,50,,,,3.2,
West Freugh,02/10/2019 03:00,3.2,2,,,0,,88,,70,Dry,1016,1,50,,,,1.5,
West Freugh,02/10/2019 04:00,1.5,3,,,0,,93,,360,Dry,1016,0,50,,,,0.5,
West Freugh,02/10/2019 05:00,5.3,6,,,0,,86,,350,Dry,1016,0,50,,,,3.2,
West Freugh,02/10/2019 06:00,3.7,6,1.1,,0,0,85,,360,Dry,1017,0,50,,,,1.5,
West Freugh,02/10/2019 07:00,2.2,1,,,0,,91,,110,Dry,1018,,50,,,,1,
West Freugh,02/10/2019 08:00,5.9,1,,,0,,90,,300,Dry,1019,0,50,,,,4.5,
West Freugh,02/10/2019 09:00,9.4,8,,,0,,72,,340,Dry,1020,0,40,,,,4.7,
West Freugh,02/10/2019 10:00,10.2,12,,,0,,68,,350,Dry,1020,0,35,,,,4.6,
West Freugh,02/10/2019 11:00,10.9,13,,,0,,64,,320,Dry,1020,0,35,,,,4.5,
West Freugh,02/10/2019 12:00,11.2,13,,,0,0,63,,320,Dry,1021,0,29,,,,4.5,
West Freugh,02/10/2019 13:00,11.8,10,,,0,,63,,320,Dry,1020,0,45,,,,5,
West Freugh,02/10/2019 14:00,11.9,12,,,0,,58,,310,Dry,1021,0,40,,,,4.1,
West Freugh,02/10/2019 15:00,11.8,10,,,0,,57,,320,Dry,1021,,45,,,,3.7,
West Freugh,02/10/2019 16:00,11.7,8,,,0,,59,,320,Dry,1021,,30,,,,4,
West Freugh,02/10/2019 17:00,10.4,5,,,0,,66,,320,Dry,1021,,45,,,,4.4,
West Freugh,02/10/2019 18:00,7.3,6,,12.1,0,0,77,,280,Dry,1021,,30,,,,3.6,
West Freugh,02/10/2019 19:00,4.5,1,,,0,,85,,310,Dry,1022,1,29,,,,2.3,
West Freugh,02/10/2019 20:00,2.6,1,,,0,,92,,30,Dry,1022,1,30,,,,1.5,
West Freugh,02/10/2019 21:00,3,2,,,0,,95,,350,Dry,1022,4,40,,,,2.4,
West Freugh,02/10/2019 22:00,4.6,1,,,0,,97,,270,Dry,1021,8,45,,,,4.2,
West Freugh,02/10/2019 23:00,5.8,1,,,0,,97,,330,Dry,1021,8,45,,,,5.4,
West Freugh,03/10/2019 00:00,6.3,2,,,0,0,96,,40,Dry,1021,8,40,,,,5.8,
West Freugh,03/10/2019 01:00,6.3,1,,,0,,95,,60,Dry,1020,8,50,,,,5.7,
West Freugh,03/10/2019 02:00,6.3,1,,,0,,95,,330,Dry,1020,8,40,,,,5.6,
West Freugh,03/10/2019 03:00,5.4,2,,,0,,93,,60,Dry,1018,7,45,,,,4.5,
West Freugh,03/10/2019 04:00,6.7,8,,,0,,87,,80,Dry,1018,7,35,,,,4.8,
West Freugh,03/10/2019 05:00,6.5,7,,,0,,88,,80,Dry,1018,8,45,,,,4.7,
West Freugh,03/10/2019 06:00,7.2,10,2.2,,0,0,88,,70,Dry,1017,8,40,,,,5.5,
West Freugh,03/10/2019 07:00,6.6,8,,,0,,91,,70,Dry,1016,7,40,,,,5.3,
West Freugh,03/10/2019 08:00,7.9,14,,,0,,88,,90,Dry,1015,8,35,,,,6.1,
West Freugh,03/10/2019 09:00,9.9,17,,,0,,85,,100,Dry,1014,8,40,,,,7.5,
West Freugh,03/10/2019 10:00,11.1,23,,,0,,72,30,140,Dry,1013,8,35,,,,6.3,
West Freugh,03/10/2019 11:00,11.2,23,,,0,,71,33,130,Dry,1012,8,35,,,,6.3,
West Freugh,03/10/2019 12:00,11.2,23,,,0,0,79,33,120,Dry,1011,8,27,,,,7.7,
West Freugh,03/10/2019 13:00,11.2,24,,,0,,79,35,120,Dry,1010,3,25,,,,7.7,
West Freugh,03/10/2019 14:00,11.7,26,,,0,,82,38,130,Dry,1008,8,19,,,,8.9,
West Freugh,03/10/2019 15:00,11.9,26,,,0,,82,38,120,Rain,1007,1,16,,,,9,
West Freugh,03/10/2019 16:00,11.7,26,,,0.4,,85,40,120,Rain,1005,5,17,,,,9.3,
West Freugh,03/10/2019 17:00,11.1,28,,,0,,87,39,130,Light shower,1004,8,5,,,,9.1,
West Freugh,03/10/2019 18:00,10.9,26,,12.1,1.2,2,96,39,120,Moderate rain,1002,8,4,,,,10.3,
West Freugh,03/10/2019 19:00,11.3,30,,,1.2,,94,43,120,Moderate rain,1001,8,3,,,,10.5,
West Freugh,03/10/2019 20:00,11.4,28,,,4.8,,96,40,120,Moderate rain,1000,8,2,,,,10.9,
West Freugh,03/10/2019 21:00,11.9,25,,,5.6,,97,38,110,Moderate rain,999,8,2,,,,11.5,
West Freugh,03/10/2019 22:00,12.9,9,,,6.2,,97,36,140,Light rain,998,8,13,,,,12.5,
West Freugh,03/10/2019 23:00,12.3,3,,,0,,96,,180,Rain,998,8,17,,,,11.8,
West Freugh,04/10/2019 00:00,11.9,3,,,0,18,93,,220,Dry,998,7,20,,,,10.9,
West Freugh,04/10/2019 01:00,12.1,5,,,0,,95,,140,Dry,998,8,12,,,,11.4,
West Freugh,04/10/2019 02:00,12.4,8,,,0,,93,,200,Light shower,998,7,8,,,,11.4,
West Freugh,04/10/2019 03:00,12.1,7,,,1.2,,96,,180,Light rain,998,8,8,,,,11.6,
West Freugh,04/10/2019 04:00,12.1,8,,,0.2,,97,,180,Light rain,997,7,9,,,,11.7,
West Freugh,04/10/2019 05:00,12.1,5,,,1,,96,,160,Moderate rain,997,8,6,,,,11.6,
West Freugh,04/10/2019 06:00,12,6,10.9,,0.8,3,96,,150,Light rain,997,8,10,,,,11.5,
West Freugh,04/10/2019 07:00,10.3,12,,,0.2,,96,,70,Light drizzle,998,7,29,,,,9.8,
West Freugh,04/10/2019 08:00,10.5,13,,,0.6,,98,,80,Light rain,999,7,4,,,,10.2,
West Freugh,04/10/2019 09:00,11.4,14,,,0.2,,95,,70,Rain,999,8,50,,,,10.7,
West Freugh,04/10/2019 10:00,12.1,15,,,0,,91,,60,Dry,1001,5,45,,,,10.8,
West Freugh,04/10/2019 11:00,12.5,13,,,0,,88,,60,Dry,1002,3,45,,,,10.7,
West Freugh,04/10/2019 12:00,13.9,21,,,0,1,81,,70,Dry,1003,0,50,,,,10.7,
West Freugh,04/10/2019 13:00,14.8,13,,,0,,75,,70,Dry,1004,1,35,,,,10.6,
West Freugh,04/10/2019 14:00,14.5,9,,,0,,75,,60,Dry,1006,7,50,,,,10.3,
West Freugh,04/10/2019 15:00,14.9,10,,,0,,75,,70,Dry,1006,7,50,,,,10.7,
West Freugh,04/10/2019 16:00,14.6,10,,,0,,74,,60,Dry,1007,7,45,,,,10.2,
West Freugh,04/10/2019 17:00,12.9,8,,,0,,79,,40,Dry,1008,3,45,,,,9.5,
West Freugh,04/10/2019 18:00,10.4,5,,15.1,0,0,85,,50,Dry,1009,0,50,,,,8.1,
West Freugh,04/10/2019 19:00,9.8,6,,,0,,89,,60,Dry,1010,,50,,,,8.1,
West Freugh,04/10/2019 20:00,10.5,7,,,0,,86,,70,Dry,1011,6,50,,,,8.3,
West Freugh,04/10/2019 21:00,10.4,7,,,0,,85,,70,Dry,1011,6,45,,,,8.1,
West Freugh,04/10/2019 22:00,10.8,10,,,0,,84,,70,Dry,1012,7,50,,,,8.3,
West Freugh,04/10/2019 23:00,11,12,,,0,,84,,80,Dry,1012,8,50,,,,8.5,
West Freugh,05/10/2019 00:00,10.9,12,,,0,0,85,,80,Dry,1012,8,50,,,,8.6,
West Freugh,05/10/2019 01:00,10.6,9,,,0,,87,,80,Dry,1012,8,50,,,,8.6,
West Freugh,05/10/2019 02:00,10.6,10,,,0,,88,,80,Dry,1012,7,40,,,,8.7,
West Freugh,05/10/2019 03:00,10.7,8,,,0,,88,,80,Dry,1013,8,45,,,,8.8,
West Freugh,05/10/2019 04:00,10.5,10,,,0,,89,,70,Dry,1012,8,40,,,,8.8,
West Freugh,05/10/2019 05:00,10.7,9,,,0,,89,,80,Dry,1012,8,50,,,,9.1,
West Freugh,05/10/2019 06:00,10.2,9,9.4,,0,0,91,,70,Dry,1012,4,35,,,,8.9,
West Freugh,05/10/2019 07:00,10.6,10,,,0,,90,,70,Dry,1012,7,40,,,,9.1,
West Freugh,05/10/2019 08:00,10.7,13,,,0,,89,,80,Dry,1013,8,50,,,,9.1,
West Freugh,05/10/2019 09:00,11.5,10,,,0,,88,,100,Dry,1013,8,30,,,,9.7,
West Freugh,05/10/2019 10:00,12.3,18,,,0,,91,29,120,Rain,1012,8,16,,,,11,
West Freugh,05/10/2019 11:00,12.7,18,,,0,,92,30,120,Rain,1012,8,18,,,,11.5,
West Freugh,05/10/2019 12:00,12.9,21,,,0,0,90,29,130,Light shower,1012,8,11,,,,11.4,
West Freugh,05/10/2019 13:00,13.4,21,,,0.2,,90,30,130,Rain,1011,8,13,,,,11.9,
West Freugh,05/10/2019 14:00,13.6,20,,,0,,90,29,130,Rain,1011,8,12,,,,12,
West Freugh,05/10/2019 15:00,12.9,18,,,0.8,,96,29,130,Light shower,1010,8,3,,,,12.4,
West Freugh,05/10/2019 16:00,13,20,,,0.4,,97,,130,Light rain,1010,8,3,,,,12.6,
West Freugh,05/10/2019 17:00,13.2,18,,,0.8,,97,30,130,Moderate rain,1010,7,3,,,,12.8,
West Freugh,05/10/2019 18:00,13.3,20,,13.7,1,3,97,29,130,Light rain,1009,8,12,,,,12.9,
West Freugh,05/10/2019 19:00,13.3,21,,,1,,97,30,130,Moderate rain,1009,5,5,,,,12.9,
West Freugh,05/10/2019 20:00,13.4,22,,,3.2,,97,31,130,Moderate rain,1008,5,4,,,,13,
West Freugh,05/10/2019 21:00,13.3,21,,,3.4,,98,31,130,Moderate rain,1008,8,3,,,,13,
West Freugh,05/10/2019 22:00,13.3,22,,,7.6,,98,30,120,Moderate rain,1007,8,2,,,,13,
West Freugh,05/10/2019 23:00,13.3,21,,,7,,98,29,120,Moderate rain,1006,6,3,,,,13.1,
West Freugh,06/10/2019 00:00,13.1,21,,,7.8,30,98,31,130,Moderate rain,1005,8,2,,,,12.9,
West Freugh,06/10/2019 01:00,13,23,,,2.6,,98,31,120,Moderate rain,1004,8,5,,,,12.7,
West Freugh,06/10/2019 02:00,13.1,17,,,0.6,,98,31,100,Rain,1003,8,12,,,,12.8,
West Freugh,06/10/2019 03:00,12.1,15,,,4,,96,,310,Moderate rain,1004,7,6,,,,11.5,
West Freugh,06/10/2019 04:00,11.7,17,,,1.2,,94,30,290,Light rain,1004,7,17,,,,10.9,
West Freugh,06/10/2019 05:00,12.3,15,,,0,,91,,300,Rain,1005,,29,,,,10.9,
West Freugh,06/10/2019 06:00,11.9,10,11.7,,0,8,89,,310,Rain,1006,8,30,,,,10.3,
West Freugh,06/10/2019 07:00,11.6,12,,,0,,88,,310,Rain,1007,8,45,,,,9.7,
West Freugh,06/10/2019 08:00,12.2,12,,,0,,86,,310,Dry,1008,8,50,,,,10.1,
West Freugh,06/10/2019 09:00,12.1,13,,,0,,92,,320,Light shower,1008,8,23,,,,10.9,
West Freugh,06/10/2019 10:00,12.5,9,,,0,,88,,330,Drizzly rain,1009,1,45,,,,10.6,
West Freugh,06/10/2019 11:00,13,9,,,0,,81,,350,Rain,1010,8,50,,,,9.9,
West Freugh,06/10/2019 12:00,13.7,13,,,0,0,80,,330,Dry,1010,5,45,,,,10.5,
West Freugh,06/10/2019 13:00,12.9,14,,,0,,80,,320,Dry,1011,6,45,,,,9.7,
West Freugh,06/10/2019 14:00,13.8,9,,,0,,81,,330,Dry,1012,8,45,,,,10.6,
West Freugh,06/10/2019 15:00,12.9,12,,,0,,83,,320,Dry,1013,8,50,,,,10.1,
West Freugh,06/10/2019 16:00,13.1,8,,,0,,81,,330,Dry,1014,7,50,,,,10,
West Freugh,06/10/2019 17:00,11.6,6,,,0,,86,,310,Dry,1013,1,40,,,,9.4,
West Freugh,06/10/2019 18:00,9.9,5,,14.1,0,0,91,,270,Dry,1014,0,30,,,,8.6,
West Freugh,06/10/2019 19:00,10.8,5,,,0,,95,,80,Dry,1015,7,30,,,,10.1,
West Freugh,06/10/2019 20:00,11,7,,,0,,94,,90,Rain,1014,8,15,,,,10.2,
West Freugh,06/10/2019 21:00,10.2,8,,,0,,95,,100,Rain,1013,8,30,,,,9.5,
West Freugh,06/10/2019 22:00,10.3,8,,,0,,96,,80,Dry,1014,8,23,,,,9.7,
West Freugh,06/10/2019 23:00,11.3,14,,,0,,95,,110,Dry,1012,8,26,,,,10.6,
West Freugh,07/10/2019 00:00,12.7,15,,,0,0,89,,140,Dry,1013,8,50,,,,11,
West Freugh,07/10/2019 01:00,12.8,17,,,0,,86,,160,Dry,1012,1,30,,,,10.6,
West Freugh,07/10/2019 02:00,12.8,18,,,0.2,,90,,150,Moderate shower,1011,8,13,,,,11.3,
West Freugh,07/10/2019 03:00,12.8,18,,,0.6,,90,,160,Light rain,1010,8,13,,,,11.3,
West Freugh,07/10/2019 04:00,12,23,,,0.4,,86,35,170,Drizzly rain,1010,7,16,,,,9.8,
West Freugh,07/10/2019 05:00,12.6,25,,,0,,72,37,170,Rain,1009,8,20,,,,7.7,
West Freugh,07/10/2019 06:00,12.3,28,9.7,,0,1,74,41,170,Dry,1008,8,22,,,,7.9,
West Freugh,07/10/2019 07:00,11.8,30,,,0.2,,86,43,160,Light shower,1007,8,11,,,,9.7,
West Freugh,07/10/2019 08:00,11.7,28,,,0.2,,96,45,160,Moderate rain,1007,8,3,,,,11.2,
West Freugh,07/10/2019 09:00,12,23,,,0.6,,97,40,160,Light rain,1006,7,3,,,,11.6,
West Freugh,07/10/2019 10:00,12.5,26,,,0.2,,96,38,180,Light rain,1005,8,6,,,,12,
West Freugh,07/10/2019 11:00,13.7,21,,,0.2,,96,39,190,Rain,1005,8,13,,,,13.2,
West Freugh,07/10/2019 12:00,14.4,16,,,0,1,94,29,200,Dry,1004,8,12,,,,13.5,
West Freugh,07/10/2019 13:00,14.4,16,,,0,,88,,210,Dry,1004,,14,,,,12.6,
West Freugh,07/10/2019 14:00,15.4,17,,,0,,86,,210,Dry,1004,,11,,,,13.2,
West Freugh,07/10/2019 15:00,15.8,16,,,0,,76,,220,Dry,1003,,12,,,,11.7,
West Freugh,07/10/2019 16:00,14.2,17,,,0,,79,,210,Dry,1003,3,14,,,,10.8,
West Freugh,07/10/2019 17:00,14.2,16,,,0,,83,,210,Dry,1003,,13,,,,11.4,
West Freugh,07/10/2019 18:00,13.2,17,,16.1,0,0,78,,220,Dry,1003,,17,,,,9.6,
West Freugh,07/10/2019 19:00,12.5,14,,,0,,83,,220,Dry,1003,0,16,,,,9.7,
West Freugh,07/10/2019 20:00,12.5,15,,,0,,81,,220,Dry,1002,0,15,,,,9.4,
West Freugh,07/10/2019 21:00,12.4,15,,,0,,81,,220,Dry,1002,0,15,,,,9.4,
West Freugh,07/10/2019 22:00,12.3,16,,,0,,81,,230,Dry,1002,0,14,,,,9.3,
West Freugh,07/10/2019 23:00,12,16,,,0,,84,,230,Dry,1002,3,14,,,,9.4,
West Freugh,08/10/2019 00:00,12,16,,,0,0,84,,220,Dry,1001,4,13,,,,9.4,
West Freugh,08/10/2019 01:00,12.1,20,,,0,,83,29,220,Dry,1001,1,14,,,,9.4,
West Freugh,08/10/2019 02:00,11.8,18,,,0,,84,30,220,Dry,1000,0,15,,,,9.2,
West Freugh,08/10/2019 03:00,12.1,21,,,0,,84,29,220,Rain,1000,5,17,,,,9.5,
West Freugh,08/10/2019 04:00,12.2,23,,,0,,81,32,210,Dry,999,7,17,,,,9.2,
West Freugh,08/10/2019 05:00,12,21,,,0,,81,33,210,Dry,999,7,16,,,,8.9,
West Freugh,08/10/2019 06:00,11.1,18,11,,2.2,2,93,30,210,Moderate rain,998,8,3,,,,10.1,
West Freugh,08/10/2019 07:00,10.4,20,,,0.2,,83,36,240,Rain,998,3,20,,,,7.8,
West Freugh,08/10/2019 08:00,11.2,21,,,0,,77,31,230,Dry,998,3,18,,,,7.5,
West Freugh,08/10/2019 09:00,11.9,20,,,0,,75,33,220,Dry,998,2,17,,,,7.8,
West Freugh,08/10/2019 10:00,12.6,23,,,0,,72,33,220,Dry,998,3,16,,,,7.7,
West Freugh,08/10/2019 11:00,12.5,24,,,0,,74,35,220,Dry,997,6,17,,,,8.1,
West Freugh,08/10/2019 12:00,13.2,21,,,0,0.2,73,37,220,Dry,997,7,16,,,,8.5,
West Freugh,08/10/2019 13:00,13.6,22,,,0,,69,33,220,Dry,996,7,21,,,,8.2,
West Freugh,08/10/2019 14:00,13.5,22,,,0,,71,35,220,Dry,996,5,23,,,,8.5,
West Freugh,08/10/2019 15:00,13.2,21,,,0,,71,33,230,Dry,995,3,27,,,,8.2,
West Freugh,08/10/2019 16:00,11.3,18,,,0.8,,90,36,260,Moderate shower,995,7,18,,,,9.8,
West Freugh,08/10/2019 17:00,11.5,15,,,0,,84,,230,Rain,995,,30,,,,8.9,
West Freugh,08/10/2019 18:00,11.4,20,,14.4,0,0.8,85,29,230,Light shower,996,7,26,,,,9,
West Freugh,08/10/2019 19:00,11.4,17,,,0,,82,,230,Rain,996,8,24,,,,8.5,
West Freugh,08/10/2019 20:00,11.5,21,,,0,,81,31,230,Dry,996,7,21,,,,8.4,
West Freugh,08/10/2019 21:00,11.2,18,,,0,,82,31,240,Dry,996,7,19,,,,8.3,
West Freugh,08/10/2019 22:00,10.8,18,,,0,,83,29,240,Dry,996,7,19,,,,8.1,
West Freugh,08/10/2019 23:00,10.9,21,,,0,,83,30,240,Dry,996,7,19,,,,8.2,
West Freugh,09/10/2019 00:00,10.9,18,,,0,0,83,33,240,Dry,997,7,19,,,,8.3,
West Freugh,09/10/2019 01:00,10.7,18,,,0,,84,29,250,Dry,996,,22,,,,8.2,
West Freugh,09/10/2019 02:00,10.7,16,,,0,,83,,250,Dry,996,,16,,,,8.1,
West Freugh,09/10/2019 03:00,10.4,16,,,0,,83,29,250,Dry,996,5,16,,,,7.7,
West Freugh,09/10/2019 04:00,10,18,,,0,,85,,240,Dry,996,7,21,,,,7.6,
West Freugh,09/10/2019 05:00,9.8,17,,,0,,84,,230,Dry,996,7,19,,,,7.3,
West Freugh,09/10/2019 06:00,9.8,20,9.6,,0,0,82,,240,Dry,997,7,21,,,,7,
West Freugh,09/10/2019 07:00,9.5,16,,,0,,84,,240,Dry,997,8,21,,,,7,
West Freugh,09/10/2019 08:00,9.9,16,,,0,,83,,230,Dry,997,1,23,,,,7.2,
West Freugh,09/10/2019 09:00,10.6,17,,,0,,80,,240,Dry,997,6,21,,,,7.3,
West Freugh,09/10/2019 10:00,11,22,,,0,,77,29,240,Dry,997,7,22,,,,7.3,
West Freugh,09/10/2019 11:00,12.6,23,,,0,,73,33,250,Dry,997,6,29,,,,8,
West Freugh,09/10/2019 12:00,12.4,18,,,0,0,72,33,250,Dry,997,5,27,,,,7.6,
West Freugh,09/10/2019 13:00,12.3,21,,,0,,73,32,250,Dry,997,6,27,,,,7.8,
West Freugh,09/10/2019 14:00,11.8,17,,,0.2,,83,39,240,Rain,998,4,35,,,,9.1,
West Freugh,09/10/2019 15:00,11.9,17,,,0,,74,29,240,Dry,998,3,27,,,,7.6,
West Freugh,09/10/2019 16:00,12.3,16,,,0,,72,32,240,Rain,998,1,25,,,,7.5,
West Freugh,09/10/2019 17:00,10.2,13,,,0.2,,83,,260,Rain,998,1,20,,,,7.5,
West Freugh,09/10/2019 18:00,10.5,14,,13.4,0,0.4,81,,260,Dry,998,,30,,,,7.5,
West Freugh,09/10/2019 19:00,10.6,15,,,0,,82,29,250,Dry,998,5,30,,,,7.7,
West Freugh,09/10/2019 20:00,10.6,14,,,0,,83,,250,Dry,999,4,27,,,,7.9,
West Freugh,09/10/2019 21:00,11,16,,,0,,81,,250,Dry,999,8,26,,,,7.9,
West Freugh,09/10/2019 22:00,10.2,15,,,0,,83,,250,Dry,1000,3,21,,,,7.5,
West Freugh,09/10/2019 23:00,10.2,16,,,0,,83,,250,Dry,1000,1,17,,,,7.5,
West Freugh,10/10/2019 00:00,10.1,17,,,0,0,81,,260,Dry,1000,3,24,,,,7.1,
West Freugh,10/10/2019 01:00,10,17,,,0,,85,,250,Dry,1000,6,18,,,,7.6,
West Freugh,10/10/2019 02:00,10.6,17,,,0,,82,30,250,Dry,1001,7,17,,,,7.7,
West Freugh,10/10/2019 03:00,10.3,16,,,0,,82,,250,Dry,1001,6,19,,,,7.4,
West Freugh,10/10/2019 04:00,10.1,18,,,0,,82,,260,Dry,1001,0,22,,,,7.3,
West Freugh,10/10/2019 05:00,10.2,17,,,0,,83,,260,Dry,1002,7,18,,,,7.5,
West Freugh,10/10/2019 06:00,9.7,16,9.6,,0,0,85,,260,Dry,1003,2,18,,,,7.4,
West Freugh,10/10/2019 07:00,9.7,14,,,0,,87,,240,Dry,1003,7,18,,,,7.8,
West Freugh,10/10/2019 08:00,10.2,13,,,0,,86,,230,Dry,1004,3,21,,,,8.1,
West Freugh,10/10/2019 09:00,10.8,18,,,0,,85,,240,Dry,1004,6,18,,,,8.4,
West Freugh,10/10/2019 10:00,11.2,16,,,0,,87,,230,Light shower,1004,6,16,,,,9.2,
West Freugh,10/10/2019 11:00,11,13,,,0.8,,92,,210,Moderate rain,1003,8,8,,,,9.8,
West Freugh,10/10/2019 12:00,10.2,20,,,1.2,2,92,38,210,Light rain,1002,8,5,,,,9.1,
West Freugh,10/10/2019 13:00,11.7,17,,,0.2,,95,,190,Rain,1001,7,9,,,,11,
West Freugh,10/10/2019 14:00,13,23,,,0.2,,90,33,200,Dry,1000,8,19,,,,11.5,
West Freugh,10/10/2019 15:00,13.5,24,,,0,,90,33,200,Dry,999,1,18,,,,12,
West Freugh,10/10/2019 16:00,14,21,,,0,,86,36,200,Dry,998,7,20,,,,11.8,
West Freugh,10/10/2019 17:00,13.6,17,,,0,,81,,220,Dry,998,,16,,,,10.5,
West Freugh,10/10/2019 18:00,12.6,15,,14.2,0,0,85,29,210,Dry,998,2,12,,,,10.2,
West Freugh,10/10/2019 19:00,13.2,14,,,0,,83,,210,Dry,998,,13,,,,10.5,
West Freugh,10/10/2019 20:00,13.3,15,,,0,,81,,210,Dry,997,6,15,,,,10.2,
West Freugh,10/10/2019 21:00,12.8,17,,,0,,84,,210,Rain,997,6,16,,,,10.3,
West Freugh,10/10/2019 22:00,12.6,18,,,0,,88,30,220,Rain,997,7,14,,,,10.8,
West Freugh,10/10/2019 23:00,13.3,20,,,0,,85,33,220,Dry,997,5,17,,,,11,
West Freugh,11/10/2019 00:00,12,17,,,0,0,79,33,240,Dry,997,2,19,,,,8.6,
West Freugh,11/10/2019 01:00,11.5,15,,,0,,81,,230,Dry,997,,17,,,,8.4,
West Freugh,11/10/2019 02:00,11.3,16,,,0,,81,,230,Dry,998,5,14,,,,8.2,
West Freugh,11/10/2019 03:00,11.2,15,,,0,,81,,220,Dry,997,5,15,,,,8.2,
West Freugh,11/10/2019 04:00,11.1,15,,,0,,82,,220,Dry,997,4,15,,,,8.3,
West Freugh,11/10/2019 05:00,11.5,16,,,0,,81,,220,Dry,996,7,19,,,,8.4,
West Freugh,11/10/2019 06:00,11,17,10.8,,0,0,82,,230,Dry,996,4,18,,,,8.2,
West Freugh,11/10/2019 07:00,10.5,15,,,0,,82,,230,Dry,996,2,19,,,,7.7,
West Freugh,11/10/2019 08:00,10.9,12,,,0,,81,,230,Dry,996,0,25,,,,7.8,
West Freugh,11/10/2019 09:00,12.1,13,,,0,,77,,240,Dry,997,1,26,,,,8.2,
West Freugh,11/10/2019 10:00,12.5,17,,,0,,73,,240,Dry,997,1,24,,,,7.8,
West Freugh,11/10/2019 11:00,13.4,15,,,0,,73,,220,Dry,997,0,30,,,,8.7,
West Freugh,11/10/2019 12:00,13.8,16,,,0,0,65,35,240,Dry,997,3,28,,,,7.4,
West Freugh,11/10/2019 13:00,14,15,,,0,,66,,250,Dry,997,1,40,,,,7.8,
West Freugh,11/10/2019 14:00,12.9,20,,,0,,68,,240,Dry,997,4,35,,,,7.2,
West Freugh,11/10/2019 15:00,12.5,14,,,0.4,,80,31,230,Rain,997,4,27,,,,9.2,
West Freugh,11/10/2019 16:00,12.1,17,,,0,,77,,230,Light shower,997,2,30,,,,8.3,
West Freugh,11/10/2019 17:00,10.5,18,,,0.6,,79,32,240,Heavy shower,997,4,18,,,,7.1,
West Freugh,11/10/2019 18:00,11.1,17,,14.3,0.2,1,76,30,250,Rain,998,1,45,,,,7.2,
West Freugh,11/10/2019 19:00,11.1,15,,,0,,76,,230,Dry,998,0,35,,,,7.1,
West Freugh,11/10/2019 20:00,10.9,17,,,0,,76,,240,Dry,998,1,30,,,,7,
West Freugh,11/10/2019 21:00,10.9,23,,,0,,77,32,240,Dry,998,0,45,,,,7.1,
West Freugh,11/10/2019 22:00,10.3,14,,,0,,80,33,240,Dry,999,4,35,,,,7.1,
West Freugh,11/10/2019 23:00,10.6,17,,,0,,82,,240,Dry,999,5,40,,,,7.7,
West Freugh,12/10/2019 00:00,10.5,15,,,0,0,82,,260,Dry,1000,8,45,,,,7.6,
West Freugh,12/10/2019 01:00,9.8,13,,,0,,86,,260,Dry,1000,6,40,,,,7.7,
West Freugh,12/10/2019 02:00,9.3,9,,,0,,87,,260,Dry,1001,2,35,,,,7.4,
West Freugh,12/10/2019 03:00,8,7,,,0,,90,,230,Dry,1001,2,22,,,,6.6,
West Freugh,12/10/2019 04:00,7.7,6,,,0,,94,,230,Dry,1001,4,22,,,,6.8,
West Freugh,12/10/2019 05:00,7.8,9,,,0,,94,,230,Dry,1001,1,30,,,,6.9,
West Freugh,12/10/2019 06:00,8,7,7.4,,0,0,94,,240,Dry,1002,2,27,,,,7.2,
West Freugh,12/10/2019 07:00,7.8,6,,,0,,95,,240,Dry,1002,6,22,,,,7.1,
West Freugh,12/10/2019 08:00,8.8,7,,,0,,94,,220,Dry,1002,1,23,,,,7.9,
West Freugh,12/10/2019 09:00,11,6,,,0,,84,,240,Dry,1003,0,22,,,,8.5,
West Freugh,12/10/2019 10:00,11.4,10,,,0,,84,,220,Dry,1003,5,28,,,,8.8,
West Freugh,12/10/2019 11:00,12,10,,,0,,79,,230,Dry,1004,4,28,,,,8.6,
West Freugh,12/10/2019 12:00,13.5,10,,,0,0,75,,220,Dry,1004,2,35,,,,9.3,
West Freugh,12/10/2019 13:00,13.1,12,,,0,,70,,220,Dry,1003,3,50,,,,7.9,
West Freugh,12/10/2019 14:00,12.7,9,,,0,,73,,230,Dry,1003,2,50,,,,8,
West Freugh,12/10/2019 15:00,13.5,10,,,0,,74,,230,Dry,1003,6,30,,,,9,
West Freugh,12/10/2019 16:00,11.8,10,,,0,,85,,190,Dry,1003,1,30,,,,9.4,
West Freugh,12/10/2019 17:00,9.5,7,,,5.4,,92,,230,Rain,1003,8,50,,,,8.3,
West Freugh,12/10/2019 18:00,9.2,3,,14.3,0,5,94,,40,Drizzly rain,1003,8,40,,,,8.4,
West Freugh,12/10/2019 19:00,8.1,1,,,0,,95,,90,Rain,1003,7,30,,,,7.4,
West Freugh,12/10/2019 20:00,7.9,1,,,0,,96,,90,Dry,1003,5,24,,,,7.4,
West Freugh,12/10/2019 21:00,7.6,1,,,0,,97,,90,Misty,1003,5,7,,,,7.2,
West Freugh,12/10/2019 22:00,7,1,,,0,,97,,40,Fog,1003,7,6,,,,6.6,
West Freugh,12/10/2019 23:00,7.8,3,,,0,,99,,60,Dry,1003,4,27,,,,7.7,
West Freugh,13/10/2019 00:00,6.7,3,,,0,0,98,,100,Misty,1003,1,1,,,,6.5,
West Freugh,13/10/2019 01:00,7,3,,,0,,98,,70,Dry,1003,,26,,,,6.8,
West Freugh,13/10/2019 02:00,6.4,3,,,0,,98,,80,Dry,1002,4,45,,,,6.2,
West Freugh,13/10/2019 03:00,5.8,3,,,0,,97,,20,Dry,1002,3,40,,,,5.5,
West Freugh,13/10/2019 04:00,4.5,2,,,0,,97,,360,Dry,1002,1,15,,,,4.2,
West Freugh,13/10/2019 05:00,7.4,3,,,0,,99,,80,Light shower,1001,7,35,,,,7.3,
West Freugh,13/10/2019 06:00,8.6,9,4.4,,0.2,0.2,97,,70,Rain,1001,8,40,,,,8.3,
West Freugh,13/10/2019 07:00,8.6,10,,,0,,96,,80,Dry,1000,8,35,,,,8.1,
West Freugh,13/10/2019 08:00,9,12,,,0,,96,,70,Dry,1000,8,29,,,,8.5,
West Freugh,13/10/2019 09:00,9.6,9,,,0,,96,,80,Dry,1000,7,16,,,,9,
West Freugh,13/10/2019 10:00,10.1,7,,,0.2,,96,,80,Moderate shower,1000,8,10,,,,9.5,
West Freugh,13/10/2019 11:00,10.8,2,,,0,,96,,90,Light drizzle,1000,8,14,,,,10.2,
West Freugh,13/10/2019 12:00,10.6,3,,,1.2,1,94,,80,Moderate rain,1000,7,3,,,,9.8,
West Freugh,13/10/2019 13:00,10.4,3,,,2.2,,92,,20,Moderate rain,1000,8,4,,,,9.2,
West Freugh,13/10/2019 14:00,10.4,5,,,0.8,,94,,300,Moderate rain,999,8,9,,,,9.5,
West Freugh,13/10/2019 15:00,10.1,5,,,1.2,,94,,320,Light rain,1000,8,19,,,,9.3,
West Freugh,13/10/2019 16:00,9.7,7,,,0.4,,94,,310,Light rain,1000,7,21,,,,8.9,
West Freugh,13/10/2019 17:00,9.8,6,,,0,,92,,300,Rain,1001,1,45,,,,8.7,
West Freugh,13/10/2019 18:00,9.1,6,,10.8,0,5,94,,290,Rain,1002,8,45,,,,8.2,
West Freugh,13/10/2019 19:00,8.3,3,,,0,,94,,270,Dry,1003,8,45,,,,7.4,
West Freugh,13/10/2019 20:00,6.8,1,,,0,,93,,280,Dry,1004,4,12,,,,5.9,
West Freugh,13/10/2019 21:00,5.4,2,,,0,,95,,180,Fog,1004,5,12,,,,4.7,
West Freugh,13/10/2019 22:00,5.7,6,,,0,,97,,210,Fog,1005,0,35,,,,5.3,
West Freugh,13/10/2019 23:00,7.3,7,,,0,,97,,260,Dry,1005,0,50,,,,6.9,
West Freugh,14/10/2019 00:00,6.4,9,,,0,0,95,,240,Dry,1006,0,50,,,,5.7,
West Freugh,14/10/2019 01:00,6.5,5,,,0.2,,95,,290,Dry,1007,0,45,,,,5.9,
West Freugh,14/10/2019 02:00,4.1,3,,,0,,95,,20,Misty,1007,,11,,,,3.5,
West Freugh,14/10/2019 03:00,2.5,1,,,0,,97,,70,Thickening fog,1007,1,0,,,,2.1,
West Freugh,14/10/2019 04:00,2.1,3,,,0,,97,,50,Fog,1007,,6,,,,1.7,
West Freugh,14/10/2019 05:00,3.8,3,,,0,,98,,360,Dry,1007,,16,,,,3.6,
West Freugh,14/10/2019 06:00,2.8,3,1.8,,0,0.2,97,,360,Misty,1007,,9,,,,2.5,
West Freugh,14/10/2019 07:00,3,0,,,0,,98,,0,Misty,1007,8,8,,,,2.8,
West Freugh,14/10/2019 08:00,7.1,6,,,0,,100,,70,Dry,1007,5,45,,,,7.1,
West Freugh,14/10/2019 09:00,9.3,8,,,0,,97,,80,Dry,1007,7,30,,,,9,
West Freugh,14/10/2019 10:00,10.7,10,,,0,,91,,80,Dry,1007,8,45,,,,9.4,
West Freugh,14/10/2019 11:00,11.4,14,,,0,,92,,90,Dry,1007,8,35,,,,10.2,
West Freugh,14/10/2019 12:00,12.1,13,,,0,0,89,,90,Dry,1006,5,29,,,,10.4,
West Freugh,14/10/2019 13:00,12.2,13,,,0,,88,,100,Dry,1006,7,28,,,,10.3,
West Freugh,14/10/2019 14:00,12.3,12,,,0,,86,,100,Rain,1006,8,30,,,,10.2,
West Freugh,14/10/2019 15:00,12.5,10,,,0,,85,,100,Dry,1005,8,35,,,,10.2,
West Freugh,14/10/2019 16:00,12.7,10,,,0,,87,,100,Dry,1005,8,35,,,,10.6,
West Freugh,14/10/2019 17:00,12.1,10,,,0,,87,,100,Dry,1005,8,26,,,,10.1,
West Freugh,14/10/2019 18:00,11.1,9,,12.7,0,0,89,,90,Dry,1005,8,40,,,,9.4,
West Freugh,14/10/2019 19:00,10.6,8,,,0,,90,,90,Dry,1005,7,45,,,,9.1,
West Freugh,14/10/2019 20:00,9,7,,,0,,92,,90,Dry,1005,2,30,,,,7.9,
West Freugh,14/10/2019 21:00,9.1,8,,,0,,94,,80,Dry,1004,0,35,,,,8.3,
West Freugh,14/10/2019 22:00,8.6,8,,,0,,94,,80,Dry,1004,,35,,,,7.8,
West Freugh,14/10/2019 23:00,8.3,7,,,0,,96,,70,Dry,1004,0,35,,,,7.8,
West Freugh,15/10/2019 00:00,8.9,8,,,0,0,94,,80,Dry,1004,,22,,,,8,
West Freugh,15/10/2019 01:00,6.1,2,,,0,,92,,270,Haze,1004,3,8,,,,5,
West Freugh,15/10/2019 02:00,4.5,3,,,0,,95,,70,Misty,1003,0,5,,,,3.8,
West Freugh,15/10/2019 03:00,6.5,7,,,0,,97,,70,Dry,1002,0,12,,,,6.2,
West Freugh,15/10/2019 04:00,5.6,2,,,0,,95,,100,Dry,1002,0,11,,,,5,
West Freugh,15/10/2019 05:00,4.2,5,,,0,,96,,100,Dry,1003,0,10,,,,3.7,
West Freugh,15/10/2019 06:00,4.6,7,3.2,,0,0,97,,90,Dry,1002,0,28,,,,4.2,
West Freugh,15/10/2019 07:00,2.8,2,,,0,,97,,280,Misty,1002,0,8,,,,2.4,
West Freugh,15/10/2019 08:00,5.7,7,,,0,,98,,100,Dry,1002,0,28,,,,5.5,
West Freugh,15/10/2019 09:00,9.6,6,,,0.2,,90,,80,Dry,1002,0,35,,,,8.2,
West Freugh,15/10/2019 10:00,11.5,12,,,0,,80,,110,Dry,1002,0,50,,,,8.3,
West Freugh,15/10/2019 11:00,12.4,10,,,0,,78,,110,Dry,1002,0,50,,,,8.8,
West Freugh,15/10/2019 12:00,12.9,12,,,0,0.2,79,,120,Dry,1001,0,50,,,,9.5,
West Freugh,15/10/2019 13:00,13,13,,,0,,78,,120,Dry,1001,1,35,,,,9.3,
West Freugh,15/10/2019 14:00,13,12,,,0,,79,,120,Dry,1001,1,40,,,,9.6,
West Freugh,15/10/2019 15:00,12.5,13,,,0,,84,,120,Rain,1000,6,45,,,,10,
West Freugh,15/10/2019 16:00,12.4,13,,,0,,84,,120,Dry,1000,6,50,,,,9.9,
West Freugh,15/10/2019 17:00,12.6,13,,,0,,85,,130,Dry,999,8,40,,,,10.2,
West Freugh,15/10/2019 18:00,12.6,14,,13.5,0,0,86,,140,Dry,999,8,35,,,,10.4,
West Freugh,15/10/2019 19:00,12.7,15,,,0,,87,,140,Dry,999,8,27,,,,10.6,
West Freugh,15/10/2019 20:00,12.7,15,,,0,,88,,150,Dry,999,8,35,,,,10.8,
West Freugh,15/10/2019 21:00,11.9,14,,,0,,82,,170,Dry,999,8,35,,,,9.1,
West Freugh,15/10/2019 22:00,12.8,15,,,0,,83,,150,Dry,998,8,23,,,,10.1,
West Freugh,15/10/2019 23:00,12.8,15,,,0,,84,,140,Dry,998,6,23,,,,10.2,
West Freugh,16/10/2019 00:00,12.9,16,,,0,0,84,,140,Dry,997,8,22,,,,10.4,
West Freugh,16/10/2019 01:00,12.7,18,,,0,,88,,130,Drizzly rain,996,7,11,,,,10.8,
West Freugh,16/10/2019 02:00,12.5,23,,,0,,89,32,130,Light shower,996,7,9,,,,10.8,
West Freugh,16/10/2019 03:00,12.1,22,,,0.2,,94,33,120,Light shower,995,8,6,,,,11.2,
West Freugh,16/10/2019 04:00,11.7,24,,,0.6,,96,33,130,Moderate rain,994,7,2,,,,11.1,
West Freugh,16/10/2019 05:00,11.9,20,,,0.4,,97,31,130,Light shower,994,7,8,,,,11.5,
West Freugh,16/10/2019 06:00,10.6,13,10.6,,1.4,3,96,29,250,Moderate rain,995,8,4,,,,10,
West Freugh,16/10/2019 07:00,9.7,10,,,0.4,,96,,300,Light drizzle,995,8,11,,,,9.2,
West Freugh,16/10/2019 08:00,10.2,8,,,0,,93,,290,Rain,996,8,23,,,,9.2,
West Freugh,16/10/2019 09:00,10.9,12,,,0,,89,,260,Dry,997,0,19,,,,9.2,
West Freugh,16/10/2019 10:00,11.4,16,,,0,,84,,270,Dry,997,0,30,,,,8.9,
West Freugh,16/10/2019 11:00,12.1,14,,,0,,80,,260,Dry,998,0,28,,,,8.9,
West Freugh,16/10/2019 12:00,12.6,13,,,0,0.4,75,,260,Dry,999,0,23,,,,8.3,
West Freugh,16/10/2019 13:00,12.7,14,,,0,,74,,260,Dry,999,0,30,,,,8.3,
West Freugh,16/10/2019 14:00,13,13,,,0,,66,,250,Dry,999,0,23,,,,6.9,
West Freugh,16/10/2019 15:00,12.4,10,,,0,,68,,240,Dry,1000,,30,,,,6.7,
West Freugh,16/10/2019 16:00,11.2,7,,,0,,75,,220,Dry,1000,3,30,,,,7.1,
West Freugh,16/10/2019 17:00,10.9,7,,,0,,81,,210,Dry,1000,5,30,,,,7.9,
West Freugh,16/10/2019 18:00,8.2,6,,13.3,0,0,83,,230,Dry,1000,0,30,,,,5.5,
West Freugh,16/10/2019 19:00,8.5,8,,,0,,84,,220,Dry,1001,1,25,,,,6.1,
West Freugh,16/10/2019 20:00,5.6,1,,,0,,90,,220,Dry,1001,1,30,,,,4.2,
West Freugh,16/10/2019 21:00,5,2,,,0,,93,,80,Dry,1001,,29,,,,4.1,
West Freugh,16/10/2019 22:00,4.2,3,,,0,,96,,70,Dry,1001,2,20,,,,3.7,
West Freugh,16/10/2019 23:00,4.7,3,,,0,,96,,130,Dry,1001,2,20,,,,4.2,
West Freugh,17/10/2019 00:00,6.4,8,,,0,0,97,,180,Dry,1001,3,28,,,,6,
West Freugh,17/10/2019 01:00,9.4,12,,,0,,87,,180,Dry,1000,1,22,,,,7.4,
West Freugh,17/10/2019 02:00,7.6,7,,,0,,87,,170,Dry,1000,2,24,,,,5.6,
West Freugh,17/10/2019 03:00,8.3,6,,,0,,89,,160,Dry,1000,2,28,,,,6.6,
West Freugh,17/10/2019 04:00,9.5,9,,,0,,86,,180,Dry,1000,1,20,,,,7.4,
West Freugh,17/10/2019 05:00,10.4,9,,,0,,87,,180,Dry,999,6,18,,,,8.5,
West Freugh,17/10/2019 06:00,9.9,9,3.7,,0,0,84,,180,Dry,999,2,25,,,,7.4,
West Freugh,17/10/2019 07:00,11.1,12,,,0,,83,,170,Dry,999,4,22,,,,8.5,
West Freugh,17/10/2019 08:00,12,14,,,0,,81,,160,Dry,999,7,20,,,,9,
West Freugh,17/10/2019 09:00,11.6,12,,,0,,82,,160,Dry,999,2,20,,,,8.7,
West Freugh,17/10/2019 10:00,11.9,17,,,0.2,,84,,150,Rain,998,7,26,,,,9.3,
West Freugh,17/10/2019 11:00,11.6,17,,,0.4,,86,,150,Light shower,998,7,20,,,,9.4,
West Freugh,17/10/2019 12:00,10,25,,,0.4,1,81,41,180,Drizzly rain,998,8,19,,,,7,
West Freugh,17/10/2019 13:00,11.4,16,,,0.8,,85,29,150,Light shower,998,8,19,,,,9.1,
West Freugh,17/10/2019 14:00,10.2,12,,,3.2,,93,31,120,Light rain,997,8,13,,,,9.2,
West Freugh,17/10/2019 15:00,11.3,16,,,2.6,,90,,150,Moderate rain,996,8,10,,,,9.8,
West Freugh,17/10/2019 16:00,11.7,21,,,0.8,,85,30,150,Light shower,996,7,15,,,,9.4,
West Freugh,17/10/2019 17:00,11.8,21,,,0,,85,30,150,Drizzly rain,995,7,20,,,,9.4,
West Freugh,17/10/2019 18:00,11.7,21,,12.6,0,7,84,30,140,Rain,995,7,18,,,,9.2,
West Freugh,17/10/2019 19:00,9.1,18,,,1.2,,92,33,170,Moderate rain,995,8,5,,,,7.9,
West Freugh,17/10/2019 20:00,10,15,,,2.2,,92,,140,Rain,994,7,21,,,,8.9,
West Freugh,17/10/2019 21:00,10.1,13,,,0,,86,,160,Dry,994,7,30,,,,8,
West Freugh,17/10/2019 22:00,10.3,10,,,0.2,,89,,160,Moderate shower,994,7,15,,,,8.6,
West Freugh,17/10/2019 23:00,9,7,,,0.2,,90,,150,Light shower,994,7,27,,,,7.5,
West Freugh,18/10/2019 00:00,9.7,8,,,0.2,4,90,,170,Heavy shower,994,7,16,,,,8.3,
West Freugh,18/10/2019 01:00,7.1,3,,,0,,92,,180,Rain,994,3,24,,,,6,
West Freugh,18/10/2019 02:00,6.1,3,,,0,,95,,80,Dry,993,3,12,,,,5.4,
West Freugh,18/10/2019 03:00,9.9,9,,,0,,92,,130,Dry,993,7,24,,,,8.7,
West Freugh,18/10/2019 04:00,9.3,3,,,0,,87,,190,Dry,993,5,23,,,,7.3,
West Freugh,18/10/2019 05:00,6,3,,,0,,92,,30,Dry,993,4,10,,,,4.9,
West Freugh,18/10/2019 06:00,6.6,3,5.2,,0,0,97,,70,Dry,993,4,24,,,,6.2,
West Freugh,18/10/2019 07:00,6.9,3,,,0.2,,97,,50,Dry,993,5,35,,,,6.6,
West Freugh,18/10/2019 08:00,7.9,12,,,0.2,,95,,70,Rain,993,1,45,,,,7.2,
West Freugh,18/10/2019 09:00,8.3,10,,,0,,93,,70,Dry,993,2,45,,,,7.3,
West Freugh,18/10/2019 10:00,10.1,9,,,0,,92,,80,Dry,993,3,30,,,,9,
West Freugh,18/10/2019 11:00,10.1,14,,,0,,86,,90,Dry,993,1,40,,,,8,
West Freugh,18/10/2019 12:00,10.7,12,,,0,0.4,85,,80,Dry,993,2,50,,,,8.3,
West Freugh,18/10/2019 13:00,10.8,12,,,0,,79,,90,Dry,993,0,50,,,,7.4,
West Freugh,18/10/2019 14:00,12.2,8,,,0,,76,,90,Dry,993,6,50,,,,8.1,
West Freugh,18/10/2019 15:00,11.5,10,,,0,,79,,90,Dry,993,2,40,,,,8,
West Freugh,18/10/2019 16:00,10.8,7,,,0,,82,,60,Dry,993,7,45,,,,8,
West Freugh,18/10/2019 17:00,10.3,6,,,0,,85,,40,Rain,993,7,50,,,,8,
West Freugh,18/10/2019 18:00,9,6,,12.5,0,0,87,,30,Dry,994,2,50,,,,7.1,
West Freugh,18/10/2019 19:00,7.1,5,,,0,,91,,10,Dry,994,7,50,,,,5.8,
West Freugh,18/10/2019 20:00,5.7,5,,,0,,91,,10,Dry,994,2,23,,,,4.5,
West Freugh,18/10/2019 21:00,4.7,3,,,0,,93,,310,Dry,994,0,45,,,,3.8,
West Freugh,18/10/2019 22:00,5,6,,,0,,96,,300,Dry,994,0,40,,,,4.5,
West Freugh,18/10/2019 23:00,5.2,3,,,0,,96,,350,Dry,995,6,35,,,,4.7,
West Freugh,19/10/2019 00:00,7,6,,,0,0,95,,320,Dry,995,8,50,,,,6.4,
West Freugh,19/10/2019 01:00,7.3,6,,,0,,93,,300,Dry,995,1,50,,,,6.3,
West Freugh,19/10/2019 02:00,8.9,9,,,0,,87,,350,Dry,995,8,50,,,,7,
West Freugh,19/10/2019 03:00,8.7,7,,,0.2,,91,,320,Light shower,996,8,40,,,,7.4,
West Freugh,19/10/2019 04:00,8.9,8,,,0.4,,92,,330,Light rain,996,8,17,,,,7.8,
West Freugh,19/10/2019 05:00,8.7,7,,,0.8,,93,,340,Light rain,996,8,50,,,,7.7,
West Freugh,19/10/2019 06:00,8.7,13,4.5,,0,1,92,,10,Light rain,996,7,50,,,,7.6,
West Freugh,19/10/2019 07:00,8.7,9,,,0,,92,,10,Rain,997,7,50,,,,7.5,
West Freugh,19/10/2019 08:00,8.9,10,,,0.4,,91,,360,Light rain,998,8,40,,,,7.6,
West Freugh,19/10/2019 09:00,9.3,9,,,0.6,,90,,350,Light rain,999,8,40,,,,7.9,
West Freugh,19/10/2019 10:00,9.5,12,,,0.8,,90,,350,Moderate rain,1000,7,30,,,,8,
West Freugh,19/10/2019 11:00,9.1,8,,,0.4,,87,,360,Light rain,1000,8,50,,,,7.2,
West Freugh,19/10/2019 12:00,9.4,10,,,0,2,84,,340,Light shower,1001,8,30,,,,6.9,
West Freugh,19/10/2019 13:00,11,12,,,0,,73,,340,Rain,1001,8,40,,,,6.5,
West Freugh,19/10/2019 14:00,11.4,10,,,0,,69,,330,Dry,1002,8,30,,,,6.1,
West Freugh,19/10/2019 15:00,11.2,12,,,0,,70,,360,Dry,1003,,35,,,,6,
West Freugh,19/10/2019 16:00,11.3,9,,,0,,71,,330,Dry,1003,3,45,,,,6.4,
West Freugh,19/10/2019 17:00,10.5,8,,,0,,70,,340,Dry,1004,0,45,,,,5.3,
West Freugh,19/10/2019 18:00,7.1,2,,11.9,0,0,80,,320,Dry,1005,0,45,,,,4,
West Freugh,19/10/2019 19:00,7.2,6,,,0,,85,,300,Dry,1005,6,45,,,,4.9,
West Freugh,19/10/2019 20:00,8.4,7,,,0,,91,,330,Dry,1006,5,45,,,,7.1,
West Freugh,19/10/2019 21:00,9.1,7,,,0,,80,,340,Dry,1007,4,50,,,,5.9,
West Freugh,19/10/2019 22:00,9.2,8,,,0,,82,,340,Dry,1007,0,50,,,,6.4,
West Freugh,19/10/2019 23:00,8.5,5,,,0,,81,,340,Dry,1008,0,50,,,,5.5,
West Freugh,20/10/2019 00:00,6.3,1,,,0,0,83,,80,Dry,1009,,45,,,,3.7,
West Freugh,20/10/2019 01:00,7.3,8,,,0,,85,,10,Dry,1010,2,45,,,,5.1,
West Freugh,20/10/2019 02:00,7.6,6,,,0,,83,,340,Dry,1010,0,50,,,,5,
West Freugh,20/10/2019 03:00,5.1,5,,,0,,88,,20,Dry,1011,0,50,,,,3.3,
West Freugh,20/10/2019 04:00,7.1,8,,,0,,81,,340,Dry,1011,0,50,,,,4.1,
West Freugh,20/10/2019 05:00,5.7,5,,,0,,86,,280,Dry,1012,3,45,,,,3.7,
West Freugh,20/10/2019 06:00,4.4,7,3.5,,0,0,86,,360,Dry,1013,1,40,,,,2.4,
West Freugh,20/10/2019 07:00,6.2,9,,,0,,78,,340,Dry,1013,0,45,,,,2.8,
West Freugh,20/10/2019 08:00,7,8,,,0,,79,,320,Dry,1014,0,45,,,,3.7,
West Freugh,20/10/2019 09:00,8.7,7,,,0,,75,,340,Dry,1015,0,40,,,,4.7,
West Freugh,20/10/2019 10:00,9.8,13,,,0,,69,,340,Dry,1016,0,45,,,,4.4,
West Freugh,20/10/2019 11:00,9.6,10,,,0,,66,,360,Dry,1016,0,50,,,,3.7,
West Freugh,20/10/2019 12:00,11.1,12,,,0,0,61,,340,Dry,1017,0,45,,,,4,
West Freugh,20/10/2019 13:00,11.8,8,,,0,,62,,360,Dry,1017,2,30,,,,4.8,
West Freugh,20/10/2019 14:00,12,10,,,0,,64,,360,Dry,1018,4,35,,,,5.6,
West Freugh,20/10/2019 15:00,11.1,12,,,0,,64,,340,Dry,1018,7,40,,,,4.6,
West Freugh,20/10/2019 16:00,10.5,9,,,0,,62,,360,Dry,1019,3,50,,,,3.6,
West Freugh,20/10/2019 17:00,8.2,6,,,0,,69,,340,Dry,1020,0,40,,,,3,
West Freugh,20/10/2019 18:00,6.7,6,,12.3,0,0,78,,320,Dry,1020,0,50,,,,3.2,
West Freugh,20/10/2019 19:00,5.3,5,,,0,,85,,360,Dry,1021,1,50,,,,3,
West Freugh,20/10/2019 20:00,3.2,5,,,0,,91,,10,Dry,1022,2,50,,,,1.9,
West Freugh,20/10/2019 21:00,2.2,3,,,0,,91,,350,Dry,1022,0,50,,,,0.9,
West Freugh,20/10/2019 22:00,2.8,7,,,0,,91,,10,Dry,1023,0,50,,,,1.6,
West Freugh,20/10/2019 23:00,2.4,3,,,0,,93,,310,Dry,1023,0,50,,,,1.4,
West Freugh,21/10/2019 00:00,3,6,,,0,0,93,,340,Dry,1023,0,50,,,,2.1,
West Freugh,21/10/2019 01:00,2.3,6,,,0,,94,,310,Dry,1023,0,50,,,,1.5,
West Freugh,21/10/2019 02:00,3.3,5,,,0,,93,,340,Dry,1024,0,50,,,,2.3,
West Freugh,21/10/2019 03:00,3.1,3,,,0,,89,,350,Dry,1023,5,50,,,,1.5,
West Freugh,21/10/2019 04:00,1.1,2,,,0,,91,,350,Dry,1023,2,50,,,,-0.2,
West Freugh,21/10/2019 05:00,1.5,5,,,0,,95,,300,Dry,1023,0,50,,,,0.8,
West Freugh,21/10/2019 06:00,0.1,2,0,,0,0,95,,330,Dry,1024,0,50,,,,-0.6,
West Freugh,21/10/2019 07:00,0.7,1,,,0,,96,,70,Dry,1024,7,50,,,,0.2,
West Freugh,21/10/2019 08:00,0.4,2,,,0,,96,,320,Dry,1024,1,50,,,,-0.1,
West Freugh,21/10/2019 09:00,1.8,2,,,0,,97,,320,Dry,1025,0,45,,,,1.4,
West Freugh,21/10/2019 10:00,6.1,1,,,0,,95,,270,Dry,1025,5,50,,,,5.5,
West Freugh,21/10/2019 11:00,8.5,1,,,0,,77,,310,Dry,1025,8,45,,,,4.8,
West Freugh,21/10/2019 12:00,11.4,1,,,0,0,60,,200,Dry,1024,7,40,,,,4,
West Freugh,21/10/2019 13:00,11.1,2,,,0,,63,,190,Dry,1024,8,45,,,,4.4,
West Freugh,21/10/2019 14:00,10.3,2,,,0,,68,,170,Dry,1023,8,50,,,,4.8,
West Freugh,21/10/2019 15:00,11.5,9,,,0,,64,,270,Dry,1023,5,45,,,,5,
West Freugh,21/10/2019 16:00,10.1,7,,,0,,69,,260,Dry,1023,7,50,,,,4.8,
West Freugh,21/10/2019 17:00,8.9,3,,,0,,78,,290,Dry,1022,7,45,,,,5.3,
West Freugh,21/10/2019 18:00,6.8,5,,12,0,0,85,,260,Dry,1023,8,45,,,,4.6,
West Freugh,21/10/2019 19:00,4.3,6,,,0,,88,,250,Dry,1022,1,40,,,,2.5,
West Freugh,21/10/2019 20:00,5.7,6,,,0,,92,,240,Dry,1022,7,45,,,,4.6,
West Freugh,21/10/2019 21:00,6.9,6,,,0,,86,,260,Dry,1022,8,45,,,,4.8,
West Freugh,21/10/2019 22:00,7.4,5,,,0,,82,,250,Dry,1022,8,50,,,,4.6,
West Freugh,21/10/2019 23:00,7.5,7,,,0,,81,,230,Dry,1021,8,30,,,,4.6,
West Freugh,22/10/2019 00:00,8.1,8,,,0,0,79,,240,Dry,1021,2,30,,,,4.8,
West Freugh,22/10/2019 01:00,8.4,10,,,0,,78,,240,Dry,1021,8,40,,,,4.9,
West Freugh,22/10/2019 02:00,8.7,9,,,0,,77,,240,Dry,1020,8,45,,,,5,
West Freugh,22/10/2019 03:00,8.8,12,,,0,,77,,230,Dry,1020,8,30,,,,5,
West Freugh,22/10/2019 04:00,8.8,12,,,0,,79,,230,Dry,1019,8,45,,,,5.5,
West Freugh,22/10/2019 05:00,8.7,12,,,0,,80,,230,Dry,1019,8,35,,,,5.5,
West Freugh,22/10/2019 06:00,8.9,13,3.5,,0,0,80,,230,Dry,1019,,45,,,,5.8,
West Freugh,22/10/2019 07:00,9.2,13,,,0,,81,,230,Dry,1019,8,45,,,,6.2,
West Freugh,22/10/2019 08:00,9.3,12,,,0,,81,,230,Dry,1019,8,40,,,,6.3,
West Freugh,22/10/2019 09:00,9.8,13,,,0,,80,,230,Dry,1019,8,50,,,,6.6,
West Freugh,22/10/2019 10:00,10.2,14,,,0,,79,,230,Dry,1019,7,40,,,,6.9,
West Freugh,22/10/2019 11:00,10.4,14,,,0,,79,,230,Dry,1019,3,35,,,,7.1,
West Freugh,22/10/2019 12:00,10.6,14,,,0,0,81,,230,Dry,1019,1,40,,,,7.6,
West Freugh,22/10/2019 13:00,10.9,14,,,0,,81,,240,Dry,1018,1,40,,,,7.8,
West Freugh,22/10/2019 14:00,11.2,14,,,0,,81,,230,Dry,1018,4,45,,,,8.2,
West Freugh,22/10/2019 15:00,11,14,,,0,,81,,220,Dry,1017,6,45,,,,7.9,
West Freugh,22/10/2019 16:00,10.8,15,,,0,,82,,210,Dry,1017,7,35,,,,7.9,
West Freugh,22/10/2019 17:00,10.6,14,,,0,,82,,210,Dry,1017,8,50,,,,7.7,
West Freugh,22/10/2019 18:00,10.3,14,,11.7,0,0,83,,210,Dry,1017,1,50,,,,7.6,
West Freugh,22/10/2019 19:00,10.8,18,,,0,,80,,210,Dry,1017,7,40,,,,7.6,
West Freugh,22/10/2019 20:00,10.9,15,,,0,,79,,200,Dry,1016,7,45,,,,7.5,
West Freugh,22/10/2019 21:00,10.8,14,,,0,,80,,210,Dry,1016,8,50,,,,7.5,
West Freugh,22/10/2019 22:00,10.3,13,,,0,,83,,200,Dry,1016,8,45,,,,7.6,
West Freugh,22/10/2019 23:00,10.8,13,,,0,,82,,210,Dry,1015,3,35,,,,8,
West Freugh,23/10/2019 00:00,11.2,16,,,0,0,82,,200,Dry,1015,5,29,,,,8.3,
West Freugh,23/10/2019 01:00,11.4,17,,,0,,81,,210,Dry,1015,8,35,,,,8.3,
West Freugh,23/10/2019 02:00,11.5,16,,,0,,80,,200,Dry,1014,8,35,,,,8.3,
West Freugh,23/10/2019 03:00,11.5,14,,,0,,81,,210,Dry,1013,8,40,,,,8.4,
West Freugh,23/10/2019 04:00,11.6,12,,,0,,84,,200,Dry,1012,8,25,,,,9,
West Freugh,23/10/2019 05:00,11.8,15,,,0,,82,,200,Dry,1011,8,29,,,,8.9,
West Freugh,23/10/2019 06:00,12.1,14,10.2,,0,0,82,,190,Dry,1011,1,22,,,,9.3,
West Freugh,23/10/2019 07:00,12.3,18,,,0,,80,,200,Dry,1010,8,25,,,,9,
West Freugh,23/10/2019 08:00,12.3,17,,,0,,79,,190,Dry,1010,8,29,,,,8.9,
West Freugh,23/10/2019 09:00,12.7,21,,,0,,80,31,190,Dry,1010,8,23,,,,9.5,
West Freugh,23/10/2019 10:00,12.9,23,,,0,,75,32,190,Dry,1009,8,22,,,,8.7,
West Freugh,23/10/2019 11:00,12.9,18,,,0,,78,33,190,Dry,1008,8,30,,,,9.2,
West Freugh,23/10/2019 12:00,13.2,22,,,0,0,75,31,180,Dry,1008,1,26,,,,8.9,
West Freugh,23/10/2019 13:00,13.1,21,,,0,,76,31,180,Dry,1006,6,23,,,,9,
West Freugh,23/10/2019 14:00,13,20,,,0,,77,29,180,Dry,1006,8,20,,,,9.2,
West Freugh,23/10/2019 15:00,12.8,22,,,0,,78,33,180,Dry,1005,8,18,,,,9.1,
West Freugh,23/10/2019 16:00,12.7,26,,,0,,77,37,190,Dry,1004,7,22,,,,8.8,
West Freugh,23/10/2019 17:00,12.6,25,,,0,,75,35,190,Dry,1003,7,21,,,,8.4,
West Freugh,23/10/2019 18:00,11.5,18,,13.3,0.6,0.6,89,33,180,Moderate shower,1003,4,9,,,,9.9,
West Freugh,23/10/2019 19:00,11.4,20,,,1.4,,92,32,190,Moderate rain,1002,1,8,,,,10.3,
West Freugh,23/10/2019 20:00,11.1,24,,,1.4,,94,35,190,Moderate rain,1002,8,5,,,,10.2,
West Freugh,23/10/2019 21:00,11.7,24,,,0.2,,95,37,190,Light drizzle,1001,8,9,,,,11,
West Freugh,23/10/2019 22:00,12,22,,,0,,94,32,190,Drizzly rain,1001,8,11,,,,11.2,
West Freugh,23/10/2019 23:00,12.5,20,,,0,,91,31,200,Light shower,1001,2,15,,,,11.2,
West Freugh,24/10/2019 00:00,12.3,14,,,0,3,90,,220,Rain,1001,8,27,,,,10.8,
West Freugh,24/10/2019 01:00,10.7,5,,,0,,91,,220,Dry,1000,1,22,,,,9.4,
West Freugh,24/10/2019 02:00,9.5,6,,,0,,94,,200,Dry,1000,6,21,,,,8.7,
West Freugh,24/10/2019 03:00,10.9,10,,,0,,88,,230,Dry,999,1,40,,,,9,
West Freugh,24/10/2019 04:00,9.9,9,,,0,,87,,220,Dry,1000,7,35,,,,8,
West Freugh,24/10/2019 05:00,8.5,5,,,0,,91,,170,Dry,1000,8,24,,,,7.2,
West Freugh,24/10/2019 06:00,9.5,7,8.4,,0,0,91,,220,Dry,1000,7,30,,,,8.2,
West Freugh,24/10/2019 07:00,9.4,9,,,0,,89,,230,Dry,1000,6,24,,,,7.8,
West Freugh,24/10/2019 08:00,9.8,10,,,0,,88,,230,Dry,1000,6,30,,,,8,
West Freugh,24/10/2019 09:00,10.4,8,,,0,,87,,240,Dry,1000,2,28,,,,8.4,
West Freugh,24/10/2019 10:00,11.3,10,,,0,,80,,250,Dry,1000,4,30,,,,8.1,
West Freugh,24/10/2019 11:00,11.7,13,,,0,,80,,230,Dry,1000,6,30,,,,8.5,
West Freugh,24/10/2019 12:00,11.4,14,,,0,0,78,,260,Dry,1001,7,30,,,,7.8,
West Freugh,24/10/2019 13:00,11.7,12,,,0,,77,,260,Rain,1001,7,40,,,,7.9,
West Freugh,24/10/2019 14:00,11.2,9,,,0,,82,,250,Dry,1000,1,35,,,,8.4,
West Freugh,24/10/2019 15:00,9.7,8,,,0.2,,93,,310,Light shower,1001,8,12,,,,8.7,
West Freugh,24/10/2019 16:00,9.4,9,,,0.2,,88,,290,Light rain,1002,8,23,,,,7.6,
West Freugh,24/10/2019 17:00,8.9,8,,,0,,83,,310,Rain,1002,8,30,,,,6.3,
West Freugh,24/10/2019 18:00,8.4,9,,12.2,0,0.4,80,,310,Rain,1003,7,30,,,,5.3,
West Freugh,24/10/2019 19:00,6,6,,,0,,82,,280,Dry,1004,1,45,,,,3.2,
West Freugh,24/10/2019 20:00,6.9,7,,,0,,82,,300,Dry,1004,4,35,,,,4.2,
West Freugh,24/10/2019 21:00,5.2,6,,,0.2,,86,,280,Rain,1005,0,30,,,,3.1,
West Freugh,24/10/2019 22:00,6.2,10,,,0.2,,88,,300,Moderate shower,1006,7,18,,,,4.4,
West Freugh,24/10/2019 23:00,6.2,9,,,0.2,,90,,320,Rain,1007,6,45,,,,4.7,
West Freugh,25/10/2019 00:00,4.1,5,,,0.4,1,93,,260,Rain,1008,0,50,,,,3.1,
West Freugh,25/10/2019 01:00,1.3,1,,,0,,92,,240,Dry,1008,0,45,,,,0.2,
West Freugh,25/10/2019 02:00,0.7,1,,,0,,95,,100,Misty,1008,4,25,,,,0.1,
West Freugh,25/10/2019 03:00,0.1,1,,,0,,96,,360,Dry,1009,,14,,,,-0.4,
West Freugh,25/10/2019 04:00,-0.7,1,,,0,,96,,350,Misty,1009,0,12,,,,-1.2,
West Freugh,25/10/2019 05:00,-0.9,1,,,0,,97,,260,Dry,1009,1,30,,,,-1.3,
West Freugh,25/10/2019 06:00,0,3,-1.1,,0,0,97,,90,Dry,1009,7,29,,,,-0.3,
West Freugh,25/10/2019 07:00,0.2,1,,,0,,97,,40,Dry,1009,7,35,,,,-0.1,
West Freugh,25/10/2019 08:00,0.4,1,,,0,,97,,20,Dry,1009,6,30,,,,0.1,
West Freugh,25/10/2019 09:00,1.5,3,,,0,,98,,50,Dry,1009,7,30,,,,1.3,
West Freugh,25/10/2019 10:00,3.9,3,,,0,,98,,40,Light shower,1009,1,16,,,,3.7,
West Freugh,25/10/2019 11:00,5.6,2,,,0,,98,,90,Light rain,1008,8,20,,,,5.4,
West Freugh,25/10/2019 12:00,6.1,8,,,0.2,0.2,97,,90,Light rain,1007,1,17,,,,5.7,
West Freugh,25/10/2019 13:00,7.2,7,,,0.2,,92,,190,Light rain,1006,8,18,,,,6,
West Freugh,25/10/2019 14:00,7,2,,,0.4,,90,,190,Light rain,1005,8,15,,,,5.6,
West Freugh,25/10/2019 15:00,6.8,1,,,0.4,,86,,290,Light rain,1005,8,16,,,,4.7,
West Freugh,25/10/2019 16:00,6.5,2,,,0.2,,90,,360,Light rain,1004,7,22,,,,5,
West Freugh,25/10/2019 17:00,5.8,2,,,0.4,,93,,10,Light rain,1004,8,29,,,,4.8,
West Freugh,25/10/2019 18:00,5.5,1,,7.4,0.4,1.8,93,,310,Light rain,1004,8,27,,,,4.6,
West Freugh,25/10/2019 19:00,5.2,2,,,0.2,,96,,280,Light rain,1004,8,35,,,,4.7,
West Freugh,25/10/2019 20:00,4.6,1,,,0,,95,,270,Rain,1004,8,8,,,,4,
West Freugh,25/10/2019 21:00,4.6,1,,,0,,97,,140,Rain,1004,2,12,,,,4.2,
West Freugh,25/10/2019 22:00,3.9,1,,,0,,96,,140,Misty,1005,7,6,,,,3.4,
West Freugh,25/10/2019 23:00,3.4,0,,,0,,97,,0,Fog,1005,,2,,,,3,
West Freugh,26/10/2019 00:00,4.2,2,,,0,0.2,97,,80,Fog,1005,8,11,,,,3.9,
West Freugh,26/10/2019 01:00,4.1,1,,,0,,97,,40,Dry,1005,1,14,,,,3.8,
West Freugh,26/10/2019 02:00,3.6,2,,,0,,97,,180,Dry,1005,1,15,,,,3.3,
West Freugh,26/10/2019 03:00,3.8,1,,,0,,98,,60,Dry,1005,8,23,,,,3.6,
West Freugh,26/10/2019 04:00,3.6,1,,,0,,98,,320,Dry,1005,8,14,,,,3.4,
West Freugh,26/10/2019 05:00,4.1,6,,,0,,97,,270,Dry,1005,8,45,,,,3.8,
West Freugh,26/10/2019 06:00,4.2,6,3.3,,0,0,93,,250,Dry,1005,7,50,,,,3.2,
West Freugh,26/10/2019 07:00,4.1,6,,,0,,91,,270,Dry,1005,,45,,,,2.8,
West Freugh,26/10/2019 08:00,2.9,1,,,0,,92,,330,Dry,1006,8,45,,,,1.8,
West Freugh,26/10/2019 09:00,3.2,3,,,0,,95,,270,Dry,1006,1,35,,,,2.6,
West Freugh,26/10/2019 10:00,7.8,10,,,0,,78,,270,Dry,1006,,50,,,,4.3,
West Freugh,26/10/2019 11:00,8.2,14,,,0,,74,,270,Dry,1006,0,40,,,,4,
West Freugh,26/10/2019 12:00,8.7,13,,,0,0,65,,270,Dry,1007,,45,,,,2.6,
West Freugh,26/10/2019 13:00,9.2,14,,,0,,62,,280,Dry,1006,1,45,,,,2.5,
West Freugh,26/10/2019 14:00,9,15,,,0,,61,,270,Dry,1007,4,50,,,,2.1,
West Freugh,26/10/2019 15:00,9.1,13,,,0,,67,,260,Dry,1007,3,35,,,,3.4,
West Freugh,26/10/2019 16:00,7.3,15,,,0,,63,31,260,Dry,1007,1,50,,,,0.9,
West Freugh,26/10/2019 17:00,6.5,16,,,0,,71,30,260,Dry,1008,2,50,,,,1.8,
West Freugh,26/10/2019 18:00,6,15,,9.4,0,0,74,,260,Dry,1009,0,50,,,,1.9,
West Freugh,26/10/2019 19:00,6.4,17,,,0,,79,29,270,Light shower,1010,7,30,,,,3.1,
West Freugh,26/10/2019 20:00,6.4,22,,,0,,80,31,270,Rain,1010,6,40,,,,3.3,
West Freugh,26/10/2019 21:00,6.3,17,,,0,,82,30,270,Dry,1011,1,45,,,,3.5,
West Freugh,26/10/2019 22:00,6.9,18,,,0,,83,31,270,Rain,1012,5,45,,,,4.3,
West Freugh,26/10/2019 23:00,6.9,21,,,0,,85,32,270,Light shower,1013,7,27,,,,4.6,
West Freugh,27/10/2019 00:00,7.1,22,,,0,0,80,35,270,Rain,1014,2,35,,,,4,
West Freugh,27/10/2019 01:00,7,15,,,0.2,,86,,280,Rain,1015,5,30,,,,4.9,
West Freugh,27/10/2019 02:00,7.6,18,,,0,,82,,270,Rain,1016,6,23,,,,4.8,
West Freugh,27/10/2019 03:00,7.4,18,,,0,,82,30,270,Dry,1016,1,27,,,,4.6,
West Freugh,27/10/2019 04:00,7.4,17,,,0,,82,,260,Dry,1017,2,28,,,,4.7,
West Freugh,27/10/2019 05:00,7.1,17,,,0,,82,,270,Dry,1018,1,35,,,,4.4,
West Freugh,27/10/2019 06:00,7.2,17,5.8,,0.2,0.4,82,30,280,Light shower,1018,1,30,,,,4.4,
West Freugh,27/10/2019 07:00,7.6,17,,,0,,82,,280,Rain,1019,1,35,,,,4.9,
West Freugh,27/10/2019 08:00,8,18,,,0,,79,30,280,Dry,1020,,30,,,,4.6,
West Freugh,27/10/2019 09:00,8.5,18,,,0,,78,29,270,Rain,1021,0,30,,,,4.9,
West Freugh,27/10/2019 10:00,9.2,17,,,0,,80,,270,Rain,1021,1,40,,,,6.1,
West Freugh,27/10/2019 11:00,10.3,17,,,0,,74,29,280,Rain,1022,3,28,,,,6,
West Freugh,27/10/2019 12:00,9.5,13,,,0,0,79,29,310,Light shower,1022,7,12,,,,6.1,
West Freugh,27/10/2019 13:00,10.8,15,,,0,,66,,310,Rain,1023,4,35,,,,4.9,
West Freugh,27/10/2019 14:00,9.1,15,,,0.4,,79,,310,Moderate shower,1024,6,6,,,,5.8,
West Freugh,27/10/2019 15:00,10.1,12,,,0,,72,,310,Rain,1024,0,35,,,,5.3,
West Freugh,27/10/2019 16:00,9.1,9,,,0,,75,,300,Dry,1024,0,45,,,,5,
West Freugh,27/10/2019 17:00,6.5,6,,,0,,86,,290,Dry,1025,1,30,,,,4.4,
West Freugh,27/10/2019 18:00,8.2,13,,11.6,0,0.4,75,,300,Dry,1025,7,40,,,,4.1,
West Freugh,27/10/2019 19:00,5.3,5,,,0,,86,,310,Dry,1026,1,40,,,,3.2,
West Freugh,27/10/2019 20:00,3.4,3,,,0,,89,,300,Dry,1026,0,29,,,,1.9,
West Freugh,27/10/2019 21:00,1.6,3,,,0,,89,,250,Dry,1026,1,28,,,,0.1,
West Freugh,27/10/2019 22:00,1.5,3,,,0,,91,,280,Precipitation,1027,0,23,,,,0.3,
West Freugh,27/10/2019 23:00,1.3,2,,,0,,95,,350,Dry,1027,4,27,,,,0.6,
West Freugh,28/10/2019 00:00,0.6,2,,,0,0,95,,240,Dry,1027,0,24,,,,-0.1,
West Freugh,28/10/2019 01:00,0,3,,,0,,95,,230,Dry,1027,0,35,,,,-0.6,
West Freugh,28/10/2019 02:00,-0.7,5,,,0,,94,,10,Dry,1027,,30,,,,-1.4,
West Freugh,28/10/2019 03:00,1.3,5,,,0,,96,,10,Dry,1027,0,45,,,,0.8,
West Freugh,28/10/2019 04:00,0.5,5,,,0,,95,,350,Dry,1027,0,40,,,,-0.1,
West Freugh,28/10/2019 05:00,0.3,2,,,0,,92,,20,Dry,1028,,35,,,,-0.7,
West Freugh,28/10/2019 06:00,0.4,2,-0.9,,0,0,95,,330,Dry,1028,0,45,,,,-0.3,
West Freugh,28/10/2019 07:00,-1.6,3,,,0,,94,,260,Dry,1028,0,35,,,,-2.4,
West Freugh,28/10/2019 08:00,-1.6,2,,,0,,95,,40,Dry,1028,0,40,,,,-2.2,
West Freugh,28/10/2019 09:00,2,2,,,0,,96,,310,Dry,1028,0,40,,,,1.5,
West Freugh,28/10/2019 10:00,7,8,,,0,,75,,360,Dry,1029,0,40,,,,3,
West Freugh,28/10/2019 11:00,8.1,12,,,0,,61,,10,Dry,1029,,45,,,,1.1,
West Freugh,28/10/2019 12:00,9.1,10,,,0,0,55,,20,Dry,1029,0,35,,,,0.7,
West Freugh,28/10/2019 13:00,9.4,9,,,0,,54,,20,Dry,1028,0,40,,,,0.8,
West Freugh,28/10/2019 14:00,9.2,12,,,0,,56,,30,Dry,1028,,50,,,,1,
West Freugh,28/10/2019 15:00,8.8,10,,,0,,57,,10,Dry,1028,0,40,,,,0.9,
West Freugh,28/10/2019 16:00,7.4,7,,,0,,65,,10,Dry,1028,0,50,,,,1.3,
West Freugh,28/10/2019 17:00,5.2,3,,,0,,71,,320,Dry,1028,0,50,,,,0.4,
West Freugh,28/10/2019 18:00,3.4,5,,9.6,0,0,76,,340,Dry,1028,0,45,,,,-0.3,
West Freugh,28/10/2019 19:00,2.5,8,,,0,,81,,20,Dry,1028,0,50,,,,-0.3,
West Freugh,28/10/2019 20:00,2,7,,,0,,84,,360,Dry,1029,,50,,,,-0.4,
West Freugh,28/10/2019 21:00,-0.1,3,,,0,,84,,320,Dry,1029,0,45,,,,-2.4,
West Freugh,28/10/2019 22:00,1.1,5,,,0,,86,,360,Dry,1029,0,50,,,,-0.9,
West Freugh,28/10/2019 23:00,0.7,7,,,0,,87,,10,Dry,1029,0,50,,,,-1.2,
West Freugh,29/10/2019 00:00,-0.8,3,,,0,0,91,,330,Dry,1030,0,45,,,,-2,
West Freugh,29/10/2019 01:00,-1.9,3,,,0,,91,,330,Dry,1030,0,40,,,,-3.1,
West Freugh,29/10/2019 02:00,-1.8,2,,,0,,94,,310,Dry,1029,0,40,,,,-2.6,
West Freugh,29/10/2019 03:00,-2.4,3,,,0,,94,,310,Dry,1029,0,45,,,,-3.2,
West Freugh,29/10/2019 04:00,-1.6,5,,,0,,92,,300,Dry,1029,0,50,,,,-2.7,
West Freugh,29/10/2019 05:00,0.8,5,,,0,,95,,20,Dry,1029,,45,,,,0.1,
West Freugh,29/10/2019 06:00,0.1,9,-2.7,,0,0,89,,20,Dry,1029,0,45,,,,-1.4,
West Freugh,29/10/2019 07:00,1.8,6,,,0,,89,,10,Dry,1030,0,50,,,,0.3,
West Freugh,29/10/2019 08:00,1.8,7,,,0,,88,,30,Dry,1030,0,50,,,,0.1,
West Freugh,29/10/2019 09:00,5.4,5,,,0,,83,,30,Dry,1030,0,40,,,,2.9,
West Freugh,29/10/2019 10:00,7.5,7,,,0.2,,76,,70,Dry,1030,0,40,,,,3.7,
West Freugh,29/10/2019 11:00,8.8,9,,,0,,74,,70,Dry,1030,0,50,,,,4.6,
West Freugh,29/10/2019 12:00,9.5,14,,,0,0.2,67,,90,Dry,1030,0,40,,,,3.8,
West Freugh,29/10/2019 13:00,10,14,,,0,,63,,90,Dry,1030,1,30,,,,3.4,
West Freugh,29/10/2019 14:00,9.9,10,,,0,,67,,80,Dry,1030,2,26,,,,4.1,
West Freugh,29/10/2019 15:00,9.4,13,,,0,,62,,100,Dry,1029,0,35,,,,2.7,
West Freugh,29/10/2019 16:00,8.7,9,,,0,,66,,90,Dry,1029,0,50,,,,2.9,
West Freugh,29/10/2019 17:00,6.5,8,,,0,,79,,60,Dry,1029,1,50,,,,3.2,
West Freugh,29/10/2019 18:00,5.9,12,,10.6,0,0,82,,60,Dry,1030,0,45,,,,3.1,
West Freugh,29/10/2019 19:00,5.9,10,,,0,,84,,60,Dry,1030,1,50,,,,3.5,
West Freugh,29/10/2019 20:00,5.5,12,,,0,,83,,70,Dry,1030,1,50,,,,2.9,
West Freugh,29/10/2019 21:00,5.4,14,,,0,,84,,60,Dry,1030,0,45,,,,3,
West Freugh,29/10/2019 22:00,5.1,13,,,0,,85,,60,Dry,1030,0,50,,,,2.8,
West Freugh,29/10/2019 23:00,5.2,13,,,0,,84,,80,Dry,1030,4,45,,,,2.8,
West Freugh,30/10/2019 00:00,4.2,12,,,0,0,86,,70,Dry,1030,1,50,,,,2.2,
West Freugh,30/10/2019 01:00,3.9,12,,,0,,87,,70,Dry,1029,0,40,,,,2,
West Freugh,30/10/2019 02:00,4,12,,,0,,88,,70,Dry,1029,,40,,,,2.2,
West Freugh,30/10/2019 03:00,3.8,12,,,0,,88,,60,Dry,1028,,45,,,,2.1,
West Freugh,30/10/2019 04:00,4.2,13,,,0,,86,,60,Dry,1028,0,45,,,,2.2,
West Freugh,30/10/2019 05:00,3.9,10,,,0,,87,,70,Dry,1028,0,45,,,,2,
West Freugh,30/10/2019 06:00,3.8,12,3.6,,0,0,88,,60,Dry,1028,0,50,,,,2,
West Freugh,30/10/2019 07:00,4.2,13,,,0,,86,,60,Dry,1028,1,45,,,,2.2,
West Freugh,30/10/2019 08:00,4.6,14,,,0,,86,,60,Dry,1028,1,45,,,,2.5,
West Freugh,30/10/2019 09:00,5.9,14,,,0,,82,,60,Dry,1028,1,35,,,,3.1,
West Freugh,30/10/2019 10:00,7.4,15,,,0,,77,,70,Dry,1027,1,50,,,,3.7,
West Freugh,30/10/2019 11:00,8.8,14,,,0,,72,,80,Dry,1027,0,45,,,,4.2,
West Freugh,30/10/2019 12:00,10,14,,,0,0,67,,90,Dry,1027,0,45,,,,4.3,
West Freugh,30/10/2019 13:00,10.5,16,,,0,,65,,100,Dry,1026,0,50,,,,4.3,
West Freugh,30/10/2019 14:00,10.5,16,,,0,,65,,90,Dry,1025,1,50,,,,4.3,
West Freugh,30/10/2019 15:00,9.6,16,,,0,,69,,90,Dry,1025,4,45,,,,4.4,
West Freugh,30/10/2019 16:00,8.6,13,,,0,,75,,80,Dry,1024,2,40,,,,4.5,
West Freugh,30/10/2019 17:00,7.2,12,,,0,,80,,70,Dry,1024,2,50,,,,4,
West Freugh,30/10/2019 18:00,6.9,15,,11,0,0,81,,80,Dry,1024,0,50,,,,3.9,
West Freugh,30/10/2019 19:00,6.4,14,,,0,,84,,80,Dry,1024,2,45,,,,3.9,
West Freugh,30/10/2019 20:00,6.3,14,,,0,,85,,80,Dry,1024,0,50,,,,4.1,
West Freugh,30/10/2019 21:00,5.9,15,,,0,,85,,80,Dry,1024,,40,,,,3.6,
West Freugh,30/10/2019 22:00,4.6,9,,,0,,87,,70,Dry,1024,4,40,,,,2.7,
West Freugh,30/10/2019 23:00,4.8,9,,,0,,88,,70,Dry,1023,6,40,,,,3,
West Freugh,31/10/2019 00:00,4.6,10,,,0,0,85,,70,Dry,1023,6,35,,,,2.4,
Strathallan,01/09/2019 00:00,10.4,14,,,0,0,89,,220,Dry,1007,3,40,,,,8.8,
Strathallan,01/09/2019 01:00,10,16,,,0,,89,,230,Dry,1007,1,50,0,,,8.3,
Strathallan,01/09/2019 02:00,9.9,15,,,0,,88,,230,Dry,1008,2,50,0,,,8.1,
Strathallan,01/09/2019 03:00,9.9,13,,,0,,90,,230,Dry,1008,2,45,0,,,8.5,
Strathallan,01/09/2019 04:00,10.2,14,,,0,,89,,220,Dry,1008,6,45,0,,,8.6,
Strathallan,01/09/2019 05:00,9.8,12,,,0,,91,,230,Dry,1008,2,50,0,,,8.5,
Strathallan,01/09/2019 06:00,9.8,7,9.7,,0,0,90,,220,Dry,1009,2,45,25,,,8.4,
Strathallan,01/09/2019 07:00,11.2,13,,,0,,85,,220,Dry,1010,6,40,352,,,8.8,
Strathallan,01/09/2019 08:00,12.2,10,,,0,,80,,230,Dry,1010,0,35,688,,,8.9,
Strathallan,01/09/2019 09:00,13.9,8,,,0,,75,,230,Dry,1011,3,35,1004,,,9.6,
Strathallan,01/09/2019 10:00,14.7,12,,,0,,58,,260,Dry,1012,3,45,1293,,,6.7,
Strathallan,01/09/2019 11:00,15.7,10,,,0,,55,,280,Dry,1012,5,40,1412,,,6.7,
Strathallan,01/09/2019 12:00,15.8,12,,,0,0,51,,280,Dry,1013,4,35,1741,,,5.8,
Strathallan,01/09/2019 13:00,15.5,10,,,0,,54,,270,Dry,1014,7,45,1706,,,6.3,
Strathallan,01/09/2019 14:00,16.1,9,,,0,,52,,290,Dry,1014,5,45,1980,,,6.3,
Strathallan,01/09/2019 15:00,13.7,14,,,0.4,,67,,280,Rain,1014,7,50,927,,,7.9,
Strathallan,01/09/2019 16:00,15.3,13,,,0,,56,,270,Dry,1015,2,50,1208,,,6.8,
Strathallan,01/09/2019 17:00,15,9,,,0,,55,,260,Dry,1015,5,45,993,,,6.3,
Strathallan,01/09/2019 18:00,13.1,6,,17.4,0,0.4,70,,240,Dry,1016,7,50,306,,,7.9,
Strathallan,01/09/2019 19:00,11.8,8,,,0,,77,,220,Dry,1017,7,40,95,,,8,
Strathallan,01/09/2019 20:00,11.4,7,,,0,,76,,220,Dry,1017,8,45,2,,,7.5,
Strathallan,01/09/2019 21:00,10.8,7,,,0,,83,,240,Rain,1017,8,50,0,,,8.1,
Strathallan,01/09/2019 22:00,10.2,7,,,0,,85,,230,Dry,1018,7,50,0,,,7.8,
Strathallan,01/09/2019 23:00,10.2,8,,,0,,84,,230,Dry,1018,7,50,0,,,7.7,
Strathallan,02/09/2019 00:00,9.7,9,,,0,0,87,,240,Dry,1018,2,50,,,,7.7,
Strathallan,02/09/2019 01:00,9.6,7,,,0,,88,,260,Dry,1018,8,50,0,,,7.8,
Strathallan,02/09/2019 02:00,9.3,7,,,0,,91,,230,Dry,1018,5,45,0,,,8,
Strathallan,02/09/2019 03:00,9.4,6,,,0,,92,,230,Dry,1017,1,45,0,,,8.3,
Strathallan,02/09/2019 04:00,9.3,5,,,0,,94,,250,Dry,1017,6,45,0,,,8.4,
Strathallan,02/09/2019 05:00,10,5,,,0,,93,,240,Dry,1017,8,45,0,,,9,
Strathallan,02/09/2019 06:00,10.1,5,8.7,,0,0,93,,280,Dry,1016,,50,7,,,9.1,
Strathallan,02/09/2019 07:00,10.6,2,,,0,,92,,310,Dry,1016,8,45,100,,,9.5,
Strathallan,02/09/2019 08:00,12.2,8,,,0,,87,,230,Drizzly rain,1016,7,30,303,,,10.2,
Strathallan,02/09/2019 09:00,12.9,9,,,0,,86,,220,Light shower,1015,2,17,495,,,10.7,
Strathallan,02/09/2019 10:00,13.1,13,,,0,,89,,210,Drizzly rain,1014,7,4,735,,,11.4,
Strathallan,02/09/2019 11:00,14.3,16,,,0.2,,86,,220,Light shower,1013,8,35,836,,,12,
Strathallan,02/09/2019 12:00,14.8,18,,,0,0.2,83,31,220,Rain,1012,7,11,1050,,,12.1,
Strathallan,02/09/2019 13:00,14.9,17,,,0,,88,31,220,Rain,1011,7,22,1268,,,13,
Strathallan,02/09/2019 14:00,15,20,,,0.6,,90,36,230,Rain,1011,8,7,1362,,,13.4,
Strathallan,02/09/2019 15:00,15,22,,,0.2,,90,37,230,Rain,1010,8,4,1277,,,13.5,
Strathallan,02/09/2019 16:00,15.2,18,,,0,,90,37,230,Rain,1010,8,9,1116,,,13.7,
Strathallan,02/09/2019 17:00,14.5,17,,,0,,92,31,230,Light drizzle,1010,8,5,892,,,13.3,
Strathallan,02/09/2019 18:00,14.3,16,,15.6,0,0.8,93,29,230,Light drizzle,1010,5,7,218,,,13.3,
Strathallan,02/09/2019 19:00,14.2,13,,,0.2,,95,,220,Light rain,1010,7,5,40,,,13.5,
Strathallan,02/09/2019 20:00,14.4,14,,,0.2,,94,,220,Light shower,1011,5,40,3,,,13.5,
Strathallan,02/09/2019 21:00,15,20,,,0,,88,32,220,Rain,1011,7,50,0,,,13.1,
Strathallan,02/09/2019 22:00,14.3,14,,,0,,88,,230,Dry,1012,2,50,0,,,12.5,
Strathallan,02/09/2019 23:00,14.2,15,,,0,,91,,230,Dry,1012,5,50,0,,,12.8,
Strathallan,03/09/2019 00:00,13.7,9,,,0,0.4,90,,240,Dry,1013,5,50,,,,12.1,
Strathallan,03/09/2019 01:00,13.7,10,,,0,,91,,230,Dry,1014,7,50,0,,,12.4,
Strathallan,03/09/2019 02:00,13.2,9,,,0,,91,,240,Dry,1014,1,50,0,,,11.8,
Strathallan,03/09/2019 03:00,13.1,8,,,0,,93,,230,Dry,1014,,45,0,,,12.1,
Strathallan,03/09/2019 04:00,12.7,7,,,0,,94,,240,Dry,1014,,50,0,,,11.8,
Strathallan,03/09/2019 05:00,12.9,9,,,0,,94,,220,Dry,1014,,50,0,,,12,
Strathallan,03/09/2019 06:00,13.7,8,12.6,,0,0,93,,240,Dry,1015,7,50,13,,,12.7,
Strathallan,03/09/2019 07:00,14.3,6,,,0,,91,,240,Dry,1015,7,50,97,,,13,
Strathallan,03/09/2019 08:00,14,5,,,0,,96,,240,Light shower,1015,8,23,163,,,13.4,
Strathallan,03/09/2019 09:00,15.2,6,,,0.2,,95,,250,Rain,1015,2,25,437,,,14.5,
Strathallan,03/09/2019 10:00,16.6,10,,,0,,85,,230,Dry,1015,6,40,840,,,14.2,
Strathallan,03/09/2019 11:00,16.8,7,,,0,,84,,220,Dry,1014,8,40,833,,,14.2,
Strathallan,03/09/2019 12:00,16.5,6,,,0,0.2,87,,230,Drizzly rain,1014,8,6,498,,,14.5,
Strathallan,03/09/2019 13:00,16.8,9,,,0,,85,,220,Rain,1014,8,11,509,,,14.3,
Strathallan,03/09/2019 14:00,17.1,8,,,0,,84,,220,Dry,1013,7,50,397,,,14.5,
Strathallan,03/09/2019 15:00,16.6,7,,,0.2,,89,,240,Moderate shower,1012,8,14,301,,,14.9,
Strathallan,03/09/2019 16:00,16.7,10,,,0.6,,90,,230,Rain,1012,8,5,311,,,15.1,
Strathallan,03/09/2019 17:00,15.3,9,,,0.2,,89,30,220,Rain,1011,7,50,254,,,13.5,
Strathallan,03/09/2019 18:00,15.4,10,,17.1,0,0.8,89,,220,Dry,1011,8,21,184,,,13.7,
Strathallan,03/09/2019 19:00,14.9,8,,,0,,91,,220,Rain,1010,8,50,55,,,13.6,
Strathallan,03/09/2019 20:00,15.1,13,,,0,,91,,220,Dry,1010,2,45,5,,,13.8,
Strathallan,03/09/2019 21:00,14.8,10,,,0.4,,94,,220,Rain,1010,8,50,0,,,13.9,
Strathallan,03/09/2019 22:00,14.5,9,,,0,,93,,230,Dry,1009,2,50,0,,,13.5,
Strathallan,03/09/2019 23:00,13.5,9,,,0,,94,,230,Dry,1009,1,50,0,,,12.6,
Strathallan,04/09/2019 00:00,13.3,9,,,0,0.4,92,,220,Dry,1009,,50,,,,12.1,
Strathallan,04/09/2019 01:00,12.3,10,,,0,,90,,220,Dry,1008,1,35,0,,,10.8,
Strathallan,04/09/2019 02:00,11.5,10,,,0,,89,,230,Dry,1008,4,35,0,,,9.9,
Strathallan,04/09/2019 03:00,11,7,,,0,,91,,250,Drizzly rain,1008,6,12,0,,,9.6,
Strathallan,04/09/2019 04:00,10.3,12,,,0,,92,,220,Rain,1007,1,22,0,,,9.2,
Strathallan,04/09/2019 05:00,9.4,5,,,0,,92,,200,Dry,1007,1,20,0,,,8.2,
Strathallan,04/09/2019 06:00,9.5,6,9,,0,0,90,,220,Dry,1006,5,24,17,,,8.1,
Strathallan,04/09/2019 07:00,10.8,8,,,0,,88,,230,Dry,1006,5,21,275,,,8.9,
Strathallan,04/09/2019 08:00,11,8,,,1,,92,,210,Light shower,1005,6,26,393,,,9.9,
Strathallan,04/09/2019 09:00,11.8,6,,,0.8,,88,,190,Rain,1004,8,22,391,,,9.9,
Strathallan,04/09/2019 10:00,11,3,,,1.2,,89,,210,Light shower,1004,1,12,645,,,9.3,
Strathallan,04/09/2019 11:00,11.6,6,,,1.4,,90,,200,Light rain,1003,8,7,336,,,10.1,
Strathallan,04/09/2019 12:00,13.8,5,,,0,4,87,,280,Rain,1002,8,35,918,,,11.7,
Strathallan,04/09/2019 13:00,14,8,,,0,,84,,20,Rain,1003,3,45,1377,,,11.4,
Strathallan,04/09/2019 14:00,13.6,8,,,0,,86,,20,Rain,1006,2,50,1404,,,11.4,
Strathallan,04/09/2019 15:00,15.7,16,,,0,,60,,340,Dry,1007,3,40,1787,,,8,
Strathallan,04/09/2019 16:00,16.2,10,,,0,,56,,340,Dry,1008,6,40,1135,,,7.5,
Strathallan,04/09/2019 17:00,13.1,13,,,0.2,,78,,350,Rain,1011,4,50,493,,,9.4,
Strathallan,04/09/2019 18:00,11.8,14,,16.7,0,1,79,,350,Rain,1013,6,40,285,,,8.3,
Strathallan,04/09/2019 19:00,11.8,18,,,0,,65,,340,Dry,1014,1,50,181,,,5.6,
Strathallan,04/09/2019 20:00,10.9,12,,,0,,67,35,290,Dry,1016,,50,2,,,5.1,
Strathallan,04/09/2019 21:00,11.1,13,,,0,,61,29,320,Dry,1017,0,50,0,,,3.9,
Strathallan,04/09/2019 22:00,10.9,12,,,0,,58,35,310,Dry,1019,2,50,0,,,3.2,
Strathallan,04/09/2019 23:00,10.6,9,,,0,,62,,310,Dry,1019,6,50,0,,,3.8,
Strathallan,05/09/2019 00:00,9.2,6,,,0,0,68,,270,Dry,1020,1,50,,,,3.7,
Strathallan,05/09/2019 01:00,8.5,5,,,0,,69,,220,Dry,1021,6,35,0,,,3.2,
Strathallan,05/09/2019 02:00,8.4,7,,,0,,69,,240,Dry,1021,7,50,0,,,3.1,
Strathallan,05/09/2019 03:00,10.3,13,,,0,,59,,230,Dry,1021,7,50,0,,,2.8,
Strathallan,05/09/2019 04:00,9,6,,,0,,65,,240,Dry,1021,8,50,0,,,2.9,
Strathallan,05/09/2019 05:00,7.4,2,,,0,,74,,240,Dry,1021,,50,0,,,3.1,
Strathallan,05/09/2019 06:00,8.4,9,6.8,,0,0,75,,230,Dry,1021,5,50,15,,,4.3,
Strathallan,05/09/2019 07:00,9.4,7,,,0,,73,,250,Dry,1022,,50,184,,,4.9,
Strathallan,05/09/2019 08:00,10.3,6,,,0,,75,,250,Dry,1022,,40,234,,,6.2,
Strathallan,05/09/2019 09:00,11.2,8,,,0,,79,,220,Dry,1021,4,40,521,,,7.7,
Strathallan,05/09/2019 10:00,12.3,12,,,0,,76,,220,Dry,1021,2,40,758,,,8.3,
Strathallan,05/09/2019 11:00,16.1,13,,,0,,73,,240,Dry,1020,4,30,1135,,,11.4,
Strathallan,05/09/2019 12:00,17.3,15,,,0,0,56,,240,Dry,1020,7,45,1847,,,8.6,
Strathallan,05/09/2019 13:00,16.8,16,,,0,,54,,260,Dry,1020,8,35,743,,,7.6,
Strathallan,05/09/2019 14:00,17.2,14,,,0,,52,29,260,Dry,1020,6,30,2120,,,7.5,
Strathallan,05/09/2019 15:00,16.9,20,,,0,,55,29,250,Dry,1020,2,30,1769,,,8,
Strathallan,05/09/2019 16:00,15.7,16,,,0,,60,33,250,Dry,1020,,28,1016,,,8,
Strathallan,05/09/2019 17:00,14.7,16,,,0,,61,,250,Dry,1019,3,23,401,,,7.5,
Strathallan,05/09/2019 18:00,14.3,18,,18.4,0,0,65,,250,Dry,1020,3,17,207,,,7.9,
Strathallan,05/09/2019 19:00,13.5,9,,,0,,70,,230,Dry,1019,,22,39,,,8.3,
Strathallan,05/09/2019 20:00,12.8,14,,,0,,79,,230,Dry,1018,,16,0,,,9.3,
Strathallan,05/09/2019 21:00,12.1,12,,,0,,85,29,240,Rain,1017,7,14,0,,,9.8,
Strathallan,05/09/2019 22:00,12.5,13,,,0,,84,,230,Dry,1016,7,11,0,,,10,
Strathallan,05/09/2019 23:00,12,14,,,0.2,,88,30,230,Drizzly rain,1014,8,8,0,,,10.2,
Strathallan,06/09/2019 00:00,11.7,14,,,0.2,0.4,90,,220,Light rain,1013,5,5,,,,10.2,
Strathallan,06/09/2019 01:00,11.7,18,,,0.4,,92,33,220,Moderate drizzle,1011,4,5,0,,,10.6,
Strathallan,06/09/2019 02:00,12,20,,,0.8,,93,36,220,Light drizzle,1010,8,5,0,,,11,
Strathallan,06/09/2019 03:00,12.3,17,,,0.4,,94,31,230,Drizzle,1010,6,35,0,,,11.4,
Strathallan,06/09/2019 04:00,12.8,15,,,0,,93,,220,Dry,1009,2,22,0,,,11.8,
Strathallan,06/09/2019 05:00,11.7,10,,,0,,85,,250,Dry,1010,3,50,0,,,9.3,
Strathallan,06/09/2019 06:00,10.5,10,10.4,,0,1.6,84,,230,Dry,1010,5,35,10,,,8,
Strathallan,06/09/2019 07:00,11.7,15,,,0,,76,,240,Dry,1010,4,35,235,,,7.7,
Strathallan,06/09/2019 08:00,11.7,13,,,0,,74,,250,Dry,1011,7,40,311,,,7.4,
Strathallan,06/09/2019 09:00,12.4,13,,,0,,75,,230,Dry,1011,5,50,565,,,8.1,
Strathallan,06/09/2019 10:00,13.7,15,,,0,,74,,210,Dry,1011,1,30,1015,,,9.3,
Strathallan,06/09/2019 11:00,14.7,14,,,0,,78,,230,Rain,1012,8,50,1515,,,11.1,
Strathallan,06/09/2019 12:00,14.6,14,,,0,0,71,,250,Dry,1012,2,50,1171,,,9.5,
Strathallan,06/09/2019 13:00,15.4,8,,,0,,71,,270,Rain,1012,7,50,831,,,10.3,
Strathallan,06/09/2019 14:00,16.1,10,,,0,,62,,270,Rain,1012,3,50,961,,,9,
Strathallan,06/09/2019 15:00,16,13,,,0,,66,,270,Dry,1013,6,30,751,,,9.7,
Strathallan,06/09/2019 16:00,16.2,13,,,0,,63,,260,Dry,1013,1,50,802,,,9.3,
Strathallan,06/09/2019 17:00,16.2,13,,,0,,60,,260,Dry,1014,2,50,704,,,8.5,
Strathallan,06/09/2019 18:00,15.2,10,,17,0,0,67,,240,Dry,1015,5,50,578,,,9.2,
Strathallan,06/09/2019 19:00,14.6,9,,,0,,67,,240,Dry,1016,1,50,97,,,8.7,
Strathallan,06/09/2019 20:00,13.7,9,,,0,,68,,280,Dry,1017,7,50,0,,,8.1,
Strathallan,06/09/2019 21:00,12.4,7,,,0,,76,,270,Dry,1018,7,50,0,,,8.3,
Strathallan,06/09/2019 22:00,12.9,12,,,0,,63,,310,Dry,1019,1,45,0,,,6.1,
Strathallan,06/09/2019 23:00,11.9,7,,,0,,66,,290,Dry,1020,1,50,0,,,5.9,
Strathallan,07/09/2019 00:00,9,3,,,0,0,80,,230,Dry,1020,1,50,,,,5.8,
Strathallan,07/09/2019 01:00,10.1,8,,,0,,76,,300,Dry,1021,0,50,0,,,6.1,
Strathallan,07/09/2019 02:00,9.8,2,,,0,,73,,150,Dry,1021,1,50,0,,,5.3,
Strathallan,07/09/2019 03:00,9.9,6,,,0,,79,,340,Dry,1022,1,50,0,,,6.5,
Strathallan,07/09/2019 04:00,9.6,8,,,0,,78,,360,Dry,1023,2,50,0,,,6.1,
Strathallan,07/09/2019 05:00,9.6,10,,,0,,69,,360,Dry,1024,0,50,0,,,4.3,
Strathallan,07/09/2019 06:00,8.5,6,7.4,,0,0,70,,360,Dry,1025,,50,4,,,3.4,
Strathallan,07/09/2019 07:00,9.4,5,,,0,,73,,310,Dry,1025,0,45,265,,,5,
Strathallan,07/09/2019 08:00,11,3,,,0,,63,,340,Dry,1026,,50,389,,,4.3,
Strathallan,07/09/2019 09:00,12.7,6,,,0,,56,,10,Dry,1026,0,45,1095,,,4.3,
Strathallan,07/09/2019 10:00,13.2,8,,,0,,55,,10,Dry,1026,2,40,1340,,,4.5,
Strathallan,07/09/2019 11:00,14.5,5,,,0,,52,,30,Dry,1026,6,27,1824,,,4.8,
Strathallan,07/09/2019 12:00,14.9,2,,,0,0,47,,200,Dry,1026,5,50,1696,,,3.8,
Strathallan,07/09/2019 13:00,16.1,7,,,0,,46,,250,Dry,1026,2,45,2466,,,4.6,
Strathallan,07/09/2019 14:00,16.6,7,,,0,,49,,220,Dry,1026,2,40,2327,,,5.9,
Strathallan,07/09/2019 15:00,16.7,6,,,0,,48,,230,Dry,1026,6,45,1625,,,5.9,
Strathallan,07/09/2019 16:00,17,6,,,0,,48,,230,Dry,1026,0,45,1565,,,6.1,
Strathallan,07/09/2019 17:00,16.3,6,,,0,,48,,240,Dry,1026,0,35,1059,,,5.4,
Strathallan,07/09/2019 18:00,14.5,2,,17.2,0,0,58,,210,Dry,1026,,45,460,,,6.4,
Strathallan,07/09/2019 19:00,11.4,3,,,0,,71,,220,Dry,1027,0,35,129,,,6.4,
Strathallan,07/09/2019 20:00,8.6,0,,,0,,85,,0,Dry,1027,,50,0,,,6.3,
Strathallan,07/09/2019 21:00,7.7,5,,,0,,94,,30,Dry,1027,0,18,0,,,6.8,
Strathallan,07/09/2019 22:00,6.3,2,,,0,,95,,250,Fog,1027,0,45,0,,,5.6,
Strathallan,07/09/2019 23:00,5.7,2,,,0,,96,,240,Dry,1027,0,45,0,,,5.2,
Strathallan,08/09/2019 00:00,4.7,2,,,0,0,97,,260,Dry,1027,,30,,,,4.3,
Strathallan,08/09/2019 01:00,4,2,,,0,,97,,220,Dry,1027,,35,0,,,3.6,
Strathallan,08/09/2019 02:00,3.5,3,,,0,,97,,250,Dry,1027,1,35,0,,,3.2,
Strathallan,08/09/2019 03:00,3.6,1,,,0,,98,,190,Dry,1026,7,29,0,,,3.4,
Strathallan,08/09/2019 04:00,4.7,0,,,0,,99,,0,Dry,1026,8,35,0,,,4.6,
Strathallan,08/09/2019 05:00,5.7,1,,,0,,99,,50,Dry,1025,8,50,1,,,5.6,
Strathallan,08/09/2019 06:00,6.3,1,3.4,,0,0,99,,310,Dry,1025,8,40,9,,,6.2,
Strathallan,08/09/2019 07:00,7.2,3,,,0,,99,,280,Dry,1025,8,50,115,,,7.1,
Strathallan,08/09/2019 08:00,7.7,3,,,0,,97,,310,Dry,1025,8,16,192,,,7.4,
Strathallan,08/09/2019 09:00,8.1,2,,,0,,95,,300,Dry,1024,8,19,369,,,7.4,
Strathallan,08/09/2019 10:00,9.6,1,,,0,,90,,320,Dry,1024,8,22,737,,,8.1,
Strathallan,08/09/2019 11:00,12,3,,,0,,80,,70,Dry,1023,1,24,1620,,,8.8,
Strathallan,08/09/2019 12:00,14.6,7,,,0,0,65,,220,Dry,1022,3,40,2186,,,8.3,
Strathallan,08/09/2019 13:00,14.5,10,,,0,,68,,230,Dry,1021,7,45,1753,,,8.8,
Strathallan,08/09/2019 14:00,13.7,8,,,0,,73,,220,Dry,1021,8,45,957,,,9.1,
Strathallan,08/09/2019 15:00,13.9,8,,,0,,73,,220,Dry,1020,8,50,672,,,9.3,
Strathallan,08/09/2019 16:00,13.9,9,,,0,,77,,240,Dry,1019,8,50,635,,,10.1,
Strathallan,08/09/2019 17:00,13.8,7,,,0,,79,,230,Dry,1019,7,45,367,,,10.3,
Strathallan,08/09/2019 18:00,13.4,5,,15.1,0,0,80,,240,Dry,1018,7,50,221,,,10.2,
Strathallan,08/09/2019 19:00,13,1,,,0,,84,,250,Dry,1017,8,45,42,,,10.5,
Strathallan,08/09/2019 20:00,12.5,1,,,0,,89,,240,Dry,1017,8,35,0,,,10.8,
Strathallan,08/09/2019 21:00,12.2,2,,,0,,91,,220,Light drizzle,1016,8,6,0,,,10.9,
Strathallan,08/09/2019 22:00,11.8,2,,,0.4,,96,,50,Light rain,1016,8,4,0,,,11.2,
Strathallan,08/09/2019 23:00,11.6,2,,,1.2,,97,,60,Moderate rain,1015,8,2,0,,,11.2,
Strathallan,09/09/2019 00:00,11.4,5,,,1,3,98,,70,Moderate rain,1014,2,3,,,,11.1,
Strathallan,09/09/2019 01:00,11.3,3,,,0.8,,98,,60,Moderate rain,1013,7,5,0,,,11.1,
Strathallan,09/09/2019 02:00,11.4,3,,,1,,98,,70,Moderate drizzle,1012,8,3,0,,,11.2,
Strathallan,09/09/2019 03:00,11.5,5,,,1.4,,98,,70,Moderate rain,1011,1,4,0,,,11.3,
Strathallan,09/09/2019 04:00,11.5,6,,,1,,98,,60,Moderate rain,1010,1,5,0,,,11.3,
Strathallan,09/09/2019 05:00,11.4,6,,,2,,99,,60,Moderate rain,1010,8,4,0,,,11.3,
Strathallan,09/09/2019 06:00,11.5,5,11.3,,2.8,9,98,,50,Moderate rain,1009,7,7,1,,,11.3,
Strathallan,09/09/2019 07:00,11.6,5,,,0.6,,98,,60,Drizzly rain,1009,8,10,25,,,11.4,
Strathallan,09/09/2019 08:00,12,3,,,0.6,,98,,50,Light drizzle,1009,8,17,101,,,11.7,
Strathallan,09/09/2019 09:00,12.4,0,,,0.4,,98,,0,Moderate rain,1009,1,6,207,,,12.1,
Strathallan,09/09/2019 10:00,12.9,1,,,0.4,,96,,280,Moderate rain,1009,8,16,357,,,12.3,
Strathallan,09/09/2019 11:00,13.5,2,,,0.2,,91,,310,Light rain,1009,8,30,704,,,12.1,
Strathallan,09/09/2019 12:00,14.7,2,,,0,2,87,,340,Rain,1009,8,40,1058,,,12.6,
Strathallan,09/09/2019 13:00,15.8,1,,,0,,82,,50,Dry,1009,8,40,1144,,,12.8,
Strathallan,09/09/2019 14:00,15.5,2,,,0,,80,,60,Dry,1010,8,27,768,,,12.1,
Strathallan,09/09/2019 15:00,14.9,3,,,0,,82,,120,Fog,1010,7,50,540,,,12,
Strathallan,09/09/2019 16:00,13.2,3,,,1.2,,92,,160,Light rain,1011,8,9,140,,,12,
Strathallan,09/09/2019 17:00,13.4,2,,,0.8,,94,,30,Moderate rain,1012,7,2,247,,,12.6,
Strathallan,09/09/2019 18:00,13.5,1,,16,0.4,3,95,,30,Light drizzle,1012,8,7,245,,,12.8,
Strathallan,09/09/2019 19:00,13.2,1,,,0,,95,,20,Rain,1013,7,40,47,,,12.5,
Strathallan,09/09/2019 20:00,12.9,0,,,0,,96,,0,Misty,1014,8,6,0,,,12.3,
Strathallan,09/09/2019 21:00,12.7,1,,,0,,96,,310,Misty,1014,8,10,0,,,12.2,
Strathallan,09/09/2019 22:00,12.4,3,,,0.2,,97,,360,Moderate drizzle,1015,1,2,0,,,12,
Strathallan,09/09/2019 23:00,12.3,0,,,0.2,,97,,0,Drizzle,1015,8,8,0,,,11.9,
Strathallan,10/09/2019 00:00,12.1,2,,,0,0.4,98,,260,Misty,1015,7,5,,,,11.8,
Strathallan,10/09/2019 01:00,11.7,2,,,0,,98,,250,Fog,1016,6,4,0,,,11.5,
Strathallan,10/09/2019 02:00,11.8,0,,,0,,98,,0,Misty,1016,8,5,0,,,11.5,
Strathallan,10/09/2019 03:00,11.8,0,,,0,,98,,0,Drizzly rain,1016,8,2,0,,,11.6,
Strathallan,10/09/2019 04:00,11.7,0,,,0.2,,98,,0,Rain,1016,8,11,0,,,11.5,
Strathallan,10/09/2019 05:00,11.3,1,,,0,,98,,240,Dry,1016,8,16,0,,,11,
Strathallan,10/09/2019 06:00,11,0,10.9,,0,0.2,98,,0,Fog,1017,8,24,3,,,10.8,
Strathallan,10/09/2019 07:00,11.4,0,,,0,,98,,0,Dry,1017,8,18,64,,,11.2,
Strathallan,10/09/2019 08:00,12.3,1,,,0,,99,,210,Dry,1018,8,45,284,,,12.2,
Strathallan,10/09/2019 09:00,13.3,5,,,0,,94,,240,Dry,1018,8,50,563,,,12.4,
Strathallan,10/09/2019 10:00,13.7,3,,,0,,87,,200,Dry,1017,8,40,694,,,11.7,
Strathallan,10/09/2019 11:00,14.4,7,,,0,,80,,230,Dry,1017,7,45,867,,,11,
Strathallan,10/09/2019 12:00,15.5,7,,,0,0,76,,220,Dry,1016,5,40,1013,,,11.3,
Strathallan,10/09/2019 13:00,15.1,14,,,0,,59,,230,Dry,1016,,45,1626,,,7.3,
Strathallan,10/09/2019 14:00,15.2,13,,,0,,60,,220,Dry,1015,1,23,1483,,,7.5,
Strathallan,10/09/2019 15:00,14.5,14,,,0,,64,,240,Dry,1015,7,30,1081,,,7.8,
Strathallan,10/09/2019 16:00,14,15,,,0,,65,,230,Dry,1014,8,29,407,,,7.7,
Strathallan,10/09/2019 17:00,13.1,10,,,0,,69,,220,Drizzly rain,1013,8,25,197,,,7.6,
Strathallan,10/09/2019 18:00,12.1,9,,15.9,0,0,81,,220,Light rain,1012,4,27,82,,,9,
Strathallan,10/09/2019 19:00,12,9,,,0,,84,,230,Drizzly rain,1012,8,20,14,,,9.4,
Strathallan,10/09/2019 20:00,11.7,6,,,0.4,,90,,250,Moderate rain,1010,8,10,0,,,10.2,
Strathallan,10/09/2019 21:00,11.6,6,,,1.2,,94,,260,Moderate rain,1009,8,5,0,,,10.7,
Strathallan,10/09/2019 22:00,11.8,3,,,0.8,,96,,340,Light drizzle,1008,8,5,0,,,11.2,
Strathallan,10/09/2019 23:00,12.9,10,,,1,,94,,230,Moderate rain,1006,8,12,0,,,12.1,
Strathallan,11/09/2019 00:00,13.5,14,,,1.4,5,93,,240,Moderate rain,1005,8,11,,,,12.5,
Strathallan,11/09/2019 01:00,14.2,12,,,0.2,,93,,240,Drizzly rain,1004,7,8,0,,,13.2,
Strathallan,11/09/2019 02:00,14.6,12,,,0.2,,95,,240,Light rain,1003,7,5,0,,,13.9,
Strathallan,11/09/2019 03:00,15.4,18,,,0,,93,30,230,Rain,1002,7,9,0,,,14.3,
Strathallan,11/09/2019 04:00,15.5,17,,,0.2,,93,30,230,Rain,1002,8,50,0,,,14.4,
Strathallan,11/09/2019 05:00,12.9,13,,,0,,88,,230,Dry,1003,0,50,0,,,11.1,
Strathallan,11/09/2019 06:00,12.5,16,11.5,,0,0,90,,220,Drizzly rain,1004,7,15,4,,,11,
Strathallan,11/09/2019 07:00,13.4,17,,,0,,84,29,220,Rain,1005,7,30,133,,,10.8,
Strathallan,11/09/2019 08:00,13.9,12,,,0,,83,,230,Dry,1006,8,27,270,,,11.1,
Strathallan,11/09/2019 09:00,14.1,13,,,0,,82,,220,Dry,1007,7,25,606,,,11.1,
Strathallan,11/09/2019 10:00,14.2,13,,,0,,75,,220,Dry,1008,6,25,908,,,10,
Strathallan,11/09/2019 11:00,14.4,16,,,0,,75,,210,Rain,1008,2,40,749,,,10.2,
Strathallan,11/09/2019 12:00,14.9,9,,,0,0,74,,210,Dry,1009,6,35,655,,,10.4,
Strathallan,11/09/2019 13:00,15.6,15,,,0,,68,29,220,Dry,1010,7,50,732,,,9.9,
Strathallan,11/09/2019 14:00,15.4,18,,,0,,66,,220,Dry,1010,8,35,1048,,,9.2,
Strathallan,11/09/2019 15:00,15.8,23,,,0,,67,32,250,Dry,1011,1,30,598,,,9.9,
Strathallan,11/09/2019 16:00,15.6,14,,,0,,66,35,230,Dry,1012,7,50,1535,,,9.3,
Strathallan,11/09/2019 17:00,14.6,13,,,0,,72,,230,Dry,1013,7,29,436,,,9.8,
Strathallan,11/09/2019 18:00,14.3,12,,17.3,0,0,72,,230,Dry,1013,6,35,269,,,9.5,
Strathallan,11/09/2019 19:00,13.6,12,,,0,,78,,230,Dry,1014,6,40,51,,,9.9,
Strathallan,11/09/2019 20:00,12.6,13,,,0,,85,,220,Rain,1015,4,16,0,,,10.2,
Strathallan,11/09/2019 21:00,12.5,13,,,0,,85,,230,Dry,1015,1,30,0,,,10.1,
Strathallan,11/09/2019 22:00,12.4,15,,,0,,88,,220,Dry,1016,3,30,0,,,10.5,
Strathallan,11/09/2019 23:00,12,14,,,0,,89,,230,Dry,1016,2,50,0,,,10.4,
Strathallan,12/09/2019 00:00,11.9,12,,,0,0,88,,220,Dry,1016,1,35,,,,10.1,
Strathallan,12/09/2019 01:00,12,13,,,0,,89,,220,Dry,1016,7,45,0,,,10.4,
Strathallan,12/09/2019 02:00,11.8,8,,,0,,89,,240,Dry,1016,7,50,0,,,10.2,
Strathallan,12/09/2019 03:00,11.6,10,,,0,,90,,230,Dry,1016,7,35,0,,,10.1,
Strathallan,12/09/2019 04:00,11.9,9,,,0,,88,,230,Dry,1017,7,30,0,,,10,
Strathallan,12/09/2019 05:00,11.9,9,,,0,,88,,220,Dry,1017,7,40,0,,,10,
Strathallan,12/09/2019 06:00,12,9,11.3,,0,0,89,,220,Dry,1017,1,35,1,,,10.4,
Strathallan,12/09/2019 07:00,12.2,8,,,0,,91,,220,Rain,1017,1,18,85,,,10.8,
Strathallan,12/09/2019 08:00,12.9,10,,,0,,88,,230,Dry,1017,8,45,252,,,11.1,
Strathallan,12/09/2019 09:00,13.5,10,,,0,,86,,220,Dry,1018,8,50,333,,,11.3,
Strathallan,12/09/2019 10:00,14.1,9,,,0,,86,,240,Rain,1018,8,45,505,,,11.8,
Strathallan,12/09/2019 11:00,14.4,8,,,0,,88,,240,Drizzly rain,1018,6,35,556,,,12.5,
Strathallan,12/09/2019 12:00,15.3,12,,,0,0,82,,230,Rain,1018,8,40,853,,,12.4,
Strathallan,12/09/2019 13:00,16.5,14,,,0,,78,,230,Rain,1018,7,40,1436,,,12.7,
Strathallan,12/09/2019 14:00,16.9,13,,,0,,74,,240,Moderate shower,1019,4,16,1903,,,12.3,
Strathallan,12/09/2019 15:00,17.9,9,,,0.2,,60,,290,Rain,1020,,50,1338,,,10.1,
Strathallan,12/09/2019 16:00,16.6,12,,,0,,58,,300,Dry,1020,3,50,1431,,,8.5,
Strathallan,12/09/2019 17:00,16.3,12,,,0,,54,,260,Dry,1021,,30,952,,,7.2,
Strathallan,12/09/2019 18:00,14.7,14,,18,0,0.2,57,,260,Dry,1023,0,45,436,,,6.5,
Strathallan,12/09/2019 19:00,11.1,6,,,0,,70,,210,Dry,1024,0,45,76,,,5.9,
Strathallan,12/09/2019 20:00,9.6,7,,,0,,75,,240,Dry,1025,0,45,0,,,5.5,
Strathallan,12/09/2019 21:00,8.1,7,,,0,,84,,250,Dry,1026,0,50,0,,,5.7,
Strathallan,12/09/2019 22:00,9.7,6,,,0,,77,,230,Dry,1027,0,30,0,,,5.9,
Strathallan,12/09/2019 23:00,8.8,7,,,0,,84,,230,Dry,1027,0,45,0,,,6.3,
Strathallan,13/09/2019 00:00,8,3,,,0,0,88,,120,Dry,1028,,40,,,,6.3,
Strathallan,13/09/2019 01:00,6.7,0,,,0,,91,,0,Dry,1028,,30,0,,,5.4,
Strathallan,13/09/2019 02:00,8.9,7,,,0,,90,,240,Dry,1028,1,35,0,,,7.4,
Strathallan,13/09/2019 03:00,9.2,7,,,0,,86,,230,Dry,1029,3,50,0,,,7,
Strathallan,13/09/2019 04:00,9.9,13,,,0,,84,,240,Dry,1029,,40,0,,,7.4,
Strathallan,13/09/2019 05:00,8.9,5,,,0,,87,,200,Dry,1030,0,45,0,,,7,
Strathallan,13/09/2019 06:00,8.8,6,6.7,,0,0,82,,220,Dry,1031,0,45,0,,,6,
Strathallan,13/09/2019 07:00,9.7,5,,,0,,80,,230,Dry,1032,,30,156,,,6.5,
Strathallan,13/09/2019 08:00,12.2,1,,,0,,70,,70,Dry,1032,0,30,453,,,7,
Strathallan,13/09/2019 09:00,13.3,12,,,0,,69,,220,Dry,1032,,25,1099,,,7.9,
Strathallan,13/09/2019 10:00,14.4,14,,,0,,67,,220,Dry,1033,,29,1256,,,8.4,
Strathallan,13/09/2019 11:00,15.8,16,,,0,,51,,240,Dry,1033,1,27,1837,,,5.8,
Strathallan,13/09/2019 12:00,15.4,16,,,0,0,49,,260,Dry,1034,2,35,1584,,,4.9,
Strathallan,13/09/2019 13:00,16.5,15,,,0,,49,,230,Dry,1034,3,45,1261,,,6,
Strathallan,13/09/2019 14:00,17.3,14,,,0,,48,,250,Rain,1033,3,50,1813,,,6.4,
Strathallan,13/09/2019 15:00,16.6,15,,,0,,50,,230,Dry,1033,1,45,1494,,,6.3,
Strathallan,13/09/2019 16:00,16.2,12,,,0,,54,,240,Dry,1033,,28,1016,,,6.9,
Strathallan,13/09/2019 17:00,15,16,,,0,,49,,250,Dry,1034,1,50,856,,,4.6,
Strathallan,13/09/2019 18:00,13.5,10,,17.6,0,0,57,,230,Dry,1034,,35,370,,,5.2,
Strathallan,13/09/2019 19:00,12.1,7,,,0,,67,,230,Dry,1034,1,35,62,,,6.3,
Strathallan,13/09/2019 20:00,10.5,3,,,0,,76,,290,Dry,1035,1,40,0,,,6.6,
Strathallan,13/09/2019 21:00,9.9,2,,,0,,81,,220,Dry,1034,,35,0,,,6.9,
Strathallan,13/09/2019 22:00,10.9,6,,,0,,81,,250,Dry,1034,,35,0,,,7.8,
Strathallan,13/09/2019 23:00,11.4,9,,,0,,77,,230,Dry,1034,,35,0,,,7.6,
Strathallan,14/09/2019 00:00,11.1,7,,,0,0,82,,220,Dry,1034,,30,,,,8.2,
Strathallan,14/09/2019 01:00,11.1,9,,,0,,83,,220,Dry,1033,,28,0,,,8.5,
Strathallan,14/09/2019 02:00,11,8,,,0,,85,,240,Dry,1033,8,25,0,,,8.7,
Strathallan,14/09/2019 03:00,10.7,7,,,0,,86,,230,Dry,1031,,26,0,,,8.6,
Strathallan,14/09/2019 04:00,10.5,7,,,0,,89,,240,Dry,1030,7,22,0,,,8.8,
Strathallan,14/09/2019 05:00,10.6,8,,,0,,89,,240,Dry,1029,7,30,0,,,8.9,
Strathallan,14/09/2019 06:00,10.4,2,9.6,,0,0,90,,220,Dry,1028,8,19,0,,,8.9,
Strathallan,14/09/2019 07:00,11.5,5,,,0,,89,,250,Dry,1028,8,22,75,,,9.8,
Strathallan,14/09/2019 08:00,13.1,10,,,0,,80,,240,Dry,1027,7,30,400,,,9.9,
Strathallan,14/09/2019 09:00,13.9,12,,,0,,74,,240,Dry,1026,7,35,399,,,9.5,
Strathallan,14/09/2019 10:00,14.6,12,,,0,,70,,260,Dry,1025,8,45,343,,,9.3,
Strathallan,14/09/2019 11:00,15.2,17,,,0,,67,31,230,Dry,1024,8,35,719,,,9.2,
Strathallan,14/09/2019 12:00,14.6,18,,,0,0,71,32,230,Dry,1023,7,14,994,,,9.5,
Strathallan,14/09/2019 13:00,15.3,18,,,0,,65,35,220,Dry,1022,4,30,1098,,,8.9,
Strathallan,14/09/2019 14:00,15.5,23,,,0,,63,36,220,Dry,1020,6,40,1630,,,8.6,
Strathallan,14/09/2019 15:00,15.6,18,,,0,,65,37,220,Dry,1019,6,50,623,,,9.1,
Strathallan,14/09/2019 16:00,15.5,26,,,0,,70,40,240,Dry,1018,7,28,819,,,10.1,
Strathallan,14/09/2019 17:00,14.7,18,,,0,,77,39,230,Dry,1018,8,22,360,,,10.9,
Strathallan,14/09/2019 18:00,13.7,15,,16.3,0,0,93,35,220,Moderate drizzle,1017,8,5,98,,,12.6,
Strathallan,14/09/2019 19:00,14.3,18,,,0.4,,93,31,230,Light drizzle,1016,7,5,18,,,13.3,
Strathallan,14/09/2019 20:00,14.9,18,,,0.8,,94,31,230,Moderate rain,1016,8,5,0,,,14.1,
Strathallan,14/09/2019 21:00,15.1,17,,,0.2,,94,31,230,Light drizzle,1016,8,6,0,,,14.2,
Strathallan,14/09/2019 22:00,13.9,8,,,0,,88,,270,Light rain,1017,1,50,0,,,12.1,
Strathallan,14/09/2019 23:00,12.7,10,,,0,,80,,250,Rain,1017,1,50,0,,,9.4,
Strathallan,15/09/2019 00:00,11.9,7,,,0,1,84,,250,Dry,1017,4,45,,,,9.3,
Strathallan,15/09/2019 01:00,11.1,9,,,0,,80,,230,Dry,1017,1,24,0,,,7.8,
Strathallan,15/09/2019 02:00,11.4,9,,,0,,76,,240,Dry,1017,2,20,0,,,7.5,
Strathallan,15/09/2019 03:00,10.2,3,,,0,,78,,160,Dry,1018,2,16,0,,,6.7,
Strathallan,15/09/2019 04:00,11.3,10,,,0,,67,,200,Dry,1018,7,21,0,,,5.6,
Strathallan,15/09/2019 05:00,10.8,14,,,0,,64,29,230,Dry,1019,1,18,0,,,4.3,
Strathallan,15/09/2019 06:00,10.6,15,10.2,,0,0,66,,260,Dry,1019,,19,0,,,4.7,
Strathallan,15/09/2019 07:00,11.7,17,,,0,,62,30,260,Dry,1019,7,18,107,,,4.7,
Strathallan,15/09/2019 08:00,11.1,13,,,0,,67,35,240,Dry,1020,8,18,159,,,5.3,
Strathallan,15/09/2019 09:00,11.5,10,,,0,,69,,240,Dry,1020,,17,255,,,6.2,
Strathallan,15/09/2019 10:00,12.5,9,,,0,,64,,240,Dry,1021,,15,330,,,6.1,
Strathallan,15/09/2019 11:00,12.9,7,,,0,,59,,250,Dry,1021,8,18,429,,,5.1,
Strathallan,15/09/2019 12:00,13.5,12,,,0,0,58,,260,Dry,1022,8,17,791,,,5.6,
Strathallan,15/09/2019 13:00,14.4,15,,,0,,54,,260,Dry,1022,8,19,993,,,5.4,
Strathallan,15/09/2019 14:00,15.7,16,,,0,,50,,250,Dry,1021,8,18,1268,,,5.6,
Strathallan,15/09/2019 15:00,15.4,14,,,0,,50,,250,Dry,1021,4,15,1587,,,5.2,
Strathallan,15/09/2019 16:00,15.6,12,,,0,,52,,270,Dry,1021,3,24,1351,,,6,
Strathallan,15/09/2019 17:00,14.7,7,,,0,,55,,280,Dry,1021,3,18,555,,,5.9,
Strathallan,15/09/2019 18:00,12.7,6,,16.3,0,0,58,,250,Dry,1021,1,30,378,,,4.7,
Strathallan,15/09/2019 19:00,8.5,5,,,0,,75,,230,Dry,1022,0,29,46,,,4.5,
Strathallan,15/09/2019 20:00,7.7,5,,,0,,77,,270,Dry,1022,0,30,0,,,4,
Strathallan,15/09/2019 21:00,6.6,2,,,0,,85,,270,Dry,1022,0,26,0,,,4.4,
Strathallan,15/09/2019 22:00,6,5,,,0,,85,,250,Dry,1023,,23,0,,,3.8,
Strathallan,15/09/2019 23:00,4.7,5,,,0,,91,,260,Dry,1022,0,25,0,,,3.4,
Strathallan,16/09/2019 00:00,4.5,5,,,0,0,91,,310,Dry,1022,,19,,,,3.2,
Strathallan,16/09/2019 01:00,4,2,,,0,,94,,300,Dry,1022,2,19,0,,,3.2,
Strathallan,16/09/2019 02:00,6,8,,,0,,96,,240,Dry,1022,,20,0,,,5.5,
Strathallan,16/09/2019 03:00,5.8,3,,,0,,94,,260,Dry,1022,7,20,0,,,5,
Strathallan,16/09/2019 04:00,5.1,3,,,0,,92,,280,Dry,1022,3,21,0,,,4,
Strathallan,16/09/2019 05:00,7.2,9,,,0,,92,,260,Dry,1021,6,23,0,,,6.1,
Strathallan,16/09/2019 06:00,7.2,5,3.8,,0,0,90,,260,Dry,1021,7,22,0,,,5.8,
Strathallan,16/09/2019 07:00,8.8,7,,,0,,90,,240,Dry,1021,,24,131,,,7.3,
Strathallan,16/09/2019 08:00,9.9,5,,,0,,87,,260,Dry,1021,,27,408,,,7.9,
Strathallan,16/09/2019 09:00,11.2,7,,,0,,81,,230,Dry,1021,5,45,547,,,8.2,
Strathallan,16/09/2019 10:00,12.2,5,,,0,,77,,210,Dry,1022,6,40,999,,,8.3,
Strathallan,16/09/2019 11:00,13.8,10,,,0,,67,,230,Dry,1021,1,29,974,,,8,
Strathallan,16/09/2019 12:00,15.4,8,,,0,0,60,,270,Dry,1021,6,45,949,,,7.8,
Strathallan,16/09/2019 13:00,15.4,17,,,0,,60,,250,Dry,1021,5,45,1415,,,7.7,
Strathallan,16/09/2019 14:00,16,16,,,0,,53,,280,Dry,1021,6,27,1937,,,6.7,
Strathallan,16/09/2019 15:00,15.6,16,,,0,,57,,270,Dry,1021,3,50,1640,,,7.2,
Strathallan,16/09/2019 16:00,15.1,14,,,0,,51,,260,Dry,1021,1,40,1413,,,5.3,
Strathallan,16/09/2019 17:00,14.2,13,,,0,,61,,250,Dry,1021,2,50,464,,,6.9,
Strathallan,16/09/2019 18:00,13.1,8,,16.6,0,0,68,,240,Dry,1022,7,45,227,,,7.5,
Strathallan,16/09/2019 19:00,11.9,8,,,0,,73,,230,Dry,1022,7,50,46,,,7.3,
Strathallan,16/09/2019 20:00,11,9,,,0,,74,,230,Dry,1022,6,40,0,,,6.7,
Strathallan,16/09/2019 21:00,11.1,3,,,0,,74,,250,Dry,1022,8,45,0,,,6.7,
Strathallan,16/09/2019 22:00,10.8,12,,,0,,75,,220,Dry,1022,1,45,0,,,6.7,
Strathallan,16/09/2019 23:00,10.4,10,,,0,,75,,220,Dry,1022,1,45,0,,,6.3,
Strathallan,17/09/2019 00:00,10.6,9,,,0,0,81,,230,Dry,1022,7,50,,,,7.5,
Strathallan,17/09/2019 01:00,10.9,5,,,0,,73,,230,Dry,1022,8,45,0,,,6.3,
Strathallan,17/09/2019 02:00,10.8,6,,,0,,73,,220,Dry,1022,8,45,0,,,6.3,
Strathallan,17/09/2019 03:00,8.3,8,,,0,,80,,250,Dry,1023,1,40,0,,,5.1,
Strathallan,17/09/2019 04:00,8,8,,,0,,83,,280,Dry,1023,0,30,0,,,5.3,
Strathallan,17/09/2019 05:00,8.7,9,,,0,,71,,270,Dry,1023,,35,0,,,3.8,
Strathallan,17/09/2019 06:00,8.5,6,7,,0,0,70,,190,Dry,1024,4,30,0,,,3.5,
Strathallan,17/09/2019 07:00,9.5,8,,,0,,66,,260,Dry,1025,4,28,128,,,3.5,
Strathallan,17/09/2019 08:00,10.5,6,,,0,,64,,270,Dry,1025,3,30,392,,,4.2,
Strathallan,17/09/2019 09:00,12.1,6,,,0,,53,,250,Dry,1026,0,30,905,,,2.9,
Strathallan,17/09/2019 10:00,13.4,8,,,0,,47,,290,Dry,1026,0,40,1306,,,2.5,
Strathallan,17/09/2019 11:00,14.2,6,,,0,,46,,320,Dry,1026,1,29,1665,,,2.8,
Strathallan,17/09/2019 12:00,14.2,8,,,0,0,45,,300,Dry,1027,6,35,1393,,,2.6,
Strathallan,17/09/2019 13:00,14.7,8,,,0,,48,,290,Dry,1027,4,20,1298,,,4.1,
Strathallan,17/09/2019 14:00,14.2,8,,,0,,48,,300,Dry,1027,6,35,935,,,3.6,
Strathallan,17/09/2019 15:00,14.4,5,,,0,,48,,280,Dry,1027,,35,876,,,3.7,
Strathallan,17/09/2019 16:00,14.2,3,,,0,,47,,310,Dry,1027,6,35,665,,,3.3,
Strathallan,17/09/2019 17:00,13.9,5,,,0,,54,,270,Dry,1027,1,40,448,,,4.8,
Strathallan,17/09/2019 18:00,13.2,2,,14.9,0,0,59,,290,Dry,1027,8,40,196,,,5.6,
Strathallan,17/09/2019 19:00,10.9,1,,,0,,78,,250,Dry,1028,8,35,21,,,7.3,
Strathallan,17/09/2019 20:00,9.4,1,,,0,,87,,180,Dry,1028,8,29,0,,,7.5,
Strathallan,17/09/2019 21:00,8.4,3,,,0,,90,,270,Dry,1029,2,35,0,,,7,
Strathallan,17/09/2019 22:00,8.3,2,,,0,,92,,220,Dry,1029,8,35,0,,,7.1,
Strathallan,17/09/2019 23:00,8.6,1,,,0,,91,,240,Dry,1029,8,30,0,,,7.3,
Strathallan,18/09/2019 00:00,8.7,0,,,0,0,92,,0,Rain,1029,8,35,,,,7.5,
Strathallan,18/09/2019 01:00,8.7,1,,,0,,94,,230,Fog,1029,8,30,0,,,7.8,
Strathallan,18/09/2019 02:00,8.7,0,,,0,,94,,0,Dry,1029,8,30,0,,,7.8,
Strathallan,18/09/2019 03:00,8.7,1,,,0,,95,,240,Dry,1028,6,24,0,,,8,
Strathallan,18/09/2019 04:00,8.8,1,,,0,,95,,130,Dry,1028,8,26,0,,,8.1,
Strathallan,18/09/2019 05:00,8.9,1,,,0,,95,,240,Dry,1028,8,29,0,,,8.2,
Strathallan,18/09/2019 06:00,8.9,0,8.2,,0,0,96,,0,Dry,1028,7,29,0,,,8.3,
Strathallan,18/09/2019 07:00,9.3,0,,,0,,95,,0,Dry,1029,7,28,31,,,8.6,
Strathallan,18/09/2019 08:00,10.6,2,,,0,,82,,230,Dry,1029,8,40,142,,,7.8,
Strathallan,18/09/2019 09:00,11.5,8,,,0,,78,,240,Dry,1029,7,30,419,,,7.9,
Strathallan,18/09/2019 10:00,13.7,9,,,0,,80,,220,Dry,1028,6,28,1195,,,10.4,
Strathallan,18/09/2019 11:00,14.5,12,,,0,,74,,230,Dry,1028,6,22,1838,,,10,
Strathallan,18/09/2019 12:00,15.6,12,,,0,0,76,,220,Dry,1028,8,30,1153,,,11.4,
Strathallan,18/09/2019 13:00,16.5,12,,,0,,69,,230,Dry,1028,8,35,991,,,11,
Strathallan,18/09/2019 14:00,17.6,14,,,0,,67,,240,Dry,1028,7,50,1379,,,11.6,
Strathallan,18/09/2019 15:00,17.1,13,,,0,,69,,230,Dry,1028,7,35,1298,,,11.5,
Strathallan,18/09/2019 16:00,16.9,10,,,0,,73,,230,Dry,1028,8,40,782,,,12.1,
Strathallan,18/09/2019 17:00,16.1,9,,,0,,77,,220,Dry,1028,7,40,678,,,12.2,
Strathallan,18/09/2019 18:00,14.9,12,,17.8,0,0,83,,230,Dry,1028,6,50,223,,,12.1,
Strathallan,18/09/2019 19:00,13.7,8,,,0,,90,,220,Dry,1029,0,40,23,,,12.1,
Strathallan,18/09/2019 20:00,13.3,8,,,0,,91,,220,Dry,1029,,50,0,,,12,
Strathallan,18/09/2019 21:00,12.7,9,,,0,,93,,220,Dry,1029,0,50,0,,,11.6,
Strathallan,18/09/2019 22:00,12.3,7,,,0,,94,,220,Dry,1030,,50,0,,,11.4,
Strathallan,18/09/2019 23:00,11.7,7,,,0,,95,,250,Dry,1030,2,50,0,,,11,
Strathallan,19/09/2019 00:00,11.5,6,,,0,0,97,,230,Dry,1030,1,40,,,,11.1,
Strathallan,19/09/2019 01:00,10.9,3,,,0,,97,,250,Dry,1030,2,45,0,,,10.5,
Strathallan,19/09/2019 02:00,10.7,3,,,0,,98,,240,Dry,1030,7,29,0,,,10.4,
Strathallan,19/09/2019 03:00,11,6,,,0,,98,,250,Dry,1030,7,30,0,,,10.8,
Strathallan,19/09/2019 04:00,9.6,3,,,0,,96,,270,Dry,1030,8,45,0,,,9.1,
Strathallan,19/09/2019 05:00,9.2,2,,,0,,98,,290,Misty,1030,8,3,0,,,9,
Strathallan,19/09/2019 06:00,10.2,2,8.7,,0,0,99,,330,Misty,1030,8,8,1,,,10.1,
Strathallan,19/09/2019 07:00,11.2,7,,,0,,99,,230,Misty,1030,8,9,49,,,11.1,
Strathallan,19/09/2019 08:00,12.1,12,,,0,,96,,240,Dry,1030,8,18,330,,,11.6,
Strathallan,19/09/2019 09:00,13.1,10,,,0,,90,,230,Dry,1030,5,22,910,,,11.6,
Strathallan,19/09/2019 10:00,13.9,13,,,0,,86,,220,Dry,1030,2,35,1256,,,11.7,
Strathallan,19/09/2019 11:00,15.4,12,,,0,,81,,220,Dry,1030,0,30,1712,,,12.2,
Strathallan,19/09/2019 12:00,16,15,,,0,0,76,,220,Dry,1029,0,45,1951,,,11.9,
Strathallan,19/09/2019 13:00,16.3,16,,,0,,74,,220,Dry,1029,0,45,1891,,,11.8,
Strathallan,19/09/2019 14:00,17.6,15,,,0,,72,,220,Dry,1029,0,29,1865,,,12.6,
Strathallan,19/09/2019 15:00,17.7,15,,,0,,71,,230,Dry,1028,0,45,1500,,,12.5,
Strathallan,19/09/2019 16:00,17.7,12,,,0,,71,,220,Dry,1028,,26,1176,,,12.5,
Strathallan,19/09/2019 17:00,16.8,14,,,0,,74,,220,Dry,1028,0,40,683,,,12.2,
Strathallan,19/09/2019 18:00,15.8,13,,18.1,0,0,78,,220,Dry,1028,0,35,248,,,12,
Strathallan,19/09/2019 19:00,14.9,9,,,0,,82,,220,Dry,1028,0,45,31,,,12,
Strathallan,19/09/2019 20:00,14,9,,,0,,86,,230,Dry,1028,,50,0,,,11.8,
Strathallan,19/09/2019 21:00,13.1,8,,,0,,89,,250,Dry,1028,,25,0,,,11.4,
Strathallan,19/09/2019 22:00,11.5,3,,,0,,92,,280,Dry,1029,0,21,0,,,10.3,
Strathallan,19/09/2019 23:00,9.8,1,,,0,,90,,300,Dry,1028,0,40,0,,,8.4,
Strathallan,20/09/2019 00:00,8.5,5,,,0,0,94,,310,Dry,1028,,45,,,,7.7,
Strathallan,20/09/2019 01:00,7.9,5,,,0,,97,,250,Dry,1028,,35,0,,,7.5,
Strathallan,20/09/2019 02:00,6.9,6,,,0,,96,,290,Dry,1028,0,50,0,,,6.4,
Strathallan,20/09/2019 03:00,5.9,3,,,0,,96,,250,Misty,1027,0,35,0,,,5.4,
Strathallan,20/09/2019 04:00,5.1,2,,,0,,97,,260,Dry,1027,0,26,0,,,4.7,
Strathallan,20/09/2019 05:00,4.5,3,,,0,,97,,240,Dry,1027,0,28,0,,,4.2,
Strathallan,20/09/2019 06:00,3.6,1,3.6,,0,0,97,,150,Dry,1027,0,19,0,,,3.3,
Strathallan,20/09/2019 07:00,4.3,2,,,0,,99,,220,Dry,1027,0,30,90,,,4.2,
Strathallan,20/09/2019 08:00,6.7,1,,,0,,99,,200,Dry,1027,,50,295,,,6.6,
Strathallan,20/09/2019 09:00,11.4,1,,,0,,88,,80,Dry,1026,0,9,770,,,9.5,
Strathallan,20/09/2019 10:00,14.2,1,,,0,,68,,170,Haze,1026,,16,1267,,,8.5,
Strathallan,20/09/2019 11:00,16.8,1,,,0,,64,,110,Fog,1026,,2,1622,,,10.1,
Strathallan,20/09/2019 12:00,18.6,2,,,0,0,60,,60,Fog,1025,0,30,1963,,,10.9,
Strathallan,20/09/2019 13:00,21.7,1,,,0,,50,,330,Fog,1024,,35,1899,,,10.9,
Strathallan,20/09/2019 14:00,21.3,2,,,0,,52,,350,Fog,1023,,1,1904,,,11.3,
Strathallan,20/09/2019 15:00,21.9,3,,,0,,51,,330,Dry,1022,0,2,1561,,,11.4,
Strathallan,20/09/2019 16:00,21.9,2,,,0,,50,,360,Fog,1021,0,4,1253,,,11.2,
Strathallan,20/09/2019 17:00,21.2,2,,,0,,56,,130,Fog,1021,0,17,691,,,12.3,
Strathallan,20/09/2019 18:00,18.1,6,,22.6,0,0,68,,80,Dry,1021,,21,267,,,12.3,
Strathallan,20/09/2019 19:00,15.9,6,,,0,,75,,80,Dry,1020,,35,17,,,11.5,
Strathallan,20/09/2019 20:00,13.8,5,,,0,,76,,60,Dry,1020,0,45,0,,,9.8,
Strathallan,20/09/2019 21:00,12.7,5,,,0,,83,,80,Dry,1020,0,30,0,,,10,
Strathallan,20/09/2019 22:00,11.1,5,,,0,,91,,60,Fog,1020,,26,0,,,9.7,
Strathallan,20/09/2019 23:00,9.4,2,,,0,,87,,60,Dry,1019,,30,0,,,7.5,
Strathallan,21/09/2019 00:00,8.1,1,,,0,0,95,,240,Dry,1019,,28,,,,7.4,
Strathallan,21/09/2019 01:00,9.2,2,,,0,,97,,80,Dry,1019,2,26,0,,,8.8,
Strathallan,21/09/2019 02:00,7.1,2,,,0,,96,,310,Misty,1018,0,4,0,,,6.6,
Strathallan,21/09/2019 03:00,7.4,2,,,0,,98,,280,Fog,1017,6,5,0,,,7.2,
Strathallan,21/09/2019 04:00,9,1,,,0,,99,,260,Misty,1017,8,4,1,,,8.9,
Strathallan,21/09/2019 05:00,10.7,6,,,0,,99,,40,Fog,1016,7,1,1,,,10.6,
Strathallan,21/09/2019 06:00,10.7,2,6.4,,0,0,99,,70,Fog,1016,8,2,1,,,10.6,
Strathallan,21/09/2019 07:00,10.8,6,,,0,,99,,80,Misty,1016,8,4,50,,,10.7,
Strathallan,21/09/2019 08:00,11.5,3,,,0,,98,,70,Misty,1016,8,5,250,,,11.3,
Strathallan,21/09/2019 09:00,13,5,,,0,,91,,80,Dry,1015,1,11,843,,,11.6,
Strathallan,21/09/2019 10:00,15.3,8,,,0,,76,,80,Dry,1014,,21,1173,,,11.2,
Strathallan,21/09/2019 11:00,16.8,8,,,0,,70,,70,Dry,1014,0,24,1614,,,11.4,
Strathallan,21/09/2019 12:00,18.1,10,,,0,0,64,,70,Dry,1013,0,30,1922,,,11.3,
Strathallan,21/09/2019 13:00,18.4,10,,,0,,66,,60,Dry,1012,,30,1855,,,12,
Strathallan,21/09/2019 14:00,18.7,10,,,0,,68,,70,Dry,1011,,22,1849,,,12.9,
Strathallan,21/09/2019 15:00,18.4,10,,,0,,69,,50,Dry,1011,0,26,1507,,,12.8,
Strathallan,21/09/2019 16:00,17.9,9,,,0,,72,,40,Dry,1010,0,15,1196,,,12.9,
Strathallan,21/09/2019 17:00,16.6,10,,,0,,75,,40,Dry,1010,0,22,662,,,12.3,
Strathallan,21/09/2019 18:00,14.8,8,,19,0,0,82,,50,Dry,1010,5,14,212,,,11.9,
Strathallan,21/09/2019 19:00,13.9,7,,,0,,88,,40,Dry,1010,7,13,10,,,12,
Strathallan,21/09/2019 20:00,13.9,9,,,0,,87,,50,Dry,1010,8,12,0,,,11.9,
Strathallan,21/09/2019 21:00,13.7,7,,,0,,88,,50,Dry,1009,8,11,0,,,11.9,
Strathallan,21/09/2019 22:00,13.6,5,,,0,,88,,40,Dry,1009,8,13,0,,,11.7,
Strathallan,21/09/2019 23:00,13.5,3,,,0,,88,,50,Dry,1009,8,11,0,,,11.7,
Strathallan,22/09/2019 00:00,13.4,5,,,0,0,89,,30,Dry,1008,8,12,,,,11.7,
Strathallan,22/09/2019 01:00,13.4,5,,,0,,89,,40,Dry,1008,8,13,0,,,11.7,
Strathallan,22/09/2019 02:00,13.2,3,,,0,,89,,50,Dry,1007,8,11,0,,,11.5,
Strathallan,22/09/2019 03:00,13.1,5,,,0,,89,,50,Dry,1006,8,11,0,,,11.4,
Strathallan,22/09/2019 04:00,12.9,3,,,0,,91,,60,Dry,1006,8,11,0,,,11.5,
Strathallan,22/09/2019 05:00,13,5,,,0,,91,,50,Dry,1006,8,10,0,,,11.6,
Strathallan,22/09/2019 06:00,12.8,6,12.8,,0,0,92,,60,Light shower,1005,8,10,0,,,11.6,
Strathallan,22/09/2019 07:00,12.6,5,,,0,,93,,80,Rain,1005,8,9,14,,,11.6,
Strathallan,22/09/2019 08:00,13,6,,,0,,91,,60,Drizzle,1005,8,10,107,,,11.6,
Strathallan,22/09/2019 09:00,13.2,3,,,0,,91,,90,Haze,1005,8,9,162,,,11.9,
Strathallan,22/09/2019 10:00,14.1,6,,,0,,90,,80,Rain,1005,7,10,238,,,12.5,
Strathallan,22/09/2019 11:00,15.1,6,,,0,,86,,80,Drizzly rain,1004,8,13,616,,,12.9,
Strathallan,22/09/2019 12:00,14.7,6,,,0.6,0.6,88,,80,Moderate rain,1004,1,3,356,,,12.9,
Strathallan,22/09/2019 13:00,14.4,5,,,2.6,,95,,70,Moderate rain,1004,7,6,235,,,13.7,
Strathallan,22/09/2019 14:00,14.8,5,,,1.2,,96,,70,Moderate rain,1003,8,6,379,,,14.2,
Strathallan,22/09/2019 15:00,15.1,6,,,0.2,,94,,80,Rain,1002,4,9,299,,,14.2,
Strathallan,22/09/2019 16:00,14.9,6,,,0.2,,93,,70,Rain,1002,8,9,223,,,13.9,
Strathallan,22/09/2019 17:00,14.7,5,,,0,,95,,70,Light shower,1002,8,5,50,,,14,
Strathallan,22/09/2019 18:00,14.4,5,,15.2,0.6,4.4,96,,90,Moderate rain,1002,8,5,37,,,13.8,
Strathallan,22/09/2019 19:00,14.3,6,,,0.2,,96,,80,Moderate shower,1002,8,6,3,,,13.8,
Strathallan,22/09/2019 20:00,14.1,3,,,0.4,,96,,80,Light rain,1002,8,6,0,,,13.6,
Strathallan,22/09/2019 21:00,14,6,,,2,,97,,70,Moderate rain,1003,8,3,0,,,13.6,
Strathallan,22/09/2019 22:00,13.9,3,,,6.6,,98,,90,Moderate rain,1003,8,2,0,,,13.6,
Strathallan,22/09/2019 23:00,13.8,3,,,6.8,,98,,40,Moderate rain,1003,8,6,0,,,13.6,
Strathallan,23/09/2019 00:00,13.8,1,,,0.8,17,98,,60,Moderate rain,1003,7,6,,,,13.6,
Strathallan,23/09/2019 01:00,13.8,5,,,0.2,,98,,10,Rain,1002,8,4,0,,,13.6,
Strathallan,23/09/2019 02:00,13.8,1,,,0.2,,98,,180,Rain,1003,8,6,0,,,13.6,
Strathallan,23/09/2019 03:00,13.8,3,,,0,,98,,20,Rain,1003,8,8,0,,,13.6,
Strathallan,23/09/2019 04:00,13.8,2,,,0,,98,,230,Misty,1003,8,2,0,,,13.6,
Strathallan,23/09/2019 05:00,13.8,1,,,0,,98,,230,Fog,1003,8,1,0,,,13.6,
Strathallan,23/09/2019 06:00,13.7,1,13.7,,0,0,99,,50,Thickening fog,1003,8,0,0,,,13.6,
Strathallan,23/09/2019 07:00,13.6,2,,,0,,99,,100,Thickening fog,1004,8,0,39,,,13.5,
Strathallan,23/09/2019 08:00,14.4,6,,,0,,90,,180,Fog,1004,5,45,183,,,12.9,
Strathallan,23/09/2019 09:00,15,3,,,0,,86,,230,Dry,1004,7,50,337,,,12.8,
Strathallan,23/09/2019 10:00,16.1,1,,,0,,80,,300,Dry,1004,8,45,420,,,12.8,
Strathallan,23/09/2019 11:00,15.5,9,,,0,,75,,200,Dry,1004,7,50,906,,,11.1,
Strathallan,23/09/2019 12:00,15.6,9,,,0,0,74,,200,Dry,1005,8,50,348,,,11,
Strathallan,23/09/2019 13:00,16,7,,,0,,71,,240,Dry,1005,8,45,502,,,10.9,
Strathallan,23/09/2019 14:00,17.3,7,,,0,,67,,200,Dry,1005,7,12,799,,,11.2,
Strathallan,23/09/2019 15:00,17,6,,,0,,60,,180,Dry,1004,2,35,1270,,,9.3,
Strathallan,23/09/2019 16:00,16.4,5,,,0,,61,,170,Dry,1004,2,40,699,,,9.1,
Strathallan,23/09/2019 17:00,16.3,5,,,0,,66,,130,Dry,1004,0,30,579,,,10,
Strathallan,23/09/2019 18:00,14.7,5,,18,0,0,71,,120,Dry,1004,1,45,233,,,9.7,
Strathallan,23/09/2019 19:00,12.4,2,,,0,,80,,100,Dry,1004,4,50,12,,,9.1,
Strathallan,23/09/2019 20:00,11.6,3,,,0,,88,,60,Fog,1004,6,50,0,,,9.7,
Strathallan,23/09/2019 21:00,11.2,2,,,0,,89,,70,Dry,1003,7,50,0,,,9.5,
Strathallan,23/09/2019 22:00,11,1,,,0,,91,,160,Dry,1003,7,50,0,,,9.7,
Strathallan,23/09/2019 23:00,13.1,6,,,0,,87,,70,Light shower,1002,8,24,0,,,11.1,
Strathallan,24/09/2019 00:00,12.9,7,,,0.4,0.4,91,,70,Rain,1001,6,14,,,,11.6,
Strathallan,24/09/2019 01:00,12.9,7,,,0,,94,,80,Drizzly rain,1000,7,14,0,,,12,
Strathallan,24/09/2019 02:00,13,5,,,0.2,,95,,50,Light drizzle,1000,4,6,0,,,12.3,
Strathallan,24/09/2019 03:00,13.1,5,,,0.2,,96,,40,Rain,999,8,13,0,,,12.5,
Strathallan,24/09/2019 04:00,13.5,6,,,0.2,,95,,50,Light shower,999,8,19,0,,,12.8,
Strathallan,24/09/2019 05:00,13.8,7,,,0,,95,,70,Rain,999,8,28,0,,,13.1,
Strathallan,24/09/2019 06:00,13.6,6,11,,0,0.6,94,,60,Moderate shower,999,2,9,0,,,12.8,
Strathallan,24/09/2019 07:00,13.7,3,,,0.4,,96,,50,Moderate shower,999,8,3,15,,,13.1,
Strathallan,24/09/2019 08:00,14.2,6,,,1,,96,,80,Rain,999,5,25,255,,,13.6,
Strathallan,24/09/2019 09:00,15,5,,,0,,96,,70,Dry,999,8,27,268,,,14.4,
Strathallan,24/09/2019 10:00,16.5,6,,,0,,93,,40,Dry,999,8,30,587,,,15.4,
Strathallan,24/09/2019 11:00,16.5,7,,,0,,90,,60,Dry,999,7,30,711,,,15,
Strathallan,24/09/2019 12:00,17.1,7,,,0,1,86,,60,Dry,998,8,30,648,,,14.9,
Strathallan,24/09/2019 13:00,17.6,7,,,0,,85,,50,Dry,998,8,30,711,,,15.2,
Strathallan,24/09/2019 14:00,16.1,10,,,0,,89,,90,Drizzly rain,998,8,14,399,,,14.3,
Strathallan,24/09/2019 15:00,15.5,8,,,0.2,,93,,70,Rain,997,7,12,227,,,14.4,
Strathallan,24/09/2019 16:00,15,8,,,0,,93,,60,Dry,997,8,11,108,,,14,
Strathallan,24/09/2019 17:00,14.7,5,,,0.2,,96,,80,Drizzly rain,997,8,3,63,,,14.1,
Strathallan,24/09/2019 18:00,14.4,3,,17.9,0.4,1,97,,80,Moderate rain,997,8,7,19,,,14,
Strathallan,24/09/2019 19:00,14.3,8,,,2.8,,98,,30,Moderate rain,996,3,10,1,,,14,
Strathallan,24/09/2019 20:00,14.4,8,,,2.4,,96,,30,Moderate rain,996,7,5,0,,,13.9,
Strathallan,24/09/2019 21:00,14.3,8,,,3,,98,,40,Moderate rain,996,7,4,0,,,14,
Strathallan,24/09/2019 22:00,14.3,6,,,1,,98,,70,Rain,996,8,6,0,,,14,
Strathallan,24/09/2019 23:00,14.2,5,,,1.2,,98,,60,Rain,996,8,29,0,,,14,
Strathallan,25/09/2019 00:00,14.2,2,,,1.4,12,98,,70,Moderate shower,995,8,4,,,,13.9,
Strathallan,25/09/2019 01:00,14.2,6,,,0.2,,98,,60,Drizzly rain,995,8,6,0,,,14,
Strathallan,25/09/2019 02:00,14.2,5,,,0,,98,,30,Rain,995,8,4,0,,,13.9,
Strathallan,25/09/2019 03:00,14.1,6,,,0.6,,98,,20,Rain,995,8,12,0,,,13.8,
Strathallan,25/09/2019 04:00,14,3,,,0,,98,,350,Drizzly rain,995,8,3,0,,,13.7,
Strathallan,25/09/2019 05:00,14,5,,,0.4,,97,,40,Rain,995,8,29,0,,,13.6,
Strathallan,25/09/2019 06:00,13.8,5,13.8,,0,1,96,,20,Rain,995,7,26,0,,,13.3,
Strathallan,25/09/2019 07:00,13.6,1,,,0.2,,97,,30,Rain,996,8,7,14,,,13.2,
Strathallan,25/09/2019 08:00,13.8,2,,,0,,97,,190,Misty,996,8,3,82,,,13.4,
Strathallan,25/09/2019 09:00,14.3,2,,,0,,96,,110,Rain,996,7,40,328,,,13.8,
Strathallan,25/09/2019 10:00,15.1,2,,,0,,93,,80,Dry,996,8,35,553,,,14,
Strathallan,25/09/2019 11:00,16,2,,,0,,88,,50,Dry,997,6,40,812,,,14.1,
Strathallan,25/09/2019 12:00,16.6,5,,,0,0.2,81,,110,Dry,997,8,45,757,,,13.4,
Strathallan,25/09/2019 13:00,16.4,6,,,0,,86,,80,Dry,997,8,50,753,,,14.2,
Strathallan,25/09/2019 14:00,15.9,3,,,0,,89,,90,Rain,997,7,30,372,,,14.2,
Strathallan,25/09/2019 15:00,15.6,3,,,0.4,,95,,50,Light drizzle,997,8,6,313,,,14.9,
Strathallan,25/09/2019 16:00,15.6,1,,,1.4,,96,,310,Moderate drizzle,997,7,4,159,,,15,
Strathallan,25/09/2019 17:00,15.5,3,,,2.6,,96,,70,Light rain,997,8,22,178,,,14.9,
Strathallan,25/09/2019 18:00,15.4,3,,16.8,1.2,5.8,94,,160,Heavy shower,997,8,3,51,,,14.5,
Strathallan,25/09/2019 19:00,14.8,2,,,1.2,,96,,100,Rain,997,8,50,1,,,14.2,
Strathallan,25/09/2019 20:00,15,5,,,0,,93,,160,Dry,997,7,24,0,,,14,
Strathallan,25/09/2019 21:00,15.1,6,,,0,,87,,170,Dry,997,7,26,1,,,13.1,
Strathallan,25/09/2019 22:00,13.9,2,,,0,,93,,140,Dry,996,8,21,0,,,12.8,
Strathallan,25/09/2019 23:00,14.3,6,,,0,,89,,90,Dry,996,6,45,0,,,12.6,
Strathallan,26/09/2019 00:00,13.9,6,,,0,1,93,,80,Dry,995,6,30,,,,12.8,
Strathallan,26/09/2019 01:00,14,3,,,0,,92,,90,Rain,994,8,24,0,,,12.8,
Strathallan,26/09/2019 02:00,14,9,,,0.4,,93,,80,Light rain,993,8,11,0,,,13,
Strathallan,26/09/2019 03:00,13.7,8,,,1.2,,96,,60,Light rain,992,7,18,0,,,13.1,
Strathallan,26/09/2019 04:00,13.6,6,,,0.2,,96,,80,Light drizzle,991,8,11,0,,,13,
Strathallan,26/09/2019 05:00,14.3,6,,,0.4,,91,,190,Rain,991,7,21,0,,,13,
Strathallan,26/09/2019 06:00,14,7,13.6,,0,2,89,,220,Rain,991,8,40,0,,,12.3,
Strathallan,26/09/2019 07:00,13.1,8,,,0,,88,,220,Dry,991,7,30,29,,,11.2,
Strathallan,26/09/2019 08:00,13.5,9,,,0,,85,,210,Dry,992,8,30,168,,,11.1,
Strathallan,26/09/2019 09:00,13.8,9,,,0,,84,,220,Dry,992,7,26,376,,,11.3,
Strathallan,26/09/2019 10:00,15.3,10,,,0.2,,78,,230,Rain,992,5,21,882,,,11.6,
Strathallan,26/09/2019 11:00,15.7,9,,,0,,76,,230,Rain,992,7,17,1315,,,11.5,
Strathallan,26/09/2019 12:00,15.5,12,,,0,0.2,76,,230,Rain,992,7,19,1450,,,11.4,
Strathallan,26/09/2019 13:00,14.5,7,,,0.2,,84,,230,Rain,992,7,35,979,,,11.9,
Strathallan,26/09/2019 14:00,14.6,10,,,0,,79,,220,Drizzly rain,992,6,45,665,,,11.1,
Strathallan,26/09/2019 15:00,15.6,12,,,0,,74,,210,Rain,992,7,35,1111,,,11,
Strathallan,26/09/2019 16:00,14.5,10,,,0,,78,,210,Dry,992,7,16,876,,,10.9,
Strathallan,26/09/2019 17:00,14.2,8,,,0,,75,,240,Rain,992,7,40,298,,,10,
Strathallan,26/09/2019 18:00,13.4,8,,16.3,0,0.2,80,,230,Dry,992,,45,143,,,10.2,
Strathallan,26/09/2019 19:00,12.2,6,,,0.6,,92,,210,Moderate shower,993,1,4,1,,,11.1,
Strathallan,26/09/2019 20:00,11.7,2,,,0.8,,95,,340,Drizzly rain,993,7,14,0,,,11,
Strathallan,26/09/2019 21:00,11.3,3,,,0,,96,,80,Rain,993,1,30,0,,,10.8,
Strathallan,26/09/2019 22:00,11.4,2,,,0,,97,,60,Dry,993,7,30,0,,,11,
Strathallan,26/09/2019 23:00,11.6,2,,,0,,96,,190,Dry,993,2,50,0,,,11.1,
Strathallan,27/09/2019 00:00,11.8,5,,,0,1,89,,190,Dry,993,1,50,,,,10.2,
Strathallan,27/09/2019 01:00,11.8,5,,,0.4,,92,,210,Light shower,993,8,45,0,,,10.7,
Strathallan,27/09/2019 02:00,11.7,6,,,0.8,,94,,220,Light rain,993,8,40,0,,,10.8,
Strathallan,27/09/2019 03:00,11.3,7,,,0.4,,93,,220,Moderate shower,993,8,10,0,,,10.3,
Strathallan,27/09/2019 04:00,10.9,7,,,0.4,,94,,220,Rain,993,6,50,0,,,10,
Strathallan,27/09/2019 05:00,9.5,1,,,0,,96,,280,Dry,994,4,10,0,,,9,
Strathallan,27/09/2019 06:00,8.6,3,8.6,,0,2,96,,220,Drizzle,994,3,16,0,,,8.1,
Strathallan,27/09/2019 07:00,9.1,1,,,0,,97,,250,Dry,994,,16,63,,,8.8,
Strathallan,27/09/2019 08:00,10.3,0,,,0,,98,,0,Dry,994,7,25,174,,,10.1,
Strathallan,27/09/2019 09:00,11.2,2,,,0,,99,,40,Rain,994,7,25,226,,,11.1,
Strathallan,27/09/2019 10:00,11.9,1,,,0,,96,,270,Dry,994,6,40,411,,,11.4,
Strathallan,27/09/2019 11:00,13.1,2,,,0,,82,,220,Dry,994,3,40,719,,,10.2,
Strathallan,27/09/2019 12:00,12.8,1,,,0.2,0.2,87,,210,Light shower,994,7,16,343,,,10.8,
Strathallan,27/09/2019 13:00,12.7,2,,,0.4,,87,,70,Light rain,994,7,25,417,,,10.7,
Strathallan,27/09/2019 14:00,12.2,2,,,0,,89,,70,Rain,994,7,50,489,,,10.6,
Strathallan,27/09/2019 15:00,12.1,3,,,0,,92,,70,Dry,994,7,35,335,,,11,
Strathallan,27/09/2019 16:00,11.9,2,,,0,,92,,70,Rain,994,7,35,276,,,10.8,
Strathallan,27/09/2019 17:00,12.2,2,,,0,,92,,40,Dry,994,4,40,285,,,11,
Strathallan,27/09/2019 18:00,11.7,1,,13.2,0,0.4,92,,90,Dry,995,1,30,153,,,10.5,
Strathallan,27/09/2019 19:00,10.8,6,,,0,,94,,220,Rain,995,5,45,2,,,9.9,
Strathallan,27/09/2019 20:00,9.3,5,,,0,,94,,230,Dry,996,0,50,0,,,8.5,
Strathallan,27/09/2019 21:00,9.1,7,,,0,,94,,240,Dry,996,,50,0,,,8.2,
Strathallan,27/09/2019 22:00,9,7,,,0,,95,,260,Dry,997,5,50,0,,,8.3,
Strathallan,27/09/2019 23:00,8.5,7,,,0,,95,,250,Dry,997,1,50,0,,,7.8,
Strathallan,28/09/2019 00:00,7.9,5,,,0,0,95,,250,Dry,997,,50,,,,7.2,
Strathallan,28/09/2019 01:00,8.2,7,,,0.2,,96,,220,Dry,997,2,50,0,,,7.7,
Strathallan,28/09/2019 02:00,6.9,2,,,0,,95,,210,Dry,997,1,40,0,,,6.3,
Strathallan,28/09/2019 03:00,6,1,,,0,,97,,290,Dry,997,0,12,0,,,5.7,
Strathallan,28/09/2019 04:00,5.2,2,,,0,,98,,300,Dry,997,1,35,0,,,5,
Strathallan,28/09/2019 05:00,4.4,1,,,0,,98,,240,Fog,997,1,2,0,,,4.2,
Strathallan,28/09/2019 06:00,3.4,1,3.4,,0,0.2,98,,220,Fog,997,2,3,0,,,3.2,
Strathallan,28/09/2019 07:00,3.8,2,,,0,,99,,220,Fog,998,1,10,41,,,3.7,
Strathallan,28/09/2019 08:00,8.2,2,,,0,,100,,240,Dry,999,0,45,347,,,8.2,
Strathallan,28/09/2019 09:00,11.7,7,,,0,,86,,220,Dry,999,0,40,619,,,9.6,
Strathallan,28/09/2019 10:00,13.7,13,,,0,,72,,240,Dry,1000,0,35,1063,,,8.8,
Strathallan,28/09/2019 11:00,14.9,13,,,0,,65,,260,Dry,1000,0,40,1000,,,8.6,
Strathallan,28/09/2019 12:00,16.5,10,,,0,0,65,,260,Dry,1000,5,35,1615,,,10,
Strathallan,28/09/2019 13:00,16.3,13,,,0,,59,,270,Dry,1001,0,26,1258,,,8.3,
Strathallan,28/09/2019 14:00,16.6,13,,,0,,57,,260,Dry,1001,0,40,1720,,,8.1,
Strathallan,28/09/2019 15:00,16.9,10,,,0,,55,,280,Dry,1001,1,40,870,,,7.9,
Strathallan,28/09/2019 16:00,15.1,6,,,0,,66,,240,Dry,1001,5,50,662,,,8.9,
Strathallan,28/09/2019 17:00,14.9,5,,,0,,66,,240,Dry,1001,8,50,471,,,8.8,
Strathallan,28/09/2019 18:00,12.6,2,,17.3,0,0,81,,250,Dry,1002,7,50,92,,,9.5,
Strathallan,28/09/2019 19:00,11.1,2,,,0,,86,,280,Dry,1002,1,50,0,,,8.9,
Strathallan,28/09/2019 20:00,8.9,2,,,0,,92,,280,Dry,1002,1,50,0,,,7.8,
Strathallan,28/09/2019 21:00,8.1,2,,,0,,95,,230,Dry,1002,0,45,0,,,7.5,
Strathallan,28/09/2019 22:00,7.1,1,,,0,,97,,40,Misty,1001,0,2,0,,,6.7,
Strathallan,28/09/2019 23:00,8,3,,,0,,98,,300,Dry,1001,7,40,0,,,7.8,
Strathallan,29/09/2019 00:00,8,2,,,0,0,98,,260,Dry,1001,8,35,,,,7.8,
Strathallan,29/09/2019 01:00,7.1,2,,,0,,98,,320,Dry,1000,1,12,0,,,6.9,
Strathallan,29/09/2019 02:00,7.9,2,,,0,,98,,250,Dry,1000,7,27,0,,,7.7,
Strathallan,29/09/2019 03:00,8.5,2,,,0,,99,,250,Dry,999,8,9,0,,,8.4,
Strathallan,29/09/2019 04:00,9.5,1,,,0,,100,,160,Dry,998,8,35,0,,,9.5,
Strathallan,29/09/2019 05:00,10.1,1,,,0,,99,,100,Dry,998,8,40,0,,,10,
Strathallan,29/09/2019 06:00,10.4,2,6.8,,0,0,98,,150,Dry,997,1,40,0,,,10.2,
Strathallan,29/09/2019 07:00,10.3,2,,,0,,98,,130,Dry,997,8,30,17,,,10,
Strathallan,29/09/2019 08:00,10.7,1,,,0,,98,,350,Dry,997,8,30,100,,,10.4,
Strathallan,29/09/2019 09:00,11.3,1,,,0,,98,,110,Dry,998,1,50,239,,,11,
Strathallan,29/09/2019 10:00,12.6,2,,,0,,88,,120,Haze,998,8,40,447,,,10.8,
Strathallan,29/09/2019 11:00,13.8,1,,,0,,79,,70,Fog,998,8,45,617,,,10.3,
Strathallan,29/09/2019 12:00,15,5,,,0,0,70,,50,Dry,999,8,50,857,,,9.6,
Strathallan,29/09/2019 13:00,15.1,7,,,0,,67,,40,Dry,999,8,45,665,,,9.1,
Strathallan,29/09/2019 14:00,15.4,3,,,0,,67,,50,Dry,1000,8,50,579,,,9.5,
Strathallan,29/09/2019 15:00,15.2,3,,,0,,67,,20,Dry,1000,8,50,451,,,9.3,
Strathallan,29/09/2019 16:00,14.8,1,,,0,,78,,230,Dry,1001,8,35,233,,,11.1,
Strathallan,29/09/2019 17:00,13.9,1,,,0,,74,,340,Rain,1001,8,50,107,,,9.5,
Strathallan,29/09/2019 18:00,12.9,5,,15.7,0,0,81,,270,Dry,1002,1,50,70,,,9.9,
Strathallan,29/09/2019 19:00,12.1,6,,,0,,84,,250,Dry,1003,8,50,0,,,9.6,
Strathallan,29/09/2019 20:00,11.2,3,,,0,,87,,230,Dry,1004,8,45,0,,,9.2,
Strathallan,29/09/2019 21:00,10.9,5,,,0.4,,91,,260,Moderate rain,1004,8,8,0,,,9.6,
Strathallan,29/09/2019 22:00,10.5,3,,,0.2,,94,,230,Light rain,1005,8,50,0,,,9.6,
Strathallan,29/09/2019 23:00,10.4,1,,,0,,94,,220,Light rain,1005,8,45,0,,,9.6,
Strathallan,30/09/2019 00:00,9.7,1,,,0,0.6,94,,240,Rain,1005,6,50,,,,8.9,
Strathallan,30/09/2019 01:00,8.9,1,,,0,,95,,230,Dry,1006,7,50,0,,,8.2,
Strathallan,30/09/2019 02:00,10.2,6,,,0,,93,,220,Dry,1006,8,50,0,,,9.2,
Strathallan,30/09/2019 03:00,9.1,1,,,0,,93,,220,Dry,1006,7,45,0,,,8.1,
Strathallan,30/09/2019 04:00,8.5,1,,,0,,96,,330,Dry,1007,7,50,0,,,7.9,
Strathallan,30/09/2019 05:00,8.3,5,,,0,,97,,230,Dry,1007,7,50,0,,,7.9,
Strathallan,30/09/2019 06:00,7.7,2,7.7,,0,0,94,,160,Dry,1007,3,50,0,,,6.8,
Strathallan,30/09/2019 07:00,6.5,1,,,0,,96,,50,Dry,1008,0,40,31,,,6,
Strathallan,30/09/2019 08:00,8.8,2,,,0,,97,,80,Dry,1008,4,50,267,,,8.4,
Strathallan,30/09/2019 09:00,11.4,1,,,0,,91,,320,Dry,1009,8,40,575,,,10,
Strathallan,30/09/2019 10:00,13.3,3,,,0,,73,,100,Dry,1009,1,50,923,,,8.7,
Strathallan,30/09/2019 11:00,13.3,5,,,0,,71,,110,Dry,1009,7,50,885,,,8.2,
Strathallan,30/09/2019 12:00,13.5,5,,,0,0,68,,90,Dry,1009,8,50,852,,,7.8,
Strathallan,30/09/2019 13:00,13.4,3,,,0,,69,,130,Dry,1008,7,50,617,,,8,
Strathallan,30/09/2019 14:00,13.3,3,,,0,,74,,100,Dry,1008,7,50,421,,,8.9,
Strathallan,30/09/2019 15:00,13,5,,,0,,73,,90,Dry,1007,8,50,563,,,8.3,
Strathallan,30/09/2019 16:00,11.5,7,,,0,,80,,80,Dry,1007,8,50,210,,,8.2,
Strathallan,30/09/2019 17:00,10.6,8,,,0,,84,,70,Dry,1007,8,50,72,,,8.1,
Strathallan,30/09/2019 18:00,10.1,8,,14.2,0,0,83,,80,Dry,1007,8,50,13,,,7.4,
Strathallan,30/09/2019 19:00,9.9,7,,,0,,80,,60,Dry,1007,8,50,0,,,6.7,
Strathallan,30/09/2019 20:00,9.8,5,,,0,,83,,50,Dry,1007,7,50,0,,,7.2,
Strathallan,30/09/2019 21:00,9,10,,,0.2,,84,,60,Light rain,1006,8,25,0,,,6.5,
Strathallan,30/09/2019 22:00,8.9,7,,,0,,82,,60,Rain,1006,7,50,0,,,6.1,
Strathallan,30/09/2019 23:00,8.5,8,,,0,,84,,40,Dry,1006,7,50,0,,,6,
Strathallan,01/10/2019 00:00,8.2,9,,,0,0.2,84,,40,Dry,1006,8,50,,,,5.8,
Strathallan,01/10/2019 01:00,8.2,9,,,0,,80,,40,Dry,1005,6,50,0,,,5.1,
Strathallan,01/10/2019 02:00,8,10,,,0,,76,,40,Dry,1005,8,45,0,,,4.2,
Strathallan,01/10/2019 03:00,7.8,9,,,0,,71,,40,Dry,1005,7,50,0,,,3,
Strathallan,01/10/2019 04:00,7.4,7,,,0,,72,,40,Dry,1004,7,50,0,,,2.7,
Strathallan,01/10/2019 05:00,7,9,,,0,,72,,20,Dry,1004,7,50,0,,,2.4,
Strathallan,01/10/2019 06:00,5.6,6,5.6,,0,0,77,,40,Dry,1005,0,45,0,,,2,
Strathallan,01/10/2019 07:00,4.4,3,,,0,,84,,110,Dry,1005,0,45,21,,,2.1,
Strathallan,01/10/2019 08:00,4.9,2,,,0,,90,,130,Dry,1006,4,45,180,,,3.4,
Strathallan,01/10/2019 09:00,7.9,3,,,0,,73,,100,Dry,1006,3,40,646,,,3.5,
Strathallan,01/10/2019 10:00,9.4,5,,,0,,65,,90,Dry,1007,,40,1045,,,3.2,
Strathallan,01/10/2019 11:00,10.9,12,,,0,,56,,20,Dry,1007,2,35,1394,,,2.6,
Strathallan,01/10/2019 12:00,10.7,10,,,0,0,53,,50,Dry,1007,1,29,1058,,,1.6,
Strathallan,01/10/2019 13:00,11.9,6,,,0,,49,,40,Dry,1007,3,29,1424,,,1.7,
Strathallan,01/10/2019 14:00,11.6,6,,,0,,53,,20,Dry,1008,7,40,1273,,,2.5,
Strathallan,01/10/2019 15:00,13,6,,,0,,47,,330,Dry,1008,5,50,838,,,2.2,
Strathallan,01/10/2019 16:00,12.2,9,,,0,,50,,340,Dry,1008,3,45,894,,,2.2,
Strathallan,01/10/2019 17:00,10.7,10,,,0,,57,,340,Dry,1009,7,50,391,,,2.7,
Strathallan,01/10/2019 18:00,9.2,10,,13.2,0,0,64,,350,Dry,1010,7,50,107,,,2.9,
Strathallan,01/10/2019 19:00,8.7,9,,,0,,65,,340,Dry,1011,7,50,0,,,2.5,
Strathallan,01/10/2019 20:00,7.7,6,,,0,,66,,250,Dry,1012,4,50,0,,,1.9,
Strathallan,01/10/2019 21:00,7.8,6,,,0,,64,,330,Dry,1013,3,50,0,,,1.5,
Strathallan,01/10/2019 22:00,6.7,6,,,0,,69,,340,Dry,1014,0,50,0,,,1.6,
Strathallan,01/10/2019 23:00,4,2,,,0,,80,,240,Dry,1014,0,50,0,,,1,
Strathallan,02/10/2019 00:00,2.7,1,,,0,0,91,,250,Dry,1015,,50,,,,1.4,
Strathallan,02/10/2019 01:00,1.9,2,,,0,,93,,230,Dry,1015,0,50,0,,,0.9,
Strathallan,02/10/2019 02:00,1.8,2,,,0,,92,,260,Dry,1015,0,50,0,,,0.7,
Strathallan,02/10/2019 03:00,3.9,8,,,0,,81,,270,Dry,1015,,50,0,,,1.1,
Strathallan,02/10/2019 04:00,3.4,7,,,0,,80,,230,Dry,1015,0,50,0,,,0.3,
Strathallan,02/10/2019 05:00,3.2,5,,,0,,77,,240,Dry,1016,0,50,0,,,-0.4,
Strathallan,02/10/2019 06:00,5.4,7,0.7,,0,0,70,,230,Dry,1016,0,50,0,,,0.5,
Strathallan,02/10/2019 07:00,5.4,8,,,0,,71,,230,Dry,1016,,50,20,,,0.6,
Strathallan,02/10/2019 08:00,7.5,7,,,0,,64,,230,Dry,1017,0,50,289,,,1.2,
Strathallan,02/10/2019 09:00,10,6,,,0,,59,,240,Dry,1018,3,40,723,,,2.5,
Strathallan,02/10/2019 10:00,11.1,9,,,0,,56,,260,Dry,1019,5,35,989,,,2.8,
Strathallan,02/10/2019 11:00,11.9,7,,,0,,53,,310,Dry,1019,3,40,907,,,2.8,
Strathallan,02/10/2019 12:00,11.5,10,,,0,0,52,,320,Dry,1019,3,45,1408,,,2.2,
Strathallan,02/10/2019 13:00,13,12,,,0,,49,,330,Dry,1019,1,40,1654,,,2.7,
Strathallan,02/10/2019 14:00,13.6,7,,,0,,49,,330,Dry,1019,0,50,1690,,,3.1,
Strathallan,02/10/2019 15:00,12.9,7,,,0,,51,,330,Dry,1019,7,45,1020,,,3.2,
Strathallan,02/10/2019 16:00,12.4,6,,,0,,54,,330,Dry,1020,7,50,417,,,3.6,
Strathallan,02/10/2019 17:00,11.9,8,,,0,,55,,350,Dry,1020,8,45,237,,,3.3,
Strathallan,02/10/2019 18:00,10.8,8,,14.1,0,0,57,,340,Dry,1020,5,50,109,,,2.7,
Strathallan,02/10/2019 19:00,7.6,3,,,0,,78,,250,Dry,1021,7,35,0,,,4.1,
Strathallan,02/10/2019 20:00,6.4,2,,,0,,85,,310,Dry,1021,6,40,0,,,4.2,
Strathallan,02/10/2019 21:00,4.6,1,,,0,,91,,200,Dry,1021,7,50,0,,,3.4,
Strathallan,02/10/2019 22:00,4.8,1,,,0,,94,,270,Dry,1022,6,50,0,,,4,
Strathallan,02/10/2019 23:00,3.2,1,,,0,,93,,250,Dry,1021,2,50,0,,,2.2,
Strathallan,03/10/2019 00:00,1.8,3,,,0,0,95,,250,Dry,1021,,50,,,,1.2,
Strathallan,03/10/2019 01:00,1.5,3,,,0,,97,,210,Dry,1021,0,50,0,,,1.2,
Strathallan,03/10/2019 02:00,0.3,2,,,0,,97,,220,Dry,1021,0,45,0,,,-0.1,
Strathallan,03/10/2019 03:00,-0.4,3,,,0,,97,,240,Dry,1020,0,45,0,,,-0.7,
Strathallan,03/10/2019 04:00,-0.7,3,,,0,,97,,270,Dry,1020,0,50,0,,,-1,
Strathallan,03/10/2019 05:00,-1.1,2,,,0,,98,,250,Dry,1020,0,50,0,,,-1.3,
Strathallan,03/10/2019 06:00,-1.4,2,-1.5,,0,0,98,,240,Dry,1019,,50,0,,,-1.6,
Strathallan,03/10/2019 07:00,-1.3,1,,,0,,99,,250,Dry,1019,0,45,35,,,-1.4,
Strathallan,03/10/2019 08:00,0.6,2,,,0,,99,,240,Dry,1019,0,45,348,,,0.5,
Strathallan,03/10/2019 09:00,4.1,1,,,0,,100,,250,Dry,1018,0,45,657,,,4.1,
Strathallan,03/10/2019 10:00,6.7,1,,,0,,89,,100,Dry,1017,0,50,790,,,5.1,
Strathallan,03/10/2019 11:00,7,2,,,0,,87,,60,Dry,1016,0,40,737,,,5,
Strathallan,03/10/2019 12:00,9.3,2,,,0,0,80,,80,Dry,1015,0,50,1000,,,6.2,
Strathallan,03/10/2019 13:00,10.6,8,,,0,,71,,90,Dry,1014,2,50,687,,,5.7,
Strathallan,03/10/2019 14:00,10.8,9,,,0,,69,,90,Dry,1012,0,50,459,,,5.4,
Strathallan,03/10/2019 15:00,10.8,10,,,0,,70,,90,Dry,1011,4,50,451,,,5.6,
Strathallan,03/10/2019 16:00,10.3,6,,,0,,75,,90,Dry,1010,2,50,205,,,6.1,
Strathallan,03/10/2019 17:00,10.2,9,,,0,,76,,90,Dry,1008,7,50,61,,,6.3,
Strathallan,03/10/2019 18:00,9.8,9,,10.9,0,0,71,,90,Dry,1007,8,50,33,,,4.9,
Strathallan,03/10/2019 19:00,9.4,10,,,0,,71,,90,Dry,1006,7,50,0,,,4.6,
Strathallan,03/10/2019 20:00,9.2,8,,,0,,78,,80,Dry,1005,8,45,0,,,5.6,
Strathallan,03/10/2019 21:00,9.3,7,,,0,,79,,80,Dry,1005,8,40,0,,,6,
Strathallan,03/10/2019 22:00,9.3,8,,,0,,77,,70,Rain,1004,8,50,0,,,5.6,
Strathallan,03/10/2019 23:00,8.8,8,,,0.2,,82,,80,Light shower,1003,8,40,0,,,6,
Strathallan,04/10/2019 00:00,8.5,6,,,0.4,0.6,90,,70,Moderate rain,1003,6,11,,,,7,
Strathallan,04/10/2019 01:00,8.9,7,,,0.4,,93,,70,Rain,1002,7,14,0,,,7.9,
Strathallan,04/10/2019 02:00,9.3,7,,,0,,95,,70,Light drizzle,1001,8,7,0,,,8.6,
Strathallan,04/10/2019 03:00,9.5,7,,,0,,93,,60,Rain,1001,8,17,0,,,8.5,
Strathallan,04/10/2019 04:00,9.7,12,,,0.2,,89,,80,Light drizzle,1001,8,5,0,,,8.1,
Strathallan,04/10/2019 05:00,9.6,10,,,0,,91,,70,Rain,1002,8,22,0,,,8.3,
Strathallan,04/10/2019 06:00,9.5,8,8.5,,0,0.4,89,,80,Haze,1002,7,10,0,,,7.9,
Strathallan,04/10/2019 07:00,9.7,10,,,0,,92,,70,Rain,1003,8,24,4,,,8.5,
Strathallan,04/10/2019 08:00,9.8,9,,,0,,93,,60,Light drizzle,1004,8,5,49,,,8.8,
Strathallan,04/10/2019 09:00,10.3,10,,,0,,89,,60,Drizzle,1005,6,50,117,,,8.7,
Strathallan,04/10/2019 10:00,10.3,9,,,0,,91,,40,Dry,1006,8,35,136,,,9,
Strathallan,04/10/2019 11:00,11.2,8,,,0,,91,,50,Rain,1006,8,35,328,,,9.8,
Strathallan,04/10/2019 12:00,11.6,8,,,0,0,85,,70,Dry,1007,8,45,332,,,9.2,
Strathallan,04/10/2019 13:00,12,7,,,0,,81,,60,Dry,1008,4,40,288,,,8.9,
Strathallan,04/10/2019 14:00,12.5,10,,,0,,75,,70,Dry,1009,8,30,483,,,8.3,
Strathallan,04/10/2019 15:00,12.4,8,,,0,,75,,80,Dry,1010,7,35,415,,,8.2,
Strathallan,04/10/2019 16:00,11.2,7,,,0,,84,,90,Rain,1010,8,25,208,,,8.7,
Strathallan,04/10/2019 17:00,11.2,2,,,0,,86,,50,Dry,1011,8,30,163,,,9.1,
Strathallan,04/10/2019 18:00,10,3,,12.5,0,0,84,,80,Dry,1012,7,35,29,,,7.5,
Strathallan,04/10/2019 19:00,9.5,2,,,0,,89,,70,Dry,1013,5,30,0,,,7.8,
Strathallan,04/10/2019 20:00,9,5,,,0,,89,,10,Dry,1013,8,40,0,,,7.3,
Strathallan,04/10/2019 21:00,7.4,2,,,0,,92,,70,Dry,1014,1,26,0,,,6.2,
Strathallan,04/10/2019 22:00,6.3,1,,,0,,95,,20,Dry,1014,7,24,0,,,5.6,
Strathallan,04/10/2019 23:00,5.6,2,,,0,,97,,250,Dry,1015,5,20,0,,,5.2,
Strathallan,05/10/2019 00:00,6.2,1,,,0,0,98,,20,Dry,1015,3,22,,,,6,
Strathallan,05/10/2019 01:00,6.7,1,,,0,,98,,300,Fog,1015,5,30,0,,,6.5,
Strathallan,05/10/2019 02:00,6.9,2,,,0,,97,,60,Fog,1015,1,50,0,,,6.5,
Strathallan,05/10/2019 03:00,7.1,1,,,0,,96,,150,Moderate shower,1015,8,8,0,,,6.6,
Strathallan,05/10/2019 04:00,6.8,2,,,0.6,,96,,80,Moderate drizzle,1015,8,6,0,,,6.3,
Strathallan,05/10/2019 05:00,6.7,5,,,0.4,,97,,50,Light rain,1015,8,5,0,,,6.4,
Strathallan,05/10/2019 06:00,6.9,1,5.4,,0,1,96,,60,Rain,1015,7,35,0,,,6.4,
Strathallan,05/10/2019 07:00,7,1,,,0,,97,,190,Dry,1015,8,30,8,,,6.6,
Strathallan,05/10/2019 08:00,7.6,1,,,0,,97,,260,Dry,1016,6,40,60,,,7.2,
Strathallan,05/10/2019 09:00,8.3,1,,,0,,96,,100,Dry,1016,8,35,232,,,7.8,
Strathallan,05/10/2019 10:00,9.6,2,,,0,,92,,120,Dry,1015,8,30,533,,,8.5,
Strathallan,05/10/2019 11:00,10.3,2,,,0,,94,,70,Dry,1015,8,20,292,,,9.4,
Strathallan,05/10/2019 12:00,11.3,5,,,0,0,90,,80,Haze,1014,8,6,265,,,9.8,
Strathallan,05/10/2019 13:00,11.6,3,,,0.2,,87,,100,Light shower,1014,8,15,267,,,9.6,
Strathallan,05/10/2019 14:00,11.5,5,,,0.6,,91,,90,Moderate rain,1014,8,9,281,,,10.1,
Strathallan,05/10/2019 15:00,11.2,2,,,1.2,,93,,70,Moderate rain,1014,8,14,171,,,10.2,
Strathallan,05/10/2019 16:00,11.1,5,,,1.4,,95,,50,Moderate rain,1013,8,9,129,,,10.4,
Strathallan,05/10/2019 17:00,11,8,,,0.8,,92,,80,Rain,1013,8,26,62,,,9.8,
Strathallan,05/10/2019 18:00,11,7,,11.7,0,4,91,,80,Dry,1013,1,30,12,,,9.6,
Strathallan,05/10/2019 19:00,11,7,,,0,,93,,70,Rain,1012,6,16,0,,,10,
Strathallan,05/10/2019 20:00,11.1,8,,,0,,92,,60,Light shower,1012,3,13,0,,,10,
Strathallan,05/10/2019 21:00,10.9,7,,,0.2,,95,,70,Light drizzle,1011,8,9,0,,,10.2,
Strathallan,05/10/2019 22:00,10.8,7,,,0.4,,96,,80,Light rain,1010,8,9,0,,,10.2,
Strathallan,05/10/2019 23:00,10.9,6,,,1.2,,96,,70,Moderate rain,1010,8,6,0,,,10.4,
Strathallan,06/10/2019 00:00,11,7,,,2,4,97,,80,Moderate rain,1009,5,5,,,,10.6,
Strathallan,06/10/2019 01:00,11.1,8,,,1,,96,,70,Light rain,1008,8,6,0,,,10.6,
Strathallan,06/10/2019 02:00,10.9,8,,,1,,96,,60,Moderate rain,1008,8,9,0,,,10.3,
Strathallan,06/10/2019 03:00,10.7,7,,,2,,94,,70,Moderate rain,1008,7,8,0,,,9.9,
Strathallan,06/10/2019 04:00,10.5,8,,,4.4,,96,,50,Moderate rain,1008,7,7,0,,,10,
Strathallan,06/10/2019 05:00,9.8,8,,,4.4,,96,,70,Moderate rain,1008,7,4,0,,,9.2,
Strathallan,06/10/2019 06:00,9.7,9,9.7,,5,18,92,,80,Moderate rain,1008,8,5,0,,,8.6,
Strathallan,06/10/2019 07:00,9.5,6,,,3.2,,96,,40,Moderate rain,1009,8,13,3,,,8.9,
Strathallan,06/10/2019 08:00,9.6,7,,,1.6,,97,,20,Moderate rain,1010,8,9,42,,,9.2,
Strathallan,06/10/2019 09:00,10.2,8,,,0.8,,96,,30,Moderate rain,1010,8,7,110,,,9.7,
Strathallan,06/10/2019 10:00,10.2,10,,,1.2,,94,,70,Moderate rain,1011,8,6,163,,,9.4,
Strathallan,06/10/2019 11:00,10.2,9,,,0.8,,94,,60,Moderate rain,1012,8,8,300,,,9.4,
Strathallan,06/10/2019 12:00,10.6,8,,,0.4,8,93,,60,Light rain,1013,7,14,315,,,9.6,
Strathallan,06/10/2019 13:00,11.1,10,,,0,,88,,60,Rain,1013,8,23,357,,,9.2,
Strathallan,06/10/2019 14:00,10.5,8,,,0.2,,88,,90,Rain,1014,8,40,213,,,8.7,
Strathallan,06/10/2019 15:00,10.9,6,,,0,,88,,70,Dry,1015,8,26,246,,,9.1,
Strathallan,06/10/2019 16:00,10.7,6,,,0,,90,,60,Light shower,1016,8,11,120,,,9.2,
Strathallan,06/10/2019 17:00,10.5,3,,,0.2,,91,,70,Light rain,1016,7,23,108,,,9.2,
Strathallan,06/10/2019 18:00,10.2,3,,11.1,0.2,1,92,,30,Light shower,1017,8,17,15,,,9,
Strathallan,06/10/2019 19:00,9,3,,,0,,94,,80,Rain,1016,5,15,0,,,8.2,
Strathallan,06/10/2019 20:00,10.2,5,,,0,,96,,60,Dry,1016,1,11,0,,,9.7,
Strathallan,06/10/2019 21:00,10.2,5,,,0,,96,,60,Dry,1016,6,14,0,,,9.6,
Strathallan,06/10/2019 22:00,11.2,7,,,0,,88,,90,Haze,1015,8,11,0,,,9.3,
Strathallan,06/10/2019 23:00,11.3,6,,,0,,84,,100,Dry,1015,8,23,0,,,8.8,
Strathallan,07/10/2019 00:00,11.2,7,,,0,0,83,,110,Dry,1014,4,17,,,,8.5,
Strathallan,07/10/2019 01:00,10.8,5,,,0,,88,,100,Dry,1013,8,24,0,,,8.9,
Strathallan,07/10/2019 02:00,11.5,8,,,0,,84,,100,Dry,1013,8,16,0,,,8.9,
Strathallan,07/10/2019 03:00,11.4,6,,,0,,84,,120,Dry,1012,8,16,0,,,8.9,
Strathallan,07/10/2019 04:00,11.5,7,,,0,,84,,100,Haze,1010,8,18,0,,,9,
Strathallan,07/10/2019 05:00,12,5,,,0,,82,,150,Dry,1009,7,50,0,,,9.2,
Strathallan,07/10/2019 06:00,12.4,8,9,,0,0,79,,170,Drizzly rain,1008,4,30,0,,,8.9,
Strathallan,07/10/2019 07:00,11.7,7,,,0,,83,,170,Light shower,1007,8,22,0,,,9,
Strathallan,07/10/2019 08:00,12,8,,,0,,78,,190,Rain,1006,8,23,13,,,8.4,
Strathallan,07/10/2019 09:00,11.9,7,,,0,,73,36,220,Dry,1005,7,45,49,,,7.3,
Strathallan,07/10/2019 10:00,11.3,6,,,0,,81,,200,Dry,1004,7,30,82,,,8.2,
Strathallan,07/10/2019 11:00,11.6,3,,,0,,82,,320,Rain,1004,8,26,189,,,8.8,
Strathallan,07/10/2019 12:00,12.4,9,,,0,0,81,,200,Rain,1003,8,50,260,,,9.4,
Strathallan,07/10/2019 13:00,13.5,13,,,0.2,,82,,210,Rain,1002,8,50,747,,,10.6,
Strathallan,07/10/2019 14:00,15.1,12,,,0,,77,,220,Dry,1001,3,45,898,,,11.2,
Strathallan,07/10/2019 15:00,15.7,15,,,0,,67,30,220,Dry,1000,4,28,950,,,9.8,
Strathallan,07/10/2019 16:00,15,14,,,0,,66,31,230,Dry,1000,1,16,697,,,8.8,
Strathallan,07/10/2019 17:00,13.5,8,,,0,,72,,220,Dry,1000,0,19,220,,,8.7,
Strathallan,07/10/2019 18:00,10.3,9,,15.9,2.8,3,88,,220,Rain,1001,1,30,19,,,8.5,
Strathallan,07/10/2019 19:00,9.2,8,,,0,,94,,230,Dry,1000,0,21,0,,,8.4,
Strathallan,07/10/2019 20:00,9.7,8,,,0,,92,,230,Dry,999,0,16,0,,,8.5,
Strathallan,07/10/2019 21:00,9.9,9,,,0,,94,,230,Dry,999,0,17,0,,,9,
Strathallan,07/10/2019 22:00,10,8,,,0,,92,,230,Rain,999,1,18,0,,,8.8,
Strathallan,07/10/2019 23:00,10,9,,,0.2,,89,,220,Rain,998,7,35,0,,,8.3,
Strathallan,08/10/2019 00:00,10,8,,,0,0.2,93,,230,Rain,998,2,17,,,,9,
Strathallan,08/10/2019 01:00,10.5,12,,,0,,86,,220,Dry,998,0,23,0,,,8.4,
Strathallan,08/10/2019 02:00,10.9,13,,,0,,84,,230,Dry,997,2,15,0,,,8.4,
Strathallan,08/10/2019 03:00,11.1,12,,,0,,83,,230,Dry,996,5,18,0,,,8.5,
Strathallan,08/10/2019 04:00,10.7,9,,,0,,86,,240,Dry,995,6,15,0,,,8.5,
Strathallan,08/10/2019 05:00,10.6,9,,,0,,83,,230,Dry,994,0,25,0,,,7.9,
Strathallan,08/10/2019 06:00,10.5,18,8.5,,0.8,0.8,89,31,230,Moderate shower,994,1,6,0,,,8.9,
Strathallan,08/10/2019 07:00,9.2,14,,,1.4,,93,32,250,Moderate shower,994,5,13,9,,,8.2,
Strathallan,08/10/2019 08:00,8.7,12,,,0,,84,,240,Rain,994,2,40,162,,,6.3,
Strathallan,08/10/2019 09:00,9.8,13,,,0.2,,87,,250,Rain,993,3,19,563,,,7.9,
Strathallan,08/10/2019 10:00,11.7,21,,,0,,78,33,230,Drizzly rain,993,7,17,755,,,8.1,
Strathallan,08/10/2019 11:00,12.6,20,,,0,,71,38,230,Rain,992,6,18,1183,,,7.6,
Strathallan,08/10/2019 12:00,13.1,21,,,0,2,70,36,220,Dry,992,8,27,1397,,,7.9,
Strathallan,08/10/2019 13:00,12.7,21,,,0,,72,36,220,Rain,991,8,20,947,,,7.8,
Strathallan,08/10/2019 14:00,12.3,21,,,0,,75,37,220,Rain,990,7,22,1019,,,8.1,
Strathallan,08/10/2019 15:00,12.1,22,,,0,,77,39,220,Rain,990,7,23,707,,,8.2,
Strathallan,08/10/2019 16:00,10.9,21,,,0.2,,88,37,230,Light rain,990,8,22,284,,,9,
Strathallan,08/10/2019 17:00,10,17,,,0,,86,33,230,Rain,990,,50,155,,,7.9,
Strathallan,08/10/2019 18:00,9.8,16,,13.4,0.2,0,90,30,230,Light shower,990,4,23,45,,,8.4,
Strathallan,08/10/2019 19:00,9.7,16,,,0,,89,30,230,Rain,990,3,30,0,,,8,
Strathallan,08/10/2019 20:00,9.8,14,,,0,,92,29,230,Rain,990,2,30,0,,,8.6,
Strathallan,08/10/2019 21:00,9.5,15,,,0,,89,,230,Dry,991,2,28,0,,,7.8,
Strathallan,08/10/2019 22:00,9.8,13,,,0,,92,,230,Light shower,991,5,16,0,,,8.7,
Strathallan,08/10/2019 23:00,10.1,16,,,0,,90,29,230,Rain,991,2,21,0,,,8.6,
Strathallan,09/10/2019 00:00,10.2,12,,,0,0,91,,220,Drizzly rain,992,2,18,,,,8.9,
Strathallan,09/10/2019 01:00,9.8,10,,,0,,90,,230,Rain,992,4,17,0,,,8.4,
Strathallan,09/10/2019 02:00,9.5,12,,,0,,86,,230,Drizzly rain,991,7,22,0,,,7.4,
Strathallan,09/10/2019 03:00,9.8,14,,,0,,87,,220,Rain,991,3,21,0,,,7.8,
Strathallan,09/10/2019 04:00,9.5,16,,,0,,88,,220,Rain,991,3,22,0,,,7.7,
Strathallan,09/10/2019 05:00,9.6,12,,,0,,90,,220,Dry,992,3,18,0,,,8.1,
Strathallan,09/10/2019 06:00,9.6,12,9.4,,0,0,89,,220,Rain,992,7,16,0,,,7.9,
Strathallan,09/10/2019 07:00,9.8,15,,,0.2,,88,,230,Light shower,992,7,11,0,,,8,
Strathallan,09/10/2019 08:00,10.3,14,,,0,,87,,220,Rain,992,7,27,219,,,8.3,
Strathallan,09/10/2019 09:00,10.2,15,,,0,,85,,230,Dry,992,3,30,312,,,7.8,
Strathallan,09/10/2019 10:00,10.4,15,,,0,,83,,230,Rain,992,2,45,427,,,7.8,
Strathallan,09/10/2019 11:00,11,15,,,0,,80,29,220,Rain,992,4,29,967,,,7.7,
Strathallan,09/10/2019 12:00,11.7,15,,,0,0.2,77,30,230,Dry,992,1,24,965,,,7.9,
Strathallan,09/10/2019 13:00,10.9,16,,,0,,80,31,230,Drizzly rain,992,6,4,948,,,7.7,
Strathallan,09/10/2019 14:00,12.7,18,,,0.2,,71,30,230,Rain,992,2,18,894,,,7.6,
Strathallan,09/10/2019 15:00,11.7,16,,,0.2,,74,,230,Rain,992,2,45,791,,,7.4,
Strathallan,09/10/2019 16:00,11.5,10,,,0,,76,,240,Dry,992,3,28,508,,,7.5,
Strathallan,09/10/2019 17:00,10.3,18,,,0,,77,,230,Dry,993,3,35,253,,,6.6,
Strathallan,09/10/2019 18:00,9.8,17,,12.9,0,0.4,82,,220,Dry,993,3,21,28,,,6.9,
Strathallan,09/10/2019 19:00,9.6,12,,,0,,83,,220,Rain,993,8,26,0,,,6.9,
Strathallan,09/10/2019 20:00,9.5,15,,,0,,83,,220,Dry,993,7,13,0,,,6.8,
Strathallan,09/10/2019 21:00,9.4,16,,,0,,89,30,230,Light shower,993,7,17,0,,,7.8,
Strathallan,09/10/2019 22:00,9.7,15,,,0,,89,,220,Drizzly rain,993,8,10,0,,,8,
Strathallan,09/10/2019 23:00,9.5,15,,,0.2,,90,,220,Light shower,993,7,12,0,,,8.1,
Strathallan,10/10/2019 00:00,9.9,18,,,0,0.2,92,30,220,Light shower,993,,11,,,,8.8,
Strathallan,10/10/2019 01:00,9.9,18,,,0.4,,93,36,230,Moderate rain,994,7,16,0,,,8.9,
Strathallan,10/10/2019 02:00,10,16,,,0,,93,29,230,Moderate rain,994,6,24,0,,,9,
Strathallan,10/10/2019 03:00,10,15,,,0.2,,92,,230,Rain,994,,40,0,,,8.9,
Strathallan,10/10/2019 04:00,10.1,18,,,0,,92,29,230,Dry,995,2,50,0,,,8.9,
Strathallan,10/10/2019 05:00,9.9,15,,,0,,92,,220,Dry,996,5,50,0,,,8.8,
Strathallan,10/10/2019 06:00,10,13,9.3,,0,0.6,90,,230,Rain,997,7,45,0,,,8.6,
Strathallan,10/10/2019 07:00,9.8,13,,,0,,91,,230,Dry,998,0,45,2,,,8.5,
Strathallan,10/10/2019 08:00,10.3,14,,,0,,89,,230,Dry,999,7,50,214,,,8.6,
Strathallan,10/10/2019 09:00,10.9,10,,,0,,89,,220,Dry,999,7,40,379,,,9.3,
Strathallan,10/10/2019 10:00,11.2,15,,,0,,86,,230,Dry,1000,8,50,507,,,9,
Strathallan,10/10/2019 11:00,10.9,10,,,0.4,,94,,250,Light shower,1000,3,9,682,,,10,
Strathallan,10/10/2019 12:00,12.3,15,,,0,0.4,80,,230,Rain,1000,4,22,828,,,9.1,
Strathallan,10/10/2019 13:00,10.8,14,,,0.2,,87,,220,Moderate shower,999,1,8,675,,,8.8,
Strathallan,10/10/2019 14:00,11.4,12,,,0,,81,,210,Light shower,999,7,17,527,,,8.3,
Strathallan,10/10/2019 15:00,10.4,3,,,0.4,,90,,290,Moderate rain,998,2,21,221,,,8.9,
Strathallan,10/10/2019 16:00,10.1,2,,,0.6,,91,,210,Light rain,997,7,15,99,,,8.7,
Strathallan,10/10/2019 17:00,9.9,2,,,1.4,,94,,50,Light drizzle,996,7,5,93,,,9.1,
Strathallan,10/10/2019 18:00,9.6,1,,12.8,1,3.6,96,,360,Rain,996,3,17,9,,,9.1,
Strathallan,10/10/2019 19:00,8.8,3,,,0,,97,,20,Fog,995,7,13,0,,,8.5,
Strathallan,10/10/2019 20:00,9.1,2,,,1,,98,,80,Moderate rain,994,1,4,0,,,8.9,
Strathallan,10/10/2019 21:00,12.2,13,,,0.2,,89,,230,Rain,993,8,20,0,,,10.5,
Strathallan,10/10/2019 22:00,11.8,17,,,0,,80,31,230,Rain,993,3,29,0,,,8.6,
Strathallan,10/10/2019 23:00,11.2,15,,,0,,82,32,230,Dry,993,,35,0,,,8.3,
Strathallan,11/10/2019 00:00,11,14,,,0,1,81,,240,Dry,993,1,25,,,,8,
Strathallan,11/10/2019 01:00,10.8,15,,,0,,86,,230,Moderate shower,994,4,11,0,,,8.6,
Strathallan,11/10/2019 02:00,10.4,13,,,0.2,,84,,230,Rain,993,3,21,0,,,7.9,
Strathallan,11/10/2019 03:00,9.8,8,,,0.2,,90,,240,Rain,993,2,11,0,,,8.3,
Strathallan,11/10/2019 04:00,10.4,10,,,0.2,,86,,240,Rain,993,1,9,0,,,8.3,
Strathallan,11/10/2019 05:00,10.2,12,,,0,,83,,240,Rain,992,7,18,0,,,7.5,
Strathallan,11/10/2019 06:00,10.4,12,8.5,,0,1,83,,260,Rain,992,4,24,0,,,7.8,
Strathallan,11/10/2019 07:00,10.5,15,,,0,,79,,240,Dry,992,7,23,6,,,7.2,
Strathallan,11/10/2019 08:00,11.3,20,,,0,,76,30,230,Rain,992,8,24,239,,,7.4,
Strathallan,11/10/2019 09:00,11.5,15,,,0,,77,30,240,Rain,992,5,24,507,,,7.7,
Strathallan,11/10/2019 10:00,12.4,21,,,0,,73,30,230,Dry,992,7,19,645,,,7.8,
Strathallan,11/10/2019 11:00,12.4,24,,,0,,72,37,240,Rain,992,7,19,795,,,7.6,
Strathallan,11/10/2019 12:00,11.5,25,,,0,0,76,43,240,Drizzly rain,992,6,15,830,,,7.6,
Strathallan,11/10/2019 13:00,11.1,18,,,0.4,,83,30,250,Drizzly rain,992,7,24,451,,,8.5,
Strathallan,11/10/2019 14:00,11.4,17,,,3,,82,31,230,Rain,992,4,30,669,,,8.6,
Strathallan,11/10/2019 15:00,11.1,17,,,0.8,,84,31,240,Moderate shower,992,7,22,319,,,8.6,
Strathallan,11/10/2019 16:00,10.6,14,,,1.4,,87,,240,Moderate rain,993,8,17,247,,,8.6,
Strathallan,11/10/2019 17:00,10.4,14,,,0,,83,,230,Rain,993,2,30,205,,,7.8,
Strathallan,11/10/2019 18:00,10.1,12,,13.2,0,6,86,31,230,Rain,993,1,11,16,,,8,
Strathallan,11/10/2019 19:00,9.7,20,,,0.4,,86,35,230,Light shower,993,6,35,0,,,7.5,
Strathallan,11/10/2019 20:00,9.3,21,,,0,,86,38,230,Rain,993,4,16,0,,,7.2,
Strathallan,11/10/2019 21:00,9.4,17,,,0,,90,32,230,Dry,994,0,30,0,,,7.9,
Strathallan,11/10/2019 22:00,9.5,13,,,0,,90,,230,Dry,995,6,24,0,,,8,
Strathallan,11/10/2019 23:00,8.9,13,,,0,,90,,230,Dry,996,0,50,0,,,7.5,
Strathallan,12/10/2019 00:00,8.4,10,,,0,0.4,91,,230,Dry,997,1,50,,,,7.1,
Strathallan,12/10/2019 01:00,8.1,12,,,0,,86,,230,Dry,997,0,45,0,,,6,
Strathallan,12/10/2019 02:00,7.7,13,,,0,,85,,230,Dry,998,0,50,0,,,5.5,
Strathallan,12/10/2019 03:00,7.7,12,,,0,,87,,230,Dry,998,,50,0,,,5.7,
Strathallan,12/10/2019 04:00,6.2,8,,,0,,90,,280,Dry,998,0,45,0,,,4.8,
Strathallan,12/10/2019 05:00,6.8,8,,,0,,92,,250,Dry,999,4,50,0,,,5.6,
Strathallan,12/10/2019 06:00,7.1,9,6,,0,0,88,,230,Dry,999,0,45,0,,,5.3,
Strathallan,12/10/2019 07:00,6.1,3,,,0,,90,,250,Dry,999,0,35,0,,,4.6,
Strathallan,12/10/2019 08:00,7.7,5,,,0,,89,,250,Dry,1000,7,45,187,,,6.1,
Strathallan,12/10/2019 09:00,9.2,10,,,0,,86,,230,Dry,1000,6,45,508,,,7,
Strathallan,12/10/2019 10:00,10.2,10,,,0,,86,,240,Dry,1001,6,35,748,,,8.1,
Strathallan,12/10/2019 11:00,11.5,13,,,0,,77,,230,Dry,1001,6,30,913,,,7.7,
Strathallan,12/10/2019 12:00,12,14,,,0,0,73,,230,Dry,1002,1,30,1093,,,7.5,
Strathallan,12/10/2019 13:00,11.9,10,,,0,,81,,230,Light shower,1001,4,40,875,,,8.8,
Strathallan,12/10/2019 14:00,12.5,15,,,0,,72,,230,Rain,1001,5,35,1099,,,7.6,
Strathallan,12/10/2019 15:00,12.4,9,,,0,,74,,220,Rain,1001,6,50,799,,,8,
Strathallan,12/10/2019 16:00,11.5,9,,,0,,73,,240,Rain,1002,1,45,415,,,6.9,
Strathallan,12/10/2019 17:00,10.1,6,,,0,,79,,230,Dry,1002,6,50,178,,,6.8,
Strathallan,12/10/2019 18:00,7.7,5,,13.5,0,0,88,,250,Dry,1002,1,50,12,,,5.9,
Strathallan,12/10/2019 19:00,7.5,5,,,0,,93,,240,Dry,1003,7,50,0,,,6.5,
Strathallan,12/10/2019 20:00,7.9,3,,,0,,95,,250,Rain,1003,7,45,0,,,7.2,
Strathallan,12/10/2019 21:00,7.9,1,,,0.2,,95,,250,Rain,1003,2,45,0,,,7.3,
Strathallan,12/10/2019 22:00,7,1,,,0,,96,,210,Fog,1004,6,4,0,,,6.5,
Strathallan,12/10/2019 23:00,7.1,2,,,0,,97,,220,Dry,1004,7,14,0,,,6.7,
Strathallan,13/10/2019 00:00,5.5,2,,,0,0.2,97,,360,Fog,1004,5,4,,,,5.2,
Strathallan,13/10/2019 01:00,3.7,1,,,0,,97,,220,Thickening fog,1004,9,0,0,,,3.3,
Strathallan,13/10/2019 02:00,3.3,2,,,0,,98,,310,Fog,1004,9,0,0,,,3.1,
Strathallan,13/10/2019 03:00,4,1,,,0,,99,,270,Fog,1004,9,0,0,,,3.9,
Strathallan,13/10/2019 04:00,3.9,2,,,0,,99,,230,Fog,1004,9,0,0,,,3.8,
Strathallan,13/10/2019 05:00,4.3,2,,,0,,99,,240,Fog,1004,9,0,0,,,4.2,
Strathallan,13/10/2019 06:00,4.3,1,3.3,,0.2,0.2,100,,230,Fog,1003,9,0,0,,,4.3,
Strathallan,13/10/2019 07:00,4.4,2,,,0,,100,,260,Fog thinning,1003,8,0,3,,,4.4,
Strathallan,13/10/2019 08:00,4.8,1,,,0,,100,,10,Fog,1003,8,1,61,,,4.8,
Strathallan,13/10/2019 09:00,5.4,1,,,0,,100,,100,Dry,1003,8,20,201,,,5.4,
Strathallan,13/10/2019 10:00,6,2,,,0,,99,,60,Dry,1003,8,35,421,,,5.9,
Strathallan,13/10/2019 11:00,6.7,3,,,0,,99,,360,Dry,1002,5,50,469,,,6.6,
Strathallan,13/10/2019 12:00,7.8,3,,,0,0,94,,20,Dry,1002,7,50,513,,,7,
Strathallan,13/10/2019 13:00,8.8,3,,,0,,89,,90,Dry,1002,8,50,497,,,7.2,
Strathallan,13/10/2019 14:00,9.7,2,,,0,,87,,350,Haze,1001,8,10,466,,,7.8,
Strathallan,13/10/2019 15:00,9.6,1,,,0,,90,,250,Dry,1001,7,8,316,,,8.1,
Strathallan,13/10/2019 16:00,9.7,2,,,0,,90,,220,Dry,1000,8,50,214,,,8.3,
Strathallan,13/10/2019 17:00,9.3,2,,,0,,92,,270,Drizzly rain,1000,8,17,66,,,8.2,
Strathallan,13/10/2019 18:00,9.1,2,,9.8,1.2,1,95,,270,Moderate rain,1001,8,2,6,,,8.4,
Strathallan,13/10/2019 19:00,9,2,,,6.2,,97,,230,Moderate rain,1002,8,7,0,,,8.6,
Strathallan,13/10/2019 20:00,8.9,2,,,3.6,,97,,270,Moderate rain,1003,7,5,0,,,8.6,
Strathallan,13/10/2019 21:00,8.7,2,,,3,,98,,250,Moderate rain,1004,8,8,0,,,8.5,
Strathallan,13/10/2019 22:00,8.5,2,,,1.4,,98,,230,Moderate rain,1004,7,12,0,,,8.3,
Strathallan,13/10/2019 23:00,7.5,2,,,0.4,,98,,220,Rain,1005,8,10,0,,,7.3,
Strathallan,14/10/2019 00:00,7.2,3,,,0,15,97,,240,Rain,1005,4,14,,,,6.9,
Strathallan,14/10/2019 01:00,7.6,3,,,0,,99,,270,Dry,1006,8,45,0,,,7.5,
Strathallan,14/10/2019 02:00,6.6,3,,,0,,97,,220,Fog,1006,3,30,0,,,6.3,
Strathallan,14/10/2019 03:00,6.9,6,,,0,,99,,230,Fog,1007,3,15,0,,,6.8,
Strathallan,14/10/2019 04:00,7.4,6,,,0,,98,,290,Dry,1007,4,23,0,,,7.2,
Strathallan,14/10/2019 05:00,5.1,3,,,0,,97,,220,Fog,1007,6,13,0,,,4.8,
Strathallan,14/10/2019 06:00,4,1,4,,0,0,97,,200,Thickening fog,1008,6,0,0,,,3.7,
Strathallan,14/10/2019 07:00,3.5,3,,,0,,99,,260,Thickening fog,1008,9,0,0,,,3.4,
Strathallan,14/10/2019 08:00,3.5,0,,,0,,99,,0,Moderate precip.,1008,9,0,82,,,3.4,
Strathallan,14/10/2019 09:00,6,1,,,0,,100,,330,Precipitation,1009,8,3,408,,,6,
Strathallan,14/10/2019 10:00,5.9,2,,,0,,99,,300,Fog,1009,8,18,297,,,5.8,
Strathallan,14/10/2019 11:00,8.3,3,,,0,,100,,60,Dry,1009,7,30,607,,,8.3,
Strathallan,14/10/2019 12:00,11.5,1,,,0,0,76,,90,Dry,1008,2,35,1271,,,7.6,
Strathallan,14/10/2019 13:00,11.7,3,,,0,,76,,80,Dry,1008,1,45,967,,,7.7,
Strathallan,14/10/2019 14:00,12.5,3,,,0,,74,,60,Dry,1008,0,40,999,,,8,
Strathallan,14/10/2019 15:00,12.3,3,,,0,,75,,360,Dry,1008,0,50,682,,,8.1,
Strathallan,14/10/2019 16:00,12,5,,,0,,79,,50,Dry,1008,2,50,466,,,8.6,
Strathallan,14/10/2019 17:00,10.6,5,,,0,,84,,70,Dry,1007,3,50,222,,,8.1,
Strathallan,14/10/2019 18:00,8.9,3,,12.9,0,0,91,,60,Dry,1008,5,26,17,,,7.6,
Strathallan,14/10/2019 19:00,7.6,3,,,0,,94,,70,Dry,1008,2,21,0,,,6.8,
Strathallan,14/10/2019 20:00,6.5,2,,,0,,96,,40,Misty,1008,5,12,0,,,6,
Strathallan,14/10/2019 21:00,7.6,2,,,0,,98,,20,Dry,1007,8,24,0,,,7.4,
Strathallan,14/10/2019 22:00,8.3,2,,,0,,97,,70,Dry,1007,8,19,0,,,8,
Strathallan,14/10/2019 23:00,8.4,2,,,0,,96,,40,Dry,1006,8,15,0,,,7.8,
Strathallan,15/10/2019 00:00,8.5,1,,,0,0,95,,60,Dry,1006,8,11,,,,7.8,
Strathallan,15/10/2019 01:00,8.5,0,,,0,,96,,0,Misty,1006,8,8,0,,,7.9,
Strathallan,15/10/2019 02:00,8.3,1,,,0,,96,,130,Misty,1005,8,6,0,,,7.8,
Strathallan,15/10/2019 03:00,8.3,0,,,0,,97,,0,Misty,1004,8,8,0,,,7.9,
Strathallan,15/10/2019 04:00,8.3,1,,,0,,97,,320,Misty,1004,8,8,0,,,7.9,
Strathallan,15/10/2019 05:00,8,0,,,0,,97,,0,Misty,1004,7,4,0,,,7.7,
Strathallan,15/10/2019 06:00,8.2,2,6.3,,0,0,98,,250,Misty,1004,8,6,0,,,8,
Strathallan,15/10/2019 07:00,8.3,3,,,0,,98,,300,Misty,1004,8,7,1,,,8.1,
Strathallan,15/10/2019 08:00,8.5,1,,,0,,98,,280,Misty,1003,8,8,40,,,8.3,
Strathallan,15/10/2019 09:00,8.9,0,,,0,,97,,0,Misty,1003,8,8,95,,,8.6,
Strathallan,15/10/2019 10:00,10,2,,,0,,94,,40,Dry,1003,8,28,415,,,9.1,
Strathallan,15/10/2019 11:00,11,2,,,0,,82,,110,Dry,1002,8,50,693,,,8.1,
Strathallan,15/10/2019 12:00,11.9,3,,,0,0,76,,330,Dry,1002,4,35,1537,,,8,
Strathallan,15/10/2019 13:00,12.2,2,,,0,,74,,110,Dry,1001,0,45,609,,,7.9,
Strathallan,15/10/2019 14:00,12.5,2,,,0,,73,,120,Dry,1001,7,40,657,,,7.8,
Strathallan,15/10/2019 15:00,12.5,1,,,0,,76,,200,Dry,1001,8,50,407,,,8.5,
Strathallan,15/10/2019 16:00,11.9,3,,,0,,79,,220,Dry,1001,7,45,186,,,8.5,
Strathallan,15/10/2019 17:00,11.4,2,,,0,,84,,310,Dry,1000,8,50,73,,,8.8,
Strathallan,15/10/2019 18:00,10.4,1,,13.2,0,0,91,,150,Dry,1000,7,50,4,,,9.1,
Strathallan,15/10/2019 19:00,9.6,2,,,0,,94,,230,Dry,1000,7,35,0,,,8.7,
Strathallan,15/10/2019 20:00,8.5,0,,,0,,95,,0,Dry,1000,7,17,0,,,7.8,
Strathallan,15/10/2019 21:00,7.3,2,,,0,,96,,120,Fog,1000,2,30,0,,,6.8,
Strathallan,15/10/2019 22:00,7.6,2,,,0,,97,,250,Dry,1000,7,15,0,,,7.3,
Strathallan,15/10/2019 23:00,8.1,2,,,0,,97,,230,Dry,1000,8,17,0,,,7.8,
Strathallan,16/10/2019 00:00,8.4,2,,,0,0,98,,200,Rain,999,7,25,,,,8.2,
Strathallan,16/10/2019 01:00,8.3,1,,,0,,98,,280,Misty,999,8,9,0,,,8.1,
Strathallan,16/10/2019 02:00,7.5,1,,,0,,97,,60,Fog,998,8,1,0,,,7.2,
Strathallan,16/10/2019 03:00,7.5,1,,,0,,98,,140,Fog,997,7,22,0,,,7.3,
Strathallan,16/10/2019 04:00,7.8,1,,,0,,99,,100,Dry,997,8,9,0,,,7.7,
Strathallan,16/10/2019 05:00,8.8,3,,,0,,98,,40,Rain,996,8,19,0,,,8.6,
Strathallan,16/10/2019 06:00,9,5,7,,0,0,97,,60,Drizzly rain,996,4,20,0,,,8.6,
Strathallan,16/10/2019 07:00,9,2,,,0,,96,,110,Drizzly rain,996,8,15,0,,,8.4,
Strathallan,16/10/2019 08:00,9.4,6,,,0.4,,96,,50,Light rain,996,8,7,52,,,8.8,
Strathallan,16/10/2019 09:00,9.2,5,,,2.4,,97,,50,Moderate rain,996,7,4,59,,,8.9,
Strathallan,16/10/2019 10:00,9.8,3,,,0.8,,98,,60,Light drizzle,995,8,4,147,,,9.6,
Strathallan,16/10/2019 11:00,10.3,2,,,0.6,,98,,270,Moderate shower,996,8,5,159,,,10,
Strathallan,16/10/2019 12:00,10.5,3,,,0.4,5,98,,260,Drizzly rain,996,8,3,224,,,10.2,
Strathallan,16/10/2019 13:00,11.1,3,,,0.2,,94,,220,Rain,996,8,50,349,,,10.2,
Strathallan,16/10/2019 14:00,12.5,7,,,0,,83,,260,Rain,997,7,40,611,,,9.8,
Strathallan,16/10/2019 15:00,12.1,7,,,0,,74,,250,Dry,998,4,40,742,,,7.7,
Strathallan,16/10/2019 16:00,10.8,7,,,0,,81,,250,Dry,998,3,45,250,,,7.7,
Strathallan,16/10/2019 17:00,10.4,7,,,0,,85,,230,Dry,998,0,50,83,,,8,
Strathallan,16/10/2019 18:00,9.3,6,,13.8,0,0,86,,260,Dry,999,4,50,5,,,7.1,
Strathallan,16/10/2019 19:00,7.8,2,,,0,,92,,260,Dry,1000,0,50,0,,,6.6,
Strathallan,16/10/2019 20:00,6.4,6,,,0,,94,,240,Dry,1000,0,35,0,,,5.6,
Strathallan,16/10/2019 21:00,6.7,7,,,0,,93,,230,Dry,1000,,30,0,,,5.8,
Strathallan,16/10/2019 22:00,4.5,2,,,0,,95,,240,Dry,1001,1,15,0,,,3.8,
Strathallan,16/10/2019 23:00,3.4,2,,,0,,97,,280,Fog,1001,1,9,0,,,3.1,
Strathallan,17/10/2019 00:00,2,3,,,0,0,97,,240,Fog,1001,3,1,,,,1.7,
Strathallan,17/10/2019 01:00,1.3,5,,,0,,98,,250,Fog,1002,1,17,0,,,1.1,
Strathallan,17/10/2019 02:00,1,1,,,0,,99,,120,Thickening fog,1002,7,0,0,,,0.9,
Strathallan,17/10/2019 03:00,1.1,2,,,0,,99,,310,Fog,1001,9,0,0,,,1,
Strathallan,17/10/2019 04:00,1.6,2,,,0.2,,100,,250,Fog,1001,9,0,0,,,1.6,
Strathallan,17/10/2019 05:00,1.8,2,,,0,,99,,270,Fog thinning,1001,7,1,0,,,1.7,
Strathallan,17/10/2019 06:00,1.8,2,0.8,,0,0.2,100,,300,Thickening fog,1001,9,0,0,,,1.8,
Strathallan,17/10/2019 07:00,1.4,2,,,0,,100,,290,Fog thinning,1001,8,0,1,,,1.4,
Strathallan,17/10/2019 08:00,1.8,0,,,0,,100,,0,Fog thinning,1002,8,1,82,,,1.8,
Strathallan,17/10/2019 09:00,2.9,1,,,0,,100,,210,Rain,1002,8,8,226,,,2.9,
Strathallan,17/10/2019 10:00,4.3,1,,,0,,100,,200,Dry,1001,8,20,538,,,4.3,
Strathallan,17/10/2019 11:00,6,1,,,0,,100,,120,Dry,1001,7,21,788,,,6,
Strathallan,17/10/2019 12:00,7,2,,,0,0,99,,90,Fog,1001,8,12,546,,,6.9,
Strathallan,17/10/2019 13:00,8.5,1,,,0,,97,,80,Dry,1000,7,29,589,,,8.1,
Strathallan,17/10/2019 14:00,10.1,1,,,0,,94,,100,Rain,1000,7,30,527,,,9.2,
Strathallan,17/10/2019 15:00,10.5,2,,,0,,92,,260,Dry,999,6,35,423,,,9.3,
Strathallan,17/10/2019 16:00,9.8,3,,,0,,92,,250,Dry,999,7,30,258,,,8.7,
Strathallan,17/10/2019 17:00,9.3,2,,,0,,96,,240,Dry,998,7,17,48,,,8.7,
Strathallan,17/10/2019 18:00,9.4,5,,10.7,0,0,95,,60,Dry,998,7,35,2,,,8.7,
Strathallan,17/10/2019 19:00,8.6,3,,,0,,92,,50,Dry,998,5,30,0,,,7.4,
Strathallan,17/10/2019 20:00,8.2,5,,,0,,92,,40,Dry,998,5,30,0,,,7.1,
Strathallan,17/10/2019 21:00,7.1,2,,,0,,93,,10,Dry,997,7,50,0,,,6.2,
Strathallan,17/10/2019 22:00,9.3,6,,,0,,89,,90,Light shower,997,8,35,0,,,7.6,
Strathallan,17/10/2019 23:00,9.4,6,,,0.2,,88,,80,Light rain,996,8,20,0,,,7.6,
Strathallan,18/10/2019 00:00,8.7,3,,,1.4,2,94,,60,Light rain,996,7,11,,,,7.9,
Strathallan,18/10/2019 01:00,8.5,3,,,0.2,,96,,60,Light shower,996,1,13,0,,,7.9,
Strathallan,18/10/2019 02:00,8.6,2,,,0,,96,,80,Rain,996,8,20,0,,,8,
Strathallan,18/10/2019 03:00,7.7,3,,,0,,97,,110,Rain,996,7,11,0,,,7.3,
Strathallan,18/10/2019 04:00,7.6,1,,,0,,97,,130,Rain,995,7,10,0,,,7.2,
Strathallan,18/10/2019 05:00,6.7,2,,,0,,97,,270,Light shower,995,7,5,0,,,6.4,
Strathallan,18/10/2019 06:00,5.3,2,5.3,,0,0,97,,130,Thickening fog,995,3,0,0,,,5,
Strathallan,18/10/2019 07:00,5.2,1,,,0,,98,,220,Fog,995,5,4,0,,,5,
Strathallan,18/10/2019 08:00,6,1,,,0,,99,,260,Misty,995,7,6,27,,,5.9,
Strathallan,18/10/2019 09:00,7.4,1,,,0.2,,100,,230,Drizzle,995,1,5,123,,,7.4,
Strathallan,18/10/2019 12:00,9.6,1,,,0,,98,,250,Light shower,995,8,10,358,,,9.3,
Strathallan,18/10/2019 13:00,10.2,2,,,0,,94,,270,Light rain,994,1,13,543,,,9.3,
Strathallan,18/10/2019 14:00,10.7,2,,,0.2,,93,,290,Light rain,994,7,12,497,,,9.7,
Strathallan,18/10/2019 15:00,10.3,1,,,1.2,,94,,70,Moderate rain,994,8,6,211,,,9.4,
Strathallan,18/10/2019 16:00,9.1,1,,,1.8,,94,,140,Moderate rain,994,7,16,76,,,8.3,
Strathallan,18/10/2019 17:00,8.6,2,,,1.4,,96,,240,Moderate rain,994,8,16,25,,,8.1,
Strathallan,18/10/2019 18:00,8.5,3,,,1,7,97,,260,Light rain,994,5,27,1,,,8.2,
Strathallan,18/10/2019 19:00,8.2,3,,,0.2,,97,,230,Rain,995,8,28,0,,,7.9,
Strathallan,18/10/2019 20:00,8.1,2,,,0,,98,,230,Dry,995,8,30,0,,,7.9,
Strathallan,18/10/2019 21:00,8,2,,,0,,99,,260,Dry,995,8,26,0,,,7.9,
Strathallan,18/10/2019 22:00,8,2,,,0,,98,,220,Light shower,995,8,21,0,,,7.8,
Strathallan,18/10/2019 23:00,8,2,,,0.4,,98,,40,Light rain,996,3,19,0,,,7.8,
Strathallan,19/10/2019 00:00,8.1,5,,,1,2,95,,30,Moderate rain,996,7,16,,,,7.4,
Strathallan,19/10/2019 01:00,8.1,5,,,1.2,,95,,20,Moderate rain,996,8,45,0,,,7.4,
Strathallan,19/10/2019 02:00,7.7,2,,,0.6,,97,,200,Light rain,997,7,50,0,,,7.3,
Strathallan,19/10/2019 03:00,7.6,1,,,0,,97,,240,Rain,997,8,45,0,,,7.3,
Strathallan,19/10/2019 04:00,7.4,2,,,0,,98,,220,Rain,997,7,50,0,,,7.2,
Strathallan,19/10/2019 05:00,7.4,3,,,0,,98,,240,Fog,997,7,50,0,,,7.2,
Strathallan,19/10/2019 06:00,7.9,2,6.7,,0.2,2,99,,40,Light shower,998,5,35,0,,,7.8,
Strathallan,19/10/2019 07:00,9.2,12,,,0.6,,84,,10,Light rain,999,2,35,0,,,6.8,
Strathallan,19/10/2019 08:00,8.7,6,,,0.2,,83,,30,Light rain,999,8,40,21,,,6,
Strathallan,19/10/2019 09:00,9.5,7,,,0,,76,,30,Rain,1000,8,35,147,,,5.5,
Strathallan,19/10/2019 10:00,10,6,,,0,,72,,10,Dry,1001,8,45,339,,,5.3,
Strathallan,19/10/2019 11:00,10.6,8,,,0,,71,,20,Dry,1001,3,45,640,,,5.6,
Strathallan,19/10/2019 12:00,11.1,6,,,0,0.8,68,,350,Dry,1001,0,50,584,,,5.5,
Strathallan,19/10/2019 13:00,11.3,12,,,0,,67,,360,Dry,1001,7,50,584,,,5.6,
Strathallan,19/10/2019 14:00,11.5,5,,,0,,68,,340,Dry,1002,6,50,532,,,5.9,
Strathallan,19/10/2019 15:00,11.6,7,,,0,,68,,10,Dry,1002,6,45,342,,,6,
Strathallan,19/10/2019 16:00,11,8,,,0,,67,,360,Dry,1003,8,45,389,,,5.3,
Strathallan,19/10/2019 17:00,10.3,8,,,0,,69,,360,Dry,1004,8,50,103,,,5,
Strathallan,19/10/2019 18:00,9.1,3,,12,0,0,75,,320,Dry,1005,4,50,2,,,5,
Strathallan,19/10/2019 19:00,8.3,7,,,0,,79,,320,Dry,1005,2,50,0,,,4.9,
Strathallan,19/10/2019 20:00,8.2,3,,,0,,83,,290,Dry,1006,7,50,0,,,5.6,
Strathallan,19/10/2019 21:00,9.4,6,,,0,,75,,330,Dry,1007,8,50,0,,,5.2,
Strathallan,19/10/2019 22:00,9.2,6,,,0,,74,,300,Dry,1008,8,50,0,,,5,
Strathallan,19/10/2019 23:00,8.3,6,,,0,,70,,10,Dry,1008,0,45,0,,,3.3,
Strathallan,20/10/2019 00:00,7.8,5,,,0,0,75,,320,Dry,1009,1,50,,,,3.8,
Strathallan,20/10/2019 01:00,7.1,8,,,0,,71,,300,Dry,1010,0,40,0,,,2.4,
Strathallan,20/10/2019 02:00,7,9,,,0,,71,,330,Dry,1010,0,40,0,,,2.3,
Strathallan,20/10/2019 03:00,6.7,6,,,0,,71,,320,Dry,1011,1,45,0,,,2,
Strathallan,20/10/2019 04:00,7,8,,,0,,71,,340,Dry,1011,0,50,0,,,2.3,
Strathallan,20/10/2019 05:00,7,6,,,0,,74,,330,Dry,1012,0,50,0,,,2.8,
Strathallan,20/10/2019 06:00,7.2,3,5.7,,0,0,74,,210,Dry,1013,2,50,0,,,2.9,
Strathallan,20/10/2019 07:00,6.9,8,,,0,,73,,340,Dry,1014,1,50,0,,,2.5,
Strathallan,20/10/2019 08:00,7.3,7,,,0,,72,,350,Dry,1014,0,50,85,,,2.6,
Strathallan,20/10/2019 09:00,8.4,5,,,0,,69,,340,Dry,1016,2,50,347,,,3.2,
Strathallan,20/10/2019 10:00,9.4,8,,,0,,65,,350,Dry,1016,1,40,305,,,3.2,
Strathallan,20/10/2019 11:00,9.6,9,,,0,,65,,340,Dry,1017,7,50,458,,,3.5,
Strathallan,20/10/2019 12:00,10.3,8,,,0,0,63,,360,Dry,1017,8,50,573,,,3.7,
Strathallan,20/10/2019 13:00,10.1,7,,,0,,65,,320,Dry,1018,7,45,805,,,3.9,
Strathallan,20/10/2019 14:00,10.4,8,,,0,,64,,330,Dry,1018,8,50,429,,,3.9,
Strathallan,20/10/2019 15:00,9.7,9,,,0,,65,,340,Dry,1019,7,45,338,,,3.6,
Strathallan,20/10/2019 16:00,9.9,7,,,0,,64,,330,Dry,1020,5,50,551,,,3.5,
Strathallan,20/10/2019 17:00,8.4,9,,,0,,68,,350,Dry,1020,7,50,190,,,2.9,
Strathallan,20/10/2019 18:00,6.9,8,,11.1,0,0,76,,360,Dry,1021,1,50,0,,,3,
Strathallan,20/10/2019 19:00,6,8,,,0,,77,,10,Dry,1022,0,50,0,,,2.4,
Strathallan,20/10/2019 20:00,2.7,1,,,0,,91,,200,Dry,1023,5,40,0,,,1.5,
Strathallan,20/10/2019 21:00,2.4,2,,,0,,90,,220,Dry,1023,,50,0,,,1,
Strathallan,20/10/2019 22:00,0.7,2,,,0,,95,,250,Dry,1024,0,45,0,,,0,
Strathallan,20/10/2019 23:00,0,3,,,0,,97,,240,Dry,1024,0,45,0,,,-0.4,
Strathallan,21/10/2019 00:00,-0.4,3,,,0,0,97,,240,Dry,1025,,50,,,,-0.8,
Strathallan,21/10/2019 01:00,-1.1,3,,,0,,98,,260,Dry,1025,0,50,0,,,-1.3,
Strathallan,21/10/2019 02:00,-1.5,3,,,0,,98,,260,Dry,1025,0,50,0,,,-1.7,
Strathallan,21/10/2019 03:00,-2,1,,,0,,98,,240,Dry,1025,,50,0,,,-2.2,
Strathallan,21/10/2019 04:00,-1.6,2,,,0,,98,,250,Dry,1025,2,50,0,,,-1.8,
Strathallan,21/10/2019 05:00,-2.3,0,,,0,,97,,0,Dry,1025,1,45,0,,,-2.6,
Strathallan,21/10/2019 06:00,-2.7,3,-2.7,,0,0,98,,230,Dry,1024,0,45,0,,,-2.9,
Strathallan,21/10/2019 07:00,-2.7,2,,,0,,98,,280,Dry,1025,0,50,0,,,-2.9,
Strathallan,21/10/2019 08:00,-2,0,,,0,,99,,0,Dry,1025,0,50,208,,,-2.1,
Strathallan,21/10/2019 09:00,0.4,0,,,0,,99,,0,Dry,1025,6,45,547,,,0.3,
Strathallan,21/10/2019 10:00,2.3,1,,,0.2,,99,,80,Dry,1025,8,35,399,,,2.2,
Strathallan,21/10/2019 11:00,5.5,1,,,0,,89,,320,Dry,1024,3,35,1013,,,3.9,
Strathallan,21/10/2019 12:00,8.1,9,,,0,0.2,70,,220,Dry,1024,0,50,1202,,,3.1,
Strathallan,21/10/2019 13:00,8.8,10,,,0,,70,,220,Dry,1023,0,45,802,,,3.7,
Strathallan,21/10/2019 14:00,8.5,9,,,0,,70,,220,Dry,1022,4,50,934,,,3.5,
Strathallan,21/10/2019 15:00,8.4,12,,,0,,70,,230,Dry,1021,2,50,386,,,3.3,
Strathallan,21/10/2019 16:00,8.1,8,,,0,,68,,230,Dry,1021,0,45,501,,,2.7,
Strathallan,21/10/2019 17:00,6.8,7,,,0,,76,,230,Dry,1021,1,50,159,,,3,
Strathallan,21/10/2019 18:00,6.8,12,,9.7,0,0,80,,220,Dry,1020,5,50,0,,,3.6,
Strathallan,21/10/2019 19:00,7,10,,,0,,83,,220,Dry,1020,5,50,0,,,4.4,
Strathallan,21/10/2019 20:00,6.6,10,,,0,,85,,230,Dry,1019,6,50,0,,,4.3,
Strathallan,21/10/2019 21:00,7.3,14,,,0,,81,,220,Dry,1018,5,50,0,,,4.4,
Strathallan,21/10/2019 22:00,7.8,14,,,0,,79,,230,Dry,1018,7,50,0,,,4.5,
Strathallan,21/10/2019 23:00,8.2,16,,,0,,79,,230,Dry,1018,7,50,0,,,4.9,
Strathallan,22/10/2019 00:00,8.2,18,,,0,0,79,,230,Dry,1017,,50,,,,4.8,
Strathallan,22/10/2019 01:00,8.4,20,,,0,,80,29,230,Dry,1017,2,50,0,,,5.3,
Strathallan,22/10/2019 02:00,8.3,15,,,0,,84,,220,Dry,1016,8,45,0,,,5.9,
Strathallan,22/10/2019 03:00,8.7,17,,,0,,83,,220,Dry,1015,7,50,0,,,6.1,
Strathallan,22/10/2019 04:00,8.8,17,,,0,,86,,220,Dry,1015,7,25,0,,,6.7,
Strathallan,22/10/2019 05:00,8.7,16,,,0,,89,,220,Dry,1015,8,40,0,,,7,
Strathallan,22/10/2019 06:00,8.6,21,6.5,,0,0,91,30,220,Dry,1014,2,40,0,,,7.3,
Strathallan,22/10/2019 07:00,8.8,16,,,0,,90,29,230,Dry,1015,7,19,0,,,7.4,
Strathallan,22/10/2019 08:00,9.2,20,,,0,,89,31,230,Dry,1015,8,30,46,,,7.6,
Strathallan,22/10/2019 09:00,9.3,18,,,0,,90,32,230,Haze,1015,8,8,281,,,7.9,
Strathallan,22/10/2019 10:00,9.4,16,,,0,,89,29,220,Dry,1016,8,13,295,,,7.7,
Strathallan,22/10/2019 11:00,10.2,13,,,0,,85,,230,Dry,1016,8,35,274,,,7.8,
Strathallan,22/10/2019 12:00,10.4,17,,,0,0,84,30,230,Dry,1015,8,50,365,,,7.9,
Strathallan,22/10/2019 13:00,10.5,17,,,0,,84,,230,Dry,1015,8,45,363,,,8,
Strathallan,22/10/2019 14:00,10.8,15,,,0,,82,,230,Dry,1014,7,45,377,,,7.9,
Strathallan,22/10/2019 15:00,10.9,10,,,0,,82,,230,Dry,1014,7,50,291,,,8,
Strathallan,22/10/2019 16:00,11.2,12,,,0,,80,,240,Dry,1014,8,50,195,,,8,
Strathallan,22/10/2019 17:00,10.7,10,,,0,,82,,220,Dry,1014,8,50,61,,,7.9,
Strathallan,22/10/2019 18:00,10.3,10,,11.2,0,0,83,,230,Dry,1014,6,45,1,,,7.7,
Strathallan,22/10/2019 19:00,10.3,7,,,0,,82,,250,Dry,1014,8,50,0,,,7.4,
Strathallan,22/10/2019 20:00,10.2,8,,,0,,82,,240,Dry,1014,8,50,0,,,7.4,
Strathallan,22/10/2019 21:00,10.1,9,,,0,,82,,230,Dry,1013,6,50,0,,,7.2,
Strathallan,22/10/2019 22:00,10.4,12,,,0,,82,,230,Dry,1013,8,50,0,,,7.6,
Strathallan,22/10/2019 23:00,10.4,13,,,0,,81,,230,Dry,1013,7,50,0,,,7.4,
Strathallan,23/10/2019 00:00,10.1,10,,,0,0,83,,240,Dry,1012,5,50,,,,7.5,
Strathallan,23/10/2019 01:00,10.4,10,,,0,,82,,230,Dry,1012,8,30,0,,,7.6,
Strathallan,23/10/2019 02:00,10.2,12,,,0,,81,,240,Dry,1012,7,50,0,,,7.2,
Strathallan,23/10/2019 03:00,10.1,8,,,0,,82,,240,Dry,1011,7,45,0,,,7.3,
Strathallan,23/10/2019 04:00,10.5,10,,,0,,80,,240,Dry,1010,8,45,0,,,7.3,
Strathallan,23/10/2019 05:00,10.1,5,,,0,,83,,270,Dry,1010,7,50,0,,,7.5,
Strathallan,23/10/2019 06:00,10.2,5,9.7,,0,0,83,,300,Dry,1009,7,45,0,,,7.5,
Strathallan,23/10/2019 07:00,10.7,7,,,0,,81,,240,Dry,1009,8,50,0,,,7.6,
Strathallan,23/10/2019 08:00,11,9,,,0,,80,,230,Dry,1009,8,30,21,,,7.8,
Strathallan,23/10/2019 09:00,11.7,13,,,0,,77,,220,Dry,1009,7,35,103,,,7.9,
Strathallan,23/10/2019 10:00,12.2,9,,,0,,76,,220,Dry,1008,8,50,264,,,8.1,
Strathallan,23/10/2019 11:00,12.8,12,,,0,,73,,220,Dry,1007,6,40,473,,,8.1,
Strathallan,23/10/2019 12:00,13.1,17,,,0,0,70,,210,Dry,1006,7,45,603,,,7.8,
Strathallan,23/10/2019 13:00,13.3,14,,,0,,67,,220,Dry,1005,8,45,471,,,7.5,
Strathallan,23/10/2019 14:00,13.2,13,,,0,,66,,220,Dry,1004,8,50,279,,,7.2,
Strathallan,23/10/2019 15:00,12.9,6,,,0,,70,,220,Dry,1004,8,50,177,,,7.6,
Strathallan,23/10/2019 16:00,12.9,9,,,0,,66,,200,Dry,1003,8,45,104,,,6.9,
Strathallan,23/10/2019 17:00,12.5,10,,,0,,68,,210,Dry,1002,7,50,41,,,6.8,
Strathallan,23/10/2019 18:00,12,10,,13.4,0,0,73,,210,Drizzly rain,1002,7,20,0,,,7.5,
Strathallan,23/10/2019 19:00,10.8,8,,,0.2,,85,,210,Moderate rain,1002,8,11,0,,,8.5,
Strathallan,23/10/2019 20:00,10.4,8,,,0.6,,88,,230,Moderate rain,1001,8,23,0,,,8.6,
Strathallan,23/10/2019 21:00,10.5,3,,,0.2,,88,,200,Light rain,1000,8,13,0,,,8.7,
Strathallan,23/10/2019 22:00,10.8,9,,,0.2,,88,,220,Drizzly rain,999,8,15,0,,,9,
Strathallan,23/10/2019 23:00,11.3,10,,,0,,86,,210,Drizzly rain,999,8,10,0,,,9.1,
Strathallan,24/10/2019 00:00,11.1,9,,,0.6,2,90,,210,Light rain,999,3,22,,,,9.6,
Strathallan,24/10/2019 01:00,10.8,8,,,0.6,,92,,220,Rain,998,7,50,0,,,9.7,
Strathallan,24/10/2019 02:00,10.7,3,,,0,,89,,200,Dry,998,7,50,0,,,9,
Strathallan,24/10/2019 03:00,10.5,6,,,0,,90,,250,Dry,998,7,50,0,,,9,
Strathallan,24/10/2019 04:00,11.2,5,,,0,,84,,200,Dry,998,6,45,0,,,8.7,
Strathallan,24/10/2019 05:00,11.1,6,,,0,,85,,200,Rain,998,8,22,0,,,8.8,
Strathallan,24/10/2019 06:00,11,8,10,,0,0,84,,210,Light shower,998,8,24,0,,,8.5,
Strathallan,24/10/2019 07:00,9.9,7,,,0.2,,89,,260,Rain,998,7,40,0,,,8.3,
Strathallan,24/10/2019 08:00,8.8,3,,,0,,94,,260,Dry,998,5,30,67,,,7.9,
Strathallan,24/10/2019 09:00,10.1,1,,,0,,89,,270,Dry,998,8,30,294,,,8.5,
Strathallan,24/10/2019 10:00,11.3,8,,,0,,83,,250,Dry,998,8,30,576,,,8.6,
Strathallan,24/10/2019 11:00,11,13,,,0,,78,,230,Dry,998,7,18,572,,,7.5,
Strathallan,24/10/2019 12:00,10.9,9,,,0,0.2,81,,220,Dry,998,3,45,489,,,7.8,
Strathallan,24/10/2019 13:00,11.5,15,,,0,,86,,230,Rain,998,6,45,641,,,9.3,
Strathallan,24/10/2019 14:00,11,9,,,0,,76,,240,Rain,998,4,50,580,,,7.1,
Strathallan,24/10/2019 15:00,11.4,13,,,0,,63,,270,Dry,999,4,45,729,,,4.7,
Strathallan,24/10/2019 16:00,9.4,12,,,0,,69,,250,Dry,999,1,50,294,,,4.1,
Strathallan,24/10/2019 17:00,7.4,7,,,0,,72,,250,Dry,1000,6,50,104,,,2.8,
Strathallan,24/10/2019 18:00,5.5,6,,12.4,0,0,75,,250,Dry,1001,,50,0,,,1.5,
Strathallan,24/10/2019 19:00,3.7,7,,,0,,84,,230,Dry,1002,0,45,0,,,1.3,
Strathallan,24/10/2019 20:00,2.4,3,,,0,,87,,210,Dry,1002,0,50,0,,,0.5,
Strathallan,24/10/2019 21:00,2,6,,,0,,89,,230,Dry,1003,0,50,0,,,0.5,
Strathallan,24/10/2019 22:00,2.8,6,,,0,,90,,240,Dry,1004,0,50,0,,,1.4,
Strathallan,24/10/2019 23:00,3,7,,,0,,87,,240,Dry,1004,2,45,0,,,1.2,
Strathallan,25/10/2019 00:00,3,6,,,0,0,89,,220,Dry,1005,,50,,,,1.4,
Strathallan,25/10/2019 01:00,1.5,5,,,0,,89,,240,Dry,1006,0,50,0,,,-0.1,
Strathallan,25/10/2019 02:00,2.1,6,,,0,,86,,230,Dry,1006,0,50,0,,,0.1,
Strathallan,25/10/2019 03:00,1.3,6,,,0,,87,,220,Dry,1006,0,50,0,,,-0.5,
Strathallan,25/10/2019 04:00,2,6,,,0,,85,,250,Dry,1006,0,50,0,,,-0.1,
Strathallan,25/10/2019 05:00,2.6,5,,,0,,80,,220,Dry,1006,1,45,0,,,-0.4,
Strathallan,25/10/2019 06:00,3.2,12,0.9,,0,0,78,,220,Dry,1006,3,50,0,,,-0.1,
Strathallan,25/10/2019 07:00,3.4,10,,,0.2,,84,,230,Light shower,1006,5,50,0,,,1,
Strathallan,25/10/2019 08:00,3.7,10,,,0,,83,,220,Rain,1007,2,50,19,,,1.2,
Strathallan,25/10/2019 09:00,4.9,12,,,0,,82,,230,Dry,1006,0,40,152,,,2.1,
Strathallan,25/10/2019 10:00,5.9,14,,,0,,80,,240,Dry,1007,0,50,329,,,2.8,
Strathallan,25/10/2019 11:00,6.4,10,,,0,,79,,240,Dry,1007,2,45,373,,,3.2,
Strathallan,25/10/2019 12:00,6.6,10,,,0,0.2,79,,240,Dry,1006,1,50,308,,,3.4,
Strathallan,25/10/2019 13:00,7.3,10,,,0,,75,,230,Dry,1005,0,30,443,,,3.2,
Strathallan,25/10/2019 14:00,7.3,5,,,0,,74,,250,Dry,1005,0,50,399,,,3,
Strathallan,25/10/2019 15:00,7.2,5,,,0,,73,,180,Dry,1004,1,50,249,,,2.8,
Strathallan,25/10/2019 16:00,6.5,1,,,0,,79,,110,Dry,1004,7,50,113,,,3.3,
Strathallan,25/10/2019 17:00,5.6,1,,,0,,78,,220,Dry,1004,7,50,22,,,2.2,
Strathallan,25/10/2019 18:00,3.7,5,,7.4,0,0,88,,220,Dry,1003,,50,0,,,1.9,
Strathallan,25/10/2019 19:00,1.9,5,,,0,,90,,230,Dry,1003,1,45,0,,,0.5,
Strathallan,25/10/2019 20:00,1.2,3,,,0,,94,,240,Dry,1003,,45,0,,,0.4,
Strathallan,25/10/2019 21:00,3.3,7,,,0,,93,,230,Dry,1003,0,50,0,,,2.4,
Strathallan,25/10/2019 22:00,3.2,8,,,0,,90,,240,Dry,1003,0,50,0,,,1.8,
Strathallan,25/10/2019 23:00,3.2,3,,,0,,89,,240,Dry,1003,0,50,0,,,1.7,
Strathallan,26/10/2019 00:00,3,6,,,0,0,92,,230,Dry,1003,,45,,,,1.9,
Strathallan,26/10/2019 01:00,3,7,,,0,,91,,230,Dry,1003,,50,0,,,1.8,
Strathallan,26/10/2019 02:00,3.7,12,,,0,,89,,220,Dry,1003,,50,0,,,2.1,
Strathallan,26/10/2019 03:00,3.5,7,,,0,,89,,250,Dry,1003,6,45,0,,,1.9,
Strathallan,26/10/2019 04:00,3.3,5,,,0,,89,,250,Dry,1003,8,50,0,,,1.8,
Strathallan,26/10/2019 05:00,2.9,5,,,0,,87,,280,Dry,1003,5,50,0,,,1.1,
Strathallan,26/10/2019 06:00,2.7,7,0.3,,0,0,88,,240,Dry,1003,,50,0,,,1,
Strathallan,26/10/2019 07:00,2.1,6,,,0,,88,,250,Dry,1003,1,50,0,,,0.4,
Strathallan,26/10/2019 08:00,2.4,7,,,0,,89,,240,Dry,1003,0,50,16,,,0.9,
Strathallan,26/10/2019 09:00,4.8,9,,,0,,82,,230,Dry,1004,0,50,265,,,2.1,
Strathallan,26/10/2019 10:00,6.1,12,,,0,,78,,230,Dry,1004,0,40,303,,,2.6,
Strathallan,26/10/2019 11:00,7.1,13,,,0,,75,,220,Dry,1004,0,35,853,,,3.1,
Strathallan,26/10/2019 12:00,8.3,13,,,0,0,72,,240,Dry,1004,1,50,1081,,,3.6,
Strathallan,26/10/2019 13:00,8.7,9,,,0,,69,,240,Dry,1004,2,45,1075,,,3.4,
Strathallan,26/10/2019 14:00,7.8,13,,,0,,71,,240,Rain,1003,4,50,796,,,3,
Strathallan,26/10/2019 15:00,7.6,14,,,0,,72,,230,Rain,1004,3,50,757,,,2.9,
Strathallan,26/10/2019 16:00,5.6,10,,,0,,77,,250,Rain,1004,3,50,224,,,1.9,
Strathallan,26/10/2019 17:00,4.4,10,,,0,,83,,240,Dry,1004,1,50,62,,,1.8,
Strathallan,26/10/2019 18:00,4.5,13,,9.4,0,0,87,,240,Dry,1004,2,50,0,,,2.6,
Strathallan,26/10/2019 19:00,4.4,14,,,0,,89,,240,Dry,1005,2,50,0,,,2.8,
Strathallan,26/10/2019 20:00,4.7,13,,,0,,89,,220,Dry,1005,4,50,0,,,3.2,
Strathallan,26/10/2019 21:00,5.1,14,,,0,,86,,220,Light shower,1006,5,50,0,,,3.1,
Strathallan,26/10/2019 22:00,5,13,,,0,,88,,220,Rain,1006,5,50,0,,,3.2,
Strathallan,26/10/2019 23:00,4.8,7,,,0,,87,,230,Dry,1007,6,50,0,,,2.9,
Strathallan,27/10/2019 00:00,4.3,7,,,0,0,89,,250,Dry,1008,1,50,,,,2.8,
Strathallan,27/10/2019 01:00,5.1,13,,,0,,86,,230,Dry,1009,1,50,0,,,3.1,
Strathallan,27/10/2019 02:00,5.3,12,,,0,,85,,230,Dry,1010,0,50,0,,,3.1,
Strathallan,27/10/2019 03:00,4.7,12,,,0,,87,,220,Dry,1010,,50,0,,,2.8,
Strathallan,27/10/2019 04:00,5.2,14,,,0,,83,,220,Dry,1011,0,50,0,,,2.6,
Strathallan,27/10/2019 05:00,5.5,15,,,0,,82,,230,Dry,1012,0,45,0,,,2.8,
Strathallan,27/10/2019 06:00,6.5,13,4.2,,0,0,74,,240,Dry,1013,,50,0,,,2.3,
Strathallan,27/10/2019 07:00,6.2,9,,,0,,70,,230,Dry,1014,4,50,0,,,1.2,
Strathallan,27/10/2019 08:00,6.1,16,,,0,,76,,230,Dry,1015,0,50,38,,,2.3,
Strathallan,27/10/2019 09:00,7.3,15,,,0,,73,,230,Dry,1016,0,45,292,,,2.8,
Strathallan,27/10/2019 10:00,9.4,16,,,0,,66,,240,Dry,1017,3,50,338,,,3.4,
Strathallan,27/10/2019 11:00,10.2,16,,,0,,62,,250,Dry,1017,0,45,826,,,3.3,
Strathallan,27/10/2019 12:00,10.9,14,,,0,0,56,,260,Dry,1019,0,40,1017,,,2.6,
Strathallan,27/10/2019 13:00,11.6,10,,,0,,54,,260,Dry,1019,1,50,958,,,2.7,
Strathallan,27/10/2019 14:00,11.3,10,,,0,,53,,260,Dry,1020,4,35,996,,,2.3,
Strathallan,27/10/2019 15:00,10.8,8,,,0,,56,,270,Dry,1021,6,45,570,,,2.6,
Strathallan,27/10/2019 16:00,8.8,8,,,0,,62,,280,Dry,1022,4,50,311,,,2.1,
Strathallan,27/10/2019 17:00,6.9,6,,,0,,68,,260,Dry,1022,0,50,61,,,1.5,
Strathallan,27/10/2019 18:00,5.5,3,,11.9,0,0,73,,270,Dry,1024,1,45,0,,,1.2,
Strathallan,27/10/2019 19:00,2.6,3,,,0,,86,,80,Dry,1024,0,45,0,,,0.5,
Strathallan,27/10/2019 20:00,4,3,,,0,,83,,290,Dry,1025,0,40,0,,,1.4,
Strathallan,27/10/2019 21:00,2.8,5,,,0,,86,,220,Dry,1025,1,50,0,,,0.7,
Strathallan,27/10/2019 22:00,2.2,6,,,0,,87,,250,Dry,1026,0,50,0,,,0.4,
Strathallan,27/10/2019 23:00,1.2,7,,,0,,87,,250,Dry,1026,0,50,0,,,-0.7,
Strathallan,28/10/2019 00:00,1.6,5,,,0,0,84,,90,Dry,1027,,45,,,,-0.8,
Strathallan,28/10/2019 01:00,-0.1,2,,,0,,89,,210,Dry,1027,0,50,0,,,-1.6,
Strathallan,28/10/2019 02:00,-1.2,3,,,0,,94,,190,Dry,1027,,50,0,,,-1.9,
Strathallan,28/10/2019 03:00,-1.5,5,,,0,,96,,230,Dry,1027,0,45,0,,,-2,
Strathallan,28/10/2019 04:00,-1.7,3,,,0,,96,,280,Dry,1028,0,50,0,,,-2.2,
Strathallan,28/10/2019 05:00,-2.1,5,,,0,,97,,260,Dry,1028,0,50,0,,,-2.5,
Strathallan,28/10/2019 06:00,-1.9,3,-2.7,,0,0,98,,260,Dry,1028,2,50,0,,,-2.1,
Strathallan,28/10/2019 07:00,-1.8,2,,,0,,97,,230,Dry,1028,5,50,0,,,-2.2,
Strathallan,28/10/2019 08:00,-1.4,3,,,0,,98,,290,Dry,1029,7,50,55,,,-1.6,
Strathallan,28/10/2019 09:00,1.1,1,,,0,,97,,200,Dry,1029,2,45,464,,,0.8,
Strathallan,28/10/2019 10:00,4.6,2,,,0,,85,,220,Dry,1029,1,40,305,,,2.4,
Strathallan,28/10/2019 11:00,7.4,5,,,0,,68,,280,Dry,1029,1,35,728,,,2,
Strathallan,28/10/2019 12:00,8.5,5,,,0,0,61,,320,Dry,1029,0,40,995,,,1.5,
Strathallan,28/10/2019 13:00,8.8,7,,,0,,55,,320,Dry,1029,3,45,896,,,0.4,
Strathallan,28/10/2019 14:00,9.3,7,,,0,,55,,350,Dry,1029,3,50,850,,,0.8,
Strathallan,28/10/2019 15:00,8.7,8,,,0,,55,,10,Dry,1029,3,50,643,,,0.4,
Strathallan,28/10/2019 16:00,7.8,5,,,0,,59,,360,Dry,1028,0,45,302,,,0.5,
Strathallan,28/10/2019 17:00,4.8,3,,,0,,70,,340,Dry,1029,0,50,61,,,-0.2,
Strathallan,28/10/2019 18:00,2.4,2,,9.5,0,0,86,,240,Dry,1030,4,50,0,,,0.4,
Strathallan,28/10/2019 19:00,2,2,,,0,,89,,340,Dry,1030,0,45,0,,,0.5,
Strathallan,28/10/2019 20:00,0.5,3,,,0,,90,,130,Dry,1030,,50,0,,,-0.8,
Strathallan,28/10/2019 21:00,-1.2,5,,,0,,94,,230,Dry,1031,0,50,0,,,-1.9,
Strathallan,28/10/2019 22:00,-1.4,3,,,0,,96,,250,Dry,1031,6,45,0,,,-1.9,
Strathallan,28/10/2019 23:00,-1.2,2,,,0,,96,,280,Dry,1031,3,50,0,,,-1.7,
Strathallan,29/10/2019 00:00,-1.7,2,,,0,0,97,,270,Dry,1031,,50,,,,-2,
Strathallan,29/10/2019 01:00,-2.6,1,,,0,,97,,220,Dry,1031,0,40,0,,,-3,
Strathallan,29/10/2019 02:00,-3.1,1,,,0,,97,,230,Dry,1031,0,40,0,,,-3.5,
Strathallan,29/10/2019 03:00,-2.9,2,,,0,,97,,170,Dry,1031,0,45,0,,,-3.2,
Strathallan,29/10/2019 04:00,-3.5,1,,,0,,97,,270,Dry,1031,0,50,0,,,-3.9,
Strathallan,29/10/2019 05:00,-3.1,3,,,0,,97,,280,Dry,1032,0,50,0,,,-3.4,
Strathallan,29/10/2019 06:00,-3.6,2,-4,,0,0,97,,230,Dry,1032,,50,0,,,-4,
Strathallan,29/10/2019 07:00,-4,0,,,0,,97,,0,Dry,1032,0,50,0,,,-4.4,
Strathallan,29/10/2019 08:00,-4,2,,,0,,97,,270,Dry,1033,0,40,31,,,-4.4,
Strathallan,29/10/2019 09:00,-0.9,2,,,0,,98,,240,Dry,1033,0,45,462,,,-1.1,
Strathallan,29/10/2019 10:00,2.2,0,,,0,,98,,0,Dry,1033,0,50,339,,,2,
Strathallan,29/10/2019 11:00,5.1,1,,,0.2,,87,,320,Dry,1033,0,30,851,,,3.2,
Strathallan,29/10/2019 12:00,7.5,1,,,0,0.2,70,,100,Dry,1033,1,45,909,,,2.4,
Strathallan,29/10/2019 13:00,9.5,2,,,0,,64,,120,Haze,1032,0,13,904,,,3.2,
Strathallan,29/10/2019 14:00,10.1,2,,,0,,65,,90,Dry,1032,7,45,1067,,,3.9,
Strathallan,29/10/2019 15:00,9.7,6,,,0,,64,,80,Dry,1032,1,40,781,,,3.3,
Strathallan,29/10/2019 16:00,8.2,3,,,0,,70,,50,Dry,1032,2,50,337,,,3.2,
Strathallan,29/10/2019 17:00,6,3,,,0,,78,,50,Dry,1032,1,50,89,,,2.6,
Strathallan,29/10/2019 18:00,2.3,2,,10.5,0,0,90,,260,Dry,1032,1,45,0,,,0.9,
Strathallan,29/10/2019 19:00,1.5,3,,,0,,95,,250,Dry,1033,7,24,0,,,0.8,
Strathallan,29/10/2019 20:00,1.5,3,,,0,,96,,240,Dry,1033,8,23,0,,,1,
Strathallan,29/10/2019 21:00,1.6,1,,,0,,96,,230,Dry,1033,8,29,0,,,1.1,
Strathallan,29/10/2019 22:00,0.5,2,,,0,,97,,260,Misty,1033,1,9,0,,,0.1,
Strathallan,29/10/2019 23:00,0.2,3,,,0,,97,,250,Dry,1033,7,20,0,,,-0.1,
Strathallan,30/10/2019 00:00,0.2,2,,,0,0,97,,240,Rain,1033,3,21,,,,-0.1,
Strathallan,30/10/2019 01:00,-0.1,1,,,0,,97,,270,Dry,1032,2,12,0,,,-0.4,
Strathallan,30/10/2019 02:00,-1,1,,,0,,98,,260,Misty,1032,1,13,0,,,-1.2,
Strathallan,30/10/2019 03:00,0.2,2,,,0,,99,,220,Dry,1032,7,18,1,,,0.1,
Strathallan,30/10/2019 04:00,1,1,,,0,,99,,120,Rain,1032,8,7,1,,,0.9,
Strathallan,30/10/2019 05:00,1.5,2,,,0,,99,,250,Rain,1031,8,13,0,,,1.4,
Strathallan,30/10/2019 06:00,1.6,0,-1.1,,0,0,100,,0,Misty,1031,6,8,0,,,1.6,
Strathallan,30/10/2019 07:00,1.3,1,,,0.2,,99,,240,Drizzle,1031,8,5,0,,,1.2,
Strathallan,30/10/2019 08:00,1.5,0,,,0,,99,,0,Moderate shower,1032,8,5,15,,,1.4,
Strathallan,30/10/2019 09:00,2.4,2,,,0.2,,100,,300,Light drizzle,1031,6,9,153,,,2.4,
Strathallan,30/10/2019 10:00,4.2,1,,,0.2,,100,,230,Drizzly rain,1031,8,14,308,,,4.2,
Strathallan,30/10/2019 11:00,6.5,2,,,0,,93,,60,Rain,1031,3,35,865,,,5.5,
Strathallan,30/10/2019 12:00,6.6,3,,,0,0.6,88,,70,Dry,1030,7,35,725,,,4.8,
Strathallan,30/10/2019 13:00,6.6,3,,,0,,88,,90,Light shower,1030,6,45,432,,,4.9,
Strathallan,30/10/2019 14:00,7.2,5,,,0,,86,,70,Rain,1029,3,45,405,,,5.1,
Strathallan,30/10/2019 15:00,7.5,2,,,0,,86,,80,Dry,1029,7,50,214,,,5.4,
Strathallan,30/10/2019 16:00,7.1,2,,,0,,87,,80,Dry,1028,8,50,126,,,5.2,
Strathallan,30/10/2019 17:00,6.6,5,,,0,,91,,70,Dry,1028,7,50,27,,,5.3,
Strathallan,30/10/2019 18:00,6.1,2,,7.6,0,0,92,,80,Dry,1028,8,45,0,,,4.9,
Strathallan,30/10/2019 19:00,5.5,1,,,0,,93,,350,Dry,1028,8,45,0,,,4.6,
Strathallan,30/10/2019 20:00,5.2,2,,,0,,93,,20,Dry,1028,8,40,0,,,4.3,
Strathallan,30/10/2019 21:00,5.1,1,,,0,,93,,60,Dry,1027,8,50,0,,,4.2,
Strathallan,30/10/2019 22:00,5,1,,,0,,94,,200,Dry,1027,8,45,0,,,4.2,
Strathallan,30/10/2019 23:00,4.7,1,,,0,,95,,230,Dry,1027,8,40,0,,,4.1,
Strathallan,31/10/2019 00:00,3.1,2,,,0,0,96,,160,Dry,1026,6,19,,,,2.6,
Tyndrum,01/09/2019 00:00,9.9,,,,0.8,2,90,,,-,,,,,,,8.5,
Tyndrum,01/09/2019 01:00,9.6,,,,0.2,,92,,,-,,,,,,,8.5,
Tyndrum,01/09/2019 02:00,9.9,,,,0,,89,,,-,,,,,,,8.3,
Tyndrum,01/09/2019 03:00,9.5,,,,0,,92,,,-,,,,,,,8.4,
Tyndrum,01/09/2019 04:00,9.4,,,,0.2,,92,,,-,,,,,,,8.2,
Tyndrum,01/09/2019 05:00,9.5,,,,0,,91,,,-,,,,,,,8.2,
Tyndrum,01/09/2019 06:00,9.5,,9.3,,0,1,92,,,-,,,,,,,8.4,
Tyndrum,01/09/2019 07:00,9.8,,,,0,,90,,,-,,,,,,,8.4,
Tyndrum,01/09/2019 08:00,9.6,,,,0,,90,,,-,,,,,,,8.1,
Tyndrum,01/09/2019 09:00,10.8,,,,0,,83,,,-,,,,,,,8.1,
Tyndrum,01/09/2019 10:00,12.5,,,,0,,69,,,-,,,,,,,7,
Tyndrum,01/09/2019 11:00,12.6,,,,0,,65,,,-,,,,,,,6.3,
Tyndrum,01/09/2019 12:00,13.8,,,,0,0,64,,,-,,,,,,,7.3,
Tyndrum,01/09/2019 13:00,12.6,,,,0,,69,,,-,,,,,,,7.1,
Tyndrum,01/09/2019 14:00,12.5,,,,0.6,,76,,,-,,,,,,,8.4,
Tyndrum,01/09/2019 15:00,12.1,,,,0.2,,78,,,-,,,,,,,8.4,
Tyndrum,01/09/2019 16:00,13.3,,,,0.4,,65,,,-,,,,,,,7,
Tyndrum,01/09/2019 17:00,12.2,,,,0,,70,,,-,,,,,,,7,
Tyndrum,01/09/2019 18:00,11.7,,,15.5,0,1,76,,,-,,,,,,,7.7,
Tyndrum,01/09/2019 19:00,10.9,,,,0,,82,,,-,,,,,,,8,
Tyndrum,01/09/2019 20:00,9.9,,,,0.2,,87,,,-,,,,,,,7.9,
Tyndrum,01/09/2019 21:00,8.4,,,,0,,92,,,-,,,,,,,7.2,
Tyndrum,01/09/2019 22:00,8.3,,,,0,,95,,,-,,,,,,,7.7,
Tyndrum,01/09/2019 23:00,8,,,,0,,95,,,-,,,,,,,7.4,
Tyndrum,02/09/2019 00:00,8.4,,,,0,0.2,96,,,-,,,,,,,7.9,
Tyndrum,02/09/2019 01:00,8.4,,,,0.2,,96,,,-,,,,,,,7.9,
Tyndrum,02/09/2019 02:00,8.6,,,,0.8,,97,,,-,,,,,,,8.3,
Tyndrum,02/09/2019 03:00,7.5,,,,0,,95,,,-,,,,,,,6.9,
Tyndrum,02/09/2019 04:00,8.3,,,,0,,97,,,-,,,,,,,8,
Tyndrum,02/09/2019 05:00,9.2,,,,0.2,,98,,,-,,,,,,,9,
Tyndrum,02/09/2019 06:00,9.9,,7.1,,0.2,1.8,94,,,-,,,,,,,9.1,
Tyndrum,02/09/2019 07:00,10.3,,,,1,,94,,,-,,,,,,,9.4,
Tyndrum,02/09/2019 08:00,10.9,,,,2.2,,95,,,-,,,,,,,10.2,
Tyndrum,02/09/2019 09:00,11.5,,,,2.4,,95,,,-,,,,,,,10.8,
Tyndrum,02/09/2019 10:00,12.4,,,,2.2,,96,,,-,,,,,,,11.8,
Tyndrum,02/09/2019 11:00,13.3,,,,3,,89,,,-,,,,,,,11.6,
Tyndrum,02/09/2019 12:00,13.4,,,,2.8,14,90,,,-,,,,,,,11.8,
Tyndrum,02/09/2019 13:00,14.3,,,,2.6,,90,,,-,,,,,,,12.7,
Tyndrum,02/09/2019 14:00,14.4,,,,0.8,,88,,,-,,,,,,,12.6,
Tyndrum,02/09/2019 15:00,14.6,,,,1.2,,87,,,-,,,,,,,12.6,
Tyndrum,02/09/2019 16:00,14.5,,,,0.8,,90,,,-,,,,,,,12.9,
Tyndrum,02/09/2019 17:00,14.1,,,,0.2,,91,,,-,,,,,,,12.8,
Tyndrum,02/09/2019 18:00,14.1,,,15.3,1.4,7,91,,,-,,,,,,,12.8,
Tyndrum,02/09/2019 19:00,14,,,,1.4,,93,,,-,,,,,,,12.9,
Tyndrum,02/09/2019 20:00,13.5,,,,1.2,,93,,,-,,,,,,,12.5,
Tyndrum,02/09/2019 21:00,13.3,,,,0.4,,94,,,-,,,,,,,12.5,
Tyndrum,02/09/2019 22:00,13.2,,,,0.4,,95,,,-,,,,,,,12.5,
Tyndrum,02/09/2019 23:00,13.1,,,,0.4,,94,,,-,,,,,,,12.2,
Tyndrum,03/09/2019 00:00,12.8,,,,0,4,94,,,-,,,,,,,12,
Tyndrum,03/09/2019 01:00,12.9,,,,0,,94,,,-,,,,,,,12,
Tyndrum,03/09/2019 02:00,12.8,,,,0,,94,,,-,,,,,,,11.9,
Tyndrum,03/09/2019 03:00,12.8,,,,0.2,,94,,,-,,,,,,,12,
Tyndrum,03/09/2019 04:00,12.6,,,,0,,94,,,-,,,,,,,11.8,
Tyndrum,03/09/2019 05:00,12.5,,,,0,,96,,,-,,,,,,,11.9,
Tyndrum,03/09/2019 06:00,12.4,,12.4,,0.2,0,97,,,-,,,,,,,12,
Tyndrum,03/09/2019 07:00,12.5,,,,0.6,,98,,,-,,,,,,,12.2,
Tyndrum,03/09/2019 08:00,13,,,,0.6,,98,,,-,,,,,,,12.7,
Tyndrum,03/09/2019 09:00,14,,,,0.4,,98,,,-,,,,,,,13.7,
Tyndrum,03/09/2019 10:00,14.7,,,,0.8,,96,,,-,,,,,,,14.1,
Tyndrum,03/09/2019 11:00,15,,,,0.4,,94,,,-,,,,,,,14.2,
Tyndrum,03/09/2019 12:00,15.5,,,,0.6,3,94,,,-,,,,,,,14.7,
Tyndrum,03/09/2019 13:00,15.2,,,,1.2,,94,,,-,,,,,,,14.4,
Tyndrum,03/09/2019 14:00,15.5,,,,1.4,,95,,,-,,,,,,,14.8,
Tyndrum,03/09/2019 15:00,15.8,,,,1.6,,89,,,-,,,,,,,14,
Tyndrum,03/09/2019 16:00,15.2,,,,0.4,,90,,,-,,,,,,,13.6,
Tyndrum,03/09/2019 17:00,14.8,,,,0.4,,92,,,-,,,,,,,13.6,
Tyndrum,03/09/2019 18:00,14.7,,,15.9,0.2,6,92,,,-,,,,,,,13.5,
Tyndrum,03/09/2019 19:00,14,,,,0.2,,89,,,-,,,,,,,12.3,
Tyndrum,03/09/2019 20:00,13.5,,,,0,,91,,,-,,,,,,,12.1,
Tyndrum,03/09/2019 21:00,13.1,,,,0,,88,,,-,,,,,,,11.2,
Tyndrum,03/09/2019 22:00,12.4,,,,0,,88,,,-,,,,,,,10.5,
Tyndrum,03/09/2019 23:00,11.1,,,,0,,92,,,-,,,,,,,9.9,
Tyndrum,04/09/2019 00:00,11.2,,,,0,0.2,87,,,-,,,,,,,9.2,
Tyndrum,04/09/2019 01:00,11,,,,0,,88,,,-,,,,,,,9.1,
Tyndrum,04/09/2019 02:00,10.2,,,,0.2,,82,,,-,,,,,,,7.4,
Tyndrum,04/09/2019 03:00,9.5,,,,0,,88,,,-,,,,,,,7.7,
Tyndrum,04/09/2019 04:00,9.9,,,,0.2,,83,,,-,,,,,,,7.2,
Tyndrum,04/09/2019 05:00,9.7,,,,0.2,,86,,,-,,,,,,,7.5,
Tyndrum,04/09/2019 06:00,9.6,,9.3,,0.8,1.8,86,,,-,,,,,,,7.5,
Tyndrum,04/09/2019 07:00,10.2,,,,1,,85,,,-,,,,,,,7.8,
Tyndrum,04/09/2019 08:00,10.1,,,,1,,88,,,-,,,,,,,8.3,
Tyndrum,04/09/2019 09:00,9.8,,,,2.4,,92,,,-,,,,,,,8.6,
Tyndrum,04/09/2019 10:00,9.9,,,,4,,94,,,-,,,,,,,9,
Tyndrum,04/09/2019 11:00,12.5,,,,0.8,,89,,,-,,,,,,,10.9,
Tyndrum,04/09/2019 12:00,14.3,,,,0,9,78,,,-,,,,,,,10.6,
Tyndrum,04/09/2019 13:00,13.4,,,,0,,79,,,-,,,,,,,10,
Tyndrum,04/09/2019 14:00,13.3,,,,0,,70,,,-,,,,,,,8.1,
Tyndrum,04/09/2019 15:00,14.5,,,,0,,61,,,-,,,,,,,7.1,
Tyndrum,04/09/2019 16:00,12.9,,,,0,,74,,,-,,,,,,,8.4,
Tyndrum,04/09/2019 17:00,12.2,,,,0,,70,,,-,,,,,,,6.9,
Tyndrum,04/09/2019 18:00,11.6,,,14.9,0,0,68,,,-,,,,,,,6.1,
Tyndrum,04/09/2019 19:00,10.7,,,,0,,71,,,-,,,,,,,5.7,
Tyndrum,04/09/2019 20:00,9.8,,,,0,,73,,,-,,,,,,,5.3,
Tyndrum,04/09/2019 21:00,9.4,,,,0,,75,,,-,,,,,,,5.2,
Tyndrum,04/09/2019 22:00,9.1,,,,0,,72,,,-,,,,,,,4.5,
Tyndrum,04/09/2019 23:00,7.8,,,,0,,77,,,-,,,,,,,4.1,
Tyndrum,05/09/2019 00:00,7.4,,,,0,0,71,,,-,,,,,,,2.6,
Tyndrum,05/09/2019 01:00,6.1,,,,0,,83,,,-,,,,,,,3.6,
Tyndrum,05/09/2019 02:00,6,,,,0,,90,,,-,,,,,,,4.5,
Tyndrum,05/09/2019 03:00,5.9,,,,0,,90,,,-,,,,,,,4.4,
Tyndrum,05/09/2019 04:00,6.4,,,,0,,87,,,-,,,,,,,4.5,
Tyndrum,05/09/2019 05:00,7,,,,0,,84,,,-,,,,,,,4.5,
Tyndrum,05/09/2019 06:00,7.1,,5.4,,0,0,91,,,-,,,,,,,5.8,
Tyndrum,05/09/2019 07:00,8.2,,,,0,,90,,,-,,,,,,,6.8,
Tyndrum,05/09/2019 08:00,8.9,,,,0.4,,94,,,-,,,,,,,8.1,
Tyndrum,05/09/2019 09:00,9.9,,,,0.2,,93,,,-,,,,,,,8.9,
Tyndrum,05/09/2019 10:00,11.8,,,,0,,88,,,-,,,,,,,9.9,
Tyndrum,05/09/2019 11:00,12.1,,,,0.4,,91,,,-,,,,,,,10.8,
Tyndrum,05/09/2019 12:00,14.6,,,,0,1,74,,,-,,,,,,,10.1,
Tyndrum,05/09/2019 13:00,14.5,,,,0,,67,,,-,,,,,,,8.5,
Tyndrum,05/09/2019 14:00,14.8,,,,0,,67,,,-,,,,,,,8.8,
Tyndrum,05/09/2019 15:00,14.4,,,,0,,67,,,-,,,,,,,8.4,
Tyndrum,05/09/2019 16:00,14.1,,,,0,,63,,,-,,,,,,,7.3,
Tyndrum,05/09/2019 17:00,13.7,,,,0,,68,,,-,,,,,,,8,
Tyndrum,05/09/2019 18:00,12.4,,,15.8,0,0,74,,,-,,,,,,,8,
Tyndrum,05/09/2019 19:00,11.6,,,,0,,78,,,-,,,,,,,7.9,
Tyndrum,05/09/2019 20:00,11.3,,,,0.6,,79,,,-,,,,,,,7.8,
Tyndrum,05/09/2019 21:00,11.9,,,,0,,74,,,-,,,,,,,7.6,
Tyndrum,05/09/2019 22:00,11.9,,,,0.4,,82,,,-,,,,,,,9,
Tyndrum,05/09/2019 23:00,11.6,,,,2,,90,,,-,,,,,,,10.1,
Tyndrum,06/09/2019 00:00,12.8,,,,1.8,5,87,,,-,,,,,,,10.7,
Tyndrum,06/09/2019 01:00,13.1,,,,0.8,,87,,,-,,,,,,,11,
Tyndrum,06/09/2019 02:00,13,,,,1,,90,,,-,,,,,,,11.4,
Tyndrum,06/09/2019 03:00,12.1,,,,1.4,,89,,,-,,,,,,,10.4,
Tyndrum,06/09/2019 04:00,10,,,,0,,82,,,-,,,,,,,7.1,
Tyndrum,06/09/2019 05:00,10.2,,,,0,,85,,,-,,,,,,,7.9,
Tyndrum,06/09/2019 06:00,9.9,,9,,0,3,79,,,-,,,,,,,6.5,
Tyndrum,06/09/2019 07:00,10,,,,0,,82,,,-,,,,,,,7.2,
Tyndrum,06/09/2019 08:00,10.1,,,,0.2,,86,,,-,,,,,,,8,
Tyndrum,06/09/2019 09:00,10.3,,,,0.8,,89,,,-,,,,,,,8.7,
Tyndrum,06/09/2019 10:00,10.9,,,,1,,92,,,-,,,,,,,9.7,
Tyndrum,06/09/2019 11:00,11.9,,,,0.6,,91,,,-,,,,,,,10.6,
Tyndrum,06/09/2019 12:00,12.5,,,,1,4,89,,,-,,,,,,,10.9,
Tyndrum,06/09/2019 13:00,12.9,,,,0.2,,84,,,-,,,,,,,10.4,
Tyndrum,06/09/2019 14:00,14.1,,,,0.2,,91,,,-,,,,,,,12.7,
Tyndrum,06/09/2019 15:00,13.5,,,,0,,80,,,-,,,,,,,10.2,
Tyndrum,06/09/2019 16:00,14.5,,,,0,,71,,,-,,,,,,,9.4,
Tyndrum,06/09/2019 17:00,13.3,,,,0,,77,,,-,,,,,,,9.5,
Tyndrum,06/09/2019 18:00,12.9,,,15.6,0,0,78,,,-,,,,,,,9.3,
Tyndrum,06/09/2019 19:00,12,,,,0,,80,,,-,,,,,,,8.8,
Tyndrum,06/09/2019 20:00,11.2,,,,0,,85,,,-,,,,,,,8.8,
Tyndrum,06/09/2019 21:00,10,,,,0,,90,,,-,,,,,,,8.6,
Tyndrum,06/09/2019 22:00,9.5,,,,0,,93,,,-,,,,,,,8.5,
Tyndrum,06/09/2019 23:00,9.5,,,,0,,94,,,-,,,,,,,8.6,
Tyndrum,07/09/2019 00:00,8,,,,0,0,90,,,-,,,,,,,6.5,
Tyndrum,07/09/2019 01:00,7.5,,,,0,,95,,,-,,,,,,,6.8,
Tyndrum,07/09/2019 02:00,7.8,,,,0,,95,,,-,,,,,,,7.2,
Tyndrum,07/09/2019 03:00,6.3,,,,0,,94,,,-,,,,,,,5.5,
Tyndrum,07/09/2019 04:00,5.3,,,,0,,96,,,-,,,,,,,4.8,
Tyndrum,07/09/2019 05:00,5.5,,,,0,,97,,,-,,,,,,,5.2,
Tyndrum,07/09/2019 06:00,4.9,,4.6,,0,0,97,,,-,,,,,,,4.6,
Tyndrum,07/09/2019 07:00,4.5,,,,0,,97,,,-,,,,,,,4.2,
Tyndrum,07/09/2019 08:00,7.7,,,,0,,96,,,-,,,,,,,7.2,
Tyndrum,07/09/2019 09:00,10.2,,,,0,,67,,,-,,,,,,,4.5,
Tyndrum,07/09/2019 10:00,11.5,,,,0,,63,,,-,,,,,,,4.9,
Tyndrum,07/09/2019 11:00,13.1,,,,0,,56,,,-,,,,,,,4.6,
Tyndrum,07/09/2019 12:00,14.2,,,,0,0,48,,,-,,,,,,,3.4,
Tyndrum,07/09/2019 13:00,15.4,,,,0,,48,,,-,,,,,,,4.5,
Tyndrum,07/09/2019 14:00,16.6,,,,0,,52,,,-,,,,,,,6.9,
Tyndrum,07/09/2019 15:00,16.7,,,,0,,47,,,-,,,,,,,5.6,
Tyndrum,07/09/2019 16:00,16.3,,,,0,,49,,,-,,,,,,,5.8,
Tyndrum,07/09/2019 17:00,15.4,,,,0,,51,,,-,,,,,,,5.6,
Tyndrum,07/09/2019 18:00,14,,,17,0,0,58,,,-,,,,,,,6,
Tyndrum,07/09/2019 19:00,10.1,,,,0,,79,,,-,,,,,,,6.7,
Tyndrum,07/09/2019 20:00,7.3,,,,0,,90,,,-,,,,,,,5.8,
Tyndrum,07/09/2019 21:00,5.5,,,,0,,93,,,-,,,,,,,4.6,
Tyndrum,07/09/2019 22:00,4.7,,,,0,,95,,,-,,,,,,,4.1,
Tyndrum,07/09/2019 23:00,3.6,,,,0,,95,,,-,,,,,,,3,
Tyndrum,08/09/2019 00:00,3.1,,,,0,0,96,,,-,,,,,,,2.6,
Tyndrum,08/09/2019 01:00,2.6,,,,0,,97,,,-,,,,,,,2.3,
Tyndrum,08/09/2019 02:00,1.8,,,,0,,97,,,-,,,,,,,1.5,
Tyndrum,08/09/2019 03:00,1.4,,,,0,,98,,,-,,,,,,,1.2,
Tyndrum,08/09/2019 04:00,1.1,,,,0,,97,,,-,,,,,,,0.8,
Tyndrum,08/09/2019 05:00,0.5,,,,0,,97,,,-,,,,,,,0.2,
Tyndrum,08/09/2019 06:00,0.4,,0,,0,0,98,,,-,,,,,,,0.2,
Tyndrum,08/09/2019 07:00,1,,,,0,,99,,,-,,,,,,,0.9,
Tyndrum,08/09/2019 08:00,3.2,,,,0.2,,100,,,-,,,,,,,3.2,
Tyndrum,08/09/2019 09:00,5.9,,,,0,,100,,,-,,,,,,,5.9,
Tyndrum,08/09/2019 10:00,7.8,,,,0,,99,,,-,,,,,,,7.7,
Tyndrum,08/09/2019 11:00,9.5,,,,0,,96,,,-,,,,,,,9,
Tyndrum,08/09/2019 12:00,11.9,,,,0,0.2,84,,,-,,,,,,,9.4,
Tyndrum,08/09/2019 13:00,12.7,,,,0,,79,,,-,,,,,,,9.3,
Tyndrum,08/09/2019 14:00,12.8,,,,0,,79,,,-,,,,,,,9.3,
Tyndrum,08/09/2019 15:00,13,,,,0,,80,,,-,,,,,,,9.7,
Tyndrum,08/09/2019 16:00,12.6,,,,0,,83,,,-,,,,,,,9.8,
Tyndrum,08/09/2019 17:00,12.7,,,,0,,82,,,-,,,,,,,9.8,
Tyndrum,08/09/2019 18:00,12.8,,,13.1,0,0,81,,,-,,,,,,,9.7,
Tyndrum,08/09/2019 19:00,12.3,,,,0,,83,,,-,,,,,,,9.6,
Tyndrum,08/09/2019 20:00,11.9,,,,0,,86,,,-,,,,,,,9.8,
Tyndrum,08/09/2019 21:00,11.2,,,,0.4,,93,,,-,,,,,,,10.2,
Tyndrum,08/09/2019 22:00,10.9,,,,1,,96,,,-,,,,,,,10.4,
Tyndrum,08/09/2019 23:00,10.9,,,,1.2,,96,,,-,,,,,,,10.4,
Tyndrum,09/09/2019 00:00,10.9,,,,0.8,3,98,,,-,,,,,,,10.6,
Tyndrum,09/09/2019 01:00,10.9,,,,1.2,,98,,,-,,,,,,,10.6,
Tyndrum,09/09/2019 02:00,11,,,,1.6,,98,,,-,,,,,,,10.7,
Tyndrum,09/09/2019 03:00,11,,,,3.6,,98,,,-,,,,,,,10.7,
Tyndrum,09/09/2019 04:00,10.9,,,,1.4,,98,,,-,,,,,,,10.6,
Tyndrum,09/09/2019 05:00,10.9,,,,1.6,,98,,,-,,,,,,,10.6,
Tyndrum,09/09/2019 06:00,10.7,,10.7,,0.8,11,98,,,-,,,,,,,10.5,
Tyndrum,09/09/2019 07:00,11,,,,0.2,,98,,,-,,,,,,,10.7,
Tyndrum,09/09/2019 08:00,11.5,,,,0.2,,98,,,-,,,,,,,11.3,
Tyndrum,09/09/2019 09:00,12.1,,,,0.4,,98,,,-,,,,,,,11.8,
Tyndrum,09/09/2019 10:00,13,,,,0.2,,93,,,-,,,,,,,11.9,
Tyndrum,09/09/2019 11:00,13.4,,,,0,,89,,,-,,,,,,,11.7,
Tyndrum,09/09/2019 12:00,13.6,,,,0,1,87,,,-,,,,,,,11.6,
Tyndrum,09/09/2019 13:00,13.4,,,,1.6,,89,,,-,,,,,,,11.7,
Tyndrum,09/09/2019 14:00,14,,,,0,,86,,,-,,,,,,,11.8,
Tyndrum,09/09/2019 15:00,14,,,,0,,87,,,-,,,,,,,11.9,
Tyndrum,09/09/2019 16:00,14,,,,0,,87,,,-,,,,,,,11.9,
Tyndrum,09/09/2019 17:00,13.8,,,,0,,86,,,-,,,,,,,11.6,
Tyndrum,09/09/2019 18:00,12.9,,,14.8,0,2,88,,,-,,,,,,,11,
Tyndrum,09/09/2019 19:00,12.3,,,,0,,91,,,-,,,,,,,11,
Tyndrum,09/09/2019 20:00,11.8,,,,0,,92,,,-,,,,,,,10.7,
Tyndrum,09/09/2019 21:00,11.5,,,,0,,92,,,-,,,,,,,10.4,
Tyndrum,09/09/2019 22:00,11.2,,,,0,,93,,,-,,,,,,,10.2,
Tyndrum,09/09/2019 23:00,10.7,,,,0,,94,,,-,,,,,,,9.9,
Tyndrum,10/09/2019 00:00,10.2,,,,0,0,96,,,-,,,,,,,9.6,
Tyndrum,10/09/2019 01:00,10.2,,,,0,,96,,,-,,,,,,,9.6,
Tyndrum,10/09/2019 02:00,10.1,,,,0,,95,,,-,,,,,,,9.4,
Tyndrum,10/09/2019 03:00,10.1,,,,0,,94,,,-,,,,,,,9.2,
Tyndrum,10/09/2019 04:00,9.9,,,,0,,94,,,-,,,,,,,9.1,
Tyndrum,10/09/2019 05:00,9.8,,,,0,,94,,,-,,,,,,,9,
Tyndrum,10/09/2019 06:00,8.8,,8.8,,0,0,94,,,-,,,,,,,8,
Tyndrum,10/09/2019 07:00,9.1,,,,0,,96,,,-,,,,,,,8.6,
Tyndrum,10/09/2019 08:00,9.9,,,,0,,93,,,-,,,,,,,8.9,
Tyndrum,10/09/2019 09:00,11,,,,0,,83,,,-,,,,,,,8.3,
Tyndrum,10/09/2019 10:00,12.2,,,,0,,78,,,-,,,,,,,8.5,
Tyndrum,10/09/2019 11:00,13.2,,,,0,,67,,,-,,,,,,,7.3,
Tyndrum,10/09/2019 12:00,14,,,,0,0,62,,,-,,,,,,,6.9,
Tyndrum,10/09/2019 13:00,13.7,,,,0,,63,,,-,,,,,,,6.8,
Tyndrum,10/09/2019 14:00,13.5,,,,0,,68,,,-,,,,,,,7.9,
Tyndrum,10/09/2019 15:00,12.8,,,,0,,67,,,-,,,,,,,7,
Tyndrum,10/09/2019 16:00,11.6,,,,0,,79,,,-,,,,,,,8.1,
Tyndrum,10/09/2019 17:00,10.8,,,,0,,87,,,-,,,,,,,8.8,
Tyndrum,10/09/2019 18:00,10.4,,,15.3,0.8,0.8,91,,,-,,,,,,,9.1,
Tyndrum,10/09/2019 19:00,10.8,,,,2.2,,92,,,-,,,,,,,9.7,
Tyndrum,10/09/2019 20:00,11.3,,,,4.2,,92,,,-,,,,,,,10.2,
Tyndrum,10/09/2019 21:00,11.7,,,,3,,94,,,-,,,,,,,10.8,
Tyndrum,10/09/2019 22:00,12.3,,,,2,,94,,,-,,,,,,,11.4,
Tyndrum,10/09/2019 23:00,12.6,,,,6.4,,94,,,-,,,,,,,11.7,
Tyndrum,11/09/2019 00:00,14.1,,,,3.4,21,91,,,-,,,,,,,12.8,
Tyndrum,11/09/2019 01:00,15,,,,3,,90,,,-,,,,,,,13.4,
Tyndrum,11/09/2019 02:00,15.3,,,,2.6,,89,,,-,,,,,,,13.5,
Tyndrum,11/09/2019 03:00,13.3,,,,1,,88,,,-,,,,,,,11.5,
Tyndrum,11/09/2019 04:00,12.5,,,,0,,87,,,-,,,,,,,10.4,
Tyndrum,11/09/2019 05:00,12.9,,,,0,,78,,,-,,,,,,,9.3,
Tyndrum,11/09/2019 06:00,12.4,,10.4,,0,7,81,,,-,,,,,,,9.4,
Tyndrum,11/09/2019 07:00,12.5,,,,0,,79,,,-,,,,,,,9,
Tyndrum,11/09/2019 08:00,11.7,,,,0.4,,87,,,-,,,,,,,9.7,
Tyndrum,11/09/2019 09:00,12.7,,,,0,,80,,,-,,,,,,,9.4,
Tyndrum,11/09/2019 10:00,13.3,,,,0.2,,80,,,-,,,,,,,10.1,
Tyndrum,11/09/2019 11:00,14.1,,,,0,,75,,,-,,,,,,,9.9,
Tyndrum,11/09/2019 12:00,14.8,,,,0,0.6,71,,,-,,,,,,,9.8,
Tyndrum,11/09/2019 13:00,15.4,,,,0,,70,,,-,,,,,,,10,
Tyndrum,11/09/2019 15:00,12.8,,,,0.4,,84,,,-,,,,,,,10.3,
Tyndrum,11/09/2019 16:00,12.9,,,,0,,81,,,-,,,,,,,9.9,
Tyndrum,11/09/2019 17:00,12,,,,0.2,,90,,,-,,,,,,,10.5,
Tyndrum,11/09/2019 18:00,12.2,,,15.6,0.2,0.4,86,,,-,,,,,,,10,
Tyndrum,11/09/2019 19:00,11.8,,,,0.2,,89,,,-,,,,,,,10.1,
Tyndrum,11/09/2019 20:00,11.7,,,,0.6,,89,,,-,,,,,,,10.1,
Tyndrum,11/09/2019 21:00,11.5,,,,0.4,,89,,,-,,,,,,,9.9,
Tyndrum,11/09/2019 22:00,11.4,,,,0.2,,90,,,-,,,,,,,9.9,
Tyndrum,11/09/2019 23:00,11.4,,,,0.4,,88,,,-,,,,,,,9.6,
Tyndrum,12/09/2019 00:00,11.4,,,,0,2,89,,,-,,,,,,,9.8,
Tyndrum,12/09/2019 01:00,11.2,,,,0.4,,90,,,-,,,,,,,9.7,
Tyndrum,12/09/2019 02:00,10.9,,,,0.2,,88,,,-,,,,,,,9.1,
Tyndrum,12/09/2019 03:00,10.6,,,,0.4,,92,,,-,,,,,,,9.4,
Tyndrum,12/09/2019 04:00,10.4,,,,0.2,,94,,,-,,,,,,,9.5,
Tyndrum,12/09/2019 05:00,10.8,,,,0,,87,,,-,,,,,,,8.8,
Tyndrum,12/09/2019 06:00,10.5,,10.3,,0,1,90,,,-,,,,,,,9,
Tyndrum,12/09/2019 07:00,11,,,,0.2,,91,,,-,,,,,,,9.7,
Tyndrum,12/09/2019 08:00,11.7,,,,0,,89,,,-,,,,,,,10.1,
Tyndrum,12/09/2019 09:00,12,,,,0.2,,89,,,-,,,,,,,10.4,
Tyndrum,12/09/2019 10:00,12.5,,,,0,,90,,,-,,,,,,,11,
Tyndrum,12/09/2019 11:00,12.5,,,,0.2,,89,,,-,,,,,,,10.8,
Tyndrum,12/09/2019 12:00,13.3,,,,0.2,0.8,87,,,-,,,,,,,11.3,
Tyndrum,12/09/2019 13:00,13.4,,,,0.2,,90,,,-,,,,,,,11.9,
Tyndrum,12/09/2019 14:00,13.2,,,,0,,80,,,-,,,,,,,9.9,
Tyndrum,12/09/2019 15:00,15.5,,,,0,,71,,,-,,,,,,,10.3,
Tyndrum,12/09/2019 16:00,13.1,,,,0,,70,,,-,,,,,,,7.9,
Tyndrum,12/09/2019 17:00,12.2,,,,0,,74,,,-,,,,,,,7.9,
Tyndrum,12/09/2019 18:00,11.5,,,15.8,0,0.2,79,,,-,,,,,,,8,
Tyndrum,12/09/2019 19:00,9.4,,,,0,,84,,,-,,,,,,,6.9,
Tyndrum,12/09/2019 20:00,7.7,,,,0,,92,,,-,,,,,,,6.5,
Tyndrum,12/09/2019 21:00,7.7,,,,0,,94,,,-,,,,,,,6.8,
Tyndrum,12/09/2019 22:00,7.4,,,,0,,94,,,-,,,,,,,6.5,
Tyndrum,12/09/2019 23:00,8.2,,,,0,,95,,,-,,,,,,,7.5,
Tyndrum,13/09/2019 00:00,8.9,,,,0,0,88,,,-,,,,,,,7.1,
Tyndrum,13/09/2019 01:00,9,,,,1,,92,,,-,,,,,,,7.8,
Tyndrum,13/09/2019 02:00,8.2,,,,0,,94,,,-,,,,,,,7.3,
Tyndrum,13/09/2019 03:00,8.1,,,,0,,95,,,-,,,,,,,7.5,
Tyndrum,13/09/2019 04:00,8.8,,,,0.2,,96,,,-,,,,,,,8.2,
Tyndrum,13/09/2019 05:00,7.8,,,,0,,92,,,-,,,,,,,6.6,
Tyndrum,13/09/2019 06:00,6.7,,6.7,,0,1,92,,,-,,,,,,,5.5,
Tyndrum,13/09/2019 07:00,7,,,,0,,97,,,-,,,,,,,6.6,
Tyndrum,13/09/2019 08:00,9.6,,,,0,,96,,,-,,,,,,,9,
Tyndrum,13/09/2019 09:00,11.2,,,,0,,82,,,-,,,,,,,8.4,
Tyndrum,13/09/2019 10:00,13,,,,0,,70,,,-,,,,,,,7.8,
Tyndrum,13/09/2019 11:00,13.7,,,,0,,60,,,-,,,,,,,6.3,
Tyndrum,13/09/2019 12:00,14.4,,,,0,0,60,,,-,,,,,,,6.9,
Tyndrum,13/09/2019 13:00,15.8,,,,0,,58,,,-,,,,,,,7.6,
Tyndrum,13/09/2019 14:00,14,,,,0,,61,,,-,,,,,,,6.7,
Tyndrum,13/09/2019 15:00,14.9,,,,0,,54,,,-,,,,,,,5.8,
Tyndrum,13/09/2019 16:00,14.7,,,,0,,60,,,-,,,,,,,7.1,
Tyndrum,13/09/2019 17:00,12.9,,,,0,,65,,,-,,,,,,,6.7,
Tyndrum,13/09/2019 18:00,12.2,,,15.9,0,0,71,,,-,,,,,,,7.2,
Tyndrum,13/09/2019 19:00,10.2,,,,0,,80,,,-,,,,,,,7,
Tyndrum,13/09/2019 20:00,10.5,,,,0,,81,,,-,,,,,,,7.4,
Tyndrum,13/09/2019 21:00,10.7,,,,0,,80,,,-,,,,,,,7.5,
Tyndrum,13/09/2019 22:00,8.2,,,,0,,87,,,-,,,,,,,6.2,
Tyndrum,13/09/2019 23:00,6.8,,,,0,,93,,,-,,,,,,,5.8,
Tyndrum,14/09/2019 00:00,5.9,,,,0,0,95,,,-,,,,,,,5.2,
Tyndrum,14/09/2019 01:00,6.3,,,,0,,97,,,-,,,,,,,5.9,
Tyndrum,14/09/2019 02:00,10,,,,0,,90,,,-,,,,,,,8.6,
Tyndrum,14/09/2019 03:00,9.4,,,,0,,89,,,-,,,,,,,7.8,
Tyndrum,14/09/2019 04:00,11.1,,,,0,,86,,,-,,,,,,,8.9,
Tyndrum,14/09/2019 05:00,11.5,,,,0,,84,,,-,,,,,,,9,
Tyndrum,14/09/2019 06:00,11.7,,5.7,,0,0,81,,,-,,,,,,,8.7,
Tyndrum,14/09/2019 07:00,11.6,,,,0,,81,,,-,,,,,,,8.6,
Tyndrum,14/09/2019 08:00,11,,,,0.8,,89,,,-,,,,,,,9.3,
Tyndrum,14/09/2019 09:00,10.9,,,,1,,89,,,-,,,,,,,9.3,
Tyndrum,14/09/2019 10:00,12,,,,0.2,,84,,,-,,,,,,,9.5,
Tyndrum,14/09/2019 11:00,12.5,,,,0.2,,78,,,-,,,,,,,8.8,
Tyndrum,14/09/2019 12:00,12.6,,,,0.2,2,79,,,-,,,,,,,9.1,
Tyndrum,14/09/2019 13:00,13.9,,,,0,,73,,,-,,,,,,,9.2,
Tyndrum,14/09/2019 14:00,14,,,,0,,73,,,-,,,,,,,9.4,
Tyndrum,14/09/2019 15:00,13.1,,,,0,,86,,,-,,,,,,,10.9,
Tyndrum,14/09/2019 16:00,14.2,,,,0.4,,86,,,-,,,,,,,11.9,
Tyndrum,14/09/2019 17:00,14.9,,,,0.6,,86,,,-,,,,,,,12.6,
Tyndrum,14/09/2019 18:00,15,,,15.3,1.4,3,87,,,-,,,,,,,13,
Tyndrum,14/09/2019 19:00,15.2,,,,1.4,,87,,,-,,,,,,,13.2,
Tyndrum,14/09/2019 20:00,14.6,,,,2.8,,89,,,-,,,,,,,12.9,
Tyndrum,14/09/2019 21:00,11.7,,,,2.6,,93,,,-,,,,,,,10.7,
Tyndrum,14/09/2019 22:00,10.3,,,,1.2,,91,,,-,,,,,,,9,
Tyndrum,14/09/2019 23:00,10.7,,,,0.2,,92,,,-,,,,,,,9.6,
Tyndrum,15/09/2019 00:00,10.5,,,,0,8,83,,,-,,,,,,,7.9,
Tyndrum,15/09/2019 01:00,10.7,,,,0,,83,,,-,,,,,,,8,
Tyndrum,15/09/2019 02:00,10.2,,,,0,,74,,,-,,,,,,,5.9,
Tyndrum,15/09/2019 03:00,10.6,,,,0,,75,,,-,,,,,,,6.4,
Tyndrum,15/09/2019 04:00,9.8,,,,0,,71,,,-,,,,,,,4.8,
Tyndrum,15/09/2019 05:00,9.8,,,,0,,79,,,-,,,,,,,6.4,
Tyndrum,15/09/2019 06:00,9.9,,9.4,,0,0,68,,,-,,,,,,,4.3,
Tyndrum,15/09/2019 07:00,9.7,,,,0,,72,,,-,,,,,,,5.1,
Tyndrum,15/09/2019 08:00,9.8,,,,0,,78,,,-,,,,,,,6.3,
Tyndrum,15/09/2019 09:00,10.9,,,,0,,75,,,-,,,,,,,6.7,
Tyndrum,15/09/2019 10:00,11.5,,,,0,,67,,,-,,,,,,,5.7,
Tyndrum,15/09/2019 11:00,11.8,,,,0,,67,,,-,,,,,,,5.9,
Tyndrum,15/09/2019 12:00,13.6,,,,0,0,59,,,-,,,,,,,5.9,
Tyndrum,15/09/2019 13:00,13.5,,,,0,,58,,,-,,,,,,,5.6,
Tyndrum,15/09/2019 14:00,14,,,,0,,53,,,-,,,,,,,4.8,
Tyndrum,15/09/2019 15:00,14.3,,,,0,,51,,,-,,,,,,,4.4,
Tyndrum,15/09/2019 16:00,13.9,,,,0,,53,,,-,,,,,,,4.5,
Tyndrum,15/09/2019 17:00,12.1,,,,0,,59,,,-,,,,,,,4.5,
Tyndrum,15/09/2019 18:00,11.2,,,15.1,0,0,67,,,-,,,,,,,5.4,
Tyndrum,15/09/2019 19:00,7.7,,,,0,,81,,,-,,,,,,,4.8,
Tyndrum,15/09/2019 20:00,5.9,,,,0,,89,,,-,,,,,,,4.3,
Tyndrum,15/09/2019 21:00,4.2,,,,0,,92,,,-,,,,,,,3.1,
Tyndrum,15/09/2019 22:00,2.6,,,,0,,94,,,-,,,,,,,1.8,
Tyndrum,15/09/2019 23:00,2.1,,,,0,,96,,,-,,,,,,,1.6,
Tyndrum,16/09/2019 00:00,1.6,,,,0,0,97,,,-,,,,,,,1.2,
Tyndrum,16/09/2019 01:00,1.6,,,,0,,97,,,-,,,,,,,1.3,
Tyndrum,16/09/2019 02:00,2.8,,,,0,,99,,,-,,,,,,,2.7,
Tyndrum,16/09/2019 03:00,2.4,,,,0,,98,,,-,,,,,,,2.2,
Tyndrum,16/09/2019 04:00,4,,,,0,,98,,,-,,,,,,,3.8,
Tyndrum,16/09/2019 05:00,5,,,,0,,100,,,-,,,,,,,5,
Tyndrum,16/09/2019 06:00,6.8,,0.9,,0.2,0.2,99,,,-,,,,,,,6.7,
Tyndrum,16/09/2019 07:00,6.9,,,,0,,99,,,-,,,,,,,6.8,
Tyndrum,16/09/2019 08:00,9,,,,0,,99,,,-,,,,,,,8.9,
Tyndrum,16/09/2019 09:00,9.8,,,,0,,94,,,-,,,,,,,8.9,
Tyndrum,16/09/2019 10:00,11,,,,0,,76,,,-,,,,,,,7.1,
Tyndrum,16/09/2019 11:00,12,,,,0,,76,,,-,,,,,,,8,
Tyndrum,16/09/2019 12:00,11.4,,,,0,0,75,,,-,,,,,,,7.3,
Tyndrum,16/09/2019 13:00,11.5,,,,0,,77,,,-,,,,,,,7.8,
Tyndrum,16/09/2019 14:00,12,,,,0,,72,,,-,,,,,,,7.3,
Tyndrum,16/09/2019 15:00,12.6,,,,0,,67,,,-,,,,,,,6.8,
Tyndrum,16/09/2019 16:00,13,,,,0,,67,,,-,,,,,,,7.2,
Tyndrum,16/09/2019 17:00,13,,,,0,,65,,,-,,,,,,,6.7,
Tyndrum,16/09/2019 18:00,11.6,,,13.5,0,0,67,,,-,,,,,,,5.9,
Tyndrum,16/09/2019 19:00,10.7,,,,0,,74,,,-,,,,,,,6.3,
Tyndrum,16/09/2019 20:00,10.3,,,,0,,81,,,-,,,,,,,7.2,
Tyndrum,16/09/2019 21:00,9.7,,,,0,,82,,,-,,,,,,,6.8,
Tyndrum,16/09/2019 22:00,9.9,,,,0,,83,,,-,,,,,,,7.2,
Tyndrum,16/09/2019 23:00,10,,,,0,,81,,,-,,,,,,,6.9,
Tyndrum,17/09/2019 00:00,9.5,,,,0,0,86,,,-,,,,,,,7.4,
Tyndrum,17/09/2019 01:00,9.3,,,,0,,83,,,-,,,,,,,6.7,
Tyndrum,17/09/2019 02:00,9.1,,,,0,,83,,,-,,,,,,,6.5,
Tyndrum,17/09/2019 03:00,8.3,,,,0,,82,,,-,,,,,,,5.5,
Tyndrum,17/09/2019 04:00,6.1,,,,0,,86,,,-,,,,,,,4,
Tyndrum,17/09/2019 05:00,4.3,,,,0,,91,,,-,,,,,,,3,
Tyndrum,17/09/2019 06:00,3.1,,3.1,,0,0,93,,,-,,,,,,,2.1,
Tyndrum,17/09/2019 07:00,3.1,,,,0,,95,,,-,,,,,,,2.4,
Tyndrum,17/09/2019 08:00,6.6,,,,0,,93,,,-,,,,,,,5.7,
Tyndrum,17/09/2019 09:00,10.3,,,,0,,64,,,-,,,,,,,4,
Tyndrum,17/09/2019 10:00,11.4,,,,0,,57,,,-,,,,,,,3.2,
Tyndrum,17/09/2019 11:00,12.7,,,,0,,58,,,-,,,,,,,4.9,
Tyndrum,17/09/2019 12:00,12.8,,,,0,0,57,,,-,,,,,,,4.6,
Tyndrum,17/09/2019 13:00,12.7,,,,0,,58,,,-,,,,,,,4.7,
Tyndrum,17/09/2019 14:00,13.1,,,,0,,56,,,-,,,,,,,4.6,
Tyndrum,17/09/2019 15:00,13,,,,0,,55,,,-,,,,,,,4.3,
Tyndrum,17/09/2019 16:00,13,,,,0,,57,,,-,,,,,,,4.8,
Tyndrum,17/09/2019 17:00,12.9,,,,0,,58,,,-,,,,,,,4.9,
Tyndrum,17/09/2019 18:00,11.1,,,14,0,0,73,,,-,,,,,,,6.5,
Tyndrum,17/09/2019 19:00,9.2,,,,0,,81,,,-,,,,,,,6.2,
Tyndrum,17/09/2019 20:00,7.3,,,,0,,88,,,-,,,,,,,5.5,
Tyndrum,17/09/2019 21:00,7.6,,,,0,,92,,,-,,,,,,,6.4,
Tyndrum,17/09/2019 22:00,7.9,,,,0,,92,,,-,,,,,,,6.8,
Tyndrum,17/09/2019 23:00,7.8,,,,0,,94,,,-,,,,,,,6.9,
Tyndrum,18/09/2019 00:00,7.9,,,,0,0,94,,,-,,,,,,,7,
Tyndrum,18/09/2019 01:00,8,,,,0,,94,,,-,,,,,,,7.2,
Tyndrum,18/09/2019 02:00,8,,,,0,,95,,,-,,,,,,,7.3,
Tyndrum,18/09/2019 03:00,7.9,,,,0,,95,,,-,,,,,,,7.2,
Tyndrum,18/09/2019 04:00,8,,,,0,,95,,,-,,,,,,,7.4,
Tyndrum,18/09/2019 05:00,8,,,,0,,95,,,-,,,,,,,7.3,
Tyndrum,18/09/2019 06:00,7.9,,7.3,,0,0,95,,,-,,,,,,,7.2,
Tyndrum,18/09/2019 07:00,8.1,,,,0,,95,,,-,,,,,,,7.4,
Tyndrum,18/09/2019 08:00,8.3,,,,0.2,,95,,,-,,,,,,,7.7,
Tyndrum,18/09/2019 09:00,9.6,,,,0.2,,97,,,-,,,,,,,9.2,
Tyndrum,18/09/2019 10:00,11,,,,0,,95,,,-,,,,,,,10.3,
Tyndrum,18/09/2019 11:00,12.2,,,,0,,91,,,-,,,,,,,10.9,
Tyndrum,18/09/2019 12:00,14.3,,,,0,0.4,87,,,-,,,,,,,12.2,
Tyndrum,18/09/2019 13:00,15.8,,,,0,,79,,,-,,,,,,,12.3,
Tyndrum,18/09/2019 14:00,15.5,,,,0,,79,,,-,,,,,,,12,
Tyndrum,18/09/2019 15:00,17.2,,,,0,,74,,,-,,,,,,,12.6,
Tyndrum,18/09/2019 16:00,15.5,,,,0,,80,,,-,,,,,,,12.1,
Tyndrum,18/09/2019 17:00,14.3,,,,0,,87,,,-,,,,,,,12.2,
Tyndrum,18/09/2019 18:00,13.7,,,17.3,0,0,91,,,-,,,,,,,12.3,
Tyndrum,18/09/2019 19:00,13.2,,,,0,,94,,,-,,,,,,,12.4,
Tyndrum,18/09/2019 20:00,13.1,,,,0,,94,,,-,,,,,,,12.2,
Tyndrum,18/09/2019 21:00,12.8,,,,0,,94,,,-,,,,,,,12,
Tyndrum,18/09/2019 22:00,11.5,,,,0,,93,,,-,,,,,,,10.5,
Tyndrum,18/09/2019 23:00,11.9,,,,0,,97,,,-,,,,,,,11.5,
Tyndrum,19/09/2019 00:00,11.7,,,,0,0,97,,,-,,,,,,,11.3,
Tyndrum,19/09/2019 01:00,12,,,,0,,98,,,-,,,,,,,11.7,
Tyndrum,19/09/2019 02:00,9.8,,,,0,,94,,,-,,,,,,,9,
Tyndrum,19/09/2019 03:00,9.4,,,,0,,97,,,-,,,,,,,9,
Tyndrum,19/09/2019 04:00,9.7,,,,0,,98,,,-,,,,,,,9.5,
Tyndrum,19/09/2019 05:00,8.6,,,,0,,97,,,-,,,,,,,8.2,
Tyndrum,19/09/2019 06:00,8.3,,8.3,,0,0,97,,,-,,,,,,,8,
Tyndrum,19/09/2019 07:00,9.5,,,,0,,98,,,-,,,,,,,9.3,
Tyndrum,19/09/2019 08:00,10.5,,,,0,,98,,,-,,,,,,,10.3,
Tyndrum,19/09/2019 09:00,12.5,,,,0,,96,,,-,,,,,,,12,
Tyndrum,19/09/2019 10:00,14,,,,0,,82,,,-,,,,,,,11,
Tyndrum,19/09/2019 11:00,14.5,,,,0,,81,,,-,,,,,,,11.4,
Tyndrum,19/09/2019 12:00,15.7,,,,0,0,75,,,-,,,,,,,11.3,
Tyndrum,19/09/2019 13:00,15.5,,,,0,,77,,,-,,,,,,,11.5,
Tyndrum,19/09/2019 14:00,15,,,,0,,78,,,-,,,,,,,11.2,
Tyndrum,19/09/2019 15:00,15.9,,,,0,,79,,,-,,,,,,,12.3,
Tyndrum,19/09/2019 16:00,14.7,,,,0,,79,,,-,,,,,,,11.2,
Tyndrum,19/09/2019 17:00,14.4,,,,0,,77,,,-,,,,,,,10.6,
Tyndrum,19/09/2019 18:00,13.2,,,16.5,0,0,81,,,-,,,,,,,10.1,
Tyndrum,19/09/2019 19:00,9.5,,,,0,,89,,,-,,,,,,,7.9,
Tyndrum,19/09/2019 20:00,8.1,,,,0,,94,,,-,,,,,,,7.2,
Tyndrum,19/09/2019 21:00,6.9,,,,0,,95,,,-,,,,,,,6.3,
Tyndrum,19/09/2019 22:00,6,,,,0,,96,,,-,,,,,,,5.5,
Tyndrum,19/09/2019 23:00,5,,,,0,,96,,,-,,,,,,,4.5,
Tyndrum,20/09/2019 00:00,4.4,,,,0,0,97,,,-,,,,,,,4.1,
Tyndrum,20/09/2019 01:00,3.5,,,,0,,97,,,-,,,,,,,3.2,
Tyndrum,20/09/2019 02:00,2.9,,,,0,,97,,,-,,,,,,,2.6,
Tyndrum,20/09/2019 03:00,2.5,,,,0,,97,,,-,,,,,,,2.2,
Tyndrum,20/09/2019 04:00,2.3,,,,0,,98,,,-,,,,,,,2.1,
Tyndrum,20/09/2019 05:00,1.3,,,,0,,97,,,-,,,,,,,1,
Tyndrum,20/09/2019 06:00,1,,0.8,,0,0,97,,,-,,,,,,,0.7,
Tyndrum,20/09/2019 07:00,1.1,,,,0,,98,,,-,,,,,,,0.9,
Tyndrum,20/09/2019 08:00,3.8,,,,0,,100,,,-,,,,,,,3.8,
Tyndrum,20/09/2019 09:00,6.9,,,,0,,99,,,-,,,,,,,6.8,
Tyndrum,20/09/2019 10:00,10.8,,,,0,,88,,,-,,,,,,,8.9,
Tyndrum,20/09/2019 11:00,16.9,,,,0,,64,,,-,,,,,,,10.1,
Tyndrum,20/09/2019 12:00,20.4,,,,0,0,50,,,-,,,,,,,9.8,
Tyndrum,20/09/2019 13:00,20.6,,,,0,,53,,,-,,,,,,,10.7,
Tyndrum,20/09/2019 14:00,21.1,,,,0,,56,,,-,,,,,,,12.1,
Tyndrum,20/09/2019 15:00,21.2,,,,0,,55,,,-,,,,,,,12,
Tyndrum,20/09/2019 16:00,20.7,,,,0,,58,,,-,,,,,,,12.2,
Tyndrum,20/09/2019 17:00,19.8,,,,0,,61,,,-,,,,,,,12.1,
Tyndrum,20/09/2019 18:00,17.4,,,21.8,0,0,64,,,-,,,,,,,10.6,
Tyndrum,20/09/2019 19:00,16.9,,,,0,,69,,,-,,,,,,,11.3,
Tyndrum,20/09/2019 20:00,16.7,,,,0,,71,,,-,,,,,,,11.5,
Tyndrum,20/09/2019 21:00,16.2,,,,0,,71,,,-,,,,,,,11.1,
Tyndrum,20/09/2019 22:00,15,,,,0,,72,,,-,,,,,,,10.1,
Tyndrum,20/09/2019 23:00,14.3,,,,0,,77,,,-,,,,,,,10.4,
Tyndrum,21/09/2019 00:00,14.4,,,,0,0,78,,,-,,,,,,,10.7,
Tyndrum,21/09/2019 01:00,14.5,,,,0,,76,,,-,,,,,,,10.5,
Tyndrum,21/09/2019 02:00,13.6,,,,0,,77,,,-,,,,,,,9.8,
Tyndrum,21/09/2019 03:00,12,,,,0,,83,,,-,,,,,,,9.3,
Tyndrum,21/09/2019 04:00,11,,,,0,,85,,,-,,,,,,,8.6,
Tyndrum,21/09/2019 05:00,10,,,,0,,89,,,-,,,,,,,8.4,
Tyndrum,21/09/2019 06:00,10.5,,10,,0,0,87,,,-,,,,,,,8.5,
Tyndrum,21/09/2019 07:00,11.8,,,,0,,80,,,-,,,,,,,8.5,
Tyndrum,21/09/2019 08:00,13.7,,,,0,,69,,,-,,,,,,,8.2,
Tyndrum,21/09/2019 09:00,14.8,,,,0,,65,,,-,,,,,,,8.3,
Tyndrum,21/09/2019 10:00,15.7,,,,0,,61,,,-,,,,,,,8.4,
Tyndrum,21/09/2019 11:00,18.5,,,,0,,54,,,-,,,,,,,9.2,
Tyndrum,21/09/2019 12:00,20.6,,,,0,0,48,,,-,,,,,,,9.3,
Tyndrum,21/09/2019 13:00,20.6,,,,0,,48,,,-,,,,,,,9.4,
Tyndrum,21/09/2019 14:00,20.8,,,,0,,51,,,-,,,,,,,10.5,
Tyndrum,21/09/2019 15:00,20.2,,,,0,,55,,,-,,,,,,,11,
Tyndrum,21/09/2019 16:00,19.4,,,,0,,59,,,-,,,,,,,11.3,
Tyndrum,21/09/2019 17:00,18.1,,,,0,,66,,,-,,,,,,,11.7,
Tyndrum,21/09/2019 18:00,16.7,,,21.5,0,0,70,,,-,,,,,,,11.3,
Tyndrum,21/09/2019 19:00,15.9,,,,0,,70,,,-,,,,,,,10.6,
Tyndrum,21/09/2019 20:00,15.1,,,,0,,73,,,-,,,,,,,10.5,
Tyndrum,21/09/2019 21:00,14.2,,,,0,,77,,,-,,,,,,,10.4,
Tyndrum,21/09/2019 22:00,13.7,,,,0,,79,,,-,,,,,,,10.2,
Tyndrum,21/09/2019 23:00,13.3,,,,0,,81,,,-,,,,,,,10.2,
Tyndrum,22/09/2019 00:00,13.3,,,,0,0,81,,,-,,,,,,,10.2,
Tyndrum,22/09/2019 01:00,13,,,,0,,81,,,-,,,,,,,10,
Tyndrum,22/09/2019 02:00,13.1,,,,0,,80,,,-,,,,,,,9.9,
Tyndrum,22/09/2019 03:00,13.2,,,,0,,79,,,-,,,,,,,9.7,
Tyndrum,22/09/2019 04:00,12.7,,,,0,,80,,,-,,,,,,,9.4,
Tyndrum,22/09/2019 05:00,12.3,,,,0,,84,,,-,,,,,,,9.7,
Tyndrum,22/09/2019 06:00,13.4,,9,,0,0,78,,,-,,,,,,,9.7,
Tyndrum,22/09/2019 07:00,13.5,,,,0,,78,,,-,,,,,,,9.9,
Tyndrum,22/09/2019 08:00,14.3,,,,0,,76,,,-,,,,,,,10.3,
Tyndrum,22/09/2019 09:00,14.7,,,,0,,75,,,-,,,,,,,10.5,
Tyndrum,22/09/2019 10:00,14.9,,,,0,,74,,,-,,,,,,,10.5,
Tyndrum,22/09/2019 11:00,15.3,,,,1.8,,86,,,-,,,,,,,13.1,
Tyndrum,22/09/2019 12:00,15.5,,,,0,2,82,,,-,,,,,,,12.6,
Tyndrum,22/09/2019 13:00,16.2,,,,0,,80,,,-,,,,,,,12.8,
Tyndrum,22/09/2019 14:00,17,,,,0,,79,,,-,,,,,,,13.4,
Tyndrum,22/09/2019 15:00,17,,,,0,,79,,,-,,,,,,,13.4,
Tyndrum,22/09/2019 16:00,16.8,,,,0,,82,,,-,,,,,,,13.8,
Tyndrum,22/09/2019 17:00,16.8,,,,0,,80,,,-,,,,,,,13.4,
Tyndrum,22/09/2019 18:00,16.5,,,17.4,0,0,80,,,-,,,,,,,13.2,
Tyndrum,22/09/2019 19:00,15.7,,,,0.4,,87,,,-,,,,,,,13.7,
Tyndrum,22/09/2019 20:00,15.7,,,,0.2,,87,,,-,,,,,,,13.6,
Tyndrum,22/09/2019 21:00,14.7,,,,0.6,,92,,,-,,,,,,,13.5,
Tyndrum,22/09/2019 22:00,14.3,,,,0.2,,95,,,-,,,,,,,13.6,
Tyndrum,22/09/2019 23:00,14,,,,1.6,,96,,,-,,,,,,,13.5,
Tyndrum,23/09/2019 00:00,14,,,,0.6,4,96,,,-,,,,,,,13.5,
Tyndrum,23/09/2019 01:00,13.8,,,,0,,96,,,-,,,,,,,13.3,
Tyndrum,23/09/2019 02:00,13.7,,,,0,,96,,,-,,,,,,,13.2,
Tyndrum,23/09/2019 03:00,12.5,,,,0,,97,,,-,,,,,,,12.1,
Tyndrum,23/09/2019 04:00,13.6,,,,0,,97,,,-,,,,,,,13.2,
Tyndrum,23/09/2019 05:00,13.5,,,,0,,97,,,-,,,,,,,13.1,
Tyndrum,23/09/2019 06:00,13.4,,12.4,,0,0,97,,,-,,,,,,,13,
Tyndrum,23/09/2019 07:00,13.4,,,,0,,98,,,-,,,,,,,13.1,
Tyndrum,23/09/2019 08:00,13.8,,,,0.2,,96,,,-,,,,,,,13.3,
Tyndrum,23/09/2019 09:00,13.9,,,,0,,88,,,-,,,,,,,12,
Tyndrum,23/09/2019 10:00,14.3,,,,0,,87,,,-,,,,,,,12.3,
Tyndrum,23/09/2019 11:00,13.7,,,,0,,89,,,-,,,,,,,12,
Tyndrum,23/09/2019 12:00,13.8,,,,0,0.2,86,,,-,,,,,,,11.6,
Tyndrum,23/09/2019 13:00,13.9,,,,0,,80,,,-,,,,,,,10.6,
Tyndrum,23/09/2019 14:00,14.2,,,,0,,74,,,-,,,,,,,9.8,
Tyndrum,23/09/2019 15:00,14.5,,,,0,,76,,,-,,,,,,,10.5,
Tyndrum,23/09/2019 16:00,14.6,,,,0,,70,,,-,,,,,,,9.4,
Tyndrum,23/09/2019 17:00,13.8,,,,0,,75,,,-,,,,,,,9.6,
Tyndrum,23/09/2019 18:00,13.4,,,16.3,0,0,79,,,-,,,,,,,9.9,
Tyndrum,23/09/2019 19:00,13.3,,,,0,,76,,,-,,,,,,,9.2,
Tyndrum,23/09/2019 20:00,13.4,,,,0,,75,,,-,,,,,,,9.1,
Tyndrum,23/09/2019 21:00,13.1,,,,0,,75,,,-,,,,,,,8.8,
Tyndrum,23/09/2019 22:00,13.6,,,,0,,74,,,-,,,,,,,9.1,
Tyndrum,23/09/2019 23:00,13.2,,,,0,,78,,,-,,,,,,,9.5,
Tyndrum,24/09/2019 00:00,12.5,,,,0,0,85,,,-,,,,,,,10.1,
Tyndrum,24/09/2019 01:00,12.3,,,,0,,89,,,-,,,,,,,10.7,
Tyndrum,24/09/2019 02:00,13.1,,,,0,,86,,,-,,,,,,,10.9,
Tyndrum,24/09/2019 03:00,12.8,,,,1.8,,90,,,-,,,,,,,11.3,
Tyndrum,24/09/2019 04:00,12.7,,,,0.2,,92,,,-,,,,,,,11.5,
Tyndrum,24/09/2019 05:00,12.7,,,,3.2,,93,,,-,,,,,,,11.7,
Tyndrum,24/09/2019 06:00,12.5,,12,,1.6,7,96,,,-,,,,,,,12,
Tyndrum,24/09/2019 07:00,12.5,,,,2.4,,97,,,-,,,,,,,12.1,
Tyndrum,24/09/2019 08:00,13.2,,,,0.4,,98,,,-,,,,,,,12.9,
Tyndrum,24/09/2019 09:00,14.1,,,,0,,98,,,-,,,,,,,13.8,
Tyndrum,24/09/2019 10:00,15.2,,,,0.2,,98,,,-,,,,,,,14.9,
Tyndrum,24/09/2019 11:00,16.2,,,,0,,87,,,-,,,,,,,14.2,
Tyndrum,24/09/2019 12:00,16.4,,,,0,3,89,,,-,,,,,,,14.7,
Tyndrum,24/09/2019 13:00,17,,,,0,,85,,,-,,,,,,,14.6,
Tyndrum,24/09/2019 14:00,16.9,,,,0,,81,,,-,,,,,,,13.7,
Tyndrum,24/09/2019 15:00,16.9,,,,0,,80,,,-,,,,,,,13.6,
Tyndrum,24/09/2019 16:00,16.5,,,,0,,82,,,-,,,,,,,13.6,
Tyndrum,24/09/2019 17:00,15.5,,,,0,,86,,,-,,,,,,,13.3,
Tyndrum,24/09/2019 18:00,14.6,,,17.5,0,0,92,,,-,,,,,,,13.4,
Tyndrum,24/09/2019 19:00,14.2,,,,0,,94,,,-,,,,,,,13.3,
Tyndrum,24/09/2019 20:00,14,,,,0.2,,95,,,-,,,,,,,13.3,
Tyndrum,24/09/2019 21:00,13.6,,,,1.4,,96,,,-,,,,,,,13,
Tyndrum,24/09/2019 22:00,13.6,,,,2,,97,,,-,,,,,,,13.2,
Tyndrum,24/09/2019 23:00,13.5,,,,1.2,,98,,,-,,,,,,,13.2,
Tyndrum,25/09/2019 00:00,13.5,,,,0.2,5,98,,,-,,,,,,,13.2,
Tyndrum,25/09/2019 01:00,13.5,,,,0,,98,,,-,,,,,,,13.2,
Tyndrum,25/09/2019 02:00,13.5,,,,0.2,,98,,,-,,,,,,,13.2,
Tyndrum,25/09/2019 03:00,13.4,,,,0,,98,,,-,,,,,,,13.1,
Tyndrum,25/09/2019 04:00,13.2,,,,0,,98,,,-,,,,,,,13,
Tyndrum,25/09/2019 05:00,12.6,,,,0,,98,,,-,,,,,,,12.3,
Tyndrum,25/09/2019 06:00,12.6,,12.5,,0,0,98,,,-,,,,,,,12.3,
Tyndrum,25/09/2019 07:00,12.8,,,,0.4,,98,,,-,,,,,,,12.6,
Tyndrum,25/09/2019 08:00,13.7,,,,0,,99,,,-,,,,,,,13.6,
Tyndrum,25/09/2019 09:00,14.3,,,,0,,98,,,-,,,,,,,14.1,
Tyndrum,25/09/2019 10:00,15.9,,,,0,,89,,,-,,,,,,,14.2,
Tyndrum,25/09/2019 11:00,16,,,,0,,85,,,-,,,,,,,13.5,
Tyndrum,25/09/2019 12:00,16.5,,,,0,0.4,81,,,-,,,,,,,13.3,
Tyndrum,25/09/2019 13:00,17.6,,,,0,,78,,,-,,,,,,,13.8,
Tyndrum,25/09/2019 14:00,17.4,,,,0,,75,,,-,,,,,,,13.1,
Tyndrum,25/09/2019 15:00,16.8,,,,0,,75,,,-,,,,,,,12.5,
Tyndrum,25/09/2019 16:00,16.7,,,,0,,81,,,-,,,,,,,13.5,
Tyndrum,25/09/2019 17:00,16,,,,0,,82,,,-,,,,,,,13.1,
Tyndrum,25/09/2019 18:00,15,,,19.6,1,0.6,90,,,-,,,,,,,13.4,
Tyndrum,25/09/2019 19:00,14.3,,,,2.4,,93,,,-,,,,,,,13.2,
Tyndrum,25/09/2019 20:00,13.8,,,,0.2,,93,,,-,,,,,,,12.8,
Tyndrum,25/09/2019 21:00,13.5,,,,0,,96,,,-,,,,,,,12.9,
Tyndrum,25/09/2019 22:00,14.1,,,,0,,88,,,-,,,,,,,12.3,
Tyndrum,25/09/2019 23:00,14,,,,0,,88,,,-,,,,,,,12.2,
Tyndrum,26/09/2019 00:00,13.7,,,,0.2,3,91,,,-,,,,,,,12.3,
Tyndrum,26/09/2019 01:00,13.4,,,,0.8,,93,,,-,,,,,,,12.4,
Tyndrum,26/09/2019 02:00,13.3,,,,0.6,,91,,,-,,,,,,,12,
Tyndrum,26/09/2019 03:00,13.2,,,,4,,94,,,-,,,,,,,12.3,
Tyndrum,26/09/2019 04:00,12.8,,,,4.4,,96,,,-,,,,,,,12.2,
Tyndrum,26/09/2019 05:00,12.7,,,,0.8,,90,,,-,,,,,,,11.2,
Tyndrum,26/09/2019 06:00,12,,12,,0,10,95,,,-,,,,,,,11.3,
Tyndrum,26/09/2019 07:00,12.2,,,,0,,88,,,-,,,,,,,10.3,
Tyndrum,26/09/2019 08:00,12.4,,,,0.6,,85,,,-,,,,,,,10,
Tyndrum,26/09/2019 09:00,12.5,,,,0,,84,,,-,,,,,,,10,
Tyndrum,26/09/2019 10:00,12.4,,,,0,,88,,,-,,,,,,,10.6,
Tyndrum,26/09/2019 11:00,12.7,,,,0.8,,89,,,-,,,,,,,11.1,
Tyndrum,26/09/2019 12:00,13.1,,,,0.2,2,91,,,-,,,,,,,11.7,
Tyndrum,26/09/2019 13:00,12.3,,,,1.4,,91,,,-,,,,,,,11,
Tyndrum,26/09/2019 14:00,12.9,,,,0.8,,90,,,-,,,,,,,11.4,
Tyndrum,26/09/2019 15:00,12.7,,,,1.6,,92,,,-,,,,,,,11.5,
Tyndrum,26/09/2019 16:00,12.1,,,,0,,85,,,-,,,,,,,9.7,
Tyndrum,26/09/2019 17:00,11.2,,,,0.8,,93,,,-,,,,,,,10.2,
Tyndrum,26/09/2019 18:00,10.6,,,13.7,1.4,6,95,,,-,,,,,,,9.9,
Tyndrum,26/09/2019 19:00,10.3,,,,0,,96,,,-,,,,,,,9.8,
Tyndrum,26/09/2019 20:00,10.4,,,,0.2,,97,,,-,,,,,,,10,
Tyndrum,26/09/2019 21:00,10.5,,,,0.2,,98,,,-,,,,,,,10.2,
Tyndrum,26/09/2019 22:00,10.5,,,,0.4,,98,,,-,,,,,,,10.2,
Tyndrum,26/09/2019 23:00,10.4,,,,1.2,,98,,,-,,,,,,,10.1,
Tyndrum,27/09/2019 00:00,10.4,,,,0.6,3,98,,,-,,,,,,,10.2,
Tyndrum,27/09/2019 01:00,9.9,,,,2.6,,98,,,-,,,,,,,9.6,
Tyndrum,27/09/2019 02:00,9.8,,,,0.6,,98,,,-,,,,,,,9.5,
Tyndrum,27/09/2019 03:00,9.8,,,,0.4,,98,,,-,,,,,,,9.5,
Tyndrum,27/09/2019 04:00,9.7,,,,0.6,,98,,,-,,,,,,,9.4,
Tyndrum,27/09/2019 05:00,9.7,,,,0.2,,98,,,-,,,,,,,9.4,
Tyndrum,27/09/2019 06:00,9.4,,9.4,,0.2,4,97,,,-,,,,,,,9.1,
Tyndrum,27/09/2019 07:00,9.5,,,,0.2,,98,,,-,,,,,,,9.3,
Tyndrum,27/09/2019 08:00,10.2,,,,0,,99,,,-,,,,,,,10.1,
Tyndrum,27/09/2019 09:00,10.7,,,,0,,99,,,-,,,,,,,10.6,
Tyndrum,27/09/2019 10:00,11.3,,,,0,,97,,,-,,,,,,,10.9,
Tyndrum,27/09/2019 11:00,12.6,,,,0,,87,,,-,,,,,,,10.5,
Tyndrum,27/09/2019 12:00,13.1,,,,0,0.2,84,,,-,,,,,,,10.5,
Tyndrum,27/09/2019 13:00,10.8,,,,1.8,,92,,,-,,,,,,,9.7,
Tyndrum,27/09/2019 14:00,12,,,,0.4,,84,,,-,,,,,,,9.4,
Tyndrum,27/09/2019 15:00,13.8,,,,0,,75,,,-,,,,,,,9.6,
Tyndrum,27/09/2019 16:00,13,,,,0,,79,,,-,,,,,,,9.5,
Tyndrum,27/09/2019 17:00,12,,,,0,,84,,,-,,,,,,,9.5,
Tyndrum,27/09/2019 18:00,10,,,14.3,0,1.8,90,,,-,,,,,,,8.6,
Tyndrum,27/09/2019 19:00,8,,,,0,,94,,,-,,,,,,,7.1,
Tyndrum,27/09/2019 20:00,7,,,,0,,96,,,-,,,,,,,6.5,
Tyndrum,27/09/2019 21:00,7.3,,,,0,,98,,,-,,,,,,,7.1,
Tyndrum,27/09/2019 22:00,7.7,,,,0,,98,,,-,,,,,,,7.5,
Tyndrum,27/09/2019 23:00,7.2,,,,0,,98,,,-,,,,,,,7,
Tyndrum,28/09/2019 00:00,6.5,,,,0,0,97,,,-,,,,,,,6.2,
Tyndrum,28/09/2019 01:00,6,,,,0,,98,,,-,,,,,,,5.8,
Tyndrum,28/09/2019 02:00,6.7,,,,0,,99,,,-,,,,,,,6.6,
Tyndrum,28/09/2019 03:00,6.8,,,,0,,99,,,-,,,,,,,6.7,
Tyndrum,28/09/2019 04:00,6.9,,,,0,,99,,,-,,,,,,,6.8,
Tyndrum,28/09/2019 05:00,5.7,,,,0,,98,,,-,,,,,,,5.5,
Tyndrum,28/09/2019 06:00,5.3,,5,,0,0,99,,,-,,,,,,,5.2,
Tyndrum,28/09/2019 07:00,5.4,,,,0,,99,,,-,,,,,,,5.3,
Tyndrum,28/09/2019 08:00,7.4,,,,0,,100,,,-,,,,,,,7.4,
Tyndrum,28/09/2019 09:00,10.3,,,,0,,99,,,-,,,,,,,10.2,
Tyndrum,28/09/2019 10:00,11.6,,,,0,,98,,,-,,,,,,,11.3,
Tyndrum,28/09/2019 11:00,12.8,,,,0,,79,,,-,,,,,,,9.3,
Tyndrum,28/09/2019 12:00,13,,,,0,0,78,,,-,,,,,,,9.4,
Tyndrum,28/09/2019 13:00,13.8,,,,0,,75,,,-,,,,,,,9.5,
Tyndrum,28/09/2019 14:00,14.3,,,,0,,69,,,-,,,,,,,8.8,
Tyndrum,28/09/2019 15:00,16.5,,,,0,,63,,,-,,,,,,,9.6,
Tyndrum,28/09/2019 16:00,13.8,,,,0,,80,,,-,,,,,,,10.5,
Tyndrum,28/09/2019 17:00,13.5,,,,0,,78,,,-,,,,,,,9.8,
Tyndrum,28/09/2019 18:00,12.5,,,16.5,0,0,82,,,-,,,,,,,9.6,
Tyndrum,28/09/2019 19:00,11.2,,,,0,,91,,,-,,,,,,,9.8,
Tyndrum,28/09/2019 20:00,9.5,,,,0,,93,,,-,,,,,,,8.5,
Tyndrum,28/09/2019 21:00,8,,,,0,,94,,,-,,,,,,,7.2,
Tyndrum,28/09/2019 22:00,6.3,,,,0,,95,,,-,,,,,,,5.6,
Tyndrum,28/09/2019 23:00,5,,,,0,,96,,,-,,,,,,,4.5,
Tyndrum,29/09/2019 00:00,4.3,,,,0,0,97,,,-,,,,,,,3.9,
Tyndrum,29/09/2019 01:00,5.1,,,,0,,98,,,-,,,,,,,4.9,
Tyndrum,29/09/2019 02:00,5.7,,,,0,,98,,,-,,,,,,,5.5,
Tyndrum,29/09/2019 03:00,7.7,,,,0,,100,,,-,,,,,,,7.7,
Tyndrum,29/09/2019 04:00,9.4,,,,0,,99,,,-,,,,,,,9.3,
Tyndrum,29/09/2019 05:00,10.3,,,,0,,96,,,-,,,,,,,9.8,
Tyndrum,29/09/2019 06:00,10.1,,4.1,,0,0,94,,,-,,,,,,,9.3,
Tyndrum,29/09/2019 07:00,9.9,,,,0,,95,,,-,,,,,,,9.2,
Tyndrum,29/09/2019 08:00,10.6,,,,0,,95,,,-,,,,,,,9.9,
Tyndrum,29/09/2019 09:00,12.3,,,,0,,84,,,-,,,,,,,9.7,
Tyndrum,29/09/2019 10:00,12.8,,,,0,,82,,,-,,,,,,,9.9,
Tyndrum,29/09/2019 11:00,14.8,,,,0,,69,,,-,,,,,,,9.3,
Tyndrum,29/09/2019 12:00,14.7,,,,0,0,70,,,-,,,,,,,9.3,
Tyndrum,29/09/2019 13:00,14.2,,,,0,,69,,,-,,,,,,,8.8,
Tyndrum,29/09/2019 14:00,14.3,,,,0,,69,,,-,,,,,,,8.7,
Tyndrum,29/09/2019 15:00,13.8,,,,0,,71,,,-,,,,,,,8.7,
Tyndrum,29/09/2019 16:00,13.5,,,,0,,70,,,-,,,,,,,8.3,
Tyndrum,29/09/2019 17:00,12.4,,,,0,,79,,,-,,,,,,,8.9,
Tyndrum,29/09/2019 18:00,10.7,,,15.4,0.6,0.6,89,,,-,,,,,,,9,
Tyndrum,29/09/2019 19:00,10.2,,,,0.2,,93,,,-,,,,,,,9.2,
Tyndrum,29/09/2019 20:00,9.9,,,,1.4,,95,,,-,,,,,,,9.2,
Tyndrum,29/09/2019 21:00,9.1,,,,0,,96,,,-,,,,,,,8.5,
Tyndrum,29/09/2019 22:00,8.3,,,,0,,96,,,-,,,,,,,7.8,
Tyndrum,29/09/2019 23:00,7.1,,,,0,,96,,,-,,,,,,,6.6,
Tyndrum,30/09/2019 00:00,5.7,,,,0,2,96,,,-,,,,,,,5.2,
Tyndrum,30/09/2019 01:00,4.7,,,,0,,97,,,-,,,,,,,4.3,
Tyndrum,30/09/2019 02:00,5.3,,,,0,,98,,,-,,,,,,,5.1,
Tyndrum,30/09/2019 03:00,6.3,,,,0,,99,,,-,,,,,,,6.2,
Tyndrum,30/09/2019 04:00,5.5,,,,0,,98,,,-,,,,,,,5.3,
Tyndrum,30/09/2019 05:00,4.2,,,,0,,98,,,-,,,,,,,4,
Tyndrum,30/09/2019 06:00,4.1,,3.7,,0,0,98,,,-,,,,,,,3.9,
Tyndrum,30/09/2019 07:00,4.6,,,,0,,99,,,-,,,,,,,4.5,
Tyndrum,30/09/2019 08:00,5.3,,,,0,,100,,,-,,,,,,,5.3,
Tyndrum,30/09/2019 09:00,8.9,,,,0.2,,100,,,-,,,,,,,8.9,
Tyndrum,30/09/2019 10:00,10.6,,,,0,,98,,,-,,,,,,,10.4,
Tyndrum,30/09/2019 11:00,13.1,,,,0,,83,,,-,,,,,,,10.3,
Tyndrum,30/09/2019 12:00,14.8,,,,0,0.2,68,,,-,,,,,,,9.1,
Tyndrum,30/09/2019 13:00,13.4,,,,0,,70,,,-,,,,,,,8.1,
Tyndrum,30/09/2019 14:00,13.1,,,,0,,72,,,-,,,,,,,8.3,
Tyndrum,30/09/2019 15:00,12.5,,,,0,,75,,,-,,,,,,,8.3,
Tyndrum,30/09/2019 16:00,11.8,,,,0,,75,,,-,,,,,,,7.7,
Tyndrum,30/09/2019 17:00,10.7,,,,0,,81,,,-,,,,,,,7.6,
Tyndrum,30/09/2019 18:00,10,,,14.8,0,0,83,,,-,,,,,,,7.4,
Tyndrum,30/09/2019 19:00,9.3,,,,0,,86,,,-,,,,,,,7.1,
Tyndrum,30/09/2019 20:00,8.9,,,,0,,80,,,-,,,,,,,5.7,
Tyndrum,30/09/2019 21:00,8.6,,,,0,,83,,,-,,,,,,,5.9,
Tyndrum,30/09/2019 22:00,8.3,,,,0,,83,,,-,,,,,,,5.6,
Tyndrum,30/09/2019 23:00,8,,,,0,,85,,,-,,,,,,,5.7,
Tyndrum,01/10/2019 00:00,7.6,,,,0,0,86,,,-,,,,,,,5.5,
Tyndrum,01/10/2019 01:00,7.6,,,,0,,81,,,-,,,,,,,4.7,
Tyndrum,01/10/2019 02:00,7.6,,,,0,,76,,,-,,,,,,,3.8,
Tyndrum,01/10/2019 03:00,7.7,,,,0,,73,,,-,,,,,,,3.2,
Tyndrum,01/10/2019 04:00,7.4,,,,0,,71,,,-,,,,,,,2.6,
Tyndrum,01/10/2019 05:00,7,,,,0,,69,,,-,,,,,,,1.9,
Tyndrum,01/10/2019 06:00,5.6,,5.6,,0,0,73,,,-,,,,,,,1.2,
Tyndrum,01/10/2019 07:00,3.1,,,,0,,81,,,-,,,,,,,0.2,
Tyndrum,01/10/2019 08:00,3.7,,,,0,,86,,,-,,,,,,,1.7,
Tyndrum,01/10/2019 09:00,7.2,,,,0,,68,,,-,,,,,,,1.7,
Tyndrum,01/10/2019 10:00,8.5,,,,0,,67,,,-,,,,,,,2.8,
Tyndrum,01/10/2019 11:00,8.6,,,,0,,57,,,-,,,,,,,0.7,
Tyndrum,01/10/2019 12:00,10.2,,,,0,0,53,,,-,,,,,,,1.2,
Tyndrum,01/10/2019 13:00,11.2,,,,0,,53,,,-,,,,,,,2.1,
Tyndrum,01/10/2019 14:00,11.1,,,,0,,55,,,-,,,,,,,2.5,
Tyndrum,01/10/2019 15:00,10.3,,,,0,,57,,,-,,,,,,,2.2,
Tyndrum,01/10/2019 16:00,11,,,,0,,54,,,-,,,,,,,2.2,
Tyndrum,01/10/2019 17:00,9.8,,,,0,,59,,,-,,,,,,,2.3,
Tyndrum,01/10/2019 18:00,8.4,,,12.5,0,0,70,,,-,,,,,,,3.3,
Tyndrum,01/10/2019 19:00,6.8,,,,0,,74,,,-,,,,,,,2.5,
Tyndrum,01/10/2019 20:00,6.8,,,,0,,68,,,-,,,,,,,1.5,
Tyndrum,01/10/2019 21:00,4.5,,,,0,,82,,,-,,,,,,,1.7,
Tyndrum,01/10/2019 22:00,2.8,,,,0,,88,,,-,,,,,,,1.1,
Tyndrum,01/10/2019 23:00,2.2,,,,0,,89,,,-,,,,,,,0.6,
Tyndrum,02/10/2019 00:00,2.2,,,,0,0,93,,,-,,,,,,,1.2,
Tyndrum,02/10/2019 01:00,2.1,,,,0,,93,,,-,,,,,,,1.2,
Tyndrum,02/10/2019 02:00,0.5,,,,0,,93,,,-,,,,,,,-0.4,
Tyndrum,02/10/2019 03:00,-0.2,,,,0,,95,,,-,,,,,,,-0.8,
Tyndrum,02/10/2019 04:00,-1.2,,,,0,,96,,,-,,,,,,,-1.7,
Tyndrum,02/10/2019 05:00,-1.4,,,,0,,97,,,-,,,,,,,-1.8,
Tyndrum,02/10/2019 06:00,-1.9,,-2.2,,0,0,97,,,-,,,,,,,-2.3,
Tyndrum,02/10/2019 07:00,-1.3,,,,0,,98,,,-,,,,,,,-1.5,
Tyndrum,02/10/2019 08:00,0.6,,,,0,,98,,,-,,,,,,,0.4,
Tyndrum,02/10/2019 09:00,3.4,,,,0,,99,,,-,,,,,,,3.3,
Tyndrum,02/10/2019 10:00,7.8,,,,0,,71,,,-,,,,,,,3,
Tyndrum,02/10/2019 11:00,11.1,,,,0,,56,,,-,,,,,,,2.9,
Tyndrum,02/10/2019 12:00,10.8,,,,0,0,61,,,-,,,,,,,3.6,
Tyndrum,02/10/2019 13:00,12.7,,,,0,,54,,,-,,,,,,,3.7,
Tyndrum,02/10/2019 14:00,13,,,,0,,47,,,-,,,,,,,2.2,
Tyndrum,02/10/2019 15:00,11.7,,,,0,,53,,,-,,,,,,,2.7,
Tyndrum,02/10/2019 16:00,11.3,,,,0,,57,,,-,,,,,,,3.2,
Tyndrum,02/10/2019 17:00,10.9,,,,0,,65,,,-,,,,,,,4.8,
Tyndrum,02/10/2019 18:00,9.5,,,13.7,0,0,67,,,-,,,,,,,3.8,
Tyndrum,02/10/2019 19:00,7.9,,,,0,,72,,,-,,,,,,,3.2,
Tyndrum,02/10/2019 20:00,6.8,,,,0,,83,,,-,,,,,,,4.2,
Tyndrum,02/10/2019 21:00,6.6,,,,0,,84,,,-,,,,,,,4.2,
Tyndrum,02/10/2019 22:00,5.5,,,,0,,90,,,-,,,,,,,4,
Tyndrum,02/10/2019 23:00,4.1,,,,0,,91,,,-,,,,,,,2.9,
Tyndrum,03/10/2019 00:00,3.8,,,,0,0,93,,,-,,,,,,,2.8,
Tyndrum,03/10/2019 01:00,1.7,,,,0,,93,,,-,,,,,,,0.8,
Tyndrum,03/10/2019 02:00,-0.1,,,,0,,95,,,-,,,,,,,-0.8,
Tyndrum,03/10/2019 03:00,-0.5,,,,0,,96,,,-,,,,,,,-1,
Tyndrum,03/10/2019 04:00,-1.5,,,,0,,97,,,-,,,,,,,-1.9,
Tyndrum,03/10/2019 05:00,-1.7,,,,0,,97,,,-,,,,,,,-2,
Tyndrum,03/10/2019 06:00,-2.1,,-2.5,,0,0,97,,,-,,,,,,,-2.4,
Tyndrum,03/10/2019 07:00,-1.3,,,,0,,98,,,-,,,,,,,-1.5,
Tyndrum,03/10/2019 08:00,1,,,,0,,99,,,-,,,,,,,0.9,
Tyndrum,03/10/2019 09:00,5.4,,,,0,,98,,,-,,,,,,,5.2,
Tyndrum,03/10/2019 10:00,8.1,,,,0,,81,,,-,,,,,,,5.2,
Tyndrum,03/10/2019 11:00,9.4,,,,0,,73,,,-,,,,,,,4.9,
Tyndrum,03/10/2019 12:00,9.6,,,,0,0,65,,,-,,,,,,,3.5,
Tyndrum,03/10/2019 13:00,10.2,,,,0,,63,,,-,,,,,,,3.5,
Tyndrum,03/10/2019 14:00,10.2,,,,0,,62,,,-,,,,,,,3.4,
Tyndrum,03/10/2019 15:00,9.7,,,,0,,62,,,-,,,,,,,3,
Tyndrum,03/10/2019 16:00,9.3,,,,0,,67,,,-,,,,,,,3.5,
Tyndrum,03/10/2019 17:00,9.2,,,,0,,70,,,-,,,,,,,4.2,
Tyndrum,03/10/2019 18:00,9.2,,,10.5,0,0,71,,,-,,,,,,,4.3,
Tyndrum,03/10/2019 19:00,8.8,,,,0,,74,,,-,,,,,,,4.6,
Tyndrum,03/10/2019 20:00,8.1,,,,0,,79,,,-,,,,,,,4.7,
Tyndrum,03/10/2019 21:00,7.6,,,,0.2,,84,,,-,,,,,,,5.2,
Tyndrum,03/10/2019 22:00,7.7,,,,0.2,,87,,,-,,,,,,,5.8,
Tyndrum,03/10/2019 23:00,7.8,,,,0.2,,86,,,-,,,,,,,5.7,
Tyndrum,04/10/2019 00:00,7.6,,,,0.4,1,87,,,-,,,,,,,5.7,
Tyndrum,04/10/2019 01:00,8,,,,0,,88,,,-,,,,,,,6.2,
Tyndrum,04/10/2019 02:00,8.5,,,,0,,90,,,-,,,,,,,7,
Tyndrum,04/10/2019 03:00,8.8,,,,0,,89,,,-,,,,,,,7.1,
Tyndrum,04/10/2019 04:00,8.8,,,,0,,89,,,-,,,,,,,7.1,
Tyndrum,04/10/2019 05:00,8.6,,,,0.2,,89,,,-,,,,,,,7,
Tyndrum,04/10/2019 06:00,9,,7.5,,0,0,87,,,-,,,,,,,7,
Tyndrum,04/10/2019 07:00,9,,,,0,,88,,,-,,,,,,,7.2,
Tyndrum,04/10/2019 08:00,9.3,,,,0,,87,,,-,,,,,,,7.3,
Tyndrum,04/10/2019 09:00,9.6,,,,0,,86,,,-,,,,,,,7.4,
Tyndrum,04/10/2019 10:00,10.4,,,,0,,83,,,-,,,,,,,7.8,
Tyndrum,04/10/2019 11:00,10.3,,,,0,,85,,,-,,,,,,,7.9,
Tyndrum,04/10/2019 12:00,10.9,,,,0,0,81,,,-,,,,,,,7.9,
Tyndrum,04/10/2019 13:00,10.9,,,,0,,85,,,-,,,,,,,8.5,
Tyndrum,04/10/2019 14:00,11.3,,,,0,,77,,,-,,,,,,,7.6,
Tyndrum,04/10/2019 15:00,11.2,,,,0,,78,,,-,,,,,,,7.6,
Tyndrum,04/10/2019 16:00,11.1,,,,0,,81,,,-,,,,,,,8.1,
Tyndrum,04/10/2019 17:00,10.9,,,,0,,76,,,-,,,,,,,7,
Tyndrum,04/10/2019 18:00,9.8,,,11.4,0,0,79,,,-,,,,,,,6.5,
Tyndrum,04/10/2019 19:00,9.9,,,,0,,77,,,-,,,,,,,6.1,
Tyndrum,04/10/2019 20:00,9.7,,,,0,,77,,,-,,,,,,,5.9,
Tyndrum,04/10/2019 21:00,9.6,,,,0,,79,,,-,,,,,,,6.2,
Tyndrum,04/10/2019 22:00,9.4,,,,0,,79,,,-,,,,,,,6.1,
Tyndrum,04/10/2019 23:00,9.2,,,,0,,78,,,-,,,,,,,5.7,
Tyndrum,05/10/2019 00:00,8.9,,,,0,0,79,,,-,,,,,,,5.6,
Tyndrum,05/10/2019 01:00,8.9,,,,0,,80,,,-,,,,,,,5.8,
Tyndrum,05/10/2019 02:00,8.6,,,,0,,81,,,-,,,,,,,5.6,
Tyndrum,05/10/2019 03:00,8.9,,,,0,,80,,,-,,,,,,,5.8,
Tyndrum,05/10/2019 04:00,8.5,,,,0,,83,,,-,,,,,,,5.9,
Tyndrum,05/10/2019 05:00,8.2,,,,0,,87,,,-,,,,,,,6.2,
Tyndrum,05/10/2019 06:00,8.4,,8.1,,0,0,86,,,-,,,,,,,6.3,
Tyndrum,05/10/2019 07:00,8.5,,,,0,,87,,,-,,,,,,,6.6,
Tyndrum,05/10/2019 08:00,8.8,,,,0,,89,,,-,,,,,,,7.2,
Tyndrum,05/10/2019 09:00,9.9,,,,0,,81,,,-,,,,,,,6.9,
Tyndrum,05/10/2019 10:00,10,,,,0,,82,,,-,,,,,,,7.1,
Tyndrum,05/10/2019 11:00,9.7,,,,0.2,,87,,,-,,,,,,,7.7,
Tyndrum,05/10/2019 12:00,9.8,,,,0.8,1,87,,,-,,,,,,,7.9,
Tyndrum,05/10/2019 13:00,10.1,,,,0.4,,87,,,-,,,,,,,8.1,
Tyndrum,05/10/2019 14:00,10.3,,,,0.8,,87,,,-,,,,,,,8.3,
Tyndrum,05/10/2019 15:00,10.5,,,,0.4,,86,,,-,,,,,,,8.4,
Tyndrum,05/10/2019 16:00,10.8,,,,0,,84,,,-,,,,,,,8.3,
Tyndrum,05/10/2019 17:00,10.5,,,,0,,86,,,-,,,,,,,8.4,
Tyndrum,05/10/2019 18:00,10.4,,,10.9,0,2,89,,,-,,,,,,,8.7,
Tyndrum,05/10/2019 19:00,10.2,,,,0.8,,91,,,-,,,,,,,8.9,
Tyndrum,05/10/2019 20:00,10.2,,,,0.6,,91,,,-,,,,,,,8.9,
Tyndrum,05/10/2019 21:00,10.4,,,,0.2,,91,,,-,,,,,,,9,
Tyndrum,05/10/2019 22:00,10.2,,,,1,,93,,,-,,,,,,,9.2,
Tyndrum,05/10/2019 23:00,10.6,,,,1.4,,90,,,-,,,,,,,9.1,
Tyndrum,06/10/2019 00:00,10.7,,,,1.2,5,90,,,-,,,,,,,9.2,
Tyndrum,06/10/2019 01:00,10.6,,,,5.6,,91,,,-,,,,,,,9.3,
Tyndrum,06/10/2019 02:00,10.5,,,,4.6,,92,,,-,,,,,,,9.4,
Tyndrum,06/10/2019 03:00,10.7,,,,4.6,,91,,,-,,,,,,,9.4,
Tyndrum,06/10/2019 04:00,10.5,,,,3.8,,91,,,-,,,,,,,9.1,
Tyndrum,06/10/2019 05:00,10.1,,,,2.4,,90,,,-,,,,,,,8.6,
Tyndrum,06/10/2019 06:00,9.8,,9.8,,2.2,23,90,,,-,,,,,,,8.4,
Tyndrum,06/10/2019 07:00,9.5,,,,1.4,,88,,,-,,,,,,,7.7,
Tyndrum,06/10/2019 08:00,9.6,,,,1.4,,86,,,-,,,,,,,7.5,
Tyndrum,06/10/2019 09:00,9.4,,,,0.6,,92,,,-,,,,,,,8.2,
Tyndrum,06/10/2019 10:00,10,,,,0.2,,95,,,-,,,,,,,9.3,
Tyndrum,06/10/2019 11:00,11.2,,,,0.2,,89,,,-,,,,,,,9.5,
Tyndrum,06/10/2019 12:00,10.4,,,,0,4,87,,,-,,,,,,,8.4,
Tyndrum,06/10/2019 13:00,10.4,,,,0,,85,,,-,,,,,,,8,
Tyndrum,06/10/2019 14:00,10.3,,,,0,,85,,,-,,,,,,,7.9,
Tyndrum,06/10/2019 15:00,10.2,,,,0,,87,,,-,,,,,,,8.3,
Tyndrum,06/10/2019 16:00,9.7,,,,0.4,,89,,,-,,,,,,,8.1,
Tyndrum,06/10/2019 17:00,9.7,,,,0,,92,,,-,,,,,,,8.5,
Tyndrum,06/10/2019 18:00,9.4,,,11.3,0,0,89,,,-,,,,,,,7.8,
Tyndrum,06/10/2019 19:00,9.6,,,,0,,86,,,-,,,,,,,7.5,
Tyndrum,06/10/2019 20:00,10,,,,0,,85,,,-,,,,,,,7.6,
Tyndrum,06/10/2019 21:00,10.3,,,,0,,83,,,-,,,,,,,7.6,
Tyndrum,06/10/2019 22:00,10.4,,,,0,,84,,,-,,,,,,,7.9,
Tyndrum,06/10/2019 23:00,10.7,,,,0,,82,,,-,,,,,,,7.9,
Tyndrum,07/10/2019 00:00,10.7,,,,0,0,82,,,-,,,,,,,7.9,
Tyndrum,07/10/2019 01:00,10.8,,,,0,,83,,,-,,,,,,,8.1,
Tyndrum,07/10/2019 02:00,11,,,,0,,83,,,-,,,,,,,8.3,
Tyndrum,07/10/2019 03:00,11.1,,,,0,,83,,,-,,,,,,,8.5,
Tyndrum,07/10/2019 04:00,11.4,,,,0.2,,81,,,-,,,,,,,8.4,
Tyndrum,07/10/2019 05:00,11.5,,,,0,,77,,,-,,,,,,,7.7,
Tyndrum,07/10/2019 06:00,10.8,,9.4,,0,0.2,84,,,-,,,,,,,8.3,
Tyndrum,07/10/2019 07:00,10.4,,,,0.2,,87,,,-,,,,,,,8.4,
Tyndrum,07/10/2019 08:00,9.8,,,,0.6,,89,,,-,,,,,,,8.2,
Tyndrum,07/10/2019 09:00,10.2,,,,0.8,,91,,,-,,,,,,,8.9,
Tyndrum,07/10/2019 10:00,10.6,,,,0.8,,91,,,-,,,,,,,9.3,
Tyndrum,07/10/2019 11:00,11.2,,,,2.4,,91,,,-,,,,,,,9.9,
Tyndrum,07/10/2019 12:00,12.2,,,,0,5,88,,,-,,,,,,,10.4,
Tyndrum,07/10/2019 13:00,13.5,,,,0,,69,,,-,,,,,,,8,
Tyndrum,07/10/2019 14:00,13.4,,,,0.4,,73,,,-,,,,,,,8.8,
Tyndrum,07/10/2019 15:00,13.5,,,,0,,65,,,-,,,,,,,7.2,
Tyndrum,07/10/2019 16:00,13.3,,,,0.2,,70,,,-,,,,,,,8.1,
Tyndrum,07/10/2019 17:00,10.9,,,,0.8,,81,,,-,,,,,,,7.8,
Tyndrum,07/10/2019 18:00,11.7,,,14.5,0,1,72,,,-,,,,,,,7,
Tyndrum,07/10/2019 19:00,11,,,,0,,78,,,-,,,,,,,7.5,
Tyndrum,07/10/2019 20:00,11.4,,,,1.4,,81,,,-,,,,,,,8.3,
Tyndrum,07/10/2019 21:00,11,,,,1.2,,83,,,-,,,,,,,8.4,
Tyndrum,07/10/2019 22:00,10.8,,,,0.4,,82,,,-,,,,,,,8,
Tyndrum,07/10/2019 23:00,10.6,,,,0.4,,84,,,-,,,,,,,8.1,
Tyndrum,08/10/2019 00:00,11,,,,0,3,78,,,-,,,,,,,7.4,
Tyndrum,08/10/2019 01:00,10.5,,,,0.4,,84,,,-,,,,,,,8,
Tyndrum,08/10/2019 02:00,9.9,,,,1.4,,87,,,-,,,,,,,8,
Tyndrum,08/10/2019 03:00,10.5,,,,1.2,,81,,,-,,,,,,,7.5,
Tyndrum,08/10/2019 04:00,10.1,,,,0.8,,81,,,-,,,,,,,7.1,
Tyndrum,08/10/2019 05:00,8.7,,,,5,,80,,,-,,,,,,,5.6,
Tyndrum,08/10/2019 06:00,9.1,,8.2,,0.8,10,88,,,-,,,,,,,7.3,
Tyndrum,08/10/2019 07:00,8.6,,,,1,,84,,,-,,,,,,,6.1,
Tyndrum,08/10/2019 08:00,8.7,,,,2.6,,89,,,-,,,,,,,7,
Tyndrum,08/10/2019 09:00,9.6,,,,1.4,,84,,,-,,,,,,,7.2,
Tyndrum,08/10/2019 10:00,9.8,,,,2,,84,,,-,,,,,,,7.3,
Tyndrum,08/10/2019 11:00,10,,,,0.8,,85,,,-,,,,,,,7.6,
Tyndrum,08/10/2019 12:00,9.6,,,,2.8,11,88,,,-,,,,,,,7.8,
Tyndrum,08/10/2019 13:00,10,,,,7,,88,,,-,,,,,,,8.2,
Tyndrum,08/10/2019 14:00,10,,,,3.6,,89,,,-,,,,,,,8.3,
Tyndrum,08/10/2019 15:00,10.1,,,,3.6,,86,,,-,,,,,,,8,
Tyndrum,08/10/2019 16:00,9.8,,,,2,,82,,,-,,,,,,,7,
Tyndrum,08/10/2019 17:00,9.7,,,,1.2,,88,,,-,,,,,,,7.9,
Tyndrum,08/10/2019 18:00,9.2,,,10.4,2,19,89,,,-,,,,,,,7.6,
Tyndrum,08/10/2019 19:00,9.9,,,,2.2,,86,,,-,,,,,,,7.7,
Tyndrum,08/10/2019 20:00,9.5,,,,1.8,,87,,,-,,,,,,,7.5,
Tyndrum,08/10/2019 21:00,9.2,,,,1.4,,89,,,-,,,,,,,7.6,
Tyndrum,08/10/2019 22:00,9.9,,,,1.4,,82,,,-,,,,,,,7,
Tyndrum,08/10/2019 23:00,9.4,,,,1.4,,89,,,-,,,,,,,7.7,
Tyndrum,09/10/2019 00:00,9.8,,,,0.8,9,82,,,-,,,,,,,7,
Tyndrum,09/10/2019 01:00,9.3,,,,1,,87,,,-,,,,,,,7.3,
Tyndrum,09/10/2019 02:00,10.1,,,,0.2,,77,,,-,,,,,,,6.3,
Tyndrum,09/10/2019 03:00,10.1,,,,0.4,,76,,,-,,,,,,,6.1,
Tyndrum,09/10/2019 04:00,9.8,,,,1.2,,79,,,-,,,,,,,6.4,
Tyndrum,09/10/2019 05:00,9.3,,,,1.2,,83,,,-,,,,,,,6.7,
Tyndrum,09/10/2019 06:00,8.8,,8.6,,1.4,5,87,,,-,,,,,,,6.9,
Tyndrum,09/10/2019 07:00,9.2,,,,0.2,,82,,,-,,,,,,,6.4,
Tyndrum,09/10/2019 08:00,9.2,,,,1.8,,82,,,-,,,,,,,6.3,
Tyndrum,09/10/2019 09:00,8.8,,,,2,,90,,,-,,,,,,,7.3,
Tyndrum,09/10/2019 10:00,9.8,,,,0.6,,83,,,-,,,,,,,7.1,
Tyndrum,09/10/2019 11:00,10.1,,,,0.8,,78,,,-,,,,,,,6.6,
Tyndrum,09/10/2019 12:00,9.5,,,,1,6,83,,,-,,,,,,,6.9,
Tyndrum,09/10/2019 13:00,8.6,,,,3,,89,,,-,,,,,,,6.9,
Tyndrum,09/10/2019 14:00,8.6,,,,3.6,,87,,,-,,,,,,,6.7,
Tyndrum,09/10/2019 15:00,9,,,,3.2,,87,,,-,,,,,,,7.1,
Tyndrum,09/10/2019 16:00,9.4,,,,0.6,,85,,,-,,,,,,,7.1,
Tyndrum,09/10/2019 17:00,9.4,,,,0.2,,83,,,-,,,,,,,6.7,
Tyndrum,09/10/2019 18:00,8.8,,,10.4,1,12,86,,,-,,,,,,,6.7,
Tyndrum,09/10/2019 19:00,9.3,,,,0.2,,85,,,-,,,,,,,7,
Tyndrum,09/10/2019 20:00,9.4,,,,1.4,,87,,,-,,,,,,,7.4,
Tyndrum,09/10/2019 21:00,9.4,,,,1,,90,,,-,,,,,,,7.9,
Tyndrum,09/10/2019 22:00,9.6,,,,0.8,,89,,,-,,,,,,,8,
Tyndrum,09/10/2019 23:00,10.1,,,,1.8,,89,,,-,,,,,,,8.5,
Tyndrum,10/10/2019 00:00,9.8,,,,3.4,9,92,,,-,,,,,,,8.7,
Tyndrum,10/10/2019 01:00,9.8,,,,3.8,,92,,,-,,,,,,,8.6,
Tyndrum,10/10/2019 02:00,9.8,,,,3.8,,93,,,-,,,,,,,8.8,
Tyndrum,10/10/2019 03:00,9.7,,,,0.8,,90,,,-,,,,,,,8.3,
Tyndrum,10/10/2019 04:00,9.6,,,,0.4,,92,,,-,,,,,,,8.4,
Tyndrum,10/10/2019 05:00,9.4,,,,1.2,,92,,,-,,,,,,,8.3,
Tyndrum,10/10/2019 06:00,9.1,,8.6,,0,10,93,,,-,,,,,,,8.1,
Tyndrum,10/10/2019 07:00,8.9,,,,1.4,,94,,,-,,,,,,,8.1,
Tyndrum,10/10/2019 08:00,8.9,,,,0.4,,94,,,-,,,,,,,8.1,
Tyndrum,10/10/2019 09:00,9.4,,,,0,,94,,,-,,,,,,,8.6,
Tyndrum,10/10/2019 10:00,10.1,,,,0.2,,87,,,-,,,,,,,8.2,
Tyndrum,10/10/2019 11:00,11,,,,0.4,,74,,,-,,,,,,,6.7,
Tyndrum,10/10/2019 12:00,11.1,,,,0,2,73,,,-,,,,,,,6.5,
Tyndrum,10/10/2019 13:00,9.7,,,,2,,88,,,-,,,,,,,7.9,
Tyndrum,10/10/2019 14:00,9.5,,,,1.6,,89,,,-,,,,,,,7.9,
Tyndrum,10/10/2019 15:00,9,,,,1.6,,90,,,-,,,,,,,7.6,
Tyndrum,10/10/2019 16:00,8.8,,,,2.4,,94,,,-,,,,,,,7.9,
Tyndrum,10/10/2019 17:00,9.5,,,,1.8,,93,,,-,,,,,,,8.5,
Tyndrum,10/10/2019 18:00,11,,,11.4,0,10,86,,,-,,,,,,,8.9,
Tyndrum,10/10/2019 19:00,11.2,,,,1.2,,86,,,-,,,,,,,9.1,
Tyndrum,10/10/2019 20:00,11.2,,,,3.2,,86,,,-,,,,,,,9.1,
Tyndrum,10/10/2019 21:00,11.5,,,,2.4,,86,,,-,,,,,,,9.4,
Tyndrum,10/10/2019 22:00,11.5,,,,0,,74,,,-,,,,,,,7.2,
Tyndrum,10/10/2019 23:00,11.3,,,,0.6,,75,,,-,,,,,,,7.2,
Tyndrum,11/10/2019 00:00,10.6,,,,0.6,8,84,,,-,,,,,,,8.1,
Tyndrum,11/10/2019 01:00,10.4,,,,1.4,,83,,,-,,,,,,,7.8,
Tyndrum,11/10/2019 02:00,10.2,,,,2,,82,,,-,,,,,,,7.3,
Tyndrum,11/10/2019 03:00,9.9,,,,0.6,,86,,,-,,,,,,,7.8,
Tyndrum,11/10/2019 04:00,10,,,,0.4,,85,,,-,,,,,,,7.7,
Tyndrum,11/10/2019 05:00,9.9,,,,0.8,,83,,,-,,,,,,,7.2,
Tyndrum,11/10/2019 06:00,10,,9.7,,0.6,6,83,,,-,,,,,,,7.3,
Tyndrum,11/10/2019 07:00,9.2,,,,3.4,,86,,,-,,,,,,,7.1,
Tyndrum,11/10/2019 08:00,10,,,,0.4,,79,,,-,,,,,,,6.6,
Tyndrum,11/10/2019 09:00,10.3,,,,0.4,,78,,,-,,,,,,,6.7,
Tyndrum,11/10/2019 10:00,10.6,,,,0.4,,79,,,-,,,,,,,7.2,
Tyndrum,11/10/2019 11:00,9.9,,,,3.2,,77,,,-,,,,,,,6.2,
Tyndrum,11/10/2019 12:00,10.2,,,,0.4,8,75,,,-,,,,,,,6.1,
Tyndrum,11/10/2019 13:00,10.5,,,,0.2,,76,,,-,,,,,,,6.5,
Tyndrum,11/10/2019 14:00,10.5,,,,0.6,,76,,,-,,,,,,,6.6,
Tyndrum,11/10/2019 15:00,11.4,,,,0.2,,65,,,-,,,,,,,5.1,
Tyndrum,11/10/2019 16:00,10.8,,,,0,,69,,,-,,,,,,,5.4,
Tyndrum,11/10/2019 17:00,10.4,,,,0,,72,,,-,,,,,,,5.7,
Tyndrum,11/10/2019 18:00,9.1,,,11.8,2.4,4,83,,,-,,,,,,,6.5,
Tyndrum,11/10/2019 19:00,9.2,,,,1.2,,86,,,-,,,,,,,7.1,
Tyndrum,11/10/2019 20:00,8.8,,,,0.2,,89,,,-,,,,,,,7.2,
Tyndrum,11/10/2019 21:00,8.6,,,,0.4,,92,,,-,,,,,,,7.5,
Tyndrum,11/10/2019 22:00,8.4,,,,0.2,,90,,,-,,,,,,,7,
Tyndrum,11/10/2019 23:00,8.1,,,,0,,90,,,-,,,,,,,6.6,
Tyndrum,12/10/2019 00:00,7.2,,,,0,2,93,,,-,,,,,,,6.3,
Tyndrum,12/10/2019 01:00,6.6,,,,0,,95,,,-,,,,,,,5.9,
Tyndrum,12/10/2019 02:00,5,,,,0.2,,93,,,-,,,,,,,4.1,
Tyndrum,12/10/2019 03:00,4.7,,,,0,,96,,,-,,,,,,,4.2,
Tyndrum,12/10/2019 04:00,4.6,,,,0,,97,,,-,,,,,,,4.2,
Tyndrum,12/10/2019 05:00,4.9,,,,0,,97,,,-,,,,,,,4.6,
Tyndrum,12/10/2019 06:00,3.2,,3.2,,0,0,95,,,-,,,,,,,2.6,
Tyndrum,12/10/2019 07:00,4.1,,,,0,,97,,,-,,,,,,,3.8,
Tyndrum,12/10/2019 08:00,5.8,,,,0.6,,98,,,-,,,,,,,5.6,
Tyndrum,12/10/2019 09:00,7.2,,,,0,,99,,,-,,,,,,,7.1,
Tyndrum,12/10/2019 10:00,8.3,,,,0.6,,97,,,-,,,,,,,8,
Tyndrum,12/10/2019 11:00,10,,,,0,,86,,,-,,,,,,,7.8,
Tyndrum,12/10/2019 12:00,8.7,,,,1,2,88,,,-,,,,,,,6.9,
Tyndrum,12/10/2019 13:00,11.7,,,,0.2,,81,,,-,,,,,,,8.6,
Tyndrum,12/10/2019 14:00,10.7,,,,0,,72,,,-,,,,,,,6,
Tyndrum,12/10/2019 15:00,11.5,,,,0,,68,,,-,,,,,,,5.9,
Tyndrum,12/10/2019 16:00,9.5,,,,0,,80,,,-,,,,,,,6.4,
Tyndrum,12/10/2019 17:00,8.8,,,,0,,83,,,-,,,,,,,6.1,
Tyndrum,12/10/2019 18:00,8.1,,,11.8,0.4,1,85,,,-,,,,,,,5.9,
Tyndrum,12/10/2019 19:00,7.1,,,,0,,93,,,-,,,,,,,6.2,
Tyndrum,12/10/2019 20:00,6.3,,,,0,,95,,,-,,,,,,,5.6,
Tyndrum,12/10/2019 21:00,5.6,,,,0,,96,,,-,,,,,,,5.1,
Tyndrum,12/10/2019 22:00,5.5,,,,0,,97,,,-,,,,,,,5.1,
Tyndrum,12/10/2019 23:00,5,,,,0.2,,98,,,-,,,,,,,4.8,
Tyndrum,13/10/2019 00:00,5.3,,,,0,0.2,98,,,-,,,,,,,5.1,
Tyndrum,13/10/2019 01:00,5.2,,,,0,,98,,,-,,,,,,,5,
Tyndrum,13/10/2019 02:00,5.2,,,,0,,98,,,-,,,,,,,5,
Tyndrum,13/10/2019 03:00,5.1,,,,0,,98,,,-,,,,,,,4.9,
Tyndrum,13/10/2019 04:00,5.1,,,,0,,98,,,-,,,,,,,4.9,
Tyndrum,13/10/2019 05:00,4.8,,,,0,,99,,,-,,,,,,,4.7,
Tyndrum,13/10/2019 06:00,4.9,,4.7,,0,0,99,,,-,,,,,,,4.8,
Tyndrum,13/10/2019 07:00,5.1,,,,0,,99,,,-,,,,,,,5,
Tyndrum,13/10/2019 08:00,5,,,,0,,99,,,-,,,,,,,4.9,
Tyndrum,13/10/2019 09:00,5.9,,,,0,,99,,,-,,,,,,,5.8,
Tyndrum,13/10/2019 10:00,6.6,,,,0,,99,,,-,,,,,,,6.5,
Tyndrum,13/10/2019 11:00,7.7,,,,0,,99,,,-,,,,,,,7.6,
Tyndrum,13/10/2019 12:00,8.6,,,,0,0,95,,,-,,,,,,,7.9,
Tyndrum,13/10/2019 13:00,9.7,,,,0,,86,,,-,,,,,,,7.6,
Tyndrum,13/10/2019 14:00,9.9,,,,0,,85,,,-,,,,,,,7.6,
Tyndrum,13/10/2019 15:00,9.6,,,,0,,89,,,-,,,,,,,7.9,
Tyndrum,13/10/2019 16:00,9.1,,,,0.2,,92,,,-,,,,,,,7.9,
Tyndrum,13/10/2019 17:00,8.8,,,,0.2,,93,,,-,,,,,,,7.8,
Tyndrum,13/10/2019 18:00,8.2,,,10.1,0.4,0.8,95,,,-,,,,,,,7.6,
Tyndrum,13/10/2019 19:00,7.9,,,,1.2,,95,,,-,,,,,,,7.3,
Tyndrum,13/10/2019 20:00,7.7,,,,0.8,,96,,,-,,,,,,,7.2,
Tyndrum,13/10/2019 21:00,7.6,,,,0.6,,97,,,-,,,,,,,7.2,
Tyndrum,13/10/2019 22:00,7.6,,,,0.4,,97,,,-,,,,,,,7.3,
Tyndrum,13/10/2019 23:00,7.3,,,,0,,97,,,-,,,,,,,7,
Tyndrum,14/10/2019 00:00,7.1,,,,0,3,98,,,-,,,,,,,6.9,
Tyndrum,14/10/2019 01:00,7,,,,0,,97,,,-,,,,,,,6.7,
Tyndrum,14/10/2019 02:00,6.4,,,,0,,97,,,-,,,,,,,6.1,
Tyndrum,14/10/2019 03:00,6,,,,0,,98,,,-,,,,,,,5.8,
Tyndrum,14/10/2019 04:00,6.3,,,,0,,98,,,-,,,,,,,6.1,
Tyndrum,14/10/2019 05:00,6.2,,,,0.2,,99,,,-,,,,,,,6.1,
Tyndrum,14/10/2019 06:00,5.6,,5.5,,0,0,99,,,-,,,,,,,5.5,
Tyndrum,14/10/2019 07:00,6,,,,0,,98,,,-,,,,,,,5.8,
Tyndrum,14/10/2019 08:00,6.1,,,,0,,99,,,-,,,,,,,6,
Tyndrum,14/10/2019 09:00,7,,,,0,,99,,,-,,,,,,,6.9,
Tyndrum,14/10/2019 10:00,8.8,,,,0,,99,,,-,,,,,,,8.7,
Tyndrum,14/10/2019 11:00,11.3,,,,0,,84,,,-,,,,,,,8.7,
Tyndrum,14/10/2019 12:00,12.2,,,,0,0,70,,,-,,,,,,,7,
Tyndrum,14/10/2019 13:00,11.1,,,,0,,75,,,-,,,,,,,6.9,
Tyndrum,14/10/2019 14:00,11.4,,,,0,,72,,,-,,,,,,,6.7,
Tyndrum,14/10/2019 15:00,11.6,,,,0,,76,,,-,,,,,,,7.6,
Tyndrum,14/10/2019 16:00,10.8,,,,0,,75,,,-,,,,,,,6.6,
Tyndrum,14/10/2019 17:00,9.1,,,,0,,89,,,-,,,,,,,7.4,
Tyndrum,14/10/2019 18:00,9.2,,,12.4,0,0,84,,,-,,,,,,,6.8,
Tyndrum,14/10/2019 19:00,9.4,,,,0,,82,,,-,,,,,,,6.6,
Tyndrum,14/10/2019 20:00,9.3,,,,0,,83,,,-,,,,,,,6.6,
Tyndrum,14/10/2019 21:00,9.4,,,,0,,80,,,-,,,,,,,6.2,
Tyndrum,14/10/2019 22:00,9.1,,,,0,,81,,,-,,,,,,,6.1,
Tyndrum,14/10/2019 23:00,9,,,,0,,82,,,-,,,,,,,6.1,
Tyndrum,15/10/2019 00:00,8.5,,,,0,0,86,,,-,,,,,,,6.4,
Tyndrum,15/10/2019 01:00,8.3,,,,0,,87,,,-,,,,,,,6.4,
Tyndrum,15/10/2019 02:00,7.8,,,,0,,90,,,-,,,,,,,6.3,
Tyndrum,15/10/2019 03:00,7.9,,,,0,,92,,,-,,,,,,,6.8,
Tyndrum,15/10/2019 04:00,8.2,,,,0,,94,,,-,,,,,,,7.3,
Tyndrum,15/10/2019 05:00,8.7,,,,0,,90,,,-,,,,,,,7.3,
Tyndrum,15/10/2019 06:00,8.4,,7.6,,0,0,92,,,-,,,,,,,7.3,
Tyndrum,15/10/2019 07:00,8.1,,,,0,,89,,,-,,,,,,,6.5,
Tyndrum,15/10/2019 08:00,6.7,,,,0,,92,,,-,,,,,,,5.5,
Tyndrum,15/10/2019 09:00,8.8,,,,0,,91,,,-,,,,,,,7.5,
Tyndrum,15/10/2019 10:00,10.7,,,,0,,83,,,-,,,,,,,8,
Tyndrum,15/10/2019 11:00,11.5,,,,0,,71,,,-,,,,,,,6.6,
Tyndrum,15/10/2019 12:00,11.4,,,,0,0,75,,,-,,,,,,,7.2,
Tyndrum,15/10/2019 13:00,12.5,,,,0,,70,,,-,,,,,,,7.2,
Tyndrum,15/10/2019 14:00,12.3,,,,0,,68,,,-,,,,,,,6.7,
Tyndrum,15/10/2019 15:00,13,,,,0,,70,,,-,,,,,,,7.7,
Tyndrum,15/10/2019 16:00,10.7,,,,0,,77,,,-,,,,,,,7,
Tyndrum,15/10/2019 17:00,9.1,,,,0,,87,,,-,,,,,,,7.2,
Tyndrum,15/10/2019 18:00,9.7,,,13.5,0,0,84,,,-,,,,,,,7.3,
Tyndrum,15/10/2019 19:00,9.2,,,,0,,87,,,-,,,,,,,7.3,
Tyndrum,15/10/2019 20:00,9.5,,,,0,,89,,,-,,,,,,,7.8,
Tyndrum,15/10/2019 21:00,9.4,,,,0,,89,,,-,,,,,,,7.7,
Tyndrum,15/10/2019 22:00,9.3,,,,0,,90,,,-,,,,,,,7.8,
Tyndrum,15/10/2019 23:00,9.5,,,,0,,90,,,-,,,,,,,8,
Tyndrum,16/10/2019 00:00,9.8,,,,0,0,88,,,-,,,,,,,8,
Tyndrum,16/10/2019 01:00,9.9,,,,0,,87,,,-,,,,,,,8,
Tyndrum,16/10/2019 02:00,10.7,,,,0,,81,,,-,,,,,,,7.6,
Tyndrum,16/10/2019 03:00,10.8,,,,0,,81,,,-,,,,,,,7.7,
Tyndrum,16/10/2019 04:00,10.5,,,,0,,85,,,-,,,,,,,8.1,
Tyndrum,16/10/2019 05:00,9.8,,,,0.2,,90,,,-,,,,,,,8.4,
Tyndrum,16/10/2019 06:00,9.9,,9.1,,0.8,1,91,,,-,,,,,,,8.6,
Tyndrum,16/10/2019 07:00,9.4,,,,1.2,,94,,,-,,,,,,,8.6,
Tyndrum,16/10/2019 08:00,9.4,,,,0.4,,96,,,-,,,,,,,8.9,
Tyndrum,16/10/2019 09:00,9.6,,,,1,,97,,,-,,,,,,,9.2,
Tyndrum,16/10/2019 10:00,8.4,,,,0.6,,93,,,-,,,,,,,7.4,
Tyndrum,16/10/2019 11:00,9.1,,,,0,,93,,,-,,,,,,,8.1,
Tyndrum,16/10/2019 12:00,11.4,,,,0,3,84,,,-,,,,,,,8.9,
Tyndrum,16/10/2019 13:00,11.3,,,,0,,76,,,-,,,,,,,7.4,
Tyndrum,16/10/2019 14:00,10.7,,,,0,,74,,,-,,,,,,,6.4,
Tyndrum,16/10/2019 15:00,11.5,,,,0,,75,,,-,,,,,,,7.3,
Tyndrum,16/10/2019 16:00,10.6,,,,0,,70,,,-,,,,,,,5.5,
Tyndrum,16/10/2019 17:00,7.3,,,,0,,89,,,-,,,,,,,5.7,
Tyndrum,16/10/2019 18:00,4.9,,,12.9,0,0,94,,,-,,,,,,,4.1,
Tyndrum,16/10/2019 19:00,4.4,,,,0,,97,,,-,,,,,,,4,
Tyndrum,16/10/2019 20:00,3,,,,0,,95,,,-,,,,,,,2.4,
Tyndrum,16/10/2019 21:00,3.5,,,,0.2,,98,,,-,,,,,,,3.3,
Tyndrum,16/10/2019 22:00,2.9,,,,0,,97,,,-,,,,,,,2.6,
Tyndrum,16/10/2019 23:00,2.3,,,,0,,97,,,-,,,,,,,2,
Tyndrum,17/10/2019 00:00,2.1,,,,0.2,0.4,97,,,-,,,,,,,1.8,
Tyndrum,17/10/2019 01:00,1.7,,,,0,,99,,,-,,,,,,,1.6,
Tyndrum,17/10/2019 02:00,1.2,,,,0,,99,,,-,,,,,,,1.1,
Tyndrum,17/10/2019 03:00,1.5,,,,0,,99,,,-,,,,,,,1.4,
Tyndrum,17/10/2019 04:00,2.1,,,,0,,99,,,-,,,,,,,2,
Tyndrum,17/10/2019 05:00,2.5,,,,0,,99,,,-,,,,,,,2.4,
Tyndrum,17/10/2019 06:00,2.6,,0.8,,0,0,99,,,-,,,,,,,2.5,
Tyndrum,17/10/2019 07:00,3.2,,,,0,,100,,,-,,,,,,,3.2,
Tyndrum,17/10/2019 08:00,4.1,,,,0,,100,,,-,,,,,,,4.1,
Tyndrum,17/10/2019 09:00,5.5,,,,0,,100,,,-,,,,,,,5.5,
Tyndrum,17/10/2019 10:00,6.8,,,,0,,100,,,-,,,,,,,6.8,
Tyndrum,17/10/2019 11:00,8.7,,,,0,,98,,,-,,,,,,,8.5,
Tyndrum,17/10/2019 12:00,9.6,,,,0,0,95,,,-,,,,,,,8.9,
Tyndrum,17/10/2019 13:00,10.7,,,,0,,85,,,-,,,,,,,8.3,
Tyndrum,17/10/2019 14:00,10.9,,,,0,,74,,,-,,,,,,,6.6,
Tyndrum,17/10/2019 15:00,10.6,,,,0,,77,,,-,,,,,,,6.8,
Tyndrum,17/10/2019 16:00,10.4,,,,0,,76,,,-,,,,,,,6.5,
Tyndrum,17/10/2019 17:00,10,,,,0,,78,,,-,,,,,,,6.5,
Tyndrum,17/10/2019 18:00,8.9,,,11.5,0.4,0.4,90,,,-,,,,,,,7.4,
Tyndrum,17/10/2019 19:00,8.9,,,,0,,92,,,-,,,,,,,7.7,
Tyndrum,17/10/2019 20:00,9.3,,,,0.2,,87,,,-,,,,,,,7.4,
Tyndrum,17/10/2019 21:00,8.8,,,,0.4,,90,,,-,,,,,,,7.3,
Tyndrum,17/10/2019 22:00,9.1,,,,0.2,,87,,,-,,,,,,,7.1,
Tyndrum,17/10/2019 23:00,8.8,,,,0.4,,88,,,-,,,,,,,7,
Tyndrum,18/10/2019 00:00,7.7,,,,0.6,2,92,,,-,,,,,,,6.6,
Tyndrum,18/10/2019 01:00,6.3,,,,0,,93,,,-,,,,,,,5.3,
Tyndrum,18/10/2019 02:00,6.8,,,,0,,97,,,-,,,,,,,6.4,
Tyndrum,18/10/2019 03:00,7.1,,,,0,,97,,,-,,,,,,,6.7,
Tyndrum,18/10/2019 04:00,7.3,,,,0.2,,97,,,-,,,,,,,6.9,
Tyndrum,18/10/2019 05:00,7.2,,,,0,,97,,,-,,,,,,,6.9,
Tyndrum,18/10/2019 06:00,7.5,,6.2,,0,0,97,,,-,,,,,,,7.2,
Tyndrum,18/10/2019 07:00,7.5,,,,0.2,,95,,,-,,,,,,,6.9,
Tyndrum,18/10/2019 08:00,7.7,,,,0,,95,,,-,,,,,,,7.1,
Tyndrum,18/10/2019 09:00,8.4,,,,0,,95,,,-,,,,,,,7.7,
Tyndrum,18/10/2019 10:00,10,,,,0,,84,,,-,,,,,,,7.5,
Tyndrum,18/10/2019 11:00,10,,,,0,,85,,,-,,,,,,,7.6,
Tyndrum,18/10/2019 12:00,10.5,,,,0,0.2,78,,,-,,,,,,,7,
Tyndrum,18/10/2019 13:00,10.4,,,,0,,83,,,-,,,,,,,7.7,
Tyndrum,18/10/2019 14:00,12.1,,,,0,,69,,,-,,,,,,,6.7,
Tyndrum,18/10/2019 15:00,11.7,,,,0,,71,,,-,,,,,,,6.7,
Tyndrum,18/10/2019 16:00,11,,,,0,,70,,,-,,,,,,,5.9,
Tyndrum,18/10/2019 17:00,10.2,,,,0,,78,,,-,,,,,,,6.7,
Tyndrum,18/10/2019 18:00,9,,,12.2,0.2,0.2,87,,,-,,,,,,,7,
Tyndrum,18/10/2019 19:00,8.3,,,,0.6,,92,,,-,,,,,,,7.1,
Tyndrum,18/10/2019 20:00,7.9,,,,0,,90,,,-,,,,,,,6.5,
Tyndrum,18/10/2019 21:00,8,,,,0,,89,,,-,,,,,,,6.4,
Tyndrum,18/10/2019 22:00,7.9,,,,0,,87,,,-,,,,,,,6,
Tyndrum,18/10/2019 23:00,9.2,,,,0,,77,,,-,,,,,,,5.5,
Tyndrum,19/10/2019 00:00,8.6,,,,0.2,0.8,84,,,-,,,,,,,6.1,
Tyndrum,19/10/2019 01:00,7.6,,,,1,,94,,,-,,,,,,,6.7,
Tyndrum,19/10/2019 02:00,7.3,,,,0,,95,,,-,,,,,,,6.7,
Tyndrum,19/10/2019 03:00,8.9,,,,0,,84,,,-,,,,,,,6.4,
Tyndrum,19/10/2019 04:00,9.6,,,,0,,80,,,-,,,,,,,6.4,
Tyndrum,19/10/2019 05:00,9.5,,,,0,,82,,,-,,,,,,,6.6,
Tyndrum,19/10/2019 06:00,9.3,,7.1,,0.2,1.2,80,,,-,,,,,,,6.2,
Tyndrum,19/10/2019 07:00,9.7,,,,0,,70,,,-,,,,,,,4.5,
Tyndrum,19/10/2019 08:00,9,,,,0,,72,,,-,,,,,,,4.3,
Tyndrum,19/10/2019 09:00,9.5,,,,0,,64,,,-,,,,,,,3.1,
Tyndrum,19/10/2019 10:00,9.4,,,,0,,68,,,-,,,,,,,3.9,
Tyndrum,19/10/2019 11:00,9.5,,,,0,,68,,,-,,,,,,,3.9,
Tyndrum,19/10/2019 12:00,10.3,,,,0,0,61,,,-,,,,,,,3.3,
Tyndrum,19/10/2019 13:00,11.4,,,,0,,60,,,-,,,,,,,4,
Tyndrum,19/10/2019 14:00,10.3,,,,0,,64,,,-,,,,,,,3.8,
Tyndrum,19/10/2019 15:00,10,,,,0,,72,,,-,,,,,,,5.2,
Tyndrum,19/10/2019 16:00,9.2,,,,0,,77,,,-,,,,,,,5.5,
Tyndrum,19/10/2019 17:00,8.6,,,,0,,84,,,-,,,,,,,6.1,
Tyndrum,19/10/2019 18:00,8.6,,,11.7,0,0,78,,,-,,,,,,,5.1,
Tyndrum,19/10/2019 19:00,8.5,,,,0,,80,,,-,,,,,,,5.3,
Tyndrum,19/10/2019 20:00,7.8,,,,0,,79,,,-,,,,,,,4.4,
Tyndrum,19/10/2019 21:00,8.1,,,,0,,80,,,-,,,,,,,4.9,
Tyndrum,19/10/2019 22:00,8.5,,,,0,,78,,,-,,,,,,,4.9,
Tyndrum,19/10/2019 23:00,8.1,,,,0,,73,,,-,,,,,,,3.7,
Tyndrum,20/10/2019 00:00,7.7,,,,0,0,69,,,-,,,,,,,2.5,
Tyndrum,20/10/2019 01:00,6.7,,,,0,,73,,,-,,,,,,,2.3,
Tyndrum,20/10/2019 02:00,6.4,,,,0,,67,,,-,,,,,,,0.9,
Tyndrum,20/10/2019 03:00,6.4,,,,0,,70,,,-,,,,,,,1.4,
Tyndrum,20/10/2019 04:00,6.6,,,,0,,71,,,-,,,,,,,1.8,
Tyndrum,20/10/2019 05:00,6.2,,,,0,,73,,,-,,,,,,,1.9,
Tyndrum,20/10/2019 06:00,6.1,,5.5,,0,0,74,,,-,,,,,,,2,
Tyndrum,20/10/2019 07:00,6.2,,,,0,,74,,,-,,,,,,,2.1,
Tyndrum,20/10/2019 08:00,6,,,,0,,76,,,-,,,,,,,2.2,
Tyndrum,20/10/2019 09:00,6.6,,,,0,,75,,,-,,,,,,,2.5,
Tyndrum,20/10/2019 10:00,7.8,,,,0,,68,,,-,,,,,,,2.4,
Tyndrum,20/10/2019 11:00,9.3,,,,0,,64,,,-,,,,,,,2.9,
Tyndrum,20/10/2019 12:00,9.7,,,,0,0,59,,,-,,,,,,,2.2,
Tyndrum,20/10/2019 13:00,9.7,,,,0,,59,,,-,,,,,,,2.2,
Tyndrum,20/10/2019 14:00,9.3,,,,0,,63,,,-,,,,,,,2.7,
Tyndrum,20/10/2019 15:00,9.2,,,,0,,66,,,-,,,,,,,3.2,
Tyndrum,20/10/2019 16:00,8.3,,,,0,,64,,,-,,,,,,,2,
Tyndrum,20/10/2019 17:00,7.2,,,,0,,67,,,-,,,,,,,1.5,
Tyndrum,20/10/2019 18:00,6.6,,,10.1,0,0,68,,,-,,,,,,,1.2,
Tyndrum,20/10/2019 19:00,4.2,,,,0,,76,,,-,,,,,,,0.4,
Tyndrum,20/10/2019 20:00,2.7,,,,0,,86,,,-,,,,,,,0.7,
Tyndrum,20/10/2019 21:00,0.8,,,,0,,89,,,-,,,,,,,-0.8,
Tyndrum,20/10/2019 22:00,-0.1,,,,0,,92,,,-,,,,,,,-1.1,
Tyndrum,20/10/2019 23:00,-1.2,,,,0,,94,,,-,,,,,,,-2,
Tyndrum,21/10/2019 00:00,-2.1,,,,0,0,94,,,-,,,,,,,-2.8,
Tyndrum,21/10/2019 01:00,-2.2,,,,0,,96,,,-,,,,,,,-2.7,
Tyndrum,21/10/2019 02:00,-2.7,,,,0,,96,,,-,,,,,,,-3.2,
Tyndrum,21/10/2019 03:00,-3,,,,0,,96,,,-,,,,,,,-3.5,
Tyndrum,21/10/2019 04:00,-4.1,,,,0,,95,,,-,,,,,,,-4.7,
Tyndrum,21/10/2019 05:00,-4,,,,0,,96,,,-,,,,,,,-4.5,
Tyndrum,21/10/2019 06:00,-4.6,,-4.7,,0,0,95,,,-,,,,,,,-5.2,
Tyndrum,21/10/2019 07:00,-4.4,,,,0,,96,,,-,,,,,,,-4.9,
Tyndrum,21/10/2019 08:00,-4.2,,,,0,,97,,,-,,,,,,,-4.6,
Tyndrum,21/10/2019 09:00,-2.7,,,,0,,97,,,-,,,,,,,-3,
Tyndrum,21/10/2019 10:00,-0.4,,,,0,,98,,,-,,,,,,,-0.6,
Tyndrum,21/10/2019 11:00,4.5,,,,0,,89,,,-,,,,,,,3,
Tyndrum,21/10/2019 12:00,6.9,,,,0,0,85,,,-,,,,,,,4.6,
Tyndrum,21/10/2019 13:00,7.6,,,,0,,68,,,-,,,,,,,2.2,
Tyndrum,21/10/2019 14:00,7.7,,,,0,,68,,,-,,,,,,,2.2,
Tyndrum,21/10/2019 15:00,7.7,,,,0,,72,,,-,,,,,,,3,
Tyndrum,21/10/2019 16:00,7.8,,,,0,,73,,,-,,,,,,,3.3,
Tyndrum,21/10/2019 17:00,7.2,,,,0,,77,,,-,,,,,,,3.5,
Tyndrum,21/10/2019 18:00,7.2,,,8.1,0,0,76,,,-,,,,,,,3.4,
Tyndrum,21/10/2019 19:00,7.6,,,,0,,74,,,-,,,,,,,3.4,
Tyndrum,21/10/2019 20:00,7.6,,,,0,,78,,,-,,,,,,,4.1,
Tyndrum,21/10/2019 21:00,7.4,,,,0,,82,,,-,,,,,,,4.7,
Tyndrum,21/10/2019 22:00,7.8,,,,0,,83,,,-,,,,,,,5.1,
Tyndrum,21/10/2019 23:00,8.2,,,,0,,81,,,-,,,,,,,5.2,
Tyndrum,22/10/2019 00:00,8.4,,,,0,0,81,,,-,,,,,,,5.5,
Tyndrum,22/10/2019 01:00,8.3,,,,0,,85,,,-,,,,,,,6,
Tyndrum,22/10/2019 02:00,8.7,,,,0,,83,,,-,,,,,,,6.1,
Tyndrum,22/10/2019 03:00,8.9,,,,0,,83,,,-,,,,,,,6.3,
Tyndrum,22/10/2019 04:00,8.3,,,,0.2,,91,,,-,,,,,,,7,
Tyndrum,22/10/2019 05:00,8.4,,,,0,,91,,,-,,,,,,,7.1,
Tyndrum,22/10/2019 06:00,9.2,,7.2,,0,0.2,87,,,-,,,,,,,7.2,
Tyndrum,22/10/2019 07:00,9.3,,,,0,,84,,,-,,,,,,,6.9,
Tyndrum,22/10/2019 08:00,9.7,,,,0,,82,,,-,,,,,,,6.9,
Tyndrum,22/10/2019 09:00,9.7,,,,0,,85,,,-,,,,,,,7.4,
Tyndrum,22/10/2019 10:00,9.7,,,,0,,84,,,-,,,,,,,7.3,
Tyndrum,22/10/2019 11:00,9.3,,,,0,,88,,,-,,,,,,,7.5,
Tyndrum,22/10/2019 12:00,9.4,,,,0,0,89,,,-,,,,,,,7.8,
Tyndrum,22/10/2019 13:00,9.6,,,,0.2,,90,,,-,,,,,,,8.1,
Tyndrum,22/10/2019 14:00,9.8,,,,0,,89,,,-,,,,,,,8.2,
Tyndrum,22/10/2019 15:00,9.7,,,,0.2,,89,,,-,,,,,,,8,
Tyndrum,22/10/2019 16:00,9.7,,,,0,,87,,,-,,,,,,,7.8,
Tyndrum,22/10/2019 17:00,9.5,,,,0.2,,88,,,-,,,,,,,7.7,
Tyndrum,22/10/2019 18:00,9.4,,,10.3,0.2,0.8,87,,,-,,,,,,,7.5,
Tyndrum,22/10/2019 19:00,9.4,,,,0,,86,,,-,,,,,,,7.3,
Tyndrum,22/10/2019 20:00,9.5,,,,0,,84,,,-,,,,,,,7,
Tyndrum,22/10/2019 21:00,9.4,,,,0,,83,,,-,,,,,,,6.7,
Tyndrum,22/10/2019 22:00,9.8,,,,0.2,,81,,,-,,,,,,,6.7,
Tyndrum,22/10/2019 23:00,9.6,,,,0,,83,,,-,,,,,,,6.9,
Tyndrum,23/10/2019 00:00,9.6,,,,0,0.2,83,,,-,,,,,,,6.9,
Tyndrum,23/10/2019 01:00,9.5,,,,0,,83,,,-,,,,,,,6.8,
Tyndrum,23/10/2019 02:00,9.5,,,,0,,81,,,-,,,,,,,6.5,
Tyndrum,23/10/2019 03:00,9.2,,,,0,,86,,,-,,,,,,,7,
Tyndrum,23/10/2019 04:00,8.7,,,,0,,91,,,-,,,,,,,7.4,
Tyndrum,23/10/2019 05:00,8.6,,,,0.6,,94,,,-,,,,,,,7.7,
Tyndrum,23/10/2019 06:00,9.1,,8.4,,0.6,0.8,90,,,-,,,,,,,7.6,
Tyndrum,23/10/2019 07:00,9.3,,,,0,,88,,,-,,,,,,,7.5,
Tyndrum,23/10/2019 08:00,9.7,,,,0,,85,,,-,,,,,,,7.4,
Tyndrum,23/10/2019 09:00,10.1,,,,0,,84,,,-,,,,,,,7.6,
Tyndrum,23/10/2019 10:00,10.8,,,,0,,81,,,-,,,,,,,7.8,
Tyndrum,23/10/2019 11:00,11.1,,,,0,,81,,,-,,,,,,,8.1,
Tyndrum,23/10/2019 12:00,11.5,,,,0,0,79,,,-,,,,,,,8,
Tyndrum,23/10/2019 13:00,11.5,,,,0,,77,,,-,,,,,,,7.7,
Tyndrum,23/10/2019 14:00,11.4,,,,0,,77,,,-,,,,,,,7.7,
Tyndrum,23/10/2019 15:00,11,,,,0,,79,,,-,,,,,,,7.6,
Tyndrum,23/10/2019 16:00,10.2,,,,0.6,,87,,,-,,,,,,,8.3,
Tyndrum,23/10/2019 17:00,10.2,,,,1.8,,89,,,-,,,,,,,8.6,
Tyndrum,23/10/2019 18:00,10.3,,,11.8,2,4,89,,,-,,,,,,,8.7,
Tyndrum,23/10/2019 19:00,10,,,,2.2,,90,,,-,,,,,,,8.5,
Tyndrum,23/10/2019 20:00,9.9,,,,2.8,,90,,,-,,,,,,,8.5,
Tyndrum,23/10/2019 21:00,10.2,,,,2.6,,92,,,-,,,,,,,9,
Tyndrum,23/10/2019 22:00,10.3,,,,2.8,,93,,,-,,,,,,,9.3,
Tyndrum,23/10/2019 23:00,10.4,,,,3,,94,,,-,,,,,,,9.5,
Tyndrum,24/10/2019 00:00,10.1,,,,0.4,14,90,,,-,,,,,,,8.6,
Tyndrum,24/10/2019 01:00,10.9,,,,0,,79,,,-,,,,,,,7.5,
Tyndrum,24/10/2019 02:00,10.9,,,,0,,80,,,-,,,,,,,7.6,
Tyndrum,24/10/2019 03:00,10.4,,,,0,,82,,,-,,,,,,,7.5,
Tyndrum,24/10/2019 04:00,10.5,,,,0,,79,,,-,,,,,,,7.1,
Tyndrum,24/10/2019 05:00,9.8,,,,0,,77,,,-,,,,,,,6,
Tyndrum,24/10/2019 06:00,9.6,,8.8,,0,0,80,,,-,,,,,,,6.4,
Tyndrum,24/10/2019 07:00,8.7,,,,0,,81,,,-,,,,,,,5.7,
Tyndrum,24/10/2019 08:00,9.3,,,,0,,85,,,-,,,,,,,7,
Tyndrum,24/10/2019 09:00,9.7,,,,0.2,,81,,,-,,,,,,,6.7,
Tyndrum,24/10/2019 10:00,9.6,,,,0,,83,,,-,,,,,,,7,
Tyndrum,24/10/2019 11:00,9.8,,,,0,,86,,,-,,,,,,,7.6,
Tyndrum,24/10/2019 12:00,10.9,,,,0.4,0.6,81,,,-,,,,,,,7.9,
Tyndrum,24/10/2019 13:00,9.6,,,,0,,78,,,-,,,,,,,6.1,
Tyndrum,24/10/2019 14:00,9.5,,,,0,,69,,,-,,,,,,,4.3,
Tyndrum,24/10/2019 15:00,9.6,,,,0,,65,,,-,,,,,,,3.4,
Tyndrum,24/10/2019 16:00,8,,,,0,,69,,,-,,,,,,,2.7,
Tyndrum,24/10/2019 17:00,5.2,,,,0,,76,,,-,,,,,,,1.4,
Tyndrum,24/10/2019 18:00,4.5,,,11.4,0,0,86,,,-,,,,,,,2.5,
Tyndrum,24/10/2019 19:00,2.7,,,,0,,87,,,-,,,,,,,0.8,
Tyndrum,24/10/2019 20:00,1.4,,,,0,,95,,,-,,,,,,,0.8,
Tyndrum,24/10/2019 21:00,2.2,,,,0,,97,,,-,,,,,,,1.8,
Tyndrum,24/10/2019 22:00,2.4,,,,0,,94,,,-,,,,,,,1.6,
Tyndrum,24/10/2019 23:00,2.1,,,,0,,91,,,-,,,,,,,0.9,
Tyndrum,25/10/2019 00:00,0.7,,,,0,0,92,,,-,,,,,,,-0.4,
Tyndrum,25/10/2019 01:00,-0.7,,,,0,,94,,,-,,,,,,,-1.5,
Tyndrum,25/10/2019 02:00,-1.6,,,,0,,94,,,-,,,,,,,-2.3,
Tyndrum,25/10/2019 03:00,-0.1,,,,0,,97,,,-,,,,,,,-0.5,
Tyndrum,25/10/2019 04:00,1.8,,,,0,,91,,,-,,,,,,,0.5,
Tyndrum,25/10/2019 05:00,2.7,,,,2.4,,89,,,-,,,,,,,1.2,
Tyndrum,25/10/2019 06:00,3.9,,-2,,1.6,4,84,,,-,,,,,,,1.6,
Tyndrum,25/10/2019 07:00,3.4,,,,1.2,,89,,,-,,,,,,,1.9,
Tyndrum,25/10/2019 08:00,3.7,,,,0.8,,88,,,-,,,,,,,1.9,
Tyndrum,25/10/2019 09:00,3.9,,,,0.8,,88,,,-,,,,,,,2.1,
Tyndrum,25/10/2019 10:00,4.9,,,,0,,83,,,-,,,,,,,2.3,
Tyndrum,25/10/2019 11:00,3.8,,,,0.4,,87,,,-,,,,,,,1.9,
Tyndrum,25/10/2019 12:00,5.4,,,,0.8,4,82,,,-,,,,,,,2.7,
Tyndrum,25/10/2019 13:00,5.1,,,,0.2,,87,,,-,,,,,,,3.2,
Tyndrum,25/10/2019 14:00,5.8,,,,0.2,,83,,,-,,,,,,,3.2,
Tyndrum,25/10/2019 15:00,4.8,,,,0,,82,,,-,,,,,,,2.1,
Tyndrum,25/10/2019 16:00,4.3,,,,0,,91,,,-,,,,,,,3,
Tyndrum,25/10/2019 17:00,4,,,,0.2,,92,,,-,,,,,,,2.9,
Tyndrum,25/10/2019 18:00,3.2,,,5.9,0,1,93,,,-,,,,,,,2.2,
Tyndrum,25/10/2019 19:00,1.5,,,,0,,94,,,-,,,,,,,0.7,
Tyndrum,25/10/2019 20:00,0.8,,,,0,,97,,,-,,,,,,,0.4,
Tyndrum,25/10/2019 21:00,0.3,,,,0,,97,,,-,,,,,,,-0.1,
Tyndrum,25/10/2019 22:00,0.3,,,,0,,98,,,-,,,,,,,0.1,
Tyndrum,25/10/2019 23:00,-0.3,,,,0,,97,,,-,,,,,,,-0.6,
Tyndrum,26/10/2019 00:00,0.3,,,,0,0,98,,,-,,,,,,,0.1,
Tyndrum,26/10/2019 01:00,0.7,,,,0,,99,,,-,,,,,,,0.6,
Tyndrum,26/10/2019 02:00,0,,,,0,,98,,,-,,,,,,,-0.2,
Tyndrum,26/10/2019 03:00,0.1,,,,0,,98,,,-,,,,,,,-0.1,
Tyndrum,26/10/2019 04:00,0.4,,,,0,,99,,,-,,,,,,,0.3,
Tyndrum,26/10/2019 05:00,1.2,,,,0,,99,,,-,,,,,,,1.1,
Tyndrum,26/10/2019 06:00,0.5,,-0.5,,0,0,98,,,-,,,,,,,0.3,
Tyndrum,26/10/2019 07:00,-0.2,,,,0,,98,,,-,,,,,,,-0.4,
Tyndrum,26/10/2019 08:00,0.6,,,,0,,98,,,-,,,,,,,0.4,
Tyndrum,26/10/2019 09:00,2.4,,,,0,,100,,,-,,,,,,,2.4,
Tyndrum,26/10/2019 10:00,5.4,,,,0.4,,98,,,-,,,,,,,5.2,
Tyndrum,26/10/2019 11:00,6.3,,,,0,,82,,,-,,,,,,,3.5,
Tyndrum,26/10/2019 12:00,5.7,,,,0,0.4,85,,,-,,,,,,,3.4,
Tyndrum,26/10/2019 13:00,5.8,,,,0.8,,82,,,-,,,,,,,3,
Tyndrum,26/10/2019 14:00,4.9,,,,0.4,,82,,,-,,,,,,,2.2,
Tyndrum,26/10/2019 15:00,5.9,,,,0,,76,,,-,,,,,,,2,
Tyndrum,26/10/2019 16:00,5.8,,,,0,,78,,,-,,,,,,,2.3,
Tyndrum,26/10/2019 17:00,4.1,,,,1,,89,,,-,,,,,,,2.5,
Tyndrum,26/10/2019 18:00,4.1,,,8.4,0.6,2.6,91,,,-,,,,,,,2.8,
Tyndrum,26/10/2019 19:00,4.4,,,,0,,91,,,-,,,,,,,3.1,
Tyndrum,26/10/2019 20:00,4.9,,,,0.4,,90,,,-,,,,,,,3.4,
Tyndrum,26/10/2019 21:00,4.5,,,,1.6,,93,,,-,,,,,,,3.6,
Tyndrum,26/10/2019 22:00,5,,,,1.2,,92,,,-,,,,,,,3.9,
Tyndrum,26/10/2019 23:00,4.8,,,,1,,93,,,-,,,,,,,3.9,
Tyndrum,27/10/2019 00:00,5.2,,,,0,4,92,,,-,,,,,,,4.1,
Tyndrum,27/10/2019 01:00,4.9,,,,0.8,,92,,,-,,,,,,,3.8,
Tyndrum,27/10/2019 02:00,5.3,,,,0.8,,91,,,-,,,,,,,4,
Tyndrum,27/10/2019 03:00,4.9,,,,0.4,,90,,,-,,,,,,,3.4,
Tyndrum,27/10/2019 04:00,5.1,,,,0.2,,91,,,-,,,,,,,3.9,
Tyndrum,27/10/2019 05:00,5.2,,,,0.8,,90,,,-,,,,,,,3.8,
Tyndrum,27/10/2019 06:00,4.6,,3.9,,0.8,4,89,,,-,,,,,,,3,
Tyndrum,27/10/2019 07:00,4.7,,,,0.4,,91,,,-,,,,,,,3.4,
Tyndrum,27/10/2019 08:00,5.2,,,,0.2,,91,,,-,,,,,,,4,
Tyndrum,27/10/2019 09:00,6.1,,,,0,,92,,,-,,,,,,,4.9,
Tyndrum,27/10/2019 10:00,7.7,,,,0,,83,,,-,,,,,,,5.1,
Tyndrum,27/10/2019 11:00,9.3,,,,0,,69,,,-,,,,,,,4.1,
Tyndrum,27/10/2019 12:00,9.8,,,,0,0.6,67,,,-,,,,,,,4,
Tyndrum,27/10/2019 13:00,10.5,,,,0,,59,,,-,,,,,,,2.9,
Tyndrum,27/10/2019 14:00,10.5,,,,0,,56,,,-,,,,,,,2.2,
Tyndrum,27/10/2019 15:00,9,,,,0,,66,,,-,,,,,,,3.1,
Tyndrum,27/10/2019 16:00,8,,,,0,,63,,,-,,,,,,,1.6,
Tyndrum,27/10/2019 17:00,6.8,,,,0,,74,,,-,,,,,,,2.5,
Tyndrum,27/10/2019 18:00,4.7,,,11.3,0,0,85,,,-,,,,,,,2.4,
Tyndrum,27/10/2019 19:00,3.5,,,,0,,85,,,-,,,,,,,1.3,
Tyndrum,27/10/2019 20:00,1.7,,,,0,,89,,,-,,,,,,,0.2,
Tyndrum,27/10/2019 21:00,0.8,,,,0,,95,,,-,,,,,,,0.2,
Tyndrum,27/10/2019 22:00,0.8,,,,0,,96,,,-,,,,,,,0.3,
Tyndrum,27/10/2019 23:00,0,,,,0,,94,,,-,,,,,,,-0.8,
Tyndrum,28/10/2019 00:00,-0.9,,,,0,0,95,,,-,,,,,,,-1.5,
Tyndrum,28/10/2019 01:00,-0.8,,,,0,,97,,,-,,,,,,,-1.2,
Tyndrum,28/10/2019 02:00,-2.1,,,,0,,97,,,-,,,,,,,-2.5,
Tyndrum,28/10/2019 03:00,-2.2,,,,0,,97,,,-,,,,,,,-2.6,
Tyndrum,28/10/2019 04:00,-2.4,,,,0,,97,,,-,,,,,,,-2.7,
Tyndrum,28/10/2019 05:00,-3.4,,,,0,,96,,,-,,,,,,,-3.9,
Tyndrum,28/10/2019 06:00,-3.3,,-3.4,,0,0,97,,,-,,,,,,,-3.7,
Tyndrum,28/10/2019 07:00,-3.6,,,,0,,96,,,-,,,,,,,-4.1,
Tyndrum,28/10/2019 08:00,-2.5,,,,0,,98,,,-,,,,,,,-2.7,
Tyndrum,28/10/2019 09:00,-1,,,,0,,98,,,-,,,,,,,-1.2,
Tyndrum,28/10/2019 10:00,1.6,,,,0,,99,,,-,,,,,,,1.5,
Tyndrum,28/10/2019 11:00,5.9,,,,0.2,,88,,,-,,,,,,,4.2,
Tyndrum,28/10/2019 12:00,7.9,,,,0,0.2,69,,,-,,,,,,,2.6,
Tyndrum,28/10/2019 13:00,8,,,,0,,65,,,-,,,,,,,2,
Tyndrum,28/10/2019 14:00,9.1,,,,0,,64,,,-,,,,,,,2.8,
Tyndrum,28/10/2019 15:00,7.8,,,,0,,59,,,-,,,,,,,0.4,
Tyndrum,28/10/2019 16:00,6.2,,,,0,,66,,,-,,,,,,,0.5,
Tyndrum,28/10/2019 17:00,3.5,,,,0,,78,,,-,,,,,,,0.1,
Tyndrum,28/10/2019 18:00,1.6,,,9.1,0,0,88,,,-,,,,,,,-0.1,
Tyndrum,28/10/2019 19:00,0.3,,,,0,,92,,,-,,,,,,,-0.8,
Tyndrum,28/10/2019 20:00,-0.5,,,,0,,94,,,-,,,,,,,-1.3,
Tyndrum,28/10/2019 21:00,0,,,,0,,96,,,-,,,,,,,-0.5,
Tyndrum,28/10/2019 22:00,0.2,,,,0,,96,,,-,,,,,,,-0.3,
Tyndrum,28/10/2019 23:00,0,,,,0,,95,,,-,,,,,,,-0.7,
Tyndrum,29/10/2019 00:00,-0.9,,,,0,0,94,,,-,,,,,,,-1.7,
Tyndrum,29/10/2019 01:00,-1.6,,,,0,,95,,,-,,,,,,,-2.2,
Tyndrum,29/10/2019 02:00,-2.1,,,,0,,97,,,-,,,,,,,-2.5,
Tyndrum,29/10/2019 03:00,-2.1,,,,0,,97,,,-,,,,,,,-2.5,
Tyndrum,29/10/2019 04:00,-3.1,,,,0,,97,,,-,,,,,,,-3.5,
Tyndrum,29/10/2019 05:00,-3.2,,,,0,,96,,,-,,,,,,,-3.7,
Tyndrum,29/10/2019 06:00,-3.5,,-3.7,,0,0,97,,,-,,,,,,,-3.9,
Tyndrum,29/10/2019 07:00,-3.4,,,,0,,96,,,-,,,,,,,-3.9,
Tyndrum,29/10/2019 08:00,-3.9,,,,0,,97,,,-,,,,,,,-4.3,
Tyndrum,29/10/2019 09:00,-2.8,,,,0,,97,,,-,,,,,,,-3.1,
Tyndrum,29/10/2019 10:00,0,,,,0,,98,,,-,,,,,,,-0.2,
Tyndrum,29/10/2019 11:00,4.2,,,,0,,88,,,-,,,,,,,2.4,
Tyndrum,29/10/2019 12:00,7.2,,,,0,0,75,,,-,,,,,,,3.1,
Tyndrum,29/10/2019 13:00,7,,,,0,,76,,,-,,,,,,,3.1,
Tyndrum,29/10/2019 14:00,8.3,,,,0,,65,,,-,,,,,,,2.2,
Tyndrum,29/10/2019 15:00,8.1,,,,0,,64,,,-,,,,,,,1.9,
Tyndrum,29/10/2019 16:00,7.4,,,,0,,70,,,-,,,,,,,2.4,
Tyndrum,29/10/2019 17:00,5.5,,,,0,,74,,,-,,,,,,,1.3,
Tyndrum,29/10/2019 18:00,2,,,8.5,0,0,84,,,-,,,,,,,-0.4,
Tyndrum,29/10/2019 19:00,1.2,,,,0,,92,,,-,,,,,,,0.1,
Tyndrum,29/10/2019 20:00,0.7,,,,0,,95,,,-,,,,,,,0.1,
Tyndrum,29/10/2019 21:00,0.8,,,,0,,95,,,-,,,,,,,0.2,
Tyndrum,29/10/2019 22:00,0.2,,,,0,,95,,,-,,,,,,,-0.4,
Tyndrum,29/10/2019 23:00,0.4,,,,0,,97,,,-,,,,,,,0,
Tyndrum,30/10/2019 00:00,1.2,,,,0,0,97,,,-,,,,,,,0.9,
Tyndrum,30/10/2019 01:00,1.9,,,,0,,97,,,-,,,,,,,1.6,
Tyndrum,30/10/2019 02:00,1.8,,,,0,,97,,,-,,,,,,,1.4,
Tyndrum,30/10/2019 03:00,3.1,,,,0,,97,,,-,,,,,,,2.7,
Tyndrum,30/10/2019 04:00,3.6,,,,0,,95,,,-,,,,,,,2.9,
Tyndrum,30/10/2019 05:00,3.8,,,,0,,93,,,-,,,,,,,2.9,
Tyndrum,30/10/2019 06:00,5.1,,-0.3,,0,0,86,,,-,,,,,,,3,
Tyndrum,30/10/2019 07:00,4.4,,,,0,,89,,,-,,,,,,,2.9,
Tyndrum,30/10/2019 08:00,5.2,,,,0,,87,,,-,,,,,,,3.3,
Tyndrum,30/10/2019 09:00,5.8,,,,0,,83,,,-,,,,,,,3.2,
Tyndrum,30/10/2019 10:00,6.1,,,,0,,82,,,-,,,,,,,3.3,
Tyndrum,30/10/2019 11:00,7.9,,,,0,,72,,,-,,,,,,,3.3,
Tyndrum,30/10/2019 12:00,8,,,,0,0,70,,,-,,,,,,,2.9,
Tyndrum,30/10/2019 13:00,7.7,,,,0,,70,,,-,,,,,,,2.7,
Tyndrum,30/10/2019 14:00,7.5,,,,0,,71,,,-,,,,,,,2.7,
Tyndrum,30/10/2019 15:00,7.1,,,,0,,74,,,-,,,,,,,2.9,
Tyndrum,30/10/2019 16:00,6.9,,,,0,,75,,,-,,,,,,,2.9,
Tyndrum,30/10/2019 17:00,6.6,,,,0,,76,,,-,,,,,,,2.7,
Tyndrum,30/10/2019 18:00,6.3,,,8.5,0,0,76,,,-,,,,,,,2.4,
Tyndrum,30/10/2019 19:00,6.5,,,,0,,75,,,-,,,,,,,2.4,
Tyndrum,30/10/2019 20:00,6.3,,,,0,,74,,,-,,,,,,,2.2,
Tyndrum,30/10/2019 21:00,5,,,,0,,77,,,-,,,,,,,1.4,
Tyndrum,30/10/2019 22:00,5.5,,,,0,,75,,,-,,,,,,,1.5,
Tyndrum,30/10/2019 23:00,5.6,,,,0,,75,,,-,,,,,,,1.7,
Tyndrum,31/10/2019 00:00,3.1,,,,0,0,83,,,-,,,,,,,0.6,
Threave,01/09/2019 00:00,10.1,,,,0,0,87,,,-,,,,,,,8.2,
Threave,01/09/2019 01:00,10.1,,,,0,,87,,,-,,,,0,,,8.2,
Threave,01/09/2019 02:00,9.7,,,,0,,88,,,-,,,,0,,,7.9,
Threave,01/09/2019 03:00,10.1,,,,0,,89,,,-,,,,0,,,8.5,
Threave,01/09/2019 04:00,10.1,,,,0,,88,,,-,,,,0,,,8.3,
Threave,01/09/2019 05:00,9.7,,,,0,,89,,,-,,,,0,,,8.1,
Threave,01/09/2019 06:00,9.4,,9.4,,0,0,90,,,-,,,,11,,,8,
Threave,01/09/2019 07:00,10.7,,,,0,,90,,,-,,,,203,,,9.2,
Threave,01/09/2019 08:00,11.7,,,,0,,80,,,-,,,,613,,,8.4,
Threave,01/09/2019 09:00,11.6,,,,0,,77,,,-,,,,636,,,7.8,
Threave,01/09/2019 10:00,14.4,,,,1.2,,79,,,-,,,,1191,,,10.9,
Threave,01/09/2019 11:00,14.1,,,,0,,84,,,-,,,,1189,,,11.5,
Threave,01/09/2019 12:00,15.6,,,,0,1,68,,,-,,,,1820,,,9.8,
Threave,01/09/2019 13:00,14.5,,,,0,,66,,,-,,,,1410,,,8.3,
Threave,01/09/2019 14:00,15.5,,,,0,,59,,,-,,,,1825,,,7.6,
Threave,01/09/2019 15:00,16.6,,,,0,,57,,,-,,,,2355,,,8.1,
Threave,01/09/2019 16:00,16,,,,0,,61,,,-,,,,1304,,,8.6,
Threave,01/09/2019 17:00,14.8,,,,0,,64,,,-,,,,881,,,8.1,
Threave,01/09/2019 18:00,13.4,,,16.9,0,0,67,,,-,,,,295,,,7.6,
Threave,01/09/2019 19:00,12.5,,,,0,,70,,,-,,,,99,,,7.3,
Threave,01/09/2019 20:00,11.2,,,,0.2,,85,,,-,,,,0,,,8.8,
Threave,01/09/2019 21:00,11,,,,0.2,,91,,,-,,,,0,,,9.6,
Threave,01/09/2019 22:00,10.7,,,,0,,92,,,-,,,,0,,,9.5,
Threave,01/09/2019 23:00,10.6,,,,0,,93,,,-,,,,0,,,9.6,
Threave,02/09/2019 00:00,10.4,,,,0,0.4,92,,,-,,,,,,,9.2,
Threave,02/09/2019 01:00,10.4,,,,0,,94,,,-,,,,0,,,9.6,
Threave,02/09/2019 02:00,9.9,,,,0,,96,,,-,,,,0,,,9.3,
Threave,02/09/2019 03:00,9.5,,,,0,,96,,,-,,,,0,,,8.9,
Threave,02/09/2019 04:00,9.4,,,,0,,97,,,-,,,,0,,,9.1,
Threave,02/09/2019 05:00,10.4,,,,0,,98,,,-,,,,0,,,10.1,
Threave,02/09/2019 06:00,11.1,,8.3,,0,0,97,,,-,,,,8,,,10.7,
Threave,02/09/2019 07:00,12.1,,,,0,,96,,,-,,,,113,,,11.6,
Threave,02/09/2019 08:00,12.5,,,,0,,93,,,-,,,,187,,,11.5,
Threave,02/09/2019 09:00,12.9,,,,0.6,,94,,,-,,,,272,,,12,
Threave,02/09/2019 10:00,13.4,,,,0.8,,95,,,-,,,,391,,,12.7,
Threave,02/09/2019 11:00,13.3,,,,0.2,,94,,,-,,,,435,,,12.4,
Threave,02/09/2019 12:00,13.6,,,,0,2,91,,,-,,,,363,,,12.3,
Threave,02/09/2019 13:00,13.4,,,,0.8,,94,,,-,,,,511,,,12.5,
Threave,02/09/2019 14:00,13.6,,,,1.4,,95,,,-,,,,437,,,12.9,
Threave,02/09/2019 15:00,13.8,,,,1.4,,95,,,-,,,,246,,,13.1,
Threave,02/09/2019 16:00,13.9,,,,1,,95,,,-,,,,192,,,13.2,
Threave,02/09/2019 17:00,14,,,,0,,91,,,-,,,,354,,,12.7,
Threave,02/09/2019 18:00,13.8,,,14.3,0.4,5,93,,,-,,,,188,,,12.8,
Threave,02/09/2019 19:00,14,,,,0,,93,,,-,,,,59,,,12.9,
Threave,02/09/2019 20:00,14,,,,0,,90,,,-,,,,0,,,12.4,
Threave,02/09/2019 21:00,13.8,,,,0,,91,,,-,,,,0,,,12.4,
Threave,02/09/2019 22:00,13.7,,,,0.2,,93,,,-,,,,0,,,12.7,
Threave,02/09/2019 23:00,13.8,,,,0,,92,,,-,,,,0,,,12.6,
Threave,03/09/2019 00:00,13.8,,,,0,0.2,92,,,-,,,,,,,12.6,
Threave,03/09/2019 01:00,13.6,,,,0.4,,96,,,-,,,,0,,,13.1,
Threave,03/09/2019 02:00,13.8,,,,0,,97,,,-,,,,0,,,13.4,
Threave,03/09/2019 03:00,14,,,,0.2,,96,,,-,,,,0,,,13.5,
Threave,03/09/2019 04:00,13.9,,,,0.2,,96,,,-,,,,0,,,13.3,
Threave,03/09/2019 05:00,14.1,,,,0,,93,,,-,,,,0,,,13.1,
Threave,03/09/2019 06:00,14.1,,13.6,,0,0.8,94,,,-,,,,5,,,13.2,
Threave,03/09/2019 07:00,14.1,,,,0,,96,,,-,,,,79,,,13.6,
Threave,03/09/2019 08:00,14.3,,,,0.2,,96,,,-,,,,173,,,13.8,
Threave,03/09/2019 09:00,14.4,,,,0.4,,97,,,-,,,,256,,,14,
Threave,03/09/2019 10:00,14.9,,,,0.6,,96,,,-,,,,585,,,14.4,
Threave,03/09/2019 11:00,14.8,,,,0.2,,96,,,-,,,,504,,,14.2,
Threave,03/09/2019 12:00,15.1,,,,0.2,2,96,,,-,,,,537,,,14.5,
Threave,03/09/2019 13:00,15.4,,,,0.2,,95,,,-,,,,484,,,14.7,
Threave,03/09/2019 14:00,16.1,,,,0,,95,,,-,,,,661,,,15.3,
Threave,03/09/2019 15:00,15.9,,,,0.2,,94,,,-,,,,721,,,15,
Threave,03/09/2019 16:00,15.9,,,,0.2,,94,,,-,,,,303,,,15,
Threave,03/09/2019 17:00,15.7,,,,0.2,,94,,,-,,,,156,,,14.9,
Threave,03/09/2019 18:00,15.5,,,16.4,0.6,1,94,,,-,,,,78,,,14.7,
Threave,03/09/2019 19:00,15.2,,,,2.6,,96,,,-,,,,21,,,14.6,
Threave,03/09/2019 20:00,15.5,,,,1.4,,96,,,-,,,,1,,,15,
Threave,03/09/2019 21:00,15.5,,,,0,,96,,,-,,,,0,,,15,
Threave,03/09/2019 22:00,15.4,,,,0.4,,96,,,-,,,,0,,,14.9,
Threave,03/09/2019 23:00,13.8,,,,0.2,,94,,,-,,,,0,,,12.9,
Threave,04/09/2019 00:00,13.4,,,,0.2,5,94,,,-,,,,,,,12.6,
Threave,04/09/2019 01:00,13.1,,,,1.2,,95,,,-,,,,0,,,12.4,
Threave,04/09/2019 02:00,11.9,,,,0,,94,,,-,,,,0,,,11,
Threave,04/09/2019 03:00,10.7,,,,0,,91,,,-,,,,0,,,9.4,
Threave,04/09/2019 04:00,10.1,,,,0,,95,,,-,,,,0,,,9.4,
Threave,04/09/2019 05:00,8.9,,,,0,,94,,,-,,,,0,,,8.1,
Threave,04/09/2019 06:00,9.1,,8.5,,0,1,96,,,-,,,,8,,,8.5,
Threave,04/09/2019 07:00,11,,,,0,,94,,,-,,,,185,,,10.1,
Threave,04/09/2019 08:00,11.6,,,,0,,86,,,-,,,,468,,,9.5,
Threave,04/09/2019 09:00,13,,,,0,,80,,,-,,,,962,,,9.8,
Threave,04/09/2019 10:00,11.4,,,,0.6,,89,,,-,,,,476,,,9.8,
Threave,04/09/2019 11:00,11.9,,,,0.4,,90,,,-,,,,427,,,10.4,
Threave,04/09/2019 12:00,12.7,,,,0.2,1,89,,,-,,,,697,,,11,
Threave,04/09/2019 13:00,13.3,,,,0.4,,90,,,-,,,,1146,,,11.8,
Threave,04/09/2019 14:00,12.9,,,,1,,91,,,-,,,,975,,,11.5,
Threave,04/09/2019 15:00,15.8,,,,0,,79,,,-,,,,1368,,,12.3,
Threave,04/09/2019 16:00,14.8,,,,1.4,,86,,,-,,,,1426,,,12.6,
Threave,04/09/2019 17:00,14.2,,,,0,,76,,,-,,,,645,,,10.1,
Threave,04/09/2019 18:00,12.9,,,16.8,0,3,75,,,-,,,,431,,,8.6,
Threave,04/09/2019 19:00,11.9,,,,0,,76,,,-,,,,115,,,7.9,
Threave,04/09/2019 20:00,11.2,,,,0,,77,,,-,,,,1,,,7.4,
Threave,04/09/2019 21:00,11,,,,0,,77,,,-,,,,0,,,7.2,
Threave,04/09/2019 22:00,9.7,,,,0,,77,,,-,,,,0,,,5.9,
Threave,04/09/2019 23:00,8.9,,,,0,,79,,,-,,,,0,,,5.5,
Threave,05/09/2019 00:00,8.8,,,,0,0,77,,,-,,,,,,,5.1,
Threave,05/09/2019 01:00,8,,,,0,,78,,,-,,,,0,,,4.5,
Threave,05/09/2019 02:00,6.9,,,,0,,84,,,-,,,,0,,,4.5,
Threave,05/09/2019 03:00,7.3,,,,0,,81,,,-,,,,0,,,4.4,
Threave,05/09/2019 04:00,7.5,,,,0,,87,,,-,,,,0,,,5.6,
Threave,05/09/2019 05:00,7.4,,,,0,,85,,,-,,,,0,,,5.2,
Threave,05/09/2019 06:00,6.8,,6.3,,0,0,91,,,-,,,,12,,,5.5,
Threave,05/09/2019 07:00,8.8,,,,0,,90,,,-,,,,185,,,7.3,
Threave,05/09/2019 08:00,11,,,,0,,84,,,-,,,,350,,,8.5,
Threave,05/09/2019 09:00,12.5,,,,0,,77,,,-,,,,661,,,8.6,
Threave,05/09/2019 10:00,13.7,,,,0,,74,,,-,,,,951,,,9.3,
Threave,05/09/2019 11:00,13.7,,,,0,,78,,,-,,,,678,,,10,
Threave,05/09/2019 12:00,15.2,,,,0,0,77,,,-,,,,1789,,,11.3,
Threave,05/09/2019 13:00,15.3,,,,0,,67,,,-,,,,1676,,,9.3,
Threave,05/09/2019 14:00,16.7,,,,0,,64,,,-,,,,1492,,,9.9,
Threave,05/09/2019 15:00,16.2,,,,0,,65,,,-,,,,1564,,,9.7,
Threave,05/09/2019 16:00,15.4,,,,0,,66,,,-,,,,1335,,,9.1,
Threave,05/09/2019 17:00,15.1,,,,0,,68,,,-,,,,635,,,9.3,
Threave,05/09/2019 18:00,14.1,,,16.7,0,0,74,,,-,,,,201,,,9.6,
Threave,05/09/2019 19:00,13,,,,0,,81,,,-,,,,111,,,10,
Threave,05/09/2019 20:00,12.9,,,,0,,84,,,-,,,,0,,,10.3,
Threave,05/09/2019 21:00,13.3,,,,0,,74,,,-,,,,0,,,8.8,
Threave,05/09/2019 22:00,13.4,,,,0,,82,,,-,,,,0,,,10.5,
Threave,05/09/2019 23:00,13.3,,,,0,,76,,,-,,,,0,,,9.3,
Threave,06/09/2019 00:00,11.4,,,,1.6,2,91,,,-,,,,,,,10.1,
Threave,06/09/2019 01:00,12.1,,,,0.2,,90,,,-,,,,0,,,10.6,
Threave,06/09/2019 02:00,12.2,,,,0,,91,,,-,,,,0,,,10.8,
Threave,06/09/2019 03:00,12.4,,,,0.2,,91,,,-,,,,0,,,11.1,
Threave,06/09/2019 04:00,12.3,,,,1,,94,,,-,,,,0,,,11.5,
Threave,06/09/2019 05:00,12.6,,,,0.2,,94,,,-,,,,0,,,11.8,
Threave,06/09/2019 06:00,12.7,,11.4,,0.6,2,96,,,-,,,,5,,,12.1,
Threave,06/09/2019 07:00,12.1,,,,0.4,,86,,,-,,,,95,,,9.9,
Threave,06/09/2019 08:00,12.8,,,,0,,80,,,-,,,,506,,,9.5,
Threave,06/09/2019 09:00,12.3,,,,0,,85,,,-,,,,566,,,10,
Threave,06/09/2019 10:00,13.6,,,,0,,72,,,-,,,,1310,,,8.7,
Threave,06/09/2019 11:00,13.4,,,,0,,72,,,-,,,,682,,,8.5,
Threave,06/09/2019 12:00,14.2,,,,0,0.4,77,,,-,,,,1038,,,10.4,
Threave,06/09/2019 13:00,14.3,,,,0,,76,,,-,,,,1294,,,10.3,
Threave,06/09/2019 14:00,15.3,,,,0.2,,76,,,-,,,,1938,,,11.1,
Threave,06/09/2019 15:00,14.2,,,,0,,76,,,-,,,,1946,,,10.2,
Threave,06/09/2019 16:00,15.5,,,,0,,69,,,-,,,,1825,,,10,
Threave,06/09/2019 17:00,14.4,,,,0,,73,,,-,,,,916,,,9.8,
Threave,06/09/2019 18:00,13.5,,,16.3,0,0.2,76,,,-,,,,264,,,9.4,
Threave,06/09/2019 19:00,12.8,,,,0,,83,,,-,,,,92,,,10.1,
Threave,06/09/2019 20:00,12.3,,,,0,,88,,,-,,,,0,,,10.4,
Threave,06/09/2019 21:00,10.3,,,,0,,92,,,-,,,,0,,,9.1,
Threave,06/09/2019 22:00,10,,,,0,,92,,,-,,,,0,,,8.8,
Threave,06/09/2019 23:00,9.5,,,,0,,93,,,-,,,,0,,,8.5,
Threave,07/09/2019 00:00,9.4,,,,0,0,92,,,-,,,,,,,8.2,
Threave,07/09/2019 01:00,10.2,,,,0,,87,,,-,,,,0,,,8.3,
Threave,07/09/2019 02:00,8.4,,,,0,,94,,,-,,,,0,,,7.6,
Threave,07/09/2019 03:00,7.5,,,,0,,95,,,-,,,,0,,,6.8,
Threave,07/09/2019 04:00,8.5,,,,0,,96,,,-,,,,0,,,8,
Threave,07/09/2019 05:00,8.3,,,,0,,97,,,-,,,,0,,,7.9,
Threave,07/09/2019 06:00,8,,7.4,,0,0,95,,,-,,,,3,,,7.4,
Threave,07/09/2019 07:00,7.5,,,,0,,96,,,-,,,,86,,,7,
Threave,07/09/2019 08:00,9,,,,0,,97,,,-,,,,310,,,8.7,
Threave,07/09/2019 09:00,11.3,,,,0,,86,,,-,,,,759,,,9.1,
Threave,07/09/2019 10:00,13.6,,,,0,,65,,,-,,,,1686,,,7.3,
Threave,07/09/2019 11:00,14.9,,,,0,,64,,,-,,,,1988,,,8.2,
Threave,07/09/2019 12:00,16.3,,,,0,0,59,,,-,,,,2243,,,8.4,
Threave,07/09/2019 13:00,15.9,,,,0,,56,,,-,,,,1528,,,7.4,
Threave,07/09/2019 14:00,16.4,,,,0,,49,,,-,,,,2351,,,5.9,
Threave,07/09/2019 15:00,16.9,,,,0,,58,,,-,,,,1816,,,8.7,
Threave,07/09/2019 16:00,15.7,,,,0,,62,,,-,,,,1836,,,8.6,
Threave,07/09/2019 17:00,14.4,,,,0,,66,,,-,,,,858,,,8.2,
Threave,07/09/2019 18:00,13.7,,,17.8,0,0,71,,,-,,,,314,,,8.7,
Threave,07/09/2019 19:00,11.6,,,,0,,82,,,-,,,,105,,,8.7,
Threave,07/09/2019 20:00,9.4,,,,0,,92,,,-,,,,0,,,8.3,
Threave,07/09/2019 21:00,8.3,,,,0,,95,,,-,,,,0,,,7.6,
Threave,07/09/2019 22:00,7.4,,,,0,,95,,,-,,,,0,,,6.7,
Threave,07/09/2019 23:00,6.4,,,,0,,96,,,-,,,,0,,,5.9,
Threave,08/09/2019 00:00,6.4,,,,0,0,97,,,-,,,,,,,6,
Threave,08/09/2019 01:00,5.2,,,,0,,96,,,-,,,,0,,,4.7,
Threave,08/09/2019 02:00,4.6,,,,0,,97,,,-,,,,0,,,4.2,
Threave,08/09/2019 03:00,4.1,,,,0,,97,,,-,,,,0,,,3.7,
Threave,08/09/2019 04:00,4,,,,0,,98,,,-,,,,0,,,3.8,
Threave,08/09/2019 05:00,3.1,,,,0,,97,,,-,,,,0,,,2.8,
Threave,08/09/2019 06:00,3,,2.8,,0,0,98,,,-,,,,2,,,2.8,
Threave,08/09/2019 07:00,3.7,,,,0,,98,,,-,,,,138,,,3.5,
Threave,08/09/2019 08:00,5.9,,,,0,,99,,,-,,,,487,,,5.8,
Threave,08/09/2019 09:00,8.5,,,,0,,99,,,-,,,,810,,,8.4,
Threave,08/09/2019 10:00,11.1,,,,0,,96,,,-,,,,997,,,10.5,
Threave,08/09/2019 11:00,13.7,,,,0,,79,,,-,,,,1335,,,10.2,
Threave,08/09/2019 12:00,13.8,,,,0,0,78,,,-,,,,1022,,,10.1,
Threave,08/09/2019 13:00,14.3,,,,0,,74,,,-,,,,1402,,,9.8,
Threave,08/09/2019 14:00,14.5,,,,0,,72,,,-,,,,1256,,,9.6,
Threave,08/09/2019 15:00,14.5,,,,0,,73,,,-,,,,896,,,9.9,
Threave,08/09/2019 16:00,13.9,,,,0,,79,,,-,,,,367,,,10.5,
Threave,08/09/2019 17:00,13.8,,,,0,,83,,,-,,,,179,,,11,
Threave,08/09/2019 18:00,13.4,,,14.7,0,0,85,,,-,,,,255,,,11.1,
Threave,08/09/2019 19:00,12.7,,,,0,,89,,,-,,,,26,,,11.1,
Threave,08/09/2019 20:00,12.2,,,,0,,94,,,-,,,,0,,,11.4,
Threave,08/09/2019 21:00,12,,,,0.2,,95,,,-,,,,0,,,11.3,
Threave,08/09/2019 22:00,12,,,,0.2,,96,,,-,,,,0,,,11.5,
Threave,08/09/2019 23:00,12.2,,,,0.2,,96,,,-,,,,0,,,11.7,
Threave,09/09/2019 00:00,12.3,,,,1,2,97,,,-,,,,,,,11.9,
Threave,09/09/2019 01:00,12.4,,,,0.2,,96,,,-,,,,0,,,11.9,
Threave,09/09/2019 04:00,12.3,,,,3.2,,96,,,-,,,,0,,,11.7,
Threave,09/09/2019 05:00,12,,,,2.8,,94,,,-,,,,0,,,11.2,
Threave,09/09/2019 06:00,11.4,,11.3,,1.6,10,94,,,-,,,,0,,,10.5,
Threave,09/09/2019 07:00,11.3,,,,2.2,,94,,,-,,,,37,,,10.4,
Threave,09/09/2019 08:00,11.6,,,,0.6,,94,,,-,,,,205,,,10.7,
Threave,09/09/2019 09:00,11.9,,,,0.2,,92,,,-,,,,282,,,10.8,
Threave,09/09/2019 10:00,11.8,,,,0.2,,92,,,-,,,,259,,,10.7,
Threave,09/09/2019 11:00,12.4,,,,0.2,,93,,,-,,,,382,,,11.4,
Threave,09/09/2019 12:00,13,,,,0,3,90,,,-,,,,703,,,11.4,
Threave,09/09/2019 13:00,13.5,,,,0,,87,,,-,,,,867,,,11.4,
Threave,09/09/2019 14:00,13.8,,,,0,,84,,,-,,,,598,,,11.2,
Threave,09/09/2019 15:00,14.5,,,,0,,84,,,-,,,,842,,,12,
Threave,09/09/2019 16:00,15.1,,,,0,,77,,,-,,,,884,,,11.2,
Threave,09/09/2019 17:00,14.9,,,,0,,79,,,-,,,,796,,,11.3,
Threave,09/09/2019 18:00,13.3,,,16.4,0,0,88,,,-,,,,195,,,11.5,
Threave,09/09/2019 19:00,12.3,,,,0.8,,94,,,-,,,,28,,,11.4,
Threave,09/09/2019 20:00,12.2,,,,0,,91,,,-,,,,0,,,10.9,
Threave,09/09/2019 21:00,11.7,,,,0,,91,,,-,,,,0,,,10.4,
Threave,09/09/2019 22:00,11.2,,,,0,,92,,,-,,,,0,,,10.1,
Threave,09/09/2019 23:00,9.5,,,,0,,94,,,-,,,,0,,,8.6,
Threave,10/09/2019 00:00,8.9,,,,0,0.8,96,,,-,,,,,,,8.4,
Threave,10/09/2019 01:00,8.8,,,,0.2,,97,,,-,,,,0,,,8.5,
Threave,10/09/2019 02:00,8.1,,,,0,,97,,,-,,,,0,,,7.8,
Threave,10/09/2019 03:00,8.2,,,,0,,97,,,-,,,,0,,,7.9,
Threave,10/09/2019 04:00,6.8,,,,0,,97,,,-,,,,0,,,6.5,
Threave,10/09/2019 05:00,5.9,,,,0,,98,,,-,,,,0,,,5.7,
Threave,10/09/2019 06:00,7.5,,5.6,,0,0.2,98,,,-,,,,6,,,7.3,
Threave,10/09/2019 07:00,7.9,,,,0,,99,,,-,,,,101,,,7.8,
Threave,10/09/2019 08:00,10.4,,,,0,,99,,,-,,,,518,,,10.3,
Threave,10/09/2019 09:00,12.3,,,,0,,94,,,-,,,,933,,,11.4,
Threave,10/09/2019 10:00,14.7,,,,0,,76,,,-,,,,1493,,,10.7,
Threave,10/09/2019 12:00,15.5,,,,0,0,65,,,-,,,,1575,,,9,
Threave,10/09/2019 13:00,15.2,,,,0,,66,,,-,,,,1209,,,9,
Threave,10/09/2019 14:00,14.8,,,,0,,62,,,-,,,,1344,,,7.8,
Threave,10/09/2019 15:00,14.2,,,,0,,67,,,-,,,,883,,,8.2,
Threave,10/09/2019 16:00,13.4,,,,0,,67,,,-,,,,756,,,7.5,
Threave,10/09/2019 17:00,13.2,,,,0,,76,,,-,,,,220,,,9.1,
Threave,10/09/2019 18:00,11.9,,,16,0,0,86,,,-,,,,65,,,9.8,
Threave,10/09/2019 19:00,11.7,,,,0,,86,,,-,,,,11,,,9.6,
Threave,10/09/2019 20:00,12.3,,,,0.2,,88,,,-,,,,0,,,10.4,
Threave,10/09/2019 21:00,12.8,,,,1,,94,,,-,,,,0,,,12,
Threave,10/09/2019 22:00,13,,,,0.8,,95,,,-,,,,0,,,12.3,
Threave,10/09/2019 23:00,13.5,,,,1,,96,,,-,,,,0,,,13,
Threave,11/09/2019 00:00,14.4,,,,0.2,3,94,,,-,,,,,,,13.6,
Threave,11/09/2019 01:00,14.9,,,,0,,93,,,-,,,,0,,,13.8,
Threave,11/09/2019 02:00,14.8,,,,2.6,,96,,,-,,,,0,,,14.3,
Threave,11/09/2019 03:00,15.1,,,,2,,97,,,-,,,,0,,,14.7,
Threave,11/09/2019 04:00,15.2,,,,1.8,,97,,,-,,,,0,,,14.8,
Threave,11/09/2019 05:00,15.3,,,,0.8,,97,,,-,,,,0,,,14.9,
Threave,11/09/2019 06:00,13.7,,11.7,,0.2,8,85,,,-,,,,3,,,11.3,
Threave,11/09/2019 20:00,12.9,,,,0,,83,,,-,,,,0,,,10.1,
Threave,11/09/2019 21:00,12.7,,,,0,,80,,,-,,,,0,,,9.4,
Threave,11/09/2019 22:00,12.1,,,,0,,86,,,-,,,,0,,,10,
Threave,11/09/2019 23:00,11.9,,,,0,,89,,,-,,,,0,,,10.3,
Threave,12/09/2019 00:00,12.7,,,,0,0,86,,,-,,,,,,,10.5,
Threave,12/09/2019 01:00,12.8,,,,0,,84,,,-,,,,0,,,10.2,
Threave,12/09/2019 02:00,12.8,,,,0,,86,,,-,,,,0,,,10.6,
Threave,12/09/2019 03:00,13.2,,,,0,,86,,,-,,,,0,,,11,
Threave,12/09/2019 04:00,13.2,,,,0,,87,,,-,,,,0,,,11.1,
Threave,12/09/2019 05:00,13.3,,,,0,,91,,,-,,,,0,,,11.9,
Threave,12/09/2019 06:00,13.5,,11.3,,0,0,91,,,-,,,,2,,,12.1,
Threave,12/09/2019 07:00,13.8,,,,0,,92,,,-,,,,93,,,12.6,
Threave,12/09/2019 08:00,13.3,,,,0.2,,94,,,-,,,,171,,,12.5,
Threave,12/09/2019 09:00,13.4,,,,0.8,,95,,,-,,,,316,,,12.7,
Threave,12/09/2019 10:00,14.7,,,,2,,96,,,-,,,,382,,,14.2,
Threave,12/09/2019 11:00,15.4,,,,3.4,,96,,,-,,,,451,,,14.9,
Threave,12/09/2019 12:00,15.6,,,,1.6,8,97,,,-,,,,528,,,15.2,
Threave,12/09/2019 13:00,15.9,,,,0.4,,97,,,-,,,,359,,,15.5,
Threave,12/09/2019 14:00,16.3,,,,0.6,,96,,,-,,,,368,,,15.8,
Threave,12/09/2019 15:00,16.3,,,,0,,95,,,-,,,,377,,,15.5,
Threave,12/09/2019 16:00,15.4,,,,0,,83,,,-,,,,371,,,12.7,
Threave,12/09/2019 17:00,13.6,,,,0,,84,,,-,,,,299,,,11,
Threave,12/09/2019 18:00,13.8,,,16.4,0,1,79,,,-,,,,253,,,10.3,
Threave,12/09/2019 19:00,11.7,,,,0,,79,,,-,,,,49,,,8.3,
Threave,12/09/2019 20:00,10.2,,,,0,,87,,,-,,,,0,,,8.2,
Threave,12/09/2019 21:00,9,,,,0,,93,,,-,,,,0,,,8,
Threave,12/09/2019 22:00,7.8,,,,0,,94,,,-,,,,0,,,7,
Threave,12/09/2019 23:00,8.7,,,,0,,91,,,-,,,,0,,,7.4,
Threave,13/09/2019 00:00,7.9,,,,0,0,90,,,-,,,,,,,6.4,
Threave,13/09/2019 01:00,6.9,,,,0,,95,,,-,,,,0,,,6.3,
Threave,13/09/2019 02:00,7.1,,,,0,,97,,,-,,,,0,,,6.7,
Threave,13/09/2019 03:00,7,,,,0,,97,,,-,,,,0,,,6.6,
Threave,13/09/2019 04:00,7.9,,,,0,,97,,,-,,,,0,,,7.6,
Threave,13/09/2019 05:00,7.8,,,,0,,97,,,-,,,,0,,,7.4,
Threave,13/09/2019 06:00,7.3,,6.6,,0,0,97,,,-,,,,0,,,6.9,
Threave,13/09/2019 17:00,14.8,,,,0,,55,,,-,,,,738,,,6,
Threave,13/09/2019 18:00,13.8,,,17.4,0,0,60,,,-,,,,274,,,6.3,
Threave,13/09/2019 19:00,10.5,,,,0,,79,,,-,,,,64,,,7.1,
Threave,13/09/2019 20:00,10,,,,0,,89,,,-,,,,0,,,8.3,
Threave,13/09/2019 21:00,9.8,,,,0,,93,,,-,,,,0,,,8.8,
Threave,13/09/2019 22:00,8.5,,,,0,,94,,,-,,,,0,,,7.7,
Threave,13/09/2019 23:00,7.6,,,,0,,95,,,-,,,,0,,,6.9,
Threave,14/09/2019 00:00,6.5,,,,0,0,96,,,-,,,,,,,6,
Threave,14/09/2019 01:00,6.6,,,,0,,97,,,-,,,,0,,,6.3,
Threave,14/09/2019 02:00,6.5,,,,0,,97,,,-,,,,0,,,6.2,
Threave,14/09/2019 03:00,6.5,,,,0,,97,,,-,,,,0,,,6.2,
Threave,14/09/2019 04:00,5.7,,,,0,,97,,,-,,,,0,,,5.3,
Threave,14/09/2019 05:00,7.2,,,,0,,98,,,-,,,,0,,,7,
Threave,14/09/2019 06:00,8.8,,5.4,,0,0,98,,,-,,,,0,,,8.6,
Threave,14/09/2019 07:00,10.6,,,,0,,98,,,-,,,,85,,,10.3,
Threave,14/09/2019 08:00,12.8,,,,0,,86,,,-,,,,330,,,10.6,
Threave,14/09/2019 09:00,13.7,,,,0,,77,,,-,,,,596,,,9.8,
Threave,14/09/2019 10:00,14.5,,,,0,,77,,,-,,,,825,,,10.7,
Threave,14/09/2019 11:00,14.5,,,,0,,74,,,-,,,,999,,,10.1,
Threave,14/09/2019 12:00,15.6,,,,0,0,69,,,-,,,,1597,,,10,
Threave,14/09/2019 14:00,15.8,,,,0,,65,,,-,,,,1672,,,9.4,
Threave,14/09/2019 15:00,16.3,,,,0,,62,,,-,,,,1554,,,9.2,
Threave,14/09/2019 16:00,15.8,,,,0,,66,,,-,,,,1324,,,9.6,
Threave,14/09/2019 17:00,15.4,,,,0,,69,,,-,,,,734,,,9.8,
Threave,14/09/2019 18:00,14.9,,,17.2,0,0,75,,,-,,,,243,,,10.6,
Threave,14/09/2019 19:00,15.2,,,,0,,75,,,-,,,,24,,,10.9,
Threave,14/09/2019 20:00,15.2,,,,0,,80,,,-,,,,0,,,11.8,
Threave,14/09/2019 21:00,15.7,,,,0,,77,,,-,,,,0,,,11.7,
Threave,14/09/2019 22:00,15.6,,,,0,,79,,,-,,,,0,,,12,
Threave,14/09/2019 23:00,15.3,,,,0,,82,,,-,,,,0,,,12.4,
Threave,15/09/2019 00:00,14.9,,,,0,0,89,,,-,,,,,,,13.2,
Threave,15/09/2019 01:00,13.1,,,,0,,90,,,-,,,,0,,,11.5,
Threave,15/09/2019 02:00,12.6,,,,0,,88,,,-,,,,0,,,10.7,
Threave,15/09/2019 03:00,12.2,,,,0,,89,,,-,,,,0,,,10.5,
Threave,15/09/2019 04:00,12.6,,,,0,,86,,,-,,,,0,,,10.4,
Threave,15/09/2019 05:00,12,,,,0,,84,,,-,,,,0,,,9.5,
Threave,15/09/2019 06:00,11.4,,11.4,,0,0,82,,,-,,,,0,,,8.5,
Threave,15/09/2019 07:00,11.8,,,,0,,74,,,-,,,,61,,,7.4,
Threave,15/09/2019 08:00,11.9,,,,0,,76,,,-,,,,145,,,8,
Threave,15/09/2019 09:00,12.6,,,,0,,79,,,-,,,,394,,,9.1,
Threave,15/09/2019 10:00,13.5,,,,0,,72,,,-,,,,715,,,8.6,
Threave,15/09/2019 11:00,13.5,,,,0,,65,,,-,,,,778,,,7.2,
Threave,15/09/2019 12:00,14.3,,,,0,0,66,,,-,,,,845,,,8.1,
Threave,16/09/2019 20:00,10.9,,,,0,,77,,,-,,,,0,,,7.1,
Threave,16/09/2019 21:00,10.3,,,,0,,82,,,-,,,,0,,,7.4,
Threave,16/09/2019 22:00,10,,,,0,,82,,,-,,,,0,,,7.1,
Threave,16/09/2019 23:00,8.3,,,,0,,85,,,-,,,,0,,,6,
Threave,17/09/2019 00:00,7.9,,,,0,0,91,,,-,,,,,,,6.6,
Threave,17/09/2019 01:00,8.4,,,,0,,89,,,-,,,,0,,,6.7,
Threave,17/09/2019 02:00,7.6,,,,0,,92,,,-,,,,0,,,6.4,
Threave,17/09/2019 03:00,7.6,,,,0,,95,,,-,,,,0,,,6.9,
Threave,17/09/2019 04:00,7.8,,,,0,,92,,,-,,,,0,,,6.7,
Threave,17/09/2019 05:00,7.1,,,,0,,94,,,-,,,,0,,,6.3,
Threave,17/09/2019 06:00,6.8,,6.2,,0,0,95,,,-,,,,0,,,6.1,
Threave,17/09/2019 07:00,8.2,,,,0,,94,,,-,,,,104,,,7.3,
Threave,17/09/2019 08:00,10.1,,,,0,,89,,,-,,,,354,,,8.4,
Threave,17/09/2019 09:00,11.7,,,,0,,76,,,-,,,,599,,,7.8,
Threave,17/09/2019 10:00,13,,,,0,,71,,,-,,,,861,,,8,
Threave,17/09/2019 11:00,15.1,,,,0,,63,,,-,,,,2075,,,8.3,
Threave,17/09/2019 12:00,15.4,,,,0,0,54,,,-,,,,2267,,,6.3,
Threave,17/09/2019 13:00,16.4,,,,0,,54,,,-,,,,2527,,,7.2,
Threave,17/09/2019 14:00,16,,,,0,,47,,,-,,,,2691,,,5,
Threave,17/09/2019 15:00,16.1,,,,0,,50,,,-,,,,2095,,,5.7,
Threave,17/09/2019 16:00,15.3,,,,0,,48,,,-,,,,1463,,,4.6,
Threave,17/09/2019 17:00,14.4,,,,0,,49,,,-,,,,764,,,4,
Threave,17/09/2019 18:00,12.6,,,17.1,0,0,60,,,-,,,,220,,,5.2,
Threave,17/09/2019 19:00,10.7,,,,0,,66,,,-,,,,21,,,4.7,
Threave,17/09/2019 20:00,8.5,,,,0,,81,,,-,,,,0,,,5.5,
Threave,17/09/2019 21:00,6.9,,,,0,,88,,,-,,,,0,,,5.1,
Threave,17/09/2019 22:00,6.7,,,,0,,92,,,-,,,,0,,,5.5,
Threave,17/09/2019 23:00,6.7,,,,0,,85,,,-,,,,0,,,4.4,
Threave,18/09/2019 00:00,7.2,,,,0,0,90,,,-,,,,,,,5.8,
Threave,18/09/2019 01:00,7.6,,,,0,,89,,,-,,,,0,,,6,
Threave,18/09/2019 02:00,7.8,,,,0,,88,,,-,,,,0,,,6,
Threave,18/09/2019 03:00,8.1,,,,0,,87,,,-,,,,0,,,6.1,
Threave,18/09/2019 04:00,8.3,,,,0,,88,,,-,,,,0,,,6.5,
Threave,18/09/2019 05:00,8,,,,0,,89,,,-,,,,0,,,6.4,
Threave,18/09/2019 06:00,7.4,,5.9,,0,0,92,,,-,,,,0,,,6.3,
Threave,18/09/2019 07:00,7.7,,,,0,,95,,,-,,,,63,,,7.1,
Threave,18/09/2019 08:00,9.1,,,,0,,92,,,-,,,,278,,,7.9,
Threave,18/09/2019 09:00,11.2,,,,0,,82,,,-,,,,557,,,8.4,
Threave,18/09/2019 10:00,12.5,,,,0,,79,,,-,,,,515,,,9.1,
Threave,18/09/2019 11:00,14,,,,0,,71,,,-,,,,732,,,9,
Threave,18/09/2019 12:00,15,,,,0,0,73,,,-,,,,1121,,,10.4,
Threave,18/09/2019 13:00,15.6,,,,0,,74,,,-,,,,1394,,,11.1,
Threave,19/09/2019 05:00,6.8,,,,0,,97,,,-,,,,0,,,6.5,
Threave,19/09/2019 06:00,7,,6.6,,0,0,97,,,-,,,,0,,,6.7,
Threave,19/09/2019 07:00,6.3,,,,0,,97,,,-,,,,62,,,6,
Threave,19/09/2019 08:00,7.7,,,,0,,99,,,-,,,,287,,,7.6,
Threave,19/09/2019 09:00,10.2,,,,0,,99,,,-,,,,879,,,10.1,
Threave,19/09/2019 10:00,14.1,,,,0,,98,,,-,,,,1387,,,13.9,
Threave,19/09/2019 11:00,16.6,,,,0,,75,,,-,,,,1832,,,12.2,
Threave,19/09/2019 12:00,17.1,,,,0,0,73,,,-,,,,2061,,,12.4,
Threave,19/09/2019 13:00,17.1,,,,0,,72,,,-,,,,2171,,,12.1,
Threave,19/09/2019 14:00,17.3,,,,0,,74,,,-,,,,1826,,,12.7,
Threave,19/09/2019 15:00,17.5,,,,0,,63,,,-,,,,1770,,,10.6,
Threave,19/09/2019 16:00,17.8,,,,0,,65,,,-,,,,1431,,,11.3,
Threave,19/09/2019 17:00,15.8,,,,0,,73,,,-,,,,683,,,11.1,
Threave,19/09/2019 18:00,14.3,,,18,0,0,82,,,-,,,,189,,,11.3,
Threave,19/09/2019 19:00,12.4,,,,0,,87,,,-,,,,21,,,10.4,
Threave,20/09/2019 20:00,12.9,,,,0,,94,,,-,,,,0,,,12.1,
Threave,20/09/2019 21:00,12.5,,,,0,,95,,,-,,,,0,,,11.8,
Threave,20/09/2019 22:00,11.8,,,,0,,94,,,-,,,,0,,,11,
Threave,20/09/2019 23:00,11.2,,,,0,,96,,,-,,,,0,,,10.6,
Threave,21/09/2019 00:00,10.6,,,,0,0,96,,,-,,,,,,,10,
Threave,21/09/2019 01:00,9.6,,,,0,,96,,,-,,,,0,,,9,
Threave,21/09/2019 02:00,8.7,,,,0,,96,,,-,,,,0,,,8.2,
Threave,21/09/2019 03:00,8.6,,,,0,,97,,,-,,,,0,,,8.2,
Threave,21/09/2019 04:00,9.6,,,,0,,98,,,-,,,,0,,,9.3,
Threave,21/09/2019 05:00,8.8,,,,0,,96,,,-,,,,0,,,8.3,
Threave,21/09/2019 06:00,8.3,,8.1,,0,0,96,,,-,,,,0,,,7.8,
Threave,21/09/2019 07:00,8.4,,,,0,,97,,,-,,,,43,,,8,
Threave,21/09/2019 08:00,10.5,,,,0,,96,,,-,,,,241,,,9.9,
Threave,21/09/2019 09:00,13.2,,,,0.2,,90,,,-,,,,725,,,11.7,
Threave,21/09/2019 10:00,16.5,,,,0,,73,,,-,,,,1465,,,11.7,
Threave,21/09/2019 11:00,19.8,,,,0,,58,,,-,,,,1837,,,11.4,
Threave,21/09/2019 12:00,21.2,,,,0,0.2,51,,,-,,,,2073,,,10.8,
Threave,23/09/2019 00:00,14.8,,,,0.2,0.2,98,,,-,,,,,,,14.5,
Threave,23/09/2019 01:00,14.8,,,,0,,98,,,-,,,,0,,,14.5,
Threave,23/09/2019 02:00,14.1,,,,0,,97,,,-,,,,0,,,13.7,
Threave,23/09/2019 03:00,13.7,,,,0,,94,,,-,,,,0,,,12.9,
Threave,23/09/2019 04:00,13.6,,,,0,,94,,,-,,,,0,,,12.7,
Threave,23/09/2019 05:00,13.5,,,,0,,93,,,-,,,,0,,,12.4,
Threave,23/09/2019 06:00,13.2,,13.2,,0,0,92,,,-,,,,0,,,12,
Threave,23/09/2019 07:00,13,,,,0,,93,,,-,,,,18,,,11.9,
Threave,23/09/2019 08:00,13.1,,,,0,,87,,,-,,,,223,,,11.1,
Threave,24/09/2019 09:00,15.9,,,,0,,93,,,-,,,,308,,,14.9,
Threave,24/09/2019 10:00,16.6,,,,0,,92,,,-,,,,380,,,15.4,
Threave,24/09/2019 11:00,17.3,,,,0,,87,,,-,,,,563,,,15.2,
Threave,24/09/2019 14:00,17.4,,,,0.2,,87,,,-,,,,424,,,15.3,
Threave,24/09/2019 15:00,16.3,,,,0.2,,89,,,-,,,,241,,,14.6,
Threave,24/09/2019 16:00,15.9,,,,1.4,,93,,,-,,,,177,,,14.8,
Threave,24/09/2019 17:00,15.7,,,,2.6,,94,,,-,,,,127,,,14.8,
Threave,24/09/2019 18:00,14.9,,,18.8,0.4,4.8,94,,,-,,,,39,,,14.1,
Threave,24/09/2019 19:00,14.3,,,,0.4,,96,,,-,,,,2,,,13.7,
Threave,24/09/2019 20:00,14.5,,,,1,,96,,,-,,,,0,,,14,
Threave,24/09/2019 21:00,13.8,,,,0.6,,96,,,-,,,,0,,,13.2,
Threave,26/09/2019 00:00,14.4,,,,1,2,95,,,-,,,,,,,13.7,
Threave,26/09/2019 01:00,14.3,,,,1.8,,96,,,-,,,,0,,,13.8,
Threave,26/09/2019 02:00,14.4,,,,2.8,,95,,,-,,,,0,,,13.7,
Threave,26/09/2019 03:00,14.6,,,,0.2,,95,,,-,,,,0,,,13.9,
Threave,26/09/2019 04:00,13.7,,,,0,,94,,,-,,,,0,,,12.8,
Threave,26/09/2019 05:00,13.1,,,,0,,93,,,-,,,,0,,,12,
Threave,26/09/2019 06:00,12.7,,12.7,,0,4,92,,,-,,,,0,,,11.5,
Threave,26/09/2019 07:00,12.9,,,,0.2,,95,,,-,,,,22,,,12.2,
Threave,26/09/2019 08:00,13,,,,0.2,,94,,,-,,,,184,,,12.1,
Threave,28/09/2019 20:00,10.2,,,,0,,96,,,-,,,,0,,,9.6,
Threave,28/09/2019 21:00,9.9,,,,0,,96,,,-,,,,0,,,9.4,
Threave,28/09/2019 22:00,10.1,,,,0,,96,,,-,,,,0,,,9.6,
Threave,28/09/2019 23:00,10.5,,,,0,,96,,,-,,,,0,,,9.9,
Threave,29/09/2019 00:00,10.9,,,,0.8,0.8,97,,,-,,,,,,,10.5,
Threave,29/09/2019 01:00,10.5,,,,1,,96,,,-,,,,0,,,10,
Threave,29/09/2019 02:00,10.4,,,,1.6,,97,,,-,,,,0,,,10,
Threave,29/09/2019 03:00,10.3,,,,2,,97,,,-,,,,0,,,9.9,
Threave,29/09/2019 04:00,10.1,,,,1.4,,98,,,-,,,,0,,,9.8,
Threave,29/09/2019 05:00,10.2,,,,1.8,,97,,,-,,,,0,,,9.8,
Threave,30/09/2019 15:00,12.9,,,,-0.2,,87,,,-,,,,305,,,10.8,
Threave,30/09/2019 16:00,12.5,,,,0,,90,,,-,,,,212,,,11,
Threave,30/09/2019 17:00,12,,,,0,,91,,,-,,,,75,,,10.7,
Threave,30/09/2019 18:00,11.7,,,,0,,93,,,-,,,,13,,,10.7,
Threave,30/09/2019 19:00,11.1,,,,2.2,,94,,,-,,,,0,,,10.3,
Threave,30/09/2019 20:00,10.5,,,,3.4,,95,,,-,,,,0,,,9.8,
Threave,30/09/2019 21:00,10.1,,,,2,,96,,,-,,,,0,,,9.5,
Threave,30/09/2019 22:00,9.1,,,,1.2,,95,,,-,,,,0,,,8.4,
Threave,30/09/2019 23:00,9.1,,,,0.2,,94,,,-,,,,0,,,8.3,
Threave,01/10/2019 00:00,9,,,,0,9,94,,,-,,,,,,,8.1,
Threave,01/10/2019 01:00,8.8,,,,0,,95,,,-,,,,0,,,8.1,
Threave,01/10/2019 02:00,8.6,,,,1.2,,95,,,-,,,,0,,,7.9,
Threave,01/10/2019 03:00,8.4,,,,1.4,,95,,,-,,,,0,,,7.7,
Threave,01/10/2019 04:00,8.3,,,,2.4,,95,,,-,,,,0,,,7.6,
Threave,01/10/2019 05:00,8.4,,,,4,,96,,,-,,,,0,,,7.8,
Threave,01/10/2019 06:00,7.9,,7.9,,1.6,11,94,,,-,,,,0,,,7.1,
Threave,01/10/2019 07:00,7.5,,,,0.4,,93,,,-,,,,4,,,6.5,
Threave,01/10/2019 08:00,7,,,,0.8,,92,,,-,,,,45,,,5.9,
Threave,01/10/2019 09:00,6.8,,,,1,,93,,,-,,,,127,,,5.8,
Threave,01/10/2019 10:00,7.5,,,,0.4,,92,,,-,,,,456,,,6.3,
Threave,01/10/2019 11:00,8.6,,,,0,,87,,,-,,,,999,,,6.7,
Threave,01/10/2019 12:00,10,,,,0,3,79,,,-,,,,1128,,,6.7,
Threave,01/10/2019 13:00,11.7,,,,0,,69,,,-,,,,1299,,,6.3,
Threave,01/10/2019 14:00,11.7,,,,0,,62,,,-,,,,1899,,,4.8,
Threave,01/10/2019 15:00,11.4,,,,0,,62,,,-,,,,1389,,,4.5,
Threave,01/10/2019 16:00,10.5,,,,0,,62,,,-,,,,1027,,,3.6,
Threave,01/10/2019 17:00,9.7,,,,0,,68,,,-,,,,462,,,4.1,
Threave,01/10/2019 18:00,7.7,,,13.3,0,0,77,,,-,,,,98,,,4,
Threave,01/10/2019 19:00,4.5,,,,0,,90,,,-,,,,0,,,3.1,
Threave,01/10/2019 20:00,3.8,,,,0,,93,,,-,,,,0,,,2.8,
Threave,01/10/2019 21:00,3.4,,,,0,,95,,,-,,,,0,,,2.8,
Threave,01/10/2019 22:00,3.1,,,,0,,95,,,-,,,,0,,,2.5,
Threave,01/10/2019 23:00,2.6,,,,0,,97,,,-,,,,0,,,2.2,
Threave,02/10/2019 00:00,2.5,,,,0,0,97,,,-,,,,,,,2.1,
Threave,02/10/2019 01:00,2.6,,,,0,,97,,,-,,,,0,,,2.3,
Threave,02/10/2019 02:00,2.5,,,,0,,97,,,-,,,,0,,,2.2,
Threave,02/10/2019 03:00,2.4,,,,0,,97,,,-,,,,0,,,2.1,
Threave,02/10/2019 04:00,1.8,,,,0,,97,,,-,,,,0,,,1.5,
Threave,02/10/2019 05:00,1.4,,,,0,,97,,,-,,,,0,,,1.1,
Threave,02/10/2019 06:00,1.1,,1,,0,0,98,,,-,,,,0,,,0.9,
Threave,02/10/2019 07:00,1,,,,0,,98,,,-,,,,13,,,0.8,
Threave,02/10/2019 08:00,1.6,,,,0,,99,,,-,,,,106,,,1.5,
Threave,02/10/2019 09:00,5.1,,,,0,,100,,,-,,,,483,,,5.1,
Threave,02/10/2019 10:00,8.3,,,,0,,77,,,-,,,,1227,,,4.6,
Threave,02/10/2019 11:00,11.1,,,,0,,59,,,-,,,,1658,,,3.5,
Threave,02/10/2019 12:00,11.8,,,,0,0,57,,,-,,,,1904,,,3.6,
Threave,02/10/2019 13:00,12.8,,,,0,,54,,,-,,,,1994,,,3.9,
Threave,02/10/2019 14:00,12.9,,,,0,,53,,,-,,,,1881,,,3.7,
Threave,02/10/2019 15:00,12.9,,,,0,,50,,,-,,,,1595,,,3,
Threave,02/10/2019 16:00,12.3,,,,0,,54,,,-,,,,1145,,,3.5,
Threave,02/10/2019 17:00,10.5,,,,0,,62,,,-,,,,454,,,3.6,
Threave,02/10/2019 18:00,7.7,,,13.3,0,0,76,,,-,,,,52,,,3.9,
Threave,02/10/2019 19:00,5.3,,,,0,,90,,,-,,,,0,,,3.8,
Threave,02/10/2019 20:00,4.3,,,,0,,93,,,-,,,,0,,,3.4,
Threave,02/10/2019 21:00,3.3,,,,0,,95,,,-,,,,0,,,2.6,
Threave,02/10/2019 22:00,3.1,,,,0,,97,,,-,,,,0,,,2.7,
Threave,02/10/2019 23:00,2.4,,,,0,,96,,,-,,,,0,,,1.9,
Threave,03/10/2019 00:00,1.6,,,,0,0,97,,,-,,,,,,,1.2,
Threave,03/10/2019 01:00,2,,,,0,,98,,,-,,,,0,,,1.8,
Threave,03/10/2019 02:00,1.6,,,,0,,97,,,-,,,,0,,,1.3,
Threave,03/10/2019 03:00,0.8,,,,0,,97,,,-,,,,0,,,0.5,
Threave,03/10/2019 04:00,0.8,,,,0,,97,,,-,,,,0,,,0.5,
Threave,03/10/2019 05:00,0.7,,,,0,,98,,,-,,,,0,,,0.5,
Threave,03/10/2019 06:00,0.1,,0,,0,0,98,,,-,,,,0,,,-0.1,
Threave,03/10/2019 07:00,0.7,,,,0,,99,,,-,,,,22,,,0.6,
Threave,03/10/2019 08:00,2.4,,,,0,,99,,,-,,,,149,,,2.3,
Threave,03/10/2019 09:00,4.9,,,,0,,99,,,-,,,,348,,,4.8,
Threave,03/10/2019 10:00,6.5,,,,0,,99,,,-,,,,538,,,6.4,
Threave,03/10/2019 11:00,8.5,,,,0,,86,,,-,,,,901,,,6.3,
Threave,03/10/2019 12:00,9.1,,,,0,0,79,,,-,,,,539,,,5.8,
Threave,03/10/2019 13:00,9.2,,,,0,,79,,,-,,,,426,,,5.8,
Threave,03/10/2019 14:00,10,,,,0,,75,,,-,,,,407,,,5.8,
Threave,03/10/2019 15:00,10.5,,,,0,,74,,,-,,,,422,,,6.2,
Threave,03/10/2019 16:00,11.1,,,,0,,73,,,-,,,,300,,,6.6,
Threave,03/10/2019 17:00,10.7,,,,0.2,,75,,,-,,,,210,,,6.6,
Threave,03/10/2019 18:00,10.1,,,11.4,0,0.2,82,,,-,,,,20,,,7.3,
Threave,03/10/2019 19:00,9.3,,,,1,,93,,,-,,,,0,,,8.3,
Threave,03/10/2019 20:00,8.6,,,,1.8,,95,,,-,,,,0,,,7.9,
Threave,03/10/2019 21:00,8.6,,,,2.2,,97,,,-,,,,0,,,8.2,
Threave,03/10/2019 22:00,8.6,,,,1.8,,97,,,-,,,,0,,,8.2,
Threave,03/10/2019 23:00,8.6,,,,2.8,,97,,,-,,,,0,,,8.2,
Threave,04/10/2019 00:00,8.8,,,,0.8,10,97,,,-,,,,,,,8.5,
Threave,04/10/2019 01:00,8.8,,,,0.8,,97,,,-,,,,0,,,8.4,
Threave,04/10/2019 02:00,8.9,,,,0.2,,97,,,-,,,,0,,,8.6,
Threave,04/10/2019 03:00,8.8,,,,0.4,,98,,,-,,,,0,,,8.6,
Threave,04/10/2019 04:00,8.9,,,,1,,97,,,-,,,,0,,,8.6,
Threave,04/10/2019 05:00,8.8,,,,0,,97,,,-,,,,0,,,8.5,
Threave,04/10/2019 06:00,8.9,,8.5,,0.6,3,97,,,-,,,,0,,,8.6,
Threave,04/10/2019 07:00,9.2,,,,0.4,,97,,,-,,,,5,,,8.9,
Threave,04/10/2019 08:00,9.3,,,,0.2,,98,,,-,,,,58,,,9.1,
Threave,04/10/2019 09:00,9.9,,,,0,,98,,,-,,,,145,,,9.7,
Threave,04/10/2019 10:00,10.4,,,,0,,98,,,-,,,,272,,,10.1,
Threave,04/10/2019 11:00,11.7,,,,0,,95,,,-,,,,564,,,11,
Threave,04/10/2019 12:00,14.1,,,,0,0.6,82,,,-,,,,1100,,,11.1,
Threave,04/10/2019 13:00,13.6,,,,0,,82,,,-,,,,865,,,10.6,
Threave,04/10/2019 14:00,15.5,,,,0,,75,,,-,,,,1325,,,11.2,
Threave,04/10/2019 15:00,13.4,,,,0,,78,,,-,,,,658,,,9.7,
Threave,04/10/2019 16:00,12.8,,,,0,,79,,,-,,,,345,,,9.4,
Threave,04/10/2019 17:00,12.2,,,,0,,82,,,-,,,,137,,,9.4,
Threave,04/10/2019 18:00,11.5,,,15.5,0,0,85,,,-,,,,37,,,9.2,
Threave,04/10/2019 19:00,9.2,,,,0,,90,,,-,,,,0,,,7.8,
Threave,04/10/2019 20:00,7.5,,,,0,,92,,,-,,,,0,,,6.4,
Threave,04/10/2019 21:00,7.4,,,,0,,95,,,-,,,,0,,,6.8,
Threave,04/10/2019 22:00,7.3,,,,0,,96,,,-,,,,0,,,6.8,
Threave,04/10/2019 23:00,7.3,,,,0,,97,,,-,,,,0,,,6.9,
Threave,05/10/2019 00:00,7.7,,,,0,0,97,,,-,,,,,,,7.4,
Threave,05/10/2019 01:00,8.7,,,,0,,98,,,-,,,,0,,,8.5,
Threave,05/10/2019 02:00,9,,,,0,,97,,,-,,,,0,,,8.7,
Threave,05/10/2019 03:00,9.4,,,,0,,97,,,-,,,,0,,,9.1,
Threave,05/10/2019 04:00,9.3,,,,0,,97,,,-,,,,0,,,8.9,
Threave,05/10/2019 05:00,9.3,,,,0,,97,,,-,,,,0,,,8.9,
Threave,05/10/2019 06:00,9.1,,7.1,,0,0,97,,,-,,,,0,,,8.7,
Threave,05/10/2019 07:00,9,,,,0,,97,,,-,,,,11,,,8.6,
Threave,05/10/2019 08:00,9.2,,,,0,,97,,,-,,,,85,,,8.8,
Threave,05/10/2019 09:00,10.2,,,,0,,96,,,-,,,,215,,,9.7,
Threave,05/10/2019 10:00,10.7,,,,0,,93,,,-,,,,211,,,9.7,
Threave,05/10/2019 11:00,11.2,,,,0,,89,,,-,,,,233,,,9.5,
Threave,05/10/2019 12:00,12,,,,0,0,82,,,-,,,,288,,,9.1,
Threave,05/10/2019 13:00,12.5,,,,0,,78,,,-,,,,342,,,8.9,
Threave,05/10/2019 14:00,13,,,,0,,78,,,-,,,,420,,,9.3,
Threave,05/10/2019 15:00,12.7,,,,0,,78,,,-,,,,134,,,9,
Threave,05/10/2019 16:00,13,,,,0,,79,,,-,,,,181,,,9.6,
Threave,05/10/2019 17:00,11.7,,,,0.2,,91,,,-,,,,94,,,10.3,
Threave,05/10/2019 18:00,11.4,,,13.2,1.2,1,95,,,-,,,,6,,,10.7,
Threave,05/10/2019 19:00,11.1,,,,1.4,,96,,,-,,,,0,,,10.6,
Threave,05/10/2019 20:00,11.2,,,,1,,96,,,-,,,,0,,,10.7,
Threave,05/10/2019 21:00,11.3,,,,1.4,,96,,,-,,,,0,,,10.8,
Threave,05/10/2019 22:00,11.2,,,,1.6,,96,,,-,,,,0,,,10.7,
Threave,05/10/2019 23:00,11.1,,,,2.8,,97,,,-,,,,0,,,10.7,
Threave,06/10/2019 00:00,11.1,,,,2.4,11,97,,,-,,,,,,,10.7,
Threave,06/10/2019 01:00,11,,,,2.2,,96,,,-,,,,0,,,10.5,
Threave,06/10/2019 02:00,10.9,,,,2.8,,97,,,-,,,,0,,,10.5,
Threave,06/10/2019 03:00,10.8,,,,2,,96,,,-,,,,0,,,10.3,
Threave,06/10/2019 04:00,10.8,,,,2,,97,,,-,,,,0,,,10.4,
Threave,06/10/2019 05:00,11.3,,,,1.2,,95,,,-,,,,0,,,10.6,
Threave,06/10/2019 06:00,10.1,,10.1,,0,10,95,,,-,,,,0,,,9.4,
Threave,06/10/2019 07:00,9.7,,,,0,,96,,,-,,,,3,,,9.2,
Threave,06/10/2019 08:00,9.9,,,,0,,98,,,-,,,,97,,,9.6,
Threave,06/10/2019 09:00,10.7,,,,0.4,,93,,,-,,,,184,,,9.7,
Threave,06/10/2019 10:00,11,,,,0,,91,,,-,,,,513,,,9.7,
Threave,06/10/2019 11:00,12,,,,0,,85,,,-,,,,738,,,9.7,
Threave,06/10/2019 12:00,13.5,,,,0,0.4,80,,,-,,,,1214,,,10.3,
Threave,06/10/2019 13:00,12.9,,,,0,,83,,,-,,,,912,,,10.2,
Threave,06/10/2019 14:00,11.9,,,,0,,88,,,-,,,,194,,,10.1,
Threave,06/10/2019 15:00,12.4,,,,0,,87,,,-,,,,233,,,10.4,
Threave,06/10/2019 16:00,11.4,,,,0,,91,,,-,,,,101,,,10.1,
Threave,06/10/2019 17:00,11,,,,0,,92,,,-,,,,135,,,9.8,
Threave,06/10/2019 18:00,10.4,,,13.7,0,0,92,,,-,,,,86,,,9.2,
Threave,06/10/2019 19:00,9.9,,,,0,,92,,,-,,,,0,,,8.7,
Threave,06/10/2019 20:00,10.4,,,,0,,93,,,-,,,,0,,,9.4,
Threave,06/10/2019 21:00,10.6,,,,0,,92,,,-,,,,0,,,9.5,
Threave,06/10/2019 22:00,10.6,,,,0,,93,,,-,,,,0,,,9.6,
Threave,06/10/2019 23:00,10.3,,,,0,,94,,,-,,,,0,,,9.4,
Threave,07/10/2019 00:00,10.2,,,,0,0,95,,,-,,,,,,,9.5,
Threave,07/10/2019 01:00,11.3,,,,0,,93,,,-,,,,0,,,10.3,
Threave,07/10/2019 02:00,12,,,,0,,91,,,-,,,,0,,,10.7,
Threave,07/10/2019 03:00,12.1,,,,0,,91,,,-,,,,0,,,10.7,
Threave,07/10/2019 04:00,12.1,,,,0.2,,91,,,-,,,,0,,,10.7,
Threave,07/10/2019 05:00,11.9,,,,0.6,,92,,,-,,,,0,,,10.7,
Threave,07/10/2019 06:00,11.8,,9.8,,1.2,2,91,,,-,,,,0,,,10.4,
Threave,07/10/2019 07:00,12,,,,0,,86,,,-,,,,3,,,9.9,
Threave,07/10/2019 08:00,11.5,,,,0,,79,,,-,,,,38,,,8.1,
Threave,07/10/2019 09:00,11,,,,0.8,,91,,,-,,,,148,,,9.6,
Threave,07/10/2019 10:00,11.1,,,,1.8,,94,,,-,,,,225,,,10.3,
Threave,07/10/2019 11:00,11.5,,,,1,,96,,,-,,,,179,,,10.9,
Threave,07/10/2019 12:00,12,,,,1,5,96,,,-,,,,208,,,11.5,
Threave,07/10/2019 13:00,13.2,,,,0.8,,97,,,-,,,,241,,,12.8,
Threave,07/10/2019 14:00,13.8,,,,0,,95,,,-,,,,343,,,13.1,
Threave,07/10/2019 15:00,14.7,,,,0,,87,,,-,,,,786,,,12.6,
Threave,07/10/2019 16:00,13.9,,,,0,,87,,,-,,,,660,,,11.8,
Threave,07/10/2019 17:00,13.4,,,,0,,86,,,-,,,,350,,,11.2,
Threave,07/10/2019 18:00,12.6,,,15.1,0,0,85,,,-,,,,65,,,10.3,
Threave,07/10/2019 19:00,11.8,,,,0,,90,,,-,,,,0,,,10.3,
Threave,07/10/2019 20:00,11.1,,,,0,,91,,,-,,,,0,,,9.8,
Threave,07/10/2019 21:00,10.3,,,,0,,92,,,-,,,,0,,,9.1,
Threave,07/10/2019 22:00,9.4,,,,0,,94,,,-,,,,0,,,8.5,
Threave,07/10/2019 23:00,10.3,,,,0,,94,,,-,,,,0,,,9.5,
Threave,08/10/2019 00:00,11.3,,,,0,0,89,,,-,,,,,,,9.6,
Threave,08/10/2019 01:00,11.8,,,,0,,88,,,-,,,,0,,,9.9,
Threave,08/10/2019 02:00,12,,,,0,,85,,,-,,,,0,,,9.7,
Threave,08/10/2019 03:00,12.1,,,,0,,84,,,-,,,,0,,,9.6,
Threave,08/10/2019 04:00,12.1,,,,0,,84,,,-,,,,0,,,9.5,
Threave,08/10/2019 05:00,11.4,,,,0,,84,,,-,,,,0,,,8.9,
Threave,08/10/2019 06:00,11.4,,9.3,,0.2,0.2,87,,,-,,,,0,,,9.4,
Threave,08/10/2019 07:00,11,,,,1.4,,90,,,-,,,,2,,,9.5,
Threave,08/10/2019 08:00,10.4,,,,0.6,,83,,,-,,,,129,,,7.7,
Threave,08/10/2019 09:00,11.5,,,,0,,77,,,-,,,,422,,,7.7,
Threave,08/10/2019 10:00,12.4,,,,0,,73,,,-,,,,933,,,7.8,
Threave,08/10/2019 11:00,12.8,,,,0,,71,,,-,,,,1329,,,7.8,
Threave,08/10/2019 12:00,13.5,,,,0,2,71,,,-,,,,1366,,,8.4,
Threave,08/10/2019 13:00,12.9,,,,0,,71,,,-,,,,984,,,7.9,
Threave,08/10/2019 14:00,13.3,,,,0,,70,,,-,,,,766,,,8.1,
Threave,08/10/2019 15:00,13.1,,,,0,,71,,,-,,,,830,,,8.1,
Threave,08/10/2019 16:00,12,,,,0,,80,,,-,,,,411,,,8.7,
Threave,08/10/2019 17:00,10.7,,,,1,,89,,,-,,,,131,,,9.1,
Threave,08/10/2019 18:00,10.4,,,13.7,0,1,87,,,-,,,,79,,,8.5,
Threave,08/10/2019 19:00,11,,,,0,,83,,,-,,,,0,,,8.4,
Threave,08/10/2019 20:00,11.2,,,,0.2,,81,,,-,,,,0,,,8.1,
Threave,08/10/2019 21:00,11.2,,,,0,,79,,,-,,,,0,,,7.8,
Threave,08/10/2019 22:00,11.1,,,,0,,80,,,-,,,,0,,,7.8,
Threave,08/10/2019 23:00,10.3,,,,0,,83,,,-,,,,0,,,7.6,
Threave,09/10/2019 00:00,10.7,,,,0,0.2,83,,,-,,,,,,,8,
Threave,09/10/2019 01:00,10.4,,,,0,,83,,,-,,,,0,,,7.8,
Threave,09/10/2019 02:00,9.7,,,,0,,86,,,-,,,,0,,,7.6,
Threave,09/10/2019 03:00,9.9,,,,0,,86,,,-,,,,0,,,7.7,
Threave,09/10/2019 04:00,9.9,,,,0,,85,,,-,,,,0,,,7.6,
Threave,09/10/2019 05:00,10,,,,0,,83,,,-,,,,0,,,7.4,
Threave,09/10/2019 06:00,9.3,,9.2,,0,0,86,,,-,,,,0,,,7.1,
Threave,09/10/2019 07:00,9.3,,,,0,,86,,,-,,,,1,,,7.1,
Threave,09/10/2019 08:00,9.3,,,,0,,84,,,-,,,,92,,,6.8,
Threave,09/10/2019 09:00,11,,,,0,,80,,,-,,,,513,,,7.7,
Threave,09/10/2019 10:00,11.4,,,,0,,77,,,-,,,,954,,,7.7,
Threave,09/10/2019 11:00,11,,,,0,,75,,,-,,,,814,,,6.9,
Threave,09/10/2019 12:00,12,,,,0,0,73,,,-,,,,1161,,,7.5,
Threave,09/10/2019 13:00,11.8,,,,0,,68,,,-,,,,686,,,6.3,
Threave,09/10/2019 14:00,11.9,,,,0,,69,,,-,,,,834,,,6.5,
Threave,09/10/2019 15:00,11.6,,,,0,,73,,,-,,,,917,,,7.1,
Threave,09/10/2019 16:00,11.8,,,,0,,69,,,-,,,,885,,,6.4,
Threave,09/10/2019 17:00,11,,,,0,,77,,,-,,,,340,,,7.3,
Threave,09/10/2019 18:00,8.8,,,12.5,0,0,82,,,-,,,,43,,,6,
Threave,09/10/2019 19:00,9.2,,,,0,,86,,,-,,,,0,,,7.1,
Threave,09/10/2019 20:00,9.5,,,,0,,84,,,-,,,,0,,,7.1,
Threave,09/10/2019 21:00,9.6,,,,0,,86,,,-,,,,0,,,7.4,
Threave,09/10/2019 22:00,9.8,,,,0,,87,,,-,,,,0,,,7.9,
Threave,09/10/2019 23:00,9.5,,,,0,,86,,,-,,,,0,,,7.3,
Threave,10/10/2019 00:00,9.5,,,,0,0,86,,,-,,,,,,,7.3,
Threave,10/10/2019 01:00,9.6,,,,0,,85,,,-,,,,0,,,7.3,
Threave,10/10/2019 02:00,9.6,,,,0,,85,,,-,,,,0,,,7.3,
Threave,10/10/2019 03:00,9.8,,,,0,,84,,,-,,,,0,,,7.3,
Threave,10/10/2019 04:00,9.7,,,,0,,84,,,-,,,,0,,,7.2,
Threave,10/10/2019 05:00,9.7,,,,0,,83,,,-,,,,0,,,7,
Threave,10/10/2019 06:00,9.6,,8.5,,0,0,83,,,-,,,,0,,,6.9,
Threave,10/10/2019 07:00,9.1,,,,0,,85,,,-,,,,0,,,6.8,
Threave,10/10/2019 08:00,10.2,,,,0,,84,,,-,,,,146,,,7.7,
Threave,10/10/2019 09:00,11.1,,,,0,,81,,,-,,,,545,,,8.1,
Threave,10/10/2019 10:00,11.7,,,,0,,80,,,-,,,,770,,,8.5,
Threave,10/10/2019 11:00,11.9,,,,0,,80,,,-,,,,570,,,8.7,
Threave,10/10/2019 12:00,11.5,,,,0.2,0.2,89,,,-,,,,440,,,9.8,
Threave,10/10/2019 13:00,9.9,,,,1,,92,,,-,,,,347,,,8.8,
Threave,10/10/2019 14:00,10.5,,,,1.4,,96,,,-,,,,232,,,9.9,
Threave,10/10/2019 15:00,12.8,,,,0,,90,,,-,,,,293,,,11.3,
Threave,10/10/2019 16:00,13.5,,,,0,,88,,,-,,,,213,,,11.6,
Threave,10/10/2019 17:00,13.3,,,,0,,85,,,-,,,,284,,,11,
Threave,10/10/2019 18:00,13,,,13.7,0,2.8,81,,,-,,,,40,,,10,
Threave,10/10/2019 19:00,13.1,,,,0,,80,,,-,,,,0,,,9.9,
Threave,10/10/2019 20:00,13.1,,,,0,,85,,,-,,,,0,,,10.7,
Threave,10/10/2019 21:00,12.9,,,,0,,86,,,-,,,,0,,,10.7,
Threave,10/10/2019 22:00,12.9,,,,0.2,,87,,,-,,,,0,,,10.8,
Threave,10/10/2019 23:00,13,,,,0,,86,,,-,,,,0,,,10.8,
Threave,11/10/2019 00:00,13,,,,0,0.2,84,,,-,,,,,,,10.4,
Threave,11/10/2019 01:00,12.1,,,,0,,85,,,-,,,,0,,,9.7,
Threave,11/10/2019 02:00,11.1,,,,0,,81,,,-,,,,0,,,8,
Threave,11/10/2019 03:00,10.6,,,,0,,81,,,-,,,,0,,,7.5,
Threave,11/10/2019 04:00,9.7,,,,0,,84,,,-,,,,0,,,7.3,
Threave,11/10/2019 05:00,10.2,,,,0,,86,,,-,,,,0,,,8.1,
Threave,11/10/2019 06:00,10.6,,9.7,,0,0,82,,,-,,,,0,,,7.7,
Threave,11/10/2019 07:00,10.4,,,,0,,82,,,-,,,,0,,,7.5,
Threave,11/10/2019 08:00,10.6,,,,0,,81,,,-,,,,84,,,7.6,
Threave,11/10/2019 09:00,11.9,,,,0,,75,,,-,,,,372,,,7.8,
Threave,11/10/2019 10:00,12.8,,,,0,,72,,,-,,,,1056,,,7.9,
Threave,11/10/2019 11:00,13.6,,,,0,,67,,,-,,,,1444,,,7.8,
Threave,11/10/2019 12:00,13.8,,,,0,0,67,,,-,,,,1655,,,7.8,
Threave,11/10/2019 13:00,13.2,,,,0,,63,,,-,,,,1399,,,6.4,
Threave,11/10/2019 14:00,13.3,,,,0,,67,,,-,,,,1113,,,7.5,
Threave,11/10/2019 15:00,13.1,,,,0,,74,,,-,,,,1111,,,8.6,
Threave,11/10/2019 16:00,10.6,,,,1,,84,,,-,,,,525,,,8.1,
Threave,11/10/2019 17:00,10.6,,,,0,,85,,,-,,,,213,,,8.3,
Threave,11/10/2019 18:00,10.2,,,14.1,0,1,85,,,-,,,,29,,,7.8,
Threave,11/10/2019 19:00,10.4,,,,0,,79,,,-,,,,0,,,7,
Threave,11/10/2019 20:00,9.6,,,,0,,84,,,-,,,,0,,,7.2,
Threave,11/10/2019 21:00,9.9,,,,0,,82,,,-,,,,0,,,7.1,
Threave,11/10/2019 22:00,9.9,,,,0,,79,,,-,,,,0,,,6.5,
Threave,11/10/2019 23:00,10,,,,0,,81,,,-,,,,0,,,6.9,
Threave,12/10/2019 00:00,10.3,,,,0,0,82,,,-,,,,,,,7.5,
Threave,12/10/2019 01:00,10.2,,,,0,,82,,,-,,,,0,,,7.4,
Threave,12/10/2019 02:00,9.7,,,,0,,84,,,-,,,,0,,,7.2,
Threave,12/10/2019 03:00,9.2,,,,0,,86,,,-,,,,0,,,7.1,
Threave,12/10/2019 04:00,8.7,,,,0,,87,,,-,,,,0,,,6.8,
Threave,12/10/2019 05:00,8.5,,,,0,,90,,,-,,,,0,,,7.1,
Threave,12/10/2019 06:00,9,,8.3,,0,0,89,,,-,,,,0,,,7.4,
Threave,12/10/2019 07:00,8.7,,,,0,,90,,,-,,,,0,,,7.3,
Threave,12/10/2019 08:00,8.2,,,,0,,92,,,-,,,,101,,,7,
Threave,12/10/2019 09:00,10,,,,0,,92,,,-,,,,414,,,8.8,
Threave,12/10/2019 10:00,11.8,,,,0,,79,,,-,,,,944,,,8.3,
Threave,12/10/2019 11:00,12.4,,,,0,,72,,,-,,,,1084,,,7.6,
Threave,12/10/2019 12:00,12.7,,,,0,0,72,,,-,,,,822,,,7.8,
Threave,12/10/2019 13:00,12.5,,,,0,,73,,,-,,,,967,,,7.9,
Threave,12/10/2019 14:00,12.4,,,,0,,73,,,-,,,,742,,,7.8,
Threave,12/10/2019 15:00,13.2,,,,0,,76,,,-,,,,795,,,9.1,
Threave,12/10/2019 16:00,12.6,,,,0,,74,,,-,,,,614,,,8.1,
Threave,12/10/2019 17:00,11.3,,,,0,,78,,,-,,,,243,,,7.7,
Threave,12/10/2019 18:00,10.4,,,14.5,0,0,82,,,-,,,,16,,,7.6,
Threave,12/10/2019 19:00,9.5,,,,0,,89,,,-,,,,0,,,7.8,
Threave,12/10/2019 20:00,8.7,,,,0,,91,,,-,,,,0,,,7.4,
Threave,12/10/2019 21:00,8.7,,,,0,,92,,,-,,,,0,,,7.6,
Threave,12/10/2019 22:00,8.5,,,,0,,96,,,-,,,,0,,,7.9,
Threave,12/10/2019 23:00,8.7,,,,0,,96,,,-,,,,0,,,8.2,
Threave,13/10/2019 00:00,8.6,,,,0.6,0.6,96,,,-,,,,,,,8,
Threave,13/10/2019 01:00,7.6,,,,0,,95,,,-,,,,0,,,7,
Threave,13/10/2019 02:00,7.1,,,,0,,97,,,-,,,,0,,,6.7,
Threave,13/10/2019 03:00,5.3,,,,0,,95,,,-,,,,0,,,4.6,
Threave,13/10/2019 04:00,5,,,,0,,96,,,-,,,,0,,,4.5,
Threave,13/10/2019 05:00,5.1,,,,0,,98,,,-,,,,0,,,4.9,
Threave,13/10/2019 06:00,6.4,,4.8,,0.2,0.2,98,,,-,,,,0,,,6.2,
Threave,13/10/2019 07:00,6.8,,,,0.2,,99,,,-,,,,2,,,6.7,
Threave,13/10/2019 08:00,7.6,,,,0,,99,,,-,,,,54,,,7.5,
Threave,13/10/2019 09:00,8.4,,,,0,,98,,,-,,,,113,,,8.2,
Threave,13/10/2019 10:00,8.8,,,,0,,98,,,-,,,,222,,,8.6,
Threave,13/10/2019 11:00,9.2,,,,0,,98,,,-,,,,271,,,9,
Threave,13/10/2019 12:00,10.3,,,,0,0.2,97,,,-,,,,473,,,9.9,
Threave,13/10/2019 13:00,10,,,,0.8,,96,,,-,,,,242,,,9.5,
Threave,13/10/2019 14:00,10.2,,,,1.2,,96,,,-,,,,174,,,9.6,
Threave,13/10/2019 15:00,10.1,,,,1.6,,96,,,-,,,,159,,,9.6,
Threave,13/10/2019 16:00,10.2,,,,0.8,,96,,,-,,,,133,,,9.7,
Threave,13/10/2019 17:00,9.6,,,,0.8,,96,,,-,,,,62,,,9,
Threave,13/10/2019 18:00,9.1,,,10.4,0.2,5.8,96,,,-,,,,15,,,8.6,
Threave,13/10/2019 19:00,8.2,,,,0.8,,95,,,-,,,,0,,,7.5,
Threave,13/10/2019 20:00,8,,,,0,,97,,,-,,,,0,,,7.6,
Threave,13/10/2019 21:00,7.1,,,,0,,97,,,-,,,,0,,,6.7,
Threave,13/10/2019 22:00,6.1,,,,0,,97,,,-,,,,0,,,5.8,
Threave,13/10/2019 23:00,4.9,,,,0,,97,,,-,,,,0,,,4.6,
Threave,14/10/2019 00:00,3.9,,,,0,0.8,97,,,-,,,,,,,3.6,
Threave,14/10/2019 01:00,4.1,,,,0,,98,,,-,,,,0,,,3.9,
Threave,14/10/2019 02:00,3,,,,0,,98,,,-,,,,0,,,2.8,
Threave,14/10/2019 03:00,2.3,,,,0,,97,,,-,,,,0,,,2,
Threave,14/10/2019 04:00,1.5,,,,0,,98,,,-,,,,0,,,1.3,
Threave,14/10/2019 05:00,1.6,,,,0.2,,98,,,-,,,,0,,,1.4,
Threave,14/10/2019 06:00,1.7,,1.3,,0,0.2,99,,,-,,,,0,,,1.6,
Threave,14/10/2019 07:00,2.5,,,,0,,99,,,-,,,,1,,,2.4,
Threave,14/10/2019 08:00,3.6,,,,0,,99,,,-,,,,78,,,3.5,
Threave,14/10/2019 09:00,5.2,,,,0,,100,,,-,,,,283,,,5.2,
Threave,14/10/2019 10:00,6.8,,,,0,,99,,,-,,,,501,,,6.7,
Threave,14/10/2019 11:00,9,,,,0,,100,,,-,,,,820,,,9,
Threave,14/10/2019 12:00,10.5,,,,0,0,98,,,-,,,,1014,,,10.3,
Threave,14/10/2019 13:00,11.7,,,,0,,92,,,-,,,,893,,,10.6,
Threave,14/10/2019 14:00,12.3,,,,0,,89,,,-,,,,812,,,10.7,
Threave,14/10/2019 15:00,13.7,,,,0,,82,,,-,,,,948,,,10.7,
Threave,14/10/2019 16:00,13,,,,0,,78,,,-,,,,555,,,9.3,
Threave,14/10/2019 17:00,10.9,,,,0,,89,,,-,,,,203,,,9.2,
Threave,14/10/2019 18:00,9.1,,,14,0,0,94,,,-,,,,22,,,8.2,
Threave,14/10/2019 19:00,8.4,,,,0,,96,,,-,,,,0,,,7.8,
Threave,14/10/2019 20:00,7.8,,,,0,,96,,,-,,,,0,,,7.3,
Threave,14/10/2019 21:00,7.8,,,,0,,97,,,-,,,,0,,,7.5,
Threave,14/10/2019 22:00,7.8,,,,0,,97,,,-,,,,0,,,7.5,
Threave,14/10/2019 23:00,7.7,,,,0,,97,,,-,,,,0,,,7.4,
Threave,15/10/2019 00:00,6.8,,,,0,0,97,,,-,,,,,,,6.4,
Threave,15/10/2019 01:00,6.2,,,,0,,97,,,-,,,,0,,,5.9,
Threave,15/10/2019 02:00,5.9,,,,0,,98,,,-,,,,0,,,5.7,
Threave,15/10/2019 03:00,5,,,,0,,97,,,-,,,,0,,,4.7,
Threave,15/10/2019 04:00,4.2,,,,0,,98,,,-,,,,0,,,4,
Threave,15/10/2019 05:00,4,,,,0,,97,,,-,,,,0,,,3.7,
Threave,15/10/2019 06:00,3.3,,3.3,,0,0,98,,,-,,,,0,,,3.1,
Threave,15/10/2019 07:00,3.6,,,,0,,98,,,-,,,,0,,,3.4,
Threave,15/10/2019 08:00,3.5,,,,0,,99,,,-,,,,63,,,3.4,
Threave,15/10/2019 09:00,5.7,,,,0,,99,,,-,,,,262,,,5.6,
Threave,15/10/2019 10:00,8.7,,,,0,,99,,,-,,,,895,,,8.6,
Threave,15/10/2019 11:00,11,,,,0,,90,,,-,,,,1315,,,9.5,
Threave,15/10/2019 12:00,13,,,,0,0,72,,,-,,,,1522,,,8.2,
Threave,15/10/2019 13:00,12.2,,,,0,,79,,,-,,,,1057,,,8.8,
Threave,15/10/2019 14:00,11.5,,,,0,,84,,,-,,,,387,,,9,
Threave,15/10/2019 15:00,11.8,,,,0,,83,,,-,,,,251,,,9.1,
Threave,15/10/2019 16:00,11.9,,,,0,,84,,,-,,,,251,,,9.3,
Threave,15/10/2019 17:00,11.3,,,,0,,88,,,-,,,,90,,,9.4,
Threave,15/10/2019 18:00,10.3,,,13.4,0,0,90,,,-,,,,6,,,8.8,
Threave,15/10/2019 19:00,10.8,,,,0,,89,,,-,,,,0,,,9.2,
Threave,15/10/2019 20:00,10.6,,,,0,,87,,,-,,,,0,,,8.6,
Threave,15/10/2019 21:00,10.9,,,,0,,85,,,-,,,,0,,,8.5,
Threave,15/10/2019 22:00,11.1,,,,0,,88,,,-,,,,0,,,9.3,
Threave,15/10/2019 23:00,11.2,,,,0,,91,,,-,,,,0,,,9.8,
Threave,16/10/2019 00:00,11.7,,,,0,0,91,,,-,,,,,,,10.4,
Threave,16/10/2019 01:00,11.5,,,,0,,91,,,-,,,,0,,,10.1,
Threave,16/10/2019 02:00,11,,,,0,,87,,,-,,,,0,,,9,
Threave,16/10/2019 03:00,10.9,,,,0,,87,,,-,,,,0,,,8.9,
Threave,16/10/2019 04:00,10.8,,,,0,,88,,,-,,,,0,,,9,
Threave,16/10/2019 05:00,10.8,,,,0.2,,91,,,-,,,,0,,,9.4,
Threave,16/10/2019 06:00,11,,10,,0.8,1,94,,,-,,,,0,,,10.1,
Threave,16/10/2019 07:00,11.5,,,,1.2,,96,,,-,,,,0,,,10.9,
Threave,16/10/2019 08:00,11.8,,,,1.6,,96,,,-,,,,23,,,11.3,
Threave,16/10/2019 09:00,11,,,,0.8,,94,,,-,,,,149,,,10.1,
Threave,16/10/2019 10:00,11.1,,,,0,,87,,,-,,,,496,,,9.1,
Threave,16/10/2019 11:00,12,,,,0,,79,,,-,,,,935,,,8.5,
Threave,16/10/2019 12:00,13.4,,,,0,4,74,,,-,,,,1161,,,9,
Threave,16/10/2019 13:00,13.6,,,,0,,71,,,-,,,,1531,,,8.6,
Threave,16/10/2019 14:00,11.4,,,,0,,68,,,-,,,,1040,,,5.9,
Threave,16/10/2019 15:00,13.3,,,,0,,69,,,-,,,,667,,,7.9,
Threave,16/10/2019 16:00,12.1,,,,0,,66,,,-,,,,806,,,6.1,
Threave,16/10/2019 17:00,9.6,,,,0,,78,,,-,,,,185,,,6,
Threave,16/10/2019 18:00,7.1,,,14.5,0,0,88,,,-,,,,2,,,5.3,
Threave,16/10/2019 19:00,7.8,,,,0,,91,,,-,,,,0,,,6.5,
Threave,16/10/2019 20:00,7.7,,,,0,,94,,,-,,,,0,,,6.9,
Threave,16/10/2019 21:00,6.4,,,,0,,93,,,-,,,,0,,,5.4,
Threave,16/10/2019 22:00,5.2,,,,0,,95,,,-,,,,0,,,4.5,
Threave,16/10/2019 23:00,5.9,,,,0,,97,,,-,,,,0,,,5.6,
Threave,17/10/2019 00:00,5.2,,,,0,0,97,,,-,,,,,,,4.9,
Threave,17/10/2019 01:00,4.3,,,,0,,97,,,-,,,,0,,,4,
Threave,17/10/2019 02:00,3,,,,0,,97,,,-,,,,0,,,2.6,
Threave,17/10/2019 03:00,3,,,,0,,98,,,-,,,,0,,,2.8,
Threave,17/10/2019 04:00,2.7,,,,0,,97,,,-,,,,0,,,2.4,
Threave,17/10/2019 05:00,2.7,,,,0,,98,,,-,,,,0,,,2.5,
Threave,17/10/2019 06:00,2.6,,2.1,,0.8,0.8,99,,,-,,,,0,,,2.5,
Threave,17/10/2019 07:00,6.8,,,,0,,100,,,-,,,,3,,,6.8,
Threave,17/10/2019 08:00,10.4,,,,0,,97,,,-,,,,73,,,10,
Threave,17/10/2019 09:00,9.8,,,,1.8,,95,,,-,,,,134,,,9.1,
Threave,17/10/2019 10:00,9.6,,,,1.4,,92,,,-,,,,255,,,8.4,
Threave,17/10/2019 11:00,11.1,,,,0.2,,89,,,-,,,,555,,,9.5,
Threave,17/10/2019 12:00,11.4,,,,0,3,84,,,-,,,,936,,,8.8,
Threave,17/10/2019 13:00,12.3,,,,0,,80,,,-,,,,1485,,,9,
Threave,17/10/2019 14:00,12,,,,0,,80,,,-,,,,1077,,,8.7,
Threave,17/10/2019 15:00,11.6,,,,0,,78,,,-,,,,644,,,8,
Threave,17/10/2019 16:00,10.7,,,,1,,86,,,-,,,,165,,,8.5,
Threave,17/10/2019 17:00,10.4,,,,1.6,,89,,,-,,,,50,,,8.8,
Threave,17/10/2019 18:00,10.3,,,12.5,1.8,5,89,,,-,,,,3,,,8.7,
Threave,17/10/2019 19:00,9.8,,,,2.4,,89,,,-,,,,0,,,8.1,
Threave,17/10/2019 20:00,8.9,,,,5,,94,,,-,,,,0,,,8,
Threave,17/10/2019 21:00,9.2,,,,0.4,,92,,,-,,,,0,,,8.1,
Threave,17/10/2019 22:00,8.7,,,,2.6,,94,,,-,,,,0,,,7.8,
Threave,17/10/2019 23:00,8.9,,,,0.4,,95,,,-,,,,0,,,8.2,
Threave,18/10/2019 00:00,9.3,,,,0.8,12,90,,,-,,,,,,,7.9,
Threave,18/10/2019 01:00,8.9,,,,0.2,,94,,,-,,,,0,,,8,
Threave,18/10/2019 02:00,8.9,,,,0,,94,,,-,,,,0,,,8.1,
Threave,18/10/2019 03:00,8.2,,,,0,,93,,,-,,,,0,,,7.2,
Threave,18/10/2019 04:00,8.1,,,,0,,95,,,-,,,,0,,,7.4,
Threave,18/10/2019 05:00,8.1,,,,0,,95,,,-,,,,0,,,7.5,
Threave,18/10/2019 06:00,7.5,,7.5,,13,13,95,,,-,,,,0,,,6.9,
Threave,18/10/2019 07:00,7,,,,4,,97,,,-,,,,0,,,6.6,
Threave,18/10/2019 08:00,7.1,,,,5,,97,,,-,,,,5,,,6.8,
Threave,18/10/2019 09:00,7.6,,,,4,,97,,,-,,,,106,,,7.3,
Threave,18/10/2019 10:00,7.5,,,,2.8,,97,,,-,,,,75,,,7.2,
Threave,18/10/2019 11:00,7.6,,,,2.4,,97,,,-,,,,76,,,7.3,
Threave,18/10/2019 12:00,8.6,,,,1,19,97,,,-,,,,540,,,8.3,
Threave,18/10/2019 13:00,9.9,,,,0,,96,,,-,,,,688,,,9.3,
Threave,18/10/2019 14:00,10.6,,,,0,,86,,,-,,,,843,,,8.5,
Threave,18/10/2019 15:00,10.1,,,,0,,92,,,-,,,,264,,,8.9,
Threave,18/10/2019 16:00,10.2,,,,0,,92,,,-,,,,331,,,9,
Threave,18/10/2019 17:00,8.7,,,,0,,94,,,-,,,,88,,,7.9,
Threave,18/10/2019 18:00,8,,,10.8,0,0,95,,,-,,,,3,,,7.4,
Threave,18/10/2019 19:00,6.2,,,,0,,95,,,-,,,,0,,,5.5,
Threave,18/10/2019 20:00,5.4,,,,0,,96,,,-,,,,0,,,4.9,
Threave,18/10/2019 21:00,4.8,,,,0,,97,,,-,,,,0,,,4.4,
Threave,18/10/2019 22:00,4.2,,,,0,,97,,,-,,,,0,,,3.9,
Threave,18/10/2019 23:00,3.8,,,,0,,97,,,-,,,,0,,,3.5,
Threave,19/10/2019 00:00,3.7,,,,0,0,97,,,-,,,,,,,3.4,
Threave,19/10/2019 01:00,3.6,,,,0,,98,,,-,,,,0,,,3.4,
Threave,19/10/2019 02:00,3.8,,,,0,,98,,,-,,,,0,,,3.6,
Threave,19/10/2019 03:00,4.3,,,,0,,99,,,-,,,,0,,,4.2,
Threave,19/10/2019 04:00,4.4,,,,0,,99,,,-,,,,0,,,4.3,
Threave,19/10/2019 05:00,4.8,,,,0,,99,,,-,,,,0,,,4.7,
Threave,19/10/2019 06:00,5.1,,3,,0,0,99,,,-,,,,0,,,5,
Threave,19/10/2019 07:00,4.3,,,,0,,98,,,-,,,,0,,,4.1,
Threave,19/10/2019 08:00,6.8,,,,0,,99,,,-,,,,81,,,6.7,
Threave,19/10/2019 09:00,7.6,,,,0.2,,99,,,-,,,,111,,,7.5,
Threave,19/10/2019 10:00,8,,,,0.4,,97,,,-,,,,151,,,7.7,
Threave,19/10/2019 11:00,8.8,,,,0.2,,91,,,-,,,,569,,,7.5,
Threave,19/10/2019 12:00,9.4,,,,0,0.8,83,,,-,,,,602,,,6.7,
Threave,19/10/2019 13:00,9.4,,,,0,,81,,,-,,,,317,,,6.4,
Threave,19/10/2019 14:00,9.7,,,,0.2,,79,,,-,,,,426,,,6.4,
Threave,19/10/2019 15:00,10.3,,,,0,,76,,,-,,,,533,,,6.4,
Threave,19/10/2019 16:00,10,,,,0,,76,,,-,,,,418,,,6.1,
Threave,19/10/2019 17:00,8.5,,,,0,,78,,,-,,,,134,,,5,
Threave,19/10/2019 18:00,8,,,10.5,0,0.2,84,,,-,,,,4,,,5.5,
Threave,19/10/2019 19:00,7.9,,,,0,,81,,,-,,,,0,,,5,
Threave,19/10/2019 20:00,6.4,,,,0,,89,,,-,,,,0,,,4.8,
Threave,19/10/2019 21:00,5.9,,,,0,,88,,,-,,,,0,,,4.1,
Threave,19/10/2019 22:00,6.1,,,,0,,90,,,-,,,,0,,,4.6,
Threave,19/10/2019 23:00,6.7,,,,0,,86,,,-,,,,0,,,4.6,
Threave,20/10/2019 00:00,6.2,,,,0,0,88,,,-,,,,,,,4.4,
Threave,20/10/2019 01:00,6.5,,,,0,,88,,,-,,,,0,,,4.7,
Threave,20/10/2019 02:00,5.8,,,,0,,87,,,-,,,,0,,,3.9,
Threave,20/10/2019 03:00,4.1,,,,0,,89,,,-,,,,0,,,2.6,
Threave,20/10/2019 04:00,4,,,,0,,93,,,-,,,,0,,,3.1,
Threave,20/10/2019 05:00,3.3,,,,0,,88,,,-,,,,0,,,1.6,
Threave,20/10/2019 06:00,3.9,,3,,0,0,86,,,-,,,,0,,,1.9,
Threave,20/10/2019 07:00,2.4,,,,0,,92,,,-,,,,0,,,1.3,
Threave,20/10/2019 08:00,4.4,,,,0,,84,,,-,,,,73,,,2,
Threave,20/10/2019 09:00,5.6,,,,0,,83,,,-,,,,237,,,3.1,
Threave,20/10/2019 10:00,6.8,,,,0,,81,,,-,,,,381,,,3.9,
Threave,20/10/2019 11:00,8.4,,,,0,,76,,,-,,,,612,,,4.6,
Threave,20/10/2019 12:00,10.1,,,,0,0,67,,,-,,,,1123,,,4.3,
Threave,20/10/2019 13:00,10.2,,,,0,,67,,,-,,,,841,,,4.4,
Threave,20/10/2019 14:00,11.5,,,,0,,61,,,-,,,,1540,,,4.3,
Threave,20/10/2019 15:00,10.8,,,,0,,61,,,-,,,,1013,,,3.8,
Threave,20/10/2019 16:00,10.4,,,,0,,64,,,-,,,,501,,,4,
Threave,20/10/2019 17:00,8.3,,,,0,,72,,,-,,,,197,,,3.6,
Threave,20/10/2019 18:00,7.2,,,11.9,0,0,85,,,-,,,,4,,,4.9,
Threave,20/10/2019 19:00,8.1,,,,0,,77,,,-,,,,0,,,4.4,
Threave,20/10/2019 20:00,6,,,,0,,83,,,-,,,,0,,,3.4,
Threave,20/10/2019 21:00,3.9,,,,0,,91,,,-,,,,0,,,2.7,
Threave,20/10/2019 22:00,4.3,,,,0,,95,,,-,,,,0,,,3.7,
Threave,20/10/2019 23:00,5.5,,,,0,,86,,,-,,,,0,,,3.4,
Threave,21/10/2019 00:00,3.6,,,,0,0,90,,,-,,,,,,,2.2,
Threave,21/10/2019 01:00,2.8,,,,0,,94,,,-,,,,0,,,2,
Threave,21/10/2019 02:00,2.3,,,,0,,94,,,-,,,,0,,,1.5,
Threave,21/10/2019 03:00,2,,,,0,,97,,,-,,,,0,,,1.6,
Threave,21/10/2019 04:00,1.7,,,,0,,95,,,-,,,,0,,,1.1,
Threave,21/10/2019 05:00,1.4,,,,0,,96,,,-,,,,0,,,0.9,
Threave,21/10/2019 06:00,1,,1,,0,0,97,,,-,,,,0,,,0.6,
Threave,21/10/2019 07:00,0.7,,,,0,,97,,,-,,,,0,,,0.3,
Threave,21/10/2019 08:00,2.2,,,,0,,98,,,-,,,,61,,,2,
Threave,21/10/2019 09:00,3.2,,,,0,,98,,,-,,,,262,,,3,
Threave,21/10/2019 10:00,5.4,,,,0,,94,,,-,,,,578,,,4.6,
Threave,21/10/2019 11:00,7.7,,,,0,,83,,,-,,,,817,,,5.1,
Threave,21/10/2019 12:00,10.8,,,,0,0,66,,,-,,,,1158,,,4.9,
Threave,21/10/2019 13:00,10.1,,,,0,,66,,,-,,,,1252,,,4.1,
Threave,21/10/2019 14:00,10.4,,,,0,,66,,,-,,,,709,,,4.4,
Threave,21/10/2019 15:00,10.1,,,,0,,70,,,-,,,,555,,,4.9,
Threave,21/10/2019 16:00,9.5,,,,0,,69,,,-,,,,317,,,4.3,
Threave,21/10/2019 17:00,8.7,,,,0,,77,,,-,,,,120,,,4.9,
Threave,21/10/2019 18:00,7.8,,,11.4,0,0,84,,,-,,,,1,,,5.4,
Threave,21/10/2019 19:00,6.3,,,,0,,88,,,-,,,,0,,,4.6,
Threave,21/10/2019 20:00,6.7,,,,0,,87,,,-,,,,0,,,4.7,
Threave,21/10/2019 21:00,6.8,,,,0,,86,,,-,,,,0,,,4.7,
Threave,21/10/2019 22:00,6.5,,,,0,,87,,,-,,,,0,,,4.5,
Threave,21/10/2019 23:00,7.4,,,,0,,80,,,-,,,,0,,,4.3,
Threave,22/10/2019 00:00,5.5,,,,0,0,86,,,-,,,,,,,3.4,
Threave,22/10/2019 01:00,6.4,,,,0,,88,,,-,,,,0,,,4.6,
Threave,22/10/2019 02:00,7,,,,0,,85,,,-,,,,0,,,4.8,
Threave,22/10/2019 03:00,7.3,,,,0,,84,,,-,,,,0,,,4.8,
Threave,22/10/2019 04:00,7.8,,,,0,,83,,,-,,,,0,,,5.2,
Threave,22/10/2019 05:00,8,,,,0,,80,,,-,,,,0,,,4.9,
Threave,22/10/2019 06:00,8,,5.5,,0,0,82,,,-,,,,0,,,5.2,
Threave,22/10/2019 07:00,7.9,,,,0,,83,,,-,,,,0,,,5.3,
Threave,22/10/2019 08:00,8.7,,,,0,,81,,,-,,,,22,,,5.8,
Threave,22/10/2019 09:00,9.2,,,,0,,82,,,-,,,,74,,,6.4,
Threave,22/10/2019 10:00,9.8,,,,0,,81,,,-,,,,186,,,6.7,
Threave,22/10/2019 11:00,10.3,,,,0,,81,,,-,,,,275,,,7.2,
Threave,22/10/2019 12:00,10.8,,,,0,0,80,,,-,,,,431,,,7.5,
Threave,22/10/2019 13:00,11.1,,,,0,,78,,,-,,,,524,,,7.5,
Threave,22/10/2019 14:00,11.1,,,,0,,80,,,-,,,,741,,,7.9,
Threave,22/10/2019 15:00,10.8,,,,0,,83,,,-,,,,294,,,8.1,
Threave,22/10/2019 16:00,10.5,,,,0,,85,,,-,,,,192,,,8.1,
Threave,22/10/2019 17:00,10.4,,,,0,,83,,,-,,,,77,,,7.8,
Threave,22/10/2019 18:00,10.4,,,11.3,0,0,82,,,-,,,,1,,,7.5,
Threave,22/10/2019 19:00,10.6,,,,0,,83,,,-,,,,0,,,7.9,
Threave,22/10/2019 20:00,10.7,,,,0,,82,,,-,,,,0,,,7.8,
Threave,22/10/2019 21:00,10.5,,,,0,,82,,,-,,,,0,,,7.6,
Threave,22/10/2019 22:00,10.5,,,,0,,83,,,-,,,,0,,,7.8,
Threave,22/10/2019 23:00,10.5,,,,0,,83,,,-,,,,0,,,7.8,
Threave,23/10/2019 00:00,10.7,,,,0,0,83,,,-,,,,,,,8,
Threave,23/10/2019 01:00,10.9,,,,0,,82,,,-,,,,0,,,8.1,
Threave,23/10/2019 02:00,10.9,,,,0,,81,,,-,,,,0,,,7.8,
Threave,23/10/2019 03:00,10.8,,,,0,,81,,,-,,,,0,,,7.8,
Threave,23/10/2019 04:00,11.2,,,,0,,84,,,-,,,,0,,,8.6,
Threave,23/10/2019 05:00,11.1,,,,0,,85,,,-,,,,0,,,8.8,
Threave,23/10/2019 06:00,11.6,,10.3,,0,0,82,,,-,,,,0,,,8.7,
Threave,23/10/2019 07:00,11.8,,,,0,,83,,,-,,,,0,,,9.1,
Threave,23/10/2019 08:00,12,,,,0,,80,,,-,,,,30,,,8.8,
Threave,23/10/2019 09:00,12.3,,,,0,,79,,,-,,,,169,,,8.8,
Threave,23/10/2019 10:00,12.6,,,,0,,79,,,-,,,,588,,,9.2,
Threave,23/10/2019 11:00,12.7,,,,0,,80,,,-,,,,791,,,9.5,
Threave,23/10/2019 12:00,13.7,,,,0,0,74,,,-,,,,1440,,,9.2,
Threave,23/10/2019 13:00,13.6,,,,0,,78,,,-,,,,1398,,,9.9,
Threave,23/10/2019 14:00,12.4,,,,0,,78,,,-,,,,1177,,,8.7,
Threave,23/10/2019 15:00,11.8,,,,0,,79,,,-,,,,493,,,8.3,
Threave,23/10/2019 16:00,11.5,,,,0,,84,,,-,,,,223,,,8.9,
Threave,23/10/2019 17:00,11.5,,,,0,,78,,,-,,,,35,,,7.9,
Threave,23/10/2019 18:00,11.5,,,14.1,0,0,79,,,-,,,,0,,,8,
Threave,23/10/2019 19:00,11.8,,,,0,,78,,,-,,,,0,,,8.1,
Threave,23/10/2019 20:00,11.2,,,,0.2,,82,,,-,,,,0,,,8.3,
Threave,23/10/2019 21:00,10.6,,,,0.8,,94,,,-,,,,0,,,9.7,
Threave,23/10/2019 22:00,11,,,,0.6,,94,,,-,,,,0,,,10.2,
Threave,23/10/2019 23:00,11.3,,,,0.4,,94,,,-,,,,0,,,10.5,
Threave,24/10/2019 00:00,11.5,,,,0.6,3,96,,,-,,,,,,,10.9,
Threave,24/10/2019 01:00,11.6,,,,1.8,,96,,,-,,,,0,,,11.1,
Threave,24/10/2019 02:00,11.8,,,,1.6,,96,,,-,,,,0,,,11.3,
Threave,24/10/2019 03:00,12,,,,0.6,,96,,,-,,,,0,,,11.4,
Threave,24/10/2019 04:00,11.1,,,,0,,95,,,-,,,,0,,,10.4,
Threave,24/10/2019 05:00,10.6,,,,0,,95,,,-,,,,0,,,9.9,
Threave,24/10/2019 06:00,10,,10,,0,4,96,,,-,,,,0,,,9.5,
Threave,24/10/2019 07:00,9.1,,,,0,,96,,,-,,,,0,,,8.5,
Threave,24/10/2019 08:00,8.9,,,,0,,97,,,-,,,,39,,,8.5,
Threave,24/10/2019 09:00,9.5,,,,0,,97,,,-,,,,276,,,9.1,
Threave,24/10/2019 10:00,10.4,,,,0,,92,,,-,,,,381,,,9.2,
Threave,24/10/2019 11:00,11.2,,,,0,,85,,,-,,,,645,,,8.8,
Threave,24/10/2019 12:00,11.4,,,,0,0,74,,,-,,,,1005,,,7.1,
Threave,24/10/2019 13:00,11.2,,,,0,,79,,,-,,,,566,,,7.8,
Threave,24/10/2019 14:00,11.6,,,,0,,77,,,-,,,,530,,,7.8,
Threave,24/10/2019 15:00,12.2,,,,0,,74,,,-,,,,668,,,7.8,
Threave,24/10/2019 16:00,9.9,,,,0.6,,85,,,-,,,,412,,,7.5,
Threave,24/10/2019 17:00,8.7,,,,0.4,,92,,,-,,,,57,,,7.5,
Threave,24/10/2019 18:00,7.8,,,12.9,0,1,92,,,-,,,,0,,,6.6,
Threave,24/10/2019 19:00,7.2,,,,0,,94,,,-,,,,0,,,6.4,
Threave,24/10/2019 20:00,6.3,,,,0,,95,,,-,,,,0,,,5.6,
Threave,24/10/2019 21:00,4.3,,,,0,,94,,,-,,,,0,,,3.5,
Threave,24/10/2019 22:00,3.5,,,,0,,97,,,-,,,,0,,,3.1,
Threave,24/10/2019 23:00,3.1,,,,0,,97,,,-,,,,0,,,2.8,
Threave,25/10/2019 00:00,4.5,,,,0.2,0.2,97,,,-,,,,,,,4.2,
Threave,25/10/2019 01:00,3,,,,0,,95,,,-,,,,0,,,2.4,
Threave,25/10/2019 02:00,2.5,,,,0,,97,,,-,,,,0,,,2.2,
Threave,25/10/2019 03:00,1.5,,,,0,,97,,,-,,,,0,,,1.1,
Threave,25/10/2019 04:00,0.5,,,,0,,97,,,-,,,,0,,,0.1,
Threave,25/10/2019 05:00,0.1,,,,0,,97,,,-,,,,0,,,-0.3,
Threave,25/10/2019 06:00,0.1,,0,,0,0,98,,,-,,,,0,,,-0.1,
Threave,25/10/2019 07:00,-0.1,,,,0,,97,,,-,,,,0,,,-0.4,
Threave,25/10/2019 08:00,0.2,,,,0,,98,,,-,,,,22,,,0,
Threave,25/10/2019 09:00,1.1,,,,0,,98,,,-,,,,90,,,0.9,
Threave,25/10/2019 10:00,2.1,,,,0,,99,,,-,,,,185,,,2,
Threave,25/10/2019 11:00,3.5,,,,0,,99,,,-,,,,286,,,3.4,
Threave,25/10/2019 12:00,4.7,,,,0.4,0.4,99,,,-,,,,280,,,4.6,
Threave,25/10/2019 13:00,5.4,,,,0.2,,98,,,-,,,,250,,,5.2,
Threave,25/10/2019 14:00,6,,,,0.4,,99,,,-,,,,198,,,5.9,
Threave,25/10/2019 15:00,6,,,,0.6,,98,,,-,,,,173,,,5.8,
Threave,25/10/2019 16:00,5.8,,,,0.8,,98,,,-,,,,91,,,5.6,
Threave,25/10/2019 17:00,5.5,,,,0.6,,97,,,-,,,,31,,,5.2,
Threave,25/10/2019 18:00,5.2,,,6.1,0.4,2.6,97,,,-,,,,0,,,4.9,
Threave,25/10/2019 19:00,5,,,,0,,97,,,-,,,,0,,,4.7,
Threave,25/10/2019 20:00,4.7,,,,0,,97,,,-,,,,0,,,4.4,
Threave,25/10/2019 21:00,4.6,,,,0.2,,97,,,-,,,,0,,,4.3,
Threave,25/10/2019 22:00,4.3,,,,0,,98,,,-,,,,0,,,4.1,
Threave,25/10/2019 23:00,4.5,,,,0,,98,,,-,,,,0,,,4.3,
Threave,26/10/2019 00:00,4.3,,,,0,0.2,98,,,-,,,,,,,4.1,
Threave,26/10/2019 01:00,4.1,,,,0,,97,,,-,,,,0,,,3.8,
Threave,26/10/2019 02:00,3.9,,,,0,,97,,,-,,,,0,,,3.6,
Threave,26/10/2019 03:00,4,,,,0,,98,,,-,,,,0,,,3.8,
Threave,26/10/2019 04:00,4.1,,,,0,,97,,,-,,,,0,,,3.8,
Threave,26/10/2019 05:00,3.9,,,,0,,98,,,-,,,,0,,,3.7,
Threave,26/10/2019 06:00,3.7,,3.6,,0,0,97,,,-,,,,0,,,3.4,
Threave,26/10/2019 07:00,3.7,,,,0,,98,,,-,,,,0,,,3.5,
Threave,26/10/2019 08:00,3.7,,,,0,,98,,,-,,,,18,,,3.5,
Threave,26/10/2019 09:00,4.3,,,,0,,98,,,-,,,,88,,,4.1,
Threave,26/10/2019 10:00,4.8,,,,0,,97,,,-,,,,317,,,4.5,
Threave,26/10/2019 11:00,6.2,,,,0,,96,,,-,,,,605,,,5.7,
Threave,26/10/2019 12:00,8,,,,0,0,72,,,-,,,,1241,,,3.4,
Threave,26/10/2019 13:00,8.4,,,,0,,72,,,-,,,,848,,,3.8,
Threave,26/10/2019 14:00,9.1,,,,0,,61,,,-,,,,1048,,,2.1,
Threave,26/10/2019 15:00,8.6,,,,0,,63,,,-,,,,1008,,,2,
Threave,26/10/2019 16:00,7.3,,,,0,,63,,,-,,,,521,,,0.9,
Threave,26/10/2019 17:00,5.9,,,,0,,67,,,-,,,,89,,,0.4,
Threave,26/10/2019 18:00,5.3,,,9.3,0,0,73,,,-,,,,0,,,0.9,
Threave,26/10/2019 19:00,4.6,,,,0,,80,,,-,,,,0,,,1.6,
Threave,26/10/2019 20:00,4.6,,,,0,,85,,,-,,,,0,,,2.3,
Threave,26/10/2019 21:00,5.3,,,,0,,84,,,-,,,,0,,,2.9,
Threave,26/10/2019 22:00,5.6,,,,0,,85,,,-,,,,0,,,3.4,
Threave,26/10/2019 23:00,5.9,,,,0,,88,,,-,,,,0,,,4.1,
Threave,27/10/2019 00:00,5.9,,,,0,0,87,,,-,,,,,,,4,
Threave,27/10/2019 01:00,5.4,,,,0.2,,88,,,-,,,,0,,,3.7,
Threave,27/10/2019 02:00,5,,,,0,,93,,,-,,,,0,,,4.1,
Threave,27/10/2019 03:00,5.5,,,,0,,84,,,-,,,,0,,,3.1,
Threave,27/10/2019 04:00,5.7,,,,0,,88,,,-,,,,0,,,4,
Threave,27/10/2019 05:00,6,,,,0.6,,87,,,-,,,,0,,,4.1,
Threave,27/10/2019 06:00,5.7,,4.1,,0.2,1,90,,,-,,,,0,,,4.3,
Threave,27/10/2019 07:00,5.5,,,,0,,88,,,-,,,,0,,,3.7,
Threave,27/10/2019 08:00,5.1,,,,0,,91,,,-,,,,34,,,3.9,
Threave,27/10/2019 09:00,7,,,,0,,87,,,-,,,,214,,,5,
Threave,27/10/2019 10:00,9.5,,,,0.2,,79,,,-,,,,774,,,6.1,
Threave,27/10/2019 11:00,9.8,,,,0,,75,,,-,,,,1098,,,5.7,
Threave,27/10/2019 12:00,10,,,,0,0.2,68,,,-,,,,1237,,,4.5,
Threave,27/10/2019 13:00,11.2,,,,0,,68,,,-,,,,1018,,,5.7,
Threave,27/10/2019 14:00,10.8,,,,0,,64,,,-,,,,1147,,,4.4,
Threave,27/10/2019 15:00,10.5,,,,0,,66,,,-,,,,811,,,4.5,
Threave,27/10/2019 16:00,8.8,,,,0,,73,,,-,,,,485,,,4.4,
Threave,27/10/2019 17:00,6.9,,,,0,,77,,,-,,,,87,,,3.3,
Threave,27/10/2019 18:00,5.4,,,11.2,0,0,82,,,-,,,,0,,,2.6,
Threave,27/10/2019 19:00,3.7,,,,0,,92,,,-,,,,0,,,2.6,
Threave,27/10/2019 20:00,2.6,,,,0,,93,,,-,,,,0,,,1.7,
Threave,27/10/2019 21:00,2.5,,,,0,,96,,,-,,,,0,,,2,
Threave,27/10/2019 22:00,2,,,,0,,96,,,-,,,,0,,,1.5,
Threave,27/10/2019 23:00,1.5,,,,0,,97,,,-,,,,0,,,1.1,
Threave,28/10/2019 00:00,1.1,,,,0,0,97,,,-,,,,,,,0.8,
Threave,28/10/2019 01:00,0.5,,,,0,,97,,,-,,,,0,,,0.2,
Threave,28/10/2019 02:00,-0.2,,,,0,,97,,,-,,,,0,,,-0.5,
Threave,28/10/2019 03:00,-0.2,,,,0,,97,,,-,,,,0,,,-0.5,
Threave,28/10/2019 04:00,-0.5,,,,0,,98,,,-,,,,0,,,-0.7,
Threave,28/10/2019 05:00,-0.7,,,,0,,98,,,-,,,,0,,,-0.9,
Threave,28/10/2019 06:00,-1.1,,-1.2,,0,0,98,,,-,,,,0,,,-1.3,
Threave,28/10/2019 07:00,-1.3,,,,0,,98,,,-,,,,0,,,-1.5,
Threave,28/10/2019 08:00,-1.2,,,,0,,98,,,-,,,,27,,,-1.4,
Threave,28/10/2019 09:00,-0.6,,,,0,,99,,,-,,,,228,,,-0.7,
Threave,28/10/2019 10:00,2.6,,,,0,,99,,,-,,,,887,,,2.5,
Threave,28/10/2019 11:00,5,,,,0,,91,,,-,,,,1103,,,3.7,
Threave,28/10/2019 12:00,7.2,,,,0,0,74,,,-,,,,1314,,,2.9,
Threave,28/10/2019 13:00,8.3,,,,0,,59,,,-,,,,1347,,,0.9,
Threave,28/10/2019 14:00,8.7,,,,0,,56,,,-,,,,1219,,,0.5,
Threave,28/10/2019 15:00,8.5,,,,0,,57,,,-,,,,949,,,0.7,
Threave,28/10/2019 16:00,6.9,,,,0,,64,,,-,,,,437,,,0.7,
Threave,28/10/2019 17:00,3.1,,,,0,,83,,,-,,,,73,,,0.5,
Threave,28/10/2019 18:00,1.5,,,9.1,0,0,90,,,-,,,,0,,,0.1,
Threave,28/10/2019 19:00,0.4,,,,0,,94,,,-,,,,0,,,-0.4,
Threave,28/10/2019 20:00,0,,,,0,,95,,,-,,,,0,,,-0.6,
Threave,28/10/2019 21:00,-0.3,,,,0,,97,,,-,,,,0,,,-0.7,
Threave,28/10/2019 22:00,-0.9,,,,0,,97,,,-,,,,0,,,-1.3,
Threave,28/10/2019 23:00,-0.9,,,,0,,97,,,-,,,,0,,,-1.3,
Threave,29/10/2019 00:00,-1.4,,,,0,0,97,,,-,,,,,,,-1.7,
Threave,29/10/2019 01:00,-1.7,,,,0,,97,,,-,,,,0,,,-2.1,
Threave,29/10/2019 02:00,-2,,,,0,,97,,,-,,,,0,,,-2.3,
Threave,29/10/2019 03:00,-2,,,,0,,97,,,-,,,,0,,,-2.3,
Threave,29/10/2019 04:00,-1.3,,,,0,,98,,,-,,,,0,,,-1.5,
Threave,29/10/2019 05:00,-0.8,,,,0,,98,,,-,,,,0,,,-1,
Threave,29/10/2019 06:00,-1.4,,-2.4,,0,0,97,,,-,,,,0,,,-1.7,
Threave,29/10/2019 07:00,-0.9,,,,0,,98,,,-,,,,0,,,-1.1,
Threave,29/10/2019 08:00,-0.7,,,,0,,98,,,-,,,,23,,,-0.9,
Threave,29/10/2019 09:00,0.3,,,,0,,98,,,-,,,,185,,,0.1,
Threave,29/10/2019 10:00,4.5,,,,0,,98,,,-,,,,767,,,4.3,
Threave,29/10/2019 11:00,7.2,,,,0.2,,83,,,-,,,,959,,,4.6,
Threave,29/10/2019 12:00,9,,,,0,0.2,74,,,-,,,,1275,,,4.7,
Threave,29/10/2019 13:00,10.1,,,,0,,70,,,-,,,,898,,,4.9,
Threave,29/10/2019 14:00,10.1,,,,0,,61,,,-,,,,1315,,,3.1,
Threave,29/10/2019 15:00,9.5,,,,0,,67,,,-,,,,828,,,3.8,
Threave,29/10/2019 16:00,8,,,,0,,70,,,-,,,,417,,,2.9,
Threave,29/10/2019 17:00,6.9,,,,0,,77,,,-,,,,78,,,3.2,
Threave,29/10/2019 18:00,5.1,,,10.9,0,0,88,,,-,,,,0,,,3.4,
Threave,29/10/2019 19:00,3.4,,,,0,,91,,,-,,,,0,,,2.1,
Threave,29/10/2019 20:00,2,,,,0,,91,,,-,,,,0,,,0.8,
Threave,29/10/2019 21:00,1.8,,,,0,,94,,,-,,,,0,,,1,
Threave,29/10/2019 22:00,1.7,,,,0,,95,,,-,,,,0,,,1,
Threave,29/10/2019 23:00,1,,,,0,,97,,,-,,,,0,,,0.6,
Threave,30/10/2019 00:00,0.9,,,,0,0,97,,,-,,,,,,,0.6,
Threave,30/10/2019 01:00,0.9,,,,0,,98,,,-,,,,0,,,0.7,
Threave,30/10/2019 02:00,0.7,,,,0,,97,,,-,,,,0,,,0.4,
Threave,30/10/2019 03:00,0.6,,,,0,,98,,,-,,,,0,,,0.4,
Threave,30/10/2019 04:00,-0.1,,,,0,,97,,,-,,,,0,,,-0.4,
Threave,30/10/2019 05:00,0.2,,,,0,,98,,,-,,,,0,,,0,
Threave,30/10/2019 06:00,0.4,,-0.4,,0,0,98,,,-,,,,0,,,0.2,
Threave,30/10/2019 07:00,0.1,,,,0,,98,,,-,,,,0,,,-0.1,
Threave,30/10/2019 08:00,0.9,,,,0,,98,,,-,,,,22,,,0.7,
Threave,30/10/2019 09:00,2.2,,,,0,,99,,,-,,,,133,,,2.1,
Threave,30/10/2019 10:00,5.8,,,,0,,96,,,-,,,,561,,,5.3,
Threave,30/10/2019 11:00,6.8,,,,0,,83,,,-,,,,1047,,,4.2,
Threave,30/10/2019 12:00,9.8,,,,0,0,75,,,-,,,,1350,,,5.6,
Threave,30/10/2019 13:00,10.7,,,,0,,66,,,-,,,,1284,,,4.7,
Threave,30/10/2019 14:00,10.5,,,,0,,65,,,-,,,,1157,,,4.3,
Threave,30/10/2019 15:00,10.1,,,,0,,67,,,-,,,,887,,,4.3,
Threave,30/10/2019 16:00,8.2,,,,0,,72,,,-,,,,411,,,3.6,
Threave,30/10/2019 17:00,6.5,,,,0,,80,,,-,,,,42,,,3.4,
Threave,30/10/2019 18:00,5.1,,,10.9,0,0,86,,,-,,,,0,,,3,
Threave,30/10/2019 19:00,4.6,,,,0,,89,,,-,,,,0,,,3.1,
Threave,30/10/2019 20:00,3.7,,,,0,,91,,,-,,,,0,,,2.5,
Threave,30/10/2019 21:00,3,,,,0,,95,,,-,,,,0,,,2.3,
Threave,30/10/2019 22:00,1,,,,0,,93,,,-,,,,0,,,0.1,
Threave,30/10/2019 23:00,1.3,,,,0,,97,,,-,,,,0,,,1,
Threave,31/10/2019 00:00,1.2,,,,0,0,97,,,-,,,,,,,0.9,
