Site,Date(UTC),Air Temp,Wind Speed,Min Temp,Max Temp,1Hr Precip,6Hr Precip,Rel Humidity,Wind Gust,Wind Direction,Weather,Pressure,Total Cloud,Visibility,Solar Rad,Sunshine,Snow Depth,Dew Point,OLE Temp
Dundrennan,01/09/2019 00:00,11.1,13,,,0,0.4,83,,260,Dry,1011,0,35,,,,8.5,
Dundrennan,01/09/2019 01:00,11.2,16,,,0,,85,,270,Dry,1011,4,35,0,0,,8.8,
Dundrennan,01/09/2019 02:00,10.8,17,,,0,,86,,270,Dry,1011,,20,0,0,,8.7,
Dundrennan,01/09/2019 03:00,10.9,16,,,0,,87,,270,Dry,1011,4,35,0,0,,8.9,
Dundrennan,01/09/2019 04:00,10.9,16,,,0,,88,,280,Dry,1011,6,30,0,0,,9,
Dundrennan,01/09/2019 05:00,10.5,17,,,0,,88,,270,Dry,1012,5,24,0,0,,8.7,
Dundrennan,01/09/2019 06:00,10.3,15,10.2,,0,0,89,,260,Dry,1012,1,23,15,0,,8.6,
Dundrennan,01/09/2019 07:00,11.1,16,,,0,,87,,260,Dry,1012,3,21,286,42,,9.1,
Dundrennan,01/09/2019 08:00,11.5,20,,,0,,82,29,270,Dry,1013,4,30,749,48,,8.7,
Dundrennan,01/09/2019 09:00,12,16,,,0,,82,,270,Dry,1014,4,20,1267,48,,9.1,
Dundrennan,01/09/2019 10:00,12.5,16,,,0,,77,,270,Rain,1014,7,30,1591,36,,8.6,
Dundrennan,01/09/2019 11:00,12.8,14,,,0.4,,84,,280,Rain,1014,2,26,1844,42,,10.3,
Dundrennan,01/09/2019 12:00,13.3,20,,,0,0.4,73,,290,Rain,1015,6,40,1928,36,,8.7,
Dundrennan,01/09/2019 13:00,12.6,21,,,0,,69,29,300,Dry,1016,1,35,2273,48,,7.2,
Dundrennan,01/09/2019 14:00,14.6,16,,,0,,63,,280,Dry,1016,2,35,2448,60,,7.8,
Dundrennan,01/09/2019 15:00,13.8,20,,,0,,64,31,290,Dry,1016,0,40,1593,42,,7.3,
Dundrennan,01/09/2019 16:00,15,17,,,0,,65,,280,Dry,1016,0,28,1784,54,,8.5,
Dundrennan,01/09/2019 17:00,13.5,14,,,0,,66,,290,Dry,1017,5,30,972,12,,7.4,
Dundrennan,01/09/2019 18:00,12.8,8,,15.5,0,0,72,,280,Dry,1017,7,30,350,0,,7.9,
Dundrennan,01/09/2019 19:00,12.2,7,,,0,,73,,290,Rain,1018,7,40,75,0,,7.6,
Dundrennan,01/09/2019 20:00,10.7,7,,,0.6,,86,,250,Light shower,1019,8,35,0,0,,8.6,
Dundrennan,01/09/2019 21:00,10.7,3,,,0,,91,,170,Rain,1019,8,22,0,0,,9.4,
Dundrennan,01/09/2019 22:00,10.7,2,,,0,,91,,120,Rain,1018,8,45,0,0,,9.3,
Dundrennan,01/09/2019 23:00,11.3,6,,,0,,88,,230,Dry,1018,2,35,0,0,,9.5,
Dundrennan,02/09/2019 00:00,11.5,8,,,0,0.6,91,,250,Light shower,1018,8,30,,,,10.1,
Dundrennan,02/09/2019 01:00,11.1,8,,,0,,94,,260,Rain,1018,7,45,0,0,,10.3,
Dundrennan,02/09/2019 02:00,10.8,9,,,0,,95,,270,Dry,1019,1,35,0,0,,10.1,
Dundrennan,02/09/2019 03:00,10.5,9,,,0,,95,,260,Dry,1018,2,40,0,0,,9.8,
Dundrennan,02/09/2019 04:00,11.2,12,,,0,,95,,260,Dry,1018,6,30,0,0,,10.5,
Dundrennan,02/09/2019 05:00,11.8,12,,,0,,91,,250,Dry,1018,8,30,0,0,,10.5,
Dundrennan,02/09/2019 06:00,12.4,9,10.3,,0,0,91,,250,Dry,1018,8,20,7,0,,11,
Dundrennan,02/09/2019 07:00,12.7,15,,,0,,87,,240,Dry,1018,8,21,90,0,,10.7,
Dundrennan,02/09/2019 08:00,12.8,15,,,0.8,,91,,230,Rain,1018,8,14,141,0,,11.4,
Dundrennan,02/09/2019 09:00,12.5,21,,,1.2,,95,,220,Moderate rain,1018,8,7,196,0,,11.8,
Dundrennan,02/09/2019 10:00,12.7,22,,,2,,96,30,220,Light rain,1018,8,8,390,0,,12.1,
Dundrennan,02/09/2019 11:00,12.7,23,,,0.4,,95,31,230,Rain,1017,8,16,476,0,,12,
Dundrennan,02/09/2019 12:00,13.3,26,,,0,4,91,35,230,Dry,1017,8,22,473,0,,11.9,
Dundrennan,02/09/2019 13:00,13,26,,,0.2,,96,35,220,Light drizzle,1016,8,5,365,0,,12.4,
Dundrennan,02/09/2019 14:00,13.4,28,,,3.8,,96,39,220,Moderate rain,1016,7,5,251,0,,12.9,
Dundrennan,02/09/2019 15:00,13.7,29,,,1.2,,96,41,230,Light drizzle,1016,6,6,256,0,,13.2,
Dundrennan,02/09/2019 16:00,13.9,26,,,0,,94,41,240,Rain,1015,8,17,341,0,,13.1,
Dundrennan,02/09/2019 17:00,13.6,24,,,0,,93,36,240,Light drizzle,1015,8,14,216,0,,12.6,
Dundrennan,02/09/2019 18:00,13.8,22,,14.1,0.4,6,94,33,240,Drizzle,1015,8,11,92,0,,13,
Dundrennan,02/09/2019 19:00,14.2,25,,,0,,90,32,240,Rain,1015,8,24,45,0,,12.6,
Dundrennan,02/09/2019 20:00,14.4,21,,,0,,87,35,240,Dry,1016,7,25,2,0,,12.4,
Dundrennan,02/09/2019 21:00,14.3,20,,,0,,87,33,250,Rain,1016,8,16,0,0,,12.2,
Dundrennan,02/09/2019 22:00,14.1,20,,,0,,88,31,250,Haze,1016,8,8,0,0,,12.3,
Dundrennan,02/09/2019 23:00,14.2,17,,,0,,88,29,240,Rain,1016,8,19,0,0,,12.3,
Dundrennan,03/09/2019 00:00,14.2,18,,,0,0,89,,250,Rain,1016,8,28,,,,12.5,
Dundrennan,03/09/2019 01:00,14.2,18,,,0,,91,,240,Dry,1017,8,20,0,0,,12.9,
Dundrennan,03/09/2019 02:00,14.3,20,,,0,,92,31,240,Dry,1017,8,16,0,0,,13.1,
Dundrennan,03/09/2019 03:00,14.3,20,,,0,,93,29,240,Dry,1017,8,23,0,0,,13.2,
Dundrennan,03/09/2019 04:00,14.2,15,,,0,,92,31,240,Dry,1017,8,24,0,0,,13,
Dundrennan,03/09/2019 05:00,14.1,17,,,0,,93,,230,Dry,1017,5,14,0,0,,13,
Dundrennan,03/09/2019 06:00,13.8,20,13.7,,0,0,96,,230,Light drizzle,1017,7,8,3,0,,13.2,
Dundrennan,03/09/2019 07:00,13.7,18,,,0.2,,97,,230,Rain,1017,8,5,48,0,,13.3,
Dundrennan,03/09/2019 08:00,13.9,18,,,0.4,,98,,230,Rain,1017,8,9,122,0,,13.6,
Dundrennan,03/09/2019 09:00,14.2,22,,,0,,96,30,230,Dry,1017,8,15,212,0,,13.6,
Dundrennan,03/09/2019 10:00,14.2,18,,,0,,95,30,220,Light drizzle,1017,8,14,301,0,,13.5,
Dundrennan,03/09/2019 11:00,14.6,21,,,0,,94,30,230,Drizzly rain,1017,8,18,499,0,,13.7,
Dundrennan,03/09/2019 12:00,14.7,22,,,0,0.6,94,31,230,Drizzly rain,1016,8,9,485,0,,13.9,
Dundrennan,03/09/2019 13:00,15.3,20,,,0,,94,29,220,Rain,1016,8,13,569,0,,14.5,
Dundrennan,03/09/2019 14:00,15.3,20,,,0.2,,94,,220,Drizzly rain,1016,4,2,463,0,,14.5,
Dundrennan,03/09/2019 15:00,15.8,21,,,0.4,,93,30,220,Rain,1015,8,16,446,0,,14.7,
Dundrennan,03/09/2019 16:00,15.6,18,,,0.4,,94,,220,Light shower,1015,5,12,293,0,,14.8,
Dundrennan,03/09/2019 17:00,15.4,17,,,0.2,,95,,220,Light rain,1014,8,11,124,0,,14.7,
Dundrennan,03/09/2019 18:00,15.3,15,,16,0.4,1.4,94,,240,Moderate rain,1014,8,6,64,0,,14.4,
Dundrennan,03/09/2019 19:00,15,16,,,4.8,,98,,230,Moderate rain,1013,8,2,17,0,,14.7,
Dundrennan,03/09/2019 20:00,15.2,18,,,2.6,,98,,220,Moderate rain,1012,8,6,0,0,,15,
Dundrennan,03/09/2019 21:00,15.2,16,,,0.4,,99,,220,Thickening fog,1012,7,1,0,0,,15.1,
Dundrennan,03/09/2019 22:00,14.8,22,,,0.2,,99,29,240,Moderate drizzle,1011,8,2,0,0,,14.7,
Dundrennan,03/09/2019 23:00,13.6,8,,,0.2,,98,,290,Rain,1011,3,18,0,0,,13.4,
Dundrennan,04/09/2019 00:00,13.4,9,,,0,8,98,,260,Rain,1011,8,26,,,,13.1,
Dundrennan,04/09/2019 01:00,12.8,17,,,1.6,,97,30,280,Moderate shower,1011,5,12,0,0,,12.4,
Dundrennan,04/09/2019 02:00,12.3,9,,,0.2,,95,,280,Rain,1010,7,29,0,0,,11.6,
Dundrennan,04/09/2019 03:00,11.5,10,,,0,,96,,280,Rain,1010,2,25,0,0,,10.9,
Dundrennan,04/09/2019 04:00,10.9,14,,,0,,89,,280,Dry,1010,6,24,0,0,,9.3,
Dundrennan,04/09/2019 05:00,10.6,15,,,0,,89,,270,Dry,1010,,19,0,0,,8.9,
Dundrennan,04/09/2019 06:00,11,18,10.3,,0,2,88,,250,Dry,1010,3,17,11,0,,9.1,
Dundrennan,04/09/2019 07:00,11.2,21,,,0,,86,,250,Dry,1009,6,22,266,24,,9.1,
Dundrennan,04/09/2019 08:00,11.4,23,,,0,,85,31,250,Dry,1009,7,21,517,18,,9,
Dundrennan,04/09/2019 09:00,12.5,23,,,0,,81,32,240,Dry,1008,7,18,1287,54,,9.5,
Dundrennan,04/09/2019 10:00,11.3,25,,,0.2,,88,35,230,Light shower,1008,8,8,638,0,,9.4,
Dundrennan,04/09/2019 11:00,12,29,,,0.2,,88,44,240,Rain,1007,8,15,391,0,,10.1,
Dundrennan,04/09/2019 12:00,12.3,29,,,0,0.4,90,41,250,Rain,1006,7,9,431,0,,10.8,
Dundrennan,04/09/2019 13:00,12.8,30,,,0.2,,89,41,250,Rain,1006,8,16,1051,6,,11.1,
Dundrennan,04/09/2019 14:00,12.3,28,,,1.2,,91,45,260,Drizzly rain,1005,6,11,978,6,,11,
Dundrennan,04/09/2019 15:00,14.4,21,,,0,,86,38,300,Rain,1006,8,30,1225,6,,12.2,
Dundrennan,04/09/2019 16:00,14.6,21,,,0,,78,37,320,Dry,1008,7,45,1017,12,,11,
Dundrennan,04/09/2019 17:00,14.2,20,,,0,,72,33,310,Dry,1010,1,40,1010,24,,9.4,
Dundrennan,04/09/2019 18:00,12.8,20,,15.1,0,1.6,73,36,330,Dry,1012,2,35,715,54,,8.1,
Dundrennan,04/09/2019 19:00,11.2,21,,,0,,77,41,330,Dry,1014,0,40,195,30,,7.4,
Dundrennan,04/09/2019 20:00,11,18,,,0,,77,35,320,Dry,1016,7,50,5,0,,7.3,
Dundrennan,04/09/2019 21:00,10.6,14,,,0,,78,29,330,Dry,1018,1,45,0,0,,7.1,
Dundrennan,04/09/2019 22:00,9.7,17,,,0,,76,,330,Dry,1019,2,45,0,0,,5.8,
Dundrennan,04/09/2019 23:00,8.8,10,,,0,,77,30,340,Dry,1020,,30,0,0,,5.1,
Dundrennan,05/09/2019 00:00,8.7,13,,,0,0,77,,330,Dry,1021,0,23,,,,4.9,
Dundrennan,05/09/2019 01:00,8.6,12,,,0,,73,,320,Dry,1021,,30,0,0,,4.2,
Dundrennan,05/09/2019 02:00,7.8,8,,,0,,73,,310,Dry,1022,2,30,0,0,,3.4,
Dundrennan,05/09/2019 03:00,8.8,13,,,0,,74,,280,Dry,1022,7,21,0,0,,4.6,
Dundrennan,05/09/2019 04:00,9.3,14,,,0,,77,,280,Dry,1023,,30,0,0,,5.5,
Dundrennan,05/09/2019 05:00,8.7,10,,,0,,82,,300,Dry,1023,4,30,0,0,,5.9,
Dundrennan,05/09/2019 06:00,8.3,8,7.6,,0,0,85,,280,Dry,1023,0,21,12,0,,6,
Dundrennan,05/09/2019 07:00,9.8,9,,,0,,84,,270,Dry,1024,2,30,251,18,,7.4,
Dundrennan,05/09/2019 08:00,11,16,,,0,,82,,300,Dry,1024,7,25,383,6,,8.2,
Dundrennan,05/09/2019 09:00,11.6,16,,,0,,80,,300,Dry,1024,,22,816,12,,8.4,
Dundrennan,05/09/2019 10:00,12.4,12,,,0,,84,,270,Dry,1024,6,22,899,0,,9.9,
Dundrennan,05/09/2019 11:00,12.3,21,,,0,,90,30,280,Dry,1024,6,16,997,0,,10.8,
Dundrennan,05/09/2019 12:00,14.1,25,,,0,0,77,35,290,Dry,1024,7,15,1825,24,,10.3,
Dundrennan,05/09/2019 13:00,14.9,17,,,0,,71,33,290,Dry,1024,7,28,1634,12,,9.8,
Dundrennan,05/09/2019 14:00,14.9,17,,,0,,71,30,290,Dry,1024,7,30,1295,6,,9.8,
Dundrennan,05/09/2019 15:00,15.2,20,,,0,,73,,290,Dry,1024,5,16,1051,18,,10.5,
Dundrennan,05/09/2019 16:00,14.9,20,,,0,,73,30,270,Dry,1024,1,24,1543,42,,10.2,
Dundrennan,05/09/2019 17:00,14.1,14,,,0,,76,,280,Dry,1023,1,17,810,6,,10,
Dundrennan,05/09/2019 18:00,14,10,,15.6,0,0,78,,240,Dry,1023,5,22,214,0,,10.4,
Dundrennan,05/09/2019 19:00,13.9,12,,,0,,78,,240,Dry,1022,7,23,105,0,,10.2,
Dundrennan,05/09/2019 20:00,13.7,13,,,0,,79,,230,Dry,1022,7,19,0,0,,10.2,
Dundrennan,05/09/2019 21:00,13.5,12,,,0,,76,,240,Dry,1021,8,24,0,0,,9.4,
Dundrennan,05/09/2019 22:00,14,20,,,0,,76,32,240,Rain,1020,7,28,0,0,,10,
Dundrennan,05/09/2019 23:00,13.3,25,,,0,,81,38,250,Rain,1020,8,15,0,0,,10.2,
Dundrennan,06/09/2019 00:00,12.1,14,,,0.8,0.8,88,29,240,Light rain,1019,7,14,,,,10.3,
Dundrennan,06/09/2019 01:00,12.5,24,,,0,,87,37,230,Light rain,1018,8,10,0,0,,10.4,
Dundrennan,06/09/2019 02:00,12.2,26,,,0.8,,92,37,220,Rain,1016,8,13,0,0,,11,
Dundrennan,06/09/2019 03:00,12.7,32,,,0,,88,47,230,Dry,1015,8,12,0,0,,10.8,
Dundrennan,06/09/2019 04:00,12.9,29,,,0,,89,47,240,Dry,1014,8,10,0,0,,11.3,
Dundrennan,06/09/2019 05:00,13,30,,,0,,91,43,240,Dry,1013,8,13,0,0,,11.7,
Dundrennan,06/09/2019 06:00,13,23,12,,0,1.2,94,43,250,Drizzle,1013,8,6,6,0,,12.1,
Dundrennan,06/09/2019 07:00,11.9,18,,,1.4,,89,44,280,Rain,1014,1,28,115,0,,10.3,
Dundrennan,06/09/2019 08:00,12.4,18,,,0,,85,,280,Dry,1014,1,15,569,30,,10,
Dundrennan,06/09/2019 09:00,11.5,23,,,0,,84,32,280,Moderate shower,1014,6,3,1321,54,,9,
Dundrennan,06/09/2019 10:00,12.5,17,,,0,,81,,280,Rain,1015,5,21,885,12,,9.5,
Dundrennan,06/09/2019 11:00,12.6,16,,,0.2,,78,35,290,Rain,1015,7,24,1328,24,,9,
Dundrennan,06/09/2019 12:00,12.9,22,,,0.2,2,85,31,280,Rain,1015,4,11,1038,12,,10.6,
Dundrennan,06/09/2019 13:00,12.2,20,,,0,,90,38,280,Rain,1016,7,10,1500,18,,10.7,
Dundrennan,06/09/2019 14:00,14.6,21,,,0,,74,31,280,Dry,1016,3,30,1977,36,,10.1,
Dundrennan,06/09/2019 15:00,14.9,23,,,0,,71,33,290,Dry,1016,4,23,1850,42,,9.9,
Dundrennan,06/09/2019 16:00,14.1,21,,,0,,72,32,290,Dry,1016,2,26,1461,36,,9.2,
Dundrennan,06/09/2019 17:00,13.4,22,,,0,,80,32,290,Dry,1017,1,27,995,42,,10.1,
Dundrennan,06/09/2019 18:00,13,18,,15.1,0,0,81,,290,Rain,1017,6,24,308,12,,9.9,
Dundrennan,06/09/2019 19:00,12.2,17,,,0,,87,,290,Dry,1018,5,35,100,6,,10.2,
Dundrennan,06/09/2019 20:00,12.2,15,,,0,,89,,290,Dry,1018,8,18,0,0,,10.5,
Dundrennan,06/09/2019 21:00,11.6,17,,,0,,90,,280,Dry,1019,1,30,0,0,,10.1,
Dundrennan,06/09/2019 22:00,11.3,15,,,0,,90,,290,Dry,1019,0,45,0,0,,9.8,
Dundrennan,06/09/2019 23:00,10.5,9,,,0,,91,,310,Dry,1020,0,26,0,0,,9.1,
Dundrennan,07/09/2019 00:00,9.5,6,,,0,0,90,,300,Dry,1020,,45,,,,8,
Dundrennan,07/09/2019 01:00,9.7,5,,,0,,86,,310,Dry,1021,0,40,0,0,,7.6,
Dundrennan,07/09/2019 02:00,9.5,8,,,0,,86,,320,Dry,1021,,45,0,0,,7.3,
Dundrennan,07/09/2019 03:00,8.8,7,,,0,,86,,340,Dry,1021,0,30,0,0,,6.6,
Dundrennan,07/09/2019 04:00,9.1,8,,,0,,87,,340,Dry,1022,0,30,0,0,,7.1,
Dundrennan,07/09/2019 05:00,8.8,9,,,0,,90,,350,Dry,1022,,40,0,0,,7.4,
Dundrennan,07/09/2019 06:00,8.8,8,8.4,,0,0,94,,350,Dry,1023,1,30,3,0,,7.9,
Dundrennan,07/09/2019 07:00,9.6,9,,,0,,90,,360,Dry,1024,0,40,175,24,,8.2,
Dundrennan,07/09/2019 08:00,11,10,,,0,,85,,10,Dry,1024,0,30,601,42,,8.7,
Dundrennan,07/09/2019 09:00,11.8,9,,,0,,73,,30,Dry,1025,0,40,1287,60,,7.2,
Dundrennan,07/09/2019 10:00,13,9,,,0,,69,,40,Dry,1025,0,35,1752,60,,7.5,
Dundrennan,07/09/2019 11:00,14.1,6,,,0,,61,,50,Dry,1026,2,50,2205,54,,6.9,
Dundrennan,07/09/2019 12:00,14.1,7,,,0,0,63,,360,Dry,1026,6,29,2206,42,,7.4,
Dundrennan,07/09/2019 13:00,14.7,5,,,0,,57,,310,Dry,1026,,29,2294,54,,6.3,
Dundrennan,07/09/2019 14:00,14.6,6,,,0,,66,,210,Dry,1026,4,40,2259,54,,8.4,
Dundrennan,07/09/2019 15:00,14.6,9,,,0,,67,,200,Dry,1026,2,50,2104,60,,8.6,
Dundrennan,07/09/2019 16:00,13.2,9,,,0,,70,,210,Dry,1026,6,50,1157,24,,7.9,
Dundrennan,07/09/2019 17:00,12.9,9,,,0,,76,,200,Dry,1026,1,50,762,24,,8.8,
Dundrennan,07/09/2019 18:00,13,7,,15.5,0,0,73,,200,Dry,1026,0,35,617,60,,8.4,
Dundrennan,07/09/2019 19:00,11.5,5,,,0,,78,,120,Dry,1027,0,35,164,42,,7.9,
Dundrennan,07/09/2019 20:00,11.3,2,,,0,,81,,70,Dry,1027,0,50,0,0,,8.3,
Dundrennan,07/09/2019 21:00,10.1,6,,,0,,83,,10,Dry,1027,,50,0,0,,7.5,
Dundrennan,07/09/2019 22:00,9.4,8,,,0,,84,,10,Dry,1027,0,50,0,0,,7,
Dundrennan,07/09/2019 23:00,9.2,7,,,0,,83,,10,Dry,1027,,45,0,0,,6.6,
Dundrennan,08/09/2019 00:00,8.9,7,,,0,0,82,,10,Dry,1026,0,50,,,,6.1,
Dundrennan,08/09/2019 01:00,7.8,3,,,0,,85,,10,Dry,1026,,35,0,0,,5.6,
Dundrennan,08/09/2019 02:00,6.8,3,,,0,,90,,330,Dry,1026,0,19,0,0,,5.3,
Dundrennan,08/09/2019 03:00,7,3,,,0,,92,,360,Dry,1026,,50,0,0,,5.9,
Dundrennan,08/09/2019 04:00,6.2,3,,,0,,92,,30,Dry,1025,,50,0,0,,5.1,
Dundrennan,08/09/2019 05:00,6.3,5,,,0,,93,,350,Dry,1025,0,45,0,0,,5.4,
Dundrennan,08/09/2019 06:00,6.6,6,6,,0,0,93,,30,Dry,1025,0,50,6,0,,5.7,
Dundrennan,08/09/2019 07:00,9.7,6,,,0,,90,,30,Dry,1024,4,35,350,48,,8.2,
Dundrennan,08/09/2019 08:00,10.1,3,,,0,,91,,160,Dry,1024,8,45,389,0,,8.7,
Dundrennan,08/09/2019 09:00,10.9,3,,,0,,88,,180,Dry,1024,8,27,677,0,,9,
Dundrennan,08/09/2019 10:00,12.2,5,,,0,,84,,120,Dry,1024,8,50,999,0,,9.7,
Dundrennan,08/09/2019 11:00,12.6,6,,,0,,79,,130,Dry,1023,8,30,1289,0,,9.2,
Dundrennan,08/09/2019 12:00,12.8,7,,,0,0,79,,140,Dry,1022,8,29,1362,0,,9.4,
Dundrennan,08/09/2019 13:00,13.5,9,,,0,,77,,160,Dry,1022,7,35,1478,0,,9.7,
Dundrennan,08/09/2019 14:00,14.1,10,,,0,,77,,170,Dry,1021,8,30,1283,0,,10.2,
Dundrennan,08/09/2019 15:00,13.5,12,,,0,,83,,180,Dry,1020,8,35,1024,12,,10.7,
Dundrennan,08/09/2019 16:00,13.5,10,,,0,,83,,230,Dry,1020,8,35,829,0,,10.8,
Dundrennan,08/09/2019 17:00,13.3,8,,,0,,87,,220,Dry,1019,8,45,488,0,,11.3,
Dundrennan,08/09/2019 18:00,12.4,8,,14.9,0,0,93,,210,Moderate drizzle,1018,5,5,206,0,,11.4,
Dundrennan,08/09/2019 19:00,12,8,,,0.2,,96,,200,Light shower,1018,7,3,31,0,,11.4,
Dundrennan,08/09/2019 20:00,11.9,9,,,0.2,,97,,220,Drizzly rain,1017,8,2,0,0,,11.5,
Dundrennan,08/09/2019 21:00,11.8,9,,,0.6,,97,,190,Light drizzle,1017,8,2,0,0,,11.4,
Dundrennan,08/09/2019 22:00,12,10,,,1,,98,,190,Light drizzle,1016,3,3,0,0,,11.8,
Dundrennan,08/09/2019 23:00,12.3,10,,,1.4,,98,,200,Moderate rain,1015,6,2,0,0,,12.1,
Dundrennan,09/09/2019 00:00,12.4,9,,,2,5,98,,200,Light rain,1014,7,1,,,,12.2,
Dundrennan,09/09/2019 01:00,12.4,13,,,0.8,,99,,190,Moderate drizzle,1013,8,2,0,0,,12.3,
Dundrennan,09/09/2019 02:00,12.1,16,,,1,,98,,190,Moderate rain,1012,8,3,0,0,,11.9,
Dundrennan,09/09/2019 03:00,11.9,18,,,5.8,,99,,180,Moderate rain,1011,7,4,0,0,,11.8,
Dundrennan,09/09/2019 04:00,12.1,18,,,6.2,,98,,180,Moderate rain,1010,4,3,0,0,,11.9,
Dundrennan,09/09/2019 05:00,12,18,,,6,,98,,190,Moderate rain,1009,8,4,0,0,,11.8,
Dundrennan,09/09/2019 06:00,11.7,16,10.9,,4.8,25,97,,170,Light rain,1009,1,13,0,0,,11.3,
Dundrennan,09/09/2019 07:00,11.3,17,,,0.8,,95,,160,Moderate rain,1009,7,11,18,0,,10.6,
Dundrennan,09/09/2019 08:00,11.4,14,,,0.6,,95,,160,Light drizzle,1009,8,18,81,0,,10.7,
Dundrennan,09/09/2019 09:00,11.5,12,,,0.2,,95,,140,Light drizzle,1009,8,12,197,0,,10.8,
Dundrennan,09/09/2019 10:00,11.6,13,,,0.2,,94,,140,Light drizzle,1009,8,6,396,0,,10.7,
Dundrennan,09/09/2019 11:00,11.8,10,,,0.2,,95,,90,Drizzle,1009,8,11,741,0,,11.1,
Dundrennan,09/09/2019 12:00,12.3,10,,,0,2,92,,80,Light drizzle,1009,8,23,727,0,,11.2,
Dundrennan,09/09/2019 13:00,12.9,7,,,0,,87,,80,Drizzle,1009,8,40,948,0,,10.8,
Dundrennan,09/09/2019 14:00,13.3,5,,,0,,85,,60,Rain,1010,8,40,829,0,,10.9,
Dundrennan,09/09/2019 15:00,13.5,5,,,0,,85,,10,Dry,1010,8,35,684,0,,11.2,
Dundrennan,09/09/2019 16:00,13.8,5,,,0,,88,,330,Dry,1010,8,30,697,0,,11.9,
Dundrennan,09/09/2019 17:00,13.9,7,,,0,,85,,260,Dry,1011,8,35,837,12,,11.5,
Dundrennan,09/09/2019 18:00,12.8,8,,14.4,0,0,93,,300,Dry,1012,4,35,451,6,,11.7,
Dundrennan,09/09/2019 19:00,12,8,,,0.8,,96,,360,Light shower,1013,7,7,36,0,,11.4,
Dundrennan,09/09/2019 20:00,12,7,,,0.2,,95,,340,Rain,1014,8,30,0,0,,11.3,
Dundrennan,09/09/2019 21:00,11.6,9,,,0,,89,,350,Dry,1014,7,50,0,0,,10,
Dundrennan,09/09/2019 22:00,11,10,,,0,,91,,340,Dry,1015,3,30,0,0,,9.7,
Dundrennan,09/09/2019 23:00,10.4,6,,,0,,93,,310,Dry,1015,8,45,0,0,,9.4,
Dundrennan,10/09/2019 00:00,9.7,6,,,0,1,93,,320,Dry,1015,5,35,,,,8.7,
Dundrennan,10/09/2019 01:00,9.1,6,,,0,,96,,320,Dry,1016,0,26,0,0,,8.5,
Dundrennan,10/09/2019 02:00,9,7,,,0,,96,,320,Dry,1016,0,50,0,0,,8.4,
Dundrennan,10/09/2019 03:00,8.7,6,,,0,,94,,310,Dry,1016,0,35,0,0,,7.9,
Dundrennan,10/09/2019 04:00,8.6,7,,,0,,94,,330,Dry,1016,0,40,0,0,,7.8,
Dundrennan,10/09/2019 05:00,8.9,8,,,0,,92,,330,Dry,1016,0,29,0,0,,7.7,
Dundrennan,10/09/2019 06:00,9.2,7,7.8,,0,0,92,,320,Dry,1017,7,50,4,0,,8.1,
Dundrennan,10/09/2019 07:00,9.4,7,,,0,,90,,310,Dry,1018,0,45,118,0,,7.9,
Dundrennan,10/09/2019 08:00,10.9,5,,,0,,88,,290,Dry,1018,0,28,631,36,,9.1,
Dundrennan,10/09/2019 09:00,11.8,5,,,0,,85,,270,Dry,1018,1,35,1176,60,,9.4,
Dundrennan,10/09/2019 10:00,13.3,9,,,0,,80,,270,Dry,1018,0,27,1745,60,,10,
Dundrennan,10/09/2019 11:00,14,12,,,0,,72,,280,Dry,1018,0,30,1890,60,,9.2,
Dundrennan,10/09/2019 12:00,14.1,13,,,0,0,72,,260,Dry,1018,1,35,1790,18,,9.2,
Dundrennan,10/09/2019 13:00,13.7,14,,,0,,74,,240,Dry,1018,2,19,1406,0,,9.2,
Dundrennan,10/09/2019 14:00,13.7,15,,,0,,70,,240,Dry,1018,6,23,1500,12,,8.5,
Dundrennan,10/09/2019 15:00,13.6,16,,,0,,76,,230,Dry,1017,7,30,1304,0,,9.5,
Dundrennan,10/09/2019 16:00,13,17,,,0,,72,,220,Dry,1017,8,22,699,0,,8.2,
Dundrennan,10/09/2019 17:00,12.6,21,,,0,,79,,230,Dry,1016,1,19,281,0,,9.1,
Dundrennan,10/09/2019 18:00,12,18,,14.3,0,0,84,32,210,Rain,1015,8,19,81,0,,9.5,
Dundrennan,10/09/2019 19:00,12,22,,,0.2,,85,30,210,Rain,1015,8,20,12,0,,9.7,
Dundrennan,10/09/2019 20:00,12.3,21,,,0.2,,90,,200,Moderate shower,1014,8,7,0,0,,10.8,
Dundrennan,10/09/2019 21:00,12.9,22,,,0.8,,94,33,190,Light rain,1013,8,6,0,0,,12.1,
Dundrennan,10/09/2019 22:00,12.6,28,,,2,,97,37,200,Moderate rain,1012,7,2,0,0,,12.2,
Dundrennan,10/09/2019 23:00,13.4,20,,,4.8,,98,35,210,Rain,1011,7,7,0,0,,13.2,
Dundrennan,11/09/2019 00:00,14.4,22,,,0,8,96,31,220,Dry,1010,8,12,,,,13.9,
Dundrennan,11/09/2019 01:00,14.6,23,,,0,,94,36,220,Misty,1009,8,9,1,0,,13.8,
Dundrennan,11/09/2019 02:00,14.6,24,,,2.8,,98,36,220,Moderate shower,1008,8,3,0,0,,14.3,
Dundrennan,11/09/2019 03:00,14.9,31,,,0.8,,98,40,220,Drizzly rain,1008,8,6,0,0,,14.6,
Dundrennan,11/09/2019 04:00,15,26,,,1,,98,40,230,Light drizzle,1007,8,7,0,0,,14.8,
Dundrennan,11/09/2019 05:00,15.1,26,,,0,,97,39,230,Drizzle,1007,8,13,1,0,,14.7,
Dundrennan,11/09/2019 06:00,14.3,21,11.6,,1,6,96,35,250,Rain,1008,8,17,4,0,,13.8,
Dundrennan,11/09/2019 07:00,13.4,16,,,0.2,,91,29,270,Dry,1009,2,26,169,24,,12.1,
Dundrennan,11/09/2019 08:00,13.7,20,,,0,,87,30,250,Dry,1010,2,28,575,48,,11.7,
Dundrennan,11/09/2019 09:00,14.1,25,,,0,,77,38,260,Dry,1011,4,20,1103,54,,10.3,
Dundrennan,11/09/2019 10:00,14.5,23,,,0,,74,35,270,Haze,1012,4,18,1681,54,,10.1,
Dundrennan,11/09/2019 11:00,14.7,18,,,0,,77,33,250,Dry,1013,2,19,949,6,,10.9,
Dundrennan,11/09/2019 12:00,16.1,24,,,0,0.2,76,33,260,Dry,1013,1,21,2121,30,,12,
Dundrennan,11/09/2019 13:00,14.7,20,,,0,,80,30,240,Dry,1014,1,14,1149,6,,11.4,
Dundrennan,11/09/2019 14:00,15.7,16,,,0,,79,29,250,Rain,1015,1,23,1278,18,,12.1,
Dundrennan,11/09/2019 15:00,15.2,15,,,0,,75,30,250,Dry,1015,1,40,899,0,,10.9,
Dundrennan,11/09/2019 16:00,14.7,10,,,0,,79,,280,Dry,1016,1,30,729,6,,11.2,
Dundrennan,11/09/2019 17:00,14.9,12,,,0,,74,,270,Dry,1016,7,30,546,6,,10.4,
Dundrennan,11/09/2019 18:00,14.3,9,,16.5,0,0,77,,250,Dry,1017,8,35,210,0,,10.4,
Dundrennan,11/09/2019 19:00,13.5,10,,,0,,81,,290,Dry,1018,7,30,68,0,,10.4,
Dundrennan,11/09/2019 20:00,13.3,9,,,0,,80,,250,Dry,1018,8,19,0,0,,10,
Dundrennan,11/09/2019 21:00,13.4,10,,,0,,82,,250,Dry,1018,8,30,0,0,,10.4,
Dundrennan,11/09/2019 22:00,13.4,14,,,0,,80,,250,Dry,1019,8,35,0,0,,10.1,
Dundrennan,11/09/2019 23:00,13,13,,,0,,81,,250,Dry,1019,8,30,0,0,,9.9,
Dundrennan,12/09/2019 00:00,13.3,15,,,0,0,78,,250,Dry,1019,8,24,,,,9.7,
Dundrennan,12/09/2019 01:00,13.2,12,,,0,,83,,240,Dry,1019,3,22,0,0,,10.4,
Dundrennan,12/09/2019 02:00,13.4,14,,,0,,85,,240,Dry,1019,2,30,0,0,,11.1,
Dundrennan,12/09/2019 03:00,13.4,15,,,0,,82,,240,Dry,1019,8,30,0,0,,10.4,
Dundrennan,12/09/2019 04:00,13.5,17,,,0,,89,,230,Dry,1019,8,17,0,0,,11.8,
Dundrennan,12/09/2019 05:00,13.5,16,,,0,,90,,230,Dry,1019,8,15,0,0,,12,
Dundrennan,12/09/2019 06:00,13.5,16,12.7,,0,0,91,,230,Light drizzle,1019,2,14,1,0,,12.1,
Dundrennan,12/09/2019 07:00,13.4,17,,,0,,89,,230,Rain,1019,8,9,62,0,,11.7,
Dundrennan,12/09/2019 08:00,12.6,15,,,0.4,,97,,220,Moderate drizzle,1019,5,2,121,0,,12.2,
Dundrennan,12/09/2019 09:00,13.6,12,,,0.6,,98,,200,Moderate drizzle,1019,7,2,233,0,,13.3,
Dundrennan,12/09/2019 10:00,14.5,17,,,1.4,,98,,200,Moderate drizzle,1018,7,2,253,0,,14.3,
Dundrennan,12/09/2019 11:00,14.8,18,,,3.6,,99,31,220,Light rain,1018,8,0,295,0,,14.7,
Dundrennan,12/09/2019 12:00,15.3,24,,,0.4,6,98,32,220,Drizzly rain,1018,8,8,326,0,,15.1,
Dundrennan,12/09/2019 13:00,15.6,22,,,0,,98,32,230,Rain,1018,8,6,554,0,,15.3,
Dundrennan,12/09/2019 14:00,15.4,21,,,0.2,,96,32,240,Moderate shower,1019,8,2,631,0,,14.9,
Dundrennan,12/09/2019 15:00,15.8,7,,,0.2,,95,,330,Rain,1020,8,45,518,0,,15.1,
Dundrennan,12/09/2019 16:00,15.3,17,,,0,,87,,300,Rain,1021,5,50,897,12,,13.2,
Dundrennan,12/09/2019 17:00,14.2,17,,,0,,83,,310,Dry,1022,3,50,841,24,,11.4,
Dundrennan,12/09/2019 18:00,13.3,18,,16,0,1,80,,280,Dry,1024,0,29,390,42,,10.1,
Dundrennan,12/09/2019 19:00,11.8,14,,,0,,82,,290,Dry,1026,0,45,106,24,,9,
Dundrennan,12/09/2019 20:00,11.3,8,,,0,,81,,310,Dry,1027,1,35,0,0,,8.2,
Dundrennan,12/09/2019 21:00,10.9,15,,,0,,88,,290,Dry,1028,0,26,0,0,,9,
Dundrennan,12/09/2019 22:00,10.3,13,,,0,,87,,300,Dry,1028,0,27,0,0,,8.3,
Dundrennan,12/09/2019 23:00,9.5,10,,,0,,88,,290,Dry,1029,0,20,0,0,,7.7,
Dundrennan,13/09/2019 00:00,10.1,10,,,0,0,87,,290,Dry,1030,,22,,,,8.2,
Dundrennan,13/09/2019 01:00,9.5,9,,,0,,89,,290,Dry,1030,0,21,0,0,,7.8,
Dundrennan,13/09/2019 02:00,9.1,8,,,0,,92,,290,Dry,1031,0,20,0,0,,7.9,
Dundrennan,13/09/2019 03:00,8.6,8,,,0,,93,,280,Dry,1031,0,14,0,0,,7.6,
Dundrennan,13/09/2019 04:00,9.2,12,,,0,,92,,280,Dry,1032,0,18,0,0,,8,
Dundrennan,13/09/2019 05:00,9,10,,,0,,94,,280,Dry,1033,1,18,0,0,,8.2,
Dundrennan,13/09/2019 06:00,8.9,8,8.3,,0,0,94,,290,Dry,1033,0,13,0,0,,8,
Dundrennan,13/09/2019 07:00,9.3,7,,,0,,96,,270,Dry,1034,,18,181,36,,8.7,
Dundrennan,13/09/2019 08:00,11,10,,,0,,92,,270,Dry,1034,,17,520,60,,9.9,
Dundrennan,13/09/2019 09:00,12.2,13,,,0,,90,,270,Dry,1035,1,16,1021,60,,10.7,
Dundrennan,13/09/2019 10:00,12.7,12,,,0,,85,,270,Dry,1035,5,17,1300,30,,10.3,
Dundrennan,13/09/2019 11:00,13.1,8,,,0,,84,,260,Dry,1035,6,25,899,0,,10.5,
Dundrennan,13/09/2019 12:00,14.2,13,,,0,0,80,,270,Dry,1036,2,24,1519,18,,10.9,
Dundrennan,13/09/2019 13:00,14.6,14,,,0,,70,,250,Dry,1036,0,18,2360,60,,9.4,
Dundrennan,13/09/2019 14:00,14.8,16,,,0,,65,,250,Dry,1036,0,35,2001,54,,8.5,
Dundrennan,13/09/2019 15:00,14.9,15,,,0,,66,,250,Dry,1035,0,40,1992,60,,8.7,
Dundrennan,13/09/2019 16:00,15.2,13,,,0,,60,,270,Dry,1035,2,40,1624,60,,7.7,
Dundrennan,13/09/2019 17:00,14.6,10,,,0,,59,,300,Dry,1035,1,27,1068,54,,6.8,
Dundrennan,13/09/2019 18:00,13.2,10,,15.4,0,0,73,,260,Dry,1036,,40,527,60,,8.5,
Dundrennan,13/09/2019 19:00,12,7,,,0,,82,,240,Dry,1036,0,18,68,6,,9.1,
Dundrennan,13/09/2019 20:00,11.6,5,,,0,,84,,230,Dry,1036,,23,0,0,,9.1,
Dundrennan,13/09/2019 21:00,11.3,7,,,0,,85,,250,Dry,1036,0,20,0,0,,9,
Dundrennan,13/09/2019 22:00,11.4,6,,,0,,84,,220,Dry,1036,0,28,0,0,,8.9,
Dundrennan,13/09/2019 23:00,11,6,,,0,,84,,210,Dry,1035,0,25,0,0,,8.5,
Dundrennan,14/09/2019 00:00,11.2,7,,,0,0,80,,210,Dry,1035,0,30,,,,8,
Dundrennan,14/09/2019 01:00,11.2,7,,,0,,81,,220,Dry,1035,0,30,0,0,,8.2,
Dundrennan,14/09/2019 02:00,11.1,5,,,0,,81,,210,Dry,1034,0,27,0,0,,8.1,
Dundrennan,14/09/2019 03:00,11.3,8,,,0,,82,,220,Dry,1033,1,40,0,0,,8.5,
Dundrennan,14/09/2019 04:00,10.8,9,,,0,,80,,210,Dry,1032,1,30,0,0,,7.6,
Dundrennan,14/09/2019 05:00,11.9,13,,,0,,80,,210,Dry,1031,,8,0,0,,8.7,
Dundrennan,14/09/2019 06:00,11.9,16,10.7,,0,0,82,,210,Dry,1031,1,26,0,0,,9.1,
Dundrennan,14/09/2019 07:00,12.5,15,,,0,,85,,210,Dry,1031,6,30,98,0,,10.1,
Dundrennan,14/09/2019 08:00,13.2,18,,,0,,78,,220,Dry,1030,8,35,497,18,,9.6,
Dundrennan,14/09/2019 09:00,13.3,20,,,0,,74,,220,Dry,1030,8,30,643,6,,8.9,
Dundrennan,14/09/2019 10:00,13.8,16,,,0,,79,,210,Dry,1030,3,20,913,0,,10.3,
Dundrennan,14/09/2019 11:00,14.3,22,,,0,,77,,220,Dry,1029,4,24,1289,6,,10.5,
Dundrennan,14/09/2019 12:00,14.7,24,,,0,0,72,31,220,Dry,1028,0,21,1928,48,,9.9,
Dundrennan,14/09/2019 13:00,15.5,25,,,0,,68,35,210,Dry,1027,1,24,2111,54,,9.8,
Dundrennan,14/09/2019 14:00,15.1,24,,,0,,71,35,210,Dry,1026,0,22,1965,42,,10,
Dundrennan,14/09/2019 15:00,16.1,24,,,0,,57,37,230,Dry,1025,0,45,1931,54,,7.7,
Dundrennan,14/09/2019 16:00,15.1,24,,,0,,66,36,230,Dry,1024,2,28,1402,54,,8.9,
Dundrennan,14/09/2019 17:00,15,24,,,0,,72,33,220,Dry,1023,1,24,796,24,,10.1,
Dundrennan,14/09/2019 18:00,14.9,22,,16.2,0,0,70,31,220,Dry,1023,0,26,399,42,,9.6,
Dundrennan,14/09/2019 19:00,15.3,24,,,0,,73,33,220,Dry,1022,7,28,24,0,,10.6,
Dundrennan,14/09/2019 20:00,15.3,21,,,0,,79,30,220,Dry,1022,8,14,0,0,,11.7,
Dundrennan,14/09/2019 21:00,15.5,21,,,0,,79,31,220,Dry,1022,8,17,0,0,,11.9,
Dundrennan,14/09/2019 22:00,15.3,22,,,0,,82,37,240,Dry,1021,8,17,0,0,,12.4,
Dundrennan,14/09/2019 23:00,15.2,26,,,0,,83,38,230,Dry,1021,8,19,0,0,,12.4,
Dundrennan,15/09/2019 00:00,14.9,25,,,0,0,88,38,230,Dry,1020,8,17,,,,13,
Dundrennan,15/09/2019 01:00,12.5,14,,,0,,93,33,290,Rain,1021,8,50,0,0,,11.4,
Dundrennan,15/09/2019 02:00,12,14,,,0,,96,,280,Drizzly rain,1021,8,3,0,0,,11.5,
Dundrennan,15/09/2019 03:00,11.8,13,,,0.2,,96,,270,Rain,1021,8,15,0,0,,11.2,
Dundrennan,15/09/2019 04:00,12.1,14,,,0,,94,,270,Dry,1021,8,12,0,0,,11.2,
Dundrennan,15/09/2019 05:00,12,12,,,0,,91,,260,Dry,1021,8,10,0,0,,10.6,
Dundrennan,15/09/2019 06:00,11.7,9,11.5,,0,0.2,86,,290,Dry,1022,8,12,1,0,,9.6,
Dundrennan,15/09/2019 07:00,11.4,10,,,0,,82,,300,Dry,1022,8,11,52,0,,8.6,
Dundrennan,15/09/2019 08:00,11.5,9,,,0,,83,,270,Dry,1023,8,10,159,0,,8.8,
Dundrennan,15/09/2019 09:00,12.3,7,,,0,,80,,260,Rain,1023,8,12,373,0,,9.1,
Dundrennan,15/09/2019 10:00,12.8,13,,,0,,76,,280,Dry,1023,8,11,792,0,,8.8,
Dundrennan,15/09/2019 11:00,13.3,10,,,0,,76,,280,Dry,1023,8,15,726,0,,9.3,
Dundrennan,15/09/2019 12:00,13.1,13,,,0,0,71,,280,Dry,1023,8,17,745,0,,8,
Dundrennan,15/09/2019 13:00,12.8,14,,,0,,73,,290,Dry,1024,8,25,696,0,,8.2,
Dundrennan,15/09/2019 14:00,13.4,13,,,0,,69,,290,Dry,1023,8,18,989,0,,8,
Dundrennan,15/09/2019 15:00,13.5,12,,,0,,67,,290,Dry,1023,8,25,1134,0,,7.6,
Dundrennan,15/09/2019 16:00,13.1,10,,,0,,70,,270,Dry,1023,5,30,877,0,,7.9,
Dundrennan,15/09/2019 17:00,12.4,9,,,0,,76,,280,Dry,1022,7,19,492,0,,8.3,
Dundrennan,15/09/2019 18:00,11.7,7,,13.9,0,0,84,,270,Dry,1022,5,23,185,0,,9.2,
Dundrennan,15/09/2019 19:00,11.6,3,,,0,,80,,280,Dry,1022,7,22,52,0,,8.3,
Dundrennan,15/09/2019 20:00,11.2,2,,,0,,80,,330,Dry,1023,8,17,0,0,,8,
Dundrennan,15/09/2019 21:00,10.6,3,,,0,,81,,310,Dry,1022,3,19,0,0,,7.5,
Dundrennan,15/09/2019 22:00,9.7,5,,,0,,88,,340,Dry,1023,0,15,0,0,,7.9,
Dundrennan,15/09/2019 23:00,9.4,3,,,0,,86,,10,Dry,1023,2,17,0,0,,7.3,
Dundrennan,16/09/2019 00:00,9.2,5,,,0,0,85,,360,Dry,1023,,18,,,,6.9,
Dundrennan,16/09/2019 01:00,9,3,,,0,,87,,20,Dry,1023,1,18,0,0,,7,
Dundrennan,16/09/2019 02:00,9,3,,,0,,89,,360,Dry,1022,3,17,0,0,,7.4,
Dundrennan,16/09/2019 03:00,8.7,5,,,0,,90,,30,Dry,1022,0,19,0,0,,7.2,
Dundrennan,16/09/2019 04:00,8.8,5,,,0,,89,,350,Dry,1022,0,30,0,0,,7.1,
Dundrennan,16/09/2019 05:00,8.4,5,,,0,,90,,350,Dry,1022,1,20,0,0,,7,
Dundrennan,16/09/2019 06:00,8.3,5,8,,0,0,93,,360,Dry,1022,1,19,0,0,,7.3,
Dundrennan,16/09/2019 07:00,8,2,,,0,,93,,10,Dry,1022,,16,104,0,,7,
Dundrennan,16/09/2019 08:00,9.7,3,,,0,,92,,20,Dry,1022,0,20,468,24,,8.5,
Dundrennan,16/09/2019 09:00,11,3,,,0,,82,,350,Dry,1023,1,23,783,24,,8.1,
Dundrennan,16/09/2019 10:00,12.2,6,,,0,,73,,270,Dry,1023,,20,1570,60,,7.6,
Dundrennan,16/09/2019 11:00,12.7,10,,,0,,77,,290,Dry,1023,6,21,1563,36,,8.8,
Dundrennan,16/09/2019 12:00,13.4,13,,,0,0,73,,250,Dry,1023,6,22,1855,36,,8.8,
Dundrennan,16/09/2019 13:00,14.5,10,,,0,,72,,240,Dry,1023,5,19,2200,42,,9.6,
Dundrennan,16/09/2019 14:00,13.9,14,,,0,,68,,310,Dry,1023,7,29,1343,12,,8.2,
Dundrennan,16/09/2019 15:00,14.1,15,,,0,,66,,300,Dry,1023,4,30,1409,24,,7.9,
Dundrennan,16/09/2019 16:00,13,13,,,0,,72,,290,Dry,1023,7,40,1259,24,,8.1,
Dundrennan,16/09/2019 17:00,12.9,12,,,0,,72,,300,Dry,1023,3,17,515,24,,8.1,
Dundrennan,16/09/2019 18:00,12.1,13,,15.3,0,0,70,,300,Dry,1023,3,45,316,18,,7,
Dundrennan,16/09/2019 19:00,11.8,12,,,0,,76,,290,Dry,1024,7,45,54,6,,7.9,
Dundrennan,16/09/2019 20:00,11.2,10,,,0,,78,,290,Dry,1024,7,27,0,0,,7.6,
Dundrennan,16/09/2019 21:00,10.9,14,,,0,,83,,290,Dry,1024,5,21,0,0,,8.2,
Dundrennan,16/09/2019 22:00,10.2,13,,,0,,83,,290,Dry,1024,0,35,0,0,,7.6,
Dundrennan,16/09/2019 23:00,9.1,6,,,0,,86,,270,Dry,1024,1,35,0,0,,7,
Dundrennan,17/09/2019 00:00,8.8,9,,,0,0,90,,280,Dry,1024,,27,,,,7.3,
Dundrennan,17/09/2019 01:00,9,10,,,0,,90,,280,Dry,1024,0,28,0,0,,7.5,
Dundrennan,17/09/2019 02:00,9.1,12,,,0,,89,,280,Dry,1024,0,30,0,0,,7.5,
Dundrennan,17/09/2019 03:00,9.2,14,,,0,,89,,270,Dry,1024,0,19,0,0,,7.6,
Dundrennan,17/09/2019 04:00,9.3,10,,,0,,89,,290,Dry,1024,1,35,0,0,,7.6,
Dundrennan,17/09/2019 05:00,8.5,2,,,0,,93,,280,Dry,1024,1,23,0,0,,7.5,
Dundrennan,17/09/2019 06:00,8.1,7,7.8,,0,0,90,,260,Dry,1025,2,25,0,0,,6.7,
Dundrennan,17/09/2019 07:00,9.2,5,,,0,,91,,270,Dry,1025,1,25,146,24,,7.9,
Dundrennan,17/09/2019 08:00,10.9,9,,,0,,85,,290,Dry,1026,1,21,503,42,,8.6,
Dundrennan,17/09/2019 09:00,12.5,8,,,0,,77,,330,Dry,1026,3,35,1093,60,,8.7,
Dundrennan,17/09/2019 10:00,13.4,9,,,0,,67,,320,Dry,1026,0,25,1668,60,,7.6,
Dundrennan,17/09/2019 11:00,14,12,,,0,,55,,330,Dry,1026,0,29,2055,60,,5.3,
Dundrennan,17/09/2019 12:00,15,7,,,0,0,58,,330,Dry,1026,1,21,2385,54,,6.9,
Dundrennan,17/09/2019 13:00,15.3,8,,,0,,57,,340,Dry,1026,0,24,2124,48,,6.9,
Dundrennan,17/09/2019 14:00,15.2,9,,,0,,52,,10,Dry,1026,4,26,2310,60,,5.5,
Dundrennan,17/09/2019 15:00,15.4,6,,,0,,60,,310,Dry,1027,4,24,1865,60,,7.9,
Dundrennan,17/09/2019 16:00,13.2,8,,,0,,62,,20,Dry,1027,3,19,710,18,,6.2,
Dundrennan,17/09/2019 17:00,13.2,8,,,0,,60,,360,Dry,1027,,19,689,36,,5.7,
Dundrennan,17/09/2019 18:00,12.2,7,,16,0,0,64,,320,Dry,1027,6,28,203,6,,5.8,
Dundrennan,17/09/2019 19:00,9.9,5,,,0,,74,,360,Dry,1028,2,30,49,0,,5.6,
Dundrennan,17/09/2019 20:00,10.3,8,,,0,,71,,330,Dry,1028,5,35,0,0,,5.4,
Dundrennan,17/09/2019 21:00,9.3,7,,,0,,73,,350,Dry,1028,0,25,0,0,,4.9,
Dundrennan,17/09/2019 22:00,8.5,7,,,0,,75,,320,Dry,1029,1,35,0,0,,4.4,
Dundrennan,17/09/2019 23:00,9,7,,,0,,72,,350,Dry,1029,7,40,0,0,,4.3,
Dundrennan,18/09/2019 00:00,8.9,6,,,0,0,76,,10,Dry,1028,6,30,,,,5,
Dundrennan,18/09/2019 01:00,9.6,6,,,0,,71,,10,Dry,1029,8,28,0,0,,4.8,
Dundrennan,18/09/2019 02:00,9.6,5,,,0,,70,,340,Dry,1028,8,40,0,0,,4.5,
Dundrennan,18/09/2019 03:00,9.2,5,,,0,,74,,360,Dry,1028,8,25,0,0,,5,
Dundrennan,18/09/2019 04:00,9.3,1,,,0,,76,,350,Dry,1028,8,35,0,0,,5.4,
Dundrennan,18/09/2019 05:00,9.8,3,,,0,,76,,250,Dry,1028,8,40,0,0,,5.8,
Dundrennan,18/09/2019 06:00,9.4,1,7.9,,0,0,84,,270,Dry,1029,5,30,0,0,,7,
Dundrennan,18/09/2019 07:00,10.1,5,,,0,,81,,310,Dry,1029,1,50,77,0,,7.1,
Dundrennan,18/09/2019 08:00,11.1,3,,,0,,76,,320,Dry,1030,8,30,298,0,,7.1,
Dundrennan,18/09/2019 09:00,12.5,6,,,0,,78,,290,Dry,1030,8,16,861,12,,8.9,
Dundrennan,18/09/2019 10:00,12.8,7,,,0,,78,,250,Dry,1030,8,23,657,0,,9.2,
Dundrennan,18/09/2019 11:00,13.2,7,,,0,,79,,240,Dry,1030,7,22,802,0,,9.8,
Dundrennan,18/09/2019 12:00,14.1,7,,,0,0,80,,220,Dry,1030,8,15,1202,0,,10.8,
Dundrennan,18/09/2019 13:00,14.6,10,,,0,,77,,240,Dry,1030,8,35,1537,6,,10.7,
Dundrennan,18/09/2019 14:00,14.5,9,,,0,,77,,240,Dry,1030,8,20,1109,0,,10.6,
Dundrennan,18/09/2019 15:00,14.9,8,,,0,,79,,240,Dry,1029,8,25,1044,0,,11.4,
Dundrennan,18/09/2019 16:00,14.6,12,,,0,,82,,230,Dry,1029,5,20,1141,30,,11.6,
Dundrennan,18/09/2019 17:00,14.9,10,,,0,,75,,260,Dry,1029,0,27,724,42,,10.7,
Dundrennan,18/09/2019 18:00,13.6,9,,15.3,0,0,77,,260,Dry,1029,,45,388,54,,9.7,
Dundrennan,18/09/2019 19:00,12.3,6,,,0,,78,,300,Dry,1030,,50,24,0,,8.7,
Dundrennan,18/09/2019 20:00,11.9,7,,,0,,88,,360,Dry,1030,0,30,0,0,,10.1,
Dundrennan,18/09/2019 21:00,11,6,,,0,,91,,10,Dry,1031,0,50,0,0,,9.6,
Dundrennan,18/09/2019 22:00,11.2,6,,,0,,91,,350,Dry,1031,0,35,0,0,,9.8,
Dundrennan,18/09/2019 23:00,11.5,6,,,0,,91,,20,Dry,1031,,50,0,0,,10.2,
Dundrennan,19/09/2019 00:00,10.3,5,,,0,0,93,,340,Dry,1031,0,50,,,,9.3,
Dundrennan,19/09/2019 01:00,10.3,5,,,0,,94,,320,Dry,1030,0,40,0,0,,9.5,
Dundrennan,19/09/2019 02:00,10.7,3,,,0,,95,,320,Dry,1030,0,50,0,0,,10,
Dundrennan,19/09/2019 03:00,10.6,5,,,0,,96,,310,Dry,1030,0,27,0,0,,10,
Dundrennan,19/09/2019 04:00,10.4,3,,,0,,96,,280,Dry,1030,0,23,0,0,,9.9,
Dundrennan,19/09/2019 05:00,9.7,6,,,0,,98,,320,Fog,1030,0,6,0,0,,9.4,
Dundrennan,19/09/2019 06:00,8.5,5,8.5,,0,0,97,,20,Fog,1030,1,30,0,0,,8.2,
Dundrennan,19/09/2019 07:00,10.3,3,,,0,,98,,20,Dry,1030,0,35,95,24,,10.1,
Dundrennan,19/09/2019 08:00,12.9,1,,,0,,96,,180,Dry,1031,0,50,544,60,,12.3,
Dundrennan,19/09/2019 09:00,13.5,5,,,0,,87,,170,Dry,1031,0,40,1007,60,,11.5,
Dundrennan,19/09/2019 10:00,14.4,6,,,0,,86,,200,Dry,1031,4,14,1442,54,,12.1,
Dundrennan,19/09/2019 15:00,16,10,,,-0.2,,67,,230,Dry,1030,0,20,,,,9.9,
Dundrennan,19/09/2019 16:00,15.3,9,,,0,,70,,210,Dry,1030,0,30,1353,60,,10,
Dundrennan,19/09/2019 17:00,14.8,8,,,0,,76,,220,Dry,1029,0,24,846,60,,10.8,
Dundrennan,19/09/2019 18:00,13.5,6,,,0,,83,,210,Dry,1029,,21,359,60,,10.8,
Dundrennan,19/09/2019 19:00,12.4,7,,,0,,90,,230,Dry,1029,0,20,28,0,,10.9,
Dundrennan,19/09/2019 20:00,12.2,6,,,0,,93,,250,Dry,1029,0,17,0,0,,11.2,
Dundrennan,19/09/2019 21:00,12.4,5,,,0,,94,,240,Dry,1030,0,12,0,0,,11.6,
Dundrennan,19/09/2019 22:00,12.5,3,,,0,,96,,220,Dry,1029,,13,0,0,,12,
Dundrennan,19/09/2019 23:00,11.8,1,,,0,,98,,230,Misty,1029,0,8,0,0,,11.6,
Dundrennan,20/09/2019 00:00,11.9,2,,,0,0,96,,140,Dry,1029,,19,,,,11.3,
Dundrennan,20/09/2019 01:00,12.1,2,,,0,,98,,90,Misty,1028,0,12,0,0,,11.9,
Dundrennan,20/09/2019 02:00,11.8,5,,,0,,100,,120,Misty,1028,0,4,0,0,,11.8,
Dundrennan,20/09/2019 03:00,11.4,6,,,0,,100,,100,Thickening fog,1027,6,0,0,0,,11.4,
Dundrennan,20/09/2019 04:00,11.3,6,,,0,,100,,80,Moderate shower,1027,9,0,0,0,,11.3,
Dundrennan,20/09/2019 05:00,10.6,7,,,0.2,,100,,90,Moderate rain,1027,9,0,0,0,,10.6,
Dundrennan,20/09/2019 06:00,10.1,6,9.9,,0,0.2,100,,80,Light rain,1026,9,0,0,0,,10.1,
Dundrennan,20/09/2019 07:00,9.4,7,,,0,,100,,90,Fog,1026,9,0,70,0,,9.4,
Dundrennan,20/09/2019 08:00,11.1,6,,,0,,100,,90,Fog,1026,1,8,476,48,,11.1,
Dundrennan,20/09/2019 09:00,13.6,5,,,0,,91,,80,Dry,1026,0,25,1029,60,,12.3,
Dundrennan,20/09/2019 10:00,15.3,9,,,0,,78,,110,Dry,1025,0,13,1492,60,,11.5,
Dundrennan,20/09/2019 11:00,15.9,10,,,0,,76,,120,Dry,1025,0,16,1839,60,,11.7,
Dundrennan,20/09/2019 12:00,17.2,12,,,0,0,72,,120,Dry,1024,0,18,2068,60,,12.3,
Dundrennan,20/09/2019 13:00,17.3,13,,,0,,71,,130,Dry,1024,0,23,2124,60,,12,
Dundrennan,20/09/2019 14:00,17.1,12,,,0,,67,,110,Dry,1023,0,26,2019,60,,11.1,
Dundrennan,20/09/2019 15:00,18,9,,,0,,66,,100,Dry,1022,0,26,1748,60,,11.6,
Dundrennan,20/09/2019 16:00,18.3,9,,,0,,66,,80,Dry,1020,0,30,1343,60,,12,
Dundrennan,20/09/2019 17:00,18.4,10,,,0,,70,,80,Dry,1020,0,30,843,60,,12.9,
Dundrennan,20/09/2019 18:00,17.1,8,,18.6,0,0,75,,70,Dry,1019,,21,338,60,,12.7,
Dundrennan,20/09/2019 19:00,15.3,6,,,0,,78,,80,Dry,1019,0,40,23,12,,11.6,
Dundrennan,20/09/2019 20:00,14.9,7,,,0,,80,,100,Dry,1018,0,30,0,0,,11.6,
Dundrennan,20/09/2019 21:00,14.5,6,,,0,,81,,110,Dry,1018,0,35,0,0,,11.4,
Dundrennan,20/09/2019 22:00,13.8,7,,,0,,79,,120,Dry,1018,0,40,0,0,,10.3,
Dundrennan,20/09/2019 23:00,13.3,10,,,0,,84,,80,Dry,1017,0,29,0,0,,10.7,
Dundrennan,21/09/2019 00:00,13.2,9,,,0,0,84,,80,Dry,1017,,26,,,,10.7,
Dundrennan,21/09/2019 01:00,14.9,18,,,0,,71,,130,Dry,1016,,50,0,0,,9.8,
Dundrennan,21/09/2019 02:00,14.4,17,,,0,,69,,130,Dry,1016,0,50,0,0,,8.8,
Dundrennan,21/09/2019 03:00,13.6,8,,,0,,66,,140,Dry,1016,0,45,0,0,,7.4,
Dundrennan,21/09/2019 04:00,12,7,,,0,,71,,70,Dry,1015,,29,0,0,,7,
Dundrennan,21/09/2019 05:00,11.6,9,,,0,,76,,70,Dry,1014,0,40,0,0,,7.7,
Dundrennan,21/09/2019 06:00,10.9,8,10.8,,0,0,77,,60,Dry,1013,0,40,0,0,,7.2,
Dundrennan,21/09/2019 07:00,11.8,14,,,0,,77,,80,Dry,1013,,35,71,36,,8,
Dundrennan,21/09/2019 08:00,13.1,13,,,0,,73,,70,Dry,1013,0,30,488,60,,8.5,
Dundrennan,21/09/2019 09:00,14.1,18,,,0,,72,,60,Dry,1012,,29,1049,60,,9.3,
Dundrennan,21/09/2019 10:00,16.3,16,,,0,,68,,70,Dry,1011,0,17,1536,60,,10.4,
Dundrennan,21/09/2019 11:00,18,14,,,0,,64,,70,Dry,1011,,27,1885,60,,11.2,
Dundrennan,21/09/2019 12:00,19.8,13,,,0,0,56,,80,Dry,1010,0,30,2075,60,,10.9,
Dundrennan,21/09/2019 13:00,21.3,14,,,0,,38,,110,Dry,1009,0,45,2095,60,,6.5,
Dundrennan,21/09/2019 14:00,21.5,14,,,0,,34,,100,Dry,1008,,40,1941,60,,5.1,
Dundrennan,21/09/2019 15:00,20.8,10,,,0,,47,,60,Dry,1008,0,50,1364,54,,9.3,
Dundrennan,21/09/2019 16:00,20.7,9,,,0,,48,,90,Dry,1007,1,30,1247,60,,9.5,
Dundrennan,21/09/2019 17:00,18.4,13,,,0,,61,,80,Dry,1006,5,40,502,18,,10.9,
Dundrennan,21/09/2019 18:00,17.7,13,,21.7,0,0,65,,70,Dry,1006,6,45,146,0,,11.2,
Dundrennan,21/09/2019 19:00,17.1,12,,,0,,65,,70,Dry,1006,5,35,8,0,,10.6,
Dundrennan,21/09/2019 20:00,16.8,14,,,0,,68,,70,Dry,1006,7,29,0,0,,10.9,
Dundrennan,21/09/2019 21:00,15.9,15,,,0,,72,,80,Dry,1006,4,26,0,0,,10.9,
Dundrennan,21/09/2019 22:00,15.6,14,,,0,,73,,70,Dry,1005,7,24,0,0,,10.9,
Dundrennan,21/09/2019 23:00,15.2,15,,,0,,73,,80,Dry,1005,6,35,0,0,,10.6,
Dundrennan,22/09/2019 00:00,14.8,14,,,0,0,75,,70,Dry,1004,5,30,,,,10.6,
Dundrennan,22/09/2019 01:00,14.7,15,,,0,,74,,70,Dry,1004,7,30,0,0,,10.2,
Dundrennan,22/09/2019 02:00,14.8,15,,,0,,73,,80,Rain,1003,7,30,0,0,,10.2,
Dundrennan,22/09/2019 03:00,14.7,13,,,0,,77,,80,Rain,1003,8,40,0,0,,10.8,
Dundrennan,22/09/2019 04:00,14.7,13,,,0,,74,,70,Dry,1002,8,28,0,0,,10.2,
Dundrennan,22/09/2019 05:00,14.7,14,,,0,,75,,70,Dry,1001,8,35,0,0,,10.5,
Dundrennan,22/09/2019 06:00,15.2,15,14.3,,0,0,75,,70,Dry,1001,7,25,0,0,,10.9,
Dundrennan,22/09/2019 07:00,14.7,12,,,1,,83,,70,Rain,1001,8,27,39,0,,11.9,
Dundrennan,22/09/2019 08:00,13.8,15,,,2.4,,96,,90,Moderate rain,1002,7,7,43,0,,13.3,
Dundrennan,22/09/2019 09:00,15.1,14,,,1.2,,96,,80,Moderate rain,1001,8,12,129,0,,14.6,
Dundrennan,22/09/2019 10:00,15.4,17,,,0.2,,94,,80,Rain,1000,8,17,200,0,,14.6,
Dundrennan,22/09/2019 11:00,14.8,22,,,0,,96,30,70,Rain,1000,8,9,397,0,,14.2,
Dundrennan,22/09/2019 12:00,16,16,,,0,5,93,29,80,Dry,1000,7,13,1233,6,,14.9,
Dundrennan,22/09/2019 13:00,16.2,14,,,0,,93,,80,Dry,1000,7,16,641,0,,15.1,
Dundrennan,22/09/2019 14:00,15.7,13,,,1.2,,95,,160,Heavy shower,1000,8,6,73,0,,15,
Dundrennan,22/09/2019 15:00,15.3,9,,,1.4,,100,,180,Moderate rain,1000,9,0,99,0,,15.3,
Dundrennan,22/09/2019 16:00,15.2,12,,,2,,100,,190,Moderate rain,1000,9,0,62,0,,15.2,
Dundrennan,22/09/2019 17:00,15.3,7,,,1.2,,100,,200,Light rain,1001,9,0,102,0,,15.3,
Dundrennan,22/09/2019 18:00,15.1,3,,16.7,0,6,100,,200,Moderate rain,1001,9,0,41,0,,15.1,
Dundrennan,22/09/2019 19:00,15,3,,,0,,100,,190,Fog thinning,1001,8,0,9,0,,15,
Dundrennan,22/09/2019 20:00,15.1,3,,,0,,100,,150,Thickening fog,1001,9,0,0,0,,15.1,
Dundrennan,22/09/2019 21:00,14.4,5,,,0,,100,,130,Thickening fog,1002,9,0,0,0,,14.4,
Dundrennan,22/09/2019 22:00,14.6,2,,,0,,100,,80,Fog thinning,1002,8,0,0,0,,14.6,
Dundrennan,22/09/2019 23:00,14.7,7,,,0,,100,,120,Fog,1002,8,5,0,0,,14.7,
Dundrennan,23/09/2019 00:00,14.7,9,,,0,0,100,,140,Misty,1002,8,4,,,,14.7,
Dundrennan,23/09/2019 01:00,13.9,10,,,0,,98,,180,Dry,1003,7,24,0,0,,13.7,
Dundrennan,23/09/2019 02:00,13.7,15,,,0,,96,,180,Dry,1003,8,30,0,0,,13.2,
Dundrennan,23/09/2019 03:00,13.7,14,,,0,,94,,190,Dry,1003,8,35,0,0,,12.8,
Dundrennan,23/09/2019 04:00,13.3,16,,,0,,96,,190,Dry,1003,8,30,0,0,,12.7,
Dundrennan,23/09/2019 05:00,13.1,14,,,0,,94,,210,Dry,1003,7,19,0,0,,12.2,
Dundrennan,23/09/2019 06:00,12.8,14,12.8,,0,0,95,,210,Dry,1004,7,19,0,0,,12.1,
Dundrennan,23/09/2019 07:00,12.8,15,,,0,,91,,190,Dry,1004,8,30,32,0,,11.5,
Dundrennan,23/09/2019 08:00,12.9,16,,,0,,87,,200,Dry,1005,7,35,277,6,,10.9,
Dundrennan,23/09/2019 09:00,13.3,16,,,0,,87,,200,Dry,1005,5,29,730,36,,11.2,
Dundrennan,23/09/2019 10:00,14.6,14,,,0,,80,,200,Dry,1005,1,30,1326,54,,11.2,
Dundrennan,23/09/2019 11:00,15,17,,,0,,78,,180,Dry,1005,4,30,1693,54,,11.3,
Dundrennan,23/09/2019 12:00,14.6,18,,,0,0,80,,180,Dry,1005,2,20,1884,54,,11.3,
Dundrennan,23/09/2019 13:00,14.4,17,,,0.2,,87,,170,Rain,1005,4,21,921,6,,12.4,
Dundrennan,23/09/2019 14:00,14.7,18,,,0,,82,,150,Dry,1005,0,35,1437,36,,11.7,
Dundrennan,23/09/2019 15:00,15,20,,,0,,82,,150,Dry,1004,5,45,1606,60,,12,
Dundrennan,23/09/2019 16:00,14.9,16,,,0,,80,,140,Dry,1003,,45,800,18,,11.5,
Dundrennan,23/09/2019 17:00,15,16,,,0,,80,,120,Dry,1003,6,50,357,0,,11.6,
Dundrennan,23/09/2019 18:00,14.5,18,,15.7,0,0.2,85,,130,Light shower,1002,8,16,147,0,,12.1,
Dundrennan,23/09/2019 19:00,13.9,21,,,1.6,,91,30,130,Light rain,1002,7,12,2,0,,12.6,
Dundrennan,23/09/2019 20:00,13,22,,,1,,99,30,110,Moderate rain,1001,5,2,0,0,,12.9,
Dundrennan,23/09/2019 21:00,13.8,17,,,2.2,,100,,130,Moderate rain,1000,8,4,0,0,,13.8,
Dundrennan,23/09/2019 22:00,14.4,26,,,1.2,,100,37,160,Rain,1000,8,4,0,0,,14.4,
Dundrennan,23/09/2019 23:00,14.7,22,,,0.2,,100,32,160,Rain,1000,8,5,0,0,,14.7,
Dundrennan,24/09/2019 00:00,14.9,22,,,2.6,9,100,31,170,Moderate shower,999,8,0,,,,14.9,
Dundrennan,24/09/2019 01:00,15.3,16,,,0,,100,,180,Fog thinning,999,9,0,0,0,,15.3,
Dundrennan,24/09/2019 02:00,15.2,15,,,0,,100,,170,Fog thinning,999,8,0,0,0,,15.2,
Dundrennan,24/09/2019 03:00,15,16,,,0,,100,,170,Rain,999,8,2,0,0,,15,
Dundrennan,24/09/2019 04:00,14.9,21,,,0,,100,,160,Fog,998,8,1,0,0,,14.9,
Dundrennan,24/09/2019 05:00,14.7,15,,,0,,100,,150,Fog thinning,998,8,1,0,0,,14.7,
Dundrennan,24/09/2019 06:00,14.7,13,12.9,,1.8,2,100,,150,Rain,998,8,3,0,0,,14.7,
Dundrennan,24/09/2019 07:00,14.9,16,,,0,,100,,150,Misty,998,8,5,12,0,,14.9,
Dundrennan,24/09/2019 08:00,15.1,15,,,0.6,,99,,140,Rain,997,8,9,115,0,,15,
Dundrennan,24/09/2019 09:00,15.3,13,,,0,,98,,110,Dry,997,8,17,265,0,,15,
Dundrennan,24/09/2019 10:00,16,12,,,0,,93,,120,Rain,997,1,18,557,0,,15,
Dundrennan,24/09/2019 11:00,16.4,10,,,0,,92,,100,Dry,996,7,15,801,0,,15.2,
Dundrennan,24/09/2019 12:00,16.7,10,,,0,0.6,89,,90,Rain,996,4,19,1068,0,,14.9,
Dundrennan,24/09/2019 13:00,16.9,7,,,0,,87,,90,Dry,996,7,29,892,0,,14.9,
Dundrennan,24/09/2019 14:00,15.9,6,,,1.2,,96,,110,Light shower,995,8,9,302,0,,15.3,
Dundrennan,24/09/2019 15:00,15.5,6,,,0.2,,98,,160,Light rain,995,7,18,329,0,,15.2,
Dundrennan,24/09/2019 16:00,15.2,6,,,0.8,,98,,160,Moderate rain,995,8,10,269,0,,15,
Dundrennan,24/09/2019 17:00,14.5,6,,,0.8,,99,,220,Moderate rain,995,8,7,159,0,,14.4,
Dundrennan,24/09/2019 18:00,14.3,6,,17.2,0.4,3.4,100,,230,Light rain,995,8,5,74,0,,14.3,
Dundrennan,24/09/2019 19:00,14.1,8,,,0.4,,100,,250,Light rain,995,6,4,3,0,,14.1,
Dundrennan,24/09/2019 20:00,13.5,7,,,0.4,,98,,260,Light rain,995,7,10,0,0,,13.3,
Dundrennan,24/09/2019 21:00,14,7,,,0,,100,,250,Light drizzle,995,8,7,0,0,,14,
Dundrennan,24/09/2019 22:00,14.2,6,,,0,,100,,250,Drizzle,995,7,5,0,0,,14.2,
Dundrennan,24/09/2019 23:00,13.8,8,,,0,,100,,240,Misty,994,1,9,0,0,,13.8,
Dundrennan,25/09/2019 00:00,13.9,6,,,0,0.8,98,,240,Dry,994,7,9,,,,13.6,
Dundrennan,25/09/2019 01:00,13.7,7,,,0,,97,,230,Rain,995,8,14,0,0,,13.3,
Dundrennan,25/09/2019 02:00,13.5,5,,,0,,98,,240,Light drizzle,995,8,11,0,0,,13.2,
Dundrennan,25/09/2019 03:00,13.4,5,,,0.2,,99,,230,Rain,995,8,7,0,0,,13.3,
Dundrennan,25/09/2019 04:00,13.6,5,,,0,,100,,220,Misty,995,8,8,0,0,,13.6,
Dundrennan,25/09/2019 05:00,13.7,8,,,0,,100,,220,Dry,995,8,11,0,0,,13.7,
Dundrennan,25/09/2019 06:00,13.8,9,13.4,,0,0.2,99,,230,Rain,995,7,6,0,0,,13.7,
Dundrennan,25/09/2019 07:00,13.7,10,,,0.8,,100,,220,Moderate shower,996,8,2,8,0,,13.7,
Dundrennan,25/09/2019 08:00,13.7,10,,,1.2,,100,,200,Rain,996,8,2,62,0,,13.7,
Dundrennan,25/09/2019 09:00,13.7,12,,,0.2,,100,,230,Light drizzle,996,7,2,142,0,,13.7,
Dundrennan,25/09/2019 10:00,13.7,12,,,0.8,,100,,230,Moderate rain,997,8,3,218,0,,13.7,
Dundrennan,25/09/2019 11:00,14.2,10,,,1.6,,100,,210,Light rain,997,7,2,431,0,,14.2,
Dundrennan,25/09/2019 12:00,13.8,10,,,0,5,100,,200,Rain,998,7,3,598,0,,13.8,
Dundrennan,25/09/2019 13:00,14.1,10,,,0,,99,,200,Misty,998,8,4,490,0,,14,
Dundrennan,25/09/2019 14:00,14.1,9,,,0,,99,,200,Misty,998,8,3,478,0,,14,
Dundrennan,25/09/2019 15:00,14.1,10,,,0,,100,,180,Thickening fog,998,7,0,512,0,,14.1,
Dundrennan,25/09/2019 16:00,14.3,9,,,0,,99,,180,Fog,998,8,6,429,0,,14.2,
Dundrennan,25/09/2019 17:00,14.3,10,,,0,,99,,160,Misty,997,8,4,353,0,,14.2,
Dundrennan,25/09/2019 18:00,14.1,14,,14.6,0,0,100,,170,Misty,997,8,4,40,0,,14.1,
Dundrennan,25/09/2019 19:00,14.3,16,,,0,,100,,170,Rain,997,8,3,3,0,,14.3,
Dundrennan,25/09/2019 20:00,14.4,13,,,0,,99,,150,Misty,997,8,9,0,0,,14.3,
Dundrennan,25/09/2019 21:00,14.7,14,,,0,,100,,160,Misty,996,7,5,0,0,,14.7,
Dundrennan,25/09/2019 22:00,14.1,14,,,0.2,,98,,170,Moderate shower,996,8,6,0,0,,13.9,
Dundrennan,25/09/2019 23:00,14.2,17,,,1,,100,,150,Moderate rain,995,8,4,0,0,,14.2,
Dundrennan,26/09/2019 00:00,14,21,,,1.2,2,100,32,160,Moderate rain,994,8,5,,,,14,
Dundrennan,26/09/2019 01:00,14.2,22,,,0.8,,100,32,160,Moderate rain,993,9,0,0,0,,14.2,
Dundrennan,26/09/2019 02:00,14.5,15,,,4,,100,33,210,Light rain,993,8,1,0,0,,14.5,
Dundrennan,26/09/2019 03:00,14.3,20,,,0,,98,,230,Rain,993,8,14,0,0,,14.1,
Dundrennan,26/09/2019 04:00,13.7,14,,,0,,95,,220,Misty,992,8,13,0,0,,13,
Dundrennan,26/09/2019 05:00,13.3,16,,,0,,92,,240,Dry,993,8,13,0,0,,12.1,
Dundrennan,26/09/2019 06:00,13.1,16,13,,0.2,5,91,,230,Dry,993,8,12,0,0,,11.7,
Dundrennan,26/09/2019 07:00,12.9,17,,,0.2,,93,,230,Rain,993,3,10,32,0,,11.9,
Dundrennan,26/09/2019 08:00,13.1,16,,,0,,91,,240,Dry,993,8,13,143,0,,11.7,
Dundrennan,26/09/2019 09:00,12.7,21,,,0.2,,95,32,230,Moderate shower,994,8,8,253,0,,12,
Dundrennan,26/09/2019 10:00,13,21,,,0.4,,94,29,230,Light drizzle,994,8,12,551,0,,12.2,
Dundrennan,26/09/2019 11:00,13.3,20,,,0,,91,29,230,Rain,994,8,14,660,0,,12,
Dundrennan,26/09/2019 12:00,14,24,,,0.4,1,89,31,230,Rain,994,8,11,842,6,,12.3,
Dundrennan,26/09/2019 13:00,13.7,20,,,0,,88,31,220,Dry,994,2,14,924,0,,11.8,
Dundrennan,26/09/2019 14:00,13.9,18,,,0,,84,31,220,Dry,994,8,22,627,0,,11.4,
Dundrennan,26/09/2019 15:00,13.8,24,,,0,,83,33,220,Dry,994,8,12,507,0,,11,
Dundrennan,26/09/2019 16:00,13.8,20,,,0.2,,82,32,210,Rain,994,7,21,238,0,,10.8,
Dundrennan,26/09/2019 17:00,13.9,20,,,0,,86,29,200,Dry,994,8,18,119,0,,11.7,
Dundrennan,26/09/2019 18:00,14,20,,14.2,0,0,89,29,200,Rain,994,1,13,72,0,,12.3,
Dundrennan,26/09/2019 19:00,13.9,21,,,0,,88,29,210,Dry,994,5,14,3,0,,12,
Dundrennan,26/09/2019 20:00,13.4,22,,,0.4,,93,30,210,Rain,994,8,13,0,0,,12.3,
Dundrennan,26/09/2019 21:00,13.4,18,,,0,,93,31,220,Haze,994,8,14,0,0,,12.3,
Dundrennan,26/09/2019 22:00,13.1,24,,,0,,86,36,230,Rain,994,8,27,0,0,,10.9,
Dundrennan,26/09/2019 23:00,12.8,23,,,0,,87,37,230,Rain,994,8,23,0,0,,10.8,
Dundrennan,27/09/2019 00:00,12.2,24,,,1.8,2,90,35,230,Rain,995,6,18,,,,10.7,
Dundrennan,27/09/2019 01:00,12.3,18,,,0,,86,32,240,Dry,995,7,21,0,0,,10.2,
Dundrennan,27/09/2019 02:00,12.4,17,,,0,,88,,240,Dry,995,6,17,0,0,,10.5,
Dundrennan,27/09/2019 03:00,12.2,12,,,0,,87,,240,Light shower,994,7,16,0,0,,10.2,
Dundrennan,27/09/2019 04:00,12.4,15,,,0,,86,,240,Rain,994,2,19,0,0,,10.2,
Dundrennan,27/09/2019 05:00,12,15,,,0,,89,,230,Dry,994,2,22,0,0,,10.3,
Dundrennan,27/09/2019 06:00,12.1,14,11.8,,0,0,89,,220,Light shower,994,8,22,0,0,,10.5,
Dundrennan,27/09/2019 07:00,11.4,9,,,1.6,,96,,210,Light rain,994,2,11,11,0,,10.9,
Dundrennan,27/09/2019 08:00,11.3,9,,,0.8,,98,,200,Rain,993,1,9,130,0,,11,
Dundrennan,27/09/2019 09:00,12.8,14,,,0.4,,94,,180,Rain,992,8,17,265,0,,12,
Dundrennan,27/09/2019 10:00,12.3,18,,,0.6,,96,29,220,Moderate shower,992,8,11,379,0,,11.7,
Dundrennan,27/09/2019 11:00,12.3,13,,,1,,98,,220,Moderate rain,992,3,7,274,0,,12,
Dundrennan,27/09/2019 12:00,13,9,,,1.2,6,97,,250,Light rain,992,2,15,641,0,,12.6,
Dundrennan,27/09/2019 13:00,12.7,16,,,0,,88,,280,Rain,993,7,35,825,0,,10.8,
Dundrennan,27/09/2019 14:00,12.4,18,,,0,,82,,280,Dry,994,1,50,1189,12,,9.5,
Dundrennan,27/09/2019 15:00,13.5,14,,,0,,78,,290,Dry,994,3,35,1139,30,,9.9,
Dundrennan,27/09/2019 16:00,13.9,21,,,0,,75,29,280,Dry,995,5,35,1322,54,,9.6,
Dundrennan,27/09/2019 17:00,12.6,16,,,0,,77,,270,Rain,996,1,50,660,48,,8.8,
Dundrennan,27/09/2019 18:00,11.4,12,,14.5,0,0,88,,270,Dry,996,0,45,169,24,,9.6,
Dundrennan,27/09/2019 19:00,10.9,9,,,0,,93,,260,Dry,997,2,45,0,0,,9.9,
Dundrennan,27/09/2019 20:00,11.8,9,,,0,,88,,250,Dry,998,7,50,0,0,,9.9,
Dundrennan,27/09/2019 21:00,12.5,12,,,0,,88,,250,Dry,998,8,7,0,0,,10.6,
Dundrennan,27/09/2019 22:00,12.2,21,,,0.6,,88,29,260,Rain,998,8,30,0,0,,10.4,
Dundrennan,27/09/2019 23:00,12,18,,,0,,89,29,250,Rain,998,7,35,0,0,,10.3,
Dundrennan,28/09/2019 00:00,11.7,14,,,0,0.6,91,,250,Light shower,998,8,19,,,,10.3,
Dundrennan,28/09/2019 01:00,11.4,6,,,1.6,,96,,240,Moderate rain,998,8,4,0,0,,10.9,
Dundrennan,28/09/2019 02:00,11.7,18,,,6.8,,98,,230,Moderate rain,996,8,4,0,0,,11.4,
Dundrennan,28/09/2019 03:00,12.6,25,,,3.6,,99,36,230,Moderate rain,995,8,3,0,0,,12.5,
Dundrennan,28/09/2019 04:00,10.8,7,,,0.8,,98,38,290,Rain,996,8,35,0,0,,10.6,
Dundrennan,28/09/2019 05:00,9.6,12,,,0,,99,30,360,Rain,996,8,40,0,0,,9.5,
Dundrennan,28/09/2019 06:00,8.9,7,8.9,,0,12.4,100,,300,Dry,998,7,50,0,0,,8.9,
Dundrennan,28/09/2019 07:00,9.5,12,,,0,,97,,280,Dry,999,4,35,37,0,,9.1,
Dundrennan,28/09/2019 08:00,9.4,12,,,0,,98,,270,Dry,1000,3,30,243,18,,9.2,
Dundrennan,28/09/2019 09:00,11.4,10,,,0,,94,,270,Dry,1001,3,35,899,60,,10.6,
Dundrennan,28/09/2019 10:00,13,13,,,0,,90,,280,Dry,1001,6,45,1273,48,,11.5,
Dundrennan,28/09/2019 11:00,13.5,13,,,0,,83,,270,Dry,1002,3,30,1664,54,,10.8,
Dundrennan,28/09/2019 12:00,14.5,12,,,0,0,77,,270,Dry,1002,6,24,1752,42,,10.7,
Dundrennan,28/09/2019 13:00,14.9,14,,,0,,74,,250,Dry,1003,1,35,1907,60,,10.5,
Dundrennan,28/09/2019 14:00,15,16,,,0,,79,,240,Dry,1003,5,40,1615,42,,11.5,
Dundrennan,28/09/2019 15:00,14.4,15,,,0,,76,,240,Dry,1003,1,40,1590,60,,10.4,
Dundrennan,28/09/2019 16:00,13.4,9,,,0,,82,,240,Dry,1003,1,45,772,48,,10.4,
Dundrennan,28/09/2019 17:00,12.8,6,,,0,,85,,220,Dry,1002,0,45,374,0,,10.5,
Dundrennan,28/09/2019 18:00,11.9,5,,15.2,0,0,85,,210,Dry,1002,0,50,111,0,,9.5,
Dundrennan,28/09/2019 19:00,11.7,2,,,0,,88,,180,Dry,1002,6,50,0,0,,9.8,
Dundrennan,28/09/2019 20:00,11.4,5,,,0,,89,,110,Dry,1001,8,50,0,0,,9.7,
Dundrennan,28/09/2019 21:00,11.3,9,,,0,,92,,80,Dry,1000,8,45,0,0,,10.2,
Dundrennan,28/09/2019 22:00,11.4,10,,,0.8,,97,,80,Light drizzle,1000,3,8,0,0,,11,
Dundrennan,28/09/2019 23:00,11.6,15,,,4.2,,100,,90,Moderate rain,999,8,3,0,0,,11.6,
Dundrennan,29/09/2019 00:00,11.3,15,,,2.2,7,100,,70,Light rain,998,8,16,,,,11.3,
Dundrennan,29/09/2019 01:00,10.9,15,,,1,,98,,70,Moderate rain,997,2,12,0,0,,10.7,
Dundrennan,29/09/2019 02:00,10.8,17,,,2.4,,100,,60,Moderate rain,995,8,7,0,0,,10.8,
Dundrennan,29/09/2019 03:00,10.9,17,,,1.8,,100,,60,Moderate rain,994,8,7,0,0,,10.9,
Dundrennan,29/09/2019 04:00,10.1,17,,,1.8,,98,,50,Moderate rain,994,8,10,0,0,,9.9,
Dundrennan,29/09/2019 05:00,10.2,22,,,2.2,,96,29,50,Moderate rain,993,7,9,0,0,,9.7,
Dundrennan,29/09/2019 06:00,10.2,22,10.1,,2,11,97,31,50,Moderate rain,993,7,9,0,0,,9.8,
Dundrennan,29/09/2019 07:00,10.6,23,,,0.8,,94,32,40,Light rain,992,8,35,13,0,,9.8,
Dundrennan,29/09/2019 08:00,11,21,,,0.2,,93,33,40,Light rain,993,8,30,113,0,,10,
Dundrennan,29/09/2019 09:00,11.1,16,,,0.8,,95,31,30,Moderate rain,994,1,35,219,0,,10.4,
Dundrennan,29/09/2019 10:00,11.7,14,,,0.2,,96,,20,Light rain,995,8,26,404,0,,11.1,
Dundrennan,29/09/2019 11:00,12,15,,,0.2,,94,,20,Light rain,995,8,30,562,0,,11.1,
Dundrennan,29/09/2019 12:00,12.9,14,,,0.2,2,90,,20,Drizzly rain,996,7,50,825,0,,11.4,
Dundrennan,29/09/2019 13:00,13.3,14,,,0,,83,,360,Rain,998,7,30,966,0,,10.6,
Dundrennan,29/09/2019 14:00,14.2,12,,,0,,81,,360,Dry,998,7,40,995,12,,11,
Dundrennan,29/09/2019 15:00,14.1,14,,,0,,77,,360,Dry,999,6,30,1252,36,,10.3,
Dundrennan,29/09/2019 16:00,13.6,14,,,0,,76,,360,Dry,1000,2,40,902,42,,9.6,
Dundrennan,29/09/2019 17:00,13,7,,,0,,82,,340,Dry,1001,7,40,249,0,,10.1,
Dundrennan,29/09/2019 18:00,12.4,6,,14.3,0,0,87,,280,Dry,1002,8,50,89,0,,10.4,
Dundrennan,29/09/2019 19:00,12.2,6,,,0,,85,,280,Dry,1003,7,50,0,0,,9.9,
Dundrennan,29/09/2019 20:00,11.9,6,,,0,,86,,320,Dry,1004,7,35,0,0,,9.7,
Dundrennan,29/09/2019 21:00,11.7,6,,,0,,88,,300,Rain,1004,8,29,0,0,,9.9,
Dundrennan,29/09/2019 22:00,11.3,6,,,0.2,,89,,10,Drizzly rain,1005,8,40,0,0,,9.7,
Dundrennan,29/09/2019 23:00,10.7,6,,,0,,94,,20,Rain,1006,7,35,0,0,,9.9,
Dundrennan,30/09/2019 00:00,9.8,7,,,0,0.2,97,,310,Dry,1006,4,23,,,,9.4,
Dundrennan,30/09/2019 01:00,10.2,7,,,0,,97,,300,Dry,1006,2,26,0,0,,9.8,
Dundrennan,30/09/2019 02:00,10,10,,,0,,96,,270,Dry,1006,0,50,0,0,,9.5,
Dundrennan,30/09/2019 03:00,9.9,8,,,0,,96,,300,Dry,1007,0,45,0,0,,9.3,
Dundrennan,30/09/2019 04:00,9.8,7,,,0.2,,96,,310,Dry,1007,0,29,0,0,,9.2,
Dundrennan,30/09/2019 05:00,9.5,6,,,0,,97,,300,Dry,1007,0,35,0,0,,9.1,
Dundrennan,30/09/2019 06:00,10.1,3,8.7,,0,0.2,100,,260,Dry,1007,0,45,0,0,,10.1,
Dundrennan,30/09/2019 07:00,9.8,9,,,0,,100,,280,Fog,1008,1,5,30,18,,9.8,
Dundrennan,30/09/2019 08:00,10.3,8,,,0,,100,,260,Fog thinning,1008,2,0,389,60,,10.3,
Dundrennan,30/09/2019 09:00,10.6,2,,,0,,100,,310,Fog,1008,9,0,639,18,,10.6,
Dundrennan,30/09/2019 10:00,13.7,2,,,0,,90,,170,Fog,1008,3,40,1303,54,,12.1,
Dundrennan,30/09/2019 11:00,13.7,5,,,0,,83,,220,Dry,1008,5,29,1337,42,,11,
Dundrennan,30/09/2019 12:00,13.8,5,,,0,0,88,,170,Dry,1008,3,50,1163,36,,11.9,
Dundrennan,30/09/2019 13:00,13.4,5,,,0,,84,,170,Dry,1007,0,35,1041,0,,10.9,
Dundrennan,30/09/2019 14:00,12.8,6,,,0,,93,,120,Dry,1007,5,27,597,0,,11.7,
Dundrennan,30/09/2019 15:00,12.6,7,,,0,,91,,110,Dry,1006,4,35,327,0,,11.2,
Dundrennan,30/09/2019 16:00,12.4,8,,,0,,93,,100,Dry,1005,7,25,182,0,,11.4,
Dundrennan,30/09/2019 17:00,12.1,8,,,0,,94,,90,Dry,1004,7,35,62,0,,11.3,
Dundrennan,30/09/2019 18:00,11.8,9,,14.5,1,1,95,,120,Moderate shower,1003,7,8,12,0,,11.1,
Dundrennan,30/09/2019 19:00,10.3,12,,,6.2,,94,,140,Moderate rain,1003,8,7,0,0,,9.5,
Dundrennan,30/09/2019 20:00,9.9,10,,,2.2,,96,,100,Moderate rain,1002,7,12,0,0,,9.3,
Dundrennan,30/09/2019 21:00,10.4,18,,,1.4,,100,,70,Moderate rain,1001,8,4,0,0,,10.4,
Dundrennan,30/09/2019 22:00,9,26,,,0.6,,98,35,60,Light drizzle,1000,4,10,0,0,,8.8,
Dundrennan,30/09/2019 23:00,8.9,28,,,0.8,,97,37,60,Light rain,999,8,14,0,0,,8.6,
Dundrennan,01/10/2019 00:00,8.9,30,,,0,11,97,38,60,Drizzly rain,999,7,8,,,,8.5,
Dundrennan,01/10/2019 01:00,8.9,30,,,0.6,,96,43,60,Moderate rain,999,8,4,0,0,,8.3,
Dundrennan,01/10/2019 02:00,8.4,31,,,5.8,,96,45,60,Moderate rain,998,8,3,0,0,,7.9,
Dundrennan,01/10/2019 03:00,8.3,31,,,2.2,,95,46,60,Moderate rain,997,7,4,0,0,,7.7,
Dundrennan,01/10/2019 04:00,8.2,33,,,2.8,,95,52,60,Moderate rain,997,1,5,0,0,,7.6,
Dundrennan,01/10/2019 05:00,8.2,31,,,3.2,,95,51,60,Moderate rain,997,8,3,0,0,,7.6,
Dundrennan,01/10/2019 06:00,8,31,8,,2.6,17,96,44,50,Moderate rain,998,7,5,0,0,,7.5,
Dundrennan,01/10/2019 07:00,7.5,29,,,1,,95,45,50,Light rain,998,8,12,5,0,,6.9,
Dundrennan,01/10/2019 08:00,6.9,28,,,3,,95,43,50,Moderate rain,1000,8,3,46,0,,6.3,
Dundrennan,01/10/2019 09:00,6.6,31,,,1.8,,93,43,50,Moderate rain,1001,8,7,126,0,,5.6,
Dundrennan,01/10/2019 10:00,6.9,25,,,0.6,,93,39,50,Light rain,1002,8,19,326,0,,6,
Dundrennan,01/10/2019 11:00,8,23,,,0,,85,36,50,Rain,1003,8,35,873,0,,5.8,
Dundrennan,01/10/2019 12:00,8.8,23,,,0,6,83,33,50,Dry,1003,,50,1117,18,,6.2,
Dundrennan,01/10/2019 13:00,9.8,25,,,0,,78,36,50,Dry,1004,2,45,1524,42,,6.2,
Dundrennan,01/10/2019 14:00,9.8,18,,,0,,72,36,40,Dry,1005,6,35,1369,54,,5,
Dundrennan,01/10/2019 15:00,10.4,20,,,0,,66,29,50,Dry,1006,1,45,1458,60,,4.4,
Dundrennan,01/10/2019 16:00,10.1,15,,,0,,65,,30,Dry,1007,0,30,1080,54,,4,
Dundrennan,01/10/2019 17:00,9.1,12,,,0,,67,,50,Dry,1008,0,35,535,42,,3.4,
Dundrennan,01/10/2019 18:00,7.7,8,,10.8,0,0,73,,10,Dry,1009,1,30,161,42,,3.3,
Dundrennan,01/10/2019 19:00,6.6,9,,,0,,78,,10,Dry,1010,0,40,0,0,,3.1,
Dundrennan,01/10/2019 20:00,5.4,6,,,0,,83,,20,Dry,1011,0,50,0,0,,2.8,
Dundrennan,01/10/2019 21:00,5.9,7,,,0,,77,,340,Dry,1012,0,40,0,0,,2.2,
Dundrennan,01/10/2019 22:00,5.2,10,,,0,,82,,10,Dry,1013,0,45,0,0,,2.4,
Dundrennan,01/10/2019 23:00,5.3,8,,,0,,82,,20,Dry,1013,3,30,0,0,,2.6,
Dundrennan,02/10/2019 00:00,4.8,7,,,0,0,84,,10,Dry,1014,2,40,,,,2.4,
Dundrennan,02/10/2019 01:00,5,7,,,0,,85,,10,Dry,1015,6,40,0,0,,2.7,
Dundrennan,02/10/2019 02:00,5.2,9,,,0,,83,,360,Dry,1015,4,35,0,0,,2.7,
Dundrennan,02/10/2019 03:00,4.9,9,,,0,,85,,20,Dry,1015,3,50,0,0,,2.6,
Dundrennan,02/10/2019 04:00,4.4,8,,,0,,84,,10,Dry,1015,5,28,0,0,,2.1,
Dundrennan,02/10/2019 05:00,3.8,6,,,0,,87,,360,Dry,1016,0,40,0,0,,1.9,
Dundrennan,02/10/2019 06:00,3.5,7,2.7,,0,0,87,,360,Dry,1016,0,50,0,0,,1.6,
Dundrennan,02/10/2019 07:00,3.2,6,,,0,,87,,330,Dry,1017,0,50,17,18,,1.4,
Dundrennan,02/10/2019 08:00,5.3,8,,,0,,86,,310,Dry,1018,0,40,346,60,,3.3,
Dundrennan,02/10/2019 09:00,6.9,7,,,0,,82,,330,Dry,1018,0,50,874,60,,4.2,
Dundrennan,02/10/2019 10:00,8.2,7,,,0,,76,,280,Dry,1019,0,50,1342,60,,4.4,
Dundrennan,02/10/2019 11:00,10.1,6,,,0,,65,,330,Dry,1019,0,50,1637,60,,4,
Dundrennan,02/10/2019 12:00,11.1,7,,,0,0,56,,290,Dry,1019,0,50,1894,60,,2.7,
Dundrennan,02/10/2019 13:00,12,8,,,0,,48,,340,Dry,1019,0,40,1921,60,,1.4,
Dundrennan,02/10/2019 14:00,12.4,7,,,0,,55,,260,Dry,1019,2,45,1755,60,,3.8,
Dundrennan,02/10/2019 15:00,12.2,10,,,0,,56,,290,Dry,1020,,45,1542,60,,3.9,
Dundrennan,02/10/2019 16:00,11.8,10,,,0,,55,,290,Dry,1020,,50,1110,60,,3.2,
Dundrennan,02/10/2019 17:00,10.8,8,,,0,,64,,280,Dry,1020,1,35,606,60,,4.4,
Dundrennan,02/10/2019 18:00,8.8,5,,12.7,0,0,70,,330,Dry,1020,,45,113,24,,3.7,
Dundrennan,02/10/2019 19:00,7.9,3,,,0,,74,,340,Dry,1021,,50,0,0,,3.6,
Dundrennan,02/10/2019 20:00,7.4,5,,,0,,75,,340,Dry,1021,,25,0,0,,3.4,
Dundrennan,02/10/2019 21:00,7,6,,,0,,76,,340,Dry,1021,0,35,0,0,,3.2,
Dundrennan,02/10/2019 22:00,7.2,3,,,0,,74,,350,Dry,1021,0,35,0,0,,3,
Dundrennan,02/10/2019 23:00,5.9,3,,,0,,79,,20,Dry,1021,,30,0,0,,2.7,
Dundrennan,03/10/2019 00:00,6.7,3,,,0,0,77,,20,Dry,1021,,35,,,,3,
Dundrennan,03/10/2019 01:00,6,5,,,0,,79,,30,Dry,1020,8,29,0,0,,2.8,
Dundrennan,03/10/2019 02:00,6.1,5,,,0,,86,,70,Dry,1020,1,50,0,0,,4,
Dundrennan,03/10/2019 03:00,5.9,9,,,0,,95,,80,Dry,1019,0,17,0,0,,5.3,
Dundrennan,03/10/2019 04:00,5.4,8,,,0,,91,,80,Dry,1018,0,45,0,0,,4.2,
Dundrennan,03/10/2019 05:00,5,13,,,0,,94,,80,Dry,1018,,45,0,0,,4.2,
Dundrennan,03/10/2019 06:00,5.1,12,4.9,,0,0,94,,80,Dry,1017,7,45,0,0,,4.3,
Dundrennan,03/10/2019 07:00,5,13,,,0,,92,,80,Dry,1017,7,35,22,0,,3.9,
Dundrennan,03/10/2019 08:00,5.7,13,,,0,,90,,80,Dry,1017,1,40,147,0,,4.3,
Dundrennan,03/10/2019 09:00,6.3,13,,,0,,92,,80,Dry,1016,,30,350,0,,5.1,
Dundrennan,03/10/2019 10:00,8,13,,,0,,90,,100,Dry,1015,1,35,565,0,,6.6,
Dundrennan,03/10/2019 11:00,9.2,16,,,0,,76,,130,Dry,1014,6,40,693,0,,5.3,
Dundrennan,03/10/2019 12:00,9.4,20,,,0,0,74,,130,Dry,1012,7,18,462,0,,5.1,
Dundrennan,03/10/2019 13:00,9.1,20,,,0,,79,30,120,Light shower,1011,8,40,367,0,,5.8,
Dundrennan,03/10/2019 14:00,11,21,,,0,,77,,140,Rain,1010,8,30,527,0,,7.2,
Dundrennan,03/10/2019 15:00,10.3,23,,,0,,77,33,140,Dry,1008,,35,619,0,,6.6,
Dundrennan,03/10/2019 16:00,10.6,23,,,0,,77,32,130,Rain,1007,5,40,254,0,,6.9,
Dundrennan,03/10/2019 17:00,10.4,28,,,0,,79,36,140,Rain,1006,8,28,101,0,,7,
Dundrennan,03/10/2019 18:00,9.3,26,,11.1,1.6,2,93,37,140,Moderate rain,1004,8,4,16,0,,8.3,
Dundrennan,03/10/2019 19:00,9.4,23,,,2,,97,37,130,Moderate rain,1003,8,3,0,0,,9,
Dundrennan,03/10/2019 20:00,8.9,20,,,3.4,,100,36,100,Moderate rain,1001,7,2,0,0,,8.9,
Dundrennan,03/10/2019 21:00,9.6,21,,,2.6,,99,31,120,Moderate rain,1000,8,2,0,0,,9.5,
Dundrennan,03/10/2019 22:00,10.1,20,,,6.4,,99,30,130,Moderate rain,999,8,3,0,0,,10,
Dundrennan,03/10/2019 23:00,11,21,,,6,,100,30,150,Moderate rain,998,7,4,0,0,,11,
Dundrennan,04/10/2019 00:00,10.8,5,,,0.4,21,100,,20,Drizzly rain,998,7,10,,,,10.8,
Dundrennan,04/10/2019 01:00,9.4,8,,,0.2,,100,,70,Moderate shower,998,1,4,0,0,,9.4,
Dundrennan,04/10/2019 02:00,9.1,12,,,0.4,,100,,70,Moderate rain,998,8,1,0,0,,9.1,
Dundrennan,04/10/2019 03:00,9.1,12,,,1,,100,,80,Light drizzle,998,8,2,0,0,,9.1,
Dundrennan,04/10/2019 04:00,9.5,8,,,0.4,,100,,90,Light drizzle,998,8,4,0,0,,9.5,
Dundrennan,04/10/2019 05:00,9.6,9,,,1.4,,100,,80,Moderate rain,998,8,3,0,0,,9.6,
Dundrennan,04/10/2019 06:00,9.5,13,8.9,,1.8,5,100,,80,Moderate rain,998,8,3,0,0,,9.5,
Dundrennan,04/10/2019 07:00,9.5,13,,,1.4,,100,,70,Drizzly rain,998,8,7,14,0,,9.5,
Dundrennan,04/10/2019 08:00,9.8,14,,,0,,100,,60,Rain,999,8,14,315,0,,9.8,
Dundrennan,04/10/2019 09:00,9.8,20,,,0,,100,,70,Dry,1000,8,11,493,0,,9.8,
Dundrennan,04/10/2019 10:00,10.2,20,,,0,,99,,60,Moderate shower,1001,8,7,408,0,,10.1,
Dundrennan,04/10/2019 11:00,11.3,18,,,0,,96,,50,Rain,1002,8,40,805,12,,10.7,
Dundrennan,04/10/2019 12:00,12.8,18,,,0,1,84,,60,Dry,1003,1,40,1967,54,,10.2,
Dundrennan,04/10/2019 13:00,13.2,21,,,0,,83,29,70,Dry,1003,7,45,1581,36,,10.5,
Dundrennan,04/10/2019 14:00,13.6,21,,,0,,84,36,70,Dry,1004,3,40,1708,60,,11.1,
Dundrennan,04/10/2019 15:00,12.9,21,,,0.2,,81,32,60,Fog,1006,7,45,1297,42,,9.8,
Dundrennan,04/10/2019 16:00,12.5,22,,,0,,82,33,60,Dry,1007,6,35,859,30,,9.6,
Dundrennan,04/10/2019 17:00,11.7,18,,,0,,87,,60,Dry,1008,4,27,454,24,,9.7,
Dundrennan,04/10/2019 18:00,10.8,17,,14.1,0,1,87,,60,Dry,1009,1,45,103,18,,8.8,
Dundrennan,04/10/2019 19:00,10.1,16,,,0,,87,,50,Dry,1010,,45,0,0,,8.2,
Dundrennan,04/10/2019 20:00,9.7,14,,,0,,89,,50,Dry,1010,0,50,0,0,,8.1,
Dundrennan,04/10/2019 21:00,9.7,17,,,0,,90,,60,Dry,1010,0,21,0,0,,8.2,
Dundrennan,04/10/2019 22:00,9.8,18,,,0,,90,,60,Dry,1011,4,45,0,0,,8.4,
Dundrennan,04/10/2019 23:00,10.2,13,,,0,,91,,60,Dry,1012,7,50,0,0,,8.8,
Dundrennan,05/10/2019 00:00,10.3,15,,,0,0,91,,70,Dry,1012,6,50,,,,9,
Dundrennan,05/10/2019 01:00,10.2,13,,,0,,93,,70,Dry,1013,8,40,0,0,,9.2,
Dundrennan,05/10/2019 02:00,10.2,10,,,0,,92,,80,Dry,1012,8,45,0,0,,9.1,
Dundrennan,05/10/2019 03:00,10.2,10,,,0,,94,,80,Dry,1013,8,35,0,0,,9.3,
Dundrennan,05/10/2019 04:00,10,10,,,0,,94,,80,Dry,1012,8,30,0,0,,9.2,
Dundrennan,05/10/2019 05:00,9.9,12,,,0,,94,,70,Dry,1012,7,28,0,0,,9.1,
Dundrennan,05/10/2019 06:00,10,12,9.2,,0,0,96,,80,Dry,1012,8,29,0,0,,9.4,
Dundrennan,05/10/2019 07:00,9.7,12,,,0,,97,,80,Dry,1013,8,26,11,0,,9.3,
Dundrennan,05/10/2019 08:00,10.1,10,,,0,,96,,80,Dry,1013,8,40,80,0,,9.5,
Dundrennan,05/10/2019 09:00,10.3,14,,,0,,93,,80,Dry,1013,7,26,156,0,,9.3,
Dundrennan,05/10/2019 10:00,10.5,12,,,0,,92,,80,Dry,1013,8,30,247,0,,9.4,
Dundrennan,05/10/2019 11:00,10.8,14,,,0,,91,,80,Dry,1013,8,30,329,0,,9.4,
Dundrennan,05/10/2019 12:00,11.3,13,,,0,0,88,,90,Dry,1012,8,24,217,0,,9.4,
Dundrennan,05/10/2019 13:00,11.8,12,,,0,,84,,110,Dry,1012,8,30,200,0,,9.3,
Dundrennan,05/10/2019 14:00,12.5,18,,,0,,82,,150,Dry,1012,8,35,187,0,,9.6,
Dundrennan,05/10/2019 15:00,12.6,18,,,0,,83,29,150,Rain,1011,8,30,117,0,,9.9,
Dundrennan,05/10/2019 16:00,12.6,23,,,0,,84,29,140,Light shower,1011,8,9,141,0,,10.1,
Dundrennan,05/10/2019 17:00,11.5,23,,,0.8,,96,31,140,Moderate rain,1011,7,4,73,0,,10.9,
Dundrennan,05/10/2019 18:00,11.7,22,,12.9,0.2,1,96,32,140,Moderate shower,1010,7,8,3,0,,11.1,
Dundrennan,05/10/2019 19:00,11.7,21,,,0.8,,97,33,130,Light rain,1010,8,5,0,0,,11.3,
Dundrennan,05/10/2019 20:00,11.7,21,,,2.8,,99,30,140,Moderate rain,1010,8,6,0,0,,11.6,
Dundrennan,05/10/2019 21:00,11.7,21,,,2.4,,98,30,140,Moderate rain,1009,8,7,0,0,,11.5,
Dundrennan,05/10/2019 22:00,11.6,22,,,2.8,,98,31,130,Moderate rain,1008,8,6,0,0,,11.4,
Dundrennan,05/10/2019 23:00,11.6,21,,,2.2,,97,30,130,Moderate rain,1007,8,7,0,0,,11.2,
Dundrennan,06/10/2019 00:00,11.4,20,,,3.4,14,98,30,120,Moderate rain,1006,8,5,,,,11.2,
Dundrennan,06/10/2019 01:00,11.4,20,,,8,,100,30,120,Moderate rain,1005,8,2,0,0,,11.4,
Dundrennan,06/10/2019 02:00,11,14,,,10.8,,100,,100,Moderate rain,1005,8,4,0,0,,11,
Dundrennan,06/10/2019 03:00,11.1,20,,,4.2,,100,30,140,Moderate rain,1004,7,4,0,0,,11.1,
Dundrennan,06/10/2019 04:00,11.5,15,,,1.6,,97,35,170,Moderate rain,1003,8,12,0,0,,11.1,
Dundrennan,06/10/2019 05:00,11.2,16,,,0,,92,,270,Rain,1004,8,40,0,0,,10,
Dundrennan,06/10/2019 06:00,10.9,8,10.7,,0,25,94,,270,Dry,1005,8,35,0,0,,10.1,
Dundrennan,06/10/2019 07:00,10.7,12,,,0,,92,,280,Dry,1005,8,28,4,0,,9.5,
Dundrennan,06/10/2019 08:00,10.8,13,,,0,,91,,270,Dry,1006,8,26,77,0,,9.5,
Dundrennan,06/10/2019 09:00,10.9,15,,,0,,93,,280,Dry,1007,8,20,242,0,,9.9,
Dundrennan,06/10/2019 10:00,11.6,13,,,0.4,,94,,290,Rain,1007,8,45,605,0,,10.7,
Dundrennan,06/10/2019 11:00,11.1,15,,,0,,88,,330,Dry,1008,8,30,1220,24,,9.3,
Dundrennan,06/10/2019 12:00,12.7,12,,,0,0.4,83,,340,Dry,1009,6,50,1566,42,,9.9,
Dundrennan,06/10/2019 13:00,11.7,12,,,0,,85,,320,Dry,1010,8,30,574,0,,9.4,
Dundrennan,06/10/2019 14:00,11.9,9,,,0,,86,,330,Dry,1011,7,30,312,0,,9.8,
Dundrennan,06/10/2019 15:00,12.1,10,,,0,,86,,350,Dry,1012,8,50,344,0,,10,
Dundrennan,06/10/2019 16:00,12,8,,,0,,89,,340,Dry,1013,8,50,219,0,,10.4,
Dundrennan,06/10/2019 17:00,10.9,10,,,0,,96,,60,Rain,1013,8,40,96,0,,10.3,
Dundrennan,06/10/2019 18:00,10.2,20,,12.8,0,0,96,,60,Dry,1013,1,27,68,0,,9.6,
Dundrennan,06/10/2019 19:00,9.8,14,,,0,,96,,70,Dry,1014,1,22,0,0,,9.2,
Dundrennan,06/10/2019 20:00,10.1,10,,,0,,96,,60,Dry,1014,7,23,0,0,,9.6,
Dundrennan,06/10/2019 21:00,10.4,12,,,0,,97,,80,Dry,1014,8,19,0,0,,10,
Dundrennan,06/10/2019 22:00,10.8,10,,,0,,98,,100,Rain,1014,8,18,0,0,,10.6,
Dundrennan,06/10/2019 23:00,11.5,17,,,0,,92,,130,Dry,1013,8,50,0,0,,10.4,
Dundrennan,07/10/2019 00:00,11.3,13,,,0,0,91,,120,Dry,1013,1,40,,,,10,
Dundrennan,07/10/2019 01:00,11.7,21,,,0,,91,,150,Dry,1013,6,50,0,0,,10.3,
Dundrennan,07/10/2019 02:00,12.1,20,,,0,,96,30,160,Dry,1012,8,20,0,0,,11.6,
Dundrennan,07/10/2019 03:00,11.8,24,,,0.2,,98,31,150,Moderate shower,1012,8,8,0,0,,11.5,
Dundrennan,07/10/2019 04:00,12.2,23,,,0.2,,86,35,180,Rain,1011,1,22,0,0,,10.1,
Dundrennan,07/10/2019 05:00,11.5,23,,,3,,96,35,170,Light rain,1010,8,9,0,0,,11,
Dundrennan,07/10/2019 06:00,11.7,29,9.7,,0,3,91,41,160,Rain,1008,8,15,0,0,,10.4,
Dundrennan,07/10/2019 07:00,12,31,,,0,,88,41,160,Dry,1008,8,18,2,0,,10.2,
Dundrennan,07/10/2019 08:00,11.8,35,,,0,,76,49,170,Dry,1008,7,14,31,0,,7.9,
Dundrennan,07/10/2019 09:00,10.8,35,,,0.2,,96,49,170,Light shower,1007,8,5,80,0,,10.2,
Dundrennan,07/10/2019 10:00,10.9,31,,,0.8,,99,47,170,Moderate rain,1006,8,5,127,0,,10.8,
Dundrennan,07/10/2019 11:00,11.3,31,,,0.6,,99,44,170,Moderate rain,1005,8,9,104,0,,11.2,
Dundrennan,07/10/2019 12:00,11.5,29,,,1.2,3,100,39,180,Heavy shower,1005,8,1,89,0,,11.5,
Dundrennan,07/10/2019 13:00,13,23,,,0.6,,100,38,200,Rain,1004,8,10,146,0,,13,
Dundrennan,07/10/2019 14:00,13.2,17,,,0,,96,,230,Misty,1004,7,8,345,0,,12.7,
Dundrennan,07/10/2019 15:00,14,20,,,0,,91,30,230,Haze,1004,1,9,756,18,,12.6,
Dundrennan,07/10/2019 16:00,13.4,23,,,0,,91,31,230,Haze,1003,4,7,755,36,,12,
Dundrennan,07/10/2019 17:00,13.2,17,,,0,,88,,230,Haze,1003,1,8,403,36,,11.3,
Dundrennan,07/10/2019 18:00,12.9,18,,14.3,0,0,88,,230,Haze,1003,,9,67,0,,11,
Dundrennan,07/10/2019 19:00,13,21,,,0,,88,30,230,Haze,1002,,9,0,0,,11.1,
Dundrennan,07/10/2019 20:00,12.9,22,,,0,,83,,230,Dry,1002,1,12,0,0,,10.2,
Dundrennan,07/10/2019 21:00,12.7,21,,,0,,84,,230,Dry,1002,0,13,0,0,,10.2,
Dundrennan,07/10/2019 22:00,12.4,22,,,0,,83,31,240,Dry,1002,,13,0,0,,9.6,
Dundrennan,07/10/2019 23:00,12,15,,,0,,87,30,230,Dry,1002,3,11,0,0,,10,
Dundrennan,08/10/2019 00:00,12.1,22,,,0,0,86,32,230,Dry,1001,3,10,,,,9.9,
Dundrennan,08/10/2019 01:00,12.1,25,,,0,,86,33,230,Dry,1001,7,11,0,0,,9.9,
Dundrennan,08/10/2019 02:00,11.8,23,,,0,,86,37,230,Dry,1000,7,13,0,0,,9.7,
Dundrennan,08/10/2019 03:00,12,28,,,0,,85,36,230,Dry,1000,7,12,0,0,,9.7,
Dundrennan,08/10/2019 04:00,11.8,26,,,0,,85,38,230,Dry,999,3,10,0,0,,9.5,
Dundrennan,08/10/2019 05:00,11.5,29,,,0,,85,39,230,Dry,998,6,9,0,0,,9.2,
Dundrennan,08/10/2019 06:00,11.5,25,11.5,,0,0,87,41,220,Light shower,998,1,8,0,0,,9.5,
Dundrennan,08/10/2019 07:00,11,28,,,1.6,,91,53,230,Rain,998,8,11,3,0,,9.7,
Dundrennan,08/10/2019 08:00,10.9,24,,,0,,79,43,240,Dry,998,7,15,114,0,,7.5,
Dundrennan,08/10/2019 09:00,11.4,22,,,0,,74,39,240,Dry,998,,22,539,36,,7,
Dundrennan,08/10/2019 10:00,11.9,30,,,0,,76,40,230,Dry,998,4,17,1016,48,,8,
Dundrennan,08/10/2019 11:00,12.6,32,,,0,,76,41,230,Dry,997,4,13,1540,60,,8.5,
Dundrennan,08/10/2019 12:00,12.8,32,,,0,2,76,43,230,Dry,997,7,13,1603,54,,8.8,
Dundrennan,08/10/2019 13:00,12.5,32,,,0,,77,44,230,Dry,996,8,13,930,12,,8.6,
Dundrennan,08/10/2019 14:00,13.1,29,,,0,,73,45,230,Dry,996,2,21,1408,36,,8.5,
Dundrennan,08/10/2019 15:00,12.9,30,,,0,,74,41,220,Dry,995,6,14,1309,54,,8.4,
Dundrennan,08/10/2019 16:00,11.8,32,,,0,,81,43,230,Drizzly rain,995,7,8,395,12,,8.7,
Dundrennan,08/10/2019 17:00,11.5,35,,,1.8,,85,49,230,Rain,995,8,14,120,0,,9.1,
Dundrennan,08/10/2019 18:00,11.3,24,,13.3,0,1,80,43,240,Dry,995,3,26,65,0,,8.1,
Dundrennan,08/10/2019 19:00,11.8,22,,,0,,82,35,240,Light shower,995,7,14,0,0,,9,
Dundrennan,08/10/2019 20:00,11.6,26,,,0,,79,39,250,Rain,995,8,20,0,0,,8.1,
Dundrennan,08/10/2019 21:00,11.3,23,,,0,,80,38,240,Rain,996,8,21,0,0,,8.1,
Dundrennan,08/10/2019 22:00,11,25,,,0,,81,38,250,Dry,996,8,21,0,0,,7.9,
Dundrennan,08/10/2019 23:00,10.7,23,,,0,,83,33,250,Dry,996,7,19,0,0,,8,
Dundrennan,09/10/2019 00:00,10.9,23,,,0,0,83,38,250,Dry,996,7,12,,,,8.2,
Dundrennan,09/10/2019 01:00,10.3,20,,,0,,85,36,250,Dry,996,7,17,0,0,,8,
Dundrennan,09/10/2019 02:00,10.2,24,,,0,,85,35,250,Dry,996,6,18,0,0,,7.8,
Dundrennan,09/10/2019 03:00,10.1,22,,,0,,85,33,250,Dry,996,6,16,0,0,,7.7,
Dundrennan,09/10/2019 04:00,10.3,22,,,0,,84,30,250,Dry,996,3,17,0,0,,7.8,
Dundrennan,09/10/2019 05:00,9.9,22,,,0,,84,36,250,Dry,996,7,15,0,0,,7.4,
Dundrennan,09/10/2019 06:00,9.8,23,9.7,,0,0,83,36,250,Dry,996,5,21,0,0,,7.2,
Dundrennan,09/10/2019 07:00,9.6,21,,,0,,85,35,250,Dry,996,5,18,4,0,,7.3,
Dundrennan,09/10/2019 08:00,9.8,18,,,0,,83,32,250,Dry,996,5,17,111,0,,7.2,
Dundrennan,09/10/2019 09:00,10.1,24,,,0,,82,35,250,Dry,996,8,20,537,12,,7.3,
Dundrennan,09/10/2019 10:00,10.2,28,,,0,,81,36,250,Dry,997,6,16,892,36,,7.1,
Dundrennan,09/10/2019 11:00,11.3,24,,,0,,75,36,260,Dry,997,7,21,1538,48,,7.2,
Dundrennan,09/10/2019 12:00,11.8,20,,,0,0,72,33,250,Dry,997,7,22,1528,48,,7.1,
Dundrennan,09/10/2019 13:00,11.2,25,,,0,,74,36,250,Dry,997,8,16,970,18,,6.8,
Dundrennan,09/10/2019 14:00,11.4,25,,,0,,73,38,250,Dry,997,7,40,907,6,,6.9,
Dundrennan,09/10/2019 15:00,11.3,21,,,0,,80,36,250,Rain,997,6,28,842,12,,8.1,
Dundrennan,09/10/2019 16:00,11.4,25,,,0,,72,33,250,Dry,997,2,23,765,36,,6.6,
Dundrennan,09/10/2019 17:00,11,21,,,0.2,,76,39,250,Rain,997,1,30,380,30,,7.1,
Dundrennan,09/10/2019 18:00,9.1,12,,11.9,0.4,0.6,92,33,260,Moderate shower,998,2,10,47,0,,7.9,
Dundrennan,09/10/2019 19:00,10.3,18,,,0,,82,,260,Rain,998,2,30,0,0,,7.5,
Dundrennan,09/10/2019 20:00,10.2,25,,,0,,82,32,250,Dry,998,0,30,0,0,,7.4,
Dundrennan,09/10/2019 21:00,10.1,25,,,0,,84,36,250,Dry,998,0,22,0,0,,7.6,
Dundrennan,09/10/2019 22:00,10,24,,,0,,86,39,250,Rain,999,7,26,0,0,,7.8,
Dundrennan,09/10/2019 23:00,9.7,23,,,0,,86,36,250,Dry,999,6,24,0,0,,7.5,
Dundrennan,10/10/2019 00:00,9.8,23,,,0,0,85,37,250,Dry,999,4,17,,,,7.5,
Dundrennan,10/10/2019 01:00,9.8,20,,,0,,83,31,250,Dry,1000,7,18,0,0,,7.2,
Dundrennan,10/10/2019 02:00,9.9,23,,,0,,85,36,250,Dry,1000,8,15,0,0,,7.6,
Dundrennan,10/10/2019 03:00,9.7,21,,,0,,86,33,250,Dry,1000,8,16,0,0,,7.5,
Dundrennan,10/10/2019 04:00,9.5,25,,,0,,86,39,250,Dry,1000,6,17,0,0,,7.3,
Dundrennan,10/10/2019 05:00,9.8,32,,,0,,85,41,250,Dry,1000,2,17,0,0,,7.5,
Dundrennan,10/10/2019 06:00,9.8,30,9.1,,0,0,83,41,250,Dry,1001,0,17,0,0,,7.2,
Dundrennan,10/10/2019 07:00,9.6,25,,,0,,86,41,250,Dry,1002,3,17,3,0,,7.4,
Dundrennan,10/10/2019 08:00,10.1,18,,,0,,85,37,240,Dry,1003,5,16,122,6,,7.7,
Dundrennan,10/10/2019 09:00,10.8,20,,,0,,86,31,250,Dry,1004,7,17,493,12,,8.7,
Dundrennan,10/10/2019 10:00,11.4,21,,,0,,82,31,240,Dry,1003,8,26,581,0,,8.5,
Dundrennan,10/10/2019 11:00,11.6,24,,,0,,85,35,230,Dry,1003,8,12,484,0,,9.3,
Dundrennan,10/10/2019 12:00,10.9,21,,,0.4,0.4,86,35,230,Light shower,1003,2,9,508,0,,8.7,
Dundrennan,10/10/2019 13:00,10.3,18,,,0.4,,91,30,210,Light drizzle,1002,8,8,230,0,,9,
Dundrennan,10/10/2019 14:00,11.8,21,,,0,,94,30,210,Drizzly rain,1000,8,17,161,0,,10.9,
Dundrennan,10/10/2019 15:00,13,26,,,0,,91,36,220,Rain,1000,8,12,197,0,,11.7,
Dundrennan,10/10/2019 16:00,13.2,26,,,0,,90,39,220,Dry,999,4,15,306,0,,11.6,
Dundrennan,10/10/2019 17:00,13.3,28,,,0,,87,41,220,Dry,998,,15,207,0,,11.3,
Dundrennan,10/10/2019 18:00,13.3,26,,13.4,0,0.4,81,40,220,Dry,998,7,13,51,0,,10.2,
Dundrennan,10/10/2019 19:00,13.1,18,,,0,,87,36,220,Dry,998,1,11,0,0,,11,
Dundrennan,10/10/2019 20:00,13.1,20,,,0,,90,32,220,Dry,998,8,11,0,0,,11.5,
Dundrennan,10/10/2019 21:00,12.9,22,,,0,,88,31,220,Drizzly rain,997,8,13,0,0,,11.1,
Dundrennan,10/10/2019 22:00,12.8,26,,,0,,88,37,230,Rain,997,8,12,0,0,,11,
Dundrennan,10/10/2019 23:00,13.1,25,,,0,,87,43,220,Dry,997,8,9,0,0,,11.1,
Dundrennan,11/10/2019 00:00,13,30,,,0,0,87,44,230,Rain,997,3,12,,,,10.9,
Dundrennan,11/10/2019 01:00,12.2,24,,,0,,83,40,240,Dry,997,3,16,0,0,,9.5,
Dundrennan,11/10/2019 02:00,11.7,16,,,0,,80,31,240,Dry,997,,14,0,0,,8.5,
Dundrennan,11/10/2019 03:00,11.9,20,,,0,,80,,250,Dry,997,6,15,0,0,,8.7,
Dundrennan,11/10/2019 04:00,11.8,18,,,0,,81,29,240,Dry,997,2,14,0,0,,8.7,
Dundrennan,11/10/2019 05:00,12,21,,,0,,81,31,240,Dry,996,8,14,0,0,,8.9,
Dundrennan,11/10/2019 06:00,11.8,17,11.5,,0,0,79,32,240,Dry,996,8,13,0,0,,8.3,
Dundrennan,11/10/2019 07:00,11.4,18,,,0,,79,,240,Dry,996,6,19,2,0,,8,
Dundrennan,11/10/2019 08:00,11.3,17,,,0,,80,,250,Dry,996,7,21,123,0,,8,
Dundrennan,11/10/2019 09:00,11.1,18,,,0,,76,,250,Dry,996,0,20,364,18,,7.1,
Dundrennan,11/10/2019 10:00,12,18,,,0,,77,31,240,Dry,996,3,25,579,24,,8.2,
Dundrennan,11/10/2019 11:00,12.4,22,,,0,,72,32,240,Dry,996,2,22,1359,54,,7.5,
Dundrennan,11/10/2019 12:00,11.8,23,,,0,0,74,32,230,Dry,996,1,21,1247,60,,7.5,
Dundrennan,11/10/2019 13:00,13.1,22,,,0,,72,32,240,Dry,996,3,35,1650,60,,8.3,
Dundrennan,11/10/2019 14:00,11.9,23,,,0,,78,31,230,Dry,997,6,29,834,18,,8.3,
Dundrennan,11/10/2019 15:00,12.2,24,,,0,,78,35,230,Dry,997,7,19,579,6,,8.5,
Dundrennan,11/10/2019 16:00,10.9,28,,,0,,85,38,240,Drizzly rain,997,7,17,245,0,,8.5,
Dundrennan,11/10/2019 17:00,11.5,18,,,0,,80,33,240,Rain,997,0,35,205,0,,8.3,
Dundrennan,11/10/2019 18:00,11.8,23,,13.5,0,0,69,33,240,Dry,997,2,30,26,0,,6.4,
Dundrennan,11/10/2019 19:00,11.7,23,,,0,,67,33,250,Dry,997,5,27,0,0,,5.9,
Dundrennan,11/10/2019 20:00,11.5,18,,,0,,76,32,240,Dry,998,4,30,0,0,,7.5,
Dundrennan,11/10/2019 21:00,11.2,21,,,0,,74,32,240,Dry,998,1,26,0,0,,6.8,
Dundrennan,11/10/2019 22:00,10.9,21,,,0,,77,30,250,Dry,999,4,26,0,0,,7.2,
Dundrennan,11/10/2019 23:00,10.5,22,,,0,,79,37,240,Dry,999,4,29,0,0,,7.1,
Dundrennan,12/10/2019 00:00,10.6,21,,,0,0,81,32,250,Dry,999,6,30,,,,7.5,
Dundrennan,12/10/2019 01:00,9.9,21,,,0,,85,33,260,Dry,1000,8,30,0,0,,7.6,
Dundrennan,12/10/2019 02:00,9.6,18,,,0,,89,,260,Dry,1000,7,22,0,0,,8,
Dundrennan,12/10/2019 03:00,9.2,17,,,0,,89,,250,Dry,1000,6,26,0,0,,7.6,
Dundrennan,12/10/2019 04:00,9.1,9,,,0,,91,,250,Dry,1001,3,26,0,0,,7.8,
Dundrennan,12/10/2019 05:00,9.2,9,,,0,,92,,260,Dry,1001,7,29,0,0,,8.1,
Dundrennan,12/10/2019 06:00,9.4,12,8.9,,0,0,92,,250,Dry,1001,7,30,0,0,,8.2,
Dundrennan,12/10/2019 07:00,9.1,10,,,0,,92,,250,Dry,1002,7,28,1,0,,8,
Dundrennan,12/10/2019 08:00,9.4,5,,,0,,91,,260,Dry,1002,5,22,162,12,,8.1,
Dundrennan,12/10/2019 09:00,10.5,12,,,0,,86,,250,Dry,1003,0,29,532,48,,8.3,
Dundrennan,12/10/2019 10:00,11.8,14,,,0,,80,,240,Dry,1003,3,35,1026,60,,8.5,
Dundrennan,12/10/2019 11:00,11.5,13,,,0,,80,,240,Dry,1003,4,18,859,24,,8.2,
Dundrennan,12/10/2019 12:00,13.1,15,,,0,0,78,,230,Dry,1003,7,30,1562,42,,9.4,
Dundrennan,12/10/2019 13:00,11.9,15,,,0,,80,,220,Dry,1003,6,30,1453,42,,8.6,
Dundrennan,12/10/2019 14:00,12.6,16,,,0,,78,,220,Dry,1003,5,40,1428,54,,9,
Dundrennan,12/10/2019 15:00,12.2,17,,,0,,80,,220,Dry,1003,6,30,1092,42,,8.9,
Dundrennan,12/10/2019 16:00,11.9,17,,,0,,78,,210,Dry,1003,3,30,778,54,,8.3,
Dundrennan,12/10/2019 17:00,11.2,14,,,0,,80,,220,Dry,1003,5,24,336,42,,8,
Dundrennan,12/10/2019 18:00,11,10,,13.4,0,0,81,,210,Dry,1003,6,35,31,0,,7.9,
Dundrennan,12/10/2019 19:00,11.1,12,,,0,,83,,210,Dry,1003,2,30,0,0,,8.4,
Dundrennan,12/10/2019 20:00,11.6,14,,,0,,83,,200,Dry,1003,5,29,0,0,,8.9,
Dundrennan,12/10/2019 21:00,11.7,13,,,0,,87,,210,Dry,1003,1,3,0,0,,9.7,
Dundrennan,12/10/2019 22:00,11.5,10,,,0,,89,,210,Dry,1003,1,25,0,0,,9.8,
Dundrennan,12/10/2019 23:00,10.5,16,,,0,,88,,250,Light shower,1003,3,17,0,0,,8.6,
Dundrennan,13/10/2019 00:00,8.9,2,,,0.4,0.4,94,,30,Rain,1003,1,21,,,,8.1,
Dundrennan,13/10/2019 01:00,8.9,3,,,0,,87,,110,Dry,1003,,45,0,0,,7,
Dundrennan,13/10/2019 02:00,9.1,5,,,0,,92,,80,Dry,1002,3,30,0,0,,8,
Dundrennan,13/10/2019 03:00,8.9,5,,,0,,95,,80,Dry,1002,0,27,0,0,,8.2,
Dundrennan,13/10/2019 04:00,9.2,12,,,0,,99,,70,Dry,1002,,24,0,0,,9.1,
Dundrennan,13/10/2019 05:00,9.1,10,,,0.2,,97,,80,Rain,1001,6,19,0,0,,8.8,
Dundrennan,13/10/2019 06:00,9.6,10,8.5,,0,0.2,100,,80,Rain,1001,7,11,0,0,,9.6,
Dundrennan,13/10/2019 07:00,9.2,10,,,0.8,,99,,80,Rain,1001,8,10,0,0,,9.1,
Dundrennan,13/10/2019 08:00,8.9,12,,,0,,97,,80,Misty,1001,8,10,41,0,,8.5,
Dundrennan,13/10/2019 09:00,9.1,12,,,0,,95,,80,Dry,1000,8,13,112,0,,8.4,
Dundrennan,13/10/2019 10:00,9.6,7,,,0,,94,,40,Dry,1000,8,21,231,0,,8.7,
Dundrennan,13/10/2019 11:00,9.2,9,,,0,,97,,30,Misty,999,8,9,273,0,,8.8,
Dundrennan,13/10/2019 12:00,9.9,13,,,0,0.8,93,,80,Light shower,999,7,14,381,0,,8.9,
Dundrennan,13/10/2019 13:00,9.5,14,,,1.6,,97,,70,Moderate rain,999,7,8,228,0,,9.2,
Dundrennan,13/10/2019 14:00,9.7,15,,,1,,99,,60,Light rain,998,8,8,242,0,,9.6,
Dundrennan,13/10/2019 15:00,9.7,6,,,3,,98,,120,Moderate rain,999,8,9,143,0,,9.5,
Dundrennan,13/10/2019 16:00,9.6,7,,,1.2,,99,,80,Light rain,999,8,10,118,0,,9.5,
Dundrennan,13/10/2019 17:00,9.5,3,,,1.6,,99,,80,Moderate rain,999,1,4,65,0,,9.4,
Dundrennan,13/10/2019 18:00,9.7,8,,9.9,0.6,9.2,100,,170,Moderate shower,1001,8,5,17,0,,9.7,
Dundrennan,13/10/2019 19:00,8.5,10,,,0.2,,99,,260,Rain,1002,7,12,0,0,,8.4,
Dundrennan,13/10/2019 20:00,7.6,12,,,0,,97,,280,Dry,1003,2,45,0,0,,7.3,
Dundrennan,13/10/2019 21:00,7.5,8,,,0,,100,,290,Dry,1004,0,27,0,0,,7.5,
Dundrennan,13/10/2019 22:00,7.6,5,,,0,,99,,290,Dry,1005,4,50,0,0,,7.5,
Dundrennan,13/10/2019 23:00,7.5,0,,,0,,98,,0,Dry,1005,0,50,0,0,,7.3,
Dundrennan,14/10/2019 00:00,8.8,3,,,0,0.2,94,,170,Dry,1006,6,45,,,,8,
Dundrennan,14/10/2019 01:00,8.3,2,,,0,,94,,280,Dry,1006,4,50,0,0,,7.4,
Dundrennan,14/10/2019 02:00,8.6,2,,,0,,94,,300,Dry,1006,,45,0,0,,7.8,
Dundrennan,14/10/2019 03:00,8.4,5,,,0,,92,,290,Dry,1006,0,40,0,0,,7.3,
Dundrennan,14/10/2019 04:00,8,3,,,0.2,,94,,340,Dry,1007,0,30,0,0,,7.2,
Dundrennan,14/10/2019 05:00,7.2,3,,,0,,95,,70,Dry,1007,,45,0,0,,6.5,
Dundrennan,14/10/2019 06:00,7.1,5,6.9,,0,0.2,96,,70,Dry,1007,0,50,0,0,,6.6,
Dundrennan,14/10/2019 07:00,6.7,7,,,0,,99,,70,Misty,1007,1,9,0,0,,6.6,
Dundrennan,14/10/2019 08:00,7.6,8,,,0,,100,,90,Dry,1008,0,14,103,0,,7.6,
Dundrennan,14/10/2019 09:00,8.7,5,,,0,,97,,70,Dry,1008,0,30,395,0,,8.3,
Dundrennan,14/10/2019 10:00,10.1,8,,,0,,89,,80,Dry,1007,0,30,771,42,,8.5,
Dundrennan,14/10/2019 11:00,10.9,10,,,0,,87,,90,Dry,1007,5,45,1255,60,,8.9,
Dundrennan,14/10/2019 12:00,10.8,10,,,0,0,86,,80,Dry,1007,3,40,978,6,,8.6,
Dundrennan,14/10/2019 13:00,11.1,12,,,0,,85,,80,Dry,1006,0,35,852,0,,8.8,
Dundrennan,14/10/2019 14:00,12.1,10,,,0,,84,,90,Dry,1006,0,21,988,6,,9.6,
Dundrennan,14/10/2019 15:00,12.4,12,,,0,,83,,80,Dry,1006,0,40,912,48,,9.7,
Dundrennan,14/10/2019 16:00,11.7,9,,,0,,88,,90,Dry,1005,4,45,453,6,,9.9,
Dundrennan,14/10/2019 17:00,11.3,9,,,0,,88,,80,Dry,1005,1,40,222,0,,9.5,
Dundrennan,14/10/2019 18:00,10.6,9,,12.4,0,0,90,,70,Dry,1005,0,23,27,0,,9.1,
Dundrennan,14/10/2019 19:00,10,9,,,0,,92,,80,Dry,1005,1,35,0,0,,8.8,
Dundrennan,14/10/2019 20:00,9.5,9,,,0,,93,,80,Dry,1005,1,24,0,0,,8.5,
Dundrennan,14/10/2019 21:00,9.5,12,,,0,,94,,70,Dry,1004,7,18,0,0,,8.6,
Dundrennan,14/10/2019 22:00,9.6,14,,,0,,92,,70,Dry,1004,6,19,0,0,,8.5,
Dundrennan,14/10/2019 23:00,8.9,15,,,0,,94,,70,Dry,1004,5,11,0,0,,8,
Dundrennan,15/10/2019 00:00,8.6,12,,,0,0,95,,60,Misty,1003,,9,,,,7.9,
Dundrennan,15/10/2019 01:00,8.9,14,,,0,,90,,70,Dry,1003,,22,0,0,,7.4,
Dundrennan,15/10/2019 02:00,8.6,14,,,0,,91,,60,Dry,1003,4,35,0,0,,7.3,
Dundrennan,15/10/2019 03:00,8,13,,,0,,93,,60,Dry,1002,4,27,0,0,,7,
Dundrennan,15/10/2019 04:00,7.2,9,,,0,,95,,30,Dry,1002,2,40,0,0,,6.5,
Dundrennan,15/10/2019 05:00,7.9,14,,,0,,92,,60,Dry,1002,0,35,0,0,,6.7,
Dundrennan,15/10/2019 06:00,6.8,5,6.5,,0,0,93,,40,Dry,1002,7,13,0,0,,5.9,
Dundrennan,15/10/2019 07:00,6,9,,,0,,98,,10,Misty,1002,1,9,0,0,,5.8,
Dundrennan,15/10/2019 08:00,7.5,12,,,0,,96,,50,Dry,1002,0,45,146,36,,7,
Dundrennan,15/10/2019 09:00,9.9,9,,,0,,83,,80,Dry,1002,0,50,573,60,,7.3,
Dundrennan,15/10/2019 10:00,10.8,8,,,0,,84,,70,Dry,1002,0,50,1015,60,,8.3,
Dundrennan,15/10/2019 11:00,11.1,10,,,0,,80,,90,Dry,1001,1,35,1348,60,,7.9,
Dundrennan,15/10/2019 12:00,11,8,,,0,0,89,,140,Dry,1001,6,45,1275,42,,9.3,
Dundrennan,15/10/2019 13:00,11,7,,,0,,86,,180,Dry,1001,8,19,677,0,,8.8,
Dundrennan,15/10/2019 14:00,11.5,10,,,0,,86,,180,Rain,1001,8,50,298,0,,9.3,
Dundrennan,15/10/2019 15:00,11.6,14,,,0,,88,,170,Dry,1001,8,50,390,0,,9.7,
Dundrennan,15/10/2019 16:00,11.5,12,,,0,,89,,160,Dry,1000,8,45,296,0,,9.9,
Dundrennan,15/10/2019 17:00,10.8,10,,,0,,94,,150,Dry,1000,6,45,220,18,,10,
Dundrennan,15/10/2019 18:00,10.6,13,,11.9,0,0,94,,140,Dry,1000,8,23,8,0,,9.8,
Dundrennan,15/10/2019 19:00,10.8,14,,,0,,90,,150,Dry,1000,8,45,0,0,,9.3,
Dundrennan,15/10/2019 20:00,10.7,14,,,0,,86,,140,Dry,1000,8,40,0,0,,8.6,
Dundrennan,15/10/2019 21:00,10.8,18,,,0,,89,,150,Dry,999,8,23,0,0,,9.2,
Dundrennan,15/10/2019 22:00,11.2,18,,,0,,95,29,150,Rain,999,8,7,0,0,,10.5,
Dundrennan,15/10/2019 23:00,11.7,15,,,0,,88,,170,Dry,999,2,28,0,0,,9.8,
Dundrennan,16/10/2019 00:00,11.8,15,,,0,0,84,,160,Dry,998,4,30,,,,9.3,
Dundrennan,16/10/2019 01:00,11.2,18,,,0,,92,,140,Dry,998,2,17,0,0,,10.1,
Dundrennan,16/10/2019 02:00,11.1,21,,,0,,88,30,140,Dry,997,8,23,0,0,,9.2,
Dundrennan,16/10/2019 03:00,10.9,21,,,0,,89,30,140,Dry,996,8,26,0,0,,9.3,
Dundrennan,16/10/2019 04:00,10.9,21,,,0,,89,29,140,Rain,995,8,26,0,0,,9.3,
Dundrennan,16/10/2019 05:00,11.1,21,,,0,,91,30,140,Rain,995,8,30,0,0,,9.8,
Dundrennan,16/10/2019 06:00,11,18,10.5,,0.6,0.6,99,,140,Moderate rain,994,8,5,0,0,,10.9,
Dundrennan,16/10/2019 07:00,11.3,20,,,0,,100,32,160,Rain,994,8,3,0,0,,11.3,
Dundrennan,16/10/2019 08:00,10.3,16,,,1.2,,99,30,210,Moderate rain,995,8,5,15,0,,10.2,
Dundrennan,16/10/2019 09:00,10,15,,,0.2,,98,,280,Rain,995,8,35,232,0,,9.8,
Dundrennan,16/10/2019 10:00,10.2,16,,,0,,93,,280,Dry,996,8,21,794,30,,9.2,
Dundrennan,16/10/2019 11:00,11.2,17,,,0,,86,,270,Dry,997,7,27,980,24,,9,
Dundrennan,16/10/2019 12:00,11.8,17,,,0,1,82,,260,Dry,998,5,30,1518,60,,9,
Dundrennan,16/10/2019 13:00,11.9,17,,,0,,78,,260,Dry,998,1,45,1607,60,,8.2,
Dundrennan,16/10/2019 14:00,12,16,,,0,,72,,260,Dry,999,0,29,1449,60,,7.3,
Dundrennan,16/10/2019 15:00,11.9,14,,,0,,70,,250,Dry,999,1,27,1024,54,,6.7,
Dundrennan,16/10/2019 16:00,11.4,13,,,0,,73,,240,Dry,1000,1,23,603,48,,6.9,
Dundrennan,16/10/2019 17:00,10.6,12,,,0,,81,,230,Dry,1000,4,26,199,12,,7.6,
Dundrennan,16/10/2019 18:00,10.3,10,,12.3,0,0,81,,230,Dry,1000,6,24,9,0,,7.2,
Dundrennan,16/10/2019 19:00,11,12,,,0,,78,,230,Rain,1000,7,30,0,0,,7.4,
Dundrennan,16/10/2019 20:00,10.9,12,,,0,,77,,230,Dry,1001,7,30,0,0,,7.2,
Dundrennan,16/10/2019 21:00,10.1,9,,,0,,83,,210,Dry,1001,3,22,0,0,,7.5,
Dundrennan,16/10/2019 22:00,10.2,12,,,0,,80,,200,Dry,1001,3,27,0,0,,7,
Dundrennan,16/10/2019 23:00,10.3,13,,,0,,83,,210,Dry,1001,0,26,0,0,,7.6,
Dundrennan,17/10/2019 00:00,10.2,13,,,0,0,80,,210,Dry,1001,0,30,,,,7,
Dundrennan,17/10/2019 01:00,10.6,14,,,0,,82,,210,Dry,1001,0,25,0,0,,7.7,
Dundrennan,17/10/2019 02:00,10.5,15,,,0,,82,,210,Dry,1001,0,19,0,0,,7.6,
Dundrennan,17/10/2019 03:00,10.2,12,,,0,,82,,200,Dry,1000,0,29,0,0,,7.4,
Dundrennan,17/10/2019 04:00,10.7,10,,,0,,83,,190,Dry,1000,5,21,0,0,,8,
Dundrennan,17/10/2019 05:00,10.6,12,,,0,,87,,180,Dry,1000,3,7,0,0,,8.6,
Dundrennan,17/10/2019 06:00,10.3,20,9.5,,0.2,0.2,88,,180,Rain,1000,6,9,0,0,,8.5,
Dundrennan,17/10/2019 07:00,10.5,16,,,0,,92,,180,Rain,1000,6,16,0,0,,9.3,
Dundrennan,17/10/2019 08:00,10.8,20,,,0,,86,,180,Dry,1000,8,27,49,0,,8.7,
Dundrennan,17/10/2019 09:00,9.9,14,,,0.4,,94,30,160,Light shower,1000,8,12,123,0,,9.1,
Dundrennan,17/10/2019 10:00,11,23,,,0.8,,93,31,150,Rain,1000,8,14,606,6,,10,
Dundrennan,17/10/2019 11:00,10.9,22,,,0,,91,32,150,Dry,999,8,18,957,24,,9.6,
Dundrennan,17/10/2019 12:00,11.2,24,,,0,1,91,33,150,Dry,999,8,16,682,0,,9.9,
Dundrennan,17/10/2019 13:00,11.9,24,,,0,,86,32,150,Dry,998,8,11,829,6,,9.7,
Dundrennan,17/10/2019 14:00,11.4,23,,,0,,82,31,150,Dry,998,8,28,942,18,,8.6,
Dundrennan,17/10/2019 15:00,11.3,23,,,0,,83,31,150,Dry,997,7,29,485,0,,8.6,
Dundrennan,17/10/2019 16:00,10.6,22,,,0.6,,91,36,150,Moderate shower,997,8,8,118,0,,9.2,
Dundrennan,17/10/2019 17:00,10.9,21,,,0,,89,37,140,Rain,997,8,26,68,0,,9.2,
Dundrennan,17/10/2019 18:00,9.8,21,,12.1,2,3,92,35,140,Rain,996,7,30,2,0,,8.7,
Dundrennan,17/10/2019 19:00,10,18,,,1.2,,95,,130,Moderate shower,995,8,6,0,0,,9.3,
Dundrennan,17/10/2019 20:00,9.3,17,,,3.8,,94,41,160,Light rain,995,8,13,0,0,,8.5,
Dundrennan,17/10/2019 21:00,10.8,22,,,0.2,,87,33,180,Rain,995,8,21,0,0,,8.8,
Dundrennan,17/10/2019 22:00,8.6,9,,,0.8,,94,39,170,Rain,995,4,14,0,0,,7.8,
Dundrennan,17/10/2019 23:00,9.1,20,,,0.4,,90,41,180,Moderate shower,995,6,8,0,0,,7.7,
Dundrennan,18/10/2019 00:00,9.7,16,,,0.2,7,87,,180,Rain,995,3,30,,,,7.8,
Dundrennan,18/10/2019 01:00,9.8,20,,,0,,87,29,180,Dry,994,1,22,0,0,,7.8,
Dundrennan,18/10/2019 02:00,9.1,16,,,0.2,,89,,150,Rain,994,8,50,0,0,,7.4,
Dundrennan,18/10/2019 03:00,8.8,10,,,0,,90,,140,Dry,994,8,45,0,0,,7.4,
Dundrennan,18/10/2019 04:00,9.4,13,,,0,,93,,130,Light shower,993,7,23,0,0,,8.4,
Dundrennan,18/10/2019 05:00,8.1,7,,,3.8,,93,,20,Moderate shower,993,8,16,0,0,,7.1,
Dundrennan,18/10/2019 06:00,8,3,7.6,,3.2,7,94,,260,Moderate rain,993,8,2,0,0,,7.2,
Dundrennan,18/10/2019 07:00,7.2,6,,,10.6,,93,,120,Light sleet,993,8,4,0,0,,6.2,
Dundrennan,18/10/2019 08:00,7.3,8,,,7.2,,97,,60,Light sleet,993,8,16,17,0,,6.9,
Dundrennan,18/10/2019 09:00,7.3,10,,,7.6,,96,,30,Heavy sleet,994,8,2,63,0,,6.8,
Dundrennan,18/10/2019 10:00,7.6,5,,,6.6,,97,,60,Moderate rain,994,8,2,24,0,,7.3,
Dundrennan,18/10/2019 11:00,8.5,6,,,2.2,,97,,30,Snow,994,8,28,363,0,,8.2,
Dundrennan,18/10/2019 12:00,8.6,6,,,1.2,35,97,,30,Light rain,993,8,22,269,0,,8.3,
Dundrennan,18/10/2019 13:00,10.1,5,,,0,,87,,30,Rain,993,1,50,1136,24,,8.1,
Dundrennan,18/10/2019 14:00,9.7,6,,,0,,89,,70,Dry,993,7,40,330,0,,8.1,
Dundrennan,18/10/2019 15:00,9.9,7,,,0,,88,,70,Dry,993,8,50,298,0,,8.1,
Dundrennan,18/10/2019 16:00,9.7,5,,,0,,92,,70,Dry,993,8,27,119,0,,8.5,
Dundrennan,18/10/2019 17:00,9.1,8,,,0,,87,,90,Rain,993,8,45,41,0,,7.2,
Dundrennan,18/10/2019 18:00,8.7,8,,10.3,0,0,91,,50,Light shower,993,7,45,4,0,,7.4,
Dundrennan,18/10/2019 19:00,7.8,6,,,0,,92,,20,Rain,993,6,40,0,0,,6.7,
Dundrennan,18/10/2019 20:00,7.1,6,,,0,,94,,10,Dry,993,1,35,0,0,,6.3,
Dundrennan,18/10/2019 21:00,6.5,8,,,0,,97,,20,Dry,994,0,16,0,0,,6.1,
Dundrennan,18/10/2019 22:00,6.2,7,,,0,,96,,360,Dry,994,0,19,0,0,,5.7,
Dundrennan,18/10/2019 23:00,6,10,,,0,,95,,360,Dry,994,,25,0,0,,5.4,
Dundrennan,19/10/2019 00:00,5.9,8,,,0,0,93,,360,Dry,994,,50,,,,5,
Dundrennan,19/10/2019 01:00,5.6,8,,,0,,94,,10,Dry,994,0,50,0,0,,4.8,
Dundrennan,19/10/2019 02:00,5.9,10,,,0.2,,95,,360,Dry,994,6,50,0,0,,5.3,
Dundrennan,19/10/2019 03:00,6.2,9,,,0,,95,,20,Dry,994,7,45,0,0,,5.5,
Dundrennan,19/10/2019 04:00,6.3,6,,,0,,97,,10,Dry,995,7,30,0,0,,6,
Dundrennan,19/10/2019 05:00,6.5,9,,,0,,97,,10,Dry,995,8,40,0,0,,6.1,
Dundrennan,19/10/2019 06:00,6.4,6,5.2,,0,0.2,97,,20,Rain,996,7,35,0,0,,6,
Dundrennan,19/10/2019 07:00,6.4,10,,,0,,97,,20,Dry,996,4,24,0,0,,6.1,
Dundrennan,19/10/2019 08:00,7.3,8,,,0,,96,,10,Dry,997,7,50,148,0,,6.8,
Dundrennan,19/10/2019 09:00,8.3,12,,,0,,94,,10,Rain,997,8,29,186,0,,7.4,
Dundrennan,19/10/2019 10:00,8.4,14,,,0,,92,,10,Light shower,998,7,23,296,0,,7.3,
Dundrennan,19/10/2019 11:00,8.8,17,,,0.4,,87,,360,Rain,998,8,30,549,0,,6.8,
Dundrennan,19/10/2019 12:00,9.3,17,,,0.2,0.6,84,,10,Rain,999,8,40,481,0,,6.8,
Dundrennan,19/10/2019 13:00,8.8,17,,,0,,86,,10,Light shower,1000,8,24,378,0,,6.6,
Dundrennan,19/10/2019 14:00,9,17,,,0,,82,,20,Light rain,1000,8,20,406,0,,6.2,
Dundrennan,19/10/2019 15:00,9.7,9,,,0,,77,,20,Rain,1001,,40,497,0,,6,
Dundrennan,19/10/2019 16:00,9.5,7,,,0,,78,,320,Dry,1002,3,30,531,24,,6,
Dundrennan,19/10/2019 17:00,8.4,8,,,0,,80,,320,Dry,1003,0,35,171,0,,5.3,
Dundrennan,19/10/2019 18:00,8.7,8,,10.4,0,0,81,,330,Dry,1003,6,50,9,0,,5.7,
Dundrennan,19/10/2019 19:00,7.6,7,,,0,,81,,340,Dry,1004,4,50,0,0,,4.6,
Dundrennan,19/10/2019 20:00,6.5,6,,,0,,84,,10,Dry,1005,5,45,0,0,,4.1,
Dundrennan,19/10/2019 21:00,7.3,8,,,0,,84,,360,Dry,1006,7,50,0,0,,4.9,
Dundrennan,19/10/2019 22:00,6.6,9,,,0,,85,,350,Dry,1006,1,50,0,0,,4.4,
Dundrennan,19/10/2019 23:00,5.8,9,,,0,,90,,30,Dry,1007,0,50,0,0,,4.4,
Dundrennan,20/10/2019 00:00,5.7,7,,,0,0,88,,10,Dry,1008,1,50,,,,3.9,
Dundrennan,20/10/2019 01:00,5.8,5,,,0,,88,,30,Dry,1008,0,35,0,0,,4.1,
Dundrennan,20/10/2019 02:00,6,7,,,0,,90,,340,Dry,1009,0,50,0,0,,4.6,
Dundrennan,20/10/2019 03:00,5.2,7,,,0,,90,,340,Dry,1010,0,50,0,0,,3.8,
Dundrennan,20/10/2019 04:00,5.7,12,,,0,,82,,350,Dry,1010,0,45,0,0,,2.9,
Dundrennan,20/10/2019 05:00,4.8,13,,,0,,86,,10,Dry,1011,,27,0,0,,2.8,
Dundrennan,20/10/2019 06:00,5,15,4.2,,0,0,80,,360,Dry,1011,0,29,0,0,,2,
Dundrennan,20/10/2019 07:00,4.3,13,,,0,,83,,350,Dry,1012,0,30,0,0,,1.8,
Dundrennan,20/10/2019 08:00,5,16,,,0,,81,,360,Dry,1013,2,45,79,6,,2.1,
Dundrennan,20/10/2019 09:00,5.5,17,,,0,,80,,360,Dry,1013,1,45,201,12,,2.5,
Dundrennan,20/10/2019 10:00,7,17,,,0,,77,,360,Dry,1014,7,50,551,12,,3.4,
Dundrennan,20/10/2019 11:00,8,18,,,0,,74,,10,Dry,1015,6,45,877,24,,3.8,
Dundrennan,20/10/2019 12:00,10,18,,,0,0,69,,20,Dry,1015,5,35,1545,54,,4.7,
Dundrennan,20/10/2019 13:00,9.9,17,,,0,,66,31,20,Dry,1016,1,35,1535,60,,4,
Dundrennan,20/10/2019 14:00,10.1,18,,,0,,66,,20,Dry,1016,0,29,1343,60,,4.2,
Dundrennan,20/10/2019 15:00,9.7,12,,,0,,67,,20,Dry,1017,0,35,911,48,,4,
Dundrennan,20/10/2019 16:00,9.4,15,,,0,,66,,20,Dry,1018,1,30,531,42,,3.4,
Dundrennan,20/10/2019 17:00,8.2,10,,,0,,72,,20,Dry,1018,0,50,237,48,,3.5,
Dundrennan,20/10/2019 18:00,7.4,12,,10.2,0,0,75,,10,Dry,1019,0,45,5,0,,3.4,
Dundrennan,20/10/2019 19:00,6.9,10,,,0,,81,,20,Dry,1020,0,50,0,0,,3.9,
Dundrennan,20/10/2019 20:00,7,9,,,0,,78,,10,Dry,1020,4,45,0,0,,3.6,
Dundrennan,20/10/2019 21:00,6.2,9,,,0,,82,,360,Dry,1021,0,29,0,0,,3.4,
Dundrennan,20/10/2019 22:00,6.1,14,,,0,,78,,20,Dry,1021,0,50,0,0,,2.7,
Dundrennan,20/10/2019 23:00,5.4,9,,,0,,85,,330,Dry,1022,3,50,0,0,,3.1,
Dundrennan,21/10/2019 00:00,4.9,12,,,0,0,85,,20,Dry,1022,0,45,,,,2.7,
Dundrennan,21/10/2019 01:00,4.5,10,,,0,,86,,360,Dry,1023,1,27,0,0,,2.4,
Dundrennan,21/10/2019 02:00,3.5,12,,,0,,90,,10,Dry,1023,0,45,0,0,,2.1,
Dundrennan,21/10/2019 03:00,3.9,10,,,0,,88,,360,Dry,1022,0,30,0,0,,2.2,
Dundrennan,21/10/2019 04:00,4.3,13,,,0,,86,,20,Dry,1022,0,20,0,0,,2.3,
Dundrennan,21/10/2019 05:00,3.7,12,,,0,,88,,10,Dry,1023,0,35,0,0,,1.9,
Dundrennan,21/10/2019 06:00,4.1,10,3.4,,0,0,88,,20,Dry,1023,7,45,0,0,,2.3,
Dundrennan,21/10/2019 07:00,4,8,,,0,,88,,10,Dry,1023,8,50,0,0,,2.2,
Dundrennan,21/10/2019 08:00,4.7,5,,,0,,86,,10,Dry,1024,8,40,57,0,,2.6,
Dundrennan,21/10/2019 09:00,5.4,6,,,0,,84,,350,Dry,1024,8,40,259,0,,3,
Dundrennan,21/10/2019 10:00,6.5,6,,,0,,82,,360,Dry,1024,8,50,525,0,,3.8,
Dundrennan,21/10/2019 11:00,7.9,3,,,0,,79,,330,Dry,1024,8,50,848,12,,4.6,
Dundrennan,21/10/2019 12:00,8.8,2,,,0,0,75,,220,Dry,1024,8,30,813,0,,4.7,
Dundrennan,21/10/2019 13:00,10.1,3,,,0,,68,,250,Dry,1024,8,30,1407,54,,4.6,
Dundrennan,21/10/2019 14:00,10.1,5,,,0,,67,,260,Dry,1023,1,50,1172,54,,4.3,
Dundrennan,21/10/2019 15:00,9.1,7,,,0,,74,,250,Dry,1022,6,40,941,54,,4.8,
Dundrennan,21/10/2019 16:00,9,5,,,0,,75,,260,Dry,1022,8,35,297,0,,5,
Dundrennan,21/10/2019 17:00,8.5,5,,,0,,79,,220,Dry,1022,8,35,161,6,,5.2,
Dundrennan,21/10/2019 18:00,8.3,7,,10.5,0,0,79,,260,Dry,1022,8,45,4,0,,5,
Dundrennan,21/10/2019 19:00,8,6,,,0,,80,,260,Dry,1022,7,50,0,0,,4.9,
Dundrennan,21/10/2019 20:00,7.2,6,,,0,,82,,270,Dry,1022,7,45,0,0,,4.5,
Dundrennan,21/10/2019 21:00,7.5,6,,,0,,82,,260,Dry,1021,8,50,0,0,,4.7,
Dundrennan,21/10/2019 22:00,7.3,8,,,0,,87,,270,Dry,1021,8,40,0,0,,5.3,
Dundrennan,21/10/2019 23:00,8,12,,,0,,79,,260,Dry,1021,8,45,0,0,,4.7,
Dundrennan,22/10/2019 00:00,7.8,9,,,0,0,78,,260,Dry,1021,8,30,,,,4.3,
Dundrennan,22/10/2019 01:00,8.2,13,,,0,,78,,250,Dry,1020,8,45,0,0,,4.6,
Dundrennan,22/10/2019 02:00,8.5,14,,,0,,75,,240,Dry,1020,8,25,0,0,,4.5,
Dundrennan,22/10/2019 03:00,8.6,14,,,0,,78,,250,Dry,1019,8,50,0,0,,5,
Dundrennan,22/10/2019 04:00,8.7,17,,,0,,76,,250,Dry,1019,8,50,0,0,,4.8,
Dundrennan,22/10/2019 05:00,8.8,16,,,0,,75,,240,Dry,1018,8,30,0,0,,4.7,
Dundrennan,22/10/2019 06:00,8.8,13,6.9,,0,0,79,,240,Dry,1018,7,35,0,0,,5.4,
Dundrennan,22/10/2019 07:00,9,15,,,0,,80,,250,Dry,1019,8,30,0,0,,5.9,
Dundrennan,22/10/2019 08:00,9.3,17,,,0,,80,,240,Dry,1019,8,35,18,0,,6.1,
Dundrennan,22/10/2019 09:00,9.5,17,,,0,,80,,240,Dry,1019,5,45,57,0,,6.4,
Dundrennan,22/10/2019 10:00,9.8,17,,,0,,80,,240,Dry,1019,8,40,163,0,,6.6,
Dundrennan,22/10/2019 11:00,9.9,20,,,0,,81,29,240,Dry,1019,8,40,213,0,,6.8,
Dundrennan,22/10/2019 12:00,10.2,20,,,0,0,82,,240,Dry,1018,8,40,328,0,,7.3,
Dundrennan,22/10/2019 13:00,10.4,17,,,0,,83,,240,Dry,1018,2,30,529,0,,7.8,
Dundrennan,22/10/2019 14:00,10.5,21,,,0,,83,,230,Dry,1018,8,40,708,0,,7.8,
Dundrennan,22/10/2019 15:00,10.2,20,,,0,,87,29,220,Dry,1017,8,35,240,0,,8.2,
Dundrennan,22/10/2019 16:00,10.2,22,,,0,,86,30,220,Dry,1017,8,30,105,0,,8,
Dundrennan,22/10/2019 17:00,10.3,22,,,0,,82,30,220,Dry,1016,7,45,53,0,,7.5,
Dundrennan,22/10/2019 18:00,10.5,22,,10.8,0,0,81,29,220,Dry,1017,7,35,1,0,,7.5,
Dundrennan,22/10/2019 19:00,10.3,17,,,0,,85,29,210,Dry,1017,8,30,0,0,,8,
Dundrennan,22/10/2019 20:00,10.5,15,,,0,,86,,220,Dry,1016,8,40,0,0,,8.3,
Dundrennan,22/10/2019 21:00,10.8,20,,,0,,82,,230,Dry,1016,8,35,0,0,,7.9,
Dundrennan,22/10/2019 22:00,10.8,16,,,0,,80,,230,Dry,1016,7,40,0,0,,7.5,
Dundrennan,22/10/2019 23:00,10.8,17,,,0,,83,,210,Dry,1015,1,35,0,0,,8.1,
Dundrennan,23/10/2019 00:00,10.7,18,,,0,0,83,,210,Dry,1015,2,27,,,,8.1,
Dundrennan,23/10/2019 01:00,10.9,17,,,0,,83,,210,Dry,1015,8,40,0,0,,8.3,
Dundrennan,23/10/2019 02:00,11.2,20,,,0,,81,,220,Dry,1014,8,45,0,0,,8.1,
Dundrennan,23/10/2019 03:00,11,17,,,0,,86,,220,Dry,1013,8,18,0,0,,8.8,
Dundrennan,23/10/2019 04:00,10.9,16,,,0,,88,,210,Rain,1012,8,14,0,0,,9.1,
Dundrennan,23/10/2019 05:00,11.2,18,,,0,,86,,200,Rain,1012,7,29,0,0,,9.1,
Dundrennan,23/10/2019 06:00,11.4,17,10.3,,0,0,87,,210,Dry,1011,8,14,0,0,,9.4,
Dundrennan,23/10/2019 07:00,11.6,18,,,0,,86,,200,Dry,1011,8,12,0,0,,9.4,
Dundrennan,23/10/2019 08:00,11.7,21,,,0,,85,,200,Dry,1011,8,20,28,0,,9.3,
Dundrennan,23/10/2019 09:00,11.9,22,,,0,,83,29,200,Dry,1010,8,17,177,0,,9.2,
Dundrennan,23/10/2019 10:00,12,23,,,0,,91,30,190,Dry,1010,8,13,360,0,,10.6,
Dundrennan,23/10/2019 11:00,12.7,23,,,0,,85,32,190,Dry,1009,7,20,908,36,,10.4,
Dundrennan,23/10/2019 12:00,11.9,23,,,0,0,85,32,190,Dry,1008,1,17,1186,42,,9.6,
Dundrennan,23/10/2019 13:00,12,23,,,0,,85,33,190,Dry,1007,5,20,937,24,,9.6,
Dundrennan,23/10/2019 14:00,11.4,28,,,0,,86,35,190,Dry,1006,7,21,608,6,,9.2,
Dundrennan,23/10/2019 15:00,11.3,26,,,0,,85,37,180,Dry,1006,8,23,339,0,,9,
Dundrennan,23/10/2019 16:00,11.3,26,,,0,,84,35,180,Dry,1005,8,21,114,0,,8.7,
Dundrennan,23/10/2019 17:00,11.2,29,,,0,,83,40,190,Dry,1004,8,28,30,0,,8.5,
Dundrennan,23/10/2019 18:00,11.3,28,,13.1,0,0,82,38,190,Dry,1004,8,30,0,0,,8.5,
Dundrennan,23/10/2019 19:00,11.6,28,,,0,,78,37,190,Dry,1003,8,20,0,0,,8,
Dundrennan,23/10/2019 20:00,11.1,25,,,0,,87,38,190,Light rain,1003,7,12,0,0,,9.1,
Dundrennan,23/10/2019 21:00,10.5,25,,,0.8,,96,39,200,Moderate rain,1002,8,5,0,0,,10,
Dundrennan,23/10/2019 22:00,11.1,24,,,0.4,,96,37,190,Rain,1002,8,8,0,0,,10.6,
Dundrennan,23/10/2019 23:00,11.3,24,,,0,,96,37,200,Rain,1001,8,13,0,0,,10.8,
Dundrennan,24/10/2019 00:00,11.5,22,,,0,1,96,32,190,Misty,1001,8,5,,,,11,
Dundrennan,24/10/2019 01:00,11.3,24,,,2,,100,32,190,Moderate rain,1000,7,3,0,0,,11.3,
Dundrennan,24/10/2019 02:00,11.6,20,,,2.8,,100,31,190,Light rain,999,8,1,0,0,,11.6,
Dundrennan,24/10/2019 03:00,11.5,18,,,0.2,,100,,200,Rain,999,8,3,0,0,,11.5,
Dundrennan,24/10/2019 04:00,10.8,15,,,0,,94,,230,Dry,999,6,21,0,0,,10,
Dundrennan,24/10/2019 05:00,10.9,12,,,0,,95,,240,Dry,999,8,17,0,0,,10.2,
Dundrennan,24/10/2019 06:00,10.5,12,10.3,,0,5,94,,240,Dry,999,7,20,0,0,,9.7,
Dundrennan,24/10/2019 07:00,10.1,14,,,0,,91,,230,Dry,999,6,27,0,0,,8.7,
Dundrennan,24/10/2019 08:00,9.6,5,,,0,,96,,280,Dry,1000,7,19,38,0,,9,
Dundrennan,24/10/2019 09:00,10.1,14,,,0,,89,,250,Dry,1000,7,35,365,12,,8.5,
Dundrennan,24/10/2019 10:00,11.1,14,,,0,,84,,240,Dry,1000,7,25,623,18,,8.6,
Dundrennan,24/10/2019 11:00,11.6,14,,,0,,85,,240,Dry,1000,7,28,952,18,,9.3,
Dundrennan,24/10/2019 12:00,11.5,13,,,0,0,84,,260,Dry,1000,6,35,1053,30,,8.9,
Dundrennan,24/10/2019 13:00,10.7,13,,,0,,82,,250,Rain,1000,4,23,783,18,,7.9,
Dundrennan,24/10/2019 14:00,11.4,12,,,0,,82,,260,Dry,1000,6,27,688,12,,8.6,
Dundrennan,24/10/2019 15:00,10.4,14,,,0,,83,,240,Dry,1000,2,22,657,24,,7.7,
Dundrennan,24/10/2019 16:00,9,17,,,0.4,,90,,270,Heavy shower,1001,7,16,248,6,,7.6,
Dundrennan,24/10/2019 17:00,8.2,10,,,0,,94,,290,Drizzly rain,1001,7,22,94,0,,7.4,
Dundrennan,24/10/2019 18:00,8,8,,12.1,0,0.4,94,,290,Rain,1002,7,50,0,0,,7.2,
Dundrennan,24/10/2019 19:00,7.4,8,,,0,,94,,290,Dry,1003,8,40,0,0,,6.6,
Dundrennan,24/10/2019 20:00,7.1,7,,,0,,96,,300,Dry,1003,8,30,0,0,,6.6,
Dundrennan,24/10/2019 21:00,5.8,8,,,0,,97,,280,Dry,1004,1,26,0,0,,5.4,
Dundrennan,24/10/2019 22:00,5,6,,,0,,93,,290,Dry,1005,0,40,0,0,,4,
Dundrennan,24/10/2019 23:00,4.9,9,,,0,,91,,300,Dry,1006,1,45,0,0,,3.7,
Dundrennan,25/10/2019 00:00,4.3,7,,,0,0,93,,320,Dry,1007,6,35,,,,3.3,
Dundrennan,25/10/2019 01:00,4.3,6,,,0,,90,,300,Dry,1007,0,50,0,0,,2.9,
Dundrennan,25/10/2019 02:00,4.5,3,,,0,,86,,280,Dry,1008,0,50,0,0,,2.5,
Dundrennan,25/10/2019 03:00,4.5,3,,,0,,87,,270,Dry,1008,,35,0,0,,2.6,
Dundrennan,25/10/2019 04:00,3.7,5,,,0,,89,,260,Dry,1008,0,45,0,0,,2.1,
Dundrennan,25/10/2019 05:00,5.3,2,,,0,,93,,190,Dry,1009,2,50,0,0,,4.4,
Dundrennan,25/10/2019 06:00,5,7,3.7,,0,0,87,,270,Rain,1008,7,40,0,0,,3.1,
Dundrennan,25/10/2019 07:00,5.2,3,,,0,,86,,320,Dry,1008,8,26,0,0,,3.2,
Dundrennan,25/10/2019 08:00,5.2,2,,,0,,85,,70,Dry,1009,8,40,16,0,,2.9,
Dundrennan,25/10/2019 09:00,5.6,1,,,0,,83,,200,Dry,1009,8,50,82,0,,3,
Dundrennan,25/10/2019 10:00,6.2,2,,,0,,88,,330,Rain,1008,7,40,194,0,,4.4,
Dundrennan,25/10/2019 11:00,6.8,6,,,0.6,,83,,240,Light rain,1008,8,23,229,0,,4.2,
Dundrennan,25/10/2019 12:00,6.5,5,,,0.2,0.8,87,,260,Light rain,1008,8,15,252,0,,4.5,
Dundrennan,25/10/2019 13:00,6.4,1,,,0.4,,91,,190,Moderate rain,1006,4,10,195,0,,5.1,
Dundrennan,25/10/2019 14:00,6.1,5,,,1.2,,96,,70,Moderate rain,1005,8,14,171,0,,5.6,
Dundrennan,25/10/2019 15:00,5.7,6,,,1,,98,,40,Moderate rain,1004,8,13,169,0,,5.5,
Dundrennan,25/10/2019 16:00,5.6,7,,,0.8,,99,,50,Light rain,1004,7,13,130,0,,5.5,
Dundrennan,25/10/2019 17:00,5.3,7,,,0.8,,99,,20,Moderate rain,1003,8,13,27,0,,5.2,
Dundrennan,25/10/2019 18:00,5.1,7,,6.9,0.4,4.2,99,,20,Light rain,1003,8,12,0,0,,5,
Dundrennan,25/10/2019 19:00,5,5,,,0.2,,100,,10,Light rain,1003,8,8,0,0,,5,
Dundrennan,25/10/2019 20:00,4.7,5,,,0,,100,,350,Light drizzle,1004,8,6,0,0,,4.7,
Dundrennan,25/10/2019 21:00,4.6,3,,,0,,100,,320,Rain,1004,8,14,0,0,,4.6,
Dundrennan,25/10/2019 22:00,4.3,1,,,0,,100,,330,Fog,1004,1,18,0,0,,4.3,
Dundrennan,25/10/2019 23:00,4.8,3,,,0,,96,,250,Dry,1004,4,40,0,0,,4.3,
Dundrennan,26/10/2019 00:00,4.9,5,,,0,0.2,93,,260,Dry,1005,,50,,,,3.9,
Dundrennan,26/10/2019 01:00,5.3,3,,,0,,91,,250,Dry,1005,,50,0,0,,4.1,
Dundrennan,26/10/2019 02:00,5.2,5,,,0,,92,,310,Dry,1005,8,50,0,0,,4.1,
Dundrennan,26/10/2019 03:00,5.3,3,,,0,,90,,310,Dry,1005,8,50,0,0,,3.9,
Dundrennan,26/10/2019 04:00,5.2,3,,,0,,86,,280,Dry,1005,8,50,0,0,,3.1,
Dundrennan,26/10/2019 05:00,5.5,3,,,0,,82,,260,Dry,1005,8,40,0,0,,2.8,
Dundrennan,26/10/2019 06:00,5.3,5,4.2,,0,0,86,,260,Dry,1005,8,50,0,0,,3.3,
Dundrennan,26/10/2019 07:00,5.4,5,,,0,,89,,280,Rain,1005,8,45,0,0,,3.8,
Dundrennan,26/10/2019 08:00,5.1,7,,,0,,88,,270,Dry,1005,8,35,16,0,,3.4,
Dundrennan,26/10/2019 09:00,5.4,7,,,0,,82,,290,Dry,1005,8,50,69,0,,2.7,
Dundrennan,26/10/2019 10:00,5.7,7,,,0,,84,,290,Dry,1005,8,50,322,0,,3.3,
Dundrennan,26/10/2019 11:00,6.1,7,,,0,,83,,290,Dry,1006,5,40,516,6,,3.6,
Dundrennan,26/10/2019 12:00,7.2,13,,,0,0,81,,270,Dry,1006,0,40,1254,54,,4.2,
Dundrennan,26/10/2019 13:00,8.2,14,,,0,,74,,260,Dry,1006,2,30,776,30,,3.9,
Dundrennan,26/10/2019 14:00,8.3,16,,,0,,65,,270,Dry,1006,0,29,1211,60,,2.3,
Dundrennan,26/10/2019 15:00,7.1,17,,,0,,63,,270,Dry,1006,0,50,693,42,,0.6,
Dundrennan,26/10/2019 16:00,6.6,16,,,0,,70,,270,Dry,1007,1,50,446,42,,1.6,
Dundrennan,26/10/2019 17:00,6.2,17,,,0,,69,,270,Dry,1007,1,45,119,18,,1,
Dundrennan,26/10/2019 18:00,5.9,21,,8.4,0,0,75,30,260,Dry,1008,0,40,0,0,,1.9,
Dundrennan,26/10/2019 19:00,5.8,22,,,0,,77,30,260,Dry,1009,0,50,0,0,,2.2,
Dundrennan,26/10/2019 20:00,5.8,21,,,0,,82,36,270,Dry,1010,7,45,0,0,,3.1,
Dundrennan,26/10/2019 21:00,5.8,29,,,0,,85,38,270,Dry,1010,4,35,0,0,,3.5,
Dundrennan,26/10/2019 22:00,5.9,24,,,0,,86,36,260,Dry,1011,7,40,0,0,,3.9,
Dundrennan,26/10/2019 23:00,6.6,20,,,0,,85,32,270,Dry,1012,5,40,0,0,,4.3,
Dundrennan,27/10/2019 00:00,6.2,20,,,0.4,0.4,92,31,280,Moderate rain,1013,8,10,,,,5.1,
Dundrennan,27/10/2019 01:00,5.4,17,,,0.4,,93,38,270,Rain,1014,6,30,0,0,,4.5,
Dundrennan,27/10/2019 02:00,6.2,22,,,0.2,,94,32,280,Moderate shower,1014,5,9,0,0,,5.4,
Dundrennan,27/10/2019 03:00,5.9,12,,,0.2,,93,,280,Light shower,1015,7,25,0,0,,4.9,
Dundrennan,27/10/2019 04:00,6.3,13,,,0.4,,92,,270,Rain,1016,8,30,0,0,,5.1,
Dundrennan,27/10/2019 05:00,6,12,,,0,,92,,300,Dry,1016,7,11,0,0,,4.9,
Dundrennan,27/10/2019 06:00,6,17,5.4,,0.2,1.6,93,,280,Rain,1017,3,30,0,0,,5,
Dundrennan,27/10/2019 07:00,5.9,16,,,0,,91,,280,Dry,1018,1,30,0,0,,4.7,
Dundrennan,27/10/2019 08:00,6.3,12,,,0,,93,,290,Dry,1019,3,24,53,6,,5.3,
Dundrennan,27/10/2019 09:00,7,14,,,0,,90,,290,Dry,1020,6,30,323,42,,5.5,
Dundrennan,27/10/2019 10:00,8,14,,,0,,87,,280,Dry,1020,7,30,572,36,,6,
Dundrennan,27/10/2019 11:00,8.7,13,,,0,,80,,280,Dry,1021,3,21,1058,54,,5.5,
Dundrennan,27/10/2019 12:00,9.6,20,,,0,0,76,,280,Dry,1021,3,30,1441,60,,5.7,
Dundrennan,27/10/2019 13:00,9.7,16,,,0,,76,,300,Dry,1022,6,40,1291,54,,5.7,
Dundrennan,27/10/2019 14:00,9.8,17,,,0,,68,,300,Dry,1022,4,50,1064,54,,4.3,
Dundrennan,27/10/2019 15:00,9.4,13,,,0,,71,,290,Dry,1023,0,27,956,60,,4.6,
Dundrennan,27/10/2019 16:00,8.9,10,,,0,,74,,290,Dry,1023,,50,491,54,,4.7,
Dundrennan,27/10/2019 17:00,7.7,12,,,0,,79,,290,Dry,1024,0,35,111,30,,4.4,
Dundrennan,27/10/2019 18:00,6.6,7,,10.2,0,0,82,,300,Dry,1024,0,30,0,0,,3.8,
Dundrennan,27/10/2019 19:00,5.8,9,,,0,,85,,280,Dry,1025,0,45,0,0,,3.5,
Dundrennan,27/10/2019 20:00,5.5,5,,,0,,84,,290,Dry,1025,0,35,0,0,,3.1,
Dundrennan,27/10/2019 21:00,5.1,3,,,0,,85,,50,Dry,1026,,40,0,0,,2.8,
Dundrennan,27/10/2019 22:00,4.9,5,,,0,,84,,320,Dry,1026,0,45,0,0,,2.5,
Dundrennan,27/10/2019 23:00,4.7,6,,,0,,84,,310,Dry,1026,0,40,0,0,,2.3,
Dundrennan,28/10/2019 00:00,4.4,8,,,0,0,82,,300,Dry,1026,0,35,,,,1.7,
Dundrennan,28/10/2019 01:00,3.5,8,,,0,,86,,320,Dry,1026,0,30,0,0,,1.5,
Dundrennan,28/10/2019 02:00,3.7,8,,,0,,88,,340,Dry,1026,0,35,0,0,,2,
Dundrennan,28/10/2019 03:00,2.7,13,,,0,,91,,10,Dry,1026,0,50,0,0,,1.5,
Dundrennan,28/10/2019 04:00,2.2,12,,,0,,92,,10,Dry,1026,0,40,0,0,,1.1,
Dundrennan,28/10/2019 05:00,1.5,10,,,0,,92,,30,Dry,1027,0,35,0,0,,0.4,
Dundrennan,28/10/2019 06:00,1.4,12,1.2,,0,0,92,,20,Dry,1027,0,50,0,0,,0.3,
Dundrennan,28/10/2019 07:00,1.6,10,,,0,,91,,30,Dry,1027,0,50,0,0,,0.3,
Dundrennan,28/10/2019 08:00,2,9,,,0,,89,,20,Dry,1028,0,29,44,12,,0.4,
Dundrennan,28/10/2019 09:00,3.7,10,,,0,,83,,10,Dry,1028,0,30,374,60,,1.1,
Dundrennan,28/10/2019 10:00,4.6,10,,,0,,83,,20,Dry,1028,0,40,785,60,,2,
Dundrennan,28/10/2019 11:00,6,9,,,0,,76,,20,Dry,1028,0,40,1107,60,,2.1,
Dundrennan,28/10/2019 12:00,6.7,13,,,0,0,70,,20,Dry,1028,0,45,1287,60,,1.8,
Dundrennan,28/10/2019 13:00,7.5,10,,,0,,71,,20,Dry,1028,0,26,1315,60,,2.7,
Dundrennan,28/10/2019 14:00,7.7,10,,,0,,64,,20,Dry,1027,,50,1175,60,,1.5,
Dundrennan,28/10/2019 15:00,7.4,10,,,0,,65,,30,Dry,1027,0,45,897,60,,1.3,
Dundrennan,28/10/2019 16:00,6.4,8,,,0,,68,,30,Dry,1027,0,22,508,60,,1.1,
Dundrennan,28/10/2019 17:00,4.7,8,,,0,,74,,30,Dry,1028,,45,115,36,,0.5,
Dundrennan,28/10/2019 18:00,3.5,9,,7.8,0,0,80,,20,Dry,1028,0,50,0,0,,0.4,
Dundrennan,28/10/2019 19:00,3,8,,,0,,81,,20,Dry,1028,0,35,0,0,,0.2,
Dundrennan,28/10/2019 20:00,3.1,9,,,0,,80,,30,Dry,1028,0,35,0,0,,0,
Dundrennan,28/10/2019 21:00,2.5,10,,,0,,83,,30,Dry,1028,0,45,0,0,,0,
Dundrennan,28/10/2019 22:00,2,8,,,0,,84,,30,Dry,1028,0,50,0,0,,-0.4,
Dundrennan,28/10/2019 23:00,2.1,8,,,0,,85,,30,Dry,1029,0,50,0,0,,0,
Dundrennan,29/10/2019 00:00,2.2,13,,,0,0,86,,30,Dry,1029,,45,,,,0.2,
Dundrennan,29/10/2019 01:00,1.6,13,,,0,,86,,20,Dry,1029,0,40,0,0,,-0.4,
Dundrennan,29/10/2019 02:00,1.3,12,,,0,,89,,20,Dry,1029,0,45,0,0,,-0.2,
Dundrennan,29/10/2019 03:00,1.7,12,,,0,,89,,20,Dry,1029,0,50,0,0,,0.1,
Dundrennan,29/10/2019 04:00,2,12,,,0,,88,,20,Dry,1028,,45,0,0,,0.3,
Dundrennan,29/10/2019 05:00,2.1,9,,,0,,91,,20,Dry,1029,3,45,0,0,,0.8,
Dundrennan,29/10/2019 06:00,2.7,9,0.9,,0,0,89,,20,Dry,1029,0,50,0,0,,1.1,
Dundrennan,29/10/2019 07:00,2.3,10,,,0,,92,,30,Dry,1029,1,35,0,0,,1.2,
Dundrennan,29/10/2019 08:00,3,8,,,0,,91,,20,Dry,1030,0,35,38,6,,1.8,
Dundrennan,29/10/2019 09:00,5.1,13,,,0,,87,,50,Dry,1030,0,24,340,60,,3.2,
Dundrennan,29/10/2019 10:00,6.5,10,,,0,,83,,60,Dry,1030,0,27,750,60,,3.9,
Dundrennan,29/10/2019 11:00,7.3,13,,,0,,81,,70,Dry,1030,0,45,1071,60,,4.4,
Dundrennan,29/10/2019 12:00,8,17,,,0,0,77,,70,Dry,1030,0,30,1265,60,,4.3,
Dundrennan,29/10/2019 13:00,8.2,20,,,0,,76,,70,Dry,1029,0,27,1297,60,,4.4,
Dundrennan,29/10/2019 14:00,8.4,17,,,0,,74,,70,Dry,1029,0,27,1163,60,,4.2,
Dundrennan,29/10/2019 15:00,8.3,16,,,0,,75,,70,Dry,1029,0,35,869,60,,4.3,
Dundrennan,29/10/2019 16:00,7.6,15,,,0,,77,,70,Dry,1029,2,40,461,54,,3.9,
Dundrennan,29/10/2019 17:00,6.6,17,,,0,,81,,70,Dry,1029,0,50,98,30,,3.6,
Dundrennan,29/10/2019 18:00,6.1,16,,8.4,0,0,83,,60,Dry,1029,0,40,0,0,,3.6,
Dundrennan,29/10/2019 19:00,5.2,16,,,0,,85,,70,Dry,1030,0,45,0,0,,3,
Dundrennan,29/10/2019 20:00,4.9,13,,,0,,88,,70,Dry,1030,0,30,0,0,,3.1,
Dundrennan,29/10/2019 21:00,4.6,15,,,0,,89,,60,Dry,1030,0,30,0,0,,3.1,
Dundrennan,29/10/2019 22:00,4.2,14,,,0,,89,,70,Dry,1030,0,30,0,0,,2.7,
Dundrennan,29/10/2019 23:00,3.7,13,,,0,,89,,50,Dry,1030,0,50,0,0,,2.2,
Dundrennan,30/10/2019 00:00,3.6,14,,,0,0,91,,60,Dry,1030,0,35,,,,2.3,
Dundrennan,30/10/2019 01:00,3.8,15,,,0,,91,,60,Dry,1029,0,45,0,0,,2.5,
Dundrennan,30/10/2019 02:00,3.6,15,,,0,,92,,70,Dry,1029,0,40,0,0,,2.5,
Dundrennan,30/10/2019 03:00,3.5,16,,,0,,91,,60,Dry,1029,0,50,0,0,,2.2,
Dundrennan,30/10/2019 04:00,3.6,16,,,0,,92,,70,Dry,1028,,45,0,0,,2.5,
Dundrennan,30/10/2019 05:00,3.6,18,,,0,,91,,60,Dry,1028,0,35,0,0,,2.4,
Dundrennan,30/10/2019 06:00,3.7,17,2.9,,0,0,91,,70,Dry,1028,0,50,0,0,,2.5,
Dundrennan,30/10/2019 07:00,3.5,17,,,0,,91,,70,Dry,1028,0,50,0,0,,2.3,
Dundrennan,30/10/2019 08:00,4.4,20,,,0,,89,,70,Dry,1028,0,45,36,12,,2.8,
Dundrennan,30/10/2019 09:00,5.2,18,,,0,,86,,70,Dry,1028,0,50,341,60,,3.2,
Dundrennan,30/10/2019 10:00,6.4,18,,,0,,82,,80,Dry,1028,0,50,748,60,,3.7,
Dundrennan,30/10/2019 11:00,6.7,20,,,0,,85,,70,Dry,1027,0,30,1077,60,,4.5,
Dundrennan,30/10/2019 12:00,7.7,21,,,0,0,79,,70,Dry,1027,0,35,1260,60,,4.4,
Dundrennan,30/10/2019 13:00,8.2,21,,,0,,78,29,80,Dry,1026,0,27,1275,60,,4.6,
Dundrennan,30/10/2019 14:00,8.2,21,,,0,,82,29,70,Dry,1026,4,40,1078,54,,5.4,
Dundrennan,30/10/2019 15:00,8.4,18,,,0,,80,29,70,Dry,1025,2,35,815,54,,5.3,
Dundrennan,30/10/2019 16:00,7.6,21,,,0,,83,29,70,Dry,1024,0,35,379,36,,5,
Dundrennan,30/10/2019 17:00,7.1,20,,,0,,83,,70,Dry,1024,0,40,50,0,,4.5,
Dundrennan,30/10/2019 18:00,6.6,20,,8.5,0,0,88,,70,Dry,1024,0,35,0,0,,4.8,
Dundrennan,30/10/2019 19:00,6.4,17,,,0,,88,,80,Dry,1025,0,30,0,0,,4.6,
Dundrennan,30/10/2019 20:00,5.8,16,,,0,,90,,70,Dry,1024,0,28,0,0,,4.3,
Dundrennan,30/10/2019 21:00,5.2,16,,,0,,91,,70,Dry,1024,0,30,0,0,,3.9,
Dundrennan,30/10/2019 22:00,4.8,14,,,0,,90,,70,Dry,1024,0,26,0,0,,3.4,
Dundrennan,30/10/2019 23:00,4.4,14,,,0,,91,,70,Dry,1024,0,30,0,0,,3.1,
Dundrennan,31/10/2019 00:00,4.3,13,,,0,0,91,,70,Dry,1023,,30,,,,3.1,
Drumalbin,01/09/2019 00:00,9.1,14,,,0,0,92,,250,-,1010,1,30,,,,7.9,
Drumalbin,01/09/2019 01:00,9.7,16,,,0,,91,,250,-,1010,1,26,,,,8.4,
Drumalbin,01/09/2019 02:00,9.6,16,,,0.2,,94,,250,-,1010,1,7,,,,8.7,
Drumalbin,01/09/2019 03:00,9.3,15,,,0.2,,94,,250,-,1010,3,35,,,,8.5,
Drumalbin,01/09/2019 04:00,9.2,14,,,0,,96,,250,-,1010,5,30,,,,8.6,
Drumalbin,01/09/2019 05:00,8.9,13,,,0.2,,89,,260,-,1010,1,75,,,,7.2,
Drumalbin,01/09/2019 06:00,8.8,12,8.2,,0,0.6,94,,250,-,1011,5,50,,,,8,
Drumalbin,01/09/2019 07:00,9.5,13,,,0,,93,,250,-,1011,7,40,,,,8.5,
Drumalbin,01/09/2019 08:00,10.3,13,,,0,,89,,260,-,1012,6,65,,,,8.6,
Drumalbin,01/09/2019 09:00,11.5,15,,,0,,77,,280,-,1012,5,65,,,,7.7,
Drumalbin,01/09/2019 10:00,11.7,17,,,0,,77,,280,-,1013,6,70,,,,7.9,
Drumalbin,01/09/2019 11:00,11.2,16,,,0.2,,79,,300,-,1013,7,14,,,,7.8,
Drumalbin,01/09/2019 12:00,13.4,16,,,0,0.2,73,,290,-,1014,6,60,,,,8.7,
Drumalbin,01/09/2019 13:00,13.2,20,,,0,,72,,290,-,1014,7,50,,,,8.3,
Drumalbin,01/09/2019 14:00,14.3,16,,,0,,66,,280,-,1014,1,70,,,,8.2,
Drumalbin,01/09/2019 15:00,14.1,20,,,0,,62,30,290,-,1015,6,75,,,,7,
Drumalbin,01/09/2019 16:00,14.2,15,,,0,,62,,290,-,1016,3,75,,,,7.1,
Drumalbin,01/09/2019 17:00,12.5,14,,,0,,72,,280,-,1016,,75,,,,7.7,
Drumalbin,01/09/2019 18:00,11.8,10,,14.8,0,0,74,,270,-,1017,6,75,,,,7.5,
Drumalbin,01/09/2019 19:00,11.1,9,,,0,,77,,250,-,1018,1,70,,,,7.4,
Drumalbin,01/09/2019 20:00,10.4,8,,,0,,83,,250,-,1018,8,50,,,,7.7,
Drumalbin,01/09/2019 21:00,9.9,10,,,0,,85,,260,-,1018,8,45,,,,7.6,
Drumalbin,01/09/2019 22:00,8.9,5,,,0,,87,,220,-,1018,8,55,,,,6.9,
Drumalbin,01/09/2019 23:00,9.1,8,,,0,,84,,220,-,1018,6,60,,,,6.6,
Drumalbin,02/09/2019 00:00,8.1,8,,,0.2,0.2,95,,200,-,1018,8,30,,,,7.4,
Drumalbin,02/09/2019 01:00,8.1,8,,,0.8,,95,,210,-,1018,8,35,,,,7.5,
Drumalbin,02/09/2019 02:00,8.7,8,,,0,,95,,220,-,1018,8,40,,,,8,
Drumalbin,02/09/2019 03:00,8.9,7,,,0,,94,,210,-,1018,7,40,,,,8.1,
Drumalbin,02/09/2019 04:00,8.6,10,,,0,,97,,220,-,1018,6,40,,,,8.2,
Drumalbin,02/09/2019 05:00,9.4,12,,,0,,96,,220,-,1018,7,45,,,,8.9,
Drumalbin,02/09/2019 06:00,9.5,10,8,,0.4,0.8,96,,210,-,1017,1,35,,,,8.9,
Drumalbin,02/09/2019 07:00,10,13,,,0,,94,,210,-,1017,7,50,,,,9.2,
Drumalbin,02/09/2019 08:00,10.3,13,,,0.2,,95,,210,-,1017,8,13,,,,9.6,
Drumalbin,02/09/2019 09:00,11.2,16,,,0,,94,,210,-,1016,8,50,,,,10.4,
Drumalbin,02/09/2019 10:00,11.6,20,,,0,,94,,220,-,1016,7,3,,,,10.8,
Drumalbin,02/09/2019 11:00,12.6,16,,,0.2,,92,,230,-,1015,8,8,,,,11.4,
Drumalbin,02/09/2019 12:00,12.8,18,,,0.2,0.6,95,29,230,-,1014,8,3,,,,12.1,
Drumalbin,02/09/2019 13:00,12.5,20,,,0.4,,94,30,230,-,1014,8,19,,,,11.7,
Drumalbin,02/09/2019 14:00,12.6,21,,,0,,94,35,230,-,1014,7,19,,,,11.7,
Drumalbin,02/09/2019 15:00,12.6,23,,,0,,92,35,240,-,1013,5,6,,,,11.4,
Drumalbin,02/09/2019 16:00,12.5,28,,,0.2,,93,43,250,-,1013,8,5,,,,11.4,
Drumalbin,02/09/2019 17:00,12.5,24,,,0,,95,38,250,-,1013,7,5,,,,11.8,
Drumalbin,02/09/2019 18:00,12.4,23,,12.9,0.2,0.4,97,39,250,-,1013,8,2,,,,12,
Drumalbin,02/09/2019 19:00,12.5,23,,,0.2,,98,33,250,-,1013,6,2,,,,12.2,
Drumalbin,02/09/2019 20:00,12.5,24,,,0.2,,98,37,250,-,1014,8,2,,,,12.3,
Drumalbin,02/09/2019 21:00,12.6,20,,,0.2,,98,30,260,-,1014,8,4,,,,12.4,
Drumalbin,02/09/2019 22:00,12.9,17,,,0,,97,,260,-,1014,8,18,,,,12.5,
Drumalbin,02/09/2019 23:00,12.9,16,,,0,,98,,260,-,1015,4,9,,,,12.7,
Drumalbin,03/09/2019 00:00,13,13,,,0.2,0.8,98,,260,-,1015,6,55,,,,12.8,
Drumalbin,03/09/2019 01:00,13.1,10,,,0,,98,,260,-,1015,8,8,,,,12.9,
Drumalbin,03/09/2019 02:00,13.2,14,,,0,,98,,250,-,1016,7,40,,,,13,
Drumalbin,03/09/2019 03:00,13.2,10,,,0.2,,99,,250,-,1016,8,19,,,,13.1,
Drumalbin,03/09/2019 04:00,13.2,13,,,0,,99,,250,-,1015,8,26,,,,13.1,
Drumalbin,03/09/2019 05:00,13.2,12,,,0,,99,,250,-,1016,8,6,,,,13.1,
Drumalbin,03/09/2019 06:00,13.2,16,12.4,,0.2,0.2,98,,250,-,1016,7,19,,,,13,
Drumalbin,03/09/2019 07:00,13.8,9,,,0,,95,,220,-,1016,7,75,,,,13.1,
Drumalbin,03/09/2019 08:00,14,13,,,0,,94,,220,-,1016,8,40,,,,13.2,
Drumalbin,03/09/2019 09:00,14.7,13,,,0,,94,,210,-,1016,8,25,,,,13.8,
Drumalbin,03/09/2019 10:00,14.6,16,,,0,,93,,220,-,1016,4,4,,,,13.5,
Drumalbin,03/09/2019 11:00,15.2,13,,,0,,96,,220,-,1015,7,6,,,,14.7,
Drumalbin,03/09/2019 12:00,14.7,13,,,0,0,96,,220,-,1015,7,5,,,,14.2,
Drumalbin,03/09/2019 13:00,15,13,,,0.4,,95,,210,-,1015,8,27,,,,14.3,
Drumalbin,03/09/2019 14:00,15,14,,,0.2,,96,,220,-,1014,2,4,,,,14.5,
Drumalbin,03/09/2019 15:00,15,15,,,0.4,,97,,220,-,1014,8,4,,,,14.6,
Drumalbin,03/09/2019 16:00,15.5,15,,,0.2,,94,,220,-,1013,8,13,,,,14.7,
Drumalbin,03/09/2019 17:00,13.5,17,,,0.8,,95,35,250,-,1013,8,75,,,,12.8,
Drumalbin,03/09/2019 18:00,13.9,13,,15.5,0,2,96,,240,-,1012,7,16,,,,13.3,
Drumalbin,03/09/2019 19:00,13.9,14,,,1,,98,,220,-,1012,7,7,,,,13.7,
Drumalbin,03/09/2019 20:00,14,13,,,0.4,,97,,210,-,1011,8,21,,,,13.6,
Drumalbin,03/09/2019 21:00,14.1,13,,,0.4,,98,,210,-,1010,7,6,,,,13.8,
Drumalbin,03/09/2019 22:00,13,9,,,5,,98,,280,-,1011,8,2,,,,12.8,
Drumalbin,03/09/2019 23:00,12.5,10,,,0.4,,98,,270,-,1010,4,15,,,,12.2,
Drumalbin,04/09/2019 00:00,12.1,10,,,0.6,8,96,,290,-,1010,8,30,,,,11.5,
Drumalbin,04/09/2019 01:00,10.8,13,,,0,,94,,260,-,1010,1,30,,,,10,
Drumalbin,04/09/2019 02:00,10.6,12,,,0,,94,,250,-,1010,8,30,,,,9.7,
Drumalbin,04/09/2019 03:00,10.1,13,,,0,,92,,250,-,1009,1,29,,,,8.9,
Drumalbin,04/09/2019 04:00,9.4,15,,,0,,94,,250,-,1009,4,28,,,,8.5,
Drumalbin,04/09/2019 05:00,9.2,14,,,0,,93,,250,-,1008,,23,,,,8.2,
Drumalbin,04/09/2019 06:00,9.1,16,9,,0,0,92,,240,-,1008,5,23,,,,7.9,
Drumalbin,04/09/2019 07:00,9.6,16,,,0,,90,,240,-,1008,6,29,,,,8.1,
Drumalbin,04/09/2019 08:00,10.5,20,,,0,,85,31,240,-,1007,1,35,,,,8.2,
Drumalbin,04/09/2019 09:00,11.4,21,,,0,,80,31,240,-,1006,7,40,,,,8.1,
Drumalbin,04/09/2019 10:00,9.7,20,,,0.4,,92,32,220,-,1005,8,6,,,,8.5,
Drumalbin,04/09/2019 11:00,10.3,22,,,0.6,,95,32,220,-,1004,7,4,,,,9.6,
Drumalbin,04/09/2019 12:00,11.9,18,,,0.4,1,91,32,240,-,1003,8,26,,,,10.6,
Drumalbin,04/09/2019 13:00,11.9,12,,,0,,92,,240,-,1003,8,75,,,,10.7,
Drumalbin,04/09/2019 14:00,13.6,15,,,0,,82,,310,-,1004,3,75,,,,10.7,
Drumalbin,04/09/2019 15:00,11.9,25,,,0.8,,88,38,360,-,1006,8,75,,,,10,
Drumalbin,04/09/2019 16:00,12.7,21,,,0,,77,32,350,-,1008,6,75,,,,8.8,
Drumalbin,04/09/2019 17:00,12.9,13,,,0,,73,,340,-,1010,7,10,,,,8.3,
Drumalbin,04/09/2019 18:00,11.3,10,,14.8,0.8,2,90,,330,-,1012,5,75,,,,9.8,
Drumalbin,04/09/2019 19:00,10.9,13,,,0,,80,,340,-,1014,1,75,,,,7.6,
Drumalbin,04/09/2019 20:00,9.4,15,,,0,,79,,350,-,1016,3,75,,,,6.1,
Drumalbin,04/09/2019 21:00,9,15,,,0,,87,,330,-,1017,5,75,,,,7,
Drumalbin,04/09/2019 22:00,7.8,9,,,0,,87,,300,-,1019,2,70,,,,5.9,
Drumalbin,04/09/2019 23:00,7.1,12,,,0,,86,,310,-,1020,,50,,,,5,
Drumalbin,05/09/2019 00:00,7,16,,,0,0,85,,320,-,1020,0,30,,,,4.7,
Drumalbin,05/09/2019 01:00,6.8,14,,,0,,83,,320,-,1021,,29,,,,4.2,
Drumalbin,05/09/2019 02:00,6.8,14,,,0,,80,,310,-,1022,8,30,,,,3.7,
Drumalbin,05/09/2019 03:00,6.9,8,,,0,,78,,300,-,1022,8,40,,,,3.5,
Drumalbin,05/09/2019 04:00,7.3,12,,,0,,83,,290,-,1022,,35,,,,4.7,
Drumalbin,05/09/2019 05:00,7,13,,,0,,86,,280,-,1022,6,40,,,,4.9,
Drumalbin,05/09/2019 06:00,7,10,6.4,,0,0,87,,260,-,1023,,45,,,,5,
Drumalbin,05/09/2019 07:00,8.5,10,,,0,,86,,270,-,1023,7,45,,,,6.3,
Drumalbin,05/09/2019 08:00,9.6,13,,,0,,84,,260,-,1023,8,35,,,,7.2,
Drumalbin,05/09/2019 09:00,11,20,,,0,,85,,280,-,1022,8,30,,,,8.6,
Drumalbin,05/09/2019 10:00,10.8,18,,,0,,89,29,270,-,1023,8,17,,,,9.1,
Drumalbin,05/09/2019 11:00,12.4,21,,,0,,85,,280,-,1022,8,30,,,,10,
Drumalbin,05/09/2019 12:00,14.1,22,,,0,0,75,33,290,-,1022,8,29,,,,9.8,
Drumalbin,05/09/2019 13:00,14.5,26,,,0,,70,38,290,-,1022,6,30,,,,9.2,
Drumalbin,05/09/2019 14:00,13.5,21,,,0,,73,38,290,-,1022,6,28,,,,8.9,
Drumalbin,05/09/2019 15:00,14.8,23,,,0,,62,33,270,-,1022,6,29,,,,7.8,
Drumalbin,05/09/2019 16:00,13.8,22,,,0,,67,32,280,-,1022,5,26,,,,8,
Drumalbin,05/09/2019 17:00,12.8,16,,,0,,71,,260,-,1022,7,22,,,,7.8,
Drumalbin,05/09/2019 18:00,12,14,,15.6,0,0,80,,260,-,1022,7,18,,,,8.7,
Drumalbin,05/09/2019 19:00,11.6,15,,,0,,79,,260,-,1022,7,21,,,,8.2,
Drumalbin,05/09/2019 20:00,11.5,17,,,0,,84,,240,-,1020,7,17,,,,9,
Drumalbin,05/09/2019 21:00,11.4,17,,,0,,85,,230,-,1019,8,20,,,,9,
Drumalbin,05/09/2019 22:00,11.4,21,,,0,,81,32,240,-,1018,5,30,,,,8.4,
Drumalbin,05/09/2019 23:00,11.3,21,,,0,,84,40,240,-,1018,7,13,,,,8.8,
Drumalbin,06/09/2019 00:00,10.7,24,,,0,0,85,37,220,-,1016,7,50,,,,8.3,
Drumalbin,06/09/2019 01:00,11,20,,,0,,87,36,230,-,1015,7,30,,,,9,
Drumalbin,06/09/2019 02:00,10.7,21,,,0,,93,33,230,-,1014,8,6,,,,9.7,
Drumalbin,06/09/2019 03:00,10.9,22,,,0.2,,94,38,240,-,1013,7,3,,,,10.1,
Drumalbin,06/09/2019 04:00,11.4,23,,,0,,96,37,250,-,1012,8,10,,,,10.8,
Drumalbin,06/09/2019 05:00,11,25,,,1,,92,37,290,-,1012,8,22,,,,9.9,
Drumalbin,06/09/2019 06:00,9.7,17,9.7,,0.2,1,93,31,280,-,1012,0,24,,,,8.7,
Drumalbin,06/09/2019 07:00,9.9,17,,,0,,86,,260,-,1012,3,25,,,,7.7,
Drumalbin,06/09/2019 08:00,10.5,15,,,0,,85,,260,-,1013,8,24,,,,8.2,
Drumalbin,06/09/2019 09:00,11.2,20,,,0,,79,30,280,-,1013,7,29,,,,7.7,
Drumalbin,06/09/2019 10:00,10.1,22,,,0,,87,37,290,-,1014,8,10,,,,8.2,
Drumalbin,06/09/2019 11:00,12.5,25,,,0.2,,80,31,270,-,1014,6,40,,,,9.2,
Drumalbin,06/09/2019 12:00,12.2,22,,,0,0.2,83,31,280,-,1014,8,13,,,,9.5,
Drumalbin,06/09/2019 13:00,13.3,22,,,0,,80,31,280,-,1014,8,35,,,,10.1,
Drumalbin,06/09/2019 14:00,13.1,21,,,0,,81,31,290,-,1014,1,35,,,,10.1,
Drumalbin,06/09/2019 15:00,14.4,24,,,0,,73,32,300,-,1015,8,35,,,,9.7,
Drumalbin,06/09/2019 16:00,14.3,23,,,0,,73,35,290,-,1015,3,40,,,,9.7,
Drumalbin,06/09/2019 17:00,13.5,20,,,0,,78,32,290,-,1015,5,60,,,,9.9,
Drumalbin,06/09/2019 18:00,12.9,14,,14.9,0,0,77,,290,-,1016,3,50,,,,9.1,
Drumalbin,06/09/2019 19:00,11.1,12,,,0,,87,,280,-,1017,3,45,,,,9.1,
Drumalbin,06/09/2019 20:00,10,13,,,0,,92,,280,-,1018,0,30,,,,8.9,
Drumalbin,06/09/2019 21:00,9.5,7,,,0,,93,,280,-,1019,0,35,,,,8.5,
Drumalbin,06/09/2019 22:00,8.8,8,,,0,,93,,280,-,1019,0,45,,,,7.8,
Drumalbin,06/09/2019 23:00,8.6,6,,,0,,93,,260,-,1020,0,50,,,,7.6,
Drumalbin,07/09/2019 00:00,8,6,,,0,0,94,,280,-,1021,0,50,,,,7.1,
Drumalbin,07/09/2019 01:00,7.1,3,,,0,,96,,240,-,1021,0,35,,,,6.6,
Drumalbin,07/09/2019 02:00,6.7,5,,,0,,97,,240,-,1022,1,40,,,,6.3,
Drumalbin,07/09/2019 03:00,6.2,3,,,0,,97,,230,-,1022,1,35,,,,5.8,
Drumalbin,07/09/2019 04:00,6.8,2,,,0,,97,,220,-,1023,7,40,,,,6.4,
Drumalbin,07/09/2019 05:00,7.2,1,,,0,,95,,270,-,1024,8,45,,,,6.6,
Drumalbin,07/09/2019 06:00,7.3,1,5.8,,0,0,96,,150,-,1024,8,45,,,,6.8,
Drumalbin,07/09/2019 07:00,7.5,2,,,0,,97,,30,-,1025,8,23,,,,7.1,
Drumalbin,07/09/2019 08:00,7.9,6,,,0,,85,,80,-,1025,2,65,,,,5.6,
Drumalbin,07/09/2019 09:00,9.9,8,,,0,,75,,50,-,1026,0,70,,,,5.7,
Drumalbin,07/09/2019 10:00,11.2,9,,,0,,65,,40,-,1026,0,75,,,,4.9,
Drumalbin,07/09/2019 11:00,11.9,7,,,0,,63,,60,-,1026,4,75,,,,5.2,
Drumalbin,07/09/2019 12:00,11.2,5,,,0,0,62,,80,-,1027,3,75,,,,4.3,
Drumalbin,07/09/2019 13:00,12.7,5,,,0,,57,,40,-,1027,7,75,,,,4.5,
Drumalbin,07/09/2019 14:00,12.9,3,,,0,,56,,50,-,1027,5,75,,,,4.4,
Drumalbin,07/09/2019 15:00,14.1,3,,,0,,52,,20,-,1026,1,75,,,,4.6,
Drumalbin,07/09/2019 16:00,14.9,3,,,0,,48,,260,-,1026,0,75,,,,4.1,
Drumalbin,07/09/2019 17:00,14.2,3,,,0,,48,,310,-,1026,0,75,,,,3.5,
Drumalbin,07/09/2019 18:00,13.9,3,,15,0,0,56,,350,-,1026,0,75,,,,5.3,
Drumalbin,07/09/2019 19:00,9.6,2,,,0,,77,,200,-,1027,2,75,,,,5.9,
Drumalbin,07/09/2019 20:00,8.6,6,,,0,,86,,220,-,1028,0,75,,,,6.4,
Drumalbin,07/09/2019 21:00,8.2,3,,,0,,83,,230,-,1028,0,75,,,,5.6,
Drumalbin,07/09/2019 22:00,6.6,5,,,0,,87,,210,-,1028,0,65,,,,4.7,
Drumalbin,07/09/2019 23:00,7.1,5,,,0,,88,,200,-,1027,,70,,,,5.4,
Drumalbin,08/09/2019 00:00,7.1,5,,,0,0,90,,190,-,1027,,65,,,,5.7,
Drumalbin,08/09/2019 01:00,6.6,6,,,0,,93,,200,-,1027,0,60,,,,5.6,
Drumalbin,08/09/2019 02:00,4.3,3,,,0,,91,,310,-,1027,0,30,,,,3.1,
Drumalbin,08/09/2019 03:00,4.8,0,,,0,,99,,0,-,1026,0,45,,,,4.7,
Drumalbin,08/09/2019 04:00,3.2,0,,,0,,96,,0,-,1026,0,35,,,,2.7,
Drumalbin,08/09/2019 05:00,4.2,2,,,0,,99,,220,-,1026,0,28,,,,4.1,
Drumalbin,08/09/2019 06:00,5.4,6,2.9,,0,0,98,,200,-,1025,0,45,,,,5.2,
Drumalbin,08/09/2019 07:00,4.3,1,,,0.2,,97,,90,-,1025,0,29,,,,3.9,
Drumalbin,08/09/2019 08:00,6.5,1,,,0,,99,,230,-,1025,,40,,,,6.4,
Drumalbin,08/09/2019 09:00,10.2,3,,,0,,87,,270,-,1024,1,70,,,,8.3,
Drumalbin,08/09/2019 10:00,11.4,6,,,0,,73,,280,-,1024,6,75,,,,6.8,
Drumalbin,08/09/2019 11:00,13,7,,,0,,66,,240,-,1023,7,75,,,,7,
Drumalbin,08/09/2019 12:00,12.8,8,,,0,0.2,66,,260,-,1022,8,75,,,,6.7,
Drumalbin,08/09/2019 13:00,12.9,7,,,0,,68,,250,-,1022,8,75,,,,7.2,
Drumalbin,08/09/2019 14:00,13.3,9,,,0,,66,,240,-,1021,8,75,,,,7.1,
Drumalbin,08/09/2019 15:00,13.9,8,,,0,,69,,200,-,1020,7,45,,,,8.4,
Drumalbin,08/09/2019 16:00,13.4,13,,,0,,74,,200,-,1019,8,70,,,,8.9,
Drumalbin,08/09/2019 17:00,12.9,12,,,0,,79,,210,-,1019,7,70,,,,9.4,
Drumalbin,08/09/2019 18:00,12.4,12,,14.2,0,0,83,,220,-,1018,8,55,,,,9.6,
Drumalbin,08/09/2019 19:00,11.6,13,,,0,,88,,210,-,1018,8,40,,,,9.8,
Drumalbin,08/09/2019 20:00,11.2,13,,,0,,89,,200,-,1017,8,6,,,,9.6,
Drumalbin,08/09/2019 21:00,10.6,9,,,0,,96,,200,-,1016,8,3,,,,10.1,
Drumalbin,08/09/2019 22:00,10.8,9,,,0.2,,98,,200,-,1016,8,3,,,,10.5,
Drumalbin,08/09/2019 23:00,11,13,,,0.4,,98,,190,-,1014,8,5,,,,10.7,
Drumalbin,09/09/2019 00:00,11.1,16,,,0.6,1,97,,190,-,1013,8,10,,,,10.7,
Drumalbin,09/09/2019 01:00,11.1,18,,,2.2,,96,,190,-,1012,7,9,,,,10.5,
Drumalbin,09/09/2019 02:00,11.1,18,,,0.4,,96,,190,-,1012,8,28,,,,10.6,
Drumalbin,09/09/2019 03:00,10.9,18,,,0,,96,,190,-,1011,8,5,,,,10.4,
Drumalbin,09/09/2019 04:00,10.7,17,,,1.6,,96,,180,-,1010,1,6,,,,10.1,
Drumalbin,09/09/2019 05:00,10.7,18,,,0.6,,96,,190,-,1009,8,15,,,,10.1,
Drumalbin,09/09/2019 06:00,10.5,22,10.5,,0.8,6,96,30,180,-,1009,8,12,,,,10,
Drumalbin,09/09/2019 07:00,10.2,21,,,0.8,,96,29,190,-,1009,7,5,,,,9.6,
Drumalbin,09/09/2019 08:00,10.3,16,,,1.8,,95,,200,-,1009,8,6,,,,9.6,
Drumalbin,09/09/2019 09:00,10.5,6,,,0.6,,96,,240,-,1010,8,7,,,,10,
Drumalbin,09/09/2019 10:00,11.3,10,,,0.4,,94,,180,-,1009,8,15,,,,10.5,
Drumalbin,09/09/2019 11:00,12.2,10,,,0,,91,,190,-,1009,8,45,,,,10.8,
Drumalbin,09/09/2019 12:00,12.7,10,,,0,4,86,,190,-,1009,8,45,,,,10.5,
Drumalbin,09/09/2019 13:00,12.9,8,,,0,,86,,200,-,1010,8,12,,,,10.7,
Drumalbin,09/09/2019 14:00,14.1,3,,,0.2,,76,,180,-,1010,7,45,,,,10,
Drumalbin,09/09/2019 15:00,15.2,2,,,0,,71,,210,-,1010,7,75,,,,10,
Drumalbin,09/09/2019 16:00,12.5,7,,,0,,94,,310,-,1011,1,8,,,,11.7,
Drumalbin,09/09/2019 17:00,11.9,3,,,0.6,,96,,270,-,1012,8,3,,,,11.4,
Drumalbin,09/09/2019 18:00,11.9,2,,15.3,0.4,1,98,,300,-,1012,8,5,,,,11.6,
Drumalbin,09/09/2019 19:00,11.4,2,,,0,,98,,220,-,1013,8,45,,,,11.1,
Drumalbin,09/09/2019 20:00,11.6,5,,,0,,98,,240,-,1014,8,60,,,,11.3,
Drumalbin,09/09/2019 21:00,11.5,5,,,0,,99,,270,-,1014,8,35,,,,11.4,
Drumalbin,09/09/2019 22:00,10.9,5,,,0,,96,,270,-,1015,8,70,,,,10.3,
Drumalbin,09/09/2019 23:00,10.4,6,,,0,,95,,260,-,1015,8,75,,,,9.7,
Drumalbin,10/09/2019 00:00,9.8,7,,,0,0,95,,250,-,1016,7,70,,,,9.1,
Drumalbin,10/09/2019 01:00,8.5,3,,,0,,99,,240,-,1016,5,40,,,,8.4,
Drumalbin,10/09/2019 02:00,9.3,6,,,0,,97,,250,-,1016,5,35,,,,9,
Drumalbin,10/09/2019 03:00,9.6,5,,,0,,97,,240,-,1016,8,35,,,,9.2,
Drumalbin,10/09/2019 04:00,9.6,5,,,0,,98,,260,-,1017,8,10,,,,9.4,
Drumalbin,10/09/2019 05:00,9.5,3,,,0.2,,99,,250,-,1017,8,1,,,,9.4,
Drumalbin,10/09/2019 06:00,9.4,3,8.1,,1.4,2,100,,250,-,1017,8,1,,,,9.4,
Drumalbin,10/09/2019 07:00,9.7,3,,,1,,100,,240,-,1018,7,3,,,,9.7,
Drumalbin,10/09/2019 08:00,9.9,7,,,0,,97,,250,-,1018,8,6,,,,9.5,
Drumalbin,10/09/2019 09:00,11.2,5,,,0,,96,,260,-,1018,8,50,,,,10.7,
Drumalbin,10/09/2019 10:00,12.5,7,,,0.2,,80,,260,-,1018,8,70,,,,9.2,
Drumalbin,10/09/2019 11:00,13.5,9,,,0,,68,,280,-,1017,3,60,,,,7.8,
Drumalbin,10/09/2019 12:00,13.4,12,,,0,1,70,,270,-,1017,3,50,,,,8.1,
Drumalbin,10/09/2019 13:00,14.1,14,,,0,,66,,250,-,1017,1,45,,,,7.9,
Drumalbin,10/09/2019 14:00,13.7,16,,,0,,64,,270,-,1016,2,30,,,,7.1,
Drumalbin,10/09/2019 15:00,14,16,,,0,,67,,260,-,1016,7,30,,,,8,
Drumalbin,10/09/2019 16:00,12.6,14,,,0,,71,,240,-,1015,7,35,,,,7.6,
Drumalbin,10/09/2019 17:00,11.2,14,,,0,,79,,210,-,1014,8,35,,,,7.8,
Drumalbin,10/09/2019 18:00,10.7,15,,14.7,0,0,86,29,210,-,1013,8,25,,,,8.5,
Drumalbin,10/09/2019 19:00,10.2,22,,,0,,94,33,210,-,1013,8,12,,,,9.3,
Drumalbin,10/09/2019 20:00,10.5,29,,,0.4,,94,41,200,-,1011,7,40,,,,9.6,
Drumalbin,10/09/2019 21:00,10.8,33,,,0.2,,94,47,200,-,1010,8,3,,,,9.9,
Drumalbin,10/09/2019 22:00,10.8,32,,,0.4,,96,47,210,-,1009,8,4,,,,10.2,
Drumalbin,10/09/2019 23:00,11.7,26,,,0,,95,44,200,-,1008,8,28,,,,11,
Drumalbin,11/09/2019 00:00,12.2,28,,,0.4,1,96,39,220,-,1007,7,5,,,,11.7,
Drumalbin,11/09/2019 01:00,12.8,22,,,1.8,,97,38,210,-,1007,7,4,,,,12.4,
Drumalbin,11/09/2019 02:00,13.5,18,,,1,,97,,220,-,1006,7,2,,,,13.1,
Drumalbin,11/09/2019 03:00,13.9,20,,,0.8,,97,29,220,-,1006,7,2,,,,13.5,
Drumalbin,11/09/2019 04:00,14.4,18,,,0.4,,97,30,240,-,1005,8,6,,,,14,
Drumalbin,11/09/2019 05:00,12.4,20,,,1.8,,88,38,270,-,1006,6,60,,,,10.5,
Drumalbin,11/09/2019 06:00,11.9,15,10.2,,0,6,91,,230,-,1007,5,28,,,,10.6,
Drumalbin,11/09/2019 07:00,12.1,25,,,0,,89,35,250,-,1007,8,25,,,,10.5,
Drumalbin,11/09/2019 08:00,12.5,18,,,0,,89,33,260,-,1008,7,21,,,,10.8,
Drumalbin,11/09/2019 09:00,12.2,22,,,0,,88,40,280,-,1009,4,30,,,,10.3,
Drumalbin,11/09/2019 10:00,12.9,18,,,0,,83,30,260,-,1010,4,25,,,,10.1,
Drumalbin,11/09/2019 11:00,14.2,21,,,0,,79,33,270,-,1010,3,25,,,,10.8,
Drumalbin,11/09/2019 12:00,13.6,21,,,0,0,81,32,260,-,1012,2,25,,,,10.5,
Drumalbin,11/09/2019 13:00,14.1,24,,,0,,75,38,260,-,1012,5,30,,,,9.9,
Drumalbin,11/09/2019 14:00,14.4,26,,,0.2,,82,35,260,-,1012,1,35,,,,11.5,
Drumalbin,11/09/2019 15:00,14,20,,,0,,73,37,260,-,1014,2,30,,,,9.4,
Drumalbin,11/09/2019 16:00,13.2,26,,,0,,79,33,270,-,1014,2,15,,,,9.7,
Drumalbin,11/09/2019 17:00,11.9,20,,,0,,89,33,270,-,1015,8,3,,,,10.2,
Drumalbin,11/09/2019 18:00,12,16,,15.4,0.2,0.4,83,30,260,-,1016,1,40,,,,9.3,
Drumalbin,11/09/2019 19:00,11,16,,,0.2,,90,,260,-,1017,1,40,,,,9.5,
Drumalbin,11/09/2019 20:00,10.7,12,,,0,,88,,230,-,1017,6,30,,,,8.9,
Drumalbin,11/09/2019 21:00,11.1,14,,,0,,88,,240,-,1018,3,29,,,,9.2,
Drumalbin,11/09/2019 22:00,11.3,15,,,0,,86,,250,-,1018,7,30,,,,9.1,
Drumalbin,11/09/2019 23:00,11.2,16,,,0,,86,,250,-,1018,7,35,,,,9,
Drumalbin,12/09/2019 00:00,11.1,15,,,0,0.2,86,,250,-,1018,8,30,,,,9,
Drumalbin,12/09/2019 01:00,10.9,12,,,0,,86,,230,-,1018,8,30,,,,8.8,
Drumalbin,12/09/2019 02:00,11.1,16,,,0,,86,,240,-,1018,8,29,,,,9,
Drumalbin,12/09/2019 03:00,11,12,,,0,,88,,230,-,1018,8,26,,,,9.2,
Drumalbin,12/09/2019 04:00,11.2,14,,,0,,88,,240,-,1018,8,29,,,,9.4,
Drumalbin,12/09/2019 05:00,11.4,13,,,0,,88,,240,-,1018,2,30,,,,9.6,
Drumalbin,12/09/2019 06:00,11.5,13,10.6,,0,0,88,,240,-,1018,1,40,,,,9.7,
Drumalbin,12/09/2019 07:00,11.3,13,,,0,,94,,230,-,1018,7,15,,,,10.5,
Drumalbin,12/09/2019 08:00,12,14,,,0,,96,,220,-,1018,1,7,,,,11.5,
Drumalbin,12/09/2019 09:00,12.5,14,,,0,,94,,220,-,1018,7,12,,,,11.6,
Drumalbin,12/09/2019 10:00,12.6,10,,,0.6,,97,,230,-,1018,8,2,,,,12.2,
Drumalbin,12/09/2019 11:00,13.5,8,,,1,,98,,230,-,1018,2,2,,,,13.2,
Drumalbin,12/09/2019 12:00,13.5,7,,,0.2,2,96,,250,-,1018,8,3,,,,13,
Drumalbin,12/09/2019 13:00,13.9,6,,,0.4,,98,,280,-,1019,8,4,,,,13.7,
Drumalbin,12/09/2019 14:00,14.3,12,,,0.4,,94,,290,-,1019,8,75,,,,13.4,
Drumalbin,12/09/2019 15:00,13.7,15,,,0,,92,,300,-,1020,8,6,,,,12.5,
Drumalbin,12/09/2019 16:00,13.8,14,,,0.2,,82,,310,-,1021,7,75,,,,10.9,
Drumalbin,12/09/2019 17:00,13.4,14,,,0,,72,,290,-,1022,2,70,,,,8.5,
Drumalbin,12/09/2019 18:00,12.1,14,,14.5,0,1,72,,290,-,1024,,60,,,,7.4,
Drumalbin,12/09/2019 19:00,10.7,8,,,0,,81,,270,-,1025,4,45,,,,7.6,
Drumalbin,12/09/2019 20:00,9.2,8,,,0,,87,,250,-,1026,0,40,,,,7.2,
Drumalbin,12/09/2019 21:00,8.3,8,,,0,,88,,230,-,1028,0,35,,,,6.5,
Drumalbin,12/09/2019 22:00,8.6,13,,,0,,87,,290,-,1028,0,30,,,,6.7,
Drumalbin,12/09/2019 23:00,8.1,10,,,0,,91,,270,-,1029,0,29,,,,6.8,
Drumalbin,13/09/2019 00:00,7.8,9,,,0,0,93,,230,-,1029,0,29,,,,6.8,
Drumalbin,13/09/2019 01:00,8.7,10,,,0,,90,,240,-,1030,6,28,,,,7.3,
Drumalbin,13/09/2019 02:00,9.1,14,,,0,,90,,240,-,1030,1,27,,,,7.7,
Drumalbin,13/09/2019 03:00,7.9,7,,,0,,95,,220,-,1031,4,25,,,,7.3,
Drumalbin,13/09/2019 04:00,7.9,9,,,0,,94,,210,-,1031,0,26,,,,7,
Drumalbin,13/09/2019 05:00,8.8,12,,,0,,92,,260,-,1032,,24,,,,7.6,
Drumalbin,13/09/2019 06:00,8.8,10,7.5,,0,0,90,,250,-,1032,,28,,,,7.4,
Drumalbin,13/09/2019 07:00,9.1,13,,,0,,89,,230,-,1033,1,26,,,,7.5,
Drumalbin,13/09/2019 08:00,10.3,10,,,0,,87,,250,-,1034,0,26,,,,8.4,
Drumalbin,13/09/2019 09:00,12.1,13,,,0,,78,,270,-,1034,1,30,,,,8.4,
Drumalbin,13/09/2019 10:00,12.5,14,,,0,,72,,270,-,1034,3,29,,,,7.7,
Drumalbin,13/09/2019 11:00,13.8,13,,,0,,67,,280,-,1035,3,30,,,,8,
Drumalbin,13/09/2019 12:00,14.8,16,,,0,0,54,,280,-,1034,0,40,,,,5.6,
Drumalbin,13/09/2019 13:00,14.6,17,,,0,,66,,250,-,1035,0,45,,,,8.5,
Drumalbin,13/09/2019 14:00,13.8,9,,,0,,72,,310,-,1035,7,35,,,,8.9,
Drumalbin,13/09/2019 15:00,13.8,16,,,0,,65,,280,-,1035,6,35,,,,7.4,
Drumalbin,13/09/2019 16:00,14.2,16,,,0,,61,,260,-,1034,0,40,,,,6.8,
Drumalbin,13/09/2019 17:00,13.6,18,,,0,,67,,270,-,1035,0,35,,,,7.7,
Drumalbin,13/09/2019 18:00,12.1,14,,15.6,0,0,72,,260,-,1035,,35,,,,7.4,
Drumalbin,13/09/2019 19:00,10.3,10,,,0,,79,,250,-,1035,2,35,,,,7,
Drumalbin,13/09/2019 20:00,9.9,10,,,0,,85,,240,-,1035,,30,,,,7.6,
Drumalbin,13/09/2019 21:00,9.3,9,,,0,,86,,240,-,1035,,29,,,,7.2,
Drumalbin,13/09/2019 22:00,8.8,9,,,0,,89,,220,-,1035,,28,,,,7.1,
Drumalbin,13/09/2019 23:00,8.7,10,,,0,,89,,220,-,1035,,29,,,,7,
Drumalbin,14/09/2019 00:00,8.1,12,,,0,0,89,,210,-,1035,3,30,,,,6.5,
Drumalbin,14/09/2019 01:00,8.6,13,,,0,,90,,200,-,1034,0,30,,,,7.2,
Drumalbin,14/09/2019 02:00,9.3,15,,,0,,92,,210,-,1034,,30,,,,8.1,
Drumalbin,14/09/2019 03:00,9.4,15,,,0,,92,,210,-,1033,8,28,,,,8.3,
Drumalbin,14/09/2019 04:00,9.9,18,,,0,,92,,210,-,1031,8,27,,,,8.7,
Drumalbin,14/09/2019 05:00,10.2,17,,,0,,89,,210,-,1031,,30,,,,8.5,
Drumalbin,14/09/2019 06:00,9.8,17,7.9,,0,0,92,,210,-,1030,6,29,,,,8.6,
Drumalbin,14/09/2019 07:00,10.2,20,,,0,,89,,210,-,1029,7,35,,,,8.6,
Drumalbin,14/09/2019 08:00,10.9,22,,,0,,88,31,210,-,1029,8,35,,,,9,
Drumalbin,14/09/2019 09:00,12.4,21,,,0,,78,35,220,-,1028,5,45,,,,8.8,
Drumalbin,14/09/2019 10:00,12.7,26,,,0,,80,39,220,-,1027,7,45,,,,9.4,
Drumalbin,14/09/2019 11:00,13.3,22,,,0,,76,38,220,-,1027,7,45,,,,9.2,
Drumalbin,14/09/2019 12:00,14.1,25,,,0,0,70,35,230,-,1025,7,50,,,,8.8,
Drumalbin,14/09/2019 13:00,14.5,30,,,0,,64,38,220,-,1024,3,55,,,,8,
Drumalbin,14/09/2019 14:00,14.4,28,,,0,,62,40,220,-,1023,8,60,,,,7.4,
Drumalbin,14/09/2019 15:00,15.2,23,,,0,,65,38,220,-,1022,8,60,,,,8.8,
Drumalbin,14/09/2019 16:00,14.8,25,,,0,,67,37,220,-,1021,6,60,,,,8.8,
Drumalbin,14/09/2019 17:00,14.3,28,,,0,,71,38,220,-,1020,3,55,,,,9.3,
Drumalbin,14/09/2019 18:00,14.1,30,,16,0,0,75,39,220,-,1020,7,50,,,,9.8,
Drumalbin,14/09/2019 19:00,13.8,25,,,0,,80,37,220,-,1019,8,45,,,,10.5,
Drumalbin,14/09/2019 20:00,13.8,23,,,0,,91,38,240,-,1019,8,3,,,,12.4,
Drumalbin,14/09/2019 21:00,13.4,20,,,0.2,,96,39,230,-,1019,8,3,,,,12.9,
Drumalbin,14/09/2019 22:00,13.9,23,,,0.4,,96,33,250,-,1019,8,4,,,,13.4,
Drumalbin,14/09/2019 23:00,11.2,20,,,0.4,,96,36,300,-,1019,7,4,,,,10.7,
Drumalbin,15/09/2019 00:00,10.8,15,,,0,1,95,32,260,-,1020,3,40,,,,10.1,
Drumalbin,15/09/2019 01:00,10.6,16,,,0,,91,,260,-,1020,1,26,,,,9.2,
Drumalbin,15/09/2019 02:00,10.1,16,,,0,,89,,260,-,1020,5,17,,,,8.5,
Drumalbin,15/09/2019 03:00,10.3,15,,,0,,91,,270,-,1020,7,13,,,,9,
Drumalbin,15/09/2019 04:00,10.3,18,,,0,,87,31,260,-,1021,7,14,,,,8.3,
Drumalbin,15/09/2019 05:00,10,20,,,0,,85,,270,-,1020,7,14,,,,7.7,
Drumalbin,15/09/2019 06:00,8.6,14,8.4,,0,0,88,29,260,-,1022,1,13,,,,6.8,
Drumalbin,15/09/2019 07:00,9.2,10,,,0,,84,,250,-,1022,5,14,,,,6.8,
Drumalbin,15/09/2019 08:00,9.7,13,,,0,,85,,260,-,1022,8,14,,,,7.4,
Drumalbin,15/09/2019 09:00,10.4,13,,,0,,86,,260,-,1022,8,15,,,,8.2,
Drumalbin,15/09/2019 10:00,10.9,17,,,0,,81,,270,-,1022,8,17,,,,7.8,
Drumalbin,15/09/2019 11:00,12.3,16,,,0,,73,,280,-,1022,8,20,,,,7.7,
Drumalbin,15/09/2019 12:00,11.9,14,,,0,0,73,,280,-,1023,8,20,,,,7.3,
Drumalbin,15/09/2019 13:00,12.8,13,,,0,,71,,280,-,1022,8,21,,,,7.7,
Drumalbin,15/09/2019 14:00,11.8,14,,,0,,72,,300,-,1023,7,21,,,,7,
Drumalbin,15/09/2019 15:00,12.9,12,,,0,,61,,280,-,1022,7,27,,,,5.8,
Drumalbin,15/09/2019 16:00,12.8,12,,,0,,64,,280,-,1022,7,27,,,,6.2,
Drumalbin,15/09/2019 17:00,12.3,14,,,0,,68,,280,-,1022,3,23,,,,6.6,
Drumalbin,15/09/2019 18:00,10.9,13,,13.3,0,0,74,,280,-,1022,,23,,,,6.6,
Drumalbin,15/09/2019 19:00,9.3,9,,,0,,84,,270,-,1023,0,20,,,,6.9,
Drumalbin,15/09/2019 20:00,8.8,7,,,0,,88,,240,-,1023,5,21,,,,7,
Drumalbin,15/09/2019 21:00,9.2,7,,,0,,82,,260,-,1023,8,24,,,,6.4,
Drumalbin,15/09/2019 22:00,8.8,8,,,0,,83,,270,-,1023,8,25,,,,6.2,
Drumalbin,15/09/2019 23:00,7.8,7,,,0,,87,,260,-,1023,3,22,,,,5.9,
Drumalbin,16/09/2019 00:00,6.9,5,,,0,0,92,,270,-,1023,,19,,,,5.7,
Drumalbin,16/09/2019 01:00,5.4,3,,,0,,92,,210,-,1023,0,18,,,,4.3,
Drumalbin,16/09/2019 02:00,5.8,5,,,0,,95,,210,-,1023,1,21,,,,5.1,
Drumalbin,16/09/2019 03:00,5.6,5,,,0,,95,,230,-,1023,0,21,,,,5,
Drumalbin,16/09/2019 04:00,6,5,,,0,,95,,220,-,1022,7,19,,,,5.4,
Drumalbin,16/09/2019 05:00,6.9,5,,,0,,95,,220,-,1022,7,19,,,,6.3,
Drumalbin,16/09/2019 06:00,6.9,7,5.3,,0,0,95,,220,-,1022,6,18,,,,6.3,
Drumalbin,16/09/2019 07:00,7.8,7,,,0,,95,,250,-,1022,7,21,,,,7.2,
Drumalbin,16/09/2019 08:00,9,10,,,0,,92,,240,-,1022,8,23,,,,7.8,
Drumalbin,16/09/2019 09:00,10.3,14,,,0,,87,,270,-,1022,7,30,,,,8.3,
Drumalbin,16/09/2019 10:00,11.3,17,,,0,,75,,280,-,1023,3,45,,,,7.1,
Drumalbin,16/09/2019 11:00,12.2,16,,,0,,70,,300,-,1023,7,45,,,,7,
Drumalbin,16/09/2019 12:00,12.8,15,,,0,0,71,,290,-,1022,8,45,,,,7.8,
Drumalbin,16/09/2019 13:00,12.5,10,,,0,,73,,310,-,1023,8,40,,,,7.9,
Drumalbin,16/09/2019 14:00,12.8,15,,,0,,65,,300,-,1022,7,55,,,,6.4,
Drumalbin,16/09/2019 15:00,12.3,15,,,0,,67,,290,-,1023,8,60,,,,6.4,
Drumalbin,16/09/2019 16:00,12.1,16,,,0,,67,,290,-,1022,7,55,,,,6.2,
Drumalbin,16/09/2019 17:00,11.6,13,,,0,,76,,290,-,1023,3,60,,,,7.6,
Drumalbin,16/09/2019 18:00,10.8,12,,13.6,0,0,78,,270,-,1023,8,55,,,,7.3,
Drumalbin,16/09/2019 19:00,10,10,,,0,,82,,270,-,1023,7,45,,,,7.2,
Drumalbin,16/09/2019 20:00,9.2,12,,,0,,88,,260,-,1024,2,35,,,,7.4,
Drumalbin,16/09/2019 21:00,8.9,13,,,0,,90,,260,-,1023,1,30,,,,7.5,
Drumalbin,16/09/2019 22:00,8.2,13,,,0,,91,,270,-,1023,0,27,,,,6.9,
Drumalbin,16/09/2019 23:00,7.8,8,,,0,,92,,250,-,1024,2,27,,,,6.7,
Drumalbin,17/09/2019 00:00,9,12,,,0,0,91,,270,-,1024,7,27,,,,7.7,
Drumalbin,17/09/2019 01:00,9.1,13,,,0,,90,,260,-,1024,7,28,,,,7.7,
Drumalbin,17/09/2019 02:00,9.3,12,,,0,,90,,260,-,1024,8,28,,,,7.8,
Drumalbin,17/09/2019 03:00,8.1,10,,,0,,83,,290,-,1024,1,35,,,,5.5,
Drumalbin,17/09/2019 04:00,7.7,12,,,0,,84,,270,-,1024,0,30,,,,5.3,
Drumalbin,17/09/2019 05:00,7.2,8,,,0,,83,,250,-,1024,0,35,,,,4.6,
Drumalbin,17/09/2019 06:00,7.1,7,6.9,,0,0,83,,260,-,1025,2,35,,,,4.5,
Drumalbin,17/09/2019 07:00,8.1,9,,,0,,83,,260,-,1025,1,30,,,,5.5,
Drumalbin,17/09/2019 08:00,9.1,10,,,0,,78,,300,-,1026,5,30,,,,5.6,
Drumalbin,17/09/2019 09:00,10.1,10,,,0,,77,,310,-,1026,1,30,,,,6.4,
Drumalbin,17/09/2019 10:00,11.4,14,,,0,,63,,310,-,1026,1,30,,,,4.7,
Drumalbin,17/09/2019 11:00,12.5,9,,,0,,58,,320,-,1026,2,40,,,,4.7,
Drumalbin,17/09/2019 12:00,12.8,12,,,0,0,52,,320,-,1027,1,40,,,,3.2,
Drumalbin,17/09/2019 13:00,13.2,8,,,0,,49,,310,-,1027,1,40,,,,2.8,
Drumalbin,17/09/2019 14:00,13.4,9,,,0,,50,,320,-,1027,4,40,,,,3.3,
Drumalbin,17/09/2019 15:00,13.4,8,,,0,,49,,300,-,1027,1,35,,,,3.1,
Drumalbin,17/09/2019 16:00,13.8,8,,,0,,48,,310,-,1027,,30,,,,3.2,
Drumalbin,17/09/2019 17:00,12.6,7,,,0,,58,,320,-,1027,,40,,,,4.7,
Drumalbin,17/09/2019 18:00,11.2,7,,14.4,0,0,62,,310,-,1027,7,40,,,,4.4,
Drumalbin,17/09/2019 19:00,10,3,,,0,,70,,240,-,1028,8,40,,,,4.8,
Drumalbin,17/09/2019 20:00,9.3,3,,,0,,71,,250,-,1028,8,40,,,,4.5,
Drumalbin,17/09/2019 21:00,7.4,5,,,0,,81,,190,-,1029,6,40,,,,4.4,
Drumalbin,17/09/2019 22:00,7.1,2,,,0,,82,,250,-,1029,4,35,,,,4.3,
Drumalbin,17/09/2019 23:00,7.3,3,,,0,,84,,210,-,1029,7,40,,,,4.8,
Drumalbin,18/09/2019 00:00,7.8,2,,,0,0,84,,180,-,1029,8,40,,,,5.3,
Drumalbin,18/09/2019 01:00,7.2,2,,,0,,84,,210,-,1029,8,35,,,,4.8,
Drumalbin,18/09/2019 02:00,7.9,2,,,0,,81,,220,-,1029,8,35,,,,4.9,
Drumalbin,18/09/2019 03:00,7.9,5,,,0,,83,,240,-,1029,8,35,,,,5.3,
Drumalbin,18/09/2019 04:00,8,3,,,0,,81,,210,-,1029,8,40,,,,5,
Drumalbin,18/09/2019 05:00,8.1,3,,,0,,77,,170,-,1029,7,40,,,,4.5,
Drumalbin,18/09/2019 06:00,7.8,3,6.8,,0,0,77,,220,-,1029,7,35,,,,4.2,
Drumalbin,18/09/2019 07:00,8.5,6,,,0,,81,,220,-,1029,8,35,,,,5.5,
Drumalbin,18/09/2019 08:00,9.6,10,,,0,,80,,220,-,1029,5,35,,,,6.4,
Drumalbin,18/09/2019 09:00,10.8,10,,,0,,82,,230,-,1029,8,30,,,,8,
Drumalbin,18/09/2019 10:00,12,12,,,0,,81,,240,-,1029,7,30,,,,8.9,
Drumalbin,18/09/2019 11:00,14.4,13,,,0,,74,,260,-,1029,8,35,,,,9.9,
Drumalbin,18/09/2019 12:00,14,12,,,0,0,75,,250,-,1029,8,35,,,,9.7,
Drumalbin,18/09/2019 13:00,14.3,12,,,0,,71,,280,-,1029,7,35,,,,9.3,
Drumalbin,18/09/2019 14:00,15.1,13,,,0,,73,,280,-,1029,7,50,,,,10.4,
Drumalbin,18/09/2019 15:00,14.6,12,,,0,,72,,280,-,1029,7,55,,,,9.7,
Drumalbin,18/09/2019 16:00,14.1,13,,,0,,77,,280,-,1029,8,55,,,,10.2,
Drumalbin,18/09/2019 17:00,13.7,10,,,0,,80,,270,-,1029,8,45,,,,10.5,
Drumalbin,18/09/2019 18:00,13.2,12,,15.6,0,0,85,,270,-,1029,8,45,,,,10.9,
Drumalbin,18/09/2019 19:00,12.5,9,,,0,,89,,260,-,1030,8,45,,,,10.8,
Drumalbin,18/09/2019 20:00,12.5,7,,,0,,89,,240,-,1030,8,50,,,,10.9,
Drumalbin,18/09/2019 21:00,11.4,7,,,0,,94,,250,-,1031,5,50,,,,10.6,
Drumalbin,18/09/2019 22:00,11,7,,,0,,96,,230,-,1031,8,45,,,,10.5,
Drumalbin,18/09/2019 23:00,10.4,7,,,0,,96,,250,-,1031,2,30,,,,9.9,
Drumalbin,19/09/2019 00:00,9.6,6,,,0,0,96,,230,-,1031,1,20,,,,9,
Drumalbin,19/09/2019 01:00,10,5,,,0,,98,,230,-,1031,7,30,,,,9.7,
Drumalbin,19/09/2019 02:00,10.5,6,,,0,,99,,240,-,1030,7,19,,,,10.4,
Drumalbin,19/09/2019 03:00,10.8,6,,,0,,98,,240,-,1030,8,30,,,,10.5,
Drumalbin,19/09/2019 04:00,10.7,8,,,0,,97,,240,-,1030,8,21,,,,10.3,
Drumalbin,19/09/2019 05:00,10.4,8,,,0,,98,,240,-,1030,8,16,,,,10.2,
Drumalbin,19/09/2019 06:00,10.6,7,9.3,,0,0,98,,230,-,1030,8,11,,,,10.4,
Drumalbin,19/09/2019 07:00,11.1,8,,,0,,96,,250,-,1030,8,30,,,,10.6,
Drumalbin,19/09/2019 08:00,11.5,8,,,0,,95,,270,-,1031,8,18,,,,10.8,
Drumalbin,19/09/2019 09:00,11.9,9,,,0,,93,,260,-,1031,8,22,,,,10.9,
Drumalbin,19/09/2019 10:00,12.8,8,,,0,,88,,270,-,1031,8,28,,,,11,
Drumalbin,19/09/2019 11:00,13.4,9,,,0,,85,,250,-,1031,8,28,,,,11.1,
Drumalbin,19/09/2019 12:00,15.8,13,,,0,0,71,,260,-,1030,2,35,,,,10.7,
Drumalbin,19/09/2019 13:00,17.6,14,,,0,,67,,260,-,1030,0,40,,,,11.6,
Drumalbin,19/09/2019 14:00,18.4,14,,,0,,56,,260,-,1029,0,55,,,,9.5,
Drumalbin,19/09/2019 15:00,18.6,14,,,0,,48,,280,-,1029,0,75,,,,7.6,
Drumalbin,19/09/2019 16:00,18,13,,,0,,48,,270,-,1029,0,75,,,,6.9,
Drumalbin,19/09/2019 17:00,17,10,,,0,,52,,260,-,1029,0,65,,,,7.1,
Drumalbin,19/09/2019 18:00,14.8,6,,19.3,0,0,66,,250,-,1029,,50,,,,8.7,
Drumalbin,19/09/2019 19:00,11,6,,,0,,82,,220,-,1029,0,50,,,,8.1,
Drumalbin,19/09/2019 20:00,11.2,7,,,0,,91,,220,-,1029,0,35,,,,9.8,
Drumalbin,19/09/2019 21:00,11.3,3,,,0,,87,,240,-,1030,0,30,,,,9.3,
Drumalbin,19/09/2019 22:00,11.5,7,,,0,,88,,230,-,1030,0,30,,,,9.7,
Drumalbin,19/09/2019 23:00,10.8,7,,,0,,91,,220,-,1029,0,29,,,,9.4,
Drumalbin,20/09/2019 00:00,11.4,7,,,0,0,92,,210,-,1029,0,28,,,,10.2,
Drumalbin,20/09/2019 01:00,10,3,,,0,,92,,200,-,1029,0,28,,,,8.9,
Drumalbin,20/09/2019 02:00,7.4,2,,,0,,95,,180,-,1029,0,19,,,,6.7,
Drumalbin,20/09/2019 03:00,7.4,1,,,0,,96,,30,-,1028,0,11,,,,6.9,
Drumalbin,20/09/2019 04:00,6.8,2,,,0,,97,,90,-,1028,,25,,,,6.5,
Drumalbin,20/09/2019 05:00,7.5,1,,,0,,97,,320,-,1027,0,18,,,,7.1,
Drumalbin,20/09/2019 06:00,6,2,5.5,,0.2,0.2,97,,170,-,1027,0,19,,,,5.7,
Drumalbin,20/09/2019 07:00,7.2,1,,,0,,96,,10,-,1027,0,23,,,,6.7,
Drumalbin,20/09/2019 08:00,9,2,,,0,,94,,30,-,1027,0,17,,,,8.1,
Drumalbin,20/09/2019 09:00,12.1,2,,,0,,85,,70,-,1026,0,30,,,,9.7,
Drumalbin,20/09/2019 10:00,16.9,3,,,0,,76,,190,-,1026,0,35,,,,12.7,
Drumalbin,20/09/2019 11:00,18.1,8,,,0,,70,,210,-,1025,0,7,,,,12.6,
Drumalbin,20/09/2019 12:00,19.4,7,,,0,0,67,,200,-,1024,0,9,,,,13.2,
Drumalbin,20/09/2019 13:00,19.2,13,,,0,,63,,190,-,1024,0,3,,,,12.1,
Drumalbin,20/09/2019 14:00,19.7,10,,,0,,61,,190,-,1023,0,2,,,,12.2,
Drumalbin,20/09/2019 15:00,19.8,8,,,0,,60,,180,-,1022,0,30,,,,12,
Drumalbin,20/09/2019 16:00,19.6,6,,,0,,58,,150,-,1021,0,70,,,,11.3,
Drumalbin,20/09/2019 17:00,19.4,2,,,0,,58,,140,-,1020,0,65,,,,11.1,
Drumalbin,20/09/2019 18:00,17.8,2,,19.9,0,0,63,,120,-,1020,0,22,,,,10.8,
Drumalbin,20/09/2019 19:00,16.2,12,,,0,,73,,110,-,1019,0,60,,,,11.5,
Drumalbin,20/09/2019 20:00,14.7,7,,,0,,77,,130,-,1019,,50,,,,10.9,
Drumalbin,20/09/2019 21:00,13.9,1,,,0,,78,,220,-,1019,0,45,,,,10.3,
Drumalbin,20/09/2019 22:00,14,3,,,0,,78,,230,-,1018,,55,,,,10.3,
Drumalbin,20/09/2019 23:00,14.8,12,,,0,,65,,170,-,1018,0,75,,,,8.3,
Drumalbin,21/09/2019 00:00,14,12,,,0,0,65,,150,-,1017,,75,,,,7.6,
Drumalbin,21/09/2019 01:00,14.1,20,,,0,,67,,170,-,1017,0,75,,,,8.1,
Drumalbin,21/09/2019 02:00,13.5,15,,,0,,68,,170,-,1016,0,75,,,,7.9,
Drumalbin,21/09/2019 03:00,13.4,13,,,0,,72,,160,-,1016,0,70,,,,8.5,
Drumalbin,21/09/2019 04:00,11.9,3,,,0,,69,,120,-,1016,0,70,,,,6.6,
Drumalbin,21/09/2019 05:00,9.9,2,,,0,,79,,270,-,1015,0,50,,,,6.6,
Drumalbin,21/09/2019 06:00,10.1,6,9.6,,0,0,75,,110,-,1014,0,60,,,,6,
Drumalbin,21/09/2019 07:00,11.9,12,,,0,,68,,150,-,1014,,50,,,,6.3,
Drumalbin,21/09/2019 08:00,14.2,12,,,0,,61,,160,-,1013,0,65,,,,6.8,
Drumalbin,21/09/2019 09:00,16,15,,,0,,56,,160,-,1013,,60,,,,7.3,
Drumalbin,21/09/2019 10:00,17.6,22,,,0,,51,33,170,-,1012,0,55,,,,7.4,
Drumalbin,21/09/2019 11:00,19.1,23,,,0,,50,37,160,-,1011,,70,,,,8.7,
Drumalbin,21/09/2019 12:00,19.9,23,,,0,0,46,33,170,-,1010,0,65,,,,8,
Drumalbin,21/09/2019 13:00,20.4,29,,,0,,47,38,160,-,1009,0,70,,,,8.9,
Drumalbin,21/09/2019 14:00,20.6,24,,,0,,45,37,160,-,1008,,60,,,,8.3,
Drumalbin,21/09/2019 15:00,21.3,6,,,0,,48,30,170,-,1008,0,75,,,,10,
Drumalbin,21/09/2019 16:00,21.1,5,,,0,,42,,120,-,1008,0,70,,,,7.8,
Drumalbin,21/09/2019 17:00,19.6,7,,,0,,49,,140,-,1007,0,75,,,,8.7,
Drumalbin,21/09/2019 18:00,18.3,9,,21.9,0,0,51,,80,-,1007,,45,,,,8.1,
Drumalbin,21/09/2019 19:00,18.6,7,,,0,,49,31,180,-,1007,0,60,,,,7.9,
Drumalbin,21/09/2019 20:00,14.9,2,,,0,,67,,360,-,1007,0,45,,,,9,
Drumalbin,21/09/2019 21:00,13.4,5,,,0,,78,,40,-,1007,0,35,,,,9.7,
Drumalbin,21/09/2019 22:00,12.9,3,,,0,,81,,60,-,1007,0,35,,,,9.9,
Drumalbin,21/09/2019 23:00,11.5,8,,,0,,89,,50,-,1006,0,26,,,,9.8,
Drumalbin,22/09/2019 00:00,11,5,,,0,0,89,,90,-,1006,2,30,,,,9.3,
Drumalbin,22/09/2019 01:00,10.4,3,,,0,,91,,80,-,1006,7,23,,,,9.1,
Drumalbin,22/09/2019 02:00,10,2,,,0,,94,,50,-,1006,8,18,,,,9.2,
Drumalbin,22/09/2019 03:00,10.1,6,,,0,,94,,90,-,1005,8,19,,,,9.3,
Drumalbin,22/09/2019 04:00,10.6,5,,,0,,94,,40,-,1004,8,12,,,,9.7,
Drumalbin,22/09/2019 05:00,10.4,5,,,0,,94,,70,-,1004,8,15,,,,9.6,
Drumalbin,22/09/2019 06:00,11.1,5,9.8,,0,0,92,,120,-,1004,8,23,,,,9.9,
Drumalbin,22/09/2019 07:00,11.8,9,,,0,,90,,90,-,1003,8,23,,,,10.3,
Drumalbin,22/09/2019 08:00,12.5,9,,,0,,88,,100,-,1003,5,20,,,,10.7,
Drumalbin,22/09/2019 09:00,12.6,3,,,0,,91,,240,-,1004,8,10,,,,11.2,
Drumalbin,22/09/2019 10:00,15.1,8,,,1,,91,,90,-,1002,6,23,,,,13.8,
Drumalbin,22/09/2019 11:00,15.3,5,,,0.4,,94,,110,-,1002,,5,,,,14.4,
Drumalbin,22/09/2019 12:00,15.9,5,,,1.4,3,95,,130,-,1002,8,8,,,,15.2,
Drumalbin,22/09/2019 13:00,17.7,7,,,0.4,,88,,110,-,1001,6,50,,,,15.7,
Drumalbin,22/09/2019 14:00,17,8,,,1,,89,,100,-,1001,7,35,,,,15.2,
Drumalbin,22/09/2019 15:00,18.5,7,,,0,,84,,130,-,1000,7,45,,,,15.8,
Drumalbin,22/09/2019 16:00,17.3,8,,,0,,88,,80,-,1000,8,27,,,,15.3,
Drumalbin,22/09/2019 17:00,16.8,5,,,0,,87,,70,-,1000,8,25,,,,14.7,
Drumalbin,22/09/2019 18:00,16.6,7,,18.9,0,1,87,,90,-,1001,8,22,,,,14.6,
Drumalbin,22/09/2019 19:00,15.4,8,,,0.4,,95,,220,-,1001,8,14,,,,14.7,
Drumalbin,22/09/2019 20:00,14.7,6,,,0,,96,,210,-,1002,8,60,,,,14.1,
Drumalbin,22/09/2019 21:00,14.6,2,,,0,,94,,260,-,1002,8,75,,,,13.8,
Drumalbin,22/09/2019 22:00,13.9,3,,,0.2,,95,,170,-,1003,7,75,,,,13.2,
Drumalbin,22/09/2019 23:00,13.7,1,,,0,,97,,300,-,1003,8,35,,,,13.3,
Drumalbin,23/09/2019 00:00,12.7,5,,,0.2,0.8,96,,60,-,1002,8,22,,,,12.2,
Drumalbin,23/09/2019 01:00,13,2,,,0,,96,,160,-,1003,8,60,,,,12.5,
Drumalbin,23/09/2019 02:00,13.2,2,,,0,,95,,200,-,1003,8,45,,,,12.5,
Drumalbin,23/09/2019 03:00,13.8,7,,,0,,95,,180,-,1003,6,30,,,,13.1,
Drumalbin,23/09/2019 04:00,12.5,5,,,0,,94,,180,-,1003,3,30,,,,11.6,
Drumalbin,23/09/2019 05:00,12.4,5,,,0,,89,,210,-,1003,6,65,,,,10.8,
Drumalbin,23/09/2019 06:00,12.7,8,12.1,,0,0,93,,200,-,1003,8,40,,,,11.7,
Drumalbin,23/09/2019 07:00,12.5,15,,,0,,92,,190,-,1004,7,70,,,,11.3,
Drumalbin,23/09/2019 08:00,12.4,17,,,0,,93,,200,-,1004,7,28,,,,11.4,
Drumalbin,23/09/2019 09:00,13.1,15,,,0,,88,,200,-,1005,8,60,,,,11.2,
Drumalbin,23/09/2019 10:00,14,15,,,0,,86,,210,-,1004,8,60,,,,11.7,
Drumalbin,23/09/2019 11:00,13.2,17,,,0,,81,,210,-,1005,8,60,,,,10.1,
Drumalbin,23/09/2019 12:00,13.5,14,,,0,0,77,,220,-,1005,8,65,,,,9.6,
Drumalbin,23/09/2019 13:00,14.6,16,,,0,,69,,210,-,1005,7,70,,,,9,
Drumalbin,23/09/2019 14:00,14.4,16,,,0,,72,,190,-,1005,6,65,,,,9.5,
Drumalbin,23/09/2019 15:00,14.3,14,,,0,,74,,190,-,1005,7,65,,,,9.8,
Drumalbin,23/09/2019 16:00,14.7,16,,,0,,72,,180,-,1004,0,75,,,,9.8,
Drumalbin,23/09/2019 17:00,14,14,,,0,,70,,180,-,1004,3,75,,,,8.7,
Drumalbin,23/09/2019 18:00,12.8,6,,15.8,0,0,77,,120,-,1003,7,75,,,,8.9,
Drumalbin,23/09/2019 19:00,13.3,9,,,0,,76,,150,-,1003,,29,,,,9.3,
Drumalbin,23/09/2019 20:00,13.6,8,,,0,,76,,130,-,1002,8,65,,,,9.6,
Drumalbin,23/09/2019 21:00,13.1,9,,,0,,83,,140,-,1002,8,40,,,,10.4,
Drumalbin,23/09/2019 22:00,13,12,,,0.2,,87,,140,-,1001,8,75,,,,11,
Drumalbin,23/09/2019 23:00,13.1,17,,,0,,88,,150,-,1000,2,50,,,,11.2,
Drumalbin,24/09/2019 00:00,13.5,20,,,0,0.2,91,31,160,-,999,8,16,,,,12.2,
Drumalbin,24/09/2019 01:00,13.7,20,,,0,,93,31,170,-,999,7,35,,,,12.7,
Drumalbin,24/09/2019 02:00,13.8,20,,,0.2,,94,29,170,-,999,7,6,,,,13,
Drumalbin,24/09/2019 03:00,14.2,10,,,0,,94,,180,-,999,8,40,,,,13.4,
Drumalbin,24/09/2019 04:00,14.6,14,,,0.2,,95,,180,-,998,8,20,,,,13.9,
Drumalbin,24/09/2019 05:00,14.6,13,,,0.2,,96,,190,-,998,8,28,,,,14,
Drumalbin,24/09/2019 06:00,14.4,16,12.7,,0,0.6,93,,190,-,998,3,19,,,,13.4,
Drumalbin,24/09/2019 07:00,14.2,3,,,0,,92,,140,-,998,4,30,,,,13,
Drumalbin,24/09/2019 08:00,14.8,5,,,0,,91,,120,-,998,7,30,,,,13.5,
Drumalbin,24/09/2019 09:00,15.4,7,,,0,,92,,100,-,998,8,35,,,,14.2,
Drumalbin,24/09/2019 10:00,16.7,7,,,0,,83,,130,-,998,7,35,,,,13.9,
Drumalbin,24/09/2019 11:00,16.7,8,,,0,,81,,160,-,998,8,35,,,,13.6,
Drumalbin,24/09/2019 12:00,17.2,6,,,0,0,79,,80,-,997,5,35,,,,13.6,
Drumalbin,24/09/2019 13:00,16.6,7,,,0,,84,,100,-,996,7,25,,,,13.9,
Drumalbin,24/09/2019 14:00,17.2,10,,,0,,80,,90,-,996,7,40,,,,13.8,
Drumalbin,24/09/2019 15:00,16.6,8,,,0,,78,,100,-,995,6,50,,,,12.9,
Drumalbin,24/09/2019 16:00,15.6,12,,,0,,87,,70,-,995,8,10,,,,13.6,
Drumalbin,24/09/2019 17:00,14.8,7,,,3.2,,96,,60,-,995,8,4,,,,14.3,
Drumalbin,24/09/2019 18:00,14.5,6,,17.8,1.8,5,98,,40,-,995,8,2,,,,14.3,
Drumalbin,24/09/2019 19:00,13.4,7,,,1.6,,98,,50,-,995,3,12,,,,13.2,
Drumalbin,24/09/2019 20:00,13.1,6,,,0.8,,99,,30,-,995,8,6,,,,13,
Drumalbin,24/09/2019 21:00,12.8,6,,,1.2,,100,,40,-,995,7,15,,,,12.8,
Drumalbin,24/09/2019 22:00,12.8,2,,,0,,100,,30,-,995,8,6,,,,12.8,
Drumalbin,24/09/2019 23:00,12.9,2,,,0,,100,,50,-,994,8,0,,,,12.9,
Drumalbin,25/09/2019 00:00,12.9,2,,,0,4,100,,100,-,994,8,1,,,,12.9,
Drumalbin,25/09/2019 01:00,12.8,2,,,0,,100,,160,-,994,8,4,,,,12.8,
Drumalbin,25/09/2019 02:00,12.9,2,,,0,,100,,280,-,995,7,0,,,,12.9,
Drumalbin,25/09/2019 03:00,12.9,2,,,0,,100,,240,-,994,8,0,,,,12.9,
Drumalbin,25/09/2019 04:00,12.8,2,,,0,,100,,280,-,994,7,0,,,,12.8,
Drumalbin,25/09/2019 05:00,12.8,3,,,0.2,,100,,250,-,995,8,0,,,,12.8,
Drumalbin,25/09/2019 06:00,12.7,3,12.7,,0.8,1,100,,250,-,995,7,0,,,,12.7,
Drumalbin,25/09/2019 07:00,12.7,2,,,0.2,,100,,230,-,995,8,0,,,,12.7,
Drumalbin,25/09/2019 08:00,12.9,1,,,0.2,,100,,180,-,996,8,2,,,,12.9,
Drumalbin,25/09/2019 09:00,13.9,7,,,0,,98,,200,-,996,8,65,,,,13.7,
Drumalbin,25/09/2019 10:00,14.2,9,,,0,,96,,200,-,996,8,21,,,,13.6,
Drumalbin,25/09/2019 11:00,15,8,,,0,,93,,210,-,997,2,75,,,,14,
Drumalbin,25/09/2019 12:00,15.4,9,,,0,0.4,91,,190,-,997,8,75,,,,14.1,
Drumalbin,25/09/2019 13:00,15,13,,,0,,92,,180,-,997,8,75,,,,13.8,
Drumalbin,25/09/2019 14:00,15,14,,,0,,95,,200,-,997,8,4,,,,14.3,
Drumalbin,25/09/2019 15:00,15.2,14,,,0,,94,,200,-,997,8,11,,,,14.4,
Drumalbin,25/09/2019 16:00,14.4,16,,,0.2,,93,,200,-,997,8,20,,,,13.3,
Drumalbin,25/09/2019 17:00,14.1,13,,,0,,93,,200,-,997,8,17,,,,13.1,
Drumalbin,25/09/2019 18:00,13.9,16,,15.7,0,0.2,92,,180,-,997,8,19,,,,12.7,
Drumalbin,25/09/2019 19:00,13.6,13,,,0,,92,,180,-,997,7,21,,,,12.4,
Drumalbin,25/09/2019 20:00,13.2,12,,,0,,93,,190,-,997,7,24,,,,12.1,
Drumalbin,25/09/2019 21:00,13.4,15,,,0,,91,,170,-,996,8,19,,,,12.1,
Drumalbin,25/09/2019 22:00,13.4,14,,,0,,93,,170,-,996,8,24,,,,12.3,
Drumalbin,25/09/2019 23:00,13.8,20,,,0,,89,,170,-,995,8,45,,,,12.1,
Drumalbin,26/09/2019 00:00,13.2,18,,,0.4,0.4,94,30,180,-,994,8,9,,,,12.4,
Drumalbin,26/09/2019 01:00,12.9,20,,,0,,91,32,160,-,993,7,30,,,,11.6,
Drumalbin,26/09/2019 02:00,13.4,18,,,0,,91,,160,-,992,8,24,,,,12,
Drumalbin,26/09/2019 03:00,13.4,25,,,0,,93,31,170,-,991,8,7,,,,12.3,
Drumalbin,26/09/2019 04:00,12.7,13,,,0.2,,93,,220,-,992,6,70,,,,11.6,
Drumalbin,26/09/2019 05:00,12.5,9,,,0,,94,,220,-,992,8,50,,,,11.6,
Drumalbin,26/09/2019 06:00,12.1,12,12.1,,0,0.2,91,,230,-,992,7,40,,,,10.7,
Drumalbin,26/09/2019 07:00,11.5,14,,,0,,91,,220,-,992,8,30,,,,10.2,
Drumalbin,26/09/2019 08:00,12,8,,,0,,88,,240,-,993,7,29,,,,10.1,
Drumalbin,26/09/2019 09:00,11.7,10,,,0,,92,,220,-,993,8,24,,,,10.5,
Drumalbin,26/09/2019 10:00,12.7,13,,,0,,88,,220,-,993,1,45,,,,10.8,
Drumalbin,26/09/2019 11:00,13.1,14,,,0.2,,84,,230,-,993,7,30,,,,10.6,
Drumalbin,26/09/2019 12:00,13.2,8,,,0,0.2,84,,230,-,993,7,45,,,,10.7,
Drumalbin,26/09/2019 13:00,13.5,14,,,0,,79,,230,-,993,7,70,,,,10.1,
Drumalbin,26/09/2019 14:00,13.7,14,,,0,,83,,220,-,993,5,70,,,,10.9,
Drumalbin,26/09/2019 15:00,13.1,18,,,0,,81,,220,-,993,7,45,,,,10.1,
Drumalbin,26/09/2019 16:00,11.8,10,,,3,,96,,250,-,994,8,3,,,,11.3,
Drumalbin,26/09/2019 17:00,11.8,13,,,0.6,,94,,220,-,993,7,22,,,,11,
Drumalbin,26/09/2019 18:00,11.7,15,,15.5,0.2,3.8,93,,210,-,993,5,35,,,,10.7,
Drumalbin,26/09/2019 19:00,11.5,16,,,0,,93,,200,-,993,7,45,,,,10.5,
Drumalbin,26/09/2019 20:00,11.1,13,,,1.8,,95,,200,-,993,7,4,,,,10.4,
Drumalbin,26/09/2019 21:00,10.8,14,,,5.4,,93,,220,-,993,2,7,,,,9.8,
Drumalbin,26/09/2019 22:00,10.2,15,,,0.2,,92,,210,-,993,1,75,,,,9.1,
Drumalbin,26/09/2019 23:00,10.2,16,,,0,,94,,210,-,994,2,5,,,,9.3,
Drumalbin,27/09/2019 00:00,10.5,9,,,1,8,96,,200,-,994,8,16,,,,10,
Drumalbin,27/09/2019 01:00,10.6,12,,,0,,94,,220,-,994,5,21,,,,9.8,
Drumalbin,27/09/2019 02:00,10.3,9,,,0.2,,94,,230,-,994,8,27,,,,9.5,
Drumalbin,27/09/2019 03:00,9.2,9,,,0,,94,,210,-,994,1,40,,,,8.4,
Drumalbin,27/09/2019 04:00,9.1,10,,,0,,93,,210,-,994,7,45,,,,8.1,
Drumalbin,27/09/2019 05:00,8.3,13,,,0,,96,,220,-,994,1,40,,,,7.8,
Drumalbin,27/09/2019 06:00,8.9,5,7.7,,0,1,94,,120,-,994,2,40,,,,8.1,
Drumalbin,27/09/2019 07:00,9.1,3,,,0,,91,,150,-,994,7,40,,,,7.8,
Drumalbin,27/09/2019 08:00,10,6,,,0,,94,,210,-,994,,35,,,,9.1,
Drumalbin,27/09/2019 09:00,10.7,7,,,0,,92,,200,-,994,1,8,,,,9.5,
Drumalbin,27/09/2019 10:00,11,1,,,0.4,,91,,360,-,993,4,9,,,,9.7,
Drumalbin,27/09/2019 11:00,10.3,8,,,2.2,,98,,30,-,993,8,2,,,,10,
Drumalbin,27/09/2019 12:00,10,6,,,8.2,11,99,,40,-,993,1,3,,,,9.9,
Drumalbin,27/09/2019 13:00,10.1,6,,,2.2,,98,,350,-,993,7,19,,,,9.9,
Drumalbin,27/09/2019 14:00,10.7,7,,,0.2,,95,,330,-,994,8,45,,,,10,
Drumalbin,27/09/2019 15:00,10.6,7,,,0,,91,,320,-,994,5,75,,,,9.2,
Drumalbin,27/09/2019 16:00,10.8,3,,,0,,89,,320,-,994,1,30,,,,9.1,
Drumalbin,27/09/2019 17:00,11.6,14,,,0,,83,,280,-,995,8,65,,,,8.9,
Drumalbin,27/09/2019 18:00,10.2,13,,12.4,0,2,89,,270,-,996,1,75,,,,8.6,
Drumalbin,27/09/2019 19:00,9.7,12,,,0,,93,,250,-,996,2,65,,,,8.7,
Drumalbin,27/09/2019 20:00,9.2,9,,,0,,96,,240,-,997,4,45,,,,8.6,
Drumalbin,27/09/2019 21:00,9.6,9,,,0,,96,,240,-,997,7,40,,,,9,
Drumalbin,27/09/2019 22:00,9.1,10,,,0,,96,,230,-,998,1,40,,,,8.6,
Drumalbin,27/09/2019 23:00,8.4,9,,,0,,96,,220,-,998,1,55,,,,7.8,
Drumalbin,28/09/2019 00:00,8.7,9,,,0,0,96,,240,-,998,5,65,,,,8.1,
Drumalbin,28/09/2019 01:00,9.3,8,,,0.2,,97,,220,-,998,4,16,,,,9,
Drumalbin,28/09/2019 02:00,9.4,7,,,2.8,,99,,230,-,997,8,2,,,,9.3,
Drumalbin,28/09/2019 03:00,9.5,1,,,0.6,,98,,270,-,997,7,18,,,,9.3,
Drumalbin,28/09/2019 04:00,9.3,2,,,1,,99,,310,-,997,1,7,,,,9.2,
Drumalbin,28/09/2019 05:00,9.2,3,,,0.4,,99,,270,-,997,2,18,,,,9.1,
Drumalbin,28/09/2019 06:00,9.4,7,8.2,,0.4,5,100,,290,-,997,8,10,,,,9.4,
Drumalbin,28/09/2019 07:00,9.3,7,,,0,,100,,290,-,998,8,19,,,,9.3,
Drumalbin,28/09/2019 08:00,9.6,8,,,0,,98,,260,-,999,2,70,,,,9.4,
Drumalbin,28/09/2019 09:00,10.7,10,,,0,,95,,290,-,1000,6,75,,,,10,
Drumalbin,28/09/2019 10:00,11.2,13,,,0,,88,,300,-,1001,4,75,,,,9.3,
Drumalbin,28/09/2019 11:00,11.4,14,,,0,,86,,290,-,1001,3,75,,,,9.3,
Drumalbin,28/09/2019 12:00,12.4,12,,,0,0,81,,290,-,1002,8,75,,,,9.4,
Drumalbin,28/09/2019 13:00,13.1,15,,,0,,76,,280,-,1002,8,75,,,,9.1,
Drumalbin,28/09/2019 14:00,14.1,14,,,0,,79,,280,-,1002,6,75,,,,10.6,
Drumalbin,28/09/2019 15:00,14.3,14,,,0,,76,,280,-,1002,7,75,,,,10.2,
Drumalbin,28/09/2019 16:00,13.8,12,,,0,,76,,290,-,1002,3,70,,,,9.7,
Drumalbin,28/09/2019 17:00,13.5,9,,,0,,76,,260,-,1002,7,75,,,,9.4,
Drumalbin,28/09/2019 18:00,11.6,8,,14.5,0,0,81,,240,-,1002,7,75,,,,8.6,
Drumalbin,28/09/2019 19:00,9.4,5,,,0,,89,,210,-,1002,0,75,,,,7.8,
Drumalbin,28/09/2019 20:00,9.5,3,,,0,,89,,180,-,1002,6,75,,,,7.9,
Drumalbin,28/09/2019 21:00,8.4,7,,,0,,94,,120,-,1002,8,65,,,,7.5,
Drumalbin,28/09/2019 22:00,7.8,6,,,0,,96,,120,-,1001,,50,,,,7.3,
Drumalbin,28/09/2019 23:00,7.5,9,,,0,,97,,110,-,1000,1,45,,,,7.1,
Drumalbin,29/09/2019 00:00,7.4,9,,,0,0,98,,100,-,1000,0,50,,,,7.2,
Drumalbin,29/09/2019 01:00,7.7,9,,,0,,96,,100,-,999,7,50,,,,7.2,
Drumalbin,29/09/2019 02:00,7.6,10,,,0,,97,,100,-,998,8,40,,,,7.3,
Drumalbin,29/09/2019 03:00,7.9,10,,,0,,97,,90,-,997,8,35,,,,7.6,
Drumalbin,29/09/2019 04:00,8.9,8,,,0,,96,,80,-,996,1,21,,,,8.4,
Drumalbin,29/09/2019 05:00,9.3,10,,,0,,96,,90,-,996,8,30,,,,8.7,
Drumalbin,29/09/2019 06:00,9.6,12,6.9,,0,0,96,,60,-,996,8,40,,,,9,
Drumalbin,29/09/2019 07:00,10,13,,,0.4,,98,,80,-,996,8,1,,,,9.7,
Drumalbin,29/09/2019 08:00,10.4,12,,,0.2,,97,,60,-,996,8,6,,,,10,
Drumalbin,29/09/2019 09:00,11.1,13,,,0,,94,,60,-,996,8,40,,,,10.3,
Drumalbin,29/09/2019 10:00,10.9,16,,,0.2,,94,,60,-,997,8,40,,,,10,
Drumalbin,29/09/2019 11:00,11.2,14,,,0,,92,,40,-,997,8,40,,,,10,
Drumalbin,29/09/2019 12:00,10.7,14,,,0,0.8,92,,40,-,998,7,14,,,,9.5,
Drumalbin,29/09/2019 13:00,11.2,14,,,0,,89,,30,-,999,8,40,,,,9.5,
Drumalbin,29/09/2019 14:00,11.7,13,,,0,,85,,40,-,1000,8,55,,,,9.3,
Drumalbin,29/09/2019 15:00,12.5,8,,,0,,84,,20,-,1000,8,55,,,,9.9,
Drumalbin,29/09/2019 16:00,12.7,8,,,0,,84,,20,-,1000,8,55,,,,10.2,
Drumalbin,29/09/2019 17:00,12.1,6,,,0,,84,,360,-,1001,8,50,,,,9.5,
Drumalbin,29/09/2019 18:00,10.8,5,,12.8,0,0,87,,320,-,1002,1,50,,,,8.8,
Drumalbin,29/09/2019 19:00,10.5,7,,,0.2,,92,,360,-,1004,7,8,,,,9.3,
Drumalbin,29/09/2019 20:00,10.1,6,,,1.4,,96,,240,-,1004,7,11,,,,9.6,
Drumalbin,29/09/2019 21:00,9.8,5,,,0.2,,97,,250,-,1005,7,40,,,,9.4,
Drumalbin,29/09/2019 22:00,9.7,5,,,0,,93,,240,-,1006,8,75,,,,8.7,
Drumalbin,29/09/2019 23:00,9.5,2,,,0,,92,,210,-,1006,8,75,,,,8.4,
Drumalbin,30/09/2019 00:00,8.4,5,,,0,2,96,,210,-,1006,1,75,,,,7.8,
Drumalbin,30/09/2019 01:00,8.5,7,,,0,,97,,230,-,1006,4,65,,,,8.2,
Drumalbin,30/09/2019 02:00,8,7,,,0,,98,,220,-,1007,1,8,,,,7.8,
Drumalbin,30/09/2019 03:00,7.5,3,,,0.2,,97,,270,-,1007,,27,,,,7.2,
Drumalbin,30/09/2019 04:00,7.8,6,,,0,,98,,220,-,1007,0,60,,,,7.6,
Drumalbin,30/09/2019 05:00,7.8,7,,,0,,97,,230,-,1008,,55,,,,7.4,
Drumalbin,30/09/2019 06:00,7.5,5,7,,0,0,98,,230,-,1008,1,50,,,,7.3,
Drumalbin,30/09/2019 07:00,7.6,6,,,0,,98,,210,-,1008,0,30,,,,7.4,
Drumalbin,30/09/2019 08:00,9.4,6,,,0,,100,,230,-,1008,6,30,,,,9.4,
Drumalbin,30/09/2019 09:00,10.9,6,,,0,,91,,240,-,1008,1,60,,,,9.5,
Drumalbin,30/09/2019 10:00,11.5,2,,,0,,86,,240,-,1009,7,30,,,,9.3,
Drumalbin,30/09/2019 11:00,13,3,,,0,,83,,80,-,1008,4,9,,,,10.2,
Drumalbin,30/09/2019 12:00,13.3,3,,,0,0,78,,90,-,1008,2,75,,,,9.7,
Drumalbin,30/09/2019 13:00,13.2,2,,,0,,76,,100,-,1008,7,75,,,,9.2,
Drumalbin,30/09/2019 14:00,12.9,3,,,0,,81,,90,-,1007,5,75,,,,9.8,
Drumalbin,30/09/2019 15:00,11.8,9,,,0,,85,,80,-,1006,8,35,,,,9.4,
Drumalbin,30/09/2019 16:00,11,7,,,0,,92,,100,-,1005,8,60,,,,9.8,
Drumalbin,30/09/2019 17:00,10.7,10,,,0,,91,,100,-,1005,7,60,,,,9.3,
Drumalbin,30/09/2019 18:00,9.4,14,,14,0,0,91,,90,-,1005,6,55,,,,8.1,
Drumalbin,30/09/2019 19:00,8.7,17,,,0,,90,,100,-,1004,8,45,,,,7.3,
Drumalbin,30/09/2019 20:00,8.3,17,,,0,,90,,90,-,1004,8,45,,,,6.8,
Drumalbin,30/09/2019 21:00,8.2,18,,,0,,89,,90,-,1004,8,45,,,,6.5,
Drumalbin,30/09/2019 22:00,7.8,16,,,0,,92,,90,-,1004,6,13,,,,6.6,
Drumalbin,30/09/2019 23:00,7.5,17,,,0.2,,94,,80,-,1004,7,30,,,,6.6,
Drumalbin,01/10/2019 00:00,7.2,17,,,0.2,0.4,93,,80,-,1003,8,30,,,,6.3,
Drumalbin,01/10/2019 01:00,7.2,16,,,0,,93,,80,-,1003,2,30,,,,6.3,
Drumalbin,01/10/2019 02:00,7.1,15,,,0.2,,95,,80,-,1003,8,35,,,,6.4,
Drumalbin,01/10/2019 03:00,7.2,17,,,0.2,,93,,80,-,1002,8,19,,,,6.3,
Drumalbin,01/10/2019 04:00,6.7,21,,,0.4,,94,29,70,-,1002,3,6,,,,5.9,
Drumalbin,01/10/2019 05:00,6.2,20,,,1,,93,30,80,-,1002,8,8,,,,5.3,
Drumalbin,01/10/2019 06:00,6,18,6,,1,2.6,92,,80,-,1003,8,13,,,,4.9,
Drumalbin,01/10/2019 07:00,5.7,15,,,0.2,,91,29,70,-,1003,7,30,,,,4.5,
Drumalbin,01/10/2019 08:00,6.4,18,,,0,,88,,80,-,1004,8,40,,,,4.6,
Drumalbin,01/10/2019 09:00,6.3,16,,,0,,90,,50,-,1004,3,40,,,,4.8,
Drumalbin,01/10/2019 10:00,8.2,21,,,0,,75,,60,-,1005,3,65,,,,4.2,
Drumalbin,01/10/2019 11:00,7.9,21,,,0,,83,29,60,-,1005,1,45,,,,5.2,
Drumalbin,01/10/2019 12:00,8.5,20,,,0,0.2,78,29,50,-,1006,7,60,,,,5,
Drumalbin,01/10/2019 13:00,8.4,20,,,0,,76,,50,-,1006,1,50,,,,4.5,
Drumalbin,01/10/2019 14:00,9.2,16,,,0,,66,,50,-,1007,1,55,,,,3.2,
Drumalbin,01/10/2019 15:00,9.7,14,,,0,,62,,60,-,1008,5,60,,,,2.8,
Drumalbin,01/10/2019 16:00,9.5,9,,,0,,63,,40,-,1008,2,70,,,,3,
Drumalbin,01/10/2019 17:00,8.4,7,,,0,,68,,20,-,1009,,65,,,,3,
Drumalbin,01/10/2019 18:00,6.7,5,,10.2,0,0,75,,20,-,1010,6,70,,,,2.6,
Drumalbin,01/10/2019 19:00,6.3,3,,,0,,83,,310,-,1011,3,65,,,,3.7,
Drumalbin,01/10/2019 20:00,5.9,6,,,0,,82,,60,-,1012,7,75,,,,3.1,
Drumalbin,01/10/2019 21:00,5.9,1,,,0,,82,,290,-,1012,8,75,,,,3.2,
Drumalbin,01/10/2019 22:00,5.6,2,,,0,,82,,310,-,1013,8,75,,,,2.9,
Drumalbin,01/10/2019 23:00,4.8,1,,,0,,87,,270,-,1014,7,75,,,,2.9,
Drumalbin,02/10/2019 00:00,3.9,2,,,0,0,87,,270,-,1015,2,75,,,,2,
Drumalbin,02/10/2019 01:00,3.3,3,,,0,,86,,100,-,1015,0,75,,,,1.3,
Drumalbin,02/10/2019 02:00,2.5,2,,,0,,88,,200,-,1016,0,75,,,,0.8,
Drumalbin,02/10/2019 03:00,1.6,3,,,0,,94,,230,-,1016,0,75,,,,0.8,
Drumalbin,02/10/2019 04:00,1.5,3,,,0,,93,,260,-,1016,0,75,,,,0.6,
Drumalbin,02/10/2019 05:00,1.4,3,,,0,,94,,270,-,1016,,75,,,,0.6,
Drumalbin,02/10/2019 06:00,0.7,6,0.3,,0,0,97,,250,-,1017,0,75,,,,0.3,
Drumalbin,02/10/2019 07:00,1,3,,,0,,95,,250,-,1018,,75,,,,0.3,
Drumalbin,02/10/2019 08:00,3.3,6,,,0.2,,87,,240,-,1018,0,75,,,,1.4,
Drumalbin,02/10/2019 09:00,5.3,7,,,0,,76,,270,-,1019,0,75,,,,1.5,
Drumalbin,02/10/2019 10:00,7.6,10,,,0,,72,,300,-,1019,0,75,,,,2.9,
Drumalbin,02/10/2019 11:00,8.6,9,,,0,,69,,310,-,1020,,45,,,,3.3,
Drumalbin,02/10/2019 12:00,9.7,12,,,0,0.2,63,,330,-,1020,1,75,,,,3.1,
Drumalbin,02/10/2019 13:00,10.3,7,,,0,,60,,320,-,1020,6,75,,,,3.1,
Drumalbin,02/10/2019 14:00,10.7,8,,,0,,60,,310,-,1020,1,65,,,,3.3,
Drumalbin,02/10/2019 15:00,10.5,9,,,0,,62,,290,-,1020,1,65,,,,3.7,
Drumalbin,02/10/2019 16:00,10.5,8,,,0,,62,,290,-,1020,,65,,,,3.7,
Drumalbin,02/10/2019 17:00,10.2,6,,,0,,66,,290,-,1020,,60,,,,4.2,
Drumalbin,02/10/2019 18:00,6.5,3,,10.9,0,0,77,,230,-,1021,2,60,,,,2.8,
Drumalbin,02/10/2019 19:00,5.4,3,,,0,,80,,200,-,1021,1,60,,,,2.3,
Drumalbin,02/10/2019 20:00,4.4,3,,,0,,87,,220,-,1022,,40,,,,2.5,
Drumalbin,02/10/2019 21:00,4.3,3,,,0,,84,,230,-,1022,0,55,,,,1.9,
Drumalbin,02/10/2019 22:00,5.4,2,,,0,,82,,200,-,1022,,60,,,,2.6,
Drumalbin,02/10/2019 23:00,2.5,3,,,0,,92,,160,-,1022,0,50,,,,1.4,
Drumalbin,03/10/2019 00:00,1.6,3,,,0,0,96,,120,-,1021,,45,,,,1.1,
Drumalbin,03/10/2019 01:00,1.3,2,,,0,,97,,40,-,1021,0,45,,,,0.9,
Drumalbin,03/10/2019 02:00,0.6,8,,,0,,97,,120,-,1021,1,40,,,,0.2,
Drumalbin,03/10/2019 03:00,0.7,3,,,0,,97,,130,-,1020,0,40,,,,0.3,
Drumalbin,03/10/2019 04:00,0.3,13,,,0,,97,,110,-,1020,0,35,,,,0,
Drumalbin,03/10/2019 05:00,-0.1,9,,,0,,97,,110,-,1019,,40,,,,-0.4,
Drumalbin,03/10/2019 06:00,0,10,-0.2,,0,0,97,,110,-,1019,0,45,,,,-0.4,
Drumalbin,03/10/2019 07:00,0.2,10,,,0,,97,,110,-,1018,0,45,,,,-0.2,
Drumalbin,03/10/2019 08:00,1.6,2,,,0,,97,,130,-,1018,0,50,,,,1.2,
Drumalbin,03/10/2019 09:00,3.6,9,,,0,,91,,110,-,1017,0,60,,,,2.3,
Drumalbin,03/10/2019 10:00,6.3,5,,,0,,91,,130,-,1016,1,60,,,,5,
Drumalbin,03/10/2019 11:00,8.7,10,,,0,,78,,140,-,1015,1,65,,,,5.1,
Drumalbin,03/10/2019 12:00,9.7,16,,,0,0,70,,160,-,1014,1,50,,,,4.5,
Drumalbin,03/10/2019 13:00,9.3,10,,,0,,67,,140,-,1012,,75,,,,3.6,
Drumalbin,03/10/2019 14:00,8.8,12,,,0,,63,,150,-,1011,7,75,,,,2.2,
Drumalbin,03/10/2019 15:00,7.9,13,,,0.2,,74,,150,-,1010,7,24,,,,3.7,
Drumalbin,03/10/2019 16:00,8.3,9,,,0,,78,,130,-,1008,,60,,,,4.8,
Drumalbin,03/10/2019 17:00,8.7,12,,,0,,75,,130,-,1006,8,60,,,,4.6,
Drumalbin,03/10/2019 18:00,8.7,8,,9.9,0,0.2,77,,140,-,1006,8,65,,,,4.9,
Drumalbin,03/10/2019 19:00,7.7,8,,,1.2,,88,,130,-,1004,8,6,,,,5.9,
Drumalbin,03/10/2019 20:00,7.1,10,,,2.8,,95,,110,-,1003,8,4,,,,6.5,
Drumalbin,03/10/2019 21:00,7.2,9,,,3.4,,95,,100,-,1002,8,4,,,,6.5,
Drumalbin,03/10/2019 22:00,7,15,,,4.4,,95,,100,-,1001,7,3,,,,6.4,
Drumalbin,03/10/2019 23:00,6.7,16,,,2.2,,97,,110,-,1001,8,7,,,,6.3,
Drumalbin,04/10/2019 00:00,6.7,14,,,0.4,14,96,,100,-,1000,8,5,,,,6.2,
Drumalbin,04/10/2019 01:00,6.8,10,,,1.2,,97,,100,-,1000,8,7,,,,6.4,
Drumalbin,04/10/2019 02:00,7.1,9,,,0.8,,97,,100,-,1000,8,50,,,,6.7,
Drumalbin,04/10/2019 03:00,7.3,9,,,0,,97,,100,-,999,8,19,,,,6.9,
Drumalbin,04/10/2019 04:00,7.4,10,,,0,,98,,100,-,999,8,4,,,,7.2,
Drumalbin,04/10/2019 05:00,7.6,7,,,0.2,,98,,100,-,1000,8,18,,,,7.4,
Drumalbin,04/10/2019 06:00,7.9,9,6.7,,0,3,97,,100,-,1000,8,75,,,,7.6,
Drumalbin,04/10/2019 07:00,7.8,10,,,0,,97,,100,-,1000,5,75,,,,7.4,
Drumalbin,04/10/2019 08:00,8.8,15,,,0,,96,,90,-,1001,7,60,,,,8.2,
Drumalbin,04/10/2019 09:00,9.1,13,,,0,,95,,90,-,1002,8,60,,,,8.4,
Drumalbin,04/10/2019 10:00,9.4,15,,,0,,95,,90,-,1003,8,40,,,,8.7,
Drumalbin,04/10/2019 11:00,9.7,15,,,0,,96,,70,-,1004,8,4,,,,9.2,
Drumalbin,04/10/2019 12:00,9.9,15,,,0,0,94,,80,-,1005,8,6,,,,9.1,
Drumalbin,04/10/2019 13:00,10.4,17,,,0,,91,,80,-,1006,7,35,,,,9.1,
Drumalbin,04/10/2019 14:00,10.4,16,,,0,,87,,90,-,1007,8,65,,,,8.5,
Drumalbin,04/10/2019 15:00,9.8,10,,,0,,90,,100,-,1008,8,45,,,,8.3,
Drumalbin,04/10/2019 16:00,10.6,9,,,0,,85,,90,-,1009,7,65,,,,8.2,
Drumalbin,04/10/2019 17:00,10,10,,,0,,86,,70,-,1010,8,65,,,,7.9,
Drumalbin,04/10/2019 18:00,9.3,9,,11.3,0,0,92,,90,-,1011,2,65,,,,8.2,
Drumalbin,04/10/2019 19:00,9,3,,,0,,94,,100,-,1012,2,50,,,,8.1,
Drumalbin,04/10/2019 20:00,9.2,7,,,0,,92,,70,-,1012,3,35,,,,8.1,
Drumalbin,04/10/2019 21:00,8.8,7,,,0,,96,,80,-,1012,7,40,,,,8.2,
Drumalbin,04/10/2019 22:00,8.7,10,,,0,,96,,100,-,1013,7,45,,,,8.2,
Drumalbin,04/10/2019 23:00,8.5,6,,,0,,97,,100,-,1014,8,24,,,,8.2,
Drumalbin,05/10/2019 00:00,8.7,12,,,0,0,97,,90,-,1014,7,24,,,,8.4,
Drumalbin,05/10/2019 01:00,8.6,12,,,0,,96,,100,-,1013,8,35,,,,8,
Drumalbin,05/10/2019 02:00,8.8,3,,,0,,94,,120,-,1014,8,45,,,,7.9,
Drumalbin,05/10/2019 03:00,8.8,8,,,0,,94,,120,-,1014,8,40,,,,7.9,
Drumalbin,05/10/2019 04:00,8.7,5,,,0,,91,,100,-,1014,8,55,,,,7.4,
Drumalbin,05/10/2019 05:00,8.9,12,,,0,,87,,120,-,1013,8,70,,,,6.9,
Drumalbin,05/10/2019 06:00,8.9,10,8.5,,0,0,85,,110,-,1014,8,75,,,,6.6,
Drumalbin,05/10/2019 07:00,8.9,3,,,0,,85,,140,-,1014,8,75,,,,6.6,
Drumalbin,05/10/2019 08:00,9.1,6,,,0,,87,,130,-,1014,6,75,,,,7.1,
Drumalbin,05/10/2019 09:00,9.6,6,,,0,,87,,130,-,1014,8,75,,,,7.6,
Drumalbin,05/10/2019 10:00,10,8,,,0,,87,,110,-,1014,6,75,,,,8,
Drumalbin,05/10/2019 11:00,10.2,6,,,0,,87,,150,-,1014,1,45,,,,8.3,
Drumalbin,05/10/2019 12:00,10.6,12,,,0,0,83,,150,-,1013,8,75,,,,8,
Drumalbin,05/10/2019 13:00,11,13,,,0,,81,,160,-,1013,8,75,,,,8,
Drumalbin,05/10/2019 14:00,11,10,,,0,,80,,150,-,1013,8,70,,,,7.8,
Drumalbin,05/10/2019 15:00,11.2,10,,,0,,82,,150,-,1012,8,70,,,,8.3,
Drumalbin,05/10/2019 16:00,11.6,9,,,0,,81,,140,-,1012,7,55,,,,8.6,
Drumalbin,05/10/2019 17:00,11.3,7,,,0,,80,,130,-,1011,8,65,,,,8,
Drumalbin,05/10/2019 18:00,11,8,,11.7,0,0,82,,120,-,1011,8,55,,,,8.1,
Drumalbin,05/10/2019 19:00,10.3,8,,,0.2,,91,,130,-,1011,7,4,,,,8.9,
Drumalbin,05/10/2019 20:00,10,8,,,1,,94,,120,-,1011,7,7,,,,9.2,
Drumalbin,05/10/2019 21:00,10.2,7,,,1.2,,92,,120,-,1010,7,10,,,,9.1,
Drumalbin,05/10/2019 22:00,10.5,13,,,0.4,,91,,150,-,1009,8,14,,,,9.2,
Drumalbin,05/10/2019 23:00,10.5,18,,,1,,93,,160,-,1008,8,7,,,,9.5,
Drumalbin,06/10/2019 00:00,10.3,22,,,2,6,94,31,160,-,1007,8,8,,,,9.4,
Drumalbin,06/10/2019 01:00,10.2,15,,,2.6,,93,29,150,-,1007,8,7,,,,9.2,
Drumalbin,06/10/2019 02:00,10,8,,,3.4,,93,,140,-,1006,7,5,,,,9,
Drumalbin,06/10/2019 03:00,9.7,10,,,3,,92,,140,-,1006,1,5,,,,8.6,
Drumalbin,06/10/2019 04:00,9.6,9,,,1,,91,,120,-,1006,8,75,,,,8.3,
Drumalbin,06/10/2019 05:00,8.8,9,,,0.2,,93,,120,-,1006,7,3,,,,7.8,
Drumalbin,06/10/2019 06:00,8.3,12,8.3,,2,12,96,,90,-,1006,7,6,,,,7.8,
Drumalbin,06/10/2019 07:00,8.2,8,,,2.2,,96,,110,-,1006,1,1,,,,7.7,
Drumalbin,06/10/2019 08:00,8.2,6,,,3.4,,98,,40,-,1007,8,7,,,,8,
Drumalbin,06/10/2019 09:00,8.6,7,,,1.2,,99,,40,-,1008,7,8,,,,8.5,
Drumalbin,06/10/2019 10:00,9.1,8,,,0.4,,100,,20,-,1009,8,6,,,,9.1,
Drumalbin,06/10/2019 11:00,10,9,,,1,,100,,40,-,1010,8,4,,,,10,
Drumalbin,06/10/2019 12:00,10.1,14,,,0.2,8,97,,70,-,1010,8,40,,,,9.7,
Drumalbin,06/10/2019 13:00,10.3,13,,,0,,94,,90,-,1011,8,22,,,,9.4,
Drumalbin,06/10/2019 14:00,10.3,14,,,0.6,,92,,100,-,1012,7,50,,,,9.1,
Drumalbin,06/10/2019 15:00,9.5,12,,,0,,90,,110,-,1013,8,29,,,,8.1,
Drumalbin,06/10/2019 16:00,9.7,5,,,0,,86,,120,-,1014,8,75,,,,7.6,
Drumalbin,06/10/2019 17:00,9.5,7,,,0,,89,,120,-,1015,8,75,,,,7.8,
Drumalbin,06/10/2019 18:00,9.2,6,,10.6,0,1,90,,110,-,1015,7,75,,,,7.8,
Drumalbin,06/10/2019 19:00,9.2,9,,,0,,90,,120,-,1015,7,60,,,,7.8,
Drumalbin,06/10/2019 20:00,8.7,7,,,0,,91,,120,-,1014,3,50,,,,7.4,
Drumalbin,06/10/2019 21:00,9.8,8,,,0,,86,,150,-,1015,7,75,,,,7.6,
Drumalbin,06/10/2019 22:00,9.8,10,,,0,,87,,160,-,1015,8,65,,,,7.8,
Drumalbin,06/10/2019 23:00,9.7,15,,,0,,91,,150,-,1014,8,12,,,,8.4,
Drumalbin,07/10/2019 00:00,10.3,13,,,0,0,89,,150,-,1013,6,60,,,,8.6,
Drumalbin,07/10/2019 01:00,10.5,25,,,0,,87,36,160,-,1012,2,55,,,,8.5,
Drumalbin,07/10/2019 02:00,10.5,22,,,0,,88,43,180,-,1012,8,50,,,,8.7,
Drumalbin,07/10/2019 03:00,10.4,23,,,0,,89,39,180,-,1011,8,45,,,,8.8,
Drumalbin,07/10/2019 04:00,10.1,22,,,0,,92,33,190,-,1010,8,24,,,,9,
Drumalbin,07/10/2019 05:00,10.3,22,,,0.2,,90,43,190,-,1009,6,50,,,,8.8,
Drumalbin,07/10/2019 06:00,10.5,32,8.7,,0,0.2,85,47,190,-,1008,2,50,,,,8.2,
Drumalbin,07/10/2019 07:00,10.5,31,,,0,,83,49,190,-,1007,8,45,,,,7.8,
Drumalbin,07/10/2019 08:00,10.3,33,,,0,,78,46,190,-,1007,8,60,,,,6.8,
Drumalbin,07/10/2019 09:00,9,37,,,0,,90,53,190,-,1006,8,3,,,,7.5,
Drumalbin,07/10/2019 10:00,9.2,31,,,0,,91,49,180,-,1005,8,13,,,,7.9,
Drumalbin,07/10/2019 11:00,9.6,26,,,0,,94,43,180,-,1004,8,4,,,,8.8,
Drumalbin,07/10/2019 12:00,10.3,22,,,0,0,95,33,190,-,1004,8,9,,,,9.6,
Drumalbin,07/10/2019 13:00,12,16,,,0.2,,92,30,210,-,1003,2,75,,,,10.9,
Drumalbin,07/10/2019 14:00,13.1,20,,,0,,86,,220,-,1003,2,45,,,,10.9,
Drumalbin,07/10/2019 15:00,13.5,18,,,0,,74,,240,-,1002,6,25,,,,9,
Drumalbin,07/10/2019 16:00,13.3,16,,,0,,75,,230,-,1002,0,23,,,,9,
Drumalbin,07/10/2019 17:00,12.2,15,,,0,,78,,230,-,1002,3,23,,,,8.5,
Drumalbin,07/10/2019 18:00,11.3,15,,14,0,0.2,82,,230,-,1002,4,23,,,,8.5,
Drumalbin,07/10/2019 19:00,10.8,16,,,0,,83,,230,-,1002,0,23,,,,8.2,
Drumalbin,07/10/2019 20:00,10.5,16,,,0,,84,,220,-,1002,2,23,,,,8,
Drumalbin,07/10/2019 21:00,10.3,18,,,0,,85,,220,-,1001,1,23,,,,7.9,
Drumalbin,07/10/2019 22:00,9.9,18,,,0,,86,,230,-,1001,,22,,,,7.7,
Drumalbin,07/10/2019 23:00,9.6,22,,,0,,85,30,220,-,1000,,24,,,,7.3,
Drumalbin,08/10/2019 00:00,9.6,20,,,0,0,85,29,230,-,1000,3,24,,,,7.3,
Drumalbin,08/10/2019 01:00,9.8,16,,,0,,84,,230,-,1000,6,23,,,,7.4,
Drumalbin,08/10/2019 02:00,10,16,,,0,,85,,230,-,999,8,24,,,,7.6,
Drumalbin,08/10/2019 03:00,9.4,17,,,0,,83,,220,-,998,1,26,,,,6.8,
Drumalbin,08/10/2019 04:00,9.3,18,,,0,,86,,220,-,998,0,27,,,,7.2,
Drumalbin,08/10/2019 05:00,9.4,17,,,0,,85,,220,-,997,1,29,,,,7.1,
Drumalbin,08/10/2019 06:00,9.1,17,8.9,,0.8,0.8,92,,220,-,997,7,28,,,,7.9,
Drumalbin,08/10/2019 07:00,9.5,20,,,0,,83,31,230,-,996,8,40,,,,6.9,
Drumalbin,08/10/2019 08:00,8.8,17,,,0.2,,84,37,230,-,996,5,35,,,,6.4,
Drumalbin,08/10/2019 09:00,9.8,16,,,0,,83,,230,-,996,4,30,,,,7.2,
Drumalbin,08/10/2019 10:00,10.2,15,,,0,,76,31,230,-,996,7,29,,,,6.3,
Drumalbin,08/10/2019 11:00,10.5,21,,,0,,75,36,230,-,995,7,30,,,,6.4,
Drumalbin,08/10/2019 12:00,11,24,,,0,0.2,70,36,240,-,994,8,30,,,,5.9,
Drumalbin,08/10/2019 13:00,11.5,25,,,0,,72,38,230,-,994,1,35,,,,6.8,
Drumalbin,08/10/2019 14:00,11.9,25,,,0,,72,39,230,-,993,3,35,,,,7.2,
Drumalbin,08/10/2019 15:00,11.2,26,,,0,,73,41,240,-,992,7,17,,,,6.7,
Drumalbin,08/10/2019 16:00,10.1,25,,,0.6,,84,39,240,-,993,1,16,,,,7.6,
Drumalbin,08/10/2019 17:00,9.4,22,,,0.2,,87,38,240,-,993,1,45,,,,7.5,
Drumalbin,08/10/2019 18:00,9,22,,12,0,0.8,85,36,240,-,993,5,35,,,,6.7,
Drumalbin,08/10/2019 19:00,8.9,20,,,0.2,,92,31,230,-,993,8,2,,,,7.7,
Drumalbin,08/10/2019 20:00,9.4,23,,,0.2,,88,35,240,-,993,8,30,,,,7.6,
Drumalbin,08/10/2019 21:00,9.2,20,,,0.2,,90,32,240,-,993,8,7,,,,7.8,
Drumalbin,08/10/2019 22:00,9.4,22,,,0.4,,89,32,240,-,993,8,28,,,,7.7,
Drumalbin,08/10/2019 23:00,9,20,,,0.4,,93,30,250,-,994,8,3,,,,8,
Drumalbin,09/10/2019 00:00,8.8,23,,,0.2,2,94,35,250,-,994,8,2,,,,7.9,
Drumalbin,09/10/2019 01:00,8.9,23,,,0.4,,91,33,260,-,994,8,23,,,,7.6,
Drumalbin,09/10/2019 02:00,8.8,23,,,0,,91,35,260,-,994,1,21,,,,7.5,
Drumalbin,09/10/2019 03:00,8.5,18,,,0,,90,33,250,-,994,5,22,,,,7,
Drumalbin,09/10/2019 04:00,8.6,22,,,0.6,,90,32,250,-,994,8,20,,,,7.2,
Drumalbin,09/10/2019 05:00,8.3,17,,,0.6,,95,30,240,-,994,8,4,,,,7.7,
Drumalbin,09/10/2019 06:00,8.2,18,8.2,,0.4,2,92,,240,-,994,7,14,,,,7.1,
Drumalbin,09/10/2019 07:00,8.1,18,,,0,,91,30,240,-,994,8,12,,,,6.8,
Drumalbin,09/10/2019 08:00,8.5,20,,,0,,89,30,240,-,994,8,21,,,,6.9,
Drumalbin,09/10/2019 09:00,8.8,22,,,0,,87,37,260,-,994,8,35,,,,6.8,
Drumalbin,09/10/2019 10:00,9,21,,,0,,86,33,250,-,995,7,30,,,,6.8,
Drumalbin,09/10/2019 11:00,9,21,,,0.4,,89,33,260,-,995,8,35,,,,7.3,
Drumalbin,09/10/2019 12:00,9.6,25,,,0,0.4,86,39,260,-,994,7,17,,,,7.4,
Drumalbin,09/10/2019 13:00,9.4,28,,,0.6,,85,39,260,-,995,8,13,,,,7.1,
Drumalbin,09/10/2019 14:00,9.8,24,,,0,,80,39,260,-,995,2,30,,,,6.6,
Drumalbin,09/10/2019 15:00,9,23,,,0,,83,33,260,-,995,2,12,,,,6.4,
Drumalbin,09/10/2019 16:00,9,18,,,0.2,,84,36,250,-,996,2,55,,,,6.5,
Drumalbin,09/10/2019 17:00,8.4,16,,,0,,82,30,240,-,996,3,45,,,,5.6,
Drumalbin,09/10/2019 18:00,8.3,17,,10.2,0,0.6,87,,250,-,996,1,30,,,,6.3,
Drumalbin,09/10/2019 19:00,8.4,21,,,0,,87,33,260,-,996,4,30,,,,6.5,
Drumalbin,09/10/2019 20:00,7.8,22,,,0.8,,94,38,260,-,996,6,5,,,,6.9,
Drumalbin,09/10/2019 21:00,8.2,21,,,0,,90,31,250,-,996,4,29,,,,6.7,
Drumalbin,09/10/2019 22:00,8.4,20,,,0.2,,90,31,250,-,996,6,30,,,,7,
Drumalbin,09/10/2019 23:00,8.6,22,,,0,,91,33,250,-,996,8,24,,,,7.3,
Drumalbin,10/10/2019 00:00,8.5,23,,,0,1,92,36,250,-,997,8,17,,,,7.4,
Drumalbin,10/10/2019 01:00,8.5,25,,,0,,93,36,260,-,997,8,13,,,,7.5,
Drumalbin,10/10/2019 02:00,8.7,23,,,0.2,,94,36,260,-,997,8,15,,,,7.9,
Drumalbin,10/10/2019 03:00,9,23,,,0.4,,94,32,260,-,997,2,35,,,,8.2,
Drumalbin,10/10/2019 04:00,8.8,22,,,1.2,,97,33,260,-,998,2,15,,,,8.4,
Drumalbin,10/10/2019 05:00,9.1,20,,,1.2,,96,29,260,-,999,7,45,,,,8.5,
Drumalbin,10/10/2019 06:00,9.1,16,7.5,,0.4,3,95,,270,-,999,8,2,,,,8.4,
Drumalbin,10/10/2019 07:00,9,16,,,0.2,,95,,260,-,1000,7,21,,,,8.3,
Drumalbin,10/10/2019 08:00,8.9,17,,,0.4,,94,,260,-,1001,3,5,,,,8.1,
Drumalbin,10/10/2019 09:00,9.2,21,,,0.2,,90,30,250,-,1001,6,21,,,,7.7,
Drumalbin,10/10/2019 10:00,9.3,20,,,0,,89,32,250,-,1002,6,27,,,,7.7,
Drumalbin,10/10/2019 11:00,9.8,17,,,0,,86,30,240,-,1002,3,30,,,,7.6,
Drumalbin,10/10/2019 12:00,10.2,15,,,0,0.8,83,,240,-,1001,6,35,,,,7.6,
Drumalbin,10/10/2019 13:00,9.8,16,,,0,,86,30,240,-,1001,7,24,,,,7.7,
Drumalbin,10/10/2019 14:00,9.4,14,,,0.4,,92,,210,-,1000,8,12,,,,8.2,
Drumalbin,10/10/2019 15:00,9.1,8,,,2.4,,96,,210,-,998,6,1,,,,8.6,
Drumalbin,10/10/2019 16:00,10.7,20,,,1,,94,29,220,-,997,6,17,,,,9.8,
Drumalbin,10/10/2019 17:00,11.7,21,,,0,,88,31,220,-,997,1,35,,,,9.8,
Drumalbin,10/10/2019 18:00,11.7,17,,12,0,4.2,86,30,220,-,997,6,30,,,,9.6,
Drumalbin,10/10/2019 19:00,11,14,,,0,,88,29,210,-,996,2,25,,,,9.1,
Drumalbin,10/10/2019 20:00,10.9,16,,,0,,86,,210,-,996,8,20,,,,8.8,
Drumalbin,10/10/2019 21:00,10.2,14,,,0.8,,93,36,230,-,996,8,17,,,,9.2,
Drumalbin,10/10/2019 22:00,9.2,13,,,2.8,,95,,250,-,996,8,1,,,,8.5,
Drumalbin,10/10/2019 23:00,10,16,,,2.4,,94,36,220,-,996,5,30,,,,9.1,
Drumalbin,11/10/2019 00:00,10.1,17,,,0,6,90,30,220,-,995,4,30,,,,8.6,
Drumalbin,11/10/2019 01:00,9.6,15,,,0,,87,,230,-,996,1,28,,,,7.6,
Drumalbin,11/10/2019 02:00,9,16,,,0,,88,,220,-,995,5,26,,,,7.2,
Drumalbin,11/10/2019 03:00,8.6,20,,,0,,88,,220,-,995,1,26,,,,6.8,
Drumalbin,11/10/2019 04:00,8.1,16,,,0,,89,,220,-,995,1,26,,,,6.4,
Drumalbin,11/10/2019 05:00,8.3,21,,,0,,88,,220,-,995,3,25,,,,6.5,
Drumalbin,11/10/2019 06:00,8.3,21,8,,0,0,87,29,220,-,995,6,27,,,,6.4,
Drumalbin,11/10/2019 07:00,8.4,18,,,0,,86,30,220,-,995,4,27,,,,6.3,
Drumalbin,11/10/2019 08:00,8.5,16,,,0,,87,,220,-,995,2,27,,,,6.5,
Drumalbin,11/10/2019 09:00,9.5,16,,,0,,84,,230,-,995,7,27,,,,7.1,
Drumalbin,11/10/2019 10:00,10,17,,,0,,79,,240,-,995,6,30,,,,6.7,
Drumalbin,11/10/2019 11:00,10.4,17,,,0,,76,29,250,-,995,8,35,,,,6.5,
Drumalbin,11/10/2019 12:00,10.8,15,,,0,0,74,32,240,-,995,8,40,,,,6.5,
Drumalbin,11/10/2019 13:00,11,21,,,0,,72,33,250,-,995,7,40,,,,6.2,
Drumalbin,11/10/2019 14:00,11.2,20,,,0,,72,33,250,-,995,7,45,,,,6.5,
Drumalbin,11/10/2019 15:00,11.8,21,,,0,,68,35,250,-,995,5,50,,,,6.3,
Drumalbin,11/10/2019 16:00,10.8,17,,,0,,73,36,250,-,995,1,70,,,,6.2,
Drumalbin,11/10/2019 17:00,9.9,13,,,0,,79,,230,-,995,5,50,,,,6.6,
Drumalbin,11/10/2019 18:00,8.5,13,,12.1,0,0,81,,230,-,996,,60,,,,5.6,
Drumalbin,11/10/2019 19:00,8.5,21,,,0,,83,,220,-,996,1,50,,,,5.9,
Drumalbin,11/10/2019 20:00,8.8,23,,,0,,81,33,230,-,996,1,50,,,,5.9,
Drumalbin,11/10/2019 21:00,9.2,23,,,0,,80,33,240,-,996,7,40,,,,6.1,
Drumalbin,11/10/2019 22:00,8.7,21,,,0.2,,86,33,250,-,996,8,14,,,,6.6,
Drumalbin,11/10/2019 23:00,8.4,21,,,0.2,,91,31,260,-,997,2,50,,,,7.1,
Drumalbin,12/10/2019 00:00,8.3,12,,,0,0.4,94,30,250,-,998,8,19,,,,7.5,
Drumalbin,12/10/2019 01:00,8.3,10,,,0.2,,93,,240,-,999,1,20,,,,7.3,
Drumalbin,12/10/2019 02:00,8.1,13,,,0.2,,93,,250,-,999,7,40,,,,7.1,
Drumalbin,12/10/2019 03:00,7.2,12,,,0,,94,,240,-,999,1,35,,,,6.4,
Drumalbin,12/10/2019 04:00,7.2,12,,,0,,93,,240,-,1000,,40,,,,6.2,
Drumalbin,12/10/2019 05:00,7.5,13,,,0,,93,,240,-,1000,7,45,,,,6.5,
Drumalbin,12/10/2019 06:00,7.5,10,6.7,,0,0.4,95,,250,-,1000,8,6,,,,6.9,
Drumalbin,12/10/2019 07:00,7.7,13,,,0,,94,,240,-,1001,3,40,,,,6.8,
Drumalbin,12/10/2019 08:00,8.2,13,,,0.2,,93,,250,-,1001,7,45,,,,7.2,
Drumalbin,12/10/2019 09:00,8.7,15,,,0,,90,,240,-,1002,8,50,,,,7.2,
Drumalbin,12/10/2019 10:00,9.9,15,,,0,,85,,240,-,1002,7,55,,,,7.6,
Drumalbin,12/10/2019 11:00,10.8,15,,,0,,83,,240,-,1002,8,70,,,,8.1,
Drumalbin,12/10/2019 12:00,11.2,17,,,0,0.2,76,,250,-,1003,8,65,,,,7.2,
Drumalbin,12/10/2019 13:00,11.9,17,,,0,,67,,240,-,1002,4,60,,,,6,
Drumalbin,12/10/2019 14:00,11.4,16,,,0,,70,,260,-,1002,7,65,,,,6.3,
Drumalbin,12/10/2019 15:00,11.5,14,,,0,,70,,250,-,1002,4,65,,,,6.4,
Drumalbin,12/10/2019 16:00,11.3,12,,,0,,71,,230,-,1002,1,75,,,,6.4,
Drumalbin,12/10/2019 17:00,9.5,9,,,0,,78,,230,-,1003,0,75,,,,6,
Drumalbin,12/10/2019 18:00,8.5,10,,12.4,0,0,80,,220,-,1003,3,75,,,,5.4,
Drumalbin,12/10/2019 19:00,8.1,14,,,0,,86,,210,-,1003,6,75,,,,6,
Drumalbin,12/10/2019 20:00,7.6,10,,,0,,88,,210,-,1003,1,75,,,,5.8,
Drumalbin,12/10/2019 21:00,7.7,13,,,0,,87,,210,-,1004,5,70,,,,5.8,
Drumalbin,12/10/2019 22:00,7.4,12,,,0,,89,,210,-,1004,3,60,,,,5.8,
Drumalbin,12/10/2019 23:00,7.7,10,,,0,,91,,210,-,1004,1,40,,,,6.4,
Drumalbin,13/10/2019 00:00,6.4,1,,,0,0,95,,270,-,1004,,45,,,,5.8,
Drumalbin,13/10/2019 01:00,7.7,3,,,0,,91,,250,-,1003,7,50,,,,6.4,
Drumalbin,13/10/2019 02:00,8.5,6,,,0,,90,,160,-,1003,7,55,,,,7.1,
Drumalbin,13/10/2019 03:00,7.9,2,,,0,,90,,20,-,1003,2,70,,,,6.4,
Drumalbin,13/10/2019 04:00,7.7,9,,,0,,93,,180,-,1003,1,35,,,,6.7,
Drumalbin,13/10/2019 05:00,7.8,6,,,0,,90,,140,-,1002,6,50,,,,6.4,
Drumalbin,13/10/2019 06:00,6.2,3,6,,0,0,93,,70,-,1002,3,50,,,,5.3,
Drumalbin,13/10/2019 07:00,6.8,2,,,0,,93,,100,-,1002,7,55,,,,5.9,
Drumalbin,13/10/2019 08:00,6.9,3,,,0,,93,,60,-,1002,1,40,,,,6,
Drumalbin,13/10/2019 09:00,6.8,5,,,0,,97,,120,-,1002,3,35,,,,6.4,
Drumalbin,13/10/2019 10:00,7.7,6,,,0,,95,,70,-,1002,7,45,,,,7,
Drumalbin,13/10/2019 11:00,9.1,8,,,0,,90,,110,-,1001,7,45,,,,7.7,
Drumalbin,13/10/2019 12:00,10,6,,,0,0,89,,80,-,1000,6,45,,,,8.4,
Drumalbin,13/10/2019 13:00,9.9,6,,,0,,88,,80,-,1000,6,45,,,,8.1,
Drumalbin,13/10/2019 14:00,9.9,6,,,0,,89,,70,-,1000,8,23,,,,8.3,
Drumalbin,13/10/2019 15:00,9.7,6,,,0.8,,94,,70,-,1000,8,7,,,,8.9,
Drumalbin,13/10/2019 16:00,9.3,3,,,0.6,,97,,40,-,1000,8,5,,,,8.9,
Drumalbin,13/10/2019 17:00,8.8,5,,,3.6,,97,,20,-,1000,8,4,,,,8.5,
Drumalbin,13/10/2019 18:00,8.7,1,,10,1,6,99,,320,-,1001,8,1,,,,8.6,
Drumalbin,13/10/2019 19:00,8.4,5,,,2,,100,,270,-,1002,8,3,,,,8.4,
Drumalbin,13/10/2019 20:00,8.1,7,,,1,,99,,270,-,1003,8,6,,,,8,
Drumalbin,13/10/2019 21:00,7.9,7,,,0,,99,,280,-,1004,7,10,,,,7.8,
Drumalbin,13/10/2019 22:00,7.7,6,,,0,,97,,250,-,1004,8,25,,,,7.3,
Drumalbin,13/10/2019 23:00,7.4,8,,,0,,96,,230,-,1005,7,28,,,,6.9,
Drumalbin,14/10/2019 00:00,7.3,7,,,0,3,95,,230,-,1006,7,55,,,,6.6,
Drumalbin,14/10/2019 01:00,6.9,7,,,0,,96,,220,-,1006,7,75,,,,6.4,
Drumalbin,14/10/2019 02:00,7.1,9,,,0,,93,,220,-,1007,8,75,,,,6.1,
Drumalbin,14/10/2019 03:00,6,10,,,0,,94,,220,-,1007,3,45,,,,5.2,
Drumalbin,14/10/2019 04:00,5.3,6,,,0,,95,,210,-,1007,,4,,,,4.6,
Drumalbin,14/10/2019 05:00,5.1,1,,,0,,93,,70,-,1008,0,65,,,,4.1,
Drumalbin,14/10/2019 06:00,4.2,2,4.2,,0,0,93,,250,-,1008,,7,,,,3.2,
Drumalbin,14/10/2019 07:00,5.2,7,,,0,,95,,220,-,1008,2,75,,,,4.6,
Drumalbin,14/10/2019 08:00,5.8,6,,,0,,92,,220,-,1008,4,20,,,,4.7,
Drumalbin,14/10/2019 09:00,4.6,1,,,0,,97,,10,-,1009,1,29,,,,4.2,
Drumalbin,14/10/2019 10:00,6.8,3,,,0,,95,,80,-,1009,0,29,,,,6.1,
Drumalbin,14/10/2019 11:00,8.8,3,,,0.2,,85,,90,-,1008,5,50,,,,6.5,
Drumalbin,14/10/2019 12:00,10.3,6,,,0,0.2,86,,110,-,1008,6,50,,,,8.1,
Drumalbin,14/10/2019 13:00,11.3,5,,,0,,76,,130,-,1007,7,55,,,,7.3,
Drumalbin,14/10/2019 14:00,12.2,8,,,0,,71,,160,-,1007,5,75,,,,7.2,
Drumalbin,14/10/2019 15:00,12,7,,,0,,73,,90,-,1006,6,70,,,,7.5,
Drumalbin,14/10/2019 16:00,11.4,3,,,0,,75,,150,-,1006,4,70,,,,7.3,
Drumalbin,14/10/2019 17:00,9.9,7,,,0,,85,,100,-,1006,4,50,,,,7.6,
Drumalbin,14/10/2019 18:00,8.1,7,,12.4,0,0,91,,120,-,1006,0,45,,,,6.8,
Drumalbin,14/10/2019 19:00,7.7,9,,,0,,94,,110,-,1007,0,40,,,,6.9,
Drumalbin,14/10/2019 20:00,7,8,,,0,,97,,100,-,1006,0,30,,,,6.6,
Drumalbin,14/10/2019 21:00,7.8,9,,,0,,92,,110,-,1006,0,35,,,,6.7,
Drumalbin,14/10/2019 22:00,6.5,9,,,0,,97,,100,-,1006,,18,,,,6.1,
Drumalbin,14/10/2019 23:00,6,1,,,0,,95,,340,-,1005,1,10,,,,5.4,
Drumalbin,15/10/2019 00:00,6.1,8,,,0,0,98,,110,-,1005,,9,,,,5.9,
Drumalbin,15/10/2019 01:00,4.1,1,,,0,,97,,360,-,1005,4,0,,,,3.8,
Drumalbin,15/10/2019 02:00,3.7,1,,,0,,98,,360,-,1005,6,0,,,,3.5,
Drumalbin,15/10/2019 03:00,5.5,5,,,0,,100,,100,-,1004,7,0,,,,5.5,
Drumalbin,15/10/2019 04:00,3.5,1,,,0,,99,,80,-,1004,8,0,,,,3.4,
Drumalbin,15/10/2019 05:00,5.1,5,,,0,,100,,120,-,1004,6,2,,,,5.1,
Drumalbin,15/10/2019 06:00,4.1,2,2.5,,0,0,100,,270,-,1004,9,0,,,,4.1,
Drumalbin,15/10/2019 07:00,4.8,1,,,0,,100,,170,-,1003,9,0,,,,4.8,
Drumalbin,15/10/2019 08:00,4.9,1,,,0,,100,,300,-,1003,9,0,,,,4.9,
Drumalbin,15/10/2019 09:00,6.2,5,,,0,,100,,110,-,1003,9,0,,,,6.2,
Drumalbin,15/10/2019 10:00,7.6,6,,,0,,100,,90,-,1002,8,13,,,,7.6,
Drumalbin,15/10/2019 11:00,8.8,6,,,0,,96,,80,-,1002,8,17,,,,8.2,
Drumalbin,15/10/2019 12:00,10.3,7,,,0,0,85,,110,-,1001,0,55,,,,8,
Drumalbin,15/10/2019 13:00,11.3,7,,,0,,80,,100,-,1001,1,75,,,,8,
Drumalbin,15/10/2019 14:00,11.9,5,,,0,,79,,140,-,1001,7,75,,,,8.4,
Drumalbin,15/10/2019 15:00,11,12,,,0,,81,,190,-,1001,7,75,,,,7.9,
Drumalbin,15/10/2019 16:00,10.4,10,,,0,,81,,190,-,1001,7,75,,,,7.4,
Drumalbin,15/10/2019 17:00,10,6,,,0,,83,,210,-,1000,8,75,,,,7.4,
Drumalbin,15/10/2019 18:00,9.6,9,,12.6,0,0,90,,190,-,1000,8,75,,,,8.1,
Drumalbin,15/10/2019 19:00,8.3,5,,,0,,90,,150,-,1000,2,75,,,,6.9,
Drumalbin,15/10/2019 20:00,8.9,5,,,0,,89,,150,-,1000,7,75,,,,7.3,
Drumalbin,15/10/2019 21:00,8.3,5,,,0,,89,,150,-,1000,7,60,,,,6.6,
Drumalbin,15/10/2019 22:00,9.3,14,,,0,,90,,170,-,999,8,26,,,,7.8,
Drumalbin,15/10/2019 23:00,9.3,9,,,0,,90,,150,-,999,8,35,,,,7.8,
Drumalbin,16/10/2019 00:00,9.1,12,,,0,0,90,,180,-,999,8,25,,,,7.6,
Drumalbin,16/10/2019 01:00,9.1,10,,,0,,90,,180,-,998,8,12,,,,7.7,
Drumalbin,16/10/2019 02:00,9.3,23,,,0,,90,31,180,-,997,8,11,,,,7.9,
Drumalbin,16/10/2019 03:00,9.7,21,,,0,,89,30,170,-,996,8,20,,,,8,
Drumalbin,16/10/2019 04:00,9.7,13,,,0,,85,,150,-,996,8,27,,,,7.4,
Drumalbin,16/10/2019 05:00,9.8,8,,,0,,83,,140,-,996,8,35,,,,7.2,
Drumalbin,16/10/2019 06:00,9.7,21,7.7,,0,0,87,29,170,-,994,7,27,,,,7.8,
Drumalbin,16/10/2019 07:00,9.9,18,,,0,,91,,170,-,994,8,50,,,,8.6,
Drumalbin,16/10/2019 08:00,10,15,,,0,,92,,170,-,995,8,35,,,,8.8,
Drumalbin,16/10/2019 09:00,10.6,17,,,0,,92,,190,-,995,8,28,,,,9.4,
Drumalbin,16/10/2019 10:00,10.1,13,,,0.2,,94,,230,-,995,8,6,,,,9.2,
Drumalbin,16/10/2019 11:00,9.4,16,,,0,,90,,270,-,997,8,70,,,,8,
Drumalbin,16/10/2019 12:00,10.5,16,,,0,0.2,85,,280,-,997,7,50,,,,8.1,
Drumalbin,16/10/2019 13:00,10.3,14,,,0,,78,,280,-,998,2,50,,,,6.8,
Drumalbin,16/10/2019 14:00,11.4,12,,,0,,85,,300,-,998,7,55,,,,9.1,
Drumalbin,16/10/2019 15:00,11,16,,,0,,71,,260,-,998,0,50,,,,6.1,
Drumalbin,16/10/2019 16:00,10.8,12,,,0,,74,,260,-,999,,45,,,,6.5,
Drumalbin,16/10/2019 17:00,9.2,13,,,0,,78,,250,-,999,0,40,,,,5.7,
Drumalbin,16/10/2019 18:00,7.6,13,,11.9,0,0,87,,230,-,1000,0,40,,,,5.7,
Drumalbin,16/10/2019 19:00,6.2,10,,,0,,88,,230,-,1001,0,35,,,,4.4,
Drumalbin,16/10/2019 20:00,5.8,10,,,0,,91,,220,-,1001,0,35,,,,4.6,
Drumalbin,16/10/2019 21:00,6.4,9,,,0,,87,,220,-,1001,0,35,,,,4.5,
Drumalbin,16/10/2019 22:00,7.3,12,,,0,,88,,200,-,1001,6,35,,,,5.5,
Drumalbin,16/10/2019 23:00,5.6,10,,,0,,91,,210,-,1001,1,30,,,,4.4,
Drumalbin,17/10/2019 00:00,3.4,3,,,0,0,94,,30,-,1002,0,23,,,,2.6,
Drumalbin,17/10/2019 01:00,6.5,9,,,0,,93,,200,-,1002,0,40,,,,5.6,
Drumalbin,17/10/2019 02:00,5.9,8,,,0,,92,,250,-,1001,0,30,,,,4.8,
Drumalbin,17/10/2019 03:00,5.3,9,,,0,,94,,200,-,1001,0,27,,,,4.5,
Drumalbin,17/10/2019 04:00,5.1,2,,,0,,95,,320,-,1001,0,28,,,,4.5,
Drumalbin,17/10/2019 05:00,5.6,3,,,0,,94,,190,-,1001,0,25,,,,4.8,
Drumalbin,17/10/2019 06:00,6.8,14,2.9,,0,0,93,,160,-,1000,0,27,,,,5.9,
Drumalbin,17/10/2019 07:00,6.7,7,,,0,,94,,150,-,1000,3,30,,,,5.9,
Drumalbin,17/10/2019 08:00,7.3,15,,,0,,92,,160,-,1000,3,40,,,,6.1,
Drumalbin,17/10/2019 09:00,8.1,16,,,0,,91,,170,-,1000,5,60,,,,6.8,
Drumalbin,17/10/2019 10:00,9.3,17,,,0.2,,92,,180,-,1000,8,50,,,,8.1,
Drumalbin,17/10/2019 11:00,9.7,16,,,0,,85,,180,-,1000,7,50,,,,7.4,
Drumalbin,17/10/2019 12:00,9.3,16,,,0,0.2,82,,200,-,1000,8,65,,,,6.4,
Drumalbin,17/10/2019 13:00,9.5,10,,,0,,82,,180,-,999,8,50,,,,6.6,
Drumalbin,17/10/2019 14:00,10.8,10,,,0,,85,,180,-,999,7,35,,,,8.4,
Drumalbin,17/10/2019 15:00,10.3,9,,,0,,80,,190,-,998,6,50,,,,7.1,
Drumalbin,17/10/2019 16:00,9.5,13,,,0,,80,,160,-,998,2,50,,,,6.4,
Drumalbin,17/10/2019 17:00,9.3,10,,,0,,80,,150,-,998,2,55,,,,6.2,
Drumalbin,17/10/2019 18:00,9.3,9,,11.6,0,0,80,,150,-,997,7,55,,,,6.2,
Drumalbin,17/10/2019 19:00,9.5,8,,,0,,79,,140,-,997,3,27,,,,6.2,
Drumalbin,17/10/2019 20:00,8.8,6,,,0,,84,,140,-,996,8,50,,,,6.3,
Drumalbin,17/10/2019 21:00,8.9,10,,,0,,87,,150,-,996,8,19,,,,7,
Drumalbin,17/10/2019 22:00,8.1,12,,,1,,90,29,180,-,996,7,45,,,,6.7,
Drumalbin,17/10/2019 23:00,7.5,8,,,1.6,,94,,200,-,996,1,6,,,,6.6,
Drumalbin,18/10/2019 00:00,7.9,16,,,1.2,4,89,,170,-,995,8,26,,,,6.3,
Drumalbin,18/10/2019 01:00,7.4,18,,,0,,87,,170,-,995,6,75,,,,5.5,
Drumalbin,18/10/2019 02:00,7.8,8,,,0,,89,,150,-,995,7,50,,,,6.2,
Drumalbin,18/10/2019 03:00,6.8,8,,,0,,92,,150,-,995,7,40,,,,5.7,
Drumalbin,18/10/2019 04:00,6.3,6,,,0,,93,,130,-,995,7,30,,,,5.3,
Drumalbin,18/10/2019 05:00,6.7,9,,,0,,95,,120,-,994,1,40,,,,6,
Drumalbin,18/10/2019 06:00,6.8,7,6.3,,0,0,95,,120,-,994,8,35,,,,6.2,
Drumalbin,18/10/2019 07:00,6.9,6,,,0,,95,,120,-,994,7,21,,,,6.2,
Drumalbin,18/10/2019 08:00,7,1,,,0,,95,,40,-,994,7,16,,,,6.4,
Drumalbin,18/10/2019 09:00,7.2,2,,,0,,93,,80,-,994,4,12,,,,6.3,
Drumalbin,18/10/2019 10:00,8.2,2,,,0,,95,,40,-,994,1,14,,,,7.5,
Drumalbin,18/10/2019 11:00,10,2,,,0,,81,,130,-,994,0,30,,,,6.9,
Drumalbin,18/10/2019 12:00,10.1,6,,,0,0,82,,50,-,994,6,40,,,,7.2,
Drumalbin,18/10/2019 13:00,10.9,5,,,0,,78,,50,-,993,1,45,,,,7.3,
Drumalbin,18/10/2019 14:00,10.6,8,,,0,,78,,30,-,993,1,45,,,,7.1,
Drumalbin,18/10/2019 15:00,10.1,8,,,0,,83,,30,-,993,7,35,,,,7.4,
Drumalbin,18/10/2019 16:00,9.6,8,,,0,,85,,40,-,993,8,30,,,,7.3,
Drumalbin,18/10/2019 17:00,8.3,7,,,0,,85,,60,-,994,8,65,,,,6,
Drumalbin,18/10/2019 18:00,7.7,3,,11.6,0,0,93,,80,-,994,8,22,,,,6.7,
Drumalbin,18/10/2019 19:00,7.2,3,,,0,,93,,360,-,994,7,30,,,,6.3,
Drumalbin,18/10/2019 20:00,6.4,2,,,0,,96,,20,-,994,8,17,,,,5.9,
Drumalbin,18/10/2019 21:00,6.5,6,,,0,,99,,340,-,994,8,4,,,,6.4,
Drumalbin,18/10/2019 22:00,6.6,3,,,0,,99,,330,-,995,8,3,,,,6.5,
Drumalbin,18/10/2019 23:00,6.7,5,,,0.6,,100,,320,-,995,7,0,,,,6.7,
Drumalbin,19/10/2019 00:00,6.9,5,,,1.2,2,100,,310,-,995,8,0,,,,6.9,
Drumalbin,19/10/2019 01:00,7.2,6,,,2.4,,100,,350,-,995,8,0,,,,7.2,
Drumalbin,19/10/2019 02:00,7.6,13,,,2.2,,100,,40,-,995,8,5,,,,7.6,
Drumalbin,19/10/2019 03:00,7.6,10,,,1.4,,99,,40,-,995,8,5,,,,7.5,
Drumalbin,19/10/2019 04:00,7.6,13,,,1,,98,,40,-,996,8,6,,,,7.4,
Drumalbin,19/10/2019 05:00,7.4,9,,,0.6,,98,,40,-,996,7,13,,,,7.2,
Drumalbin,19/10/2019 06:00,7.3,6,6.3,,1.4,9,98,,30,-,997,8,5,,,,7.1,
Drumalbin,19/10/2019 07:00,7.6,15,,,2.8,,96,,20,-,997,8,7,,,,7.1,
Drumalbin,19/10/2019 08:00,7.5,18,,,2.4,,95,,40,-,998,8,6,,,,6.8,
Drumalbin,19/10/2019 09:00,6.9,17,,,1,,93,,30,-,999,8,9,,,,5.9,
Drumalbin,19/10/2019 10:00,7.4,13,,,0.2,,93,,20,-,999,7,22,,,,6.4,
Drumalbin,19/10/2019 11:00,8.1,17,,,0,,88,,40,-,1000,1,30,,,,6.3,
Drumalbin,19/10/2019 12:00,8.6,14,,,0,6,82,,40,-,1000,1,35,,,,5.8,
Drumalbin,19/10/2019 13:00,9.2,14,,,0,,78,,30,-,1001,6,40,,,,5.6,
Drumalbin,19/10/2019 14:00,9.1,13,,,0,,82,,30,-,1001,8,40,,,,6.2,
Drumalbin,19/10/2019 15:00,9.2,12,,,0,,79,,10,-,1002,7,50,,,,5.8,
Drumalbin,19/10/2019 16:00,9.1,12,,,0,,82,,350,-,1002,8,45,,,,6.2,
Drumalbin,19/10/2019 17:00,8.4,10,,,0,,82,,360,-,1003,7,55,,,,5.6,
Drumalbin,19/10/2019 18:00,7.5,5,,9.7,0,0,87,,330,-,1004,1,50,,,,5.6,
Drumalbin,19/10/2019 19:00,6.8,5,,,0,,88,,350,-,1005,6,65,,,,5,
Drumalbin,19/10/2019 20:00,6.5,9,,,0,,85,,30,-,1006,6,65,,,,4.3,
Drumalbin,19/10/2019 21:00,4.2,3,,,0,,93,,230,-,1007,3,55,,,,3.2,
Drumalbin,19/10/2019 22:00,6.3,10,,,0,,91,,10,-,1007,7,30,,,,5,
Drumalbin,19/10/2019 23:00,6.4,8,,,0,,92,,350,-,1008,8,55,,,,5.2,
Drumalbin,20/10/2019 00:00,4.8,8,,,0,0,91,,360,-,1009,0,55,,,,3.6,
Drumalbin,20/10/2019 01:00,4.1,5,,,0,,91,,350,-,1009,0,50,,,,2.8,
Drumalbin,20/10/2019 02:00,3.7,9,,,0,,92,,350,-,1010,0,45,,,,2.6,
Drumalbin,20/10/2019 03:00,3.7,7,,,0,,89,,330,-,1011,1,40,,,,2.1,
Drumalbin,20/10/2019 04:00,2.6,2,,,0,,89,,260,-,1012,3,40,,,,1.1,
Drumalbin,20/10/2019 05:00,4.3,8,,,0,,82,,310,-,1012,7,45,,,,1.6,
Drumalbin,20/10/2019 06:00,3.6,3,2.3,,0,0,84,,310,-,1013,6,50,,,,1.3,
Drumalbin,20/10/2019 07:00,4.5,6,,,0,,81,,320,-,1013,8,50,,,,1.6,
Drumalbin,20/10/2019 08:00,5,12,,,0,,82,,340,-,1014,8,60,,,,2.3,
Drumalbin,20/10/2019 09:00,4.8,10,,,0,,86,,330,-,1015,8,60,,,,2.7,
Drumalbin,20/10/2019 10:00,5.6,6,,,0,,83,,330,-,1016,8,60,,,,3.1,
Drumalbin,20/10/2019 11:00,6.4,6,,,0,,84,,340,-,1016,8,55,,,,3.9,
Drumalbin,20/10/2019 12:00,7.9,14,,,0,0,73,,20,-,1017,7,75,,,,3.4,
Drumalbin,20/10/2019 13:00,8.4,14,,,0,,72,,30,-,1017,7,65,,,,3.8,
Drumalbin,20/10/2019 14:00,8.5,13,,,0,,71,,30,-,1018,8,70,,,,3.7,
Drumalbin,20/10/2019 15:00,9,12,,,0,,70,,20,-,1018,8,75,,,,4,
Drumalbin,20/10/2019 16:00,7.9,10,,,0,,76,,30,-,1019,7,75,,,,4.1,
Drumalbin,20/10/2019 17:00,7.4,8,,,0,,80,,20,-,1020,8,75,,,,4.3,
Drumalbin,20/10/2019 18:00,6.8,5,,9.7,0,0,85,,40,-,1021,8,70,,,,4.5,
Drumalbin,20/10/2019 19:00,6.9,8,,,0,,82,,70,-,1021,8,60,,,,4.2,
Drumalbin,20/10/2019 20:00,4.8,9,,,0,,85,,60,-,1022,2,60,,,,2.6,
Drumalbin,20/10/2019 21:00,4.6,13,,,0,,85,,80,-,1022,,70,,,,2.3,
Drumalbin,20/10/2019 22:00,3.4,5,,,0,,88,,60,-,1023,7,70,,,,1.7,
Drumalbin,20/10/2019 23:00,3.6,1,,,0,,92,,100,-,1023,7,70,,,,2.5,
Drumalbin,21/10/2019 00:00,3.2,5,,,0,0,93,,330,-,1024,8,50,,,,2.3,
Drumalbin,21/10/2019 01:00,3.3,2,,,0,,94,,210,-,1024,8,60,,,,2.5,
Drumalbin,21/10/2019 02:00,3.1,5,,,0,,95,,260,-,1024,8,45,,,,2.5,
Drumalbin,21/10/2019 03:00,3.4,2,,,0,,94,,180,-,1024,8,50,,,,2.6,
Drumalbin,21/10/2019 04:00,2.9,2,,,0,,93,,120,-,1024,5,60,,,,1.9,
Drumalbin,21/10/2019 05:00,1.8,1,,,0,,97,,290,-,1024,0,19,,,,1.4,
Drumalbin,21/10/2019 06:00,0.6,3,0.3,,0,0,96,,200,-,1024,0,40,,,,0.1,
Drumalbin,21/10/2019 07:00,0.1,5,,,0,,97,,190,-,1024,0,35,,,,-0.3,
Drumalbin,21/10/2019 08:00,0.2,2,,,0,,97,,260,-,1025,1,30,,,,-0.2,
Drumalbin,21/10/2019 09:00,2,3,,,0,,96,,40,-,1025,2,27,,,,1.5,
Drumalbin,21/10/2019 10:00,5.3,1,,,0,,83,,200,-,1025,1,18,,,,2.7,
Drumalbin,21/10/2019 11:00,8.2,1,,,0,,78,,40,-,1024,,65,,,,4.7,
Drumalbin,21/10/2019 12:00,8.5,5,,,0,0,69,,330,-,1024,7,75,,,,3.3,
Drumalbin,21/10/2019 13:00,8.8,13,,,0,,68,,260,-,1023,7,65,,,,3.4,
Drumalbin,21/10/2019 14:00,7.2,13,,,0,,74,,280,-,1023,7,70,,,,2.9,
Drumalbin,21/10/2019 15:00,7.5,14,,,0,,72,,280,-,1022,8,65,,,,2.8,
Drumalbin,21/10/2019 16:00,7.2,13,,,0,,74,,280,-,1022,8,65,,,,3,
Drumalbin,21/10/2019 17:00,6.8,12,,,0,,77,,280,-,1022,8,65,,,,3.2,
Drumalbin,21/10/2019 18:00,6.5,7,,9.2,0,0,82,,260,-,1022,8,60,,,,3.7,
Drumalbin,21/10/2019 19:00,6.5,8,,,0,,83,,250,-,1022,8,60,,,,3.9,
Drumalbin,21/10/2019 20:00,6.5,10,,,0,,82,,240,-,1021,8,55,,,,3.8,
Drumalbin,21/10/2019 21:00,6.4,10,,,0,,79,,240,-,1021,8,60,,,,3.2,
Drumalbin,21/10/2019 22:00,6.2,9,,,0,,80,,240,-,1020,8,55,,,,3.1,
Drumalbin,21/10/2019 23:00,6.4,13,,,0,,81,,240,-,1020,8,50,,,,3.5,
Drumalbin,22/10/2019 00:00,6.4,14,,,0,0,81,,240,-,1020,8,55,,,,3.5,
Drumalbin,22/10/2019 01:00,6.5,15,,,0,,82,,240,-,1019,8,55,,,,3.7,
Drumalbin,22/10/2019 02:00,6.6,15,,,0,,84,,240,-,1019,8,50,,,,4.2,
Drumalbin,22/10/2019 03:00,6.8,17,,,0,,84,,240,-,1018,8,45,,,,4.4,
Drumalbin,22/10/2019 04:00,6.8,17,,,0,,85,,240,-,1017,8,40,,,,4.6,
Drumalbin,22/10/2019 05:00,6.9,18,,,0,,87,29,240,-,1017,7,40,,,,4.9,
Drumalbin,22/10/2019 06:00,7.1,17,6.1,,0,0,85,,240,-,1017,8,45,,,,4.9,
Drumalbin,22/10/2019 07:00,7.3,17,,,0,,87,,240,-,1017,8,45,,,,5.3,
Drumalbin,22/10/2019 08:00,7.3,14,,,0,,87,,230,-,1018,8,45,,,,5.3,
Drumalbin,22/10/2019 09:00,7.7,18,,,0,,85,,240,-,1018,7,50,,,,5.5,
Drumalbin,22/10/2019 10:00,7.8,15,,,0,,86,,240,-,1018,8,50,,,,5.7,
Drumalbin,22/10/2019 11:00,8.9,16,,,0,,83,,240,-,1017,8,60,,,,6.2,
Drumalbin,22/10/2019 12:00,9.2,17,,,0,0,82,,250,-,1017,8,60,,,,6.4,
Drumalbin,22/10/2019 13:00,9.5,22,,,0,,81,30,250,-,1016,8,65,,,,6.5,
Drumalbin,22/10/2019 14:00,9.4,16,,,0,,81,29,240,-,1016,8,65,,,,6.4,
Drumalbin,22/10/2019 15:00,9.4,17,,,0,,83,,230,-,1016,7,65,,,,6.7,
Drumalbin,22/10/2019 16:00,9.3,13,,,0,,83,,230,-,1015,8,75,,,,6.7,
Drumalbin,22/10/2019 17:00,8.8,14,,,0,,80,,240,-,1015,7,65,,,,5.7,
Drumalbin,22/10/2019 18:00,8.6,15,,9.5,0,0,85,,230,-,1016,7,60,,,,6.3,
Drumalbin,22/10/2019 19:00,8.8,16,,,0,,82,,230,-,1016,8,55,,,,6,
Drumalbin,22/10/2019 20:00,8.7,17,,,0,,82,,230,-,1016,7,30,,,,5.9,
Drumalbin,22/10/2019 21:00,8.8,14,,,0,,83,,230,-,1015,8,60,,,,6.2,
Drumalbin,22/10/2019 22:00,8.8,15,,,0,,83,,230,-,1015,8,65,,,,6.2,
Drumalbin,22/10/2019 23:00,9,14,,,0,,83,,230,-,1014,7,70,,,,6.3,
Drumalbin,23/10/2019 00:00,8.9,13,,,0,0,83,,230,-,1014,8,70,,,,6.3,
Drumalbin,23/10/2019 01:00,9.1,14,,,0,,84,,230,-,1014,8,4,,,,6.7,
Drumalbin,23/10/2019 02:00,9.1,15,,,0,,86,,230,-,1013,7,25,,,,6.9,
Drumalbin,23/10/2019 03:00,8.8,14,,,0,,87,,220,-,1012,,45,,,,6.8,
Drumalbin,23/10/2019 04:00,9.2,18,,,0,,84,,220,-,1011,8,45,,,,6.8,
Drumalbin,23/10/2019 05:00,9.4,15,,,0,,85,,220,-,1011,8,40,,,,7.1,
Drumalbin,23/10/2019 06:00,9.6,17,8.6,,0,0,85,,220,-,1010,8,40,,,,7.3,
Drumalbin,23/10/2019 07:00,9.5,17,,,0,,88,,210,-,1010,8,35,,,,7.7,
Drumalbin,23/10/2019 08:00,9.6,14,,,0,,91,,210,-,1010,8,2,,,,8.3,
Drumalbin,23/10/2019 09:00,10.1,18,,,0,,86,,210,-,1010,7,2,,,,8,
Drumalbin,23/10/2019 10:00,10.5,18,,,0,,86,,210,-,1009,7,2,,,,8.3,
Drumalbin,23/10/2019 11:00,10.9,22,,,0,,83,30,210,-,1008,1,26,,,,8.2,
Drumalbin,23/10/2019 12:00,10.7,21,,,0,0,78,30,220,-,1007,8,30,,,,7.2,
Drumalbin,23/10/2019 13:00,11.2,20,,,0,,76,31,220,-,1006,8,45,,,,7.3,
Drumalbin,23/10/2019 14:00,10.9,17,,,0,,77,30,210,-,1005,8,45,,,,7.2,
Drumalbin,23/10/2019 15:00,10.7,20,,,0,,80,30,220,-,1004,8,30,,,,7.4,
Drumalbin,23/10/2019 16:00,10.2,25,,,0,,81,38,210,-,1004,8,8,,,,7.2,
Drumalbin,23/10/2019 17:00,9.9,18,,,0,,83,32,210,-,1004,5,35,,,,7.2,
Drumalbin,23/10/2019 18:00,9.9,17,,11.3,0,0,84,29,210,-,1003,8,26,,,,7.4,
Drumalbin,23/10/2019 19:00,9.6,21,,,0,,87,32,220,-,1002,8,12,,,,7.6,
Drumalbin,23/10/2019 20:00,9.6,22,,,0,,88,35,200,-,1002,8,18,,,,7.8,
Drumalbin,23/10/2019 21:00,9.4,31,,,0,,90,43,200,-,1001,4,10,,,,8,
Drumalbin,23/10/2019 22:00,9.6,25,,,0,,90,43,200,-,1000,2,5,,,,8.2,
Drumalbin,23/10/2019 23:00,9.9,23,,,0,,92,36,200,-,1000,8,5,,,,8.8,
Drumalbin,24/10/2019 00:00,10.1,18,,,0,0,94,30,200,-,1000,8,13,,,,9.3,
Drumalbin,24/10/2019 01:00,10.3,17,,,0.2,,96,30,220,-,999,8,4,,,,9.8,
Drumalbin,24/10/2019 02:00,10.2,9,,,0,,94,,240,-,999,8,65,,,,9.4,
Drumalbin,24/10/2019 03:00,9.2,8,,,0,,95,,220,-,999,1,45,,,,8.5,
Drumalbin,24/10/2019 04:00,9.2,9,,,0,,93,,220,-,999,7,55,,,,8.2,
Drumalbin,24/10/2019 05:00,9.2,12,,,0,,91,,210,-,999,6,55,,,,7.9,
Drumalbin,24/10/2019 06:00,9.3,14,8.8,,0,0.2,90,,220,-,999,6,50,,,,7.8,
Drumalbin,24/10/2019 07:00,8.9,13,,,0,,89,,240,-,999,8,55,,,,7.3,
Drumalbin,24/10/2019 08:00,8,15,,,0.2,,88,,230,-,999,3,50,,,,6.3,
Drumalbin,24/10/2019 09:00,8.8,15,,,0,,86,,230,-,999,4,40,,,,6.6,
Drumalbin,24/10/2019 10:00,9.2,16,,,0,,84,,230,-,999,4,50,,,,6.7,
Drumalbin,24/10/2019 11:00,9.3,18,,,0,,79,,250,-,999,5,45,,,,6,
Drumalbin,24/10/2019 12:00,9.8,15,,,0,0.2,83,,250,-,999,7,40,,,,7.1,
Drumalbin,24/10/2019 13:00,9.9,15,,,0,,81,,250,-,999,6,45,,,,6.9,
Drumalbin,24/10/2019 14:00,9.8,14,,,0,,83,,250,-,999,7,19,,,,7.2,
Drumalbin,24/10/2019 15:00,9.1,13,,,0,,85,,260,-,1000,8,65,,,,6.8,
Drumalbin,24/10/2019 16:00,9.1,12,,,0,,78,,290,-,1000,1,55,,,,5.5,
Drumalbin,24/10/2019 17:00,7.2,9,,,0,,84,,280,-,1001,4,50,,,,4.7,
Drumalbin,24/10/2019 18:00,6,7,,10.6,0,0,88,,270,-,1002,3,45,,,,4.2,
Drumalbin,24/10/2019 19:00,5.6,9,,,0,,85,,270,-,1002,,45,,,,3.3,
Drumalbin,24/10/2019 20:00,4.7,9,,,0,,83,,260,-,1003,,45,,,,2.1,
Drumalbin,24/10/2019 21:00,4.3,7,,,0,,82,,270,-,1004,0,45,,,,1.6,
Drumalbin,24/10/2019 22:00,3.2,10,,,0,,89,,260,-,1005,0,45,,,,1.7,
Drumalbin,24/10/2019 23:00,3.2,7,,,0,,91,,270,-,1006,4,45,,,,1.9,
Drumalbin,25/10/2019 00:00,2.9,5,,,0,0,90,,230,-,1007,1,60,,,,1.5,
Drumalbin,25/10/2019 01:00,1.8,7,,,0,,91,,220,-,1007,,60,,,,0.6,
Drumalbin,25/10/2019 02:00,1.6,8,,,0,,93,,220,-,1007,,45,,,,0.6,
Drumalbin,25/10/2019 03:00,1.3,9,,,0,,94,,220,-,1008,,45,,,,0.5,
Drumalbin,25/10/2019 04:00,1.1,6,,,0,,89,,220,-,1008,,45,,,,-0.5,
Drumalbin,25/10/2019 05:00,2.1,18,,,0,,83,,220,-,1008,0,40,,,,-0.4,
Drumalbin,25/10/2019 06:00,2.9,20,0.9,,0,0,82,,220,-,1008,0,45,,,,0.2,
Drumalbin,25/10/2019 07:00,3.3,21,,,0,,80,29,230,-,1008,2,45,,,,0.3,
Drumalbin,25/10/2019 08:00,3,17,,,0,,82,30,220,-,1008,,45,,,,0.3,
Drumalbin,25/10/2019 09:00,3.9,18,,,0,,77,,220,-,1008,0,50,,,,0.3,
Drumalbin,25/10/2019 10:00,4.1,16,,,0,,76,,220,-,1008,,55,,,,0.4,
Drumalbin,25/10/2019 11:00,4.5,15,,,0,,82,,210,-,1008,0,50,,,,1.7,
Drumalbin,25/10/2019 12:00,5.1,14,,,0,0,78,,210,-,1007,,50,,,,1.7,
Drumalbin,25/10/2019 13:00,5.7,15,,,0,,79,,210,-,1006,4,65,,,,2.5,
Drumalbin,25/10/2019 14:00,5.1,14,,,0,,85,,210,-,1006,3,65,,,,2.8,
Drumalbin,25/10/2019 15:00,4.8,13,,,0,,89,,210,-,1005,7,75,,,,3.2,
Drumalbin,25/10/2019 16:00,4.6,8,,,0,,90,,210,-,1004,7,40,,,,3.2,
Drumalbin,25/10/2019 17:00,4.4,5,,,0,,90,,210,-,1004,3,35,,,,3,
Drumalbin,25/10/2019 18:00,4,3,,5.7,0,0,94,,270,-,1004,8,15,,,,3.2,
Drumalbin,25/10/2019 19:00,3.6,3,,,0,,95,,210,-,1004,8,75,,,,2.9,
Drumalbin,25/10/2019 20:00,2.9,5,,,0,,96,,220,-,1004,2,75,,,,2.4,
Drumalbin,25/10/2019 21:00,3.1,6,,,0,,95,,230,-,1004,1,60,,,,2.4,
Drumalbin,25/10/2019 22:00,3,8,,,0,,91,,230,-,1004,3,75,,,,1.7,
Drumalbin,25/10/2019 23:00,3,7,,,0,,94,,220,-,1004,,70,,,,2.2,
Drumalbin,26/10/2019 00:00,3.2,9,,,0,0,93,,210,-,1004,,55,,,,2.2,
Drumalbin,26/10/2019 01:00,3.3,9,,,0,,93,,220,-,1004,,60,,,,2.4,
Drumalbin,26/10/2019 02:00,3.1,9,,,0,,94,,210,-,1004,,60,,,,2.3,
Drumalbin,26/10/2019 03:00,3.5,12,,,0,,92,,220,-,1004,,65,,,,2.4,
Drumalbin,26/10/2019 04:00,3.3,12,,,0,,92,,220,-,1004,,70,,,,2.2,
Drumalbin,26/10/2019 05:00,3.5,10,,,0,,88,,220,-,1004,2,75,,,,1.8,
Drumalbin,26/10/2019 06:00,3.6,12,2.4,,0,0,89,,220,-,1004,1,75,,,,2,
Drumalbin,26/10/2019 07:00,3.6,10,,,0,,88,,230,-,1004,7,70,,,,1.9,
Drumalbin,26/10/2019 08:00,3.3,10,,,0,,86,,240,-,1005,8,75,,,,1.2,
Drumalbin,26/10/2019 09:00,3.4,12,,,0,,89,,220,-,1005,1,75,,,,1.9,
Drumalbin,26/10/2019 10:00,4.8,12,,,0,,82,,240,-,1005,,55,,,,2.1,
Drumalbin,26/10/2019 11:00,6,14,,,0,,80,,250,-,1005,0,65,,,,2.9,
Drumalbin,26/10/2019 12:00,6.8,16,,,0,0,76,,260,-,1005,2,60,,,,3,
Drumalbin,26/10/2019 13:00,7.4,15,,,0,,74,,260,-,1005,3,65,,,,3.2,
Drumalbin,26/10/2019 14:00,5.6,9,,,0.2,,83,31,240,-,1005,7,75,,,,3,
Drumalbin,26/10/2019 15:00,5.5,21,,,0,,71,29,260,-,1005,1,45,,,,0.8,
Drumalbin,26/10/2019 16:00,5.2,17,,,0,,76,,290,-,1005,2,65,,,,1.4,
Drumalbin,26/10/2019 17:00,4,17,,,0,,79,,260,-,1006,4,75,,,,0.8,
Drumalbin,26/10/2019 18:00,3.1,16,,7.9,0,0.2,87,32,250,-,1006,1,75,,,,1.3,
Drumalbin,26/10/2019 19:00,3.3,21,,,0,,91,,250,-,1007,6,70,,,,2,
Drumalbin,26/10/2019 20:00,4.1,15,,,0,,94,,250,-,1008,7,35,,,,3.3,
Drumalbin,26/10/2019 21:00,4.2,17,,,0,,93,,250,-,1008,7,23,,,,3.3,
Drumalbin,26/10/2019 22:00,4.7,21,,,0,,90,29,270,-,1009,6,30,,,,3.3,
Drumalbin,26/10/2019 23:00,4.4,21,,,0.2,,88,32,270,-,1010,0,75,,,,2.6,
Drumalbin,27/10/2019 00:00,5.3,23,,,0,0.2,86,36,280,-,1010,6,65,,,,3.3,
Drumalbin,27/10/2019 01:00,4.7,22,,,0.2,,88,37,270,-,1012,2,75,,,,3,
Drumalbin,27/10/2019 02:00,4.9,20,,,0,,90,31,270,-,1012,1,45,,,,3.4,
Drumalbin,27/10/2019 03:00,4.9,18,,,0,,87,30,280,-,1013,1,65,,,,3,
Drumalbin,27/10/2019 04:00,4.7,18,,,0,,89,29,270,-,1014,0,60,,,,3.1,
Drumalbin,27/10/2019 05:00,4.6,18,,,0,,86,,280,-,1015,0,70,,,,2.5,
Drumalbin,27/10/2019 06:00,4.5,20,3.1,,0,0.2,90,,270,-,1015,0,50,,,,3.1,
Drumalbin,27/10/2019 07:00,4.6,21,,,0,,86,29,280,-,1016,,65,,,,2.6,
Drumalbin,27/10/2019 08:00,4.5,18,,,0,,86,31,290,-,1017,,70,,,,2.4,
Drumalbin,27/10/2019 09:00,5.4,21,,,0,,84,31,290,-,1018,0,55,,,,3,
Drumalbin,27/10/2019 10:00,6.6,24,,,0,,82,32,280,-,1018,0,50,,,,3.8,
Drumalbin,27/10/2019 11:00,7.4,16,,,0,,81,32,300,-,1020,4,45,,,,4.5,
Drumalbin,27/10/2019 12:00,7.8,13,,,0,0,76,30,300,-,1020,6,60,,,,3.9,
Drumalbin,27/10/2019 13:00,8.6,17,,,0,,71,,300,-,1021,,60,,,,3.8,
Drumalbin,27/10/2019 14:00,8.4,17,,,0,,68,,310,-,1021,2,50,,,,3,
Drumalbin,27/10/2019 15:00,8.1,15,,,0,,69,,290,-,1022,0,50,,,,2.9,
Drumalbin,27/10/2019 16:00,7.3,17,,,0,,74,,300,-,1022,,40,,,,3,
Drumalbin,27/10/2019 17:00,5.3,13,,,0,,82,,280,-,1023,0,40,,,,2.6,
Drumalbin,27/10/2019 18:00,4.3,7,,8.7,0,0,86,,270,-,1024,0,40,,,,2.3,
Drumalbin,27/10/2019 19:00,3.9,7,,,0,,86,,270,-,1025,0,40,,,,1.9,
Drumalbin,27/10/2019 20:00,3,5,,,0,,89,,280,-,1026,0,40,,,,1.4,
Drumalbin,27/10/2019 21:00,2.9,6,,,0,,88,,270,-,1026,,40,,,,1.2,
Drumalbin,27/10/2019 22:00,2,2,,,0,,91,,290,-,1026,0,40,,,,0.7,
Drumalbin,27/10/2019 23:00,1.7,2,,,0,,93,,230,-,1026,0,40,,,,0.7,
Drumalbin,28/10/2019 00:00,1.1,2,,,0,0,92,,250,-,1027,0,35,,,,0,
Drumalbin,28/10/2019 01:00,0.2,5,,,0,,96,,240,-,1027,,35,,,,-0.3,
Drumalbin,28/10/2019 02:00,0.1,5,,,0,,95,,210,-,1028,,35,,,,-0.6,
Drumalbin,28/10/2019 03:00,0.1,3,,,0,,95,,220,-,1028,0,40,,,,-0.5,
Drumalbin,28/10/2019 04:00,-0.1,1,,,0,,93,,30,-,1028,0,35,,,,-1,
Drumalbin,28/10/2019 05:00,-0.2,5,,,0,,94,,190,-,1028,0,40,,,,-1,
Drumalbin,28/10/2019 06:00,-0.7,2,-1.5,,0,0,96,,210,-,1028,6,35,,,,-1.2,
Drumalbin,28/10/2019 07:00,-1.3,1,,,0,,95,,80,-,1029,1,40,,,,-1.9,
Drumalbin,28/10/2019 08:00,-0.7,3,,,0,,99,,200,-,1029,0,60,,,,-0.8,
Drumalbin,28/10/2019 09:00,0.5,2,,,0,,94,,210,-,1029,0,40,,,,-0.3,
Drumalbin,28/10/2019 10:00,2.3,2,,,0,,88,,240,-,1029,0,60,,,,0.6,
Drumalbin,28/10/2019 11:00,3,3,,,0.2,,86,,320,-,1029,0,55,,,,0.9,
Drumalbin,28/10/2019 12:00,4.6,2,,,0,0.2,76,,320,-,1029,0,55,,,,0.8,
Drumalbin,28/10/2019 13:00,5.8,3,,,0,,69,,330,-,1029,0,60,,,,0.6,
Drumalbin,28/10/2019 14:00,6.7,9,,,0,,68,,30,-,1028,3,75,,,,1.3,
Drumalbin,28/10/2019 15:00,6.4,5,,,0,,70,,30,-,1028,2,75,,,,1.4,
Drumalbin,28/10/2019 16:00,5,8,,,0,,74,,20,-,1028,0,75,,,,0.8,
Drumalbin,28/10/2019 17:00,3.3,2,,,0,,75,,90,-,1029,0,70,,,,-0.6,
Drumalbin,28/10/2019 18:00,2,1,,7,0,0,86,,160,-,1029,6,65,,,,0,
Drumalbin,28/10/2019 19:00,3,1,,,0,,83,,220,-,1029,8,65,,,,0.5,
Drumalbin,28/10/2019 20:00,2.1,1,,,0,,84,,40,-,1030,7,60,,,,-0.2,
Drumalbin,28/10/2019 21:00,1.9,3,,,0,,87,,90,-,1030,7,55,,,,0.1,
Drumalbin,28/10/2019 22:00,0.9,1,,,0,,91,,20,-,1030,3,55,,,,-0.4,
Drumalbin,28/10/2019 23:00,1,5,,,0,,87,,100,-,1030,,50,,,,-0.8,
Drumalbin,29/10/2019 00:00,0.8,6,,,0,0,93,,100,-,1031,3,40,,,,-0.1,
Drumalbin,29/10/2019 01:00,0.7,6,,,0,,88,,80,-,1031,6,40,,,,-1,
Drumalbin,29/10/2019 02:00,0.8,1,,,0,,95,,20,-,1031,5,50,,,,0.1,
Drumalbin,29/10/2019 03:00,0.9,2,,,0,,95,,190,-,1031,1,55,,,,0.3,
Drumalbin,29/10/2019 04:00,0.3,1,,,0,,92,,210,-,1031,6,45,,,,-0.7,
Drumalbin,29/10/2019 05:00,0.7,1,,,0,,94,,330,-,1031,7,45,,,,-0.1,
Drumalbin,29/10/2019 06:00,1.3,1,-0.2,,0,0,95,,210,-,1031,8,45,,,,0.7,
Drumalbin,29/10/2019 07:00,1.5,1,,,0,,94,,60,-,1031,7,40,,,,0.7,
Drumalbin,29/10/2019 08:00,2.1,3,,,0,,95,,50,-,1032,8,45,,,,1.5,
Drumalbin,29/10/2019 09:00,2,1,,,0,,94,,290,-,1032,8,35,,,,1.2,
Drumalbin,29/10/2019 10:00,2.8,1,,,0,,96,,340,-,1032,7,13,,,,2.3,
Drumalbin,29/10/2019 11:00,4.5,3,,,0,,95,,20,-,1032,8,30,,,,3.8,
Drumalbin,29/10/2019 12:00,6.7,7,,,0,0,90,,90,-,1031,4,35,,,,5.2,
Drumalbin,29/10/2019 13:00,7.7,10,,,0,,81,,80,-,1031,6,55,,,,4.7,
Drumalbin,29/10/2019 14:00,6.9,9,,,0,,81,,90,-,1031,4,60,,,,4,
Drumalbin,29/10/2019 15:00,7.6,9,,,0,,77,,70,-,1030,7,65,,,,4,
Drumalbin,29/10/2019 16:00,6.2,5,,,0.2,,87,,100,-,1031,8,65,,,,4.3,
Drumalbin,29/10/2019 17:00,5.5,7,,,0,,85,,80,-,1031,1,60,,,,3.2,
Drumalbin,29/10/2019 18:00,4.7,7,,8.4,0,0.2,88,,90,-,1031,7,40,,,,3,
Drumalbin,29/10/2019 19:00,3.6,3,,,0,,89,,120,-,1032,1,50,,,,2,
Drumalbin,29/10/2019 20:00,3.1,5,,,0,,93,,120,-,1032,1,45,,,,2.2,
Drumalbin,29/10/2019 21:00,3.6,3,,,0,,93,,120,-,1032,7,50,,,,2.6,
Drumalbin,29/10/2019 22:00,2.9,2,,,0,,96,,140,-,1032,2,45,,,,2.4,
Drumalbin,29/10/2019 23:00,1.4,8,,,0,,95,,100,-,1032,0,30,,,,0.8,
Drumalbin,30/10/2019 00:00,1.4,7,,,0,0,97,,110,-,1032,0,30,,,,1,
Drumalbin,30/10/2019 01:00,0.9,7,,,0,,98,,110,-,1031,0,29,,,,0.7,
Drumalbin,30/10/2019 02:00,1.2,6,,,0,,100,,130,-,1031,0,24,,,,1.2,
Drumalbin,30/10/2019 03:00,1,6,,,0,,99,,120,-,1031,0,26,,,,0.9,
Drumalbin,30/10/2019 04:00,0.7,8,,,0,,99,,80,-,1031,0,30,,,,0.6,
Drumalbin,30/10/2019 05:00,0.3,5,,,0,,98,,120,-,1031,0,30,,,,0.1,
Drumalbin,30/10/2019 06:00,-0.5,5,-0.7,,0,0,98,,120,-,1030,0,26,,,,-0.7,
Drumalbin,30/10/2019 07:00,0.1,5,,,0,,100,,110,-,1030,0,24,,,,0.1,
Drumalbin,30/10/2019 08:00,0.1,3,,,0,,100,,110,-,1031,0,11,,,,0.1,
Drumalbin,30/10/2019 09:00,1,3,,,0,,99,,110,-,1030,0,25,,,,0.9,
Drumalbin,30/10/2019 10:00,4.2,6,,,0,,93,,110,-,1030,,45,,,,3.2,
Drumalbin,30/10/2019 11:00,5.8,9,,,0.2,,88,,110,-,1029,0,50,,,,4.1,
Drumalbin,30/10/2019 12:00,6.8,8,,,0,0.2,85,,110,-,1029,5,65,,,,4.6,
Drumalbin,30/10/2019 13:00,7.1,12,,,0,,77,,110,-,1028,4,75,,,,3.5,
Drumalbin,30/10/2019 14:00,7.4,10,,,0,,76,,110,-,1028,6,75,,,,3.5,
Drumalbin,30/10/2019 15:00,6.9,9,,,0,,78,,100,-,1027,7,75,,,,3.5,
Drumalbin,30/10/2019 16:00,6.5,10,,,0,,80,,100,-,1027,7,75,,,,3.4,
Drumalbin,30/10/2019 17:00,5.5,9,,,0,,83,,100,-,1027,6,70,,,,3,
Drumalbin,30/10/2019 18:00,2.9,8,,8.3,0,0,91,,100,-,1027,0,65,,,,1.7,
Drumalbin,30/10/2019 19:00,2.1,7,,,0,,93,,90,-,1027,0,45,,,,1.2,
Drumalbin,30/10/2019 20:00,2.7,5,,,0,,96,,110,-,1027,0,45,,,,2.2,
Drumalbin,30/10/2019 21:00,2,5,,,0,,96,,120,-,1026,,40,,,,1.5,
Drumalbin,30/10/2019 22:00,2.3,3,,,0,,97,,120,-,1026,0,40,,,,1.9,
Drumalbin,30/10/2019 23:00,2.3,3,,,0,,95,,100,-,1026,0,40,,,,1.7,
Drumalbin,31/10/2019 00:00,3,5,,,0,0,89,,150,-,1025,,50,,,,1.4,
Charterhall,01/09/2019 00:00,8.2,10,,,0,0,90,,230,Dry,1008,0,50,,,,6.8,
Charterhall,01/09/2019 01:00,8.8,13,,,0,,90,,230,Dry,1009,,40,0,0,,7.3,
Charterhall,01/09/2019 02:00,8.5,5,,,0,,89,,240,Dry,1009,,50,0,0,,6.9,
Charterhall,01/09/2019 03:00,8,8,,,0,,94,,190,Dry,1009,2,50,0,0,,7.1,
Charterhall,01/09/2019 04:00,7.3,6,,,0,,92,,230,Dry,1009,1,50,0,0,,6.2,
Charterhall,01/09/2019 05:00,8.4,10,,,0,,90,,230,Dry,1009,1,50,0,0,,7,
Charterhall,01/09/2019 06:00,9,9,7.2,,0,0,88,,240,Dry,1010,0,50,47,6,,7.2,
Charterhall,01/09/2019 07:00,10.6,10,,,0,,85,,240,Dry,1010,0,45,382,60,,8.2,
Charterhall,01/09/2019 08:00,12,8,,,0,,78,,250,Dry,1011,,50,601,36,,8.4,
Charterhall,01/09/2019 09:00,14.9,14,,,0,,65,,260,Dry,1011,4,30,1395,54,,8.4,
Charterhall,01/09/2019 10:00,16.2,16,,,0,,56,,260,Dry,1011,3,45,2089,60,,7.6,
Charterhall,01/09/2019 11:00,15,14,,,0,,57,,270,Dry,1012,2,50,2322,54,,6.7,
Charterhall,01/09/2019 12:00,15.1,13,,,0,0,57,,270,Dry,1012,4,50,1312,0,,6.9,
Charterhall,01/09/2019 13:00,15.8,13,,,0,,53,,290,Dry,1013,5,35,1777,24,,6.4,
Charterhall,01/09/2019 14:00,15.5,12,,,0,,53,,290,Dry,1013,2,50,1469,36,,6.2,
Charterhall,01/09/2019 15:00,17,13,,,0,,45,,280,Dry,1013,3,50,1706,42,,5.2,
Charterhall,01/09/2019 16:00,15.3,12,,,0,,53,,290,Dry,1014,6,50,1395,30,,5.9,
Charterhall,01/09/2019 17:00,12.2,3,,,1,,80,,240,Rain,1015,4,50,599,6,,9,
Charterhall,01/09/2019 18:00,10.2,7,,17.7,0.2,1,85,,280,Rain,1016,1,50,258,0,,7.9,
Charterhall,01/09/2019 19:00,10,6,,,0,,87,,280,Dry,1017,4,50,138,6,,8.1,
Charterhall,01/09/2019 20:00,9.3,8,,,0,,89,,260,Dry,1017,4,45,3,0,,7.6,
Charterhall,01/09/2019 21:00,9.4,8,,,0,,92,,270,Dry,1017,7,50,0,0,,8.2,
Charterhall,01/09/2019 22:00,9.5,8,,,0,,90,,270,Dry,1018,8,50,0,0,,8,
Charterhall,01/09/2019 23:00,9.7,8,,,0,,88,,260,Dry,1018,8,50,0,0,,7.9,
Charterhall,02/09/2019 00:00,9.5,6,,,0,0,88,,260,Dry,1018,8,50,,,,7.7,
Charterhall,02/09/2019 01:00,8.4,2,,,0,,89,,230,Dry,1018,7,50,0,0,,6.8,
Charterhall,02/09/2019 02:00,8.8,6,,,0,,92,,240,Dry,1018,8,50,0,0,,7.7,
Charterhall,02/09/2019 03:00,8.1,5,,,0,,92,,240,Light shower,1018,6,15,0,0,,6.9,
Charterhall,02/09/2019 04:00,8,5,,,0.4,,92,,230,Rain,1018,,50,0,0,,6.8,
Charterhall,02/09/2019 05:00,7.2,6,,,0,,94,,240,Dry,1017,3,40,0,0,,6.4,
Charterhall,02/09/2019 06:00,9.2,9,7.1,,0,0.4,94,,230,Dry,1017,,45,26,0,,8.4,
Charterhall,02/09/2019 07:00,10,8,,,0,,94,,220,Dry,1017,7,30,186,6,,9.1,
Charterhall,02/09/2019 08:00,11.9,14,,,0,,86,,220,Dry,1017,7,50,623,12,,9.8,
Charterhall,02/09/2019 09:00,11.8,14,,,0,,88,,220,Light shower,1017,7,12,577,0,,10,
Charterhall,02/09/2019 10:00,12.2,13,,,0.2,,92,,210,Light rain,1016,7,30,561,0,,11.1,
Charterhall,02/09/2019 11:00,13.9,18,,,0,,86,29,220,Rain,1015,7,45,975,0,,11.7,
Charterhall,02/09/2019 12:00,14.4,21,,,0,0.2,82,33,220,Light shower,1014,7,50,1141,6,,11.4,
Charterhall,02/09/2019 13:00,15.7,23,,,0,,75,37,230,Rain,1014,3,50,1156,6,,11.3,
Charterhall,02/09/2019 14:00,15.4,23,,,0,,77,37,220,Rain,1013,7,40,953,0,,11.5,
Charterhall,02/09/2019 15:00,14.9,21,,,0,,79,36,220,Dry,1013,8,30,567,0,,11.4,
Charterhall,02/09/2019 16:00,14.7,20,,,0,,82,35,230,Dry,1012,8,20,743,0,,11.7,
Charterhall,02/09/2019 17:00,15.1,18,,,0,,78,32,230,Dry,1012,8,50,263,0,,11.4,
Charterhall,02/09/2019 18:00,14.8,17,,16.6,0,0,79,29,230,Rain,1012,8,50,248,0,,11.3,
Charterhall,02/09/2019 19:00,14.1,17,,,0,,84,29,220,Dry,1012,7,45,67,0,,11.6,
Charterhall,02/09/2019 20:00,13.8,14,,,0,,87,,220,Dry,1013,8,50,0,0,,11.8,
Charterhall,02/09/2019 21:00,13.6,15,,,0,,90,,220,Dry,1013,8,50,0,0,,12,
Charterhall,02/09/2019 22:00,13.6,14,,,0,,90,,230,Dry,1013,7,13,0,0,,12.1,
Charterhall,02/09/2019 23:00,13.7,13,,,0,,90,,240,Dry,1013,6,50,0,0,,12.2,
Charterhall,03/09/2019 00:00,13.9,16,,,0,0,88,,220,Dry,1013,8,50,,,,12,
Charterhall,03/09/2019 01:00,13.1,10,,,0,,90,,230,Dry,1014,4,50,0,0,,11.6,
Charterhall,03/09/2019 02:00,13.8,13,,,0,,88,,240,Dry,1014,1,50,0,0,,12,
Charterhall,03/09/2019 03:00,13,7,,,0,,91,,250,Dry,1015,0,50,0,0,,11.7,
Charterhall,03/09/2019 04:00,13.4,8,,,0,,92,,240,Dry,1014,1,50,0,0,,12.2,
Charterhall,03/09/2019 05:00,13.6,12,,,0,,92,,230,Dry,1015,2,50,0,0,,12.4,
Charterhall,03/09/2019 06:00,13.8,10,12.6,,0,0,92,,220,Dry,1015,4,50,18,0,,12.6,
Charterhall,03/09/2019 07:00,14.3,9,,,0,,91,,220,Dry,1016,7,40,56,0,,12.9,
Charterhall,03/09/2019 08:00,15.3,12,,,0,,88,,220,Dry,1016,7,50,218,0,,13.4,
Charterhall,03/09/2019 09:00,18.1,18,,,0,,76,,210,-,1016,7,,1040,0,,14,
Charterhall,03/09/2019 10:00,17.5,16,,,0,,76,,220,-,1016,,,1565,0,,13.4,
Charterhall,03/09/2019 11:00,18.2,16,,,0,,73,,220,-,1015,,,1081,0,,13.3,
Charterhall,03/09/2019 12:00,17.8,17,,,0,0,75,,220,-,1015,,,1119,0,,13.4,
Charterhall,03/09/2019 13:00,17.8,16,,,0,,75,,220,-,1015,,,859,0,,13.5,
Charterhall,03/09/2019 14:00,16.9,17,,,0,,81,,210,-,1014,,,514,0,,13.7,
Charterhall,03/09/2019 15:00,17.4,17,,,0.2,,77,,220,-,1014,,,647,0,,13.5,
Charterhall,03/09/2019 16:00,16.4,15,,,0,,86,,220,-,1013,,,464,0,,14.1,
Charterhall,03/09/2019 17:00,16.3,16,,,0,,89,,220,Drizzly rain,1012,8,50,351,0,,14.6,
Charterhall,03/09/2019 18:00,16,16,,19,0,0.2,91,,220,Rain,1012,3,50,250,0,,14.6,
Charterhall,03/09/2019 19:00,14.8,10,,,0.4,,93,,250,Light shower,1012,7,18,53,0,,13.8,
Charterhall,03/09/2019 20:00,14.6,10,,,0.8,,94,,230,Light rain,1011,8,24,0,0,,13.8,
Charterhall,03/09/2019 21:00,14.5,12,,,0.8,,96,,220,Drizzly rain,1010,8,50,0,0,,13.9,
Charterhall,03/09/2019 22:00,14.8,12,,,0,,95,,240,Rain,1010,6,50,0,0,,14.1,
Charterhall,03/09/2019 23:00,14.6,9,,,0,,94,,220,Dry,1009,8,50,0,0,,13.8,
Charterhall,04/09/2019 00:00,13.9,10,,,1,3,93,,260,Drizzly rain,1009,8,35,,,,12.8,
Charterhall,04/09/2019 01:00,13.3,5,,,0,,93,,250,Drizzly rain,1009,8,45,0,0,,12.3,
Charterhall,04/09/2019 02:00,12.4,5,,,0.2,,92,,240,Rain,1008,7,50,0,0,,11.2,
Charterhall,04/09/2019 03:00,11.9,9,,,0,,88,,260,Dry,1008,1,50,0,0,,10.1,
Charterhall,04/09/2019 04:00,10.4,7,,,0,,89,,250,Dry,1008,3,50,0,0,,8.7,
Charterhall,04/09/2019 05:00,9.3,7,,,0,,90,,260,Dry,1008,,45,0,0,,7.9,
Charterhall,04/09/2019 06:00,9.1,7,8.8,,0,0,92,,220,Dry,1008,2,30,23,0,,8,
Charterhall,04/09/2019 07:00,10.2,9,,,0,,91,,210,Dry,1008,1,35,315,54,,8.8,
Charterhall,04/09/2019 08:00,11.5,12,,,0,,86,,210,-,1008,2,,757,36,,9.4,
Charterhall,04/09/2019 09:00,11.9,16,,,0,,81,,220,-,1007,5,,1195,0,,8.8,
Charterhall,04/09/2019 10:00,13.8,17,,,0,,72,,210,-,1006,,,1658,0,,8.9,
Charterhall,04/09/2019 11:00,12.4,23,,,0,,76,31,220,-,1005,,,1276,0,,8.4,
Charterhall,04/09/2019 12:00,12.2,20,,,0.4,0.4,81,30,220,-,1004,,,633,0,,9.2,
Charterhall,04/09/2019 13:00,13.9,22,,,0,,78,36,220,-,1003,,,1492,0,,10.3,
Charterhall,04/09/2019 14:00,15.6,15,,,0,,70,32,220,-,1003,,,2175,0,,10.2,
Charterhall,04/09/2019 15:00,14.6,14,,,0,,76,,220,Drizzly rain,1003,2,45,1320,6,,10.5,
Charterhall,04/09/2019 16:00,11,15,,,5,,92,,360,Drizzly rain,1005,4,25,517,0,,9.9,
Charterhall,04/09/2019 17:00,12.2,9,,,0,,81,,340,Rain,1008,,50,1153,54,,9.2,
Charterhall,04/09/2019 18:00,12.2,7,,17.4,0,4.6,81,,300,Dry,1010,5,50,575,42,,9.1,
Charterhall,04/09/2019 19:00,11.5,12,,,1.8,,86,,330,Light shower,1012,7,23,89,0,,9.3,
Charterhall,04/09/2019 20:00,10.5,6,,,0,,78,,330,Rain,1014,8,50,3,0,,7,
Charterhall,04/09/2019 21:00,9.8,12,,,0,,76,,320,Dry,1015,6,50,0,0,,5.8,
Charterhall,04/09/2019 22:00,9.2,9,,,0,,77,,310,Dry,1016,1,50,0,0,,5.5,
Charterhall,04/09/2019 23:00,9.5,13,,,0,,75,,320,Dry,1017,5,50,0,0,,5.3,
Charterhall,05/09/2019 00:00,8.5,12,,,0,2,73,,310,Dry,1018,1,50,,,,4,
Charterhall,05/09/2019 01:00,8.1,8,,,0,,72,,290,Dry,1019,,50,0,0,,3.5,
Charterhall,05/09/2019 02:00,7.7,7,,,0,,74,,260,Dry,1020,,50,0,0,,3.5,
Charterhall,05/09/2019 03:00,7.7,8,,,0,,76,,280,Dry,1020,,50,0,0,,3.8,
Charterhall,05/09/2019 04:00,6.8,8,,,0,,81,,220,Dry,1020,6,50,0,0,,3.8,
Charterhall,05/09/2019 05:00,7.4,12,,,0,,76,,270,Dry,1021,,45,0,0,,3.5,
Charterhall,05/09/2019 06:00,6.4,6,6.4,,0,0,83,,230,Dry,1021,8,50,17,0,,3.8,
Charterhall,05/09/2019 07:00,8.6,6,,,0,,79,,230,Dry,1021,3,45,285,24,,5.3,
Charterhall,05/09/2019 08:00,9.8,12,,,0,,77,,260,Dry,1021,,50,686,30,,6.1,
Charterhall,05/09/2019 09:00,10.7,15,,,0,,75,,270,Dry,1021,5,50,682,12,,6.5,
Charterhall,05/09/2019 10:00,12.2,15,,,0,,73,,270,Rain,1021,6,45,852,0,,7.6,
Charterhall,05/09/2019 11:00,13.7,16,,,0,,72,30,260,Dry,1021,1,45,1247,12,,8.8,
Charterhall,05/09/2019 12:00,15.2,18,,,0,0,64,32,270,Dry,1021,2,45,1763,36,,8.6,
Charterhall,05/09/2019 13:00,16.3,20,,,0,,60,32,270,Dry,1020,6,40,1984,48,,8.7,
Charterhall,05/09/2019 14:00,17.4,20,,,0,,55,35,280,Dry,1020,3,40,1621,24,,8.5,
Charterhall,05/09/2019 15:00,16.4,21,,,0,,55,35,260,Dry,1020,1,40,1743,48,,7.4,
Charterhall,05/09/2019 16:00,16.4,20,,,0,,53,32,260,Dry,1020,2,50,1443,54,,7,
Charterhall,05/09/2019 17:00,15,15,,,0,,56,,260,Dry,1020,1,40,733,24,,6.5,
Charterhall,05/09/2019 18:00,13.8,10,,18.1,0,0,65,,230,Fog,1020,4,5,205,0,,7.5,
Charterhall,05/09/2019 19:00,12.9,13,,,0,,70,,240,Fog,1020,6,22,42,0,,7.6,
Charterhall,05/09/2019 20:00,12.6,14,,,0,,74,,240,Dry,1020,6,25,0,0,,8.1,
Charterhall,05/09/2019 21:00,12,9,,,0,,74,,230,Dry,1019,7,40,0,0,,7.6,
Charterhall,05/09/2019 22:00,12,13,,,0,,79,,220,Rain,1018,6,30,0,0,,8.5,
Charterhall,05/09/2019 23:00,12.2,14,,,0,,78,,220,Dry,1017,8,50,0,0,,8.6,
Charterhall,06/09/2019 00:00,12.1,13,,,0,0,78,,220,Dry,1016,1,40,,,,8.5,
Charterhall,06/09/2019 01:00,12.5,20,,,0,,71,29,220,Dry,1014,8,50,0,0,,7.5,
Charterhall,06/09/2019 02:00,12.1,23,,,0,,77,33,230,Dry,1013,8,50,0,0,,8.2,
Charterhall,06/09/2019 03:00,11.3,22,,,0,,89,35,220,Dry,1012,8,13,0,0,,9.7,
Charterhall,06/09/2019 04:00,11.3,18,,,0,,92,,220,Rain,1011,8,27,0,0,,10.2,
Charterhall,06/09/2019 05:00,11.6,15,,,0,,91,,220,Haze,1011,8,13,0,0,,10.2,
Charterhall,06/09/2019 06:00,11.7,10,11.2,,0.4,0.4,92,,240,Moderate shower,1011,8,7,10,0,,10.6,
Charterhall,06/09/2019 07:00,11,14,,,0.4,,82,,270,Rain,1011,,45,168,12,,8.2,
Charterhall,06/09/2019 08:00,12.3,10,,,0,,78,,250,Dry,1012,4,20,727,48,,8.6,
Charterhall,06/09/2019 09:00,12.7,17,,,0,,72,,260,Dry,1011,4,30,1296,42,,7.8,
Charterhall,06/09/2019 10:00,12.2,15,,,0,,73,,260,Dry,1012,,40,272,0,,7.7,
Charterhall,06/09/2019 11:00,12.9,13,,,0,,72,30,260,Dry,1012,2,50,511,0,,8.1,
Charterhall,06/09/2019 12:00,15.6,21,,,0,0.4,64,36,270,Dry,1012,1,30,1788,42,,8.9,
Charterhall,06/09/2019 13:00,16.3,18,,,0,,62,35,260,Dry,1012,1,40,1910,42,,9.2,
Charterhall,06/09/2019 14:00,16.2,23,,,0,,62,35,270,Dry,1012,1,27,2254,60,,9,
Charterhall,06/09/2019 15:00,16.4,17,,,0,,66,31,260,Dry,1013,6,30,1054,18,,10.2,
Charterhall,06/09/2019 16:00,15.1,18,,,0,,70,29,270,Dry,1013,4,50,1343,42,,9.7,
Charterhall,06/09/2019 17:00,15.4,16,,,0,,68,,270,Dry,1013,3,50,825,36,,9.7,
Charterhall,06/09/2019 18:00,14.5,16,,17.3,0,0,69,,270,Dry,1014,1,45,600,60,,9.1,
Charterhall,06/09/2019 19:00,13.6,15,,,0,,73,,280,Dry,1015,3,50,128,24,,9,
Charterhall,06/09/2019 20:00,13.2,14,,,0,,76,,280,Dry,1016,7,50,0,0,,9.1,
Charterhall,06/09/2019 21:00,12.4,9,,,0,,77,,290,Dry,1016,4,50,0,0,,8.6,
Charterhall,06/09/2019 22:00,12.2,10,,,0,,77,,300,Dry,1017,0,50,0,0,,8.4,
Charterhall,06/09/2019 23:00,11.3,9,,,0,,80,,300,Dry,1018,2,50,0,0,,8,
Charterhall,07/09/2019 00:00,11.4,12,,,0,0,77,,320,Dry,1019,2,50,,,,7.7,
Charterhall,07/09/2019 01:00,10.9,8,,,0,,77,,320,Dry,1020,5,50,0,0,,7.1,
Charterhall,07/09/2019 02:00,10.7,8,,,0,,78,,310,Dry,1020,1,50,0,0,,7.1,
Charterhall,07/09/2019 03:00,10.5,7,,,0,,78,,320,Dry,1021,7,50,0,0,,6.9,
Charterhall,07/09/2019 04:00,10,5,,,0,,80,,330,Dry,1022,7,50,0,0,,6.8,
Charterhall,07/09/2019 05:00,9.9,5,,,0,,82,,360,Dry,1022,8,50,0,0,,7.1,
Charterhall,07/09/2019 06:00,9.2,5,9.2,,0,0,77,,340,Dry,1023,5,50,18,0,,5.4,
Charterhall,07/09/2019 07:00,9,7,,,0,,73,,310,Dry,1024,0,40,215,42,,4.6,
Charterhall,07/09/2019 08:00,10.2,6,,,0,,68,,320,Dry,1024,7,45,460,12,,4.7,
Charterhall,07/09/2019 09:00,11.1,7,,,0,,64,,330,Dry,1025,8,50,739,0,,4.6,
Charterhall,07/09/2019 10:00,11.7,7,,,0,,63,,350,Dry,1025,8,50,893,0,,5.1,
Charterhall,07/09/2019 11:00,12.5,10,,,0,,59,,360,Dry,1026,4,45,1759,36,,4.9,
Charterhall,07/09/2019 12:00,13.7,9,,,0,0,61,,10,Dry,1026,3,24,1832,36,,6.4,
Charterhall,07/09/2019 13:00,13.4,9,,,0,,57,,40,Dry,1026,0,45,2401,54,,5.2,
Charterhall,07/09/2019 14:00,14,9,,,0,,56,,20,Dry,1026,3,45,1839,42,,5.6,
Charterhall,07/09/2019 15:00,14.1,9,,,0,,55,,20,Dry,1026,3,45,1992,60,,5.3,
Charterhall,07/09/2019 16:00,14.3,6,,,0,,55,,60,Dry,1026,0,45,1555,60,,5.5,
Charterhall,07/09/2019 17:00,14,3,,,0,,54,,350,Dry,1026,0,50,839,42,,5.1,
Charterhall,07/09/2019 18:00,11.8,5,,14.7,0,0,63,,50,Dry,1027,0,45,524,60,,5.2,
Charterhall,07/09/2019 19:00,8.8,5,,,0,,80,,70,Dry,1027,,30,89,24,,5.7,
Charterhall,07/09/2019 20:00,7.9,3,,,0,,88,,60,Dry,1028,,50,0,0,,6.1,
Charterhall,07/09/2019 21:00,7.4,2,,,0,,91,,40,Dry,1027,1,50,0,0,,6.1,
Charterhall,07/09/2019 22:00,6.5,2,,,0,,94,,40,Dry,1027,0,40,0,0,,5.7,
Charterhall,07/09/2019 23:00,5.5,0,,,0,,94,,0,Dry,1027,,50,0,0,,4.7,
Charterhall,08/09/2019 00:00,4.4,2,,,0,0,94,,270,Dry,1027,,30,,,,3.6,
Charterhall,08/09/2019 01:00,3.4,3,,,0,,95,,240,Dry,1027,,25,0,0,,2.8,
Charterhall,08/09/2019 02:00,3.9,6,,,0,,97,,290,Dry,1026,0,50,0,0,,3.5,
Charterhall,08/09/2019 03:00,2.2,2,,,0,,95,,230,Dry,1026,0,25,0,0,,1.6,
Charterhall,08/09/2019 04:00,4,8,,,0,,97,,270,Dry,1025,0,50,0,0,,3.7,
Charterhall,08/09/2019 05:00,3.3,3,,,0,,96,,230,Dry,1025,0,45,0,0,,2.8,
Charterhall,08/09/2019 06:00,3.2,5,2.2,,0,0,97,,250,Dry,1025,0,50,16,0,,2.9,
Charterhall,08/09/2019 07:00,5.9,7,,,0,,96,,260,Dry,1024,0,35,304,60,,5.4,
Charterhall,08/09/2019 08:00,8.8,7,,,0,,92,,240,Dry,1024,0,50,804,60,,7.6,
Charterhall,08/09/2019 09:00,12.2,6,,,0,,75,,210,Dry,1024,0,50,1299,60,,8,
Charterhall,08/09/2019 10:00,14.2,6,,,0,,68,,220,Dry,1023,0,40,1766,60,,8.4,
Charterhall,08/09/2019 11:00,15.2,6,,,0,,60,,210,Dry,1022,0,50,2093,60,,7.7,
Charterhall,08/09/2019 12:00,16.5,6,,,0,0,55,,220,Dry,1022,1,45,2244,60,,7.5,
Charterhall,08/09/2019 13:00,15.9,6,,,0,,58,,260,Dry,1021,4,22,1413,30,,7.9,
Charterhall,08/09/2019 14:00,16.7,8,,,0,,50,,190,Dry,1020,1,45,2209,60,,6.5,
Charterhall,08/09/2019 15:00,17.1,8,,,0,,47,,190,Dry,1020,1,50,1875,60,,5.9,
Charterhall,08/09/2019 16:00,16.2,6,,,0,,51,,210,Dry,1019,3,50,1239,42,,6.3,
Charterhall,08/09/2019 17:00,15.3,12,,,0,,59,,200,Dry,1018,7,50,500,0,,7.5,
Charterhall,08/09/2019 18:00,13.5,13,,18.1,0,0,66,,220,Dry,1018,1,50,271,6,,7.4,
Charterhall,08/09/2019 19:00,12.3,7,,,0,,72,,220,Dry,1018,7,50,60,0,,7.5,
Charterhall,08/09/2019 20:00,11.6,5,,,0,,79,,230,Dry,1017,8,50,0,0,,8.2,
Charterhall,08/09/2019 21:00,10.8,2,,,0,,84,,190,Dry,1017,,50,0,0,,8.3,
Charterhall,08/09/2019 22:00,10.8,3,,,0,,87,,210,Dry,1016,8,50,0,0,,8.8,
Charterhall,08/09/2019 23:00,10.8,3,,,0,,89,,160,Light shower,1016,5,40,0,0,,9.2,
Charterhall,09/09/2019 00:00,10.5,2,,,0,0,92,,30,Rain,1015,7,50,,,,9.3,
Charterhall,09/09/2019 01:00,10.9,5,,,0.2,,89,,170,Dry,1014,8,50,0,0,,9.2,
Charterhall,09/09/2019 02:00,11.2,7,,,0,,83,,190,Dry,1013,8,50,0,0,,8.5,
Charterhall,09/09/2019 03:00,11.1,5,,,0,,83,,200,Dry,1012,8,50,0,0,,8.4,
Charterhall,09/09/2019 04:00,10.5,2,,,0,,88,,90,Fog,1011,1,50,0,0,,8.6,
Charterhall,09/09/2019 05:00,10.2,3,,,1.4,,91,,140,Moderate rain,1011,8,8,0,0,,8.9,
Charterhall,09/09/2019 06:00,9.9,1,9.9,,2,4,94,,190,Moderate rain,1010,7,10,1,0,,9,
Charterhall,09/09/2019 07:00,10,3,,,1,,96,,90,Light rain,1010,8,6,42,0,,9.4,
Charterhall,09/09/2019 08:00,10.5,2,,,0.4,,96,,60,Light rain,1010,8,15,155,0,,10,
Charterhall,09/09/2019 09:00,11.4,2,,,0,,96,,110,-,1010,8,,529,0,,10.9,
Charterhall,09/09/2019 10:00,13.1,5,,,0,,87,,150,-,1010,8,,848,0,,11,
Charterhall,09/09/2019 11:00,13.4,8,,,0,,83,,200,Light shower,1010,1,27,1035,0,,10.7,
Charterhall,09/09/2019 12:00,13.9,8,,,0.2,2,81,,190,Light rain,1010,1,35,1222,0,,10.8,
Charterhall,09/09/2019 13:00,14.5,6,,,0,,73,,230,Rain,1010,8,50,874,0,,9.8,
Charterhall,09/09/2019 14:00,15.4,3,,,0,,66,,200,Dry,1010,1,45,1034,0,,9.2,
Charterhall,09/09/2019 15:00,14.6,6,,,0,,77,,90,Dry,1010,8,50,774,0,,10.8,
Charterhall,09/09/2019 16:00,14.6,5,,,0,,76,,90,Dry,1010,1,50,641,0,,10.6,
Charterhall,09/09/2019 17:00,14.5,5,,,0,,76,,70,Dry,1011,8,45,512,0,,10.4,
Charterhall,09/09/2019 18:00,13.9,3,,15.6,0,0,80,,80,Dry,1012,8,50,254,0,,10.6,
Charterhall,09/09/2019 19:00,12.2,3,,,0,,85,,60,Dry,1012,8,45,47,0,,9.8,
Charterhall,09/09/2019 20:00,11.9,2,,,0,,88,,30,Dry,1013,8,40,0,0,,10,
Charterhall,09/09/2019 21:00,11.8,1,,,0,,89,,230,Dry,1014,1,50,0,0,,10.2,
Charterhall,09/09/2019 22:00,11.5,1,,,0,,92,,50,Dry,1014,8,35,0,0,,10.3,
Charterhall,09/09/2019 23:00,11.3,2,,,0,,91,,250,Dry,1014,7,45,0,0,,10,
Charterhall,10/09/2019 00:00,11.1,1,,,0,0,92,,230,Dry,1014,8,26,,,,10,
Charterhall,10/09/2019 01:00,11.3,1,,,0,,94,,270,Dry,1015,8,21,0,0,,10.5,
Charterhall,10/09/2019 02:00,11.2,0,,,0,,94,,0,Dry,1015,8,14,0,0,,10.3,
Charterhall,10/09/2019 03:00,11.3,2,,,0,,95,,230,Dry,1015,8,11,0,0,,10.6,
Charterhall,10/09/2019 04:00,11.6,1,,,0.8,,96,,290,Rain,1015,7,5,0,0,,11,
Charterhall,10/09/2019 05:00,11.5,0,,,0.6,,96,,0,Light drizzle,1016,7,3,0,0,,11,
Charterhall,10/09/2019 06:00,11.7,2,10.8,,0.2,2,97,,270,Drizzle,1016,8,11,3,0,,11.3,
Charterhall,10/09/2019 07:00,11.9,5,,,0,,97,,350,Misty,1016,7,5,47,0,,11.5,
Charterhall,10/09/2019 08:00,11.8,5,,,0,,96,,350,Misty,1017,8,9,111,0,,11.3,
Charterhall,10/09/2019 09:00,11.9,7,,,0,,95,,10,Dry,1017,8,45,277,0,,11.2,
Charterhall,10/09/2019 10:00,12.4,7,,,0,,91,,20,Dry,1017,8,45,563,0,,11.1,
Charterhall,10/09/2019 11:00,,3,,,-0.2,,,,20,Dry,,8,50,694,0,,,
Charterhall,10/09/2019 12:00,,5,,,-0.2,,,,220,Haze,,8,8,602,0,,,
Charterhall,10/09/2019 13:00,,7,,,-0.2,,,,220,-,,8,,1545,18,,,
Charterhall,10/09/2019 16:00,15.2,15,,,-0.2,,78,,220,Dry,1015,7,40,1054,30,,11.4,
Charterhall,10/09/2019 17:00,14.3,17,,,0,,76,,220,Dry,1014,8,45,457,0,,10.2,
Charterhall,10/09/2019 18:00,12.9,20,,,0,,71,,220,Dry,1014,8,45,245,0,,7.9,
Charterhall,10/09/2019 19:00,12,16,,,0,,78,30,220,Dry,1013,8,50,30,0,,8.3,
Charterhall,10/09/2019 20:00,11.4,18,,,0,,86,30,230,Rain,1012,7,30,0,0,,9.3,
Charterhall,10/09/2019 21:00,10.8,15,,,0.4,,93,32,220,Light shower,1011,7,22,0,0,,9.8,
Charterhall,10/09/2019 22:00,11.3,17,,,1,,95,,220,Moderate rain,1010,8,19,0,0,,10.6,
Charterhall,10/09/2019 23:00,12.1,24,,,0,,91,31,220,Rain,1009,7,45,0,0,,10.8,
Charterhall,11/09/2019 00:00,12.9,18,,,0,1,90,30,210,Dry,1008,7,50,,,,11.4,
Charterhall,11/09/2019 01:00,13.5,28,,,0,,90,38,220,Dry,1006,8,50,0,0,,11.9,
Charterhall,11/09/2019 02:00,13.7,22,,,0.2,,93,39,220,Drizzly rain,1005,8,45,0,0,,12.7,
Charterhall,11/09/2019 03:00,14.9,20,,,0,,91,30,230,Rain,1005,2,50,0,0,,13.5,
Charterhall,11/09/2019 04:00,14.9,24,,,0,,91,33,220,Dry,1003,6,45,0,0,,13.6,
Charterhall,11/09/2019 05:00,15,17,,,0,,91,31,240,Rain,1004,2,50,0,0,,13.6,
Charterhall,11/09/2019 06:00,15,17,10.8,,0,1,74,35,250,Rain,1005,3,50,5,0,,10.6,
Charterhall,11/09/2019 07:00,13.7,15,,,0,,79,30,260,Dry,1006,0,50,219,36,,10.2,
Charterhall,11/09/2019 08:00,15.1,15,,,0,,75,,250,Dry,1007,6,35,844,60,,10.8,
Charterhall,11/09/2019 09:00,15.6,16,,,0,,73,29,250,Dry,1008,4,35,1330,60,,10.9,
Charterhall,11/09/2019 10:00,13.2,15,,,0.2,,91,,270,Moderate drizzle,1009,3,15,900,12,,11.8,
Charterhall,11/09/2019 11:00,16.2,21,,,0,,70,35,260,Drizzle,1009,3,30,1702,48,,10.8,
Charterhall,11/09/2019 12:00,16.4,17,,,0,0.2,68,30,250,Dry,1010,2,24,1777,42,,10.5,
Charterhall,11/09/2019 13:00,16.3,20,,,0,,63,31,250,Dry,1011,1,50,1471,30,,9.3,
Charterhall,11/09/2019 14:00,17.1,21,,,0,,60,35,250,Dry,1011,5,45,1652,42,,9.5,
Charterhall,11/09/2019 15:00,17,22,,,0,,61,32,250,Dry,1012,1,30,1395,30,,9.6,
Charterhall,11/09/2019 16:00,16.4,18,,,0,,61,32,250,Dry,1013,1,45,1279,48,,9.1,
Charterhall,11/09/2019 17:00,15.1,17,,,0,,67,,250,Dry,1014,6,30,705,30,,9.1,
Charterhall,11/09/2019 18:00,14,15,,17.8,0,0,73,,250,Dry,1014,8,50,250,0,,9.3,
Charterhall,11/09/2019 19:00,13,16,,,0,,77,,240,Dry,1015,1,45,51,0,,9.2,
Charterhall,11/09/2019 20:00,13.1,17,,,0,,74,,240,Dry,1016,7,50,0,0,,8.7,
Charterhall,11/09/2019 21:00,12.3,8,,,0,,76,,230,Dry,1017,8,50,0,0,,8.2,
Charterhall,11/09/2019 22:00,11.6,6,,,0,,78,,160,Dry,1017,7,50,0,0,,8,
Charterhall,11/09/2019 23:00,11.4,6,,,0,,81,,140,Dry,1017,8,50,0,0,,8.3,
Charterhall,12/09/2019 00:00,11.8,13,,,0,0,82,,220,Dry,1017,8,50,,,,8.9,
Charterhall,12/09/2019 01:00,11.7,13,,,0,,84,,220,Dry,1017,8,45,0,0,,9.1,
Charterhall,12/09/2019 02:00,10.7,9,,,0,,83,,230,Dry,1018,,50,0,0,,8.1,
Charterhall,12/09/2019 03:00,11.4,10,,,0,,85,,210,Dry,1018,7,50,0,0,,9.1,
Charterhall,12/09/2019 04:00,11.6,14,,,0,,85,,220,Dry,1018,8,50,0,0,,9.3,
Charterhall,12/09/2019 05:00,11.6,12,,,0,,85,,220,Dry,1018,7,30,0,0,,9.2,
Charterhall,12/09/2019 06:00,11.6,10,10.5,,0,0,88,,210,Dry,1018,1,45,4,0,,9.7,
Charterhall,12/09/2019 07:00,12.5,9,,,0,,87,,220,Dry,1018,8,40,87,0,,10.5,
Charterhall,12/09/2019 08:00,13.6,17,,,0,,84,,230,Dry,1018,7,40,409,6,,11.1,
Charterhall,12/09/2019 09:00,14.9,15,,,0,,79,,220,Dry,1018,8,40,618,0,,11.4,
Charterhall,12/09/2019 10:00,14.4,12,,,0,,86,,230,Dry,1018,8,21,498,0,,12.1,
Charterhall,12/09/2019 11:00,14.1,9,,,0.8,,96,,220,Moderate drizzle,1018,7,5,713,0,,13.6,
Charterhall,12/09/2019 12:00,14.3,6,,,1,2,96,,220,Moderate drizzle,1018,8,5,596,0,,13.8,
Charterhall,12/09/2019 13:00,14.4,2,,,2.2,,95,,280,Moderate drizzle,1018,8,3,542,0,,13.7,
Charterhall,12/09/2019 14:00,15.7,2,,,1,,97,,230,Light drizzle,1018,8,15,778,0,,15.3,
Charterhall,12/09/2019 15:00,16.5,8,,,0,,80,,280,Rain,1018,7,45,855,0,,13.2,
Charterhall,12/09/2019 16:00,16,10,,,0,,83,,290,Rain,1019,7,50,473,0,,13.3,
Charterhall,12/09/2019 17:00,16.4,8,,,0,,80,,290,Dry,1020,3,45,725,24,,13.1,
Charterhall,12/09/2019 18:00,14.5,13,,16.7,0,3,75,,280,Dry,1022,0,50,396,42,,10.3,
Charterhall,12/09/2019 19:00,12.6,9,,,0,,69,,270,Dry,1023,,50,54,12,,7.2,
Charterhall,12/09/2019 20:00,11.2,12,,,0,,79,,270,Dry,1024,0,50,0,0,,7.7,
Charterhall,12/09/2019 21:00,10.3,7,,,0,,80,,240,Dry,1026,0,50,0,0,,7.1,
Charterhall,12/09/2019 22:00,9.8,10,,,0,,84,,260,Dry,1027,0,50,0,0,,7.4,
Charterhall,12/09/2019 23:00,8.8,6,,,0,,86,,240,Dry,1027,0,50,0,0,,6.6,
Charterhall,13/09/2019 00:00,7.7,6,,,0,0,88,,230,Dry,1028,0,50,,,,5.9,
Charterhall,13/09/2019 01:00,8,8,,,0,,88,,240,Dry,1029,0,45,0,0,,6.3,
Charterhall,13/09/2019 02:00,7.5,3,,,0,,90,,230,Dry,1029,0,45,0,0,,6,
Charterhall,13/09/2019 03:00,6.6,2,,,0,,93,,190,Dry,1030,0,35,0,0,,5.7,
Charterhall,13/09/2019 04:00,7,3,,,0,,92,,210,Dry,1030,0,45,0,0,,5.9,
Charterhall,13/09/2019 05:00,7.5,5,,,0,,93,,250,Dry,1031,0,50,0,0,,6.5,
Charterhall,13/09/2019 06:00,7.8,9,6.4,,0,0,91,,240,Dry,1031,0,45,4,0,,6.5,
Charterhall,13/09/2019 07:00,8.7,9,,,0,,92,,220,Dry,1032,,45,216,48,,7.5,
Charterhall,13/09/2019 08:00,11.7,9,,,0,,84,,230,Dry,1032,0,35,687,60,,9.2,
Charterhall,13/09/2019 09:00,13.2,9,,,0,,72,,250,Dry,1033,0,23,1248,60,,8.3,
Charterhall,13/09/2019 10:00,13.6,15,,,0,,69,,270,Dry,1033,2,45,1512,54,,8.2,
Charterhall,13/09/2019 11:00,14.7,17,,,0,,61,,270,Dry,1034,0,35,1847,60,,7.4,
Charterhall,13/09/2019 12:00,15.7,17,,,0,0,62,,260,Dry,1034,1,28,2225,60,,8.6,
Charterhall,13/09/2019 13:00,16.5,16,,,0,,54,,260,Dry,1034,,40,2209,54,,7.4,
Charterhall,13/09/2019 14:00,17.2,13,,,0,,52,,250,Dry,1034,1,30,2176,60,,7.4,
Charterhall,13/09/2019 15:00,17.3,15,,,0,,48,,260,Dry,1034,4,35,1883,60,,6.4,
Charterhall,13/09/2019 16:00,15.7,13,,,0,,55,,260,Dry,1034,0,50,1322,54,,6.9,
Charterhall,13/09/2019 17:00,15.4,13,,,0,,54,,260,Dry,1034,2,45,688,24,,6.3,
Charterhall,13/09/2019 18:00,13.6,7,,17.6,0,0,63,,260,Dry,1034,0,45,359,36,,6.8,
Charterhall,13/09/2019 19:00,10.6,3,,,0,,74,,160,Dry,1035,0,50,51,0,,6.3,
Charterhall,13/09/2019 20:00,10,1,,,0,,78,,210,Dry,1036,1,50,0,0,,6.4,
Charterhall,13/09/2019 21:00,9.6,5,,,0,,82,,260,Dry,1035,0,50,0,0,,6.7,
Charterhall,13/09/2019 22:00,9.1,8,,,0,,83,,230,Dry,1035,0,50,0,0,,6.5,
Charterhall,13/09/2019 23:00,9,7,,,0,,84,,250,Dry,1035,5,50,0,0,,6.5,
Charterhall,14/09/2019 00:00,7.2,6,,,0,0,91,,230,Dry,1035,,45,,,,5.9,
Charterhall,14/09/2019 01:00,7.3,5,,,0,,89,,240,Dry,1035,0,50,0,0,,5.7,
Charterhall,14/09/2019 02:00,8,9,,,0,,91,,220,Dry,1034,5,50,0,0,,6.7,
Charterhall,14/09/2019 03:00,8.2,8,,,0,,91,,220,Dry,1033,,35,0,0,,6.9,
Charterhall,14/09/2019 04:00,8.7,10,,,0,,92,,220,Dry,1032,8,50,0,0,,7.5,
Charterhall,14/09/2019 05:00,9.1,9,,,0,,93,,220,Dry,1031,,45,0,0,,8.1,
Charterhall,14/09/2019 06:00,9.2,8,6.5,,0,0,92,,200,Dry,1030,7,30,4,0,,8,
Charterhall,14/09/2019 07:00,10,8,,,0,,90,,190,Dry,1030,1,50,151,0,,8.6,
Charterhall,14/09/2019 08:00,12.1,15,,,0,,83,,210,Dry,1029,8,30,625,24,,9.4,
Charterhall,14/09/2019 09:00,14,21,,,0,,75,,220,Dry,1028,7,40,1075,18,,9.7,
Charterhall,14/09/2019 10:00,14.1,21,,,0,,74,32,210,Dry,1027,5,40,1033,6,,9.7,
Charterhall,14/09/2019 11:00,14.8,22,,,0,,70,33,210,Dry,1026,1,40,1267,18,,9.4,
Charterhall,14/09/2019 12:00,15.4,29,,,0,0,66,41,230,Dry,1025,5,40,925,0,,9.2,
Charterhall,14/09/2019 13:00,15.9,26,,,0,,65,41,220,Dry,1024,4,40,1435,24,,9.5,
Charterhall,14/09/2019 14:00,16.4,23,,,0,,64,33,210,Dry,1023,7,40,1136,12,,9.6,
Charterhall,14/09/2019 15:00,16,22,,,0,,63,37,210,Dry,1022,2,50,1134,12,,9.2,
Charterhall,14/09/2019 16:00,15.8,28,,,0,,63,43,220,Dry,1021,6,45,848,0,,8.8,
Charterhall,14/09/2019 17:00,15.4,26,,,0,,67,45,220,Dry,1020,1,45,835,36,,9.4,
Charterhall,14/09/2019 18:00,14.6,28,,17.2,0,0,71,41,220,Dry,1020,5,45,366,18,,9.6,
Charterhall,14/09/2019 19:00,14.3,23,,,0,,73,38,230,Dry,1019,8,50,36,0,,9.7,
Charterhall,14/09/2019 20:00,14.2,28,,,0,,76,39,230,Dry,1018,5,45,0,0,,10.1,
Charterhall,14/09/2019 21:00,14.8,29,,,0,,76,40,220,Dry,1018,7,45,0,0,,10.7,
Charterhall,14/09/2019 22:00,14.4,23,,,0,,84,38,220,Dry,1018,8,50,0,0,,11.8,
Charterhall,14/09/2019 23:00,14,21,,,0,,90,30,220,Haze,1017,8,8,0,0,,12.5,
Charterhall,15/09/2019 00:00,13.7,15,,,0.4,0.4,93,,260,Moderate shower,1018,8,5,,,,12.6,
Charterhall,15/09/2019 01:00,12.5,13,,,0,,88,29,250,Rain,1018,8,50,0,0,,10.7,
Charterhall,15/09/2019 02:00,11.9,14,,,0,,80,,260,Dry,1018,6,50,0,0,,8.6,
Charterhall,15/09/2019 03:00,11.3,12,,,0,,78,,270,Dry,1019,1,40,0,0,,7.7,
Charterhall,15/09/2019 04:00,11,10,,,0,,80,,250,Dry,1019,0,29,0,0,,7.7,
Charterhall,15/09/2019 05:00,10.9,13,,,0,,78,,260,Dry,1019,0,30,0,0,,7.3,
Charterhall,15/09/2019 06:00,10.6,16,10.6,,0,0,75,,270,Dry,1019,0,21,0,0,,6.5,
Charterhall,15/09/2019 07:00,10.7,17,,,0,,75,,260,Dry,1019,6,20,163,12,,6.6,
Charterhall,15/09/2019 08:00,10.8,16,,,0,,72,,260,Dry,1020,8,24,158,0,,6,
Charterhall,15/09/2019 09:00,11,13,,,0,,73,,240,Dry,1021,8,19,125,0,,6.5,
Charterhall,15/09/2019 10:00,11.1,12,,,0,,76,,250,Rain,1021,,26,198,0,,7.2,
Charterhall,15/09/2019 11:00,12.1,15,,,0,,70,,260,Dry,1021,8,27,476,0,,6.9,
Charterhall,15/09/2019 12:00,12.3,17,,,0,0,69,,260,Dry,1022,8,40,556,0,,6.8,
Charterhall,15/09/2019 13:00,12.6,14,,,0,,69,,260,Dry,1022,8,25,509,0,,7.2,
Charterhall,15/09/2019 14:00,13.2,12,,,0,,66,,260,Dry,1022,,35,720,0,,7.2,
Charterhall,15/09/2019 15:00,14.6,13,,,0,,55,,250,Dry,1021,7,35,1114,18,,5.7,
Charterhall,15/09/2019 16:00,14.8,10,,,0,,52,,270,Dry,1021,3,40,1341,54,,5.1,
Charterhall,15/09/2019 17:00,14.2,12,,,0,,51,,270,Dry,1021,0,40,891,60,,4.4,
Charterhall,15/09/2019 18:00,12.3,9,,15.5,0,0,60,,260,Dry,1021,,30,366,60,,4.9,
Charterhall,15/09/2019 19:00,10.3,8,,,0,,68,,260,Dry,1022,,50,36,6,,4.7,
Charterhall,15/09/2019 20:00,8.5,7,,,0,,76,,250,Dry,1022,,35,0,0,,4.6,
Charterhall,15/09/2019 21:00,8.3,9,,,0,,79,,260,Dry,1022,0,35,0,0,,5,
Charterhall,15/09/2019 22:00,7,9,,,0,,85,,270,Dry,1022,,35,0,0,,4.7,
Charterhall,15/09/2019 23:00,6.3,9,,,0,,86,,270,Dry,1022,0,40,0,0,,4.2,
Charterhall,16/09/2019 00:00,6.3,8,,,0,0,86,,280,Dry,1022,0,45,,,,4.2,
Charterhall,16/09/2019 01:00,6.4,9,,,0,,86,,280,Dry,1022,0,45,0,0,,4.3,
Charterhall,16/09/2019 02:00,5.8,10,,,0,,90,,280,Dry,1022,0,26,0,0,,4.4,
Charterhall,16/09/2019 03:00,5.5,9,,,0,,90,,280,Dry,1022,0,30,0,0,,4,
Charterhall,16/09/2019 04:00,5.5,10,,,0,,86,,280,Dry,1021,0,45,0,0,,3.5,
Charterhall,16/09/2019 05:00,5.5,9,,,0,,87,,270,Dry,1022,1,40,0,0,,3.6,
Charterhall,16/09/2019 06:00,5.1,9,5,,0,0,89,,280,Dry,1022,1,35,0,0,,3.5,
Charterhall,16/09/2019 07:00,6.4,7,,,0,,88,,260,Dry,1021,5,50,172,6,,4.6,
Charterhall,16/09/2019 08:00,8.6,7,,,0,,90,,240,Dry,1022,1,40,439,24,,7.1,
Charterhall,16/09/2019 09:00,10.1,10,,,0,,84,,200,Dry,1022,0,30,972,48,,7.6,
Charterhall,16/09/2019 10:00,12.5,12,,,0,,71,,270,Dry,1021,3,45,1220,42,,7.5,
Charterhall,16/09/2019 11:00,13.6,12,,,0,,64,,270,Dry,1022,6,45,1547,42,,7,
Charterhall,16/09/2019 12:00,13.9,13,,,0,0,63,,260,Dry,1021,7,45,1151,12,,7,
Charterhall,16/09/2019 13:00,14.6,15,,,0,,55,,270,Dry,1021,3,17,1766,42,,5.7,
Charterhall,16/09/2019 14:00,15.2,16,,,0,,55,29,260,Dry,1021,6,45,1924,54,,6.3,
Charterhall,16/09/2019 15:00,15.8,14,,,0,,52,,290,Dry,1021,5,50,1640,54,,6,
Charterhall,16/09/2019 16:00,14.9,13,,,0,,59,,270,Dry,1021,3,45,1114,36,,7.1,
Charterhall,16/09/2019 17:00,13.8,16,,,0,,60,,270,Dry,1021,,50,645,48,,6.4,
Charterhall,16/09/2019 18:00,12.6,13,,16.5,0,0,66,,260,Dry,1021,0,50,273,42,,6.5,
Charterhall,16/09/2019 19:00,10.9,10,,,0,,74,,260,Dry,1022,0,50,41,6,,6.6,
Charterhall,16/09/2019 20:00,9.7,8,,,0,,79,,250,Dry,1022,0,50,0,0,,6.4,
Charterhall,16/09/2019 21:00,8.8,6,,,0,,83,,240,Dry,1022,0,50,0,0,,6.2,
Charterhall,16/09/2019 22:00,8.3,6,,,0,,86,,250,Dry,1022,0,45,0,0,,6.1,
Charterhall,16/09/2019 23:00,8,6,,,0,,84,,250,Dry,1022,0,45,0,0,,5.6,
Charterhall,17/09/2019 00:00,8,8,,,0,0,87,,240,Dry,1022,,50,,,,6,
Charterhall,17/09/2019 01:00,6.5,5,,,0,,90,,180,Dry,1022,0,50,0,0,,5,
Charterhall,17/09/2019 02:00,7.4,8,,,0,,87,,220,Dry,1022,0,45,0,0,,5.4,
Charterhall,17/09/2019 03:00,6.8,2,,,0,,87,,190,Dry,1022,0,45,0,0,,4.8,
Charterhall,17/09/2019 04:00,8.5,6,,,0,,85,,270,Dry,1022,,50,0,0,,6.2,
Charterhall,17/09/2019 05:00,8.5,10,,,0,,83,,290,Dry,1022,0,50,0,0,,5.8,
Charterhall,17/09/2019 06:00,8.4,10,6.5,,0,0,80,,290,Dry,1023,0,45,0,0,,5.3,
Charterhall,17/09/2019 07:00,8.9,12,,,0,,77,,290,Dry,1023,6,40,219,42,,5.1,
Charterhall,17/09/2019 08:00,10.6,8,,,0,,69,,280,Dry,1024,4,29,712,60,,5.3,
Charterhall,17/09/2019 09:00,11.6,10,,,0,,58,,300,Dry,1024,2,13,1171,54,,3.7,
Charterhall,17/09/2019 10:00,12.5,9,,,0,,50,,320,Dry,1025,0,45,1641,60,,2.5,
Charterhall,17/09/2019 11:00,12.9,12,,,0,,50,,330,Dry,1026,0,24,1867,60,,3,
Charterhall,17/09/2019 12:00,13.2,8,,,0,0,47,,310,Dry,1026,1,23,1951,54,,2.4,
Charterhall,17/09/2019 13:00,14.2,9,,,0,,46,,330,Haze,1026,1,25,2231,60,,2.8,
Charterhall,17/09/2019 14:00,13.9,8,,,0,,46,,310,Dry,1026,4,35,2080,54,,2.6,
Charterhall,17/09/2019 15:00,14.5,7,,,0,,46,,320,Dry,1026,1,30,1715,54,,3.1,
Charterhall,17/09/2019 16:00,13.7,6,,,0,,51,,350,Dry,1027,1,45,1034,42,,3.8,
Charterhall,17/09/2019 17:00,13.1,6,,,0,,52,,330,Dry,1027,,45,574,6,,3.7,
Charterhall,17/09/2019 18:00,12.1,3,,15.2,0,0,57,,360,Dry,1027,8,50,127,0,,4,
Charterhall,17/09/2019 19:00,11.1,2,,,0,,64,,340,Dry,1027,8,50,15,0,,4.7,
Charterhall,17/09/2019 20:00,9.5,0,,,0,,79,,0,Dry,1028,8,45,0,0,,6.2,
Charterhall,17/09/2019 21:00,9.3,2,,,0,,78,,250,Dry,1028,8,20,0,0,,5.8,
Charterhall,17/09/2019 22:00,8.8,3,,,0,,79,,260,Dry,1028,8,30,0,0,,5.5,
Charterhall,17/09/2019 23:00,8.2,5,,,0,,81,,260,Dry,1028,,50,0,0,,5.2,
Charterhall,18/09/2019 00:00,8.1,6,,,0,0,82,,230,Dry,1028,8,50,,,,5.3,
Charterhall,18/09/2019 01:00,7.7,6,,,0,,85,,240,Dry,1028,8,45,0,0,,5.4,
Charterhall,18/09/2019 02:00,8.3,6,,,0,,82,,230,Dry,1028,8,50,0,0,,5.5,
Charterhall,18/09/2019 03:00,8.1,5,,,0,,85,,230,Dry,1028,8,50,0,0,,5.9,
Charterhall,18/09/2019 04:00,8.2,5,,,0,,85,,220,Dry,1028,8,50,0,0,,5.9,
Charterhall,18/09/2019 05:00,8.5,7,,,0,,83,,270,Dry,1028,8,50,0,0,,5.9,
Charterhall,18/09/2019 06:00,8.4,2,7.2,,0,0,86,,220,Dry,1028,8,50,1,0,,6.2,
Charterhall,18/09/2019 07:00,9,7,,,0,,85,,260,Dry,1028,7,45,63,0,,6.7,
Charterhall,18/09/2019 08:00,9.8,7,,,0,,80,,260,Dry,1029,3,50,173,0,,6.6,
Charterhall,18/09/2019 09:00,10.7,7,,,0,,77,,220,Dry,1029,6,45,254,0,,6.9,
Charterhall,18/09/2019 10:00,11.5,8,,,0,,76,,210,Dry,1029,8,40,428,0,,7.6,
Charterhall,18/09/2019 11:00,12.8,9,,,0,,70,,230,Dry,1029,8,50,644,0,,7.5,
Charterhall,18/09/2019 12:00,14.4,12,,,0,0,66,,220,Dry,1028,8,40,877,0,,8.2,
Charterhall,18/09/2019 13:00,16.3,12,,,0,,66,,250,Dry,1028,1,30,1204,6,,10,
Charterhall,18/09/2019 14:00,16.3,10,,,0,,68,,270,Dry,1028,8,45,1085,12,,10.5,
Charterhall,18/09/2019 15:00,16.1,12,,,0,,67,,290,Dry,1028,8,14,778,0,,10.1,
Charterhall,18/09/2019 16:00,16.3,10,,,0,,70,,270,Dry,1028,8,28,700,6,,10.9,
Charterhall,18/09/2019 17:00,15.5,8,,,0,,71,,240,Dry,1028,5,50,521,18,,10.3,
Charterhall,18/09/2019 18:00,14.8,6,,17.1,0,0,75,,250,Dry,1028,7,50,243,18,,10.5,
Charterhall,18/09/2019 19:00,13.3,8,,,0,,82,,260,Dry,1028,4,50,26,0,,10.4,
Charterhall,18/09/2019 20:00,13.7,12,,,0,,83,,270,Dry,1029,7,50,0,0,,10.9,
Charterhall,18/09/2019 21:00,14,13,,,0,,82,,280,Dry,1029,8,50,0,0,,11.1,
Charterhall,18/09/2019 22:00,13.6,10,,,0,,84,,260,Dry,1029,8,50,0,0,,11.1,
Charterhall,18/09/2019 23:00,12.7,7,,,0,,89,,200,Dry,1030,8,50,0,0,,11,
Charterhall,19/09/2019 00:00,12.3,5,,,0,0,88,,200,Dry,1030,8,50,,,,10.5,
Charterhall,19/09/2019 01:00,10.3,6,,,0,,92,,230,Dry,1030,0,50,0,0,,9.1,
Charterhall,19/09/2019 02:00,9.3,5,,,0,,95,,210,Dry,1030,0,50,0,0,,8.6,
Charterhall,19/09/2019 03:00,9.4,5,,,0,,99,,240,Dry,1030,,50,0,0,,9.3,
Charterhall,19/09/2019 04:00,8.4,5,,,0,,97,,240,Dry,1030,0,50,0,0,,8,
Charterhall,19/09/2019 05:00,8.5,2,,,0,,99,,240,Dry,1030,,50,0,0,,8.4,
Charterhall,19/09/2019 06:00,8.5,7,7.8,,0,0,100,,240,Dry,1030,,40,0,0,,8.5,
Charterhall,19/09/2019 07:00,9.2,5,,,0,,99,,240,Dry,1030,0,45,165,42,,9.1,
Charterhall,19/09/2019 08:00,11.7,7,,,0,,92,,240,Dry,1030,0,45,684,60,,10.6,
Charterhall,19/09/2019 09:00,13.1,9,,,0,,88,,230,Dry,1030,7,40,969,36,,11.2,
Charterhall,19/09/2019 10:00,14.2,7,,,0,,81,,250,Dry,1030,7,50,871,0,,11.1,
Charterhall,19/09/2019 11:00,14.7,8,,,0,,78,,210,Dry,1030,8,45,936,0,,11.1,
Charterhall,19/09/2019 12:00,16.1,10,,,0,0,72,,220,Dry,1030,8,30,1321,6,,11.1,
Charterhall,19/09/2019 13:00,17.8,9,,,0,,67,,210,Dry,1029,4,50,1886,54,,11.7,
Charterhall,19/09/2019 14:00,20.2,12,,,0,,61,,230,Dry,1029,0,45,1923,60,,12.5,
Charterhall,19/09/2019 15:00,19.9,13,,,0,,61,,220,Dry,1028,0,50,1578,60,,12.4,
Charterhall,19/09/2019 16:00,19.7,10,,,0,,64,,200,Dry,1028,0,40,1183,60,,12.9,
Charterhall,19/09/2019 17:00,18.6,8,,,0,,70,,180,Dry,1028,0,40,624,60,,13.2,
Charterhall,19/09/2019 18:00,16.7,10,,20.5,0,0,77,,210,Dry,1028,0,45,329,54,,12.8,
Charterhall,19/09/2019 19:00,14.5,6,,,0,,86,,220,Dry,1028,0,45,19,0,,12.3,
Charterhall,19/09/2019 20:00,13,9,,,0,,94,,260,Dry,1028,0,30,0,0,,12.1,
Charterhall,19/09/2019 21:00,12.2,6,,,0,,96,,250,Dry,1028,0,27,0,0,,11.6,
Charterhall,19/09/2019 22:00,11.7,6,,,0,,97,,240,Dry,1029,0,29,0,0,,11.3,
Charterhall,19/09/2019 23:00,10.1,6,,,0,,98,,230,Dry,1029,0,18,0,0,,9.9,
Charterhall,20/09/2019 00:00,9.4,6,,,0,0,97,,280,Dry,1028,,11,,,,9,
Charterhall,20/09/2019 01:00,8.7,6,,,0,,96,,260,Dry,1028,,40,0,0,,8.1,
Charterhall,20/09/2019 02:00,8.6,7,,,0,,94,,270,Dry,1028,0,50,0,0,,7.8,
Charterhall,20/09/2019 03:00,8.5,10,,,0,,89,,270,Dry,1027,0,50,0,0,,6.8,
Charterhall,20/09/2019 04:00,8.3,9,,,0,,88,,280,Dry,1027,0,45,0,0,,6.5,
Charterhall,20/09/2019 05:00,7.4,6,,,0,,82,,270,Dry,1026,0,45,0,0,,4.7,
Charterhall,20/09/2019 06:00,6.3,2,6.1,,0,0,85,,270,Dry,1026,0,50,0,0,,4.1,
Charterhall,20/09/2019 07:00,7.5,8,,,0,,83,,270,Dry,1026,0,16,108,18,,4.9,
Charterhall,20/09/2019 08:00,9.8,5,,,0,,79,,250,Dry,1027,0,30,440,60,,6.4,
Charterhall,20/09/2019 09:00,14.2,3,,,0,,69,,200,Dry,1026,0,35,1042,60,,8.7,
Charterhall,20/09/2019 10:00,15.9,5,,,0,,68,,200,Dry,1026,,50,1488,60,,10.2,
Charterhall,20/09/2019 11:00,18,6,,,0,,65,,200,Dry,1025,0,35,1685,60,,11.4,
Charterhall,20/09/2019 12:00,20.4,8,,,0,0,54,,220,Dry,1025,0,40,1893,60,,10.9,
Charterhall,20/09/2019 13:00,21.1,6,,,0,,54,,190,Dry,1024,0,35,2092,60,,11.5,
Charterhall,20/09/2019 14:00,21.7,7,,,0,,53,,110,Dry,1023,0,35,1934,60,,11.9,
Charterhall,20/09/2019 15:00,21.5,6,,,0,,56,,120,Dry,1022,0,45,1644,60,,12.4,
Charterhall,20/09/2019 16:00,21.4,8,,,0,,61,,100,Dry,1021,0,35,1234,60,,13.7,
Charterhall,20/09/2019 17:00,19.6,6,,,0,,69,,40,Dry,1021,0,30,727,60,,13.8,
Charterhall,20/09/2019 18:00,18.1,3,,22,0,0,67,,110,Dry,1021,,30,277,60,,12.1,
Charterhall,20/09/2019 19:00,14.7,2,,,0,,82,,100,Dry,1021,0,23,6,0,,11.7,
Charterhall,20/09/2019 20:00,13.3,3,,,0,,88,,30,Dry,1021,0,15,0,0,,11.5,
Charterhall,20/09/2019 21:00,12.5,5,,,0,,89,,360,Dry,1020,0,13,0,0,,10.9,
Charterhall,20/09/2019 22:00,12.2,7,,,0,,91,,350,Haze,1020,0,11,0,0,,10.8,
Charterhall,20/09/2019 23:00,11.7,6,,,0,,89,,350,Dry,1020,0,14,0,0,,10.1,
Charterhall,21/09/2019 00:00,11.5,6,,,0,0,89,,340,Dry,1019,,25,,,,9.8,
Charterhall,21/09/2019 01:00,11.8,2,,,0,,92,,240,Dry,1019,,30,0,0,,10.6,
Charterhall,21/09/2019 02:00,11.6,8,,,0,,91,,230,Dry,1018,0,27,0,0,,10.2,
Charterhall,21/09/2019 03:00,10.9,7,,,0,,86,,250,Dry,1018,,29,0,0,,8.8,
Charterhall,21/09/2019 04:00,10.5,7,,,0,,82,,240,Dry,1017,0,40,0,0,,7.7,
Charterhall,21/09/2019 05:00,10.1,6,,,0,,83,,270,Dry,1017,0,22,0,0,,7.5,
Charterhall,21/09/2019 06:00,8.4,3,8.1,,0,0,91,,20,Dry,1016,0,12,0,0,,7.1,
Charterhall,21/09/2019 07:00,9.3,3,,,0.2,,90,,360,Haze,1016,,7,131,36,,7.9,
Charterhall,21/09/2019 08:00,12.2,3,,,0,,84,,50,Dry,1016,0,12,561,60,,9.6,
Charterhall,21/09/2019 09:00,14.6,5,,,0,,78,,110,Dry,1015,,12,1057,60,,11,
Charterhall,21/09/2019 10:00,16.7,8,,,0,,68,,130,Dry,1015,0,14,1504,60,,10.8,
Charterhall,21/09/2019 11:00,18.1,16,,,0,,67,,120,Dry,1014,,19,1833,60,,11.9,
Charterhall,21/09/2019 12:00,19.6,13,,,0,0.2,60,,100,Dry,1013,0,18,2006,60,,11.7,
Charterhall,21/09/2019 13:00,20,17,,,0,,56,,110,Dry,1012,0,17,2039,60,,11.2,
Charterhall,21/09/2019 14:00,19.7,14,,,0,,62,,90,Dry,1011,0,25,1900,60,,12.3,
Charterhall,21/09/2019 15:00,18.9,17,,,0,,64,,90,Dry,1011,0,26,1611,60,,12.1,
Charterhall,21/09/2019 16:00,17.5,15,,,0,,69,,110,Dry,1010,0,45,1212,60,,11.8,
Charterhall,21/09/2019 17:00,16.1,13,,,0,,74,,110,Dry,1010,0,26,717,60,,11.5,
Charterhall,21/09/2019 18:00,14.1,8,,20.6,0,0,83,,60,Dry,1010,0,30,252,54,,11.4,
Charterhall,21/09/2019 19:00,12.3,5,,,0,,91,,30,Dry,1010,0,20,3,0,,10.9,
Charterhall,21/09/2019 20:00,11.7,8,,,0,,94,,40,Dry,1009,,19,0,0,,10.9,
Charterhall,21/09/2019 21:00,10.7,7,,,0,,94,,40,Dry,1009,0,11,0,0,,9.9,
Charterhall,21/09/2019 22:00,10.4,7,,,0,,98,,340,Misty,1008,0,9,0,0,,10.1,
Charterhall,21/09/2019 23:00,10.2,7,,,0,,98,,360,Misty,1008,0,7,0,0,,9.9,
Charterhall,22/09/2019 00:00,10,7,,,0,0,98,,360,Misty,1007,0,7,,,,9.8,
Charterhall,22/09/2019 01:00,9.8,6,,,0,,98,,360,Misty,1007,0,6,0,0,,9.6,
Charterhall,22/09/2019 02:00,10,6,,,0,,99,,10,Misty,1006,6,6,0,0,,9.9,
Charterhall,22/09/2019 03:00,9.8,6,,,0,,98,,360,Misty,1006,2,5,0,0,,9.6,
Charterhall,22/09/2019 04:00,9.1,5,,,0,,98,,330,Misty,1005,3,7,0,0,,8.9,
Charterhall,22/09/2019 05:00,8.8,5,,,0,,98,,20,Misty,1005,3,8,0,0,,8.6,
Charterhall,22/09/2019 06:00,10.1,7,8.5,,0,0,98,,350,Misty,1004,2,10,0,0,,9.9,
Charterhall,22/09/2019 07:00,10.4,7,,,0,,96,,360,Dry,1004,1,13,62,0,,9.9,
Charterhall,22/09/2019 08:00,12.4,7,,,0,,89,,20,Dry,1004,6,19,269,12,,10.7,
Charterhall,22/09/2019 09:00,13.8,6,,,0,,87,,30,Dry,1004,7,17,401,0,,11.8,
Charterhall,22/09/2019 10:00,15.4,5,,,0,,82,,10,Dry,1004,7,27,663,0,,12.5,
Charterhall,22/09/2019 11:00,17.2,7,,,0,,77,,60,Dry,1003,5,30,1250,24,,13.3,
Charterhall,22/09/2019 12:00,17.7,6,,,0,0,81,,70,Dry,1003,8,25,566,0,,14.5,
Charterhall,22/09/2019 13:00,17.7,9,,,0,,78,,40,Dry,1002,7,21,742,0,,14,
Charterhall,22/09/2019 14:00,17.4,9,,,0,,82,,30,Dry,1002,7,25,442,0,,14.4,
Charterhall,22/09/2019 15:00,16.2,10,,,0,,87,,40,Rain,1002,8,18,276,0,,14.1,
Charterhall,22/09/2019 16:00,16,9,,,0,,86,,30,Dry,1001,5,21,469,0,,13.8,
Charterhall,22/09/2019 17:00,15.1,7,,,0,,90,,20,Light shower,1001,8,14,84,0,,13.6,
Charterhall,22/09/2019 18:00,14.4,5,,18.5,1.2,1,96,,20,Moderate rain,1002,1,5,24,0,,13.9,
Charterhall,22/09/2019 19:00,14.2,5,,,1.2,,98,,10,Light rain,1001,8,5,1,0,,13.9,
Charterhall,22/09/2019 20:00,13.8,5,,,0.8,,98,,10,Light shower,1002,8,6,0,0,,13.6,
Charterhall,22/09/2019 21:00,13.7,5,,,10,,99,,340,Violent shower,1002,8,2,0,0,,13.6,
Charterhall,22/09/2019 22:00,13.6,5,,,4.4,,99,,340,Moderate rain,1002,8,3,0,0,,13.5,
Charterhall,22/09/2019 23:00,14.3,3,,,4.6,,100,,300,Moderate rain,1002,8,6,0,0,,14.3,
Charterhall,23/09/2019 00:00,14.1,3,,,0,21,100,,220,Light rain,1002,4,4,,,,14.1,
Charterhall,23/09/2019 01:00,14.1,2,,,0,,100,,230,Rain,1002,2,3,0,0,,14.1,
Charterhall,23/09/2019 02:00,14.5,5,,,0.2,,100,,290,Light shower,1002,8,7,0,0,,14.5,
Charterhall,23/09/2019 03:00,14.1,3,,,0,,100,,250,Rain,1003,7,11,0,0,,14.1,
Charterhall,23/09/2019 04:00,13.3,8,,,0,,99,,200,Dry,1003,2,45,0,0,,13.2,
Charterhall,23/09/2019 05:00,12.7,6,,,0,,99,,230,Dry,1003,0,30,0,0,,12.6,
Charterhall,23/09/2019 06:00,12.2,3,12.1,,0,0,98,,250,Dry,1004,6,40,0,0,,12,
Charterhall,23/09/2019 07:00,13,9,,,0,,98,,230,Dry,1004,7,50,83,0,,12.8,
Charterhall,23/09/2019 08:00,14.2,9,,,0,,93,,220,Dry,1005,2,50,390,6,,13.1,
Charterhall,23/09/2019 09:00,14.8,8,,,0,,90,,220,Dry,1005,4,50,736,24,,13.2,
Charterhall,23/09/2019 10:00,15.8,15,,,0,,80,,200,Dry,1005,7,35,976,18,,12.5,
Charterhall,23/09/2019 11:00,15.9,16,,,0,,78,,220,Dry,1005,7,40,1403,42,,12.1,
Charterhall,23/09/2019 12:00,16.2,13,,,0,0,72,,190,Dry,1006,7,45,1230,6,,11.3,
Charterhall,23/09/2019 13:00,16.1,14,,,0,,73,,220,Dry,1006,7,50,1244,24,,11.3,
Charterhall,23/09/2019 14:00,17.2,12,,,0,,71,,200,Dry,1005,5,50,1378,24,,12.1,
Charterhall,23/09/2019 15:00,16.6,10,,,0,,67,,190,Dry,1005,4,50,1225,48,,10.5,
Charterhall,23/09/2019 16:00,16.1,9,,,0,,69,,190,Dry,1005,0,50,850,18,,10.6,
Charterhall,23/09/2019 17:00,15.6,8,,,0,,70,,140,Dry,1005,2,50,335,6,,10.2,
Charterhall,23/09/2019 18:00,14.1,6,,17.7,0,0,75,,120,Dry,1005,0,50,327,36,,9.8,
Charterhall,23/09/2019 19:00,12.5,6,,,0,,81,,110,Dry,1004,1,50,3,0,,9.4,
Charterhall,23/09/2019 20:00,12.2,7,,,0,,88,,60,Dry,1004,7,50,0,0,,10.3,
Charterhall,23/09/2019 21:00,13,8,,,0,,84,,90,Dry,1004,8,50,0,0,,10.4,
Charterhall,23/09/2019 22:00,12.3,6,,,0.6,,92,,90,Moderate shower,1003,7,14,0,0,,11.2,
Charterhall,23/09/2019 23:00,12.5,6,,,1.6,,97,,100,Drizzly rain,1002,7,19,0,0,,12.1,
Charterhall,24/09/2019 00:00,12.9,5,,,0,2,97,,100,Rain,1002,7,30,,,,12.5,
Charterhall,24/09/2019 01:00,13.2,7,,,0,,97,,90,Dry,1001,7,45,0,0,,12.8,
Charterhall,24/09/2019 02:00,13.3,6,,,0,,94,,130,Dry,1001,8,50,0,0,,12.4,
Charterhall,24/09/2019 03:00,12.4,3,,,0,,96,,90,Dry,1000,5,40,0,0,,11.9,
Charterhall,24/09/2019 04:00,12.4,5,,,0,,99,,90,Misty,1000,8,9,0,0,,12.3,
Charterhall,24/09/2019 05:00,12.5,5,,,0,,99,,10,Light shower,1000,8,6,0,0,,12.4,
Charterhall,24/09/2019 06:00,12.5,2,11.9,,0.2,0,99,,340,Drizzly rain,1000,7,6,0,0,,12.4,
Charterhall,24/09/2019 07:00,13,5,,,0,,100,,40,Light shower,999,1,5,40,0,,13,
Charterhall,24/09/2019 08:00,14.5,3,,,0,,99,,110,Rain,999,5,6,323,18,,14.4,
Charterhall,24/09/2019 09:00,15.4,2,,,0,,96,,100,Dry,999,7,11,458,6,,14.9,
Charterhall,24/09/2019 10:00,16.9,3,,,0,,86,,80,Fog,998,6,1,1034,36,,14.7,
Charterhall,24/09/2019 11:00,17.7,6,,,0,,85,,110,Fog,998,7,8,982,12,,15.3,
Charterhall,24/09/2019 12:00,16.4,9,,,0,0,89,,90,Dry,998,8,30,764,0,,14.7,
Charterhall,24/09/2019 13:00,15.6,8,,,0,,96,,80,Misty,997,8,8,302,0,,15,
Charterhall,24/09/2019 14:00,15,8,,,0,,95,,60,Misty,997,7,7,394,0,,14.3,
Charterhall,24/09/2019 15:00,14.2,10,,,0.6,,99,,40,Light shower,996,8,7,199,0,,14.1,
Charterhall,24/09/2019 16:00,13.9,10,,,0.2,,100,,50,Moderate rain,996,7,2,162,0,,13.9,
Charterhall,24/09/2019 17:00,13.9,8,,,2.4,,100,,50,Moderate rain,995,8,11,73,0,,13.9,
Charterhall,24/09/2019 18:00,13.7,8,,17.8,0.4,4,100,,60,Moderate rain,995,8,1,49,0,,13.7,
Charterhall,24/09/2019 19:00,13.7,6,,,2.4,,100,,70,Moderate rain,995,7,7,1,0,,13.7,
Charterhall,24/09/2019 20:00,13.7,8,,,0.2,,100,,50,Drizzly rain,995,8,0,0,0,,13.7,
Charterhall,24/09/2019 21:00,13.7,7,,,2.4,,100,,50,Moderate rain,994,8,3,0,0,,13.7,
Charterhall,24/09/2019 22:00,13.6,7,,,1.8,,100,,50,Light drizzle,994,8,1,0,0,,13.6,
Charterhall,24/09/2019 23:00,13.6,5,,,0.2,,100,,70,Thickening fog,994,9,0,0,0,,13.6,
Charterhall,25/09/2019 00:00,13.7,1,,,0,7,100,,340,Fog,994,8,1,,,,13.7,
Charterhall,25/09/2019 01:00,13.7,1,,,0,,100,,40,Fog,994,8,3,0,0,,13.7,
Charterhall,25/09/2019 02:00,13.7,3,,,0,,100,,220,Misty,994,8,2,0,0,,13.7,
Charterhall,25/09/2019 03:00,13.6,6,,,1.8,,100,,210,Moderate drizzle,994,8,2,0,0,,13.6,
Charterhall,25/09/2019 04:00,13.4,6,,,1,,100,,200,Drizzle,994,8,4,0,0,,13.4,
Charterhall,25/09/2019 05:00,13.4,6,,,0.2,,100,,190,Light drizzle,994,8,8,0,0,,13.4,
Charterhall,25/09/2019 06:00,13.4,10,13.3,,0.2,3,100,,200,Light drizzle,995,8,3,0,0,,13.4,
Charterhall,25/09/2019 07:00,13.3,7,,,0.6,,100,,170,Moderate drizzle,996,7,3,7,0,,13.3,
Charterhall,25/09/2019 08:00,13.2,7,,,3,,100,,130,Moderate rain,996,8,3,32,0,,13.2,
Charterhall,25/09/2019 09:00,13.6,5,,,2.8,,100,,110,Moderate rain,997,8,9,165,0,,13.6,
Charterhall,25/09/2019 10:00,14.8,6,,,0.6,,100,,140,Light rain,997,2,45,443,0,,14.8,
Charterhall,25/09/2019 11:00,16.2,10,,,0,,89,,150,Rain,998,8,29,1188,6,,14.4,
Charterhall,25/09/2019 12:00,16.3,10,,,0,7,86,,140,Dry,998,1,40,941,0,,14,
Charterhall,25/09/2019 13:00,16.6,9,,,0,,84,,140,Dry,998,8,50,1028,0,,13.9,
Charterhall,25/09/2019 14:00,16.9,12,,,0,,82,,150,Dry,998,8,50,799,0,,13.9,
Charterhall,25/09/2019 15:00,16.6,12,,,0,,84,,150,Dry,998,8,45,589,0,,13.9,
Charterhall,25/09/2019 16:00,16.7,8,,,0,,81,,160,Dry,998,8,50,407,0,,13.6,
Charterhall,25/09/2019 17:00,15,9,,,0,,90,,230,Rain,998,6,50,151,0,,13.5,
Charterhall,25/09/2019 18:00,14.4,6,,17.1,1.6,2,96,,210,Rain,998,8,50,67,0,,13.8,
Charterhall,25/09/2019 19:00,14.4,3,,,1,,99,,190,Moderate shower,998,8,4,1,0,,14.3,
Charterhall,25/09/2019 20:00,14.1,3,,,3.2,,99,,170,Rain,998,8,21,0,0,,14,
Charterhall,25/09/2019 21:00,14,5,,,0,,100,,100,Misty,998,8,15,0,0,,14,
Charterhall,25/09/2019 22:00,13.7,3,,,0.2,,100,,100,Rain,997,8,4,0,0,,13.7,
Charterhall,25/09/2019 23:00,12.7,3,,,0,,99,,80,Misty,997,8,4,0,0,,12.6,
Charterhall,26/09/2019 00:00,12.3,2,,,0,4,100,,40,Fog,996,7,2,,,,12.3,
Charterhall,26/09/2019 01:00,12.3,3,,,0.4,,100,,70,Moderate shower,996,7,1,0,0,,12.3,
Charterhall,26/09/2019 02:00,12.5,2,,,0.6,,100,,100,Moderate rain,994,1,6,0,0,,12.5,
Charterhall,26/09/2019 03:00,12.6,6,,,1,,100,,60,Moderate shower,994,8,5,0,0,,12.6,
Charterhall,26/09/2019 04:00,12.7,5,,,0,,100,,100,Rain,993,8,8,0,0,,12.7,
Charterhall,26/09/2019 05:00,13,5,,,1.6,,100,,150,Rain,992,8,12,0,0,,13,
Charterhall,26/09/2019 06:00,13.2,8,12.1,,0.2,4,97,,200,Fog,992,8,50,0,0,,12.8,
Charterhall,26/09/2019 07:00,12.9,3,,,0,,98,,210,Dry,992,7,45,37,0,,12.6,
Charterhall,26/09/2019 08:00,13.5,13,,,0,,90,,220,Dry,993,7,40,305,18,,12,
Charterhall,26/09/2019 09:00,13.7,13,,,0,,88,,210,Dry,993,4,40,639,18,,11.9,
Charterhall,26/09/2019 10:00,13.8,10,,,0,,87,,210,Dry,993,4,40,427,0,,11.8,
Charterhall,26/09/2019 11:00,13.7,12,,,0,,91,,230,Light shower,993,8,35,597,0,,12.3,
Charterhall,26/09/2019 12:00,15.2,15,,,0,0,78,,210,Rain,993,3,45,1223,18,,11.5,
Charterhall,26/09/2019 13:00,13,10,,,3.2,,92,,230,Heavy shower,993,8,11,456,0,,11.8,
Charterhall,26/09/2019 14:00,14.1,16,,,0,,84,,230,Rain,994,1,10,654,0,,11.5,
Charterhall,26/09/2019 15:00,14.8,15,,,0,,82,,220,Rain,994,8,50,893,6,,11.8,
Charterhall,26/09/2019 16:00,14.4,13,,,0,,80,,230,Dry,994,7,50,674,6,,11.1,
Charterhall,26/09/2019 17:00,13.8,16,,,0,,82,30,220,Dry,993,1,40,511,18,,10.9,
Charterhall,26/09/2019 18:00,12.9,20,,15.4,0,3,85,33,230,Dry,993,,40,113,0,,10.5,
Charterhall,26/09/2019 19:00,12,7,,,0,,92,,170,Dry,994,3,50,0,0,,10.8,
Charterhall,26/09/2019 20:00,12.3,5,,,0,,92,,170,Light shower,994,7,28,0,0,,11.2,
Charterhall,26/09/2019 21:00,11.5,5,,,0,,94,,180,Rain,994,5,28,0,0,,10.7,
Charterhall,26/09/2019 22:00,11.5,5,,,0.8,,98,,120,Moderate shower,994,7,7,0,0,,11.2,
Charterhall,26/09/2019 23:00,11.9,10,,,1.4,,97,,200,Light shower,994,8,40,0,0,,11.5,
Charterhall,27/09/2019 00:00,11.7,7,,,0.2,2,96,,200,Light shower,994,8,22,,,,11.2,
Charterhall,27/09/2019 01:00,10.8,7,,,0.2,,96,,190,Rain,994,,50,0,0,,10.2,
Charterhall,27/09/2019 02:00,10.5,12,,,0,,96,,210,Dry,994,0,45,0,0,,10,
Charterhall,27/09/2019 03:00,10.6,15,,,0,,94,,220,Dry,994,3,50,0,0,,9.7,
Charterhall,27/09/2019 04:00,9.8,9,,,0,,94,,230,Dry,994,,50,0,0,,8.9,
Charterhall,27/09/2019 05:00,9.6,12,,,0,,94,,220,Dry,995,,45,0,0,,8.7,
Charterhall,27/09/2019 06:00,9,8,9,,0,1,96,,210,Dry,995,,40,0,0,,8.4,
Charterhall,27/09/2019 07:00,9.3,7,,,0,,95,,220,Dry,995,0,40,47,0,,8.6,
Charterhall,27/09/2019 08:00,10.7,7,,,0,,93,,220,Dry,995,5,50,310,18,,9.7,
Charterhall,27/09/2019 09:00,11.2,1,,,0,,96,,160,Dry,994,7,35,387,0,,10.6,
Charterhall,27/09/2019 10:00,12.8,5,,,0,,90,,190,Dry,994,8,30,666,0,,11.3,
Charterhall,27/09/2019 11:00,13.7,3,,,0,,83,,170,Dry,994,3,50,804,6,,11,
Charterhall,27/09/2019 12:00,14.5,10,,,0,0,82,,180,Dry,993,8,50,483,0,,11.6,
Charterhall,27/09/2019 13:00,13.8,7,,,0.2,,87,,170,Light shower,992,8,28,425,0,,11.7,
Charterhall,27/09/2019 14:00,12.3,3,,,4.6,,97,,230,Moderate rain,992,8,8,121,0,,11.9,
Charterhall,27/09/2019 15:00,12.3,2,,,2.8,,97,,150,Moderate rain,992,8,14,149,0,,11.9,
Charterhall,27/09/2019 16:00,12.6,5,,,3,,96,,260,Light rain,992,8,24,288,0,,12.1,
Charterhall,27/09/2019 17:00,11.3,13,,,0.6,,94,,290,Light rain,993,7,50,228,0,,10.4,
Charterhall,27/09/2019 18:00,10.7,9,,14.5,0.2,11,92,,280,Rain,994,8,50,93,0,,9.5,
Charterhall,27/09/2019 19:00,10.2,7,,,0,,94,,250,Dry,995,8,50,1,0,,9.3,
Charterhall,27/09/2019 20:00,10.3,6,,,0,,92,,250,Dry,996,8,50,0,0,,9.1,
Charterhall,27/09/2019 21:00,9.5,8,,,0,,92,,240,Dry,996,3,50,0,0,,8.4,
Charterhall,27/09/2019 22:00,9.1,9,,,0,,93,,240,Dry,997,0,50,0,0,,8.1,
Charterhall,27/09/2019 23:00,8.3,5,,,0,,94,,250,Dry,997,0,50,0,0,,7.5,
Charterhall,28/09/2019 00:00,8.7,7,,,0,0,93,,250,Dry,997,0,50,,,,7.7,
Charterhall,28/09/2019 01:00,8.3,7,,,0,,94,,250,Dry,997,,50,0,0,,7.5,
Charterhall,28/09/2019 02:00,7.6,6,,,0,,96,,240,Dry,997,6,50,0,0,,7.1,
Charterhall,28/09/2019 03:00,7.1,5,,,0,,97,,210,Dry,997,3,50,0,0,,6.7,
Charterhall,28/09/2019 04:00,7.4,3,,,0,,98,,250,Dry,996,1,50,0,0,,7.2,
Charterhall,28/09/2019 05:00,8.2,6,,,0,,97,,230,Dry,996,8,50,0,0,,7.9,
Charterhall,28/09/2019 06:00,8.7,5,7,,0,0,96,,280,Rain,996,7,50,0,0,,8.2,
Charterhall,28/09/2019 07:00,9.1,6,,,0,,95,,260,Rain,997,8,50,20,0,,8.4,
Charterhall,28/09/2019 08:00,9.6,8,,,0,,96,,260,Dry,998,7,50,211,0,,9.1,
Charterhall,28/09/2019 09:00,11.8,10,,,0,,87,,270,Dry,998,,50,756,42,,9.8,
Charterhall,28/09/2019 10:00,12.8,13,,,0,,81,,270,Dry,999,0,35,1379,60,,9.7,
Charterhall,28/09/2019 11:00,13.9,13,,,0,,75,,260,Dry,1000,2,40,1670,60,,9.6,
Charterhall,28/09/2019 12:00,14.5,15,,,0,0,72,,260,Dry,1000,1,45,1769,60,,9.6,
Charterhall,28/09/2019 13:00,14.7,15,,,0,,68,,270,Dry,1000,4,45,1811,60,,9,
Charterhall,28/09/2019 14:00,15.5,14,,,0,,64,,270,Dry,1001,3,45,1795,60,,8.8,
Charterhall,28/09/2019 15:00,15.7,13,,,0,,59,,290,Dry,1001,4,45,1546,54,,7.8,
Charterhall,28/09/2019 16:00,15.2,15,,,0,,60,,280,Dry,1001,0,45,1059,60,,7.7,
Charterhall,28/09/2019 17:00,14.4,9,,,0,,72,,260,Dry,1001,0,50,581,60,,9.6,
Charterhall,28/09/2019 18:00,13,7,,16.4,0,0,80,,260,Dry,1002,6,50,129,18,,9.8,
Charterhall,28/09/2019 19:00,11.2,7,,,0,,86,,270,Dry,1002,1,50,0,0,,9.1,
Charterhall,28/09/2019 20:00,10.8,10,,,0,,86,,290,Dry,1002,6,50,0,0,,8.6,
Charterhall,28/09/2019 21:00,9.3,3,,,0,,92,,220,Dry,1002,7,50,0,0,,8.1,
Charterhall,28/09/2019 22:00,8.9,2,,,0,,93,,260,Dry,1001,7,50,0,0,,7.9,
Charterhall,28/09/2019 23:00,9,5,,,0,,94,,280,Dry,1001,6,50,0,0,,8.2,
Charterhall,29/09/2019 00:00,8.6,3,,,0,0,96,,10,Dry,1000,4,50,,,,8.1,
Charterhall,29/09/2019 01:00,7.8,5,,,0,,97,,40,Fog,1000,6,45,0,0,,7.5,
Charterhall,29/09/2019 02:00,10.3,9,,,0,,93,,20,Dry,998,7,50,0,0,,9.3,
Charterhall,29/09/2019 03:00,10.5,6,,,0,,96,,40,Dry,997,8,50,0,0,,9.9,
Charterhall,29/09/2019 04:00,10.8,8,,,0,,98,,40,Dry,996,8,40,0,0,,10.5,
Charterhall,29/09/2019 05:00,10.9,8,,,0,,98,,50,Dry,996,1,30,0,0,,10.7,
Charterhall,29/09/2019 06:00,11,7,7.5,,0.4,0.4,98,,50,Rain,996,8,15,0,0,,10.8,
Charterhall,29/09/2019 07:00,11.1,10,,,0.4,,99,,40,Drizzly rain,995,3,4,8,0,,11,
Charterhall,29/09/2019 08:00,11.4,10,,,0.2,,96,,30,Rain,995,8,29,69,0,,10.9,
Charterhall,29/09/2019 09:00,11.8,9,,,0,,94,,30,Dry,996,5,50,255,0,,11,
Charterhall,29/09/2019 10:00,11.9,12,,,0,,89,,20,Dry,996,8,50,343,0,,10.3,
Charterhall,29/09/2019 11:00,12.2,12,,,0,,86,,20,Dry,996,8,40,503,0,,10,
Charterhall,29/09/2019 12:00,11.7,13,,,0,0.6,87,,20,Dry,997,8,50,472,0,,9.7,
Charterhall,29/09/2019 13:00,12.1,14,,,0,,86,,20,Dry,997,8,27,493,0,,10,
Charterhall,29/09/2019 14:00,12.1,12,,,0,,85,,10,Dry,998,8,29,504,0,,9.8,
Charterhall,29/09/2019 15:00,12.1,12,,,0,,84,,10,Dry,998,8,45,343,0,,9.5,
Charterhall,29/09/2019 16:00,11.5,12,,,0,,88,,10,Drizzly rain,999,8,7,339,0,,9.7,
Charterhall,29/09/2019 17:00,11.3,12,,,0.2,,91,,10,Rain,1000,7,29,83,0,,10,
Charterhall,29/09/2019 18:00,11.3,10,,12.4,0,0.2,88,,10,Dry,1001,8,50,34,0,,9.5,
Charterhall,29/09/2019 19:00,11.4,9,,,0,,88,,360,Dry,1002,7,45,0,0,,9.5,
Charterhall,29/09/2019 20:00,11.4,8,,,0,,86,,350,Dry,1003,8,50,0,0,,9.2,
Charterhall,29/09/2019 21:00,11.1,6,,,0,,88,,320,Dry,1003,8,50,0,0,,9.3,
Charterhall,29/09/2019 22:00,10.3,2,,,0,,89,,300,Dry,1004,8,50,0,0,,8.6,
Charterhall,29/09/2019 23:00,9.6,7,,,0,,90,,250,Dry,1005,7,50,0,0,,8.2,
Charterhall,30/09/2019 00:00,9.6,8,,,0,0,90,,260,Dry,1005,7,50,,,,8.1,
Charterhall,30/09/2019 01:00,9.5,8,,,0,,93,,280,Dry,1005,8,45,0,0,,8.5,
Charterhall,30/09/2019 02:00,9.6,9,,,0,,92,,270,Dry,1006,8,50,0,0,,8.5,
Charterhall,30/09/2019 03:00,9.6,8,,,0,,91,,270,Dry,1006,8,50,0,0,,8.3,
Charterhall,30/09/2019 04:00,10,7,,,0,,90,,270,Dry,1006,8,50,0,0,,8.5,
Charterhall,30/09/2019 05:00,9.3,8,,,0,,90,,270,Dry,1006,7,50,0,0,,7.8,
Charterhall,30/09/2019 06:00,7.9,6,7.9,,0,0,94,,250,Dry,1007,0,50,0,0,,7.1,
Charterhall,30/09/2019 07:00,8.9,7,,,0,,92,,260,Dry,1007,7,50,15,0,,7.7,
Charterhall,30/09/2019 08:00,9.7,7,,,0,,90,,290,Dry,1008,8,50,118,0,,8.2,
Charterhall,30/09/2019 09:00,11.6,5,,,0,,85,,330,Dry,1008,8,50,397,0,,9.2,
Charterhall,30/09/2019 10:00,11.4,12,,,0,,83,,40,Dry,1009,4,40,790,6,,8.7,
Charterhall,30/09/2019 11:00,11.8,7,,,0,,79,,40,Dry,1009,8,50,615,0,,8.4,
Charterhall,30/09/2019 12:00,11.8,6,,,0,0,78,,70,Dry,1009,6,13,653,0,,8.1,
Charterhall,30/09/2019 13:00,11.2,7,,,0,,84,,90,Dry,1009,8,50,351,0,,8.6,
Charterhall,30/09/2019 14:00,11.2,8,,,0,,84,,70,Dry,1008,8,50,388,0,,8.6,
Charterhall,30/09/2019 15:00,10.4,9,,,0,,82,,70,Dry,1008,8,50,279,0,,7.5,
Charterhall,30/09/2019 16:00,9.8,10,,,0,,84,,60,Rain,1007,7,50,129,0,,7.4,
Charterhall,30/09/2019 17:00,9.4,9,,,0,,86,,70,Dry,1007,8,50,66,0,,7.2,
Charterhall,30/09/2019 18:00,8.8,8,,12.8,0,0,92,,50,Light shower,1006,8,8,7,0,,7.7,
Charterhall,30/09/2019 19:00,8.3,10,,,0.2,,95,,50,Rain,1006,7,20,0,0,,7.7,
Charterhall,30/09/2019 20:00,8.3,10,,,0,,97,,50,Dry,1006,8,30,0,0,,8,
Charterhall,30/09/2019 21:00,8.1,9,,,0,,96,,50,Dry,1006,8,45,0,0,,7.6,
Charterhall,30/09/2019 22:00,8,9,,,0.4,,99,,60,Light drizzle,1005,3,10,0,0,,7.9,
Charterhall,30/09/2019 23:00,8,8,,,1,,99,,60,Moderate rain,1004,8,15,0,0,,7.9,
Charterhall,01/10/2019 00:00,8,8,,,0.8,2,99,,50,Light rain,1004,8,25,,,,7.9,
Charterhall,01/10/2019 01:00,8.2,7,,,0.4,,98,,30,Light rain,1004,1,14,0,0,,8,
Charterhall,01/10/2019 02:00,7.8,14,,,0.4,,97,,50,Light rain,1003,8,12,0,0,,7.5,
Charterhall,01/10/2019 03:00,8,12,,,0,,92,,50,Rain,1003,1,50,0,0,,6.8,
Charterhall,01/10/2019 04:00,7.9,14,,,0,,87,,40,Dry,1002,5,45,0,0,,5.9,
Charterhall,01/10/2019 05:00,7.5,12,,,0,,83,,40,Light shower,1002,7,45,0,0,,4.9,
Charterhall,01/10/2019 06:00,6.9,10,6.8,,0.4,2,87,,50,Light rain,1003,3,30,0,0,,5,
Charterhall,01/10/2019 07:00,7.2,10,,,0.2,,82,,40,Rain,1003,8,50,12,0,,4.5,
Charterhall,01/10/2019 08:00,7.7,12,,,0,,79,,40,Dry,1003,8,50,138,0,,4.4,
Charterhall,01/10/2019 09:00,8.2,13,,,0,,77,,50,Dry,1004,2,50,392,0,,4.5,
Charterhall,01/10/2019 10:00,10.2,14,,,0,,73,,50,Dry,1005,1,50,809,24,,5.6,
Charterhall,01/10/2019 11:00,10.8,12,,,0,,65,,30,Rain,1005,3,30,1168,18,,4.5,
Charterhall,01/10/2019 12:00,10.4,16,,,0,0.2,56,,40,Dry,1006,4,40,2009,54,,2.1,
Charterhall,01/10/2019 13:00,10,14,,,0,,56,,30,Dry,1006,6,45,1354,36,,1.8,
Charterhall,01/10/2019 14:00,11.2,13,,,0,,60,,30,Dry,1006,3,50,1689,54,,3.9,
Charterhall,01/10/2019 15:00,9.7,12,,,0,,64,,10,Dry,1007,7,50,1076,24,,3.3,
Charterhall,01/10/2019 16:00,10.1,13,,,0,,67,,10,Dry,1007,1,50,833,42,,4.4,
Charterhall,01/10/2019 17:00,9.2,8,,,0,,73,,20,Rain,1008,5,45,488,42,,4.7,
Charterhall,01/10/2019 18:00,7.8,8,,11.4,0,0,83,,10,Moderate shower,1009,5,24,77,18,,5.2,
Charterhall,01/10/2019 19:00,7.3,5,,,0,,84,,350,Rain,1010,5,50,0,0,,4.8,
Charterhall,01/10/2019 20:00,7,7,,,0,,81,,350,Dry,1010,1,50,0,0,,4,
Charterhall,01/10/2019 21:00,6.8,9,,,0,,75,,360,Dry,1011,3,50,0,0,,2.7,
Charterhall,01/10/2019 22:00,6.5,6,,,0,,77,,310,Dry,1012,7,50,0,0,,2.8,
Charterhall,01/10/2019 23:00,5.4,8,,,0,,78,,320,Dry,1013,1,50,0,0,,1.9,
Charterhall,02/10/2019 00:00,4.5,6,,,0,0,82,,300,Dry,1013,,50,,,,1.8,
Charterhall,02/10/2019 01:00,4.1,8,,,0,,84,,280,Dry,1014,0,50,0,0,,1.7,
Charterhall,02/10/2019 02:00,3.9,9,,,0,,81,,300,Dry,1014,,50,0,0,,1.1,
Charterhall,02/10/2019 03:00,4.3,13,,,0,,79,,290,Dry,1014,0,50,0,0,,1.1,
Charterhall,02/10/2019 04:00,4.4,13,,,0,,77,,290,Dry,1014,0,40,0,0,,0.9,
Charterhall,02/10/2019 05:00,4.3,13,,,0,,76,,290,Dry,1014,0,50,0,0,,0.5,
Charterhall,02/10/2019 06:00,4,14,3.6,,0,0,76,,280,Dry,1014,0,50,0,0,,0.3,
Charterhall,02/10/2019 07:00,4.4,13,,,0,,74,,290,Dry,1015,,50,44,18,,0.3,
Charterhall,02/10/2019 08:00,6.1,15,,,0,,71,,290,Dry,1016,0,45,358,60,,1.3,
Charterhall,02/10/2019 09:00,7.7,17,,,0,,66,,290,Dry,1016,0,45,890,60,,1.8,
Charterhall,02/10/2019 10:00,8.9,18,,,0,,63,29,290,Dry,1016,0,40,1326,60,,2.3,
Charterhall,02/10/2019 11:00,10,16,,,0,,60,29,300,Dry,1017,0,45,1643,60,,2.7,
Charterhall,02/10/2019 12:00,10.9,15,,,0,0,58,31,310,Dry,1017,0,30,1815,60,,3.2,
Charterhall,02/10/2019 13:00,11.7,15,,,0,,61,,300,Dry,1018,0,45,1834,60,,4.6,
Charterhall,02/10/2019 14:00,11.9,12,,,0,,57,,320,Dry,1018,0,45,1693,60,,3.7,
Charterhall,02/10/2019 15:00,12.1,10,,,0,,57,,300,Dry,1018,,50,1388,60,,3.9,
Charterhall,02/10/2019 16:00,11.3,8,,,0,,62,,290,Dry,1019,3,50,780,42,,4.3,
Charterhall,02/10/2019 17:00,11.2,7,,,0,,63,,270,Dry,1019,8,50,236,0,,4.5,
Charterhall,02/10/2019 18:00,9.3,6,,12.4,0,0,71,,260,Dry,1020,2,45,128,12,,4.5,
Charterhall,02/10/2019 19:00,7.9,10,,,0,,77,,260,Dry,1020,,50,0,0,,4.3,
Charterhall,02/10/2019 20:00,7.5,7,,,0,,76,,290,Dry,1020,,50,0,0,,3.6,
Charterhall,02/10/2019 21:00,4.7,7,,,0,,89,,220,Dry,1021,,50,0,0,,3.1,
Charterhall,02/10/2019 22:00,5,8,,,0,,86,,270,Dry,1021,0,50,0,0,,3,
Charterhall,02/10/2019 23:00,4.4,2,,,0,,87,,220,Dry,1021,,50,0,0,,2.5,
Charterhall,03/10/2019 00:00,3.6,2,,,0,0,92,,240,Dry,1021,0,50,,,,2.5,
Charterhall,03/10/2019 01:00,3.2,5,,,0,,93,,250,Dry,1021,1,50,0,0,,2.3,
Charterhall,03/10/2019 02:00,3.1,6,,,0,,93,,260,Dry,1020,1,50,0,0,,2.2,
Charterhall,03/10/2019 03:00,3.1,7,,,0,,94,,280,Dry,1020,2,50,0,0,,2.3,
Charterhall,03/10/2019 04:00,3.3,8,,,0,,92,,290,Dry,1019,1,50,0,0,,2.2,
Charterhall,03/10/2019 05:00,2.2,2,,,0,,94,,300,Dry,1019,,50,0,0,,1.4,
Charterhall,03/10/2019 06:00,0.9,1,0.8,,0,0,95,,200,Dry,1019,0,50,0,0,,0.3,
Charterhall,03/10/2019 07:00,1.9,5,,,0,,97,,290,Dry,1018,0,50,60,12,,1.5,
Charterhall,03/10/2019 08:00,5,2,,,0,,93,,230,Dry,1018,0,40,439,60,,4,
Charterhall,03/10/2019 09:00,7.1,2,,,0,,85,,240,Dry,1018,0,50,773,54,,4.9,
Charterhall,03/10/2019 10:00,9.1,2,,,0,,77,,130,Dry,1017,0,29,990,42,,5.3,
Charterhall,03/10/2019 11:00,8.7,5,,,0,,80,,120,Dry,1016,0,50,934,18,,5.6,
Charterhall,03/10/2019 12:00,11,7,,,0,0,80,,130,Dry,1015,3,40,1034,12,,7.7,
Charterhall,03/10/2019 13:00,10.9,7,,,0,,73,,160,Dry,1014,4,45,790,0,,6.4,
Charterhall,03/10/2019 14:00,10.1,10,,,0,,72,,110,Dry,1013,6,50,436,0,,5.4,
Charterhall,03/10/2019 15:00,9.8,13,,,0,,73,,130,Dry,1011,,50,349,0,,5.3,
Charterhall,03/10/2019 16:00,9.3,13,,,0,,71,,140,Dry,1010,,50,203,0,,4.5,
Charterhall,03/10/2019 17:00,8.9,8,,,0,,73,,130,Rain,1009,8,50,83,0,,4.5,
Charterhall,03/10/2019 18:00,8.5,9,,11.1,0,0,81,,100,Dry,1008,,50,49,0,,5.5,
Charterhall,03/10/2019 19:00,8.2,7,,,0,,78,,110,Dry,1007,8,50,0,0,,4.6,
Charterhall,03/10/2019 20:00,7.9,8,,,0,,80,,110,Dry,1006,8,50,0,0,,4.7,
Charterhall,03/10/2019 21:00,7.8,9,,,0,,81,,100,Dry,1005,8,50,0,0,,4.8,
Charterhall,03/10/2019 22:00,7.7,8,,,0.2,,88,,110,Light shower,1004,8,35,0,0,,6,
Charterhall,03/10/2019 23:00,7.5,8,,,2.4,,96,,80,Moderate rain,1003,8,6,0,0,,7,
Charterhall,04/10/2019 00:00,8,12,,,4.8,7,98,,70,Moderate rain,1003,4,5,,,,7.8,
Charterhall,04/10/2019 01:00,8.5,9,,,3.8,,99,,90,Moderate rain,1002,7,5,0,0,,8.4,
Charterhall,04/10/2019 02:00,8.7,9,,,0.4,,98,,90,Light drizzle,1001,8,9,0,0,,8.5,
Charterhall,04/10/2019 03:00,8.9,12,,,0,,97,,80,Drizzle,1000,8,9,0,0,,8.6,
Charterhall,04/10/2019 04:00,9,10,,,0.2,,98,,90,Rain,1000,8,4,0,0,,8.8,
Charterhall,04/10/2019 05:00,8.8,9,,,0.4,,99,,90,Moderate drizzle,1001,8,4,0,0,,8.7,
Charterhall,04/10/2019 06:00,8.7,9,7.5,,1.2,6,99,,90,Light drizzle,1001,8,5,0,0,,8.6,
Charterhall,04/10/2019 07:00,8.8,12,,,0,,97,,60,Drizzle,1002,8,30,5,0,,8.5,
Charterhall,04/10/2019 08:00,9.3,14,,,0.2,,100,,70,Misty,1002,7,6,39,0,,9.3,
Charterhall,04/10/2019 09:00,9.6,14,,,0.2,,100,,70,Light drizzle,1003,8,4,87,0,,9.6,
Charterhall,04/10/2019 10:00,9.9,15,,,0.4,,98,,60,Drizzly rain,1004,8,5,174,0,,9.6,
Charterhall,04/10/2019 11:00,9.9,13,,,0.8,,99,,50,Light drizzle,1005,8,5,185,0,,9.8,
Charterhall,04/10/2019 12:00,9.7,15,,,1.4,3,97,,70,Moderate rain,1006,8,4,197,0,,9.3,
Charterhall,04/10/2019 13:00,10.6,13,,,0.2,,92,,60,Rain,1007,8,45,310,0,,9.5,
Charterhall,04/10/2019 14:00,11.3,13,,,0,,91,,60,Dry,1007,1,50,451,0,,9.9,
Charterhall,04/10/2019 15:00,11.6,12,,,0,,89,,60,Dry,1008,8,35,555,0,,9.9,
Charterhall,04/10/2019 16:00,11.4,10,,,0,,88,,50,Dry,1009,8,40,373,0,,9.5,
Charterhall,04/10/2019 17:00,11,8,,,0,,91,,30,Dry,1010,8,45,213,0,,9.6,
Charterhall,04/10/2019 18:00,10.7,7,,11.7,0,0,92,,30,Dry,1011,8,16,33,0,,9.6,
Charterhall,04/10/2019 19:00,10.5,7,,,0,,96,,40,Dry,1012,8,26,0,0,,9.9,
Charterhall,04/10/2019 20:00,10.3,8,,,0,,97,,50,Dry,1012,1,17,0,0,,9.9,
Charterhall,04/10/2019 21:00,10.3,7,,,0,,97,,40,Dry,1012,8,21,0,0,,9.9,
Charterhall,04/10/2019 22:00,9.5,3,,,0,,97,,30,Dry,1013,8,17,0,0,,9.2,
Charterhall,04/10/2019 23:00,9.8,5,,,0,,98,,10,Dry,1013,8,14,0,0,,9.6,
Charterhall,05/10/2019 00:00,9,3,,,0,0,97,,30,Dry,1014,1,15,,,,8.6,
Charterhall,05/10/2019 01:00,9,6,,,0,,99,,20,Dry,1014,1,15,0,0,,8.9,
Charterhall,05/10/2019 02:00,8.8,6,,,0,,100,,20,Dry,1014,,11,0,0,,8.8,
Charterhall,05/10/2019 03:00,7.9,5,,,0,,100,,350,Dry,1014,6,11,0,0,,7.9,
Charterhall,05/10/2019 04:00,8.3,3,,,0,,99,,30,Misty,1014,8,10,0,0,,8.2,
Charterhall,05/10/2019 05:00,7.9,3,,,0,,100,,20,Misty,1014,7,10,0,0,,7.9,
Charterhall,05/10/2019 06:00,8.1,3,7.8,,0,0,100,,20,Misty,1014,4,9,0,0,,8.1,
Charterhall,05/10/2019 07:00,8.8,6,,,0,,100,,30,Misty,1014,8,6,17,0,,8.8,
Charterhall,05/10/2019 08:00,9.2,5,,,0,,100,,50,Misty,1015,7,2,157,0,,9.2,
Charterhall,05/10/2019 09:00,9.8,5,,,0,,100,,60,Fog,1015,8,7,344,0,,9.8,
Charterhall,05/10/2019 10:00,10.5,6,,,0,,100,,60,Dry,1015,7,13,508,0,,10.5,
Charterhall,05/10/2019 11:00,11.3,7,,,0,,98,,90,Dry,1015,7,30,617,0,,11,
Charterhall,05/10/2019 12:00,12.2,7,,,0,0,90,,100,Dry,1015,2,45,579,0,,10.7,
Charterhall,05/10/2019 13:00,12.1,9,,,0,,85,,130,Dry,1014,7,50,577,0,,9.7,
Charterhall,05/10/2019 14:00,12.3,7,,,0,,84,,130,Dry,1014,7,50,448,0,,9.8,
Charterhall,05/10/2019 15:00,11.6,6,,,0.2,,88,,150,Light shower,1014,7,45,260,0,,9.7,
Charterhall,05/10/2019 16:00,11.3,5,,,0,,91,,90,Light shower,1014,1,45,123,0,,9.9,
Charterhall,05/10/2019 17:00,11.1,7,,,0,,92,,100,Rain,1014,8,50,62,0,,10,
Charterhall,05/10/2019 18:00,10.7,7,,12.5,0.2,0.4,96,,90,Light rain,1013,7,40,9,0,,10.1,
Charterhall,05/10/2019 19:00,10.6,7,,,0,,96,,100,Rain,1013,7,35,0,0,,10.1,
Charterhall,05/10/2019 20:00,10.6,7,,,0,,96,,100,Dry,1012,3,50,0,0,,10,
Charterhall,05/10/2019 21:00,11.1,6,,,0,,92,,130,Dry,1012,8,45,0,0,,10,
Charterhall,05/10/2019 22:00,10.9,7,,,0,,95,,120,Light shower,1012,4,18,0,0,,10.2,
Charterhall,05/10/2019 23:00,10.8,9,,,0.2,,94,,110,Light rain,1011,8,25,0,0,,10,
Charterhall,06/10/2019 00:00,10.7,10,,,0.4,0.6,92,,140,Moderate rain,1010,3,13,,,,9.6,
Charterhall,06/10/2019 01:00,10.3,8,,,1.2,,93,,130,Light rain,1009,8,20,0,0,,9.3,
Charterhall,06/10/2019 02:00,10.3,10,,,0.6,,90,,120,Light rain,1009,8,30,0,0,,8.8,
Charterhall,06/10/2019 03:00,9.6,10,,,0.8,,92,,120,Moderate rain,1008,8,14,0,0,,8.5,
Charterhall,06/10/2019 04:00,9.3,7,,,2.8,,94,,130,Moderate rain,1008,8,12,0,0,,8.5,
Charterhall,06/10/2019 05:00,9.4,5,,,3.4,,97,,120,Moderate rain,1008,7,7,0,0,,9,
Charterhall,06/10/2019 06:00,9.2,7,9.1,,3.4,12.4,98,,80,Moderate rain,1008,1,5,0,0,,9,
Charterhall,06/10/2019 07:00,9.8,12,,,2,,98,,90,Moderate rain,1008,8,7,3,0,,9.6,
Charterhall,06/10/2019 08:00,9.6,14,,,1.8,,98,,90,Moderate rain,1008,7,9,23,0,,9.4,
Charterhall,06/10/2019 09:00,9.7,16,,,2.4,,98,,90,Moderate rain,1009,8,8,65,0,,9.5,
Charterhall,06/10/2019 10:00,9.2,20,,,0.8,,96,29,100,Light rain,1009,8,10,104,0,,8.6,
Charterhall,06/10/2019 11:00,9.5,16,,,0,,96,,100,Light shower,1010,7,9,109,0,,8.9,
Charterhall,06/10/2019 12:00,9.4,18,,,0.2,7,92,,90,Rain,1012,4,35,146,0,,8.3,
Charterhall,06/10/2019 13:00,9.5,14,,,0,,94,,90,Misty,1012,8,8,139,0,,8.7,
Charterhall,06/10/2019 14:00,10.1,12,,,0,,94,29,90,Light shower,1013,1,28,286,0,,9.2,
Charterhall,06/10/2019 15:00,10.2,6,,,0.2,,92,,90,Moderate rain,1014,2,16,284,0,,9.1,
Charterhall,06/10/2019 16:00,10.7,5,,,0.4,,91,,70,Rain,1015,8,29,261,0,,9.4,
Charterhall,06/10/2019 17:00,10.6,2,,,0,,91,,60,Rain,1016,4,30,125,0,,9.3,
Charterhall,06/10/2019 18:00,10.4,7,,10.8,0,1,94,,80,Dry,1016,8,20,13,0,,9.5,
Charterhall,06/10/2019 19:00,10.1,7,,,0,,95,,60,Dry,1016,8,25,0,0,,9.4,
Charterhall,06/10/2019 20:00,10.3,7,,,0,,92,,110,Dry,1016,8,35,0,0,,9.1,
Charterhall,06/10/2019 21:00,9.6,9,,,0,,92,,100,Dry,1016,7,35,0,0,,8.5,
Charterhall,06/10/2019 22:00,9.9,7,,,0,,96,,120,Dry,1016,7,15,0,0,,9.4,
Charterhall,06/10/2019 23:00,10.7,12,,,0,,88,,130,Dry,1016,8,30,0,0,,8.8,
Charterhall,07/10/2019 00:00,10.6,12,,,0,0,86,,120,Dry,1016,7,28,,,,8.4,
Charterhall,07/10/2019 01:00,10.7,10,,,0,,85,,140,Dry,1015,7,40,0,0,,8.4,
Charterhall,07/10/2019 02:00,10.9,13,,,0,,83,,140,Dry,1014,8,50,0,0,,8.2,
Charterhall,07/10/2019 03:00,10.7,16,,,0,,85,,160,Dry,1014,8,40,0,0,,8.3,
Charterhall,07/10/2019 04:00,10.7,16,,,0,,85,,160,Dry,1012,7,40,0,0,,8.3,
Charterhall,07/10/2019 05:00,10.4,16,,,0,,86,,160,Dry,1012,8,45,0,0,,8.3,
Charterhall,07/10/2019 06:00,10.3,14,9.2,,0,0,88,,160,Light shower,1010,8,35,0,0,,8.5,
Charterhall,07/10/2019 07:00,10.4,15,,,0,,87,31,170,Rain,1010,8,45,1,0,,8.4,
Charterhall,07/10/2019 08:00,10.8,17,,,0,,86,,190,Dry,1009,8,50,60,0,,8.6,
Charterhall,07/10/2019 09:00,10.9,13,,,0,,85,,160,Dry,1008,7,45,115,0,,8.5,
Charterhall,07/10/2019 10:00,11.3,14,,,0,,81,,190,Dry,1008,8,50,174,0,,8.2,
Charterhall,07/10/2019 11:00,11.4,16,,,0,,78,,180,Dry,1006,8,45,225,0,,7.8,
Charterhall,07/10/2019 12:00,11.3,12,,,0,0,84,,190,Dry,1005,7,17,229,0,,8.7,
Charterhall,07/10/2019 13:00,10.6,10,,,0.4,,94,,200,Moderate drizzle,1004,7,7,135,0,,9.8,
Charterhall,07/10/2019 14:00,10.5,8,,,1,,98,,200,Light drizzle,1004,7,4,135,0,,10.3,
Charterhall,07/10/2019 15:00,11.1,12,,,0.2,,96,,200,Drizzle,1003,8,50,286,0,,10.5,
Charterhall,07/10/2019 16:00,12.4,14,,,0,,91,,210,Dry,1002,0,50,513,24,,11.1,
Charterhall,07/10/2019 17:00,12.1,8,,,0,,91,,200,Dry,1002,0,30,316,30,,10.8,
Charterhall,07/10/2019 18:00,11.2,5,,12.6,0,2,91,,200,Dry,1002,6,21,34,0,,9.8,
Charterhall,07/10/2019 19:00,10.6,7,,,0,,93,,220,Dry,1002,1,16,0,0,,9.6,
Charterhall,07/10/2019 20:00,10.4,9,,,0,,94,,220,Dry,1002,1,17,0,0,,9.5,
Charterhall,07/10/2019 21:00,10.4,12,,,0,,93,,220,Dry,1001,0,15,0,0,,9.4,
Charterhall,07/10/2019 22:00,10.3,13,,,0,,90,,210,Dry,1001,0,19,0,0,,8.8,
Charterhall,07/10/2019 23:00,10.1,13,,,0,,88,,230,Dry,1000,0,22,0,0,,8.3,
Charterhall,08/10/2019 00:00,9.6,10,,,0,0,90,,230,Dry,1000,,25,,,,8.1,
Charterhall,08/10/2019 01:00,9.6,13,,,0,,89,,230,Dry,1000,0,30,0,0,,7.9,
Charterhall,08/10/2019 02:00,9.2,10,,,0,,90,,240,Dry,999,0,29,0,0,,7.7,
Charterhall,08/10/2019 03:00,9.4,17,,,0,,90,,230,Dry,998,0,25,0,0,,7.9,
Charterhall,08/10/2019 04:00,9.4,9,,,0,,90,,230,Dry,997,,24,0,0,,7.9,
Charterhall,08/10/2019 05:00,10.2,15,,,0,,86,,220,Dry,996,0,40,0,0,,8.1,
Charterhall,08/10/2019 06:00,10.5,16,9.2,,0,0,84,,220,Dry,996,3,35,0,0,,8,
Charterhall,08/10/2019 07:00,10.5,14,,,0,,79,,230,Dry,996,3,40,16,0,,7.1,
Charterhall,08/10/2019 08:00,11,17,,,0,,78,,220,Dry,995,1,40,196,12,,7.4,
Charterhall,08/10/2019 09:00,10.7,16,,,0,,74,29,230,Rain,995,1,50,333,12,,6.3,
Charterhall,08/10/2019 10:00,11.9,21,,,0,,71,31,230,Dry,995,1,50,1149,60,,7,
Charterhall,08/10/2019 11:00,12.6,26,,,0,,66,39,230,Dry,994,0,30,1497,60,,6.6,
Charterhall,08/10/2019 12:00,13,24,,,0,0,64,40,230,Dry,994,0,40,1611,60,,6.5,
Charterhall,08/10/2019 13:00,13.4,26,,,0,,61,39,230,Dry,993,4,28,1651,60,,6.1,
Charterhall,08/10/2019 14:00,13.5,28,,,0,,68,40,220,Dry,993,6,40,1493,48,,7.9,
Charterhall,08/10/2019 15:00,11.9,28,,,0,,74,39,220,Dry,993,2,40,1067,48,,7.5,
Charterhall,08/10/2019 16:00,12.1,23,,,0,,73,36,220,Dry,992,5,26,392,0,,7.6,
Charterhall,08/10/2019 17:00,11.6,24,,,0,,77,39,220,Dry,992,7,30,269,0,,7.8,
Charterhall,08/10/2019 18:00,10.1,14,,14.4,0,0,86,36,210,Rain,992,5,45,20,0,,8,
Charterhall,08/10/2019 19:00,9.4,10,,,0,,90,,200,Dry,993,6,45,0,0,,7.9,
Charterhall,08/10/2019 20:00,8.9,10,,,0,,87,,200,Dry,993,7,50,0,0,,7,
Charterhall,08/10/2019 21:00,9.9,16,,,0,,85,,220,Dry,992,6,50,0,0,,7.5,
Charterhall,08/10/2019 22:00,10,18,,,0,,81,,230,Dry,993,5,50,0,0,,6.9,
Charterhall,08/10/2019 23:00,10.2,13,,,0,,82,,230,Dry,993,6,50,0,0,,7.3,
Charterhall,09/10/2019 00:00,10.3,15,,,0,0,78,,230,Dry,993,7,50,,,,6.8,
Charterhall,09/10/2019 01:00,9.7,15,,,0,,83,,220,Dry,993,8,45,0,0,,7.1,
Charterhall,09/10/2019 02:00,9,13,,,0,,87,,220,Rain,993,7,45,0,0,,7,
Charterhall,09/10/2019 03:00,9,12,,,0,,87,,210,Dry,994,7,35,0,0,,7,
Charterhall,09/10/2019 04:00,8.6,10,,,0,,89,,210,Dry,994,6,45,0,0,,7,
Charterhall,09/10/2019 05:00,9,16,,,0,,88,,220,Dry,994,6,30,0,0,,7.2,
Charterhall,09/10/2019 06:00,8.9,16,8.3,,0,0,90,,220,Rain,994,8,6,0,0,,7.5,
Charterhall,09/10/2019 07:00,8.8,16,,,0.2,,90,,220,Rain,994,7,28,1,0,,7.3,
Charterhall,09/10/2019 08:00,9,15,,,0,,87,,220,Dry,994,5,45,75,0,,7.1,
Charterhall,09/10/2019 09:00,9.3,15,,,0,,85,,220,Dry,994,3,28,221,0,,7,
Charterhall,09/10/2019 10:00,10.6,20,,,0,,83,,210,Dry,994,7,40,459,0,,7.9,
Charterhall,09/10/2019 11:00,12.4,21,,,0,,70,30,240,Dry,993,6,35,1267,36,,7.1,
Charterhall,09/10/2019 12:00,12.5,21,,,0,0.2,69,32,240,Dry,993,3,45,1482,42,,7,
Charterhall,09/10/2019 13:00,13,21,,,0,,68,31,230,Dry,993,2,50,1563,54,,7.3,
Charterhall,09/10/2019 14:00,12.9,21,,,0,,61,33,240,Dry,994,3,45,1557,60,,5.8,
Charterhall,09/10/2019 15:00,11.3,18,,,0,,67,33,230,Dry,994,3,40,948,42,,5.5,
Charterhall,09/10/2019 16:00,10.5,14,,,0,,73,,230,Dry,994,1,40,433,18,,5.9,
Charterhall,09/10/2019 17:00,9.7,13,,,0,,71,,240,Rain,995,,50,155,0,,4.9,
Charterhall,09/10/2019 18:00,9.3,17,,13.8,0,0,76,,230,Dry,995,,45,28,0,,5.4,
Charterhall,09/10/2019 19:00,8.8,13,,,0,,77,,230,Dry,995,7,50,0,0,,5,
Charterhall,09/10/2019 20:00,7.6,10,,,0,,85,,210,Dry,995,1,50,0,0,,5.4,
Charterhall,09/10/2019 21:00,8.6,16,,,0,,86,,220,Dry,995,7,45,0,0,,6.4,
Charterhall,09/10/2019 22:00,8.6,12,,,0,,86,,210,Dry,996,7,45,0,0,,6.5,
Charterhall,09/10/2019 23:00,8.6,16,,,0,,85,,220,Dry,995,2,50,0,0,,6.3,
Charterhall,10/10/2019 00:00,8.7,17,,,0,0,86,,220,Dry,996,8,50,,,,6.5,
Charterhall,10/10/2019 01:00,9.3,16,,,0,,84,,230,Dry,996,8,50,0,0,,6.8,
Charterhall,10/10/2019 02:00,9.9,16,,,0,,81,,230,Dry,996,8,50,0,0,,6.8,
Charterhall,10/10/2019 03:00,9.9,15,,,0,,82,,230,Dry,996,8,50,0,0,,7.1,
Charterhall,10/10/2019 04:00,9.1,16,,,0,,89,,230,Dry,997,8,35,0,0,,7.4,
Charterhall,10/10/2019 05:00,8.9,16,,,0,,92,,220,Dry,997,7,50,0,0,,7.7,
Charterhall,10/10/2019 06:00,8.8,13,7.5,,0,0,91,,220,Dry,998,7,50,0,0,,7.5,
Charterhall,10/10/2019 07:00,10.3,15,,,0,,82,,250,Dry,998,2,50,11,0,,7.4,
Charterhall,10/10/2019 08:00,10.7,14,,,0,,85,,230,Dry,1000,6,50,169,6,,8.3,
Charterhall,10/10/2019 09:00,11.2,16,,,0,,80,,240,Dry,1000,8,50,545,24,,7.9,
Charterhall,10/10/2019 10:00,11.8,13,,,0,,77,,230,Dry,1001,4,50,625,6,,8,
Charterhall,10/10/2019 11:00,11.3,18,,,0,,79,29,230,Dry,1001,6,30,683,12,,7.8,
Charterhall,10/10/2019 12:00,11.9,17,,,0,0,74,30,230,Dry,1001,1,50,862,0,,7.5,
Charterhall,10/10/2019 13:00,11.7,18,,,0,,73,,230,Dry,1001,7,50,617,0,,7.2,
Charterhall,10/10/2019 14:00,11.7,15,,,0,,76,,210,Rain,1000,7,45,378,0,,7.7,
Charterhall,10/10/2019 15:00,10.6,13,,,0.2,,88,,220,Rain,1000,8,22,292,0,,8.7,
Charterhall,10/10/2019 16:00,9.9,8,,,1.4,,95,,200,Moderate rain,998,7,6,121,0,,9.2,
Charterhall,10/10/2019 17:00,10.7,9,,,0.4,,98,,210,Rain,997,4,18,63,0,,10.4,
Charterhall,10/10/2019 18:00,12.1,16,,12.4,0,2,90,,220,Dry,997,8,50,9,0,,10.6,
Charterhall,10/10/2019 19:00,12.4,20,,,0,,84,30,230,Dry,996,6,30,0,0,,9.8,
Charterhall,10/10/2019 20:00,11.8,21,,,0,,83,35,220,Dry,995,0,35,0,0,,9.1,
Charterhall,10/10/2019 21:00,11.7,23,,,0,,84,33,230,Dry,995,0,30,0,0,,9.1,
Charterhall,10/10/2019 22:00,11.3,16,,,0,,88,30,240,Light shower,995,5,19,0,0,,9.4,
Charterhall,10/10/2019 23:00,11.1,12,,,0.4,,92,,230,Rain,995,6,25,0,0,,10,
Charterhall,11/10/2019 00:00,10.9,10,,,0,0.4,91,,230,Rain,995,2,35,,,,9.5,
Charterhall,11/10/2019 01:00,10.9,13,,,1.8,,92,,230,Heavy shower,995,2,4,0,0,,9.7,
Charterhall,11/10/2019 02:00,9.8,14,,,2,,89,,240,Rain,995,7,45,0,0,,8.1,
Charterhall,11/10/2019 03:00,9.5,10,,,0,,89,,230,Dry,995,1,40,0,0,,7.8,
Charterhall,11/10/2019 04:00,9.2,17,,,0,,87,,230,Dry,995,0,35,0,0,,7.2,
Charterhall,11/10/2019 05:00,9.1,20,,,0,,87,,220,Dry,994,,30,0,0,,7.2,
Charterhall,11/10/2019 06:00,9,23,8.9,,0,3.6,87,29,220,Dry,994,0,30,0,0,,7,
Charterhall,11/10/2019 07:00,8.9,22,,,0,,87,,230,Dry,994,0,35,6,0,,6.9,
Charterhall,11/10/2019 08:00,10,18,,,0,,81,29,220,Dry,994,0,30,238,48,,7,
Charterhall,11/10/2019 09:00,11.1,20,,,0,,78,,220,Dry,994,0,45,704,60,,7.5,
Charterhall,11/10/2019 10:00,12.2,20,,,0,,70,30,230,Dry,994,,29,1117,60,,7,
Charterhall,11/10/2019 11:00,13,21,,,0,,65,30,240,Dry,994,0,28,1426,60,,6.6,
Charterhall,11/10/2019 12:00,13.2,20,,,0,0,65,33,230,Dry,994,3,40,1494,54,,6.8,
Charterhall,11/10/2019 13:00,13.7,24,,,0,,60,33,240,Dry,994,1,50,1495,54,,6.2,
Charterhall,11/10/2019 14:00,14,21,,,0,,58,37,240,Dry,994,4,40,1208,42,,5.9,
Charterhall,11/10/2019 15:00,13.4,21,,,0,,58,35,230,Dry,994,2,50,1012,48,,5.5,
Charterhall,11/10/2019 16:00,12.2,20,,,0,,64,31,240,Dry,994,1,50,611,42,,5.7,
Charterhall,11/10/2019 17:00,10.8,18,,,0,,73,36,240,Dry,995,3,50,175,24,,6.3,
Charterhall,11/10/2019 18:00,9.7,16,,14.3,0,0,75,,230,Dry,995,,50,26,0,,5.6,
Charterhall,11/10/2019 19:00,9.4,16,,,0,,83,,220,Dry,995,0,50,0,0,,6.8,
Charterhall,11/10/2019 20:00,9.1,21,,,0,,84,,220,Dry,995,0,50,0,0,,6.7,
Charterhall,11/10/2019 21:00,9.2,20,,,0,,83,30,230,Dry,995,0,50,0,0,,6.5,
Charterhall,11/10/2019 22:00,9.7,20,,,0,,74,,230,Dry,995,0,50,0,0,,5.4,
Charterhall,11/10/2019 23:00,9.1,14,,,0,,80,29,220,Dry,996,7,45,0,0,,6,
Charterhall,12/10/2019 00:00,10,12,,,0,0,77,,240,Dry,996,7,50,,,,6.2,
Charterhall,12/10/2019 01:00,9.4,14,,,0,,79,,250,Dry,998,7,50,0,0,,6.1,
Charterhall,12/10/2019 02:00,8.7,9,,,0,,83,,260,Dry,998,0,50,0,0,,6,
Charterhall,12/10/2019 03:00,7.6,6,,,0,,85,,210,Dry,998,0,50,0,0,,5.3,
Charterhall,12/10/2019 04:00,5.7,6,,,0,,96,,150,Dry,999,0,50,0,0,,5.2,
Charterhall,12/10/2019 05:00,5,2,,,0,,98,,140,Dry,999,0,50,0,0,,4.8,
Charterhall,12/10/2019 06:00,4.7,1,4.5,,0,0,97,,110,Dry,1000,0,45,0,0,,4.3,
Charterhall,12/10/2019 07:00,4.6,6,,,0,,97,,220,Dry,1000,0,50,5,0,,4.2,
Charterhall,12/10/2019 08:00,8.2,9,,,0,,89,,230,Dry,1001,1,50,231,36,,6.5,
Charterhall,12/10/2019 09:00,10,12,,,0,,85,,210,Dry,1001,1,50,572,60,,7.7,
Charterhall,12/10/2019 10:00,11.3,16,,,0,,74,,230,Dry,1002,0,50,1071,60,,6.9,
Charterhall,12/10/2019 11:00,12.2,16,,,0,,69,,230,Dry,1002,2,50,1338,54,,6.8,
Charterhall,12/10/2019 12:00,13,16,,,0,0,67,,230,Dry,1002,3,45,1386,48,,7.2,
Charterhall,12/10/2019 13:00,13.5,15,,,0,,63,,240,Dry,1002,1,45,1707,60,,6.8,
Charterhall,12/10/2019 14:00,14.2,16,,,0,,60,,220,Dry,1002,4,40,1531,60,,6.7,
Charterhall,12/10/2019 15:00,13.5,13,,,0,,62,,230,Dry,1002,1,50,1007,48,,6.6,
Charterhall,12/10/2019 16:00,12.5,13,,,0,,68,,230,Dry,1002,1,50,577,42,,6.8,
Charterhall,12/10/2019 17:00,11,10,,,0,,75,,220,Dry,1002,0,50,277,54,,6.9,
Charterhall,12/10/2019 18:00,9.2,5,,14.7,0,0,84,,240,Dry,1003,0,50,15,0,,6.8,
Charterhall,12/10/2019 19:00,8.3,8,,,0,,89,,220,Dry,1003,,50,0,0,,6.7,
Charterhall,12/10/2019 20:00,8,5,,,0,,90,,240,Dry,1004,0,50,0,0,,6.6,
Charterhall,12/10/2019 21:00,6.2,5,,,0,,95,,210,Dry,1004,5,50,0,0,,5.5,
Charterhall,12/10/2019 22:00,6.8,3,,,0,,93,,240,Dry,1004,8,50,0,0,,5.8,
Charterhall,12/10/2019 23:00,7.8,5,,,0,,94,,250,Dry,1004,7,50,0,0,,6.9,
Charterhall,13/10/2019 00:00,8.1,5,,,0,0,94,,250,Dry,1004,7,45,,,,7.3,
Charterhall,13/10/2019 01:00,7.4,5,,,0,,95,,250,Dry,1004,7,50,0,0,,6.7,
Charterhall,13/10/2019 02:00,7.6,6,,,0,,96,,260,Dry,1004,7,50,0,0,,7.1,
Charterhall,13/10/2019 03:00,7.7,5,,,0,,93,,260,Dry,1003,7,50,0,0,,6.7,
Charterhall,13/10/2019 04:00,7,5,,,0,,97,,260,Dry,1003,1,50,0,0,,6.6,
Charterhall,13/10/2019 05:00,6.7,6,,,0,,96,,270,Light shower,1003,7,50,0,0,,6.2,
Charterhall,13/10/2019 06:00,5.1,1,5.1,,0,0,96,,110,Rain,1003,3,35,0,0,,4.6,
Charterhall,13/10/2019 07:00,5.2,3,,,0,,99,,10,Fog,1003,2,12,0,0,,5.1,
Charterhall,13/10/2019 08:00,6.2,6,,,0,,100,,340,Dry,1002,3,45,96,0,,6.2,
Charterhall,13/10/2019 09:00,7.5,3,,,0,,99,,330,Dry,1002,2,45,269,0,,7.4,
Charterhall,13/10/2019 10:00,8.4,5,,,0,,97,,30,Dry,1002,1,50,372,0,,8.1,
Charterhall,13/10/2019 11:00,9.6,5,,,0,,92,,20,Dry,1001,7,30,419,0,,8.4,
Charterhall,13/10/2019 12:00,10.1,6,,,0,0,90,,50,Haze,1000,8,7,457,0,,8.6,
Charterhall,13/10/2019 13:00,10,7,,,0,,90,,50,Fog,1000,7,3,422,0,,8.6,
Charterhall,13/10/2019 14:00,9.9,6,,,0,,94,,50,Light shower,1000,8,9,245,0,,9,
Charterhall,13/10/2019 15:00,9.7,2,,,0.4,,96,,360,Moderate rain,1000,8,7,122,0,,9.2,
Charterhall,13/10/2019 16:00,9.7,2,,,0.8,,98,,10,Moderate rain,999,8,5,102,0,,9.4,
Charterhall,13/10/2019 17:00,9.7,2,,,0.6,,98,,30,Moderate rain,1000,3,4,87,0,,9.5,
Charterhall,13/10/2019 18:00,9.6,1,,10.4,5,7,98,,30,Moderate rain,1000,8,1,7,0,,9.3,
Charterhall,13/10/2019 19:00,9.5,3,,,0.8,,98,,230,Light drizzle,1001,8,3,0,0,,9.3,
Charterhall,13/10/2019 20:00,9.4,2,,,1,,99,,260,Moderate rain,1002,8,3,0,0,,9.3,
Charterhall,13/10/2019 21:00,9.4,5,,,1.2,,99,,270,Moderate rain,1003,8,4,0,0,,9.3,
Charterhall,13/10/2019 22:00,8.9,3,,,0.2,,99,,250,Rain,1003,8,6,0,0,,8.8,
Charterhall,13/10/2019 23:00,8.6,7,,,0,,97,,210,Dry,1004,7,26,0,0,,8.3,
Charterhall,14/10/2019 00:00,8.1,9,,,0,3,93,,260,Dry,1005,4,50,,,,7.1,
Charterhall,14/10/2019 01:00,6.1,3,,,0,,95,,240,Dry,1006,1,45,0,0,,5.5,
Charterhall,14/10/2019 02:00,6.9,7,,,0.2,,98,,220,Dry,1007,7,50,0,0,,6.7,
Charterhall,14/10/2019 03:00,7,6,,,0,,94,,280,Dry,1007,7,50,0,0,,6.2,
Charterhall,14/10/2019 04:00,5.7,7,,,0,,96,,220,Dry,1007,2,50,0,0,,5.2,
Charterhall,14/10/2019 05:00,6.2,8,,,0,,95,,250,Dry,1007,0,50,0,0,,5.6,
Charterhall,14/10/2019 06:00,6.1,9,5.5,,0,0,94,,260,Dry,1008,0,50,0,0,,5.3,
Charterhall,14/10/2019 07:00,5.2,7,,,0,,97,,250,Dry,1008,1,45,0,0,,4.8,
Charterhall,14/10/2019 08:00,5.2,3,,,0,,98,,300,Dry,1009,0,35,147,0,,5,
Charterhall,14/10/2019 09:00,6,6,,,0,,100,,270,Thickening fog,1009,4,1,347,0,,6,
Charterhall,14/10/2019 10:00,7.2,2,,,0,,99,,270,Fog,1009,8,15,581,6,,7.1,
Charterhall,14/10/2019 11:00,9.9,3,,,0,,91,,230,Dry,1009,2,35,985,42,,8.6,
Charterhall,14/10/2019 12:00,10.7,2,,,0,0,86,,270,Dry,1008,3,45,1103,42,,8.5,
Charterhall,14/10/2019 13:00,11.4,3,,,0,,79,,60,Dry,1008,0,16,1026,54,,8,
Charterhall,14/10/2019 14:00,12.2,6,,,0,,84,,50,Dry,1007,0,45,1101,60,,9.6,
Charterhall,14/10/2019 15:00,12.9,8,,,0,,74,,80,Dry,1007,0,40,993,60,,8.5,
Charterhall,14/10/2019 16:00,11.3,7,,,0,,88,,60,Haze,1007,3,5,479,18,,9.5,
Charterhall,14/10/2019 17:00,9.7,5,,,0,,90,,70,Dry,1007,0,45,159,0,,8.3,
Charterhall,14/10/2019 18:00,9.2,5,,13.1,0,0,97,,20,Dry,1007,2,29,8,0,,8.8,
Charterhall,14/10/2019 19:00,8.2,3,,,0,,97,,20,Misty,1008,3,11,0,0,,7.9,
Charterhall,14/10/2019 20:00,7.9,6,,,0,,98,,10,Misty,1007,5,3,0,0,,7.7,
Charterhall,14/10/2019 21:00,8.7,6,,,0,,100,,70,Fog,1007,7,3,0,0,,8.7,
Charterhall,14/10/2019 22:00,8.6,3,,,0,,100,,20,Misty,1006,7,6,0,0,,8.6,
Charterhall,14/10/2019 23:00,8.4,6,,,0,,100,,360,Misty,1005,7,4,0,0,,8.4,
Charterhall,15/10/2019 00:00,8.8,5,,,0,0,100,,360,Misty,1005,3,4,,,,8.8,
Charterhall,15/10/2019 01:00,9.1,5,,,0,,100,,30,Misty,1004,6,4,0,0,,9.1,
Charterhall,15/10/2019 02:00,9.2,3,,,0,,100,,360,Misty,1004,7,3,0,0,,9.2,
Charterhall,15/10/2019 03:00,9.1,3,,,0,,100,,30,Fog,1003,8,8,0,0,,9.1,
Charterhall,15/10/2019 04:00,8.6,5,,,0,,100,,360,Fog,1003,7,3,0,0,,8.6,
Charterhall,15/10/2019 05:00,7.9,5,,,0,,98,,350,Drizzle,1002,2,29,0,0,,7.7,
Charterhall,15/10/2019 06:00,8,1,7.7,,0.4,0.4,98,,300,Light shower,1002,7,35,0,0,,7.8,
Charterhall,15/10/2019 07:00,8.4,6,,,0,,97,,310,Rain,1002,7,50,4,0,,8,
Charterhall,15/10/2019 08:00,8.4,5,,,0,,97,,300,Dry,1002,7,45,95,0,,8.1,
Charterhall,15/10/2019 09:00,9.9,5,,,0,,92,,330,Dry,1002,8,50,293,0,,8.7,
Charterhall,15/10/2019 10:00,11.3,9,,,0,,84,,10,Dry,1001,4,40,849,30,,8.8,
Charterhall,15/10/2019 11:00,11.8,8,,,0,,80,,10,Dry,1001,4,40,1052,36,,8.6,
Charterhall,15/10/2019 12:00,11.7,6,,,0,0,85,,360,Dry,1001,8,50,502,0,,9.3,
Charterhall,15/10/2019 13:00,11.8,5,,,0,,84,,20,Dry,1001,8,50,562,0,,9.3,
Charterhall,15/10/2019 14:00,10.4,5,,,0.4,,96,,100,Moderate shower,1001,7,5,273,0,,9.8,
Charterhall,15/10/2019 15:00,10.3,3,,,1.2,,96,,350,Rain,1001,8,8,197,0,,9.8,
Charterhall,15/10/2019 16:00,10.9,3,,,0,,94,,290,Dry,1000,7,50,253,0,,10.1,
Charterhall,15/10/2019 17:00,11.1,1,,,0,,89,,290,Dry,1000,7,50,260,24,,9.5,
Charterhall,15/10/2019 18:00,8.5,1,,12.4,0,2,97,,230,Dry,1001,5,17,3,0,,8.1,
Charterhall,15/10/2019 19:00,9,1,,,0,,99,,230,Dry,1001,8,12,0,0,,8.9,
Charterhall,15/10/2019 20:00,9.1,2,,,0,,99,,50,Misty,1001,7,8,0,0,,9,
Charterhall,15/10/2019 21:00,8.2,3,,,0,,98,,300,Misty,1001,7,6,0,0,,8,
Charterhall,15/10/2019 22:00,8.4,0,,,0,,100,,0,Misty,1001,8,11,0,0,,8.4,
Charterhall,15/10/2019 23:00,8.4,1,,,0,,100,,190,Dry,1000,7,14,0,0,,8.4,
Charterhall,16/10/2019 00:00,8.6,2,,,0,0,99,,250,Dry,1000,1,45,,,,8.5,
Charterhall,16/10/2019 01:00,8.3,1,,,0,,98,,350,Dry,999,8,12,0,0,,8.1,
Charterhall,16/10/2019 02:00,6.9,3,,,0,,99,,210,Dry,999,2,15,0,0,,6.8,
Charterhall,16/10/2019 03:00,7.3,1,,,0,,99,,220,Misty,998,7,7,0,0,,7.2,
Charterhall,16/10/2019 04:00,7.3,2,,,0,,100,,210,Dry,998,8,10,0,0,,7.3,
Charterhall,16/10/2019 05:00,7.3,3,,,0,,99,,30,Misty,997,8,11,0,0,,7.2,
Charterhall,16/10/2019 06:00,6.5,5,6.4,,0,0,99,,20,Misty,997,6,8,0,0,,6.4,
Charterhall,16/10/2019 07:00,6,2,,,0,,99,,30,Misty,996,4,4,1,0,,5.9,
Charterhall,16/10/2019 08:00,7.7,1,,,0,,100,,70,Misty,996,8,5,114,0,,7.7,
Charterhall,16/10/2019 09:00,9.4,3,,,0.2,,100,,100,Rain,996,8,5,256,6,,9.4,
Charterhall,16/10/2019 10:00,10.6,1,,,0,,98,,20,Dry,996,8,11,455,0,,10.4,
Charterhall,16/10/2019 11:00,11.5,2,,,0,,96,,150,Rain,996,7,15,345,0,,10.9,
Charterhall,16/10/2019 12:00,11.9,2,,,0.2,0.4,92,,160,Rain,996,8,30,304,0,,10.7,
Charterhall,16/10/2019 13:00,11,14,,,0.2,,92,,280,Rain,996,8,50,409,0,,9.9,
Charterhall,16/10/2019 14:00,12.6,12,,,0,,79,,260,Dry,997,7,50,954,24,,9.2,
Charterhall,16/10/2019 15:00,12.9,10,,,0,,69,,260,Dry,997,3,50,1131,60,,7.5,
Charterhall,16/10/2019 16:00,11.9,12,,,0,,72,,270,Dry,998,0,50,643,60,,7.1,
Charterhall,16/10/2019 17:00,10.4,13,,,0,,76,,260,Dry,998,0,50,220,48,,6.5,
Charterhall,16/10/2019 18:00,9.8,12,,13,0,0.2,76,,250,Dry,999,0,50,3,0,,5.9,
Charterhall,16/10/2019 19:00,7.7,9,,,0,,84,,260,Dry,1000,0,50,0,0,,5.2,
Charterhall,16/10/2019 20:00,6.4,1,,,0,,87,,240,Dry,1000,0,50,0,0,,4.5,
Charterhall,16/10/2019 21:00,6,8,,,0,,87,,270,Dry,1001,,50,0,0,,4.1,
Charterhall,16/10/2019 22:00,5.7,5,,,0,,88,,250,Dry,1001,0,50,0,0,,4,
Charterhall,16/10/2019 23:00,5.4,5,,,0,,89,,280,Dry,1002,0,50,0,0,,3.8,
Charterhall,17/10/2019 00:00,4.5,7,,,0,0,95,,290,Dry,1002,0,50,,,,3.9,
Charterhall,17/10/2019 01:00,3.9,2,,,0,,93,,210,Dry,1002,1,45,0,0,,3,
Charterhall,17/10/2019 02:00,4.1,5,,,0,,97,,270,Dry,1002,0,40,0,0,,3.8,
Charterhall,17/10/2019 03:00,2.9,1,,,0,,97,,320,Dry,1002,1,24,0,0,,2.5,
Charterhall,17/10/2019 04:00,3.3,2,,,0,,100,,250,Dry,1002,0,23,0,0,,3.3,
Charterhall,17/10/2019 05:00,2.3,2,,,0,,99,,240,Dry,1002,0,22,0,0,,2.2,
Charterhall,17/10/2019 06:00,2.8,2,2.1,,0,0,100,,60,Misty,1002,3,10,0,0,,2.8,
Charterhall,17/10/2019 07:00,2.6,2,,,0,,99,,280,Dry,1002,1,20,0,0,,2.5,
Charterhall,17/10/2019 08:00,4.2,3,,,0,,100,,250,Dry,1002,1,26,135,6,,4.2,
Charterhall,17/10/2019 09:00,6.9,2,,,0,,97,,190,Dry,1002,6,35,479,30,,6.5,
Charterhall,17/10/2019 10:00,8.6,3,,,0,,95,,220,Dry,1002,6,50,619,12,,7.9,
Charterhall,17/10/2019 11:00,10.9,6,,,0,,82,,170,Dry,1001,7,45,1105,42,,8.1,
Charterhall,17/10/2019 12:00,12.2,9,,,0,0,75,,200,Dry,1001,8,50,1378,30,,8,
Charterhall,17/10/2019 13:00,13,12,,,0,,69,,190,Dry,1000,7,50,1449,42,,7.6,
Charterhall,17/10/2019 14:00,13.5,14,,,0,,67,,170,Dry,1000,4,50,790,24,,7.5,
Charterhall,17/10/2019 15:00,13,12,,,0,,64,,170,Dry,999,1,50,1012,54,,6.4,
Charterhall,17/10/2019 16:00,11.7,8,,,0,,68,,170,Dry,999,1,50,440,36,,6.2,
Charterhall,17/10/2019 17:00,9.9,7,,,0,,79,,130,Dry,999,3,45,146,12,,6.5,
Charterhall,17/10/2019 18:00,8.8,5,,14.3,0,0,84,,120,Dry,999,5,35,0,0,,6.3,
Charterhall,17/10/2019 19:00,8.4,5,,,0,,87,,110,Dry,998,5,50,0,0,,6.4,
Charterhall,17/10/2019 20:00,8.2,3,,,0,,90,,90,Dry,998,8,45,0,0,,6.7,
Charterhall,17/10/2019 21:00,9.1,6,,,0,,89,,100,Light shower,998,8,30,0,0,,7.4,
Charterhall,17/10/2019 22:00,8.5,5,,,0,,91,,50,Rain,997,8,50,0,0,,7.2,
Charterhall,17/10/2019 23:00,8,3,,,0,,94,,30,Dry,997,6,11,0,0,,7.2,
Charterhall,18/10/2019 00:00,7,3,,,0,0,95,,80,Dry,997,1,20,,,,6.3,
Charterhall,18/10/2019 01:00,6.3,3,,,0,,98,,360,Misty,997,0,11,0,0,,6.1,
Charterhall,18/10/2019 02:00,6.1,3,,,0,,97,,60,Dry,996,3,10,0,0,,5.8,
Charterhall,18/10/2019 03:00,5.5,3,,,0.2,,98,,30,Misty,996,,7,0,0,,5.3,
Charterhall,18/10/2019 04:00,5.8,5,,,0,,100,,340,Misty,996,6,1,0,0,,5.8,
Charterhall,18/10/2019 05:00,6.3,5,,,0,,100,,340,Fog,995,7,4,0,0,,6.3,
Charterhall,18/10/2019 06:00,6.5,5,5.4,,0,0.2,99,,300,Light shower,995,8,12,0,0,,6.4,
Charterhall,18/10/2019 07:00,6.4,5,,,0,,99,,350,Rain,995,8,8,0,0,,6.3,
Charterhall,18/10/2019 08:00,7.1,5,,,0,,97,,320,Dry,994,8,22,30,0,,6.8,
Charterhall,18/10/2019 09:00,6.8,2,,,0.8,,99,,270,Moderate shower,994,8,5,66,0,,6.7,
Charterhall,18/10/2019 10:00,7.4,0,,,0.8,,100,,0,Moderate rain,994,8,5,138,0,,7.4,
Charterhall,18/10/2019 11:00,8,2,,,2.4,,100,,270,Moderate rain,994,8,8,142,0,,8,
Charterhall,18/10/2019 12:00,8.6,5,,,0.6,5,97,,280,Light rain,994,8,10,268,0,,8.3,
Charterhall,18/10/2019 13:00,10.1,6,,,1,,95,,290,Light rain,993,7,24,760,0,,9.4,
Charterhall,18/10/2019 14:00,10,6,,,0,,84,,320,Light rain,993,7,45,1242,6,,7.5,
Charterhall,18/10/2019 15:00,9.9,3,,,0,,85,,310,Light rain,993,8,50,641,0,,7.5,
Charterhall,18/10/2019 16:00,9.5,3,,,0,,85,,310,Rain,993,8,50,287,0,,7.2,
Charterhall,18/10/2019 17:00,8.6,3,,,0,,90,,280,Light shower,993,7,50,65,0,,7.2,
Charterhall,18/10/2019 18:00,8.2,3,,10.6,0,1,94,,230,Light shower,994,8,50,3,0,,7.3,
Charterhall,18/10/2019 19:00,7.8,7,,,0,,94,,260,Rain,994,8,50,0,0,,7,
Charterhall,18/10/2019 20:00,7.1,6,,,0,,95,,290,Dry,993,3,50,0,0,,6.4,
Charterhall,18/10/2019 21:00,7,6,,,0,,94,,300,Dry,994,7,50,0,0,,6.2,
Charterhall,18/10/2019 22:00,6.6,2,,,0,,96,,230,Dry,994,8,50,0,0,,6.1,
Charterhall,18/10/2019 23:00,6.7,3,,,0,,95,,290,Dry,994,8,50,0,0,,6,
Charterhall,19/10/2019 00:00,5.7,3,,,0.2,0.2,97,,200,Dry,994,1,35,,,,5.3,
Charterhall,19/10/2019 01:00,5.5,3,,,0,,98,,270,Dry,994,7,30,0,0,,5.3,
Charterhall,19/10/2019 02:00,5.9,5,,,0,,99,,310,Dry,995,7,29,0,0,,5.8,
Charterhall,19/10/2019 03:00,6.3,5,,,0,,100,,330,Dry,995,8,50,0,0,,6.3,
Charterhall,19/10/2019 04:00,5.6,2,,,0,,99,,240,Dry,995,8,40,0,0,,5.5,
Charterhall,19/10/2019 05:00,6.7,1,,,0,,99,,200,Dry,995,8,30,0,0,,6.6,
Charterhall,19/10/2019 06:00,7.2,6,5.2,,0.2,0.2,100,,290,Moderate drizzle,995,8,7,0,0,,7.2,
Charterhall,19/10/2019 07:00,7.6,2,,,0.2,,98,,320,Light rain,995,7,17,1,0,,7.4,
Charterhall,19/10/2019 08:00,8.5,9,,,1.2,,96,,360,Light rain,996,8,20,33,0,,7.9,
Charterhall,19/10/2019 09:00,9,15,,,2.6,,96,,20,Moderate rain,996,8,13,80,0,,8.5,
Charterhall,19/10/2019 10:00,8.6,13,,,1.2,,93,,20,Moderate rain,997,8,13,159,0,,7.6,
Charterhall,19/10/2019 11:00,8.8,13,,,2,,97,,10,Moderate rain,998,8,10,178,0,,8.4,
Charterhall,19/10/2019 12:00,9,17,,,2.2,9,92,30,20,Moderate rain,998,8,11,230,0,,7.8,
Charterhall,19/10/2019 13:00,8.8,17,,,1.2,,89,,10,Moderate rain,999,8,11,223,0,,7.2,
Charterhall,19/10/2019 14:00,9,15,,,0.4,,79,29,10,Light rain,999,8,26,258,0,,5.7,
Charterhall,19/10/2019 15:00,8.2,15,,,0.6,,87,,10,Moderate rain,1000,1,9,259,0,,6.3,
Charterhall,19/10/2019 16:00,8.8,14,,,0.4,,80,,360,Light rain,1000,8,35,121,0,,5.6,
Charterhall,19/10/2019 17:00,8.8,12,,,0.2,,87,,360,Light rain,1001,7,26,42,0,,6.9,
Charterhall,19/10/2019 18:00,8.6,8,,9.2,0.2,3,86,,340,Light rain,1002,8,45,0,0,,6.4,
Charterhall,19/10/2019 19:00,8.6,7,,,0,,83,,330,Rain,1002,7,45,0,0,,6,
Charterhall,19/10/2019 20:00,8,8,,,0,,85,,290,Dry,1003,8,50,0,0,,5.7,
Charterhall,19/10/2019 21:00,7.9,10,,,0,,83,,320,Dry,1004,7,50,0,0,,5.3,
Charterhall,19/10/2019 22:00,7.7,8,,,0,,85,,300,Dry,1005,7,45,0,0,,5.4,
Charterhall,19/10/2019 23:00,7.9,9,,,0,,83,,310,Rain,1005,8,45,0,0,,5.2,
Charterhall,20/10/2019 00:00,8.3,9,,,0,0,81,,330,Dry,1006,8,35,,,,5.3,
Charterhall,20/10/2019 01:00,7.6,10,,,0,,81,,340,Rain,1007,6,40,0,0,,4.7,
Charterhall,20/10/2019 02:00,7.4,10,,,0,,81,,330,Dry,1007,8,50,0,0,,4.4,
Charterhall,20/10/2019 03:00,7.2,12,,,0,,77,,330,Rain,1008,8,50,0,0,,3.5,
Charterhall,20/10/2019 04:00,7.1,12,,,0,,78,,320,Dry,1008,8,50,0,0,,3.6,
Charterhall,20/10/2019 05:00,6.6,10,,,0,,81,,320,Light shower,1009,8,35,0,0,,3.7,
Charterhall,20/10/2019 06:00,6.6,12,6.5,,0,0,82,,310,Rain,1010,5,45,0,0,,3.9,
Charterhall,20/10/2019 07:00,6.9,10,,,0,,82,,330,Dry,1011,8,40,0,0,,4.1,
Charterhall,20/10/2019 08:00,7,9,,,0,,84,,330,Rain,1011,8,50,33,0,,4.6,
Charterhall,20/10/2019 09:00,7.8,10,,,0,,80,,340,Dry,1012,8,50,152,0,,4.6,
Charterhall,20/10/2019 10:00,7.6,10,,,0,,88,,350,Drizzly rain,1014,8,10,339,0,,5.9,
Charterhall,20/10/2019 11:00,8.3,14,,,0,,86,,350,Rain,1015,7,10,721,6,,6.2,
Charterhall,20/10/2019 12:00,8.4,12,,,0,0,83,,350,Rain,1015,7,45,528,0,,5.8,
Charterhall,20/10/2019 13:00,9.5,14,,,0,,73,,360,Dry,1016,8,45,679,0,,5,
Charterhall,20/10/2019 14:00,9.8,13,,,0,,71,,360,Dry,1016,5,45,665,6,,4.8,
Charterhall,20/10/2019 15:00,9.5,13,,,0,,71,,10,Dry,1017,7,50,712,24,,4.7,
Charterhall,20/10/2019 16:00,9.1,12,,,0,,69,,10,Dry,1018,8,50,209,0,,3.8,
Charterhall,20/10/2019 17:00,8.2,9,,,0,,79,,360,Dry,1019,8,50,88,0,,4.9,
Charterhall,20/10/2019 18:00,7.9,12,,10.2,0,0,82,,360,Rain,1019,8,50,1,0,,5.1,
Charterhall,20/10/2019 19:00,8.2,13,,,0,,79,,10,Dry,1020,8,50,0,0,,4.9,
Charterhall,20/10/2019 20:00,7.3,13,,,0,,86,,360,Dry,1020,7,25,0,0,,5.2,
Charterhall,20/10/2019 21:00,7.4,12,,,0,,87,,10,Dry,1021,8,40,0,0,,5.5,
Charterhall,20/10/2019 22:00,7.3,8,,,0,,87,,350,Dry,1021,8,50,0,0,,5.4,
Charterhall,20/10/2019 23:00,7.5,10,,,0,,85,,360,Dry,1022,8,50,0,0,,5.3,
Charterhall,21/10/2019 00:00,7.4,8,,,0,0,85,,360,Dry,1022,6,50,,,,5.1,
Charterhall,21/10/2019 01:00,8,10,,,0,,81,,360,Dry,1022,8,45,0,0,,5,
Charterhall,21/10/2019 02:00,7.8,9,,,0,,82,,350,Dry,1022,8,45,0,0,,5,
Charterhall,21/10/2019 03:00,7.8,8,,,0,,79,,350,Dry,1022,8,50,0,0,,4.5,
Charterhall,21/10/2019 04:00,7.1,8,,,0,,83,,340,Dry,1023,8,50,0,0,,4.5,
Charterhall,21/10/2019 05:00,5.7,5,,,0,,88,,320,Dry,1023,4,50,0,0,,4,
Charterhall,21/10/2019 06:00,5.3,6,5.2,,0,0,88,,320,Dry,1023,3,50,0,0,,3.6,
Charterhall,21/10/2019 07:00,5,6,,,0,,90,,320,Dry,1023,5,50,0,0,,3.5,
Charterhall,21/10/2019 08:00,5.4,7,,,0,,90,,310,Dry,1024,6,50,75,0,,3.9,
Charterhall,21/10/2019 09:00,7.4,6,,,0,,81,,320,Dry,1024,7,50,498,30,,4.5,
Charterhall,21/10/2019 10:00,7.9,5,,,0,,80,,310,Dry,1024,2,50,637,18,,4.8,
Charterhall,21/10/2019 11:00,9.7,2,,,0,,65,,350,Dry,1024,1,45,1019,54,,3.6,
Charterhall,21/10/2019 12:00,9.5,5,,,0,0,72,,160,Dry,1024,7,50,777,24,,4.9,
Charterhall,21/10/2019 13:00,9.3,7,,,0,,64,,250,Dry,1023,7,50,710,0,,3,
Charterhall,21/10/2019 14:00,10.4,8,,,0,,62,,230,Dry,1022,4,50,1081,42,,3.5,
Charterhall,21/10/2019 15:00,9.9,6,,,0,,65,,220,Dry,1021,0,50,877,60,,3.7,
Charterhall,21/10/2019 16:00,8.9,5,,,0,,72,,230,Dry,1021,7,50,325,6,,4.2,
Charterhall,21/10/2019 17:00,7.9,9,,,0,,73,,280,Dry,1021,8,50,112,0,,3.5,
Charterhall,21/10/2019 18:00,5.5,8,,10.7,0,0,80,,270,Dry,1021,3,50,0,0,,2.5,
Charterhall,21/10/2019 19:00,5.2,5,,,0,,83,,260,Dry,1021,7,50,0,0,,2.7,
Charterhall,21/10/2019 20:00,4.7,5,,,0,,86,,210,Dry,1021,8,50,0,0,,2.7,
Charterhall,21/10/2019 21:00,4.6,8,,,0,,86,,220,Dry,1020,7,50,0,0,,2.6,
Charterhall,21/10/2019 22:00,5,12,,,0,,86,,230,Dry,1020,6,50,0,0,,3,
Charterhall,21/10/2019 23:00,4.7,9,,,0,,86,,230,Dry,1019,0,50,0,0,,2.6,
Charterhall,22/10/2019 00:00,4.3,9,,,0,0,88,,210,Dry,1019,,50,,,,2.5,
Charterhall,22/10/2019 01:00,5.6,10,,,0,,83,,210,Dry,1018,,50,0,0,,3,
Charterhall,22/10/2019 02:00,6.2,15,,,0,,82,,220,Dry,1018,8,50,0,0,,3.4,
Charterhall,22/10/2019 03:00,6.6,9,,,0,,82,,210,Dry,1017,8,50,0,0,,3.9,
Charterhall,22/10/2019 04:00,6.7,13,,,0,,84,,210,Dry,1016,8,50,0,0,,4.2,
Charterhall,22/10/2019 05:00,6.8,13,,,0,,84,,210,Dry,1016,8,50,0,0,,4.3,
Charterhall,22/10/2019 06:00,7.1,16,3.7,,0,0,82,,220,Dry,1016,,50,0,0,,4.4,
Charterhall,22/10/2019 07:00,7,13,,,0,,84,,220,Dry,1016,8,50,0,0,,4.6,
Charterhall,22/10/2019 08:00,6.9,13,,,0,,86,,220,Dry,1017,8,50,57,0,,4.8,
Charterhall,22/10/2019 09:00,7.3,14,,,0,,85,,220,Dry,1017,5,50,188,0,,5.1,
Charterhall,22/10/2019 10:00,8.6,13,,,0,,81,,220,Dry,1017,1,50,433,0,,5.7,
Charterhall,22/10/2019 11:00,9.7,21,,,0,,78,30,230,Dry,1017,6,45,705,0,,6.1,
Charterhall,22/10/2019 12:00,10.1,21,,,0,0,77,36,230,Dry,1016,7,40,702,0,,6.3,
Charterhall,22/10/2019 13:00,11.2,20,,,0,,73,31,230,Dry,1016,4,50,1227,48,,6.6,
Charterhall,22/10/2019 14:00,11,18,,,0,,75,,220,Dry,1016,6,45,960,48,,6.9,
Charterhall,22/10/2019 15:00,10.6,17,,,0,,77,,220,Dry,1016,8,45,407,0,,6.9,
Charterhall,22/10/2019 16:00,10.3,15,,,0,,79,,220,Dry,1015,8,45,294,0,,6.9,
Charterhall,22/10/2019 17:00,9.6,13,,,0,,83,,220,Dry,1015,8,50,82,0,,6.9,
Charterhall,22/10/2019 18:00,9.3,12,,11.4,0,0,86,,220,Dry,1015,8,50,0,0,,7.1,
Charterhall,22/10/2019 19:00,9.8,14,,,0,,83,,210,Dry,1015,8,50,0,0,,7.1,
Charterhall,22/10/2019 20:00,9.8,14,,,0,,83,,220,Dry,1015,7,50,0,0,,7.2,
Charterhall,22/10/2019 21:00,9.6,13,,,0,,84,,220,Dry,1015,8,45,0,0,,7.2,
Charterhall,22/10/2019 22:00,9.5,13,,,0,,86,,220,Dry,1015,8,50,0,0,,7.4,
Charterhall,22/10/2019 23:00,9.7,13,,,0,,84,,220,Dry,1014,8,50,0,0,,7.3,
Charterhall,23/10/2019 00:00,9.7,9,,,0,0,83,,230,Dry,1014,8,50,,,,7.1,
Charterhall,23/10/2019 01:00,9.9,14,,,0,,82,,220,Dry,1014,8,50,0,0,,7.1,
Charterhall,23/10/2019 02:00,9.8,13,,,0,,84,,220,Dry,1013,8,50,0,0,,7.4,
Charterhall,23/10/2019 03:00,9.8,13,,,0,,85,,220,Dry,1012,8,50,0,0,,7.5,
Charterhall,23/10/2019 04:00,9.2,12,,,0,,87,,210,Dry,1012,6,50,0,0,,7.2,
Charterhall,23/10/2019 05:00,9.4,7,,,0,,87,,210,Dry,1011,8,50,0,0,,7.5,
Charterhall,23/10/2019 06:00,9.1,5,8.9,,0,0,89,,170,Dry,1011,7,50,0,0,,7.4,
Charterhall,23/10/2019 07:00,8.9,2,,,0,,89,,190,Dry,1011,8,50,0,0,,7.3,
Charterhall,23/10/2019 08:00,9.4,6,,,0,,91,,200,Dry,1011,8,45,82,0,,8.1,
Charterhall,23/10/2019 09:00,10.6,8,,,0,,88,,200,Dry,1010,8,40,187,0,,8.7,
Charterhall,23/10/2019 10:00,11.3,15,,,0,,84,,210,Dry,1009,8,45,327,0,,8.7,
Charterhall,23/10/2019 11:00,11.4,14,,,0,,84,,200,Dry,1009,7,45,361,0,,8.8,
Charterhall,23/10/2019 12:00,11.6,18,,,0,0,82,,220,Dry,1008,8,50,501,0,,8.7,
Charterhall,23/10/2019 13:00,12.4,18,,,0,,75,29,210,Dry,1007,8,40,689,6,,8.2,
Charterhall,23/10/2019 14:00,12.2,18,,,0,,73,,210,Dry,1006,8,50,598,0,,7.6,
Charterhall,23/10/2019 15:00,11.6,16,,,0,,75,,190,Dry,1006,8,50,309,0,,7.5,
Charterhall,23/10/2019 16:00,11.2,15,,,0,,75,,200,Dry,1005,8,50,158,0,,7,
Charterhall,23/10/2019 17:00,10.6,14,,,0,,73,,210,Dry,1004,8,50,28,0,,6,
Charterhall,23/10/2019 18:00,9.8,7,,12.7,0,0,78,,180,Dry,1004,,50,0,0,,6.3,
Charterhall,23/10/2019 19:00,9.7,13,,,0,,77,,190,Dry,1004,8,50,0,0,,6,
Charterhall,23/10/2019 20:00,9.4,9,,,0,,81,,190,Dry,1003,8,50,0,0,,6.4,
Charterhall,23/10/2019 21:00,9.4,9,,,0,,82,,190,Dry,1003,8,45,0,0,,6.6,
Charterhall,23/10/2019 22:00,8.9,7,,,0,,86,,190,Rain,1002,8,45,0,0,,6.8,
Charterhall,23/10/2019 23:00,9.6,10,,,0,,82,,210,Dry,1002,7,40,0,0,,6.8,
Charterhall,24/10/2019 00:00,9.3,5,,,0,0,84,,210,Dry,1001,7,40,,,,6.8,
Charterhall,24/10/2019 01:00,9.4,6,,,0,,87,,210,Dry,1001,8,30,0,0,,7.4,
Charterhall,24/10/2019 02:00,9.4,7,,,0,,89,,230,Dry,1000,8,30,0,0,,7.7,
Charterhall,24/10/2019 03:00,9.5,7,,,0,,89,,230,Dry,1000,7,45,0,0,,7.8,
Charterhall,24/10/2019 04:00,9.7,9,,,0,,88,,210,Dry,1000,7,50,0,0,,7.9,
Charterhall,24/10/2019 05:00,9.7,10,,,0,,89,,210,Dry,999,8,50,0,0,,8,
Charterhall,24/10/2019 06:00,9.5,8,8.9,,0,0,90,,210,Dry,999,8,50,0,0,,8.1,
Charterhall,24/10/2019 07:00,9.4,9,,,0,,91,,220,Dry,999,8,50,0,0,,8.1,
Charterhall,24/10/2019 08:00,9.4,9,,,0,,91,,210,Dry,999,7,50,21,0,,8.1,
Charterhall,24/10/2019 09:00,9.1,8,,,0,,94,,200,Dry,999,6,30,173,0,,8.2,
Charterhall,24/10/2019 10:00,10,6,,,0,,92,,190,Dry,999,1,45,370,0,,8.9,
Charterhall,24/10/2019 11:00,11.7,12,,,0,,77,,220,Dry,999,5,40,786,36,,7.9,
Charterhall,24/10/2019 12:00,12.2,14,,,0,0,69,,220,Dry,999,5,45,1076,36,,6.8,
Charterhall,24/10/2019 13:00,12.2,16,,,0,,70,,220,Dry,999,7,50,1204,48,,7,
Charterhall,24/10/2019 14:00,12.5,14,,,0,,70,,220,Dry,998,6,50,1023,36,,7.3,
Charterhall,24/10/2019 15:00,12.9,12,,,0,,65,,240,Dry,998,3,45,764,30,,6.5,
Charterhall,24/10/2019 16:00,11.3,10,,,0,,73,,240,Dry,999,3,50,390,30,,6.8,
Charterhall,24/10/2019 17:00,9.4,12,,,0,,78,,270,Rain,1000,4,50,59,0,,5.9,
Charterhall,24/10/2019 18:00,8,8,,13.1,0,0,83,,270,Dry,1001,,50,0,0,,5.3,
Charterhall,24/10/2019 19:00,7.5,10,,,0,,80,,260,Dry,1001,1,50,0,0,,4.3,
Charterhall,24/10/2019 20:00,6.7,3,,,0,,82,,240,Dry,1002,7,50,0,0,,3.9,
Charterhall,24/10/2019 21:00,5.7,5,,,0,,82,,240,Dry,1003,8,50,0,0,,2.9,
Charterhall,24/10/2019 22:00,4.6,5,,,0,,83,,250,Dry,1004,3,50,0,0,,2.1,
Charterhall,24/10/2019 23:00,4,6,,,0,,85,,240,Dry,1004,,50,0,0,,1.8,
Charterhall,25/10/2019 00:00,3,5,,,0,0,89,,240,Dry,1006,0,50,,,,1.5,
Charterhall,25/10/2019 01:00,3.4,7,,,0,,89,,250,Dry,1006,,50,0,0,,1.8,
Charterhall,25/10/2019 02:00,3.1,6,,,0,,87,,250,Dry,1006,3,50,0,0,,1.3,
Charterhall,25/10/2019 03:00,2.3,6,,,0,,92,,230,Dry,1007,,50,0,0,,1.2,
Charterhall,25/10/2019 04:00,1.4,7,,,0,,91,,230,Dry,1007,0,50,0,0,,0.1,
Charterhall,25/10/2019 05:00,1.8,7,,,0,,89,,240,Dry,1008,0,50,0,0,,0.3,
Charterhall,25/10/2019 06:00,1.4,8,1.1,,0,0,93,,240,Dry,1008,0,50,0,0,,0.4,
Charterhall,25/10/2019 07:00,2.3,13,,,0,,93,,220,Dry,1008,6,50,0,0,,1.4,
Charterhall,25/10/2019 08:00,2.8,7,,,0,,91,,240,Dry,1009,7,50,32,0,,1.5,
Charterhall,25/10/2019 09:00,3.6,9,,,0,,89,,230,Dry,1008,0,50,148,0,,2.1,
Charterhall,25/10/2019 10:00,4.3,10,,,0,,89,,230,Dry,1009,0,45,323,0,,2.7,
Charterhall,25/10/2019 11:00,5.1,12,,,0,,89,,220,Dry,1008,7,50,336,0,,3.5,
Charterhall,25/10/2019 12:00,6.1,9,,,0,0,86,,220,Dry,1008,8,50,424,0,,4,
Charterhall,25/10/2019 13:00,6.4,9,,,0,,85,,210,Dry,1006,8,50,397,0,,4.1,
Charterhall,25/10/2019 14:00,6.8,7,,,0,,86,,200,Dry,1006,8,50,328,0,,4.7,
Charterhall,25/10/2019 15:00,6.8,9,,,0,,81,,220,Dry,1005,8,50,165,0,,3.9,
Charterhall,25/10/2019 16:00,5.9,6,,,0.2,,90,,210,Light shower,1004,8,30,75,0,,4.4,
Charterhall,25/10/2019 17:00,5.5,1,,,0.4,,93,,250,Light rain,1004,8,22,21,0,,4.6,
Charterhall,25/10/2019 18:00,5.3,2,,6.9,0.8,1,95,,240,Moderate rain,1004,8,40,0,0,,4.7,
Charterhall,25/10/2019 19:00,5,3,,,0.4,,98,,200,Light drizzle,1003,8,14,0,0,,4.8,
Charterhall,25/10/2019 20:00,4.7,6,,,0,,97,,240,Rain,1003,8,28,0,0,,4.4,
Charterhall,25/10/2019 21:00,4.6,6,,,0,,97,,250,Dry,1003,1,30,0,0,,4.2,
Charterhall,25/10/2019 22:00,4.1,6,,,0.2,,97,,260,Dry,1003,7,16,0,0,,3.8,
Charterhall,25/10/2019 23:00,3.8,6,,,0,,97,,260,Dry,1004,7,19,0,0,,3.4,
Charterhall,26/10/2019 00:00,3.9,7,,,0,0.6,94,,260,Dry,1004,,50,,,,3.1,
Charterhall,26/10/2019 01:00,3.4,5,,,0,,95,,210,Dry,1004,8,50,0,0,,2.8,
Charterhall,26/10/2019 02:00,3.3,5,,,0,,97,,200,Dry,1004,,50,0,0,,2.9,
Charterhall,26/10/2019 03:00,3.8,6,,,0,,93,,230,Dry,1004,8,50,0,0,,2.8,
Charterhall,26/10/2019 04:00,3.7,7,,,0,,94,,210,Dry,1004,8,50,0,0,,2.9,
Charterhall,26/10/2019 05:00,3.8,6,,,0,,93,,230,Dry,1004,8,50,0,0,,2.9,
Charterhall,26/10/2019 06:00,4.2,9,3.2,,0,0,92,,220,Dry,1004,8,50,0,0,,3.1,
Charterhall,26/10/2019 07:00,4.1,8,,,0,,91,,220,Dry,1004,8,50,0,0,,2.9,
Charterhall,26/10/2019 08:00,4.1,7,,,0,,92,,230,Dry,1004,8,50,16,0,,3,
Charterhall,26/10/2019 09:00,4.4,9,,,0,,93,,230,Dry,1004,8,50,127,0,,3.4,
Charterhall,26/10/2019 10:00,4.9,12,,,0,,91,,220,Dry,1004,8,50,250,0,,3.6,
Charterhall,26/10/2019 11:00,6.3,12,,,0,,87,,220,Dry,1004,3,45,523,6,,4.4,
Charterhall,26/10/2019 12:00,7.9,13,,,0,0,72,,240,Dry,1004,,50,1281,60,,3.3,
Charterhall,26/10/2019 13:00,8.3,12,,,0,,62,,250,Dry,1004,0,45,1242,60,,1.6,
Charterhall,26/10/2019 14:00,9,12,,,0,,58,,260,Dry,1004,2,45,1057,54,,1.4,
Charterhall,26/10/2019 15:00,7.3,9,,,0,,68,,270,Dry,1004,2,50,854,48,,1.9,
Charterhall,26/10/2019 16:00,7.1,12,,,0,,67,,250,Dry,1004,7,50,243,12,,1.4,
Charterhall,26/10/2019 17:00,4.9,9,,,0.2,,83,,250,Rain,1004,5,50,77,6,,2.4,
Charterhall,26/10/2019 18:00,4,9,,9.8,0,0.2,83,,230,Dry,1005,1,50,0,0,,1.4,
Charterhall,26/10/2019 19:00,4.4,13,,,0,,77,,250,Dry,1006,0,50,0,0,,0.9,
Charterhall,26/10/2019 20:00,4.6,15,,,0,,79,,240,Dry,1006,4,50,0,0,,1.3,
Charterhall,26/10/2019 21:00,4.3,12,,,0,,83,,220,Dry,1006,4,50,0,0,,1.7,
Charterhall,26/10/2019 22:00,5.6,17,,,0,,79,,230,Dry,1006,5,50,0,0,,2.4,
Charterhall,26/10/2019 23:00,5.8,14,,,0,,79,29,250,Dry,1007,1,50,0,0,,2.6,
Charterhall,27/10/2019 00:00,5.9,15,,,0,0,79,,250,Dry,1008,,50,,,,2.6,
Charterhall,27/10/2019 01:00,5.9,13,,,0,,78,,250,Dry,1009,0,50,0,0,,2.5,
Charterhall,27/10/2019 02:00,6.2,16,,,0,,77,,260,Dry,1010,0,50,0,0,,2.6,
Charterhall,27/10/2019 03:00,6.1,20,,,0,,79,32,270,Dry,1010,,50,0,0,,2.8,
Charterhall,27/10/2019 04:00,6.1,18,,,0,,78,,260,Dry,1011,0,50,0,0,,2.6,
Charterhall,27/10/2019 05:00,6.4,18,,,0,,75,29,260,Dry,1012,0,50,0,0,,2.3,
Charterhall,27/10/2019 06:00,6,16,3.4,,0,0,77,30,260,Dry,1013,0,50,0,0,,2.3,
Charterhall,27/10/2019 07:00,5.9,16,,,0,,77,,260,Dry,1014,,50,0,0,,2.3,
Charterhall,27/10/2019 08:00,6.3,18,,,0,,76,29,260,Dry,1015,0,50,71,12,,2.4,
Charterhall,27/10/2019 09:00,7,20,,,0,,74,30,260,Dry,1015,0,40,385,60,,2.7,
Charterhall,27/10/2019 10:00,8,22,,,0,,71,35,270,Dry,1016,,50,782,60,,3.1,
Charterhall,27/10/2019 11:00,8.9,21,,,0,,70,35,260,Dry,1017,0,35,1071,60,,3.9,
Charterhall,27/10/2019 12:00,9.5,21,,,0,0,67,32,260,Dry,1018,0,50,1234,60,,3.8,
Charterhall,27/10/2019 13:00,10.2,18,,,0,,62,32,270,Dry,1018,0,45,1237,60,,3.3,
Charterhall,27/10/2019 14:00,10.4,17,,,0,,60,,270,Dry,1020,0,45,1089,60,,3.2,
Charterhall,27/10/2019 15:00,10.2,13,,,0,,63,,270,Dry,1020,0,40,780,60,,3.7,
Charterhall,27/10/2019 16:00,9.1,9,,,0,,66,,270,Dry,1021,0,50,417,60,,3.3,
Charterhall,27/10/2019 17:00,7.3,7,,,0,,75,,270,Dry,1021,1,45,82,18,,3.2,
Charterhall,27/10/2019 18:00,6.6,10,,10.6,0,0,77,,260,Dry,1022,0,45,0,0,,2.9,
Charterhall,27/10/2019 19:00,5.6,10,,,0,,80,,270,Dry,1023,0,50,0,0,,2.5,
Charterhall,27/10/2019 20:00,5,12,,,0,,81,,270,Dry,1024,0,50,0,0,,2.1,
Charterhall,27/10/2019 21:00,5.5,13,,,0,,79,,290,Dry,1024,0,50,0,0,,2.3,
Charterhall,27/10/2019 22:00,4.9,5,,,0,,80,,310,Dry,1024,0,45,0,0,,1.8,
Charterhall,27/10/2019 23:00,4.9,8,,,0,,77,,290,Dry,1025,0,50,0,0,,1.3,
Charterhall,28/10/2019 00:00,3.6,8,,,0,0,80,,300,Dry,1025,,50,,,,0.5,
Charterhall,28/10/2019 01:00,3.9,7,,,0,,79,,310,Dry,1026,,50,0,0,,0.7,
Charterhall,28/10/2019 02:00,2.9,6,,,0,,85,,300,Dry,1026,0,50,0,0,,0.7,
Charterhall,28/10/2019 03:00,2.5,7,,,0,,87,,280,Dry,1026,0,50,0,0,,0.6,
Charterhall,28/10/2019 04:00,0.7,3,,,0,,94,,230,Dry,1026,0,50,0,0,,-0.1,
Charterhall,28/10/2019 05:00,0.9,3,,,0,,92,,280,Dry,1026,0,50,0,0,,-0.2,
Charterhall,28/10/2019 06:00,0.5,5,-0.4,,0,0,94,,250,Dry,1027,0,50,0,0,,-0.3,
Charterhall,28/10/2019 07:00,-0.7,3,,,0,,91,,200,Dry,1027,0,50,0,0,,-1.9,
Charterhall,28/10/2019 08:00,0.7,3,,,0,,93,,240,Dry,1027,0,50,62,12,,-0.3,
Charterhall,28/10/2019 09:00,4.1,7,,,0,,77,,290,Dry,1027,0,50,370,60,,0.6,
Charterhall,28/10/2019 10:00,6.1,10,,,0,,71,,310,Dry,1028,0,50,767,60,,1.3,
Charterhall,28/10/2019 11:00,6.8,10,,,0,,65,,320,Dry,1028,0,50,1077,60,,0.7,
Charterhall,28/10/2019 12:00,8,8,,,0,0,63,,340,Dry,1028,1,45,1220,60,,1.5,
Charterhall,28/10/2019 13:00,8,9,,,0,,60,,340,Dry,1027,0,50,1231,60,,0.9,
Charterhall,28/10/2019 14:00,7.7,8,,,0,,63,,330,Dry,1028,0,50,797,42,,1.2,
Charterhall,28/10/2019 15:00,7.8,6,,,0,,62,,360,Dry,1028,0,50,771,60,,1.2,
Charterhall,28/10/2019 16:00,6.7,5,,,0,,66,,350,Dry,1028,,50,386,60,,1,
Charterhall,28/10/2019 17:00,5.9,3,,,0,,71,,330,Dry,1028,5,13,70,12,,1.1,
Charterhall,28/10/2019 18:00,4.8,3,,8.3,0.2,0.2,83,,330,Rain,1028,7,45,0,0,,2.3,
Charterhall,28/10/2019 19:00,5.1,6,,,0.2,,89,,340,Moderate shower,1028,7,40,0,0,,3.5,
Charterhall,28/10/2019 20:00,4.5,5,,,0,,89,,340,Rain,1028,6,50,0,0,,2.9,
Charterhall,28/10/2019 21:00,4.4,3,,,0.8,,93,,320,Rain,1029,7,50,0,0,,3.4,
Charterhall,28/10/2019 22:00,4.7,6,,,1.4,,95,,340,Light rain,1029,8,50,0,0,,4.1,
Charterhall,28/10/2019 23:00,5,8,,,1.2,,95,,10,Moderate shower,1029,7,5,0,0,,4.4,
Charterhall,29/10/2019 00:00,5.1,6,,,0.6,4,95,,330,Rain,1029,4,50,,,,4.4,
Charterhall,29/10/2019 01:00,5.4,6,,,0,,97,,340,Light shower,1029,1,20,0,0,,5,
Charterhall,29/10/2019 02:00,5.3,5,,,0.2,,95,,360,Light shower,1029,7,45,0,0,,4.6,
Charterhall,29/10/2019 03:00,4.9,7,,,0.2,,96,,340,Rain,1029,0,50,0,0,,4.4,
Charterhall,29/10/2019 04:00,4.9,7,,,0,,95,,340,Dry,1029,5,45,0,0,,4.3,
Charterhall,29/10/2019 05:00,4.6,5,,,0,,92,,10,Dry,1029,1,50,0,0,,3.5,
Charterhall,29/10/2019 06:00,4.7,8,3.5,,0.2,1,93,,360,Moderate shower,1029,4,50,0,0,,3.7,
Charterhall,29/10/2019 07:00,4.3,6,,,0.6,,95,,10,Rain,1030,7,50,0,0,,3.7,
Charterhall,29/10/2019 08:00,5.1,7,,,0,,93,,350,Dry,1031,7,50,59,0,,4.2,
Charterhall,29/10/2019 09:00,5.6,5,,,0.2,,90,,30,Rain,1031,6,50,205,0,,4.1,
Charterhall,29/10/2019 10:00,6.9,3,,,0.4,,96,,320,Rain,1031,3,50,438,18,,6.4,
Charterhall,29/10/2019 11:00,7.6,7,,,0,,80,,40,Dry,1031,2,50,754,30,,4.5,
Charterhall,29/10/2019 12:00,9.7,8,,,0,1,76,,60,Dry,1031,7,35,1089,30,,5.8,
Charterhall,29/10/2019 13:00,8.8,7,,,0.4,,80,,60,Rain,1031,8,9,721,18,,5.7,
Charterhall,29/10/2019 14:00,10.1,12,,,0,,70,,80,Dry,1031,6,40,1216,60,,5,
Charterhall,29/10/2019 15:00,7.8,10,,,0,,81,,50,Light shower,1031,8,8,587,24,,4.8,
Charterhall,29/10/2019 16:00,7.1,7,,,0,,78,,40,Rain,1031,7,50,231,6,,3.6,
Charterhall,29/10/2019 17:00,6.6,6,,,0,,82,,20,Dry,1031,7,50,57,0,,3.9,
Charterhall,29/10/2019 18:00,6.3,3,,10.2,0.2,1,89,,10,Rain,1031,8,45,0,0,,4.7,
Charterhall,29/10/2019 19:00,4.9,3,,,0,,93,,340,Dry,1031,7,50,0,0,,3.9,
Charterhall,29/10/2019 20:00,4.8,6,,,0,,86,,360,Dry,1032,6,50,0,0,,2.8,
Charterhall,29/10/2019 21:00,5.2,5,,,0.4,,93,,360,Rain,1032,7,50,0,0,,4.3,
Charterhall,29/10/2019 22:00,4.4,6,,,0,,94,,360,Dry,1032,5,50,0,0,,3.6,
Charterhall,29/10/2019 23:00,4.5,6,,,0,,98,,20,Moderate shower,1032,7,11,0,0,,4.3,
Charterhall,30/10/2019 00:00,4.7,3,,,0.4,0.8,98,,30,Moderate shower,1032,1,15,,,,4.5,
Charterhall,30/10/2019 01:00,4.3,1,,,0.2,,96,,280,Rain,1031,7,40,0,0,,3.8,
Charterhall,30/10/2019 02:00,4.7,3,,,0,,97,,20,Dry,1031,8,9,0,0,,4.4,
Charterhall,30/10/2019 03:00,4.2,5,,,0.2,,94,,20,Rain,1030,4,50,0,0,,3.4,
Charterhall,30/10/2019 04:00,3.6,3,,,0,,95,,360,Dry,1030,3,50,0,0,,3,
Charterhall,30/10/2019 05:00,2.5,2,,,0,,98,,240,Dry,1030,7,15,0,0,,2.3,
Charterhall,30/10/2019 06:00,1.2,1,1.2,,0,0.2,96,,80,Dry,1030,4,12,0,0,,0.7,
Charterhall,30/10/2019 07:00,1.6,3,,,0.2,,100,,330,Dry,1030,4,50,0,0,,1.6,
Charterhall,30/10/2019 08:00,-0.1,2,,,0,,99,,280,Fog,1031,5,21,33,0,,-0.2,
Charterhall,30/10/2019 09:00,1.2,2,,,0,,100,,290,Fog,1031,7,20,177,0,,1.2,
Charterhall,30/10/2019 10:00,5.2,5,,,0,,98,,360,Dry,1030,3,50,426,18,,5,
Charterhall,30/10/2019 11:00,6.3,2,,,0,,92,,80,Dry,1030,5,50,880,48,,5.1,
Charterhall,30/10/2019 12:00,9.1,6,,,0,0.2,74,,80,Dry,1029,0,45,1154,54,,4.8,
Charterhall,30/10/2019 13:00,8.2,6,,,0,,81,,80,Dry,1029,6,40,842,30,,5.2,
Charterhall,30/10/2019 14:00,7.9,3,,,0,,80,,80,Rain,1028,8,50,564,0,,4.7,
Charterhall,30/10/2019 15:00,7.6,5,,,0,,82,,60,Dry,1028,8,50,,,,4.9,
Charterhall,30/10/2019 16:00,7.6,6,,,0,,83,,90,Dry,1028,8,50,,,,5,
Charterhall,30/10/2019 17:00,5.6,6,,,0,,86,,60,Dry,1027,4,50,,,,3.6,
Charterhall,30/10/2019 18:00,6.1,5,,9.4,0,0,90,,60,Dry,1027,7,50,,,,4.6,
Charterhall,30/10/2019 19:00,6.4,6,,,0,,87,,70,Dry,1027,8,50,,,,4.5,
Charterhall,30/10/2019 20:00,6.2,5,,,0,,89,,70,Dry,1027,7,50,,,,4.6,
Charterhall,30/10/2019 21:00,6.3,5,,,0,,92,,90,Rain,1027,7,50,,,,5.1,
Charterhall,30/10/2019 22:00,6.4,6,,,0,,90,,70,Rain,1026,8,50,,,,5,
Charterhall,30/10/2019 23:00,6.5,6,,,0,,90,,80,Dry,1026,8,30,,,,5.1,
Charterhall,31/10/2019 00:00,6.4,5,,,0,0,90,,90,Rain,1026,1,50,,,,4.9,
Dundee Riverside,01/09/2019 08:00,13,9,,,,,,,270,-,,1,10,,,,10,
Dundee Riverside,01/09/2019 09:00,15,12,,,,,,,270,-,,1,10,,,,9,
Dundee Riverside,01/09/2019 10:00,15,10,,,,,,,290,-,,3,10,,,,8,
Dundee Riverside,01/09/2019 11:00,16,9,,,,,,,280,-,,3,10,,,,10,
Dundee Riverside,01/09/2019 12:00,15,13,,,,,,,300,-,,3,10,,,,7,
Dundee Riverside,01/09/2019 13:00,16,12,,,,,,,290,-,,3,10,,,,7,
Dundee Riverside,01/09/2019 14:00,17,13,,,,,,,290,-,,3,10,,,,7,
Dundee Riverside,01/09/2019 15:00,17,8,,,,,,,270,-,,3,10,,,,8,
Dundee Riverside,01/09/2019 16:00,15,14,,,,,,,300,-,,3,10,,,,6,
Dundee Riverside,01/09/2019 17:00,16,8,,,,,,,300,-,,1,10,,,,8,
Dundee Riverside,01/09/2019 18:00,14,6,,,,,,,290,-,,1,10,,,,8,
Dundee Riverside,01/09/2019 19:00,13,2,,,,,,,,-,,1,10,,,,8,
Dundee Riverside,02/09/2019 06:00,10,3,,,,,,,,-,,1,10,,,,9,
Dundee Riverside,02/09/2019 07:00,10,3,,,,,,,310,-,,3,10,,,,9,
Dundee Riverside,02/09/2019 08:00,11,2,,,,,,,300,-,,3,10,,,,10,
Dundee Riverside,02/09/2019 09:00,13,8,,,,,,,230,-,,5,10,,,,12,
Dundee Riverside,02/09/2019 10:00,14,16,,,,,,,220,-,,5,10,,,,12,
Dundee Riverside,02/09/2019 11:00,15,17,,,,,,,220,-,,5,10,,,,12,
Dundee Riverside,02/09/2019 12:00,15,22,,,,,,,230,-,,3,10,,,,13,
Dundee Riverside,02/09/2019 13:00,16,26,,,,,,,240,-,,3,10,,,,14,
Dundee Riverside,02/09/2019 14:00,16,25,,,,,,,230,-,,3,10,,,,13,
Dundee Riverside,02/09/2019 15:00,15,24,,,,,,,230,-,,5,10,,,,14,
Dundee Riverside,02/09/2019 16:00,16,24,,,,,,,230,-,,3,10,,,,14,
Dundee Riverside,02/09/2019 17:00,16,21,,,,,,,240,-,,3,10,,,,14,
Dundee Riverside,02/09/2019 18:00,16,22,,,,,,,260,-,,3,10,,,,14,
Dundee Riverside,02/09/2019 19:00,16,21,,,,,,,260,-,,3,10,,,,14,
Dundee Riverside,02/09/2019 20:00,16,17,,,,,,,260,-,,3,10,,,,14,
Dundee Riverside,03/09/2019 07:00,14,0,,,,,,,0,-,,5,10,,,,13,
Dundee Riverside,03/09/2019 08:00,14,2,,,,,,,90,-,,5,10,,,,13,
Dundee Riverside,03/09/2019 09:00,14,2,,,,,,,70,-,,5,10,,,,13,
Dundee Riverside,03/09/2019 10:00,15,2,,,,,,,70,-,,5,10,,,,14,
Dundee Riverside,03/09/2019 11:00,16,0,,,,,,,0,-,,5,10,,,,15,
Dundee Riverside,03/09/2019 12:00,17,2,,,,,,,,-,,5,10,,,,15,
Dundee Riverside,03/09/2019 13:00,17,8,,,,,,,240,-,,5,4,,,,16,
Dundee Riverside,03/09/2019 14:00,17,8,,,,,,,210,-,,3,10,,,,16,
Dundee Riverside,03/09/2019 15:00,17,10,,,,,,,230,-,,3,10,,,,15,
Dundee Riverside,03/09/2019 16:00,16,10,,,,,,,230,-,,3,10,,,,16,
Dundee Riverside,03/09/2019 17:00,16,10,,,,,,,230,-,,3,10,,,,15,
Dundee Riverside,03/09/2019 18:00,16,13,,,,,,,250,-,,3,10,,,,13,
Dundee Riverside,03/09/2019 19:00,16,15,,,,,,,240,-,,1,10,,,,14,
Dundee Riverside,04/09/2019 06:00,10,5,,,,,,,290,-,,1,10,,,,9,
Dundee Riverside,04/09/2019 07:00,12,13,,,,,,,230,-,,1,10,,,,10,
Dundee Riverside,04/09/2019 08:00,13,15,,,,,,,220,-,,5,9,,,,11,
Dundee Riverside,04/09/2019 09:00,12,12,,,,,,,260,-,,5,10,,,,10,
Dundee Riverside,04/09/2019 10:00,14,10,,,,,,,220,-,,3,10,,,,11,
Dundee Riverside,04/09/2019 11:00,12,9,,,,,,,220,-,,5,8,,,,10,
Dundee Riverside,04/09/2019 12:00,11,5,,,,,,,80,-,,5,4,,,,10,
Dundee Riverside,04/09/2019 13:00,11,8,,,,,,,60,-,,5,4,,,,11,
Dundee Riverside,04/09/2019 14:00,13,3,,,,,,,,-,,3,10,,,,12,
Dundee Riverside,04/09/2019 15:00,13,5,,,,,,,350,-,,3,10,,,,11,
Dundee Riverside,04/09/2019 16:00,15,8,,,,,,,350,-,,1,10,,,,10,
Dundee Riverside,04/09/2019 17:00,14,9,,,,,,,300,-,,3,10,,,,9,
Dundee Riverside,04/09/2019 18:00,14,9,,,,,,,340,-,,3,10,,,,8,
Dundee Riverside,04/09/2019 19:00,12,14,,,,,,,310,-,,3,10,,,,6,
Dundee Riverside,05/09/2019 06:00,9,8,,,,,,,280,-,,1,10,,,,5,
Dundee Riverside,05/09/2019 07:00,9,10,,,,,,,280,-,,1,10,,,,5,
Dundee Riverside,05/09/2019 08:00,10,13,,,,,,,270,-,,1,10,,,,6,
Dundee Riverside,05/09/2019 09:00,11,10,,,,,,,280,-,,1,10,,,,7,
Dundee Riverside,05/09/2019 10:00,13,15,,,,,,,260,-,,1,10,,,,9,
Dundee Riverside,05/09/2019 11:00,15,16,,,,,,,260,-,,1,10,,,,10,
Dundee Riverside,05/09/2019 12:00,16,16,,,,,,,260,-,,3,10,,,,11,
Dundee Riverside,05/09/2019 13:00,17,14,,,,,,,280,-,,1,10,,,,10,
Dundee Riverside,05/09/2019 14:00,18,12,,,,,,,280,-,,3,10,,,,10,
Dundee Riverside,05/09/2019 15:00,18,21,,,,,,,260,-,,3,10,,,,10,
Dundee Riverside,05/09/2019 16:00,17,20,,,,,,,260,-,,3,10,,,,9,
Dundee Riverside,05/09/2019 17:00,16,21,,,,,,,250,-,,3,10,,,,11,
Dundee Riverside,05/09/2019 18:00,15,12,,,,,,,260,-,,3,10,,,,11,
Dundee Riverside,05/09/2019 19:00,15,17,,,,,,,240,-,,3,10,,,,11,
Dundee Riverside,06/09/2019 06:00,12,18,,,,,,,270,-,,1,10,,,,8,
Dundee Riverside,06/09/2019 07:00,12,8,,,,,,,290,-,,1,10,,,,8,
Dundee Riverside,06/09/2019 08:00,12,6,,,,,,,270,-,,1,10,,,,8,
Dundee Riverside,06/09/2019 09:00,14,15,,,,,,,260,-,,1,10,,,,9,
Dundee Riverside,06/09/2019 10:00,14,20,,,,,,,250,-,,1,10,,,,10,
Dundee Riverside,06/09/2019 11:00,15,17,,,,,,,250,-,,1,10,,,,11,
Dundee Riverside,06/09/2019 12:00,15,20,,,,,,,260,-,,3,10,,,,11,
Dundee Riverside,06/09/2019 13:00,17,13,,,,,,,270,-,,3,10,,,,12,
Dundee Riverside,06/09/2019 14:00,18,10,,,,,,,280,-,,3,10,,,,9,
Dundee Riverside,06/09/2019 15:00,19,9,,,,,,23,280,-,,1,10,,,,9,
Dundee Riverside,06/09/2019 16:00,17,10,,,,,,,290,-,,3,10,,,,10,
Dundee Riverside,06/09/2019 17:00,16,14,,,,,,,270,-,,3,10,,,,10,
Dundee Riverside,06/09/2019 18:00,17,12,,,,,,,290,-,,3,10,,,,10,
Dundee Riverside,06/09/2019 19:00,15,10,,,,,,,300,-,,1,10,,,,9,
Dundee Riverside,07/09/2019 08:00,11,5,,,,,,,280,-,,1,10,,,,5,
Dundee Riverside,07/09/2019 09:00,12,5,,,,,,,320,-,,1,10,,,,6,
Dundee Riverside,07/09/2019 10:00,14,8,,,,,,,340,-,,1,10,,,,6,
Dundee Riverside,07/09/2019 11:00,15,6,,,,,,,10,-,,1,10,,,,5,
Dundee Riverside,07/09/2019 12:00,15,3,,,,,,,,-,,1,10,,,,6,
Dundee Riverside,07/09/2019 13:00,15,6,,,,,,,210,-,,1,10,,,,6,
Dundee Riverside,07/09/2019 14:00,15,3,,,,,,,190,-,,1,10,,,,6,
Dundee Riverside,07/09/2019 15:00,17,5,,,,,,,220,-,,1,10,,,,8,
Dundee Riverside,08/09/2019 08:00,9,0,,,,,,,0,-,,1,10,,,,9,
Dundee Riverside,08/09/2019 09:00,11,3,,,,,,,260,-,,1,10,,,,10,
Dundee Riverside,08/09/2019 10:00,12,7,,,,,,,240,-,,1,10,,,,10,
Dundee Riverside,08/09/2019 11:00,13,8,,,,,,,230,-,,1,10,,,,10,
Dundee Riverside,08/09/2019 12:00,14,7,,,,,,,220,-,,1,10,,,,11,
Dundee Riverside,08/09/2019 13:00,15,3,,,,,,,250,-,,1,10,,,,10,
Dundee Riverside,08/09/2019 14:00,16,3,,,,,,,250,-,,1,10,,,,10,
Dundee Riverside,08/09/2019 15:00,16,8,,,,,,,240,-,,1,10,,,,10,
Dundee Riverside,08/09/2019 17:00,15,8,,,,,,,230,-,,3,10,,,,11,
Dundee Riverside,08/09/2019 18:00,15,8,,,,,,,250,-,,3,10,,,,11,
Dundee Riverside,08/09/2019 19:00,15,7,,,,,,,230,-,,3,10,,,,11,
Dundee Riverside,08/09/2019 20:00,13,3,,,,,,,140,-,,3,10,,,,11,
Dundee Riverside,09/09/2019 06:00,12,5,,,,,,,80,-,,3,8,,,,12,
Dundee Riverside,09/09/2019 07:00,12,7,,,,,,,100,-,,5,8,,,,12,
Dundee Riverside,09/09/2019 08:00,12,6,,,,,,,70,-,,5,8,,,,11,
Dundee Riverside,09/09/2019 09:00,12,5,,,,,,,80,-,,5,8,,,,12,
Dundee Riverside,09/09/2019 10:00,13,6,,,,,,,90,-,,5,9,,,,12,
Dundee Riverside,09/09/2019 11:00,13,6,,,,,,,110,-,,5,9,,,,12,
Dundee Riverside,09/09/2019 12:00,13,9,,,,,,,150,-,,5,7,,,,12,
Dundee Riverside,09/09/2019 13:00,13,6,,,,,,,130,-,,5,8,,,,12,
Dundee Riverside,09/09/2019 14:00,14,2,,,,,,,,-,,5,10,,,,12,
Dundee Riverside,09/09/2019 15:00,13,5,,,,,,,80,-,,5,10,,,,12,
Dundee Riverside,09/09/2019 16:00,14,3,,,,,,,70,-,,5,10,,,,13,
Dundee Riverside,09/09/2019 17:00,14,5,,,,,,,80,-,,5,10,,,,13,
Dundee Riverside,09/09/2019 18:00,14,2,,,,,,,80,-,,5,10,,,,13,
Dundee Riverside,09/09/2019 19:00,14,2,,,,,,,40,-,,5,10,,,,12,
Dundee Riverside,09/09/2019 20:00,13,3,,,,,,,50,-,,5,10,,,,12,
Dundee Riverside,10/09/2019 06:00,12,0,,,,,,,0,-,,3,4,,,,11,
Dundee Riverside,10/09/2019 07:00,12,0,,,,,,,0,-,,3,6,,,,12,
Dundee Riverside,10/09/2019 08:00,12,3,,,,,,,100,-,,5,5,,,,12,
Dundee Riverside,10/09/2019 09:00,12,0,,,,,,,0,-,,5,3,,,,12,
Dundee Riverside,10/09/2019 10:00,13,2,,,,,,,130,-,,5,4,,,,12,
Dundee Riverside,10/09/2019 11:00,12,0,,,,,,,0,-,,5,5,,,,12,
Dundee Riverside,10/09/2019 12:00,13,0,,,,,,,0,-,,5,4,,,,12,
Dundee Riverside,10/09/2019 13:00,14,5,,,,,,,180,-,,1,10,,,,12,
Dundee Riverside,10/09/2019 14:00,15,9,,,,,,,210,-,,1,10,,,,12,
Dundee Riverside,10/09/2019 15:00,16,14,,,,,,,240,-,,1,10,,,,12,
Dundee Riverside,10/09/2019 16:00,15,18,,,,,,,230,-,,1,10,,,,11,
Dundee Riverside,10/09/2019 17:00,15,17,,,,,,,230,-,,1,10,,,,10,
Dundee Riverside,10/09/2019 18:00,14,20,,,,,,,230,-,,1,10,,,,10,
Dundee Riverside,10/09/2019 19:00,12,9,,,,,,,240,-,,3,7,,,,11,
Dundee Riverside,10/09/2019 20:00,12,8,,,,,,,220,-,,3,7,,,,11,
Dundee Riverside,11/09/2019 06:00,14,22,,,,,,,240,-,,1,10,,,,12,
Dundee Riverside,11/09/2019 07:00,14,17,,,,,,,250,-,,1,10,,,,12,
Dundee Riverside,11/09/2019 08:00,15,18,,,,,,,250,-,,1,10,,,,12,
Dundee Riverside,11/09/2019 09:00,15,22,,,,,,,260,-,,1,10,,,,12,
Dundee Riverside,11/09/2019 10:00,16,23,,,,,,,250,-,,1,10,,,,12,
Dundee Riverside,11/09/2019 11:00,16,23,,,,,,,250,-,,3,10,,,,12,
Dundee Riverside,11/09/2019 12:00,17,22,,,,,,,240,-,,1,10,,,,12,
Dundee Riverside,11/09/2019 13:00,16,26,,,,,,,240,-,,1,10,,,,12,
Dundee Riverside,11/09/2019 14:00,17,26,,,,,,,260,-,,1,10,,,,11,
Dundee Riverside,11/09/2019 15:00,16,24,,,,,,,250,-,,1,10,,,,12,
Dundee Riverside,11/09/2019 16:00,16,24,,,,,,,250,-,,1,10,,,,12,
Dundee Riverside,11/09/2019 18:00,15,22,,,,,,,250,-,,1,10,,,,11,
Dundee Riverside,11/09/2019 19:00,15,23,,,,,,,250,-,,1,10,,,,11,
Dundee Riverside,12/09/2019 06:00,13,9,,,,,,,250,-,,5,10,,,,12,
Dundee Riverside,12/09/2019 07:00,13,7,,,,,,,260,-,,3,10,,,,12,
Dundee Riverside,12/09/2019 08:00,14,13,,,,,,,230,-,,1,10,,,,12,
Dundee Riverside,12/09/2019 09:00,15,14,,,,,,,230,-,,1,10,,,,13,
Dundee Riverside,12/09/2019 10:00,15,13,,,,,,,240,-,,3,10,,,,13,
Dundee Riverside,12/09/2019 11:00,15,9,,,,,,,240,-,,5,10,,,,13,
Dundee Riverside,12/09/2019 12:00,15,9,,,,,,,250,-,,5,10,,,,13,
Dundee Riverside,12/09/2019 13:00,16,9,,,,,,,230,-,,3,10,,,,14,
Dundee Riverside,12/09/2019 14:00,16,13,,,,,,,240,-,,1,10,,,,14,
Dundee Riverside,12/09/2019 15:00,17,5,,,,,,17,290,-,,1,10,,,,13,
Dundee Riverside,12/09/2019 16:00,18,12,,,,,,,290,-,,1,10,,,,10,
Dundee Riverside,12/09/2019 17:00,17,12,,,,,,,280,-,,1,10,,,,8,
Dundee Riverside,12/09/2019 18:00,16,9,,,,,,,270,-,,1,10,,,,9,
Dundee Riverside,12/09/2019 19:00,12,6,,,,,,,290,-,,1,10,,,,8,
Dundee Riverside,13/09/2019 06:00,8,2,,,,,,,300,-,,0,10,,,,7,
Dundee Riverside,13/09/2019 07:00,11,9,,,,,,,260,-,,0,10,,,,9,
Dundee Riverside,13/09/2019 08:00,12,8,,,,,,,270,-,,0,10,,,,9,
Dundee Riverside,13/09/2019 09:00,14,16,,,,,,,240,-,,0,10,,,,10,
Dundee Riverside,13/09/2019 10:00,15,17,,,,,,,240,-,,0,10,,,,10,
Dundee Riverside,13/09/2019 11:00,16,21,,,,,,,260,-,,1,10,,,,10,
Dundee Riverside,13/09/2019 12:00,16,18,,,,,,,260,-,,1,10,,,,8,
Dundee Riverside,13/09/2019 13:00,17,18,,,,,,,260,-,,1,10,,,,8,
Dundee Riverside,13/09/2019 14:00,17,20,,,,,,,250,-,,1,10,,,,8,
Dundee Riverside,13/09/2019 15:00,17,22,,,,,,,250,-,,1,10,,,,9,
Dundee Riverside,13/09/2019 16:00,16,15,,,,,,,260,-,,1,10,,,,9,
Dundee Riverside,13/09/2019 17:00,16,18,,,,,,,270,-,,1,10,,,,7,
Dundee Riverside,13/09/2019 18:00,14,14,,,,,,,280,-,,1,10,,,,7,
Dundee Riverside,13/09/2019 19:00,13,8,,,,,,,270,-,,1,10,,,,7,
Dundee Riverside,14/09/2019 08:00,13,8,,,,,,,250,-,,1,10,,,,10,
Dundee Riverside,14/09/2019 09:00,14,20,,,,,,,240,-,,1,10,,,,11,
Dundee Riverside,14/09/2019 10:00,15,22,,,,,,,230,-,,1,10,,,,11,
Dundee Riverside,14/09/2019 11:00,15,31,,,,,,,240,-,,1,10,,,,11,
Dundee Riverside,14/09/2019 12:00,15,30,,,,,,,240,-,,1,10,,,,11,
Dundee Riverside,14/09/2019 13:00,15,23,,,,,,,250,-,,1,10,,,,11,
Dundee Riverside,14/09/2019 14:00,16,23,,,,,,,240,-,,1,10,,,,10,
Dundee Riverside,14/09/2019 15:00,16,23,,,,,,,250,-,,1,10,,,,10,
Dundee Riverside,14/09/2019 16:00,16,22,,,,,,,240,-,,1,10,,,,11,
Dundee Riverside,15/09/2019 08:00,12,5,,,,,,,270,-,,0,10,,,,7,
Dundee Riverside,15/09/2019 09:00,12,15,,,,,,,260,-,,0,10,,,,7,
Dundee Riverside,15/09/2019 10:00,13,13,,,,,,,240,-,,0,10,,,,9,
Dundee Riverside,15/09/2019 11:00,13,15,,,,,,,240,-,,0,10,,,,9,
Dundee Riverside,15/09/2019 12:00,13,15,,,,,,,250,-,,0,10,,,,9,
Dundee Riverside,15/09/2019 13:00,14,10,,,,,,,260,-,,1,10,,,,8,
Dundee Riverside,15/09/2019 14:00,14,13,,,,,,,260,-,,1,10,,,,8,
Dundee Riverside,15/09/2019 15:00,16,15,,,,,,,270,-,,1,10,,,,7,
Dundee Riverside,15/09/2019 16:00,16,16,,,,,,,270,-,,1,10,,,,6,
Dundee Riverside,15/09/2019 17:00,15,9,,,,,,,270,-,,1,10,,,,7,
Dundee Riverside,15/09/2019 18:00,12,7,,,,,,,270,-,,1,10,,,,6,
Dundee Riverside,15/09/2019 19:00,12,9,,,,,,,300,-,,1,10,,,,5,
Dundee Riverside,16/09/2019 06:00,7,0,,,,,,,0,-,,1,10,,,,5,
Dundee Riverside,16/09/2019 07:00,9,3,,,,,,,270,-,,1,10,,,,7,
Dundee Riverside,16/09/2019 08:00,11,5,,,,,,,250,-,,1,10,,,,9,
Dundee Riverside,16/09/2019 09:00,12,7,,,,,,,240,-,,1,10,,,,10,
Dundee Riverside,16/09/2019 10:00,14,12,,,,,,,260,-,,1,10,,,,9,
Dundee Riverside,16/09/2019 11:00,15,18,,,,,,,260,-,,1,10,,,,10,
Dundee Riverside,16/09/2019 12:00,16,18,,,,,,,260,-,,1,10,,,,11,
Dundee Riverside,16/09/2019 13:00,16,20,,,,,,,260,-,,1,10,,,,9,
Dundee Riverside,16/09/2019 14:00,16,18,,,,,,,260,-,,1,10,,,,10,
Dundee Riverside,16/09/2019 15:00,16,16,,,,,,,280,-,,3,10,,,,8,
Dundee Riverside,16/09/2019 16:00,15,17,,,,,,,260,-,,3,10,,,,9,
Dundee Riverside,16/09/2019 17:00,15,16,,,,,,,260,-,,3,10,,,,9,
Dundee Riverside,16/09/2019 18:00,14,12,,,,,,,270,-,,3,10,,,,8,
Dundee Riverside,16/09/2019 19:00,13,13,,,,,,,250,-,,3,10,,,,10,
Dundee Riverside,17/09/2019 05:00,8,5,,,,,,,290,-,,0,10,,,,4,
Dundee Riverside,17/09/2019 07:00,10,0,,,,,,,0,-,,0,10,,,,4,
Dundee Riverside,17/09/2019 08:00,11,8,,,,,,,290,-,,0,10,,,,4,
Dundee Riverside,17/09/2019 09:00,12,13,,,,,,,290,-,,0,10,,,,4,
Dundee Riverside,17/09/2019 10:00,13,9,,,,,,,300,-,,0,10,,,,4,
Dundee Riverside,17/09/2019 11:00,14,10,,,,,,,300,-,,1,10,,,,4,
Dundee Riverside,17/09/2019 12:00,15,12,,,,,,,300,-,,1,10,,,,4,
Dundee Riverside,17/09/2019 13:00,15,6,,,,,,,320,-,,1,10,,,,4,
Dundee Riverside,17/09/2019 14:00,15,6,,,,,,,290,-,,1,10,,,,4,
Dundee Riverside,17/09/2019 15:00,14,7,,,,,,,320,-,,1,10,,,,4,
Dundee Riverside,17/09/2019 16:00,15,5,,,,,,,270,-,,1,10,,,,6,
Dundee Riverside,17/09/2019 17:00,14,3,,,,,,,,-,,1,10,,,,5,
Dundee Riverside,17/09/2019 18:00,13,0,,,,,,,0,-,,1,10,,,,8,
Dundee Riverside,17/09/2019 19:00,13,0,,,,,,,0,-,,1,10,,,,8,
Dundee Riverside,18/09/2019 06:00,10,0,,,,,,,0,-,,3,10,,,,7,
Dundee Riverside,18/09/2019 07:00,11,0,,,,,,,0,-,,3,10,,,,8,
Dundee Riverside,18/09/2019 08:00,11,0,,,,,,,0,-,,5,10,,,,8,
Dundee Riverside,18/09/2019 09:00,12,0,,,,,,,0,-,,5,10,,,,8,
Dundee Riverside,18/09/2019 10:00,13,0,,,,,,,0,-,,3,10,,,,9,
Dundee Riverside,18/09/2019 11:00,14,0,,,,,,,0,-,,3,10,,,,9,
Dundee Riverside,18/09/2019 12:00,16,10,,,,,,,250,-,,3,10,,,,12,
Dundee Riverside,18/09/2019 13:00,17,12,,,,,,,260,-,,3,10,,,,13,
Dundee Riverside,18/09/2019 14:00,17,9,,,,,,,250,-,,1,10,,,,13,
Dundee Riverside,18/09/2019 15:00,17,10,,,,,,,240,-,,1,10,,,,13,
Dundee Riverside,18/09/2019 16:00,16,9,,,,,,,250,-,,3,10,,,,13,
Dundee Riverside,18/09/2019 17:00,16,10,,,,,,,250,-,,1,10,,,,13,
Dundee Riverside,18/09/2019 18:00,15,8,,,,,,,240,-,,3,10,,,,13,
Dundee Riverside,18/09/2019 19:00,16,7,,,,,,,260,-,,3,10,,,,14,
Dundee Riverside,19/09/2019 06:00,10,3,,,,,,,300,-,,9,1,,,,10,
Dundee Riverside,19/09/2019 07:00,11,3,,,,,,,,-,,9,0,,,,11,
Dundee Riverside,19/09/2019 08:00,11,3,,,,,,,,-,,9,0,,,,11,
Dundee Riverside,19/09/2019 09:00,12,8,,,,,,,250,-,,8,6,,,,12,
Dundee Riverside,19/09/2019 10:00,13,7,,,,,,,250,-,,5,10,,,,13,
Dundee Riverside,19/09/2019 11:00,14,6,,,,,,,250,-,,3,10,,,,14,
Dundee Riverside,19/09/2019 12:00,17,7,,,,,,,220,-,,1,10,,,,14,
Dundee Riverside,19/09/2019 13:00,19,5,,,,,,,240,-,,1,10,,,,15,
Dundee Riverside,19/09/2019 14:00,18,5,,,,,,,220,-,,1,10,,,,15,
Dundee Riverside,19/09/2019 15:00,18,10,,,,,,,220,-,,1,10,,,,15,
Dundee Riverside,19/09/2019 16:00,18,10,,,,,,,230,-,,0,10,,,,14,
Dundee Riverside,19/09/2019 17:00,17,13,,,,,,,240,-,,0,10,,,,14,
Dundee Riverside,19/09/2019 18:00,16,8,,,,,,,260,-,,0,10,,,,14,
Dundee Riverside,19/09/2019 19:00,15,5,,,,,,,290,-,,0,10,,,,13,
Dundee Riverside,20/09/2019 06:00,8,3,,,,,,,310,-,,0,10,,,,8,
Dundee Riverside,20/09/2019 07:00,9,5,,,,,,,310,-,,0,10,,,,8,
Dundee Riverside,20/09/2019 08:00,11,2,,,,,,,,-,,0,10,,,,9,
Dundee Riverside,20/09/2019 09:00,12,5,,,,,,,260,-,,0,10,,,,9,
Dundee Riverside,20/09/2019 10:00,14,3,,,,,,,250,-,,0,10,,,,11,
Dundee Riverside,20/09/2019 12:00,16,0,,,,,,,0,-,,0,10,,,,11,
Dundee Riverside,20/09/2019 13:00,18,0,,,,,,,0,-,,0,10,,,,12,
Dundee Riverside,20/09/2019 14:00,19,7,,,,,,,90,-,,0,10,,,,12,
Dundee Riverside,20/09/2019 15:00,20,7,,,,,,,70,-,,0,10,,,,12,
Dundee Riverside,20/09/2019 16:00,19,6,,,,,,,80,-,,0,10,,,,11,
Dundee Riverside,20/09/2019 17:00,17,6,,,,,,,80,-,,0,10,,,,11,
Dundee Riverside,20/09/2019 18:00,15,7,,,,,,,70,-,,0,10,,,,12,
Dundee Riverside,20/09/2019 19:00,14,6,,,,,,,70,-,,0,10,,,,12,
Dundee Riverside,21/09/2019 09:00,14,9,,,,,,,80,-,,1,10,,,,12,
Dundee Riverside,21/09/2019 10:00,15,8,,,,,,,80,-,,1,10,,,,13,
Dundee Riverside,21/09/2019 11:00,16,13,,,,,,,80,-,,1,10,,,,13,
Dundee Riverside,21/09/2019 12:00,15,17,,,,,,,70,-,,1,10,,,,13,
Dundee Riverside,21/09/2019 13:00,16,17,,,,,,,80,-,,1,9,,,,14,
Dundee Riverside,21/09/2019 14:00,16,14,,,,,,,70,-,,1,10,,,,14,
Dundee Riverside,21/09/2019 15:00,16,15,,,,,,,70,-,,1,10,,,,14,
Dundee Riverside,22/09/2019 08:00,14,9,,,,,,,80,-,,5,5,,,,13,
Dundee Riverside,22/09/2019 09:00,15,9,,,,,,,80,-,,5,6,,,,13,
Dundee Riverside,22/09/2019 10:00,15,10,,,,,,,90,-,,3,8,,,,14,
Dundee Riverside,22/09/2019 11:00,16,9,,,,,,,90,-,,3,7,,,,15,
Dundee Riverside,22/09/2019 12:00,16,12,,,,,,,90,-,,3,9,,,,14,
Dundee Riverside,22/09/2019 13:00,15,10,,,,,,,100,-,,3,9,,,,14,
Dundee Riverside,22/09/2019 14:00,16,8,,,,,,,100,-,,3,10,,,,14,
Dundee Riverside,22/09/2019 15:00,16,14,,,,,,,90,-,,1,8,,,,14,
Dundee Riverside,22/09/2019 16:00,15,14,,,,,,,90,-,,3,8,,,,14,
Dundee Riverside,22/09/2019 17:00,16,10,,,,,,,90,-,,3,8,,,,15,
Dundee Riverside,22/09/2019 18:00,15,6,,,,,,,60,-,,5,8,,,,14,
Dundee Riverside,22/09/2019 19:00,15,8,,,,,,,70,-,,5,8,,,,14,
Dundee Riverside,22/09/2019 20:00,15,7,,,,,,,70,-,,5,10,,,,14,
Dundee Riverside,23/09/2019 06:00,14,3,,,,,,,230,-,,8,1,,,,14,
Dundee Riverside,23/09/2019 07:00,14,2,,,,,,,,-,,8,1,,,,14,
Dundee Riverside,23/09/2019 08:00,14,0,,,,,,,0,-,,5,5,,,,14,
Dundee Riverside,23/09/2019 09:00,15,0,,,,,,,0,-,,3,9,,,,15,
Dundee Riverside,23/09/2019 10:00,16,0,,,,,,,0,-,,3,10,,,,15,
Dundee Riverside,23/09/2019 11:00,16,7,,,,,,,190,-,,3,10,,,,13,
Dundee Riverside,23/09/2019 12:00,16,6,,,,,,,230,-,,3,10,,,,14,
Dundee Riverside,23/09/2019 13:00,16,8,,,,,,,210,-,,3,10,,,,13,
Dundee Riverside,23/09/2019 14:00,18,10,,,,,,,220,-,,3,10,,,,11,
Dundee Riverside,23/09/2019 15:00,18,6,,,,,,,220,-,,3,10,,,,13,
Dundee Riverside,23/09/2019 16:00,17,9,,,,,,,180,-,,3,10,,,,12,
Dundee Riverside,23/09/2019 17:00,16,7,,,,,,,150,-,,3,10,,,,12,
Dundee Riverside,23/09/2019 18:00,15,6,,,,,,,140,-,,1,10,,,,12,
Dundee Riverside,23/09/2019 19:00,14,2,,,,,,,80,-,,1,10,,,,10,
Dundee Riverside,23/09/2019 20:00,13,5,,,,,,,70,-,,1,10,,,,10,
Dundee Riverside,24/09/2019 06:00,14,5,,,,,,,80,-,,5,8,,,,13,
Dundee Riverside,24/09/2019 07:00,14,5,,,,,,,40,-,,5,9,,,,14,
Dundee Riverside,24/09/2019 08:00,15,6,,,,,,,70,-,,3,9,,,,14,
Dundee Riverside,24/09/2019 09:00,15,6,,,,,,,60,-,,5,9,,,,14,
Dundee Riverside,24/09/2019 10:00,16,6,,,,,,,60,-,,5,8,,,,15,
Dundee Riverside,24/09/2019 11:00,17,5,,,,,,,60,-,,5,8,,,,16,
Dundee Riverside,24/09/2019 12:00,16,10,,,,,,,70,-,,5,4,,,,15,
Dundee Riverside,24/09/2019 13:00,15,10,,,,,,,80,-,,5,4,,,,15,
Dundee Riverside,24/09/2019 14:00,15,12,,,,,,,80,-,,8,5,,,,14,
Dundee Riverside,24/09/2019 15:00,18,9,,,,,,,80,-,,8,5,,,,17,
Dundee Riverside,24/09/2019 16:00,15,7,,,,,,,60,-,,8,2,,,,15,
Dundee Riverside,24/09/2019 17:00,15,8,,,,,,,60,-,,8,1,,,,15,
Dundee Riverside,24/09/2019 18:00,15,8,,,,,,,70,-,,8,2,,,,15,
Dundee Riverside,24/09/2019 19:00,15,10,,,,,,,70,-,,8,5,,,,15,
Dundee Riverside,24/09/2019 20:00,15,14,,,,,,,80,-,,8,5,,,,15,
Dundee Riverside,25/09/2019 06:00,14,3,,,,,,,,-,,5,4,,,,14,
Dundee Riverside,25/09/2019 07:00,14,7,,,,,,,100,-,,5,5,,,,14,
Dundee Riverside,25/09/2019 08:00,14,6,,,,,,,100,-,,5,5,,,,14,
Dundee Riverside,25/09/2019 09:00,14,7,,,,,,,110,-,,5,7,,,,14,
Dundee Riverside,25/09/2019 10:00,15,7,,,,,,,100,-,,5,8,,,,14,
Dundee Riverside,25/09/2019 11:00,15,6,,,,,,,90,-,,5,7,,,,14,
Dundee Riverside,25/09/2019 12:00,15,7,,,,,,,120,-,,5,3,,,,14,
Dundee Riverside,25/09/2019 13:00,16,8,,,,,,,110,-,,5,10,,,,15,
Dundee Riverside,25/09/2019 14:00,16,8,,,,,,,100,-,,5,10,,,,15,
Dundee Riverside,25/09/2019 15:00,15,8,,,,,,,70,-,,5,10,,,,15,
Dundee Riverside,25/09/2019 16:00,15,7,,,,,,,80,-,,5,9,,,,15,
Dundee Riverside,25/09/2019 17:00,15,7,,,,,,,90,-,,5,9,,,,15,
Dundee Riverside,25/09/2019 18:00,16,8,,,,,,,100,-,,5,9,,,,15,
Dundee Riverside,25/09/2019 19:00,15,8,,,,,,,110,-,,5,9,,,,14,
Dundee Riverside,26/09/2019 06:00,14,5,,,,,,,140,-,,5,10,,,,14,
Dundee Riverside,26/09/2019 07:00,15,10,,,,,,,210,-,,3,10,,,,14,
Dundee Riverside,26/09/2019 08:00,15,14,,,,,,,230,-,,1,10,,,,14,
Dundee Riverside,26/09/2019 09:00,15,12,,,,,,,250,-,,3,10,,,,13,
Dundee Riverside,26/09/2019 10:00,15,10,,,,,,,240,-,,1,10,,,,13,
Dundee Riverside,26/09/2019 11:00,15,12,,,,,,,240,-,,3,10,,,,13,
Dundee Riverside,26/09/2019 12:00,16,5,,,,,,,220,-,,3,10,,,,13,
Dundee Riverside,26/09/2019 13:00,15,5,,,,,,,250,-,,3,10,,,,14,
Dundee Riverside,26/09/2019 14:00,15,13,,,,,,,230,-,,3,10,,,,13,
Dundee Riverside,26/09/2019 15:00,15,9,,,,,,,220,-,,3,10,,,,13,
Dundee Riverside,26/09/2019 16:00,15,6,,,,,,,250,-,,3,10,,,,12,
Dundee Riverside,26/09/2019 17:00,15,13,,,,,,,220,-,,3,10,,,,12,
Dundee Riverside,26/09/2019 18:00,14,12,,,,,,,220,-,,3,10,,,,12,
Dundee Riverside,26/09/2019 19:00,14,7,,,,,,,250,-,,3,10,,,,12,
Dundee Riverside,27/09/2019 06:00,12,8,,,,,,,250,-,,1,10,,,,11,
Dundee Riverside,27/09/2019 07:00,13,8,,,,,,,230,-,,1,10,,,,11,
Dundee Riverside,27/09/2019 08:00,14,7,,,,,,,220,-,,1,10,,,,12,
Dundee Riverside,27/09/2019 09:00,14,5,,,,,,,220,-,,1,10,,,,11,
Dundee Riverside,27/09/2019 10:00,13,3,,,,,,,170,-,,1,10,,,,11,
Dundee Riverside,27/09/2019 11:00,13,3,,,,,,,190,-,,3,10,,,,10,
Dundee Riverside,27/09/2019 12:00,13,0,,,,,,,0,-,,3,8,,,,10,
Dundee Riverside,27/09/2019 13:00,13,0,,,,,,,0,-,,3,7,,,,11,
Dundee Riverside,27/09/2019 14:00,13,0,,,,,,,0,-,,3,6,,,,11,
Dundee Riverside,27/09/2019 15:00,12,2,,,,,,,290,-,,3,6,,,,12,
Dundee Riverside,27/09/2019 16:00,13,0,,,,,,,0,-,,3,10,,,,12,
Dundee Riverside,27/09/2019 17:00,12,5,,,,,,,280,-,,3,10,,,,11,
Dundee Riverside,27/09/2019 18:00,11,3,,,,,,,290,-,,1,10,,,,10,
Dundee Riverside,27/09/2019 19:00,11,3,,,,,,,280,-,,1,10,,,,10,
Dundee Riverside,27/09/2019 20:00,11,3,,,,,,,270,-,,3,10,,,,11,
Dundee Riverside,28/09/2019 08:00,10,12,,,,,,,260,-,,1,10,,,,9,
Dundee Riverside,28/09/2019 09:00,12,13,,,,,,,240,-,,1,10,,,,10,
Dundee Riverside,28/09/2019 10:00,14,10,,,,,,,270,-,,1,10,,,,11,
Dundee Riverside,28/09/2019 11:00,15,12,,,,,,,280,-,,1,10,,,,11,
Dundee Riverside,28/09/2019 12:00,16,13,,,,,,,280,-,,1,10,,,,10,
Dundee Riverside,28/09/2019 13:00,16,13,,,,,,,290,-,,1,10,,,,9,
Dundee Riverside,28/09/2019 14:00,16,10,,,,,,,280,-,,1,10,,,,10,
Dundee Riverside,28/09/2019 15:00,16,9,,,,,,,290,-,,1,10,,,,9,
Dundee Riverside,29/09/2019 07:00,13,8,,,,,,,30,-,,5,10,,,,9,
Dundee Riverside,29/09/2019 08:00,13,7,,,,,,,40,-,,1,10,,,,9,
Dundee Riverside,29/09/2019 10:00,14,9,,,,,,,60,-,,1,10,,,,10,
Dundee Riverside,29/09/2019 11:00,14,8,,,,,,,50,-,,3,10,,,,10,
Dundee Riverside,29/09/2019 12:00,15,8,,,,,,,40,-,,1,10,,,,10,
Dundee Riverside,29/09/2019 13:00,15,9,,,,,,,30,-,,3,10,,,,10,
Dundee Riverside,29/09/2019 14:00,15,10,,,,,,,30,-,,3,10,,,,10,
Dundee Riverside,29/09/2019 15:00,15,3,,,,,,,,-,,3,10,,,,11,
Dundee Riverside,29/09/2019 16:00,15,7,,,,,,,10,-,,3,10,,,,10,
Dundee Riverside,29/09/2019 17:00,15,3,,,,,,,,-,,3,10,,,,10,
Dundee Riverside,29/09/2019 18:00,13,0,,,,,,,0,-,,3,10,,,,9,
Dundee Riverside,29/09/2019 19:00,11,2,,,,,,,290,-,,1,10,,,,9,
Dundee Riverside,29/09/2019 20:00,11,0,,,,,,,0,-,,0,10,,,,10,
Dundee Riverside,30/09/2019 06:00,9,3,,,,,,,300,-,,1,10,,,,8,
Dundee Riverside,30/09/2019 07:00,11,0,,,,,,,0,-,,3,10,,,,8,
Dundee Riverside,30/09/2019 08:00,12,3,,,,,,,,-,,3,10,,,,8,
Dundee Riverside,30/09/2019 09:00,13,2,,,,,,,,-,,1,10,,,,8,
Dundee Riverside,30/09/2019 10:00,13,3,,,,,,,,-,,1,10,,,,8,
Dundee Riverside,30/09/2019 11:00,13,6,,,,,,,160,-,,3,10,,,,9,
Dundee Riverside,30/09/2019 12:00,13,0,,,,,,,0,-,,3,10,,,,8,
Dundee Riverside,30/09/2019 13:00,12,8,,,,,,,120,-,,3,10,,,,9,
Dundee Riverside,30/09/2019 14:00,11,6,,,,,,,80,-,,5,10,,,,9,
Dundee Riverside,30/09/2019 15:00,11,6,,,,,,,60,-,,3,10,,,,9,
Dundee Riverside,30/09/2019 16:00,10,6,,,,,,,70,-,,5,10,,,,8,
Dundee Riverside,30/09/2019 17:00,11,6,,,,,,,80,-,,5,10,,,,8,
Dundee Riverside,30/09/2019 18:00,11,8,,,,,,,70,-,,5,10,,,,7,
Dundee Riverside,30/09/2019 19:00,11,8,,,,,,,60,-,,5,10,,,,7,
Dundee Riverside,30/09/2019 20:00,10,7,,,,,,,80,-,,5,10,,,,7,
Dundee Riverside,01/10/2019 07:00,7,9,,,,,,,10,-,,3,10,,,,3,
Dundee Riverside,01/10/2019 08:00,7,6,,,,,,,10,-,,3,10,,,,3,
Dundee Riverside,01/10/2019 09:00,9,8,,,,,,,20,-,,1,10,,,,4,
Dundee Riverside,01/10/2019 10:00,10,9,,,,,,,30,-,,1,10,,,,3,
Dundee Riverside,01/10/2019 11:00,11,8,,,,,,,30,-,,1,10,,,,2,
Dundee Riverside,01/10/2019 12:00,12,8,,,,,,,20,-,,1,10,,,,3,
Dundee Riverside,01/10/2019 13:00,12,8,,,,,,,30,-,,1,10,,,,4,
Dundee Riverside,01/10/2019 14:00,12,8,,,,,,,10,-,,1,10,,,,4,
Dundee Riverside,01/10/2019 15:00,12,2,,,,,,,,-,,1,10,,,,5,
Dundee Riverside,01/10/2019 16:00,12,5,,,,,,,10,-,,1,10,,,,4,
Dundee Riverside,01/10/2019 17:00,11,6,,,,,,,360,-,,1,10,,,,4,
Dundee Riverside,01/10/2019 18:00,9,6,,,,,,,350,-,,1,10,,,,3,
Dundee Riverside,01/10/2019 19:00,8,5,,,,,,,350,-,,1,10,,,,3,
Dundee Riverside,02/10/2019 07:00,7,8,,,,,,,310,-,,0,10,,,,2,
Dundee Riverside,02/10/2019 08:00,8,6,,,,,,,270,-,,1,10,,,,4,
Dundee Riverside,02/10/2019 09:00,10,10,,,,,,,270,-,,1,10,,,,4,
Dundee Riverside,02/10/2019 10:00,11,15,,,,,,,300,-,,1,10,,,,5,
Dundee Riverside,02/10/2019 11:00,12,15,,,,,,,310,-,,1,10,,,,5,
Dundee Riverside,02/10/2019 12:00,13,12,,,,,,,300,-,,1,10,,,,5,
Dundee Riverside,02/10/2019 13:00,14,10,,,,,,,310,-,,1,10,,,,5,
Dundee Riverside,02/10/2019 14:00,14,9,,,,,,,310,-,,1,10,,,,5,
Dundee Riverside,02/10/2019 15:00,15,10,,,,,,,280,-,,1,10,,,,6,
Dundee Riverside,02/10/2019 16:00,14,9,,,,,,,290,-,,1,10,,,,6,
Dundee Riverside,02/10/2019 17:00,13,7,,,,,,,290,-,,1,10,,,,6,
Dundee Riverside,02/10/2019 18:00,12,6,,,,,,,300,-,,0,10,,,,5,
Dundee Riverside,02/10/2019 19:00,11,5,,,,,,,320,-,,0,10,,,,5,
Dundee Riverside,03/10/2019 06:00,3,0,,,,,,,0,-,,0,10,,,,2,
Dundee Riverside,03/10/2019 07:00,4,0,,,,,,,0,-,,1,10,,,,3,
Dundee Riverside,03/10/2019 08:00,5,2,,,,,,,290,-,,1,10,,,,4,
Dundee Riverside,03/10/2019 09:00,6,2,,,,,,,260,-,,3,10,,,,5,
Dundee Riverside,03/10/2019 10:00,9,0,,,,,,,0,-,,1,10,,,,6,
Dundee Riverside,03/10/2019 11:00,11,5,,,,,,,100,-,,1,10,,,,8,
Dundee Riverside,03/10/2019 12:00,12,6,,,,,,,80,-,,1,10,,,,8,
Dundee Riverside,03/10/2019 13:00,12,7,,,,,,,100,-,,1,10,,,,8,
Dundee Riverside,03/10/2019 14:00,11,10,,,,,,,100,-,,1,10,,,,8,
Dundee Riverside,03/10/2019 15:00,11,12,,,,,,,90,-,,1,10,,,,8,
Dundee Riverside,03/10/2019 16:00,11,15,,,,,,,110,-,,1,10,,,,8,
Dundee Riverside,03/10/2019 17:00,11,15,,,,,,,110,-,,1,10,,,,8,
Dundee Riverside,03/10/2019 18:00,11,15,,,,,,,110,-,,3,10,,,,8,
Dundee Riverside,03/10/2019 19:00,11,14,,,,,,,110,-,,1,10,,,,7,
Dundee Riverside,04/10/2019 06:00,11,15,,,,,,,80,-,,5,7,,,,10,
Dundee Riverside,04/10/2019 07:00,10,12,,,,,,,70,-,,5,7,,,,9,
Dundee Riverside,04/10/2019 08:00,10,15,,,,,,,80,-,,5,7,,,,10,
Dundee Riverside,04/10/2019 09:00,11,9,,,,,,,70,-,,5,7,,,,10,
Dundee Riverside,04/10/2019 11:00,12,10,,,,,,,70,-,,5,10,,,,10,
Dundee Riverside,04/10/2019 12:00,13,12,,,,,,,70,-,,5,10,,,,10,
Dundee Riverside,04/10/2019 13:00,13,10,,,,,,,90,-,,5,10,,,,9,
Dundee Riverside,04/10/2019 14:00,12,14,,,,,,,80,-,,5,10,,,,9,
Dundee Riverside,04/10/2019 15:00,13,9,,,,,,,70,-,,5,10,,,,9,
Dundee Riverside,04/10/2019 16:00,12,9,,,,,,,60,-,,3,10,,,,9,
Dundee Riverside,04/10/2019 17:00,12,8,,,,,,,60,-,,3,10,,,,8,
Dundee Riverside,04/10/2019 18:00,11,5,,,,,,,50,-,,3,10,,,,8,
Dundee Riverside,04/10/2019 19:00,10,7,,,,,,,50,-,,3,10,,,,8,
Dundee Riverside,05/10/2019 08:00,11,3,,,,,,,70,-,,3,10,,,,9,
Dundee Riverside,05/10/2019 09:00,12,3,,,,,,,80,-,,1,10,,,,10,
Dundee Riverside,05/10/2019 10:00,12,8,,,,,,,120,-,,1,10,,,,10,
Dundee Riverside,05/10/2019 11:00,12,8,,,,,,,110,-,,3,10,,,,11,
Dundee Riverside,05/10/2019 12:00,13,8,,,,,,,110,-,,3,10,,,,11,
Dundee Riverside,05/10/2019 13:00,13,9,,,,,,,100,-,,3,10,,,,11,
Dundee Riverside,05/10/2019 14:00,12,9,,,,,,,100,-,,3,10,,,,11,
Dundee Riverside,05/10/2019 15:00,12,7,,,,,,,100,-,,1,10,,,,11,
Dundee Riverside,06/10/2019 08:00,11,14,,,,,,33,90,-,,5,6,,,,10,
Dundee Riverside,06/10/2019 09:00,11,16,,,,,,,110,-,,5,6,,,,10,
Dundee Riverside,06/10/2019 10:00,11,12,,,,,,,90,-,,5,7,,,,10,
Dundee Riverside,06/10/2019 11:00,11,8,,,,,,,90,-,,5,7,,,,11,
Dundee Riverside,06/10/2019 12:00,12,10,,,,,,,90,-,,5,9,,,,10,
Dundee Riverside,06/10/2019 13:00,12,15,,,,,,,100,-,,5,10,,,,10,
Dundee Riverside,06/10/2019 14:00,12,9,,,,,,,90,-,,3,10,,,,10,
Dundee Riverside,06/10/2019 15:00,12,7,,,,,,,90,-,,3,10,,,,10,
Dundee Riverside,06/10/2019 16:00,12,6,,,,,,,90,-,,3,10,,,,10,
Dundee Riverside,06/10/2019 17:00,12,7,,,,,,,90,-,,3,10,,,,10,
Dundee Riverside,06/10/2019 18:00,12,5,,,,,,,60,-,,3,10,,,,10,
Dundee Riverside,06/10/2019 19:00,12,9,,,,,,,90,-,,3,10,,,,10,
Dundee Riverside,07/10/2019 06:00,12,15,,,,,,,140,-,,5,10,,,,10,
Dundee Riverside,07/10/2019 07:00,12,12,,,,,,,130,-,,3,10,,,,10,
Dundee Riverside,07/10/2019 08:00,12,15,,,,,,,140,-,,1,10,,,,10,
Dundee Riverside,07/10/2019 09:00,12,10,,,,,,,160,-,,1,10,,,,10,
Dundee Riverside,07/10/2019 10:00,12,12,,,,,,,170,-,,5,9,,,,10,
Dundee Riverside,07/10/2019 12:00,12,12,,,,,,,170,-,,5,10,,,,10,
Dundee Riverside,07/10/2019 13:00,12,13,,,,,,,180,-,,5,10,,,,10,
Dundee Riverside,07/10/2019 14:00,13,5,,,,,,,210,-,,5,10,,,,11,
Dundee Riverside,07/10/2019 15:00,13,6,,,,,,,160,-,,3,10,,,,11,
Dundee Riverside,07/10/2019 16:00,15,9,,,,,,,220,-,,1,10,,,,12,
Dundee Riverside,07/10/2019 17:00,14,6,,,,,,,240,-,,1,10,,,,11,
Dundee Riverside,07/10/2019 18:00,13,10,,,,,,,220,-,,3,10,,,,11,
Dundee Riverside,07/10/2019 19:00,11,12,,,,,,,250,-,,1,10,,,,10,
Dundee Riverside,07/10/2019 20:00,12,16,,,,,,,230,-,,1,10,,,,10,
Dundee Riverside,08/10/2019 06:00,12,18,,,,,,,230,-,,1,10,,,,9,
Dundee Riverside,08/10/2019 07:00,11,18,,,,,,,240,-,,3,10,,,,9,
Dundee Riverside,08/10/2019 08:00,10,13,,,,,,,250,-,,3,10,,,,8,
Dundee Riverside,08/10/2019 09:00,11,6,,,,,,,270,-,,1,10,,,,8,
Dundee Riverside,08/10/2019 10:00,12,25,,,,,,,230,-,,1,10,,,,9,
Dundee Riverside,08/10/2019 11:00,13,26,,,,,,,240,-,,1,10,,,,9,
Dundee Riverside,08/10/2019 12:00,13,24,,,,,,,230,-,,3,10,,,,10,
Dundee Riverside,08/10/2019 13:00,13,26,,,,,,,230,-,,3,10,,,,9,
Dundee Riverside,08/10/2019 14:00,13,26,,,,,,,240,-,,3,10,,,,9,
Dundee Riverside,08/10/2019 15:00,13,24,,,,,,,240,-,,3,10,,,,10,
Dundee Riverside,08/10/2019 16:00,12,30,,,,,,,240,-,,3,10,,,,10,
Dundee Riverside,08/10/2019 17:00,12,23,,,,,,,240,-,,1,10,,,,10,
Dundee Riverside,08/10/2019 18:00,11,18,,,,,,,240,-,,1,10,,,,9,
Dundee Riverside,08/10/2019 19:00,11,20,,,,,,,230,-,,1,10,,,,9,
Dundee Riverside,09/10/2019 06:00,10,21,,,,,,,230,-,,1,10,,,,9,
Dundee Riverside,09/10/2019 07:00,10,16,,,,,,,240,-,,1,10,,,,9,
Dundee Riverside,09/10/2019 08:00,11,16,,,,,,,230,-,,1,10,,,,9,
Dundee Riverside,09/10/2019 09:00,12,16,,,,,,,230,-,,1,10,,,,10,
Dundee Riverside,09/10/2019 10:00,12,20,,,,,,,230,-,,1,10,,,,9,
Dundee Riverside,09/10/2019 11:00,12,20,,,,,,,240,-,,1,10,,,,9,
Dundee Riverside,09/10/2019 12:00,13,25,,,,,,,250,-,,1,10,,,,8,
Dundee Riverside,09/10/2019 13:00,13,25,,,,,,,240,-,,1,10,,,,9,
Dundee Riverside,09/10/2019 14:00,13,25,,,,,,,260,-,,1,10,,,,8,
Dundee Riverside,09/10/2019 15:00,11,17,,,,,,,260,-,,1,10,,,,10,
Dundee Riverside,09/10/2019 16:00,12,23,,,,,,,250,-,,1,10,,,,9,
Dundee Riverside,09/10/2019 17:00,12,18,,,,,,,240,-,,1,10,,,,8,
Dundee Riverside,09/10/2019 18:00,10,18,,,,,,,240,-,,1,10,,,,8,
Dundee Riverside,09/10/2019 19:00,10,16,,,,,,,240,-,,1,10,,,,8,
Dundee Riverside,10/10/2019 06:00,10,15,,,,,,,270,-,,1,10,,,,9,
Dundee Riverside,10/10/2019 07:00,9,8,,,,,,,280,-,,1,10,,,,8,
Dundee Riverside,10/10/2019 08:00,11,7,,,,,,,270,-,,0,10,,,,9,
Dundee Riverside,10/10/2019 09:00,12,14,,,,,,,260,-,,0,10,,,,9,
Dundee Riverside,10/10/2019 10:00,12,16,,,,,,,250,-,,1,10,,,,10,
Dundee Riverside,10/10/2019 11:00,12,16,,,,,,,250,-,,1,10,,,,10,
Dundee Riverside,10/10/2019 12:00,12,10,,,,,,,250,-,,3,10,,,,11,
Dundee Riverside,10/10/2019 13:00,13,14,,,,,,,250,-,,3,10,,,,9,
Dundee Riverside,10/10/2019 14:00,12,14,,,,,,,250,-,,3,10,,,,10,
Dundee Riverside,10/10/2019 15:00,12,15,,,,,,,230,-,,3,10,,,,9,
Dundee Riverside,10/10/2019 16:00,11,3,,,,,,,,-,,5,10,,,,9,
Dundee Riverside,10/10/2019 17:00,10,3,,,,,,,110,-,,5,4,,,,9,
Dundee Riverside,10/10/2019 18:00,10,7,,,,,,,70,-,,5,4,,,,10,
Dundee Riverside,10/10/2019 19:00,10,0,,,,,,,0,-,,3,10,,,,10,
Dundee Riverside,11/10/2019 06:00,12,21,,,,,,,230,-,,5,10,,,,9,
Dundee Riverside,11/10/2019 07:00,11,21,,,,,,,230,-,,5,10,,,,9,
Dundee Riverside,11/10/2019 08:00,11,21,,,,,,,240,-,,1,10,,,,9,
Dundee Riverside,11/10/2019 09:00,12,21,,,,,,,240,-,,1,10,,,,9,
Dundee Riverside,11/10/2019 10:00,13,22,,,,,,,240,-,,1,10,,,,9,
Dundee Riverside,11/10/2019 11:00,13,22,,,,,,,240,-,,1,10,,,,9,
Dundee Riverside,11/10/2019 12:00,13,26,,,,,,,240,-,,1,10,,,,8,
Dundee Riverside,11/10/2019 13:00,13,30,,,,,,,260,-,,3,10,,,,8,
Dundee Riverside,11/10/2019 14:00,11,22,,,,,,,260,-,,1,10,,,,9,
Dundee Riverside,11/10/2019 15:00,12,24,,,,,,,250,-,,1,10,,,,9,
Dundee Riverside,11/10/2019 16:00,12,22,,,,,,,260,-,,1,10,,,,9,
Dundee Riverside,11/10/2019 18:00,11,22,,,,,,,240,-,,1,10,,,,8,
Dundee Riverside,11/10/2019 19:00,11,18,,,,,,,240,-,,1,10,,,,9,
Dundee Riverside,12/10/2019 08:00,7,8,,,,,,,270,-,,0,10,,,,6,
Dundee Riverside,12/10/2019 09:00,9,9,,,,,,,250,-,,0,10,,,,7,
Dundee Riverside,12/10/2019 10:00,11,10,,,,,,,230,-,,1,10,,,,9,
Dundee Riverside,12/10/2019 11:00,12,18,,,,,,,260,-,,1,10,,,,9,
Dundee Riverside,12/10/2019 12:00,12,13,,,,,,,250,-,,1,10,,,,9,
Dundee Riverside,12/10/2019 13:00,13,16,,,,,,,250,-,,1,10,,,,9,
Dundee Riverside,12/10/2019 14:00,13,17,,,,,,,250,-,,1,10,,,,9,
Dundee Riverside,12/10/2019 15:00,13,15,,,,,,,250,-,,1,10,,,,9,
Dundee Riverside,13/10/2019 08:00,6,0,,,,,,,0,-,,3,3,,,,6,
Dundee Riverside,13/10/2019 09:00,7,0,,,,,,,0,-,,5,3,,,,7,
Dundee Riverside,13/10/2019 10:00,7,0,,,,,,,0,-,,5,4,,,,7,
Dundee Riverside,13/10/2019 11:00,8,2,,,,,,,250,-,,5,6,,,,8,
Dundee Riverside,13/10/2019 12:00,8,0,,,,,,,0,-,,3,9,,,,8,
Dundee Riverside,13/10/2019 13:00,11,3,,,,,,,110,-,,3,10,,,,10,
Dundee Riverside,13/10/2019 14:00,12,7,,,,,,,70,-,,3,10,,,,10,
Dundee Riverside,13/10/2019 15:00,12,6,,,,,,,50,-,,5,10,,,,10,
Dundee Riverside,13/10/2019 16:00,12,5,,,,,,,50,-,,5,10,,,,10,
Dundee Riverside,13/10/2019 17:00,12,5,,,,,,,50,-,,5,10,,,,10,
Dundee Riverside,13/10/2019 18:00,11,5,,,,,,,50,-,,5,10,,,,10,
Dundee Riverside,13/10/2019 19:00,11,5,,,,,,,40,-,,5,10,,,,10,
Dundee Riverside,14/10/2019 06:00,6,2,,,,,,,300,-,,1,10,,,,6,
Dundee Riverside,14/10/2019 07:00,6,3,,,,,,,300,-,,1,10,,,,6,
Dundee Riverside,14/10/2019 08:00,6,0,,,,,,,0,-,,1,10,,,,6,
Dundee Riverside,14/10/2019 09:00,8,0,,,,,,,0,-,,1,10,,,,8,
Dundee Riverside,14/10/2019 10:00,10,3,,,,,,,270,-,,1,10,,,,8,
Dundee Riverside,14/10/2019 11:00,11,3,,,,,,,,-,,1,10,,,,9,
Dundee Riverside,14/10/2019 12:00,12,0,,,,,,,0,-,,1,10,,,,8,
Dundee Riverside,14/10/2019 13:00,12,0,,,,,,,0,-,,1,10,,,,9,
Dundee Riverside,14/10/2019 14:00,12,5,,,,,,,110,-,,1,10,,,,9,
Dundee Riverside,14/10/2019 15:00,12,6,,,,,,,80,-,,1,10,,,,9,
Dundee Riverside,14/10/2019 16:00,11,5,,,,,,,80,-,,1,10,,,,8,
Dundee Riverside,14/10/2019 17:00,10,5,,,,,,,80,-,,1,10,,,,8,
Dundee Riverside,14/10/2019 18:00,9,2,,,,,,,50,-,,1,10,,,,8,
Dundee Riverside,14/10/2019 19:00,10,6,,,,,,,60,-,,1,10,,,,8,
Dundee Riverside,15/10/2019 06:00,8,0,,,,,,,0,-,,1,10,,,,8,
Dundee Riverside,15/10/2019 07:00,9,0,,,,,,,0,-,,3,10,,,,9,
Dundee Riverside,15/10/2019 08:00,9,0,,,,,,,0,-,,3,10,,,,8,
Dundee Riverside,15/10/2019 09:00,11,0,,,,,,,0,-,,1,10,,,,10,
Dundee Riverside,15/10/2019 10:00,12,3,,,,,,,230,-,,1,10,,,,10,
Dundee Riverside,15/10/2019 11:00,12,3,,,,,,,,-,,3,10,,,,10,
Dundee Riverside,15/10/2019 12:00,12,6,,,,,,,220,-,,3,10,,,,11,
Dundee Riverside,15/10/2019 13:00,14,0,,,,,,,0,-,,3,10,,,,11,
Dundee Riverside,15/10/2019 14:00,13,3,,,,,,,160,-,,3,10,,,,11,
Dundee Riverside,15/10/2019 15:00,12,3,,,,,,,150,-,,3,10,,,,11,
Dundee Riverside,15/10/2019 17:00,11,0,,,,,,,0,-,,5,10,,,,10,
Dundee Riverside,15/10/2019 18:00,11,0,,,,,,,0,-,,5,10,,,,10,
Dundee Riverside,15/10/2019 19:00,10,0,,,,,,,0,-,,5,10,,,,9,
Dundee Riverside,16/10/2019 06:00,10,5,,,,,,,80,-,,1,10,,,,9,
Dundee Riverside,16/10/2019 07:00,11,8,,,,,,,100,-,,1,10,,,,9,
Dundee Riverside,16/10/2019 08:00,11,7,,,,,,,100,-,,1,10,,,,10,
Dundee Riverside,16/10/2019 09:00,11,6,,,,,,,90,-,,1,6,,,,10,
Dundee Riverside,16/10/2019 10:00,11,5,,,,,,,70,-,,5,4,,,,10,
Dundee Riverside,16/10/2019 11:00,11,3,,,,,,,80,-,,5,4,,,,11,
Dundee Riverside,16/10/2019 12:00,12,2,,,,,,,90,-,,5,5,,,,11,
Dundee Riverside,16/10/2019 13:00,12,0,,,,,,,0,-,,5,7,,,,11,
Dundee Riverside,16/10/2019 14:00,12,3,,,,,,,260,-,,3,6,,,,11,
Dundee Riverside,16/10/2019 15:00,13,7,,,,,,,280,-,,3,10,,,,12,
Dundee Riverside,16/10/2019 16:00,12,7,,,,,,,280,-,,1,10,,,,10,
Dundee Riverside,16/10/2019 17:00,10,5,,,,,,,290,-,,1,10,,,,9,
Dundee Riverside,16/10/2019 18:00,10,2,,,,,,,,-,,1,10,,,,8,
Dundee Riverside,16/10/2019 19:00,7,5,,,,,,,270,-,,1,10,,,,5,
Dundee Riverside,17/10/2019 06:00,5,0,,,,,,,0,-,,0,6,,,,5,
Dundee Riverside,17/10/2019 07:00,4,0,,,,,,,0,-,,1,4,,,,4,
Dundee Riverside,17/10/2019 08:00,5,0,,,,,,,0,-,,1,4,,,,5,
Dundee Riverside,17/10/2019 09:00,7,0,,,,,,,0,-,,1,7,,,,7,
Dundee Riverside,17/10/2019 10:00,10,0,,,,,,,0,-,,1,10,,,,9,
Dundee Riverside,17/10/2019 11:00,10,3,,,,,,,80,-,,3,10,,,,9,
Dundee Riverside,17/10/2019 12:00,11,5,,,,,,,120,-,,3,10,,,,9,
Dundee Riverside,17/10/2019 13:00,12,3,,,,,,,,-,,3,10,,,,9,
Dundee Riverside,17/10/2019 14:00,13,3,,,,,,,140,-,,3,10,,,,9,
Dundee Riverside,17/10/2019 15:00,12,5,,,,,,,100,-,,1,10,,,,10,
Dundee Riverside,17/10/2019 16:00,12,5,,,,,,,70,-,,1,10,,,,9,
Dundee Riverside,17/10/2019 17:00,11,6,,,,,,,90,-,,1,10,,,,10,
Dundee Riverside,17/10/2019 18:00,11,5,,,,,,,70,-,,1,10,,,,10,
Dundee Riverside,17/10/2019 19:00,11,7,,,,,,,100,-,,1,10,,,,9,
Dundee Riverside,18/10/2019 06:00,9,0,,,,,,,0,-,,3,10,,,,8,
Dundee Riverside,18/10/2019 07:00,9,0,,,,,,,0,-,,3,10,,,,8,
Dundee Riverside,18/10/2019 08:00,9,2,,,,,,,,-,,3,10,,,,9,
Dundee Riverside,18/10/2019 09:00,10,3,,,,,,,40,-,,3,8,,,,9,
Dundee Riverside,18/10/2019 10:00,11,5,,,,,,,40,-,,3,10,,,,10,
Dundee Riverside,18/10/2019 11:00,11,2,,,,,,,,-,,3,10,,,,10,
Dundee Riverside,18/10/2019 12:00,12,2,,,,,,,,-,,3,9,,,,10,
Dundee Riverside,18/10/2019 13:00,11,0,,,,,,,0,-,,5,4,,,,10,
Dundee Riverside,18/10/2019 14:00,10,6,,,,,,,20,-,,5,5,,,,9,
Dundee Riverside,18/10/2019 15:00,10,2,,,,,,,,-,,5,8,,,,9,
Dundee Riverside,18/10/2019 16:00,10,2,,,,,,,,-,,5,9,,,,9,
Dundee Riverside,18/10/2019 17:00,10,0,,,,,,,0,-,,5,10,,,,9,
Dundee Riverside,18/10/2019 18:00,10,3,,,,,,,,-,,5,10,,,,8,
Dundee Riverside,18/10/2019 19:00,10,5,,,,,,,40,-,,5,10,,,,8,
Dundee Riverside,18/10/2019 20:00,10,8,,,,,,,20,-,,3,10,,,,8,
Dundee Riverside,18/10/2019 21:00,10,9,,,,,,,20,-,,3,10,,,,8,
Dundee Riverside,18/10/2019 22:00,10,10,,,,,,,20,-,,3,10,,,,9,
Dundee Riverside,19/10/2019 08:00,10,12,,,,,,,30,-,,3,10,,,,7,
Dundee Riverside,19/10/2019 09:00,10,9,,,,,,,30,-,,1,10,,,,7,
Dundee Riverside,19/10/2019 10:00,11,8,,,,,,23,10,-,,1,10,,,,6,
Dundee Riverside,19/10/2019 11:00,11,6,,,,,,,,-,,1,10,,,,6,
Dundee Riverside,19/10/2019 12:00,12,8,,,,,,,10,-,,1,10,,,,7,
Dundee Riverside,19/10/2019 13:00,12,7,,,,,,18,30,-,,1,10,,,,6,
Dundee Riverside,19/10/2019 14:00,12,5,,,,,,,360,-,,3,10,,,,6,
Dundee Riverside,19/10/2019 15:00,11,7,,,,,,,20,-,,1,10,,,,5,
Dundee Riverside,20/10/2019 08:00,9,3,,,,,,,,-,,1,10,,,,4,
Dundee Riverside,20/10/2019 09:00,10,2,,,,,,,,-,,1,10,,,,4,
Dundee Riverside,20/10/2019 10:00,11,8,,,,,,,360,-,,1,10,,,,4,
Dundee Riverside,20/10/2019 11:00,10,3,,,,,,,,-,,3,10,,,,4,
Dundee Riverside,20/10/2019 12:00,11,2,,,,,,,,-,,3,10,,,,5,
Dundee Riverside,20/10/2019 13:00,11,6,,,,,,,40,-,,3,10,,,,5,
Dundee Riverside,20/10/2019 14:00,11,7,,,,,,,40,-,,3,10,,,,5,
Dundee Riverside,20/10/2019 15:00,11,3,,,,,,,,-,,3,10,,,,5,
Dundee Riverside,20/10/2019 16:00,10,6,,,,,,,30,-,,1,10,,,,4,
Dundee Riverside,20/10/2019 17:00,9,0,,,,,,,0,-,,1,10,,,,4,
Dundee Riverside,20/10/2019 18:00,8,2,,,,,,,,-,,1,10,,,,4,
Dundee Riverside,20/10/2019 19:00,6,2,,,,,,,,-,,1,10,,,,3,
Dundee Riverside,21/10/2019 06:00,2,3,,,,,,,300,-,,0,10,,,,1,
Dundee Riverside,21/10/2019 07:00,1,2,,,,,,,290,-,,0,10,,,,0,
Dundee Riverside,21/10/2019 08:00,1,3,,,,,,,280,-,,0,10,,,,0,
Dundee Riverside,21/10/2019 09:00,3,3,,,,,,,290,-,,0,10,,,,2,
Dundee Riverside,21/10/2019 10:00,5,3,,,,,,,270,-,,1,10,,,,4,
Dundee Riverside,21/10/2019 11:00,7,6,,,,,,,250,-,,1,10,,,,4,
Dundee Riverside,21/10/2019 12:00,8,2,,,,,,,,-,,1,10,,,,5,
Dundee Riverside,21/10/2019 13:00,9,0,,,,,,,0,-,,1,10,,,,5,
Dundee Riverside,21/10/2019 14:00,10,14,,,,,,,240,-,,1,10,,,,6,
Dundee Riverside,21/10/2019 15:00,9,16,,,,,,,250,-,,1,10,,,,6,
Dundee Riverside,21/10/2019 16:00,9,16,,,,,,,240,-,,0,10,,,,6,
Dundee Riverside,21/10/2019 17:00,8,16,,,,,,,240,-,,0,10,,,,5,
Dundee Riverside,21/10/2019 18:00,6,9,,,,,,,280,-,,0,10,,,,4,
Dundee Riverside,21/10/2019 19:00,5,7,,,,,,,280,-,,0,10,,,,3,
Dundee Riverside,22/10/2019 06:00,9,17,,,,,,,260,-,,1,10,,,,8,
Dundee Riverside,22/10/2019 07:00,9,15,,,,,,,240,-,,3,10,,,,8,
Dundee Riverside,22/10/2019 08:00,10,14,,,,,,,250,-,,3,10,,,,8,
Dundee Riverside,22/10/2019 09:00,10,17,,,,,,,250,-,,3,10,,,,8,
Dundee Riverside,22/10/2019 10:00,10,16,,,,,,,250,-,,5,10,,,,9,
Dundee Riverside,22/10/2019 11:00,11,18,,,,,,,250,-,,3,10,,,,9,
Dundee Riverside,22/10/2019 12:00,11,23,,,,,,,250,-,,3,10,,,,9,
Dundee Riverside,22/10/2019 13:00,11,23,,,,,,,260,-,,3,10,,,,9,
Dundee Riverside,22/10/2019 14:00,11,22,,,,,,,260,-,,3,10,,,,9,
Dundee Riverside,22/10/2019 15:00,11,16,,,,,,,250,-,,3,10,,,,9,
Dundee Riverside,22/10/2019 16:00,11,15,,,,,,,230,-,,3,10,,,,9,
Dundee Riverside,22/10/2019 17:00,11,16,,,,,,,230,-,,3,10,,,,9,
Dundee Riverside,22/10/2019 18:00,11,17,,,,,,,230,-,,3,10,,,,9,
Dundee Riverside,22/10/2019 19:00,11,17,,,,,,,240,-,,3,10,,,,9,
Dundee Riverside,23/10/2019 06:00,10,10,,,,,,,240,-,,3,10,,,,9,
Dundee Riverside,23/10/2019 07:00,11,9,,,,,,,230,-,,3,10,,,,9,
Dundee Riverside,23/10/2019 08:00,11,2,,,,,,,,-,,3,10,,,,9,
Dundee Riverside,23/10/2019 09:00,11,6,,,,,,,210,-,,1,10,,,,9,
Dundee Riverside,23/10/2019 10:00,11,6,,,,,,,190,-,,1,10,,,,9,
Dundee Riverside,23/10/2019 11:00,13,15,,,,,,,230,-,,1,10,,,,10,
Dundee Riverside,23/10/2019 12:00,13,14,,,,,,,230,-,,1,10,,,,9,
Dundee Riverside,23/10/2019 13:00,13,12,,,,,,,230,-,,1,10,,,,9,
Dundee Riverside,23/10/2019 14:00,12,12,,,,,,,220,-,,3,10,,,,9,
Dundee Riverside,23/10/2019 15:00,12,13,,,,,,,220,-,,1,10,,,,9,
Dundee Riverside,23/10/2019 16:00,12,10,,,,,,,210,-,,1,10,,,,9,
Dundee Riverside,23/10/2019 17:00,12,13,,,,,,,210,-,,1,10,,,,9,
Dundee Riverside,23/10/2019 19:00,12,8,,,,,,,210,-,,3,10,,,,8,
Dundee Riverside,24/10/2019 06:00,10,15,,,,,,,240,-,,3,10,,,,9,
Dundee Riverside,24/10/2019 07:00,9,2,,,,,,,,-,,1,10,,,,8,
Dundee Riverside,24/10/2019 08:00,11,6,,,,,,,230,-,,1,10,,,,9,
Dundee Riverside,24/10/2019 09:00,11,12,,,,,,,240,-,,1,10,,,,9,
Dundee Riverside,24/10/2019 10:00,12,14,,,,,,,230,-,,1,10,,,,9,
Dundee Riverside,24/10/2019 11:00,12,16,,,,,,,240,-,,3,10,,,,9,
Dundee Riverside,24/10/2019 12:00,12,16,,,,,,,240,-,,3,10,,,,9,
Dundee Riverside,24/10/2019 13:00,12,15,,,,,,,240,-,,3,10,,,,9,
Dundee Riverside,24/10/2019 14:00,12,14,,,,,,,250,-,,3,10,,,,9,
Dundee Riverside,24/10/2019 15:00,12,12,,,,,,,260,-,,1,10,,,,9,
Dundee Riverside,24/10/2019 16:00,12,10,,,,,,,280,-,,1,10,,,,6,
Dundee Riverside,24/10/2019 17:00,10,6,,,,,,,290,-,,1,10,,,,5,
Dundee Riverside,24/10/2019 18:00,7,3,,,,,,,300,-,,1,10,,,,4,
Dundee Riverside,24/10/2019 19:00,7,3,,,,,,,270,-,,1,10,,,,4,
Dundee Riverside,25/10/2019 06:00,4,13,,,,,,,270,-,,1,10,,,,1,
Dundee Riverside,25/10/2019 07:00,5,15,,,,,,,240,-,,1,10,,,,3,
Dundee Riverside,25/10/2019 08:00,6,17,,,,,,,230,-,,1,10,,,,3,
Dundee Riverside,25/10/2019 09:00,6,10,,,,,,,250,-,,1,10,,,,3,
Dundee Riverside,25/10/2019 10:00,7,13,,,,,,,250,-,,1,10,,,,4,
Dundee Riverside,25/10/2019 11:00,7,17,,,,,,,210,-,,1,10,,,,4,
Dundee Riverside,25/10/2019 12:00,8,17,,,,,,,230,-,,1,10,,,,5,
Dundee Riverside,25/10/2019 13:00,8,20,,,,,,,230,-,,1,10,,,,5,
Dundee Riverside,25/10/2019 14:00,8,14,,,,,,,240,-,,1,10,,,,5,
Dundee Riverside,25/10/2019 15:00,8,13,,,,,,,230,-,,1,10,,,,5,
Dundee Riverside,25/10/2019 16:00,8,10,,,,,,,220,-,,1,10,,,,5,
Dundee Riverside,25/10/2019 17:00,8,10,,,,,,,210,-,,1,10,,,,4,
Dundee Riverside,25/10/2019 19:00,6,5,,,,,,,290,-,,1,10,,,,3,
Dundee Riverside,26/10/2019 08:00,3,2,,,,,,,,-,,0,10,,,,2,
Dundee Riverside,26/10/2019 09:00,5,3,,,,,,,290,-,,0,10,,,,3,
Dundee Riverside,26/10/2019 10:00,6,5,,,,,,,280,-,,0,10,,,,3,
Dundee Riverside,26/10/2019 11:00,8,13,,,,,,,250,-,,1,10,,,,4,
Dundee Riverside,26/10/2019 12:00,9,17,,,,,,,250,-,,1,10,,,,5,
Dundee Riverside,26/10/2019 13:00,9,20,,,,,,,250,-,,1,10,,,,5,
Dundee Riverside,26/10/2019 14:00,9,21,,,,,,,240,-,,1,10,,,,5,
Dundee Riverside,26/10/2019 15:00,9,22,,,,,,,240,-,,1,10,,,,5,
Dundee Riverside,27/10/2019 09:00,8,20,,,,,,,250,-,,1,10,,,,5,
Dundee Riverside,27/10/2019 10:00,9,13,,,,,,,250,-,,1,10,,,,5,
Dundee Riverside,27/10/2019 11:00,11,16,,,,,,,280,-,,1,10,,,,4,
Dundee Riverside,27/10/2019 12:00,11,16,,,,,,,280,-,,1,10,,,,4,
Dundee Riverside,27/10/2019 13:00,12,15,,,,,,,280,-,,1,10,,,,4,
Dundee Riverside,27/10/2019 14:00,12,8,,,,,,,290,-,,3,10,,,,4,
Dundee Riverside,27/10/2019 15:00,10,7,,,,,,,320,-,,3,10,,,,5,
Dundee Riverside,27/10/2019 16:00,9,8,,,,,,,300,-,,1,10,,,,4,
Dundee Riverside,27/10/2019 17:00,8,8,,,,,,,290,-,,1,10,,,,3,
Dundee Riverside,27/10/2019 18:00,6,7,,,,,,,300,-,,1,10,,,,3,
Dundee Riverside,27/10/2019 19:00,6,2,,,,,,,290,-,,1,10,,,,3,
Dundee Riverside,27/10/2019 20:00,5,5,,,,,,,300,-,,1,10,,,,3,
Dundee Riverside,28/10/2019 07:00,4,3,,,,,,,,-,,0,10,,,,2,
Dundee Riverside,28/10/2019 08:00,2,3,,,,,,,270,-,,0,10,,,,-0.5,
Dundee Riverside,28/10/2019 09:00,4,5,,,,,,,290,-,,0,10,,,,2,
Dundee Riverside,28/10/2019 10:00,7,5,,,,,,,250,-,,0,10,,,,4,
Dundee Riverside,28/10/2019 11:00,8,8,,,,,,,250,-,,0,10,,,,4,
Dundee Riverside,28/10/2019 12:00,9,7,,,,,,,260,-,,0,10,,,,4,
Dundee Riverside,28/10/2019 13:00,11,6,,,,,,,230,-,,1,10,,,,5,
Dundee Riverside,28/10/2019 14:00,10,5,,,,,,,10,-,,1,10,,,,2,
Dundee Riverside,28/10/2019 15:00,10,3,,,,,,,,-,,1,10,,,,1,
Dundee Riverside,28/10/2019 16:00,9,0,,,,,,,0,-,,1,10,,,,2,
Dundee Riverside,28/10/2019 17:00,8,2,,,,,,,,-,,1,10,,,,2,
Dundee Riverside,28/10/2019 18:00,7,3,,,,,,,10,-,,1,10,,,,2,
Dundee Riverside,28/10/2019 19:00,5,0,,,,,,,0,-,,1,10,,,,3,
Dundee Riverside,28/10/2019 20:00,5,2,,,,,,,360,-,,1,10,,,,2,
Dundee Riverside,29/10/2019 07:00,5,3,,,,,,,,-,,1,10,,,,3,
Dundee Riverside,29/10/2019 08:00,3,2,,,,,,,,-,,1,10,,,,2,
Dundee Riverside,29/10/2019 09:00,4,5,,,,,,,,-,,1,10,,,,3,
Dundee Riverside,29/10/2019 10:00,5,5,,,,,,,280,-,,1,10,,,,4,
Dundee Riverside,29/10/2019 11:00,8,6,,,,,,,240,-,,1,10,,,,6,
Dundee Riverside,29/10/2019 12:00,9,3,,,,,,,,-,,1,10,,,,6,
Dundee Riverside,29/10/2019 13:00,11,8,,,,,,,50,-,,1,10,,,,5,
Dundee Riverside,29/10/2019 14:00,11,7,,,,,,,60,-,,1,10,,,,5,
Dundee Riverside,29/10/2019 15:00,10,7,,,,,,,60,-,,1,10,,,,4,
Dundee Riverside,29/10/2019 16:00,9,5,,,,,,,50,-,,1,10,,,,4,
Dundee Riverside,29/10/2019 17:00,8,6,,,,,,,30,-,,1,10,,,,3,
Dundee Riverside,29/10/2019 18:00,7,8,,,,,,,30,-,,1,10,,,,4,
Dundee Riverside,29/10/2019 19:00,7,8,,,,,,,20,-,,1,10,,,,4,
Dundee Riverside,29/10/2019 20:00,7,7,,,,,,,20,-,,1,10,,,,4,
Dundee Riverside,30/10/2019 07:00,2,2,,,,,,,270,-,,1,10,,,,1,
Dundee Riverside,30/10/2019 09:00,4,2,,,,,,,270,-,,1,10,,,,4,
Dundee Riverside,30/10/2019 10:00,5,0,,,,,,,0,-,,3,10,,,,5,
Dundee Riverside,30/10/2019 11:00,8,2,,,,,,,,-,,1,10,,,,5,
Dundee Riverside,30/10/2019 12:00,7,0,,,,,,,0,-,,3,10,,,,5,
Dundee Riverside,30/10/2019 13:00,8,2,,,,,,,220,-,,5,10,,,,6,
Dundee Riverside,30/10/2019 14:00,9,3,,,,,,,,-,,5,10,,,,6,
Dundee Riverside,30/10/2019 15:00,9,3,,,,,,,80,-,,3,10,,,,6,
Dundee Riverside,30/10/2019 16:00,9,3,,,,,,,,-,,3,10,,,,5,
Dundee Riverside,30/10/2019 17:00,8,0,,,,,,,0,-,,5,10,,,,5,
Dundee Riverside,30/10/2019 18:00,8,5,,,,,,,50,-,,5,10,,,,5,
Dundee Riverside,30/10/2019 19:00,8,3,,,,,,,60,-,,5,10,,,,5,
Dundee Riverside,30/10/2019 20:00,8,2,,,,,,,70,-,,5,10,,,,5,
Cassley,01/09/2019 00:00,10.7,,,,0.2,6,91,,,-,,,,,,,9.4,
Cassley,01/09/2019 01:00,10.6,,,,1.4,,93,,,-,,,,,,,9.6,
Cassley,01/09/2019 02:00,10.4,,,,1.2,,91,,,-,,,,,,,9,
Cassley,01/09/2019 03:00,10.4,,,,1.8,,91,,,-,,,,,,,9.1,
Cassley,01/09/2019 04:00,10.1,,,,0.4,,91,,,-,,,,,,,8.7,
Cassley,01/09/2019 05:00,9.8,,,,0.6,,92,,,-,,,,,,,8.7,
Cassley,01/09/2019 06:00,9.6,,9.5,,1,6,92,,,-,,,,,,,8.4,
Cassley,01/09/2019 07:00,9.2,,,,1.6,,93,,,-,,,,,,,8.2,
Cassley,01/09/2019 08:00,10.1,,,,0.6,,89,,,-,,,,,,,8.4,
Cassley,01/09/2019 09:00,9.6,,,,0.6,,87,,,-,,,,,,,7.7,
Cassley,01/09/2019 10:00,10.1,,,,0.2,,86,,,-,,,,,,,7.9,
Cassley,01/09/2019 11:00,11.2,,,,0.2,,85,,,-,,,,,,,8.8,
Cassley,01/09/2019 12:00,10.5,,,,0,3,83,,,-,,,,,,,7.8,
Cassley,01/09/2019 13:00,11.9,,,,0.2,,74,,,-,,,,,,,7.6,
Cassley,01/09/2019 14:00,11.9,,,,0,,71,,,-,,,,,,,6.9,
Cassley,01/09/2019 15:00,11.6,,,,0,,72,,,-,,,,,,,6.8,
Cassley,01/09/2019 16:00,8.5,,,,2.2,,88,,,-,,,,,,,6.7,
Cassley,01/09/2019 17:00,10.9,,,,1.8,,82,,,-,,,,,,,8,
Cassley,01/09/2019 18:00,10.8,,,13,0,4,75,,,-,,,,,,,6.7,
Cassley,01/09/2019 19:00,8,,,,0,,86,,,-,,,,,,,5.9,
Cassley,01/09/2019 20:00,7.9,,,,0,,87,,,-,,,,,,,6,
Cassley,01/09/2019 21:00,7.7,,,,0,,94,,,-,,,,,,,6.8,
Cassley,01/09/2019 22:00,7,,,,0,,92,,,-,,,,,,,5.8,
Cassley,01/09/2019 23:00,7.6,,,,0.2,,95,,,-,,,,,,,7,
Cassley,02/09/2019 00:00,7,,,,0,0.2,95,,,-,,,,,,,6.3,
Cassley,02/09/2019 01:00,6.7,,,,0,,96,,,-,,,,,,,6.2,
Cassley,02/09/2019 02:00,8.4,,,,0,,90,,,-,,,,,,,6.9,
Cassley,02/09/2019 03:00,7.9,,,,0,,89,,,-,,,,,,,6.3,
Cassley,02/09/2019 04:00,7.5,,,,0,,92,,,-,,,,,,,6.3,
Cassley,02/09/2019 05:00,8.8,,,,0,,89,,,-,,,,,,,7.2,
Cassley,02/09/2019 06:00,9.1,,6,,0,0,89,,,-,,,,,,,7.4,
Cassley,02/09/2019 07:00,9.5,,,,0,,86,,,-,,,,,,,7.3,
Cassley,02/09/2019 08:00,9.2,,,,0.2,,92,,,-,,,,,,,8.1,
Cassley,02/09/2019 09:00,9.8,,,,0.6,,96,,,-,,,,,,,9.3,
Cassley,02/09/2019 10:00,9.8,,,,2.2,,98,,,-,,,,,,,9.5,
Cassley,02/09/2019 11:00,11.7,,,,1.8,,96,,,-,,,,,,,11.2,
Cassley,02/09/2019 12:00,12.9,,,,2.2,7,95,,,-,,,,,,,12.2,
Cassley,02/09/2019 13:00,14.7,,,,0.4,,91,,,-,,,,,,,13.3,
Cassley,02/09/2019 14:00,14.8,,,,0.2,,91,,,-,,,,,,,13.4,
Cassley,02/09/2019 15:00,14.7,,,,0.2,,90,,,-,,,,,,,13.2,
Cassley,02/09/2019 16:00,14.4,,,,1,,91,,,-,,,,,,,13,
Cassley,02/09/2019 17:00,14.2,,,,0.6,,91,,,-,,,,,,,12.9,
Cassley,02/09/2019 18:00,13.9,,,15.5,0.8,3,93,,,-,,,,,,,12.8,
Cassley,02/09/2019 19:00,13.6,,,,0,,94,,,-,,,,,,,12.8,
Cassley,02/09/2019 20:00,12.5,,,,0,,94,,,-,,,,,,,11.6,
Cassley,02/09/2019 21:00,11,,,,0,,93,,,-,,,,,,,10,
Cassley,02/09/2019 22:00,11.1,,,,0,,90,,,-,,,,,,,9.6,
Cassley,02/09/2019 23:00,10,,,,0,,90,,,-,,,,,,,8.5,
Cassley,03/09/2019 00:00,8.9,,,,0,0,90,,,-,,,,,,,7.5,
Cassley,03/09/2019 01:00,9.5,,,,0,,93,,,-,,,,,,,8.5,
Cassley,03/09/2019 02:00,8.8,,,,0,,91,,,-,,,,,,,7.5,
Cassley,03/09/2019 03:00,9,,,,0,,96,,,-,,,,,,,8.5,
Cassley,03/09/2019 04:00,8,,,,0,,91,,,-,,,,,,,6.7,
Cassley,03/09/2019 05:00,6.8,,,,0,,95,,,-,,,,,,,6.2,
Cassley,03/09/2019 06:00,7.3,,6.3,,0,0,99,,,-,,,,,,,7.2,
Cassley,03/09/2019 07:00,8.5,,,,0,,97,,,-,,,,,,,8.1,
Cassley,03/09/2019 08:00,9.7,,,,0,,96,,,-,,,,,,,9.1,
Cassley,03/09/2019 09:00,10.5,,,,0,,89,,,-,,,,,,,8.9,
Cassley,03/09/2019 10:00,11.5,,,,0,,85,,,-,,,,,,,9.2,
Cassley,03/09/2019 11:00,12.7,,,,0,,85,,,-,,,,,,,10.3,
Cassley,03/09/2019 12:00,13.1,,,,0,0,86,,,-,,,,,,,10.9,
Cassley,03/09/2019 13:00,13.5,,,,0,,87,,,-,,,,,,,11.4,
Cassley,03/09/2019 14:00,13,,,,0.2,,92,,,-,,,,,,,11.8,
Cassley,03/09/2019 15:00,13,,,,0,,92,,,-,,,,,,,11.8,
Cassley,03/09/2019 16:00,13,,,,0,,96,,,-,,,,,,,12.4,
Cassley,03/09/2019 17:00,14.3,,,,0.6,,96,,,-,,,,,,,13.8,
Cassley,03/09/2019 18:00,14.8,,,15.1,0.6,1,89,,,-,,,,,,,13.1,
Cassley,03/09/2019 19:00,14.5,,,,1,,86,,,-,,,,,,,12.3,
Cassley,03/09/2019 20:00,14.1,,,,0.6,,83,,,-,,,,,,,11.4,
Cassley,03/09/2019 21:00,12.1,,,,0.2,,81,,,-,,,,,,,9,
Cassley,03/09/2019 22:00,12.3,,,,0,,73,,,-,,,,,,,7.8,
Cassley,03/09/2019 23:00,12.4,,,,0,,75,,,-,,,,,,,8.1,
Cassley,04/09/2019 00:00,12.5,,,,0,2,68,,,-,,,,,,,6.8,
Cassley,04/09/2019 01:00,11.8,,,,0,,66,,,-,,,,,,,5.8,
Cassley,04/09/2019 02:00,11.5,,,,0,,67,,,-,,,,,,,5.6,
Cassley,04/09/2019 03:00,11.3,,,,0,,67,,,-,,,,,,,5.6,
Cassley,04/09/2019 04:00,9.1,,,,0,,77,,,-,,,,,,,5.4,
Cassley,04/09/2019 05:00,7,,,,0,,82,,,-,,,,,,,4.3,
Cassley,04/09/2019 06:00,7.9,,6.6,,0,0,87,,,-,,,,,,,5.9,
Cassley,04/09/2019 07:00,9,,,,0,,84,,,-,,,,,,,6.5,
Cassley,04/09/2019 08:00,9.8,,,,0,,84,,,-,,,,,,,7.4,
Cassley,04/09/2019 09:00,10.9,,,,0,,77,,,-,,,,,,,7.1,
Cassley,04/09/2019 10:00,12,,,,0,,72,,,-,,,,,,,7.2,
Cassley,04/09/2019 11:00,13.3,,,,0,,64,,,-,,,,,,,6.7,
Cassley,04/09/2019 12:00,11.4,,,,0.8,0.8,91,,,-,,,,,,,10,
Cassley,04/09/2019 13:00,11,,,,0.6,,85,,,-,,,,,,,8.6,
Cassley,04/09/2019 14:00,10.4,,,,0.2,,86,,,-,,,,,,,8.3,
Cassley,04/09/2019 15:00,9.5,,,,0,,89,,,-,,,,,,,7.9,
Cassley,04/09/2019 16:00,9.2,,,,0,,89,,,-,,,,,,,7.5,
Cassley,04/09/2019 17:00,9.2,,,,0.2,,83,,,-,,,,,,,6.5,
Cassley,04/09/2019 18:00,8.6,,,14,0.6,1.2,89,,,-,,,,,,,7,
Cassley,04/09/2019 19:00,8.5,,,,0.2,,85,,,-,,,,,,,6.2,
Cassley,04/09/2019 20:00,8.6,,,,0.2,,78,,,-,,,,,,,5,
Cassley,04/09/2019 21:00,9.1,,,,0,,74,,,-,,,,,,,4.9,
Cassley,04/09/2019 22:00,8.8,,,,0,,79,,,-,,,,,,,5.4,
Cassley,04/09/2019 23:00,8.8,,,,0,,72,,,-,,,,,,,4.2,
Cassley,05/09/2019 00:00,8.5,,,,0,0.4,74,,,-,,,,,,,4.2,
Cassley,05/09/2019 01:00,8.3,,,,0,,85,,,-,,,,,,,6,
Cassley,05/09/2019 02:00,8.7,,,,0,,83,,,-,,,,,,,6.1,
Cassley,05/09/2019 03:00,9.1,,,,0.2,,82,,,-,,,,,,,6.2,
Cassley,05/09/2019 04:00,8.7,,,,0,,86,,,-,,,,,,,6.5,
Cassley,05/09/2019 05:00,9.2,,,,0.4,,82,,,-,,,,,,,6.4,
Cassley,05/09/2019 06:00,9.3,,8.1,,0.2,0.6,89,,,-,,,,,,,7.6,
Cassley,05/09/2019 07:00,9.4,,,,0.4,,90,,,-,,,,,,,8,
Cassley,05/09/2019 08:00,10,,,,0.4,,92,,,-,,,,,,,8.8,
Cassley,05/09/2019 09:00,11.2,,,,0.6,,89,,,-,,,,,,,9.5,
Cassley,05/09/2019 10:00,11.4,,,,1,,89,,,-,,,,,,,9.8,
Cassley,05/09/2019 11:00,11.5,,,,0.4,,89,,,-,,,,,,,9.9,
Cassley,05/09/2019 12:00,12.9,,,,0.2,3,87,,,-,,,,,,,10.8,
Cassley,05/09/2019 13:00,13,,,,0.2,,84,,,-,,,,,,,10.5,
Cassley,05/09/2019 14:00,13.4,,,,0,,77,,,-,,,,,,,9.5,
Cassley,05/09/2019 15:00,13.5,,,,0,,71,,,-,,,,,,,8.4,
Cassley,05/09/2019 16:00,14.3,,,,0,,68,,,-,,,,,,,8.6,
Cassley,05/09/2019 17:00,13.4,,,,0,,68,,,-,,,,,,,7.8,
Cassley,05/09/2019 18:00,12,,,14.4,0.2,0,67,,,-,,,,,,,6.2,
Cassley,05/09/2019 19:00,10.2,,,,2.2,,87,,,-,,,,,,,8.3,
Cassley,05/09/2019 20:00,10.5,,,,3,,79,,,-,,,,,,,7.2,
Cassley,05/09/2019 21:00,11.1,,,,1.2,,81,,,-,,,,,,,8.1,
Cassley,05/09/2019 22:00,12,,,,3,,86,,,-,,,,,,,9.8,
Cassley,05/09/2019 23:00,13,,,,1,,85,,,-,,,,,,,10.7,
Cassley,06/09/2019 00:00,12.7,,,,1,11,87,,,-,,,,,,,10.7,
Cassley,06/09/2019 01:00,12,,,,5.6,,91,,,-,,,,,,,10.7,
Cassley,06/09/2019 02:00,11.7,,,,0.2,,78,,,-,,,,,,,8.1,
Cassley,06/09/2019 03:00,11,,,,1.2,,87,,,-,,,,,,,9,
Cassley,06/09/2019 04:00,10.8,,,,0.2,,85,,,-,,,,,,,8.4,
Cassley,06/09/2019 05:00,9.9,,,,2.8,,91,,,-,,,,,,,8.6,
Cassley,06/09/2019 06:00,10.1,,9.7,,3.6,14,90,,,-,,,,,,,8.6,
Cassley,06/09/2019 07:00,9.9,,,,2.8,,92,,,-,,,,,,,8.7,
Cassley,06/09/2019 08:00,10.9,,,,1.2,,88,,,-,,,,,,,9.1,
Cassley,06/09/2019 09:00,12,,,,0.2,,90,,,-,,,,,,,10.5,
Cassley,06/09/2019 10:00,11.8,,,,0.2,,86,,,-,,,,,,,9.6,
Cassley,06/09/2019 11:00,12.4,,,,0.2,,83,,,-,,,,,,,9.6,
Cassley,06/09/2019 12:00,11.9,,,,0.4,5,89,,,-,,,,,,,10.3,
Cassley,06/09/2019 13:00,11.9,,,,0.2,,89,,,-,,,,,,,10.2,
Cassley,06/09/2019 14:00,12.7,,,,0.2,,80,,,-,,,,,,,9.4,
Cassley,06/09/2019 15:00,11.9,,,,0,,85,,,-,,,,,,,9.6,
Cassley,06/09/2019 16:00,11.4,,,,0,,87,,,-,,,,,,,9.4,
Cassley,06/09/2019 17:00,11.3,,,,0,,86,,,-,,,,,,,9.2,
Cassley,06/09/2019 18:00,11.1,,,13.4,0,0,86,,,-,,,,,,,8.9,
Cassley,06/09/2019 19:00,10.7,,,,0.2,,85,,,-,,,,,,,8.4,
Cassley,06/09/2019 20:00,9.9,,,,0,,87,,,-,,,,,,,8,
Cassley,06/09/2019 21:00,9.4,,,,0,,85,,,-,,,,,,,7.1,
Cassley,06/09/2019 22:00,9.7,,,,0,,83,,,-,,,,,,,7,
Cassley,06/09/2019 23:00,9,,,,0,,79,,,-,,,,,,,5.6,
Cassley,07/09/2019 00:00,8.7,,,,0,0.2,81,,,-,,,,,,,5.7,
Cassley,07/09/2019 01:00,7.6,,,,0,,77,,,-,,,,,,,3.9,
Cassley,07/09/2019 02:00,7.5,,,,0,,82,,,-,,,,,,,4.7,
Cassley,07/09/2019 03:00,7.1,,,,0,,86,,,-,,,,,,,5,
Cassley,07/09/2019 04:00,7.2,,,,0,,88,,,-,,,,,,,5.5,
Cassley,07/09/2019 05:00,6.5,,,,0,,90,,,-,,,,,,,5.1,
Cassley,07/09/2019 06:00,5.8,,5.4,,0,0,95,,,-,,,,,,,5.1,
Cassley,07/09/2019 07:00,7.5,,,,0,,97,,,-,,,,,,,7.1,
Cassley,07/09/2019 08:00,10.2,,,,0,,74,,,-,,,,,,,5.8,
Cassley,07/09/2019 09:00,11,,,,0,,62,,,-,,,,,,,4.1,
Cassley,07/09/2019 10:00,11.5,,,,0,,60,,,-,,,,,,,4.1,
Cassley,07/09/2019 11:00,11.9,,,,0,,59,,,-,,,,,,,4.3,
Cassley,07/09/2019 12:00,12.3,,,,0,0,56,,,-,,,,,,,4,
Cassley,07/09/2019 13:00,13.8,,,,0,,54,,,-,,,,,,,4.9,
Cassley,07/09/2019 14:00,13.9,,,,0,,56,,,-,,,,,,,5.4,
Cassley,07/09/2019 15:00,13.7,,,,0,,60,,,-,,,,,,,6.2,
Cassley,07/09/2019 16:00,13.6,,,,0,,60,,,-,,,,,,,6.2,
Cassley,07/09/2019 17:00,13.5,,,,0,,51,,,-,,,,,,,3.6,
Cassley,07/09/2019 18:00,11.6,,,14.2,0,0,69,,,-,,,,,,,6.2,
Cassley,07/09/2019 19:00,9,,,,0,,81,,,-,,,,,,,6,
Cassley,07/09/2019 20:00,7.5,,,,0,,82,,,-,,,,,,,4.8,
Cassley,07/09/2019 21:00,6,,,,0,,91,,,-,,,,,,,4.7,
Cassley,07/09/2019 22:00,6,,,,0,,93,,,-,,,,,,,5,
Cassley,07/09/2019 23:00,5,,,,0,,95,,,-,,,,,,,4.4,
Cassley,08/09/2019 00:00,3.6,,,,0,0,97,,,-,,,,,,,3.2,
Cassley,08/09/2019 01:00,3.1,,,,0,,97,,,-,,,,,,,2.7,
Cassley,08/09/2019 02:00,3.2,,,,0,,98,,,-,,,,,,,3,
Cassley,08/09/2019 03:00,4.5,,,,0,,100,,,-,,,,,,,4.5,
Cassley,08/09/2019 04:00,5.1,,,,0,,100,,,-,,,,,,,5.1,
Cassley,08/09/2019 05:00,5,,,,0,,100,,,-,,,,,,,5,
Cassley,08/09/2019 06:00,4.7,,3,,0,0,100,,,-,,,,,,,4.7,
Cassley,08/09/2019 07:00,5,,,,0,,100,,,-,,,,,,,5,
Cassley,08/09/2019 08:00,6.1,,,,0,,100,,,-,,,,,,,6.1,
Cassley,08/09/2019 09:00,7.1,,,,0,,100,,,-,,,,,,,7.1,
Cassley,08/09/2019 10:00,9.1,,,,0,,87,,,-,,,,,,,7.2,
Cassley,08/09/2019 11:00,11.4,,,,0,,77,,,-,,,,,,,7.7,
Cassley,08/09/2019 12:00,12.7,,,,0,0,77,,,-,,,,,,,8.8,
Cassley,08/09/2019 13:00,15.8,,,,0,,69,,,-,,,,,,,10.2,
Cassley,08/09/2019 14:00,16.3,,,,0,,74,,,-,,,,,,,11.7,
Cassley,08/09/2019 15:00,18,,,,0,,69,,,-,,,,,,,12.3,
Cassley,08/09/2019 16:00,17.3,,,,0,,71,,,-,,,,,,,12,
Cassley,08/09/2019 17:00,14.2,,,,0,,81,,,-,,,,,,,11.1,
Cassley,08/09/2019 18:00,13.4,,,18,0,0,85,,,-,,,,,,,11,
Cassley,08/09/2019 19:00,12.9,,,,0,,84,,,-,,,,,,,10.3,
Cassley,08/09/2019 20:00,12.5,,,,0,,85,,,-,,,,,,,10.1,
Cassley,08/09/2019 21:00,12.3,,,,0,,85,,,-,,,,,,,10,
Cassley,08/09/2019 22:00,12.3,,,,0,,85,,,-,,,,,,,10,
Cassley,08/09/2019 23:00,11.9,,,,0,,87,,,-,,,,,,,9.9,
Cassley,09/09/2019 00:00,11.3,,,,0,0,91,,,-,,,,,,,10,
Cassley,09/09/2019 01:00,11.3,,,,0,,91,,,-,,,,,,,10,
Cassley,09/09/2019 02:00,11.4,,,,0,,94,,,-,,,,,,,10.5,
Cassley,09/09/2019 03:00,11.4,,,,0,,95,,,-,,,,,,,10.7,
Cassley,09/09/2019 04:00,11.5,,,,0.4,,96,,,-,,,,,,,11,
Cassley,09/09/2019 05:00,11.5,,,,2,,99,,,-,,,,,,,11.4,
Cassley,09/09/2019 06:00,11.7,,11.2,,2.2,5,98,,,-,,,,,,,11.5,
Cassley,09/09/2019 07:00,11.7,,,,2.4,,99,,,-,,,,,,,11.6,
Cassley,09/09/2019 08:00,12.1,,,,1.8,,98,,,-,,,,,,,11.8,
Cassley,09/09/2019 09:00,12.4,,,,0.4,,95,,,-,,,,,,,11.7,
Cassley,09/09/2019 10:00,12.9,,,,0.4,,93,,,-,,,,,,,11.9,
Cassley,09/09/2019 11:00,13,,,,0,,92,,,-,,,,,,,11.8,
Cassley,09/09/2019 12:00,13.1,,,,0.2,5,94,,,-,,,,,,,12.3,
Cassley,09/09/2019 13:00,13.1,,,,1.4,,96,,,-,,,,,,,12.6,
Cassley,09/09/2019 14:00,13.2,,,,1.4,,95,,,-,,,,,,,12.5,
Cassley,09/09/2019 15:00,13.2,,,,0.4,,91,,,-,,,,,,,11.9,
Cassley,09/09/2019 16:00,11.9,,,,0,,92,,,-,,,,,,,10.8,
Cassley,09/09/2019 17:00,11.4,,,,0,,92,,,-,,,,,,,10.2,
Cassley,09/09/2019 18:00,11.4,,,13.7,0,3,89,,,-,,,,,,,9.8,
Cassley,09/09/2019 19:00,10.7,,,,0,,87,,,-,,,,,,,8.7,
Cassley,09/09/2019 20:00,10.7,,,,0,,90,,,-,,,,,,,9.2,
Cassley,09/09/2019 21:00,10.9,,,,0,,89,,,-,,,,,,,9.2,
Cassley,09/09/2019 22:00,10.7,,,,0,,86,,,-,,,,,,,8.6,
Cassley,09/09/2019 23:00,10.3,,,,0,,88,,,-,,,,,,,8.5,
Cassley,10/09/2019 00:00,9.4,,,,0,0,90,,,-,,,,,,,8,
Cassley,10/09/2019 01:00,9.5,,,,0,,92,,,-,,,,,,,8.4,
Cassley,10/09/2019 02:00,7.8,,,,0,,92,,,-,,,,,,,6.6,
Cassley,10/09/2019 03:00,7.5,,,,0,,89,,,-,,,,,,,5.9,
Cassley,10/09/2019 04:00,7.5,,,,0,,94,,,-,,,,,,,6.7,
Cassley,10/09/2019 05:00,6.3,,,,0,,95,,,-,,,,,,,5.6,
Cassley,10/09/2019 06:00,7.3,,6.2,,0,0,97,,,-,,,,,,,6.9,
Cassley,10/09/2019 07:00,8.2,,,,0,,98,,,-,,,,,,,8,
Cassley,10/09/2019 08:00,9.5,,,,0,,93,,,-,,,,,,,8.5,
Cassley,10/09/2019 09:00,11.3,,,,0,,84,,,-,,,,,,,8.8,
Cassley,10/09/2019 10:00,12.8,,,,0,,70,,,-,,,,,,,7.6,
Cassley,10/09/2019 11:00,14.4,,,,0,,64,,,-,,,,,,,7.7,
Cassley,10/09/2019 12:00,13.7,,,,0,0,64,,,-,,,,,,,7.1,
Cassley,10/09/2019 13:00,14.3,,,,0,,59,,,-,,,,,,,6.6,
Cassley,10/09/2019 14:00,14.5,,,,0,,60,,,-,,,,,,,7,
Cassley,10/09/2019 15:00,13.6,,,,0,,63,,,-,,,,,,,6.7,
Cassley,10/09/2019 16:00,13.7,,,,0,,68,,,-,,,,,,,8.1,
Cassley,10/09/2019 17:00,12.9,,,,0,,73,,,-,,,,,,,8.3,
Cassley,10/09/2019 18:00,11.2,,,15.3,1.8,2,91,,,-,,,,,,,9.8,
Cassley,10/09/2019 19:00,11.4,,,,3.2,,94,,,-,,,,,,,10.5,
Cassley,10/09/2019 20:00,13.4,,,,1,,96,,,-,,,,,,,12.8,
Cassley,10/09/2019 21:00,14.7,,,,0,,86,,,-,,,,,,,12.4,
Cassley,10/09/2019 22:00,15.5,,,,0.6,,87,,,-,,,,,,,13.4,
Cassley,10/09/2019 23:00,15.6,,,,1.8,,87,,,-,,,,,,,13.6,
Cassley,11/09/2019 00:00,15.8,,,,1.6,8,85,,,-,,,,,,,13.3,
Cassley,11/09/2019 01:00,15.1,,,,1.4,,84,,,-,,,,,,,12.5,
Cassley,11/09/2019 02:00,13,,,,1.4,,87,,,-,,,,,,,10.9,
Cassley,11/09/2019 03:00,12.7,,,,1,,81,,,-,,,,,,,9.6,
Cassley,11/09/2019 04:00,13.4,,,,0,,77,,,-,,,,,,,9.5,
Cassley,11/09/2019 05:00,12.6,,,,1,,79,,,-,,,,,,,9.1,
Cassley,11/09/2019 06:00,12.3,,11.2,,0.2,5,83,,,-,,,,,,,9.5,
Cassley,11/09/2019 07:00,12.6,,,,0.2,,77,,,-,,,,,,,8.7,
Cassley,11/09/2019 08:00,12.5,,,,0.2,,77,,,-,,,,,,,8.6,
Cassley,11/09/2019 09:00,12.1,,,,1.8,,82,,,-,,,,,,,9.3,
Cassley,11/09/2019 10:00,12.6,,,,0,,79,,,-,,,,,,,9.1,
Cassley,11/09/2019 11:00,12.9,,,,1.4,,76,,,-,,,,,,,8.8,
Cassley,11/09/2019 12:00,13.4,,,,0.4,4,78,,,-,,,,,,,9.7,
Cassley,11/09/2019 13:00,12.9,,,,0.2,,85,,,-,,,,,,,10.5,
Cassley,11/09/2019 14:00,13.6,,,,0,,76,,,-,,,,,,,9.6,
Cassley,11/09/2019 15:00,14,,,,0,,75,,,-,,,,,,,9.8,
Cassley,11/09/2019 16:00,13.8,,,,0.2,,75,,,-,,,,,,,9.6,
Cassley,11/09/2019 17:00,13.5,,,,0,,79,,,-,,,,,,,10,
Cassley,11/09/2019 18:00,13.1,,,14.3,0,0,76,,,-,,,,,,,9,
Cassley,11/09/2019 19:00,12.5,,,,0,,82,,,-,,,,,,,9.6,
Cassley,11/09/2019 20:00,12.4,,,,0,,78,,,-,,,,,,,8.8,
Cassley,11/09/2019 21:00,12.1,,,,0,,82,,,-,,,,,,,9.2,
Cassley,11/09/2019 22:00,12.1,,,,0,,84,,,-,,,,,,,9.6,
Cassley,11/09/2019 23:00,12.1,,,,0,,79,,,-,,,,,,,8.7,
Cassley,12/09/2019 00:00,11.9,,,,0.2,0.2,81,,,-,,,,,,,8.8,
Cassley,12/09/2019 01:00,12,,,,0,,81,,,-,,,,,,,9,
Cassley,12/09/2019 02:00,12,,,,0.2,,75,,,-,,,,,,,7.9,
Cassley,12/09/2019 03:00,12,,,,0,,74,,,-,,,,,,,7.7,
Cassley,12/09/2019 04:00,11.5,,,,0.2,,80,,,-,,,,,,,8.3,
Cassley,12/09/2019 05:00,11.4,,,,0,,80,,,-,,,,,,,8.1,
Cassley,12/09/2019 06:00,11.5,,11,,0,0.4,77,,,-,,,,,,,7.7,
Cassley,12/09/2019 07:00,12,,,,0,,73,,,-,,,,,,,7.5,
Cassley,12/09/2019 08:00,12,,,,0,,75,,,-,,,,,,,7.8,
Cassley,12/09/2019 09:00,11.5,,,,0.8,,84,,,-,,,,,,,8.9,
Cassley,12/09/2019 10:00,11.8,,,,1,,82,,,-,,,,,,,8.9,
Cassley,12/09/2019 11:00,12.7,,,,0,,75,,,-,,,,,,,8.4,
Cassley,12/09/2019 12:00,13.2,,,,0,2,81,,,-,,,,,,,10.1,
Cassley,12/09/2019 13:00,12.9,,,,0,,78,,,-,,,,,,,9.3,
Cassley,12/09/2019 14:00,13.5,,,,0,,68,,,-,,,,,,,7.9,
Cassley,12/09/2019 15:00,13.5,,,,0.2,,65,,,-,,,,,,,7.1,
Cassley,12/09/2019 16:00,12.3,,,,0.2,,72,,,-,,,,,,,7.6,
Cassley,12/09/2019 17:00,11.8,,,,0,,77,,,-,,,,,,,8,
Cassley,12/09/2019 18:00,11.4,,,14.3,0,0,72,,,-,,,,,,,6.7,
Cassley,12/09/2019 19:00,10.5,,,,0.2,,82,,,-,,,,,,,7.6,
Cassley,12/09/2019 20:00,10.5,,,,0,,81,,,-,,,,,,,7.5,
Cassley,12/09/2019 21:00,10.3,,,,0,,82,,,-,,,,,,,7.5,
Cassley,12/09/2019 22:00,10,,,,0.4,,89,,,-,,,,,,,8.3,
Cassley,12/09/2019 23:00,10.1,,,,0.2,,83,,,-,,,,,,,7.5,
Cassley,13/09/2019 00:00,10.5,,,,0,0.8,82,,,-,,,,,,,7.7,
Cassley,13/09/2019 01:00,10.3,,,,0,,80,,,-,,,,,,,7.1,
Cassley,13/09/2019 02:00,10.1,,,,0.4,,83,,,-,,,,,,,7.5,
Cassley,13/09/2019 03:00,10.1,,,,0.2,,79,,,-,,,,,,,6.7,
Cassley,13/09/2019 04:00,10,,,,0,,81,,,-,,,,,,,6.9,
Cassley,13/09/2019 05:00,10.7,,,,0,,75,,,-,,,,,,,6.6,
Cassley,13/09/2019 06:00,11.4,,9.5,,0,0.2,73,,,-,,,,,,,6.8,
Cassley,13/09/2019 07:00,11.1,,,,0,,77,,,-,,,,,,,7.4,
Cassley,13/09/2019 08:00,11.9,,,,0,,72,,,-,,,,,,,7.2,
Cassley,13/09/2019 09:00,11.7,,,,0,,78,,,-,,,,,,,8,
Cassley,13/09/2019 10:00,12.4,,,,0,,70,,,-,,,,,,,7.1,
Cassley,13/09/2019 11:00,13.1,,,,0,,68,,,-,,,,,,,7.4,
Cassley,13/09/2019 12:00,13.6,,,,0,0,69,,,-,,,,,,,8.2,
Cassley,13/09/2019 13:00,13,,,,0.2,,78,,,-,,,,,,,9.3,
Cassley,13/09/2019 14:00,13.3,,,,0,,68,,,-,,,,,,,7.7,
Cassley,13/09/2019 15:00,13.4,,,,0,,65,,,-,,,,,,,7.1,
Cassley,13/09/2019 16:00,13.1,,,,0,,70,,,-,,,,,,,7.8,
Cassley,13/09/2019 17:00,12.3,,,,0.4,,78,,,-,,,,,,,8.7,
Cassley,13/09/2019 18:00,12,,,14.4,1.6,2,80,,,-,,,,,,,8.8,
Cassley,13/09/2019 19:00,12.1,,,,0.4,,79,,,-,,,,,,,8.6,
Cassley,13/09/2019 20:00,11.6,,,,3.2,,84,,,-,,,,,,,9,
Cassley,13/09/2019 21:00,11.9,,,,2.4,,81,,,-,,,,,,,8.8,
Cassley,13/09/2019 22:00,12.3,,,,1.6,,78,,,-,,,,,,,8.7,
Cassley,13/09/2019 23:00,12,,,,0,,81,,,-,,,,,,,8.9,
Cassley,14/09/2019 00:00,11.2,,,,1.8,9,89,,,-,,,,,,,9.5,
Cassley,14/09/2019 01:00,11.7,,,,0.2,,78,,,-,,,,,,,8.1,
Cassley,14/09/2019 02:00,10.5,,,,0,,83,,,-,,,,,,,7.9,
Cassley,14/09/2019 03:00,10.1,,,,0,,83,,,-,,,,,,,7.5,
Cassley,14/09/2019 04:00,10.5,,,,0,,83,,,-,,,,,,,7.8,
Cassley,14/09/2019 05:00,11.3,,,,0,,77,,,-,,,,,,,7.5,
Cassley,14/09/2019 06:00,11.4,,9.7,,0,1,79,,,-,,,,,,,8,
Cassley,14/09/2019 07:00,11,,,,1.2,,85,,,-,,,,,,,8.7,
Cassley,14/09/2019 08:00,11.3,,,,1.2,,88,,,-,,,,,,,9.4,
Cassley,14/09/2019 09:00,15.1,,,,0,,80,,,-,,,,,,,11.7,
Cassley,14/09/2019 10:00,16,,,,0.6,,82,,,-,,,,,,,13,
Cassley,14/09/2019 11:00,16.5,,,,1.2,,80,,,-,,,,,,,13.2,
Cassley,14/09/2019 12:00,16,,,,0.2,4,81,,,-,,,,,,,12.9,
Cassley,14/09/2019 13:00,16.2,,,,0.6,,80,,,-,,,,,,,12.8,
Cassley,14/09/2019 14:00,15.6,,,,3.6,,85,,,-,,,,,,,13.1,
Cassley,14/09/2019 15:00,15.7,,,,5,,83,,,-,,,,,,,13,
Cassley,14/09/2019 16:00,14.3,,,,5.6,,90,,,-,,,,,,,12.8,
Cassley,14/09/2019 17:00,13.3,,,,7.6,,96,,,-,,,,,,,12.8,
Cassley,14/09/2019 18:00,12.2,,,17,2,25,88,,,-,,,,,,,10.3,
Cassley,14/09/2019 19:00,12.3,,,,0.2,,79,,,-,,,,,,,8.8,
Cassley,14/09/2019 20:00,12.1,,,,0,,74,,,-,,,,,,,7.7,
Cassley,14/09/2019 21:00,12.3,,,,0,,70,,,-,,,,,,,7,
Cassley,14/09/2019 22:00,10.3,,,,1.8,,89,,,-,,,,,,,8.7,
Cassley,14/09/2019 23:00,10.5,,,,0.4,,73,,,-,,,,,,,6,
Cassley,15/09/2019 00:00,10.4,,,,0,2,75,,,-,,,,,,,6.2,
Cassley,15/09/2019 01:00,9.9,,,,0.2,,73,,,-,,,,,,,5.4,
Cassley,15/09/2019 02:00,10,,,,0,,69,,,-,,,,,,,4.6,
Cassley,15/09/2019 03:00,10,,,,0,,67,,,-,,,,,,,4.3,
Cassley,15/09/2019 04:00,9.8,,,,0.2,,71,,,-,,,,,,,4.9,
Cassley,15/09/2019 05:00,9.8,,,,0,,67,,,-,,,,,,,4,
Cassley,15/09/2019 06:00,10.2,,8.9,,0,1,71,,,-,,,,,,,5.2,
Cassley,15/09/2019 07:00,10.3,,,,0,,72,,,-,,,,,,,5.6,
Cassley,15/09/2019 08:00,10.5,,,,0,,72,,,-,,,,,,,5.8,
Cassley,15/09/2019 09:00,10.5,,,,0,,67,,,-,,,,,,,4.7,
Cassley,15/09/2019 10:00,11.5,,,,0,,67,,,-,,,,,,,5.6,
Cassley,15/09/2019 11:00,11.2,,,,0,,63,,,-,,,,,,,4.6,
Cassley,15/09/2019 12:00,11.3,,,,0,0,62,,,-,,,,,,,4.4,
Cassley,15/09/2019 13:00,10.9,,,,0,,72,,,-,,,,,,,6.1,
Cassley,15/09/2019 14:00,12,,,,0,,62,,,-,,,,,,,5,
Cassley,15/09/2019 15:00,12.7,,,,0,,59,,,-,,,,,,,5,
Cassley,15/09/2019 16:00,12,,,,0,,62,,,-,,,,,,,5.1,
Cassley,15/09/2019 17:00,11.1,,,,0,,62,,,-,,,,,,,4.3,
Cassley,15/09/2019 18:00,10.8,,,12.8,0,0,66,,,-,,,,,,,4.9,
Cassley,15/09/2019 19:00,9.5,,,,0,,80,,,-,,,,,,,6.3,
Cassley,15/09/2019 20:00,8.8,,,,0,,81,,,-,,,,,,,5.8,
Cassley,15/09/2019 21:00,8.7,,,,0,,80,,,-,,,,,,,5.6,
Cassley,15/09/2019 22:00,9.6,,,,0,,77,,,-,,,,,,,5.9,
Cassley,15/09/2019 23:00,8.3,,,,0,,82,,,-,,,,,,,5.5,
Cassley,16/09/2019 00:00,9.7,,,,0,0,75,,,-,,,,,,,5.5,
Cassley,16/09/2019 01:00,9.4,,,,0,,83,,,-,,,,,,,6.7,
Cassley,16/09/2019 02:00,8.9,,,,0,,80,,,-,,,,,,,5.7,
Cassley,16/09/2019 03:00,8.8,,,,0.2,,88,,,-,,,,,,,7,
Cassley,16/09/2019 04:00,9.6,,,,0,,83,,,-,,,,,,,7,
Cassley,16/09/2019 05:00,9.7,,,,0,,80,,,-,,,,,,,6.6,
Cassley,16/09/2019 06:00,9.3,,7.4,,0.2,0.4,86,,,-,,,,,,,7.1,
Cassley,16/09/2019 07:00,9.5,,,,0,,85,,,-,,,,,,,7.2,
Cassley,16/09/2019 08:00,8.8,,,,0.4,,90,,,-,,,,,,,7.3,
Cassley,16/09/2019 09:00,10.6,,,,0,,82,,,-,,,,,,,7.7,
Cassley,16/09/2019 10:00,12.2,,,,0,,68,,,-,,,,,,,6.6,
Cassley,16/09/2019 11:00,12,,,,0,,71,,,-,,,,,,,7,
Cassley,16/09/2019 12:00,11.2,,,,0.4,0.8,82,,,-,,,,,,,8.4,
Cassley,16/09/2019 13:00,10.9,,,,0.4,,81,,,-,,,,,,,7.8,
Cassley,16/09/2019 14:00,10.6,,,,0.4,,78,,,-,,,,,,,7.1,
Cassley,16/09/2019 15:00,10.6,,,,0,,81,,,-,,,,,,,7.6,
Cassley,16/09/2019 16:00,11.4,,,,0,,71,,,-,,,,,,,6.5,
Cassley,16/09/2019 17:00,10.8,,,,0,,66,,,-,,,,,,,4.8,
Cassley,16/09/2019 18:00,9.1,,,12.7,0,1.2,80,,,-,,,,,,,6,
Cassley,16/09/2019 19:00,8.5,,,,0.4,,84,,,-,,,,,,,6.1,
Cassley,16/09/2019 20:00,9.1,,,,0,,79,,,-,,,,,,,5.7,
Cassley,16/09/2019 21:00,8.7,,,,0,,69,,,-,,,,,,,3.4,
Cassley,16/09/2019 22:00,8.5,,,,0,,67,,,-,,,,,,,2.8,
Cassley,16/09/2019 23:00,8.5,,,,0,,65,,,-,,,,,,,2.5,
Cassley,17/09/2019 00:00,8.9,,,,0,0.4,64,,,-,,,,,,,2.5,
Cassley,17/09/2019 01:00,9,,,,0,,66,,,-,,,,,,,3.1,
Cassley,17/09/2019 02:00,7.7,,,,0.2,,83,,,-,,,,,,,5,
Cassley,17/09/2019 03:00,7.9,,,,0.8,,82,,,-,,,,,,,5.1,
Cassley,17/09/2019 04:00,8,,,,0,,77,,,-,,,,,,,4.3,
Cassley,17/09/2019 05:00,7.7,,,,0,,87,,,-,,,,,,,5.7,
Cassley,17/09/2019 06:00,7.5,,7.2,,0,0.6,78,,,-,,,,,,,4,
Cassley,17/09/2019 07:00,7.3,,,,0,,78,,,-,,,,,,,3.9,
Cassley,17/09/2019 08:00,9,,,,0,,79,,,-,,,,,,,5.6,
Cassley,17/09/2019 09:00,10.2,,,,0,,74,,,-,,,,,,,5.8,
Cassley,17/09/2019 10:00,10,,,,0,,78,,,-,,,,,,,6.4,
Cassley,17/09/2019 11:00,12.2,,,,0,,62,,,-,,,,,,,5.3,
Cassley,17/09/2019 12:00,12.4,,,,0,0,59,,,-,,,,,,,4.7,
Cassley,17/09/2019 13:00,11.5,,,,0,,66,,,-,,,,,,,5.5,
Cassley,17/09/2019 14:00,11.3,,,,0,,70,,,-,,,,,,,6.2,
Cassley,17/09/2019 15:00,11.5,,,,0,,68,,,-,,,,,,,5.9,
Cassley,17/09/2019 16:00,11.1,,,,0,,70,,,-,,,,,,,5.9,
Cassley,17/09/2019 17:00,10.6,,,,0,,71,,,-,,,,,,,5.6,
Cassley,17/09/2019 18:00,9.9,,,12.9,0,0,75,,,-,,,,,,,5.7,
Cassley,17/09/2019 19:00,9.1,,,,0,,81,,,-,,,,,,,6.1,
Cassley,17/09/2019 20:00,8.9,,,,0,,80,,,-,,,,,,,5.7,
Cassley,17/09/2019 21:00,8.7,,,,0,,81,,,-,,,,,,,5.7,
Cassley,17/09/2019 22:00,8.4,,,,0,,84,,,-,,,,,,,5.9,
Cassley,17/09/2019 23:00,8.1,,,,0,,85,,,-,,,,,,,5.9,
Cassley,18/09/2019 00:00,8,,,,0,0,87,,,-,,,,,,,6,
Cassley,18/09/2019 01:00,7.6,,,,0.2,,90,,,-,,,,,,,6.1,
Cassley,18/09/2019 02:00,7.4,,,,0.4,,90,,,-,,,,,,,5.9,
Cassley,18/09/2019 03:00,6.8,,,,0.6,,97,,,-,,,,,,,6.4,
Cassley,18/09/2019 04:00,6.9,,,,1.8,,99,,,-,,,,,,,6.8,
Cassley,18/09/2019 05:00,7.1,,,,1.8,,97,,,-,,,,,,,6.8,
Cassley,18/09/2019 06:00,7.2,,6.8,,2.4,7,99,,,-,,,,,,,7.1,
Cassley,18/09/2019 07:00,7.4,,,,2.8,,99,,,-,,,,,,,7.3,
Cassley,18/09/2019 08:00,7.8,,,,2.6,,99,,,-,,,,,,,7.7,
Cassley,18/09/2019 09:00,8.5,,,,1.8,,99,,,-,,,,,,,8.4,
Cassley,18/09/2019 10:00,9.2,,,,1.2,,98,,,-,,,,,,,9,
Cassley,18/09/2019 11:00,9.6,,,,0.8,,97,,,-,,,,,,,9.2,
Cassley,18/09/2019 12:00,10.4,,,,1,10,98,,,-,,,,,,,10.2,
Cassley,18/09/2019 13:00,10.9,,,,0.4,,98,,,-,,,,,,,10.6,
Cassley,18/09/2019 14:00,11.5,,,,0,,97,,,-,,,,,,,11.1,
Cassley,18/09/2019 15:00,12,,,,0.2,,97,,,-,,,,,,,11.6,
Cassley,18/09/2019 16:00,12,,,,0.2,,98,,,-,,,,,,,11.7,
Cassley,18/09/2019 17:00,12.3,,,,0.2,,98,,,-,,,,,,,12.1,
Cassley,18/09/2019 18:00,12.2,,,12.4,0.2,1,99,,,-,,,,,,,12.1,
Cassley,18/09/2019 19:00,11.4,,,,0,,99,,,-,,,,,,,11.3,
Cassley,18/09/2019 20:00,10.9,,,,0.2,,99,,,-,,,,,,,10.8,
Cassley,18/09/2019 21:00,10.7,,,,0.4,,100,,,-,,,,,,,10.7,
Cassley,18/09/2019 22:00,11,,,,0,,99,,,-,,,,,,,10.9,
Cassley,18/09/2019 23:00,11.2,,,,0.2,,100,,,-,,,,,,,11.2,
Cassley,19/09/2019 00:00,12.8,,,,0,0.8,98,,,-,,,,,,,12.5,
Cassley,19/09/2019 01:00,12.7,,,,0.2,,97,,,-,,,,,,,12.3,
Cassley,19/09/2019 02:00,12.5,,,,0,,94,,,-,,,,,,,11.7,
Cassley,19/09/2019 03:00,12.2,,,,0,,94,,,-,,,,,,,11.3,
Cassley,19/09/2019 04:00,12.4,,,,0,,91,,,-,,,,,,,11.1,
Cassley,19/09/2019 05:00,12.1,,,,0,,93,,,-,,,,,,,11.1,
Cassley,19/09/2019 06:00,12.2,,10.7,,0,0.2,92,,,-,,,,,,,11,
Cassley,19/09/2019 07:00,12.2,,,,0,,92,,,-,,,,,,,11,
Cassley,19/09/2019 08:00,12.7,,,,0,,89,,,-,,,,,,,11.1,
Cassley,19/09/2019 09:00,12.9,,,,0,,89,,,-,,,,,,,11.3,
Cassley,19/09/2019 10:00,13.4,,,,0,,87,,,-,,,,,,,11.4,
Cassley,19/09/2019 11:00,14.4,,,,0,,85,,,-,,,,,,,12,
Cassley,19/09/2019 12:00,14.9,,,,0,0,82,,,-,,,,,,,12,
Cassley,19/09/2019 13:00,15.3,,,,0,,79,,,-,,,,,,,11.8,
Cassley,19/09/2019 14:00,15.2,,,,0,,77,,,-,,,,,,,11.2,
Cassley,19/09/2019 15:00,14.7,,,,0,,75,,,-,,,,,,,10.4,
Cassley,19/09/2019 16:00,14.5,,,,0,,76,,,-,,,,,,,10.5,
Cassley,19/09/2019 17:00,13.8,,,,0,,76,,,-,,,,,,,9.8,
Cassley,19/09/2019 18:00,13.4,,,15.7,0,0,74,,,-,,,,,,,9,
Cassley,19/09/2019 19:00,10.6,,,,0,,83,,,-,,,,,,,7.9,
Cassley,19/09/2019 20:00,9,,,,0,,88,,,-,,,,,,,7.2,
Cassley,19/09/2019 21:00,7.5,,,,0,,94,,,-,,,,,,,6.6,
Cassley,19/09/2019 22:00,7.2,,,,0,,96,,,-,,,,,,,6.7,
Cassley,19/09/2019 23:00,7,,,,0,,97,,,-,,,,,,,6.6,
Cassley,20/09/2019 00:00,7.3,,,,0,0,100,,,-,,,,,,,7.3,
Cassley,20/09/2019 01:00,5.5,,,,0,,98,,,-,,,,,,,5.3,
Cassley,20/09/2019 02:00,5.6,,,,0,,100,,,-,,,,,,,5.6,
Cassley,20/09/2019 03:00,5.1,,,,0,,100,,,-,,,,,,,5.1,
Cassley,20/09/2019 04:00,4.5,,,,0,,100,,,-,,,,,,,4.5,
Cassley,20/09/2019 05:00,4,,,,0,,100,,,-,,,,,,,4,
Cassley,20/09/2019 06:00,3.5,,3.3,,0,0,100,,,-,,,,,,,3.5,
Cassley,20/09/2019 07:00,4.6,,,,0,,100,,,-,,,,,,,4.6,
Cassley,20/09/2019 08:00,5.8,,,,0.2,,100,,,-,,,,,,,5.8,
Cassley,20/09/2019 09:00,7.8,,,,0,,100,,,-,,,,,,,7.8,
Cassley,20/09/2019 10:00,10.8,,,,0,,89,,,-,,,,,,,9.1,
Cassley,20/09/2019 11:00,14.7,,,,0,,58,,,-,,,,,,,6.7,
Cassley,20/09/2019 12:00,17.1,,,,0,0.2,51,,,-,,,,,,,7.1,
Cassley,20/09/2019 13:00,19.2,,,,0,,50,,,-,,,,,,,8.7,
Cassley,20/09/2019 14:00,20.2,,,,0,,50,,,-,,,,,,,9.5,
Cassley,20/09/2019 15:00,20.3,,,,0,,53,,,-,,,,,,,10.5,
Cassley,20/09/2019 16:00,20.5,,,,0,,49,,,-,,,,,,,9.7,
Cassley,20/09/2019 17:00,19,,,,0,,55,,,-,,,,,,,9.8,
Cassley,20/09/2019 18:00,15.5,,,21.8,0,0,61,,,-,,,,,,,8.1,
Cassley,20/09/2019 19:00,13.1,,,,0,,66,,,-,,,,,,,7,
Cassley,20/09/2019 20:00,10.6,,,,0,,81,,,-,,,,,,,7.5,
Cassley,20/09/2019 21:00,8.8,,,,0,,87,,,-,,,,,,,6.8,
Cassley,20/09/2019 22:00,8.9,,,,0,,89,,,-,,,,,,,7.3,
Cassley,20/09/2019 23:00,8.2,,,,0,,93,,,-,,,,,,,7.2,
Cassley,21/09/2019 00:00,7.4,,,,0,0,95,,,-,,,,,,,6.8,
Cassley,21/09/2019 01:00,7.1,,,,0,,96,,,-,,,,,,,6.6,
Cassley,21/09/2019 02:00,6.9,,,,0,,99,,,-,,,,,,,6.8,
Cassley,21/09/2019 03:00,7.2,,,,0,,99,,,-,,,,,,,7.1,
Cassley,21/09/2019 04:00,6.8,,,,0,,99,,,-,,,,,,,6.7,
Cassley,21/09/2019 05:00,5.9,,,,0,,100,,,-,,,,,,,5.9,
Cassley,21/09/2019 06:00,5.6,,5.4,,0,0,100,,,-,,,,,,,5.6,
Cassley,21/09/2019 07:00,7.4,,,,0,,100,,,-,,,,,,,7.4,
Cassley,21/09/2019 08:00,9.7,,,,0,,100,,,-,,,,,,,9.7,
Cassley,21/09/2019 09:00,13.6,,,,0,,85,,,-,,,,,,,11.2,
Cassley,21/09/2019 10:00,16.9,,,,0,,72,,,-,,,,,,,11.9,
Cassley,21/09/2019 11:00,18.5,,,,0,,56,,,-,,,,,,,9.8,
Cassley,21/09/2019 12:00,19.2,,,,0,0,54,,,-,,,,,,,9.7,
Cassley,21/09/2019 13:00,19.1,,,,0,,56,,,-,,,,,,,10.2,
Cassley,21/09/2019 14:00,19.2,,,,0,,57,,,-,,,,,,,10.5,
Cassley,21/09/2019 15:00,19.7,,,,0,,55,,,-,,,,,,,10.5,
Cassley,21/09/2019 16:00,19.1,,,,0,,56,,,-,,,,,,,10.3,
Cassley,21/09/2019 17:00,17.7,,,,0,,61,,,-,,,,,,,10.1,
Cassley,21/09/2019 18:00,14.6,,,19.8,0,0,70,,,-,,,,,,,9.4,
Cassley,21/09/2019 19:00,12.9,,,,0,,77,,,-,,,,,,,9.1,
Cassley,21/09/2019 20:00,11.6,,,,0,,83,,,-,,,,,,,8.9,
Cassley,21/09/2019 21:00,10.1,,,,0,,91,,,-,,,,,,,8.7,
Cassley,21/09/2019 22:00,9.2,,,,0,,90,,,-,,,,,,,7.8,
Cassley,21/09/2019 23:00,9.3,,,,0,,92,,,-,,,,,,,8.2,
Cassley,22/09/2019 00:00,8.2,,,,0,0,93,,,-,,,,,,,7.2,
Cassley,22/09/2019 01:00,7,,,,0,,92,,,-,,,,,,,5.8,
Cassley,22/09/2019 02:00,7.9,,,,0,,96,,,-,,,,,,,7.4,
Cassley,22/09/2019 03:00,7.3,,,,0,,99,,,-,,,,,,,7.2,
Cassley,22/09/2019 04:00,6.6,,,,0,,97,,,-,,,,,,,6.3,
Cassley,22/09/2019 05:00,6.8,,,,0,,99,,,-,,,,,,,6.7,
Cassley,22/09/2019 06:00,7.4,,6.1,,0,0,100,,,-,,,,,,,7.4,
Cassley,22/09/2019 07:00,7.9,,,,0,,100,,,-,,,,,,,7.9,
Cassley,22/09/2019 08:00,9.1,,,,0,,100,,,-,,,,,,,9.1,
Cassley,22/09/2019 09:00,11.1,,,,0,,96,,,-,,,,,,,10.6,
Cassley,22/09/2019 10:00,13.3,,,,0,,86,,,-,,,,,,,11.1,
Cassley,22/09/2019 11:00,15,,,,0,,79,,,-,,,,,,,11.5,
Cassley,22/09/2019 12:00,15.8,,,,0,0,79,,,-,,,,,,,12.2,
Cassley,22/09/2019 13:00,18,,,,0,,67,,,-,,,,,,,11.8,
Cassley,22/09/2019 14:00,17.9,,,,0,,68,,,-,,,,,,,12,
Cassley,22/09/2019 15:00,17.9,,,,0,,71,,,-,,,,,,,12.7,
Cassley,22/09/2019 16:00,16.9,,,,0,,79,,,-,,,,,,,13.4,
Cassley,22/09/2019 17:00,17.1,,,,0,,81,,,-,,,,,,,14,
Cassley,22/09/2019 18:00,15.6,,,19.4,0,0,86,,,-,,,,,,,13.3,
Cassley,22/09/2019 19:00,14.7,,,,0,,87,,,-,,,,,,,12.7,
Cassley,22/09/2019 20:00,13.9,,,,0,,92,,,-,,,,,,,12.7,
Cassley,22/09/2019 21:00,13.2,,,,0,,94,,,-,,,,,,,12.3,
Cassley,22/09/2019 22:00,12.9,,,,0,,96,,,-,,,,,,,12.4,
Cassley,22/09/2019 23:00,12.5,,,,0,,95,,,-,,,,,,,11.8,
Cassley,23/09/2019 00:00,12,,,,0,0,97,,,-,,,,,,,11.6,
Cassley,23/09/2019 01:00,12,,,,0,,96,,,-,,,,,,,11.4,
Cassley,23/09/2019 02:00,11.1,,,,0,,97,,,-,,,,,,,10.7,
Cassley,23/09/2019 03:00,11.8,,,,0,,99,,,-,,,,,,,11.7,
Cassley,23/09/2019 04:00,11.9,,,,0,,98,,,-,,,,,,,11.7,
Cassley,23/09/2019 05:00,12.8,,,,0,,96,,,-,,,,,,,12.3,
Cassley,23/09/2019 06:00,12.8,,10.8,,0,0,96,,,-,,,,,,,12.3,
Cassley,23/09/2019 07:00,12.7,,,,0,,98,,,-,,,,,,,12.4,
Cassley,23/09/2019 08:00,13,,,,0,,98,,,-,,,,,,,12.7,
Cassley,23/09/2019 09:00,13.2,,,,0.2,,98,,,-,,,,,,,13,
Cassley,23/09/2019 10:00,13.5,,,,0,,99,,,-,,,,,,,13.4,
Cassley,23/09/2019 11:00,14.2,,,,0,,97,,,-,,,,,,,13.8,
Cassley,23/09/2019 12:00,15.1,,,,0,0.2,95,,,-,,,,,,,14.4,
Cassley,23/09/2019 13:00,16.9,,,,0,,85,,,-,,,,,,,14.5,
Cassley,23/09/2019 14:00,20,,,,0,,63,,,-,,,,,,,12.9,
Cassley,23/09/2019 15:00,19.1,,,,0,,62,,,-,,,,,,,11.8,
Cassley,23/09/2019 16:00,18.3,,,,0,,61,,,-,,,,,,,10.8,
Cassley,23/09/2019 17:00,16.5,,,,0,,71,,,-,,,,,,,11.3,
Cassley,23/09/2019 18:00,14.3,,,20.2,0,0,79,,,-,,,,,,,10.8,
Cassley,23/09/2019 19:00,12.5,,,,0,,80,,,-,,,,,,,9.3,
Cassley,23/09/2019 20:00,10.6,,,,0,,86,,,-,,,,,,,8.4,
Cassley,23/09/2019 21:00,10.2,,,,0,,86,,,-,,,,,,,8,
Cassley,23/09/2019 22:00,9.3,,,,0,,90,,,-,,,,,,,7.8,
Cassley,23/09/2019 23:00,9.3,,,,0,,92,,,-,,,,,,,8.2,
Cassley,24/09/2019 00:00,8.8,,,,0,0,92,,,-,,,,,,,7.7,
Cassley,24/09/2019 01:00,9,,,,0,,94,,,-,,,,,,,8.1,
Cassley,24/09/2019 02:00,10.1,,,,0,,94,,,-,,,,,,,9.3,
Cassley,24/09/2019 03:00,9.9,,,,0,,95,,,-,,,,,,,9.2,
Cassley,24/09/2019 04:00,12,,,,0,,93,,,-,,,,,,,11,
Cassley,24/09/2019 05:00,12.1,,,,0,,93,,,-,,,,,,,11.1,
Cassley,24/09/2019 06:00,12.6,,7.9,,0,0,93,,,-,,,,,,,11.5,
Cassley,24/09/2019 07:00,12.9,,,,0,,93,,,-,,,,,,,11.9,
Cassley,24/09/2019 08:00,13.1,,,,0,,94,,,-,,,,,,,12.2,
Cassley,24/09/2019 09:00,13.6,,,,0,,91,,,-,,,,,,,12.3,
Cassley,24/09/2019 10:00,14.4,,,,0,,88,,,-,,,,,,,12.6,
Cassley,24/09/2019 11:00,15.1,,,,0,,86,,,-,,,,,,,12.9,
Cassley,24/09/2019 12:00,15.4,,,,0,0,87,,,-,,,,,,,13.4,
Cassley,24/09/2019 13:00,16.5,,,,0,,82,,,-,,,,,,,13.5,
Cassley,24/09/2019 14:00,17,,,,0,,79,,,-,,,,,,,13.5,
Cassley,24/09/2019 15:00,17.6,,,,0,,76,,,-,,,,,,,13.5,
Cassley,24/09/2019 16:00,18.3,,,,0,,75,,,-,,,,,,,13.9,
Cassley,24/09/2019 17:00,15.8,,,,0,,88,,,-,,,,,,,13.9,
Cassley,24/09/2019 18:00,15.4,,,18.3,0,0,90,,,-,,,,,,,13.8,
Cassley,24/09/2019 19:00,14.6,,,,0,,91,,,-,,,,,,,13.3,
Cassley,24/09/2019 20:00,14.4,,,,0,,92,,,-,,,,,,,13.2,
Cassley,24/09/2019 21:00,14.2,,,,0,,94,,,-,,,,,,,13.3,
Cassley,24/09/2019 22:00,14.3,,,,0,,94,,,-,,,,,,,13.4,
Cassley,24/09/2019 23:00,13.9,,,,0.4,,98,,,-,,,,,,,13.7,
Cassley,25/09/2019 00:00,13.9,,,,0,0.4,97,,,-,,,,,,,13.5,
Cassley,25/09/2019 01:00,13.5,,,,0,,98,,,-,,,,,,,13.2,
Cassley,25/09/2019 02:00,13.6,,,,0,,96,,,-,,,,,,,13.1,
Cassley,25/09/2019 03:00,13.3,,,,0.2,,97,,,-,,,,,,,12.9,
Cassley,25/09/2019 04:00,13.5,,,,0.2,,97,,,-,,,,,,,13.1,
Cassley,25/09/2019 05:00,13.6,,,,0,,96,,,-,,,,,,,13.1,
Cassley,25/09/2019 06:00,13.4,,13.3,,0.2,0.6,98,,,-,,,,,,,13.2,
Cassley,25/09/2019 07:00,13.3,,,,0,,98,,,-,,,,,,,13.1,
Cassley,25/09/2019 08:00,13.6,,,,0,,95,,,-,,,,,,,12.9,
Cassley,25/09/2019 09:00,13.5,,,,0,,96,,,-,,,,,,,13,
Cassley,25/09/2019 10:00,14.1,,,,0,,92,,,-,,,,,,,12.9,
Cassley,25/09/2019 11:00,14.2,,,,0,,90,,,-,,,,,,,12.7,
Cassley,25/09/2019 12:00,14.6,,,,0,0,87,,,-,,,,,,,12.6,
Cassley,25/09/2019 13:00,14.6,,,,0,,88,,,-,,,,,,,12.8,
Cassley,25/09/2019 14:00,14.9,,,,0,,87,,,-,,,,,,,12.9,
Cassley,25/09/2019 15:00,15.4,,,,0,,86,,,-,,,,,,,13.1,
Cassley,25/09/2019 16:00,14.9,,,,0.2,,90,,,-,,,,,,,13.4,
Cassley,25/09/2019 17:00,14.8,,,,0,,88,,,-,,,,,,,12.9,
Cassley,25/09/2019 18:00,14.4,,,15.6,0,0.2,88,,,-,,,,,,,12.6,
Cassley,25/09/2019 19:00,14.2,,,,0,,88,,,-,,,,,,,12.3,
Cassley,25/09/2019 20:00,13.4,,,,0,,92,,,-,,,,,,,12.2,
Cassley,25/09/2019 21:00,13.7,,,,0,,92,,,-,,,,,,,12.5,
Cassley,25/09/2019 22:00,13.6,,,,0,,92,,,-,,,,,,,12.4,
Cassley,25/09/2019 23:00,13.7,,,,0,,91,,,-,,,,,,,12.3,
Cassley,26/09/2019 00:00,13.6,,,,0,0,93,,,-,,,,,,,12.5,
Cassley,26/09/2019 01:00,13.6,,,,0,,92,,,-,,,,,,,12.4,
Cassley,26/09/2019 02:00,13.6,,,,0,,92,,,-,,,,,,,12.4,
Cassley,26/09/2019 03:00,13.4,,,,0,,92,,,-,,,,,,,12.2,
Cassley,26/09/2019 04:00,13.3,,,,0.2,,94,,,-,,,,,,,12.4,
Cassley,26/09/2019 05:00,13.4,,,,0,,94,,,-,,,,,,,12.5,
Cassley,26/09/2019 06:00,13.2,,13.1,,0.4,0.6,96,,,-,,,,,,,12.6,
Cassley,26/09/2019 07:00,13.2,,,,0.4,,96,,,-,,,,,,,12.6,
Cassley,26/09/2019 08:00,13.5,,,,0.6,,95,,,-,,,,,,,12.8,
Cassley,26/09/2019 09:00,13.7,,,,0,,94,,,-,,,,,,,12.8,
Cassley,26/09/2019 10:00,12.4,,,,0.4,,92,,,-,,,,,,,11.2,
Cassley,26/09/2019 11:00,14.6,,,,0,,80,,,-,,,,,,,11.3,
Cassley,26/09/2019 12:00,14.3,,,,0,1,80,,,-,,,,,,,11,
Cassley,26/09/2019 13:00,14.3,,,,0,,81,,,-,,,,,,,11.1,
Cassley,26/09/2019 14:00,14.4,,,,0.2,,72,,,-,,,,,,,9.6,
Cassley,26/09/2019 15:00,14.8,,,,0,,73,,,-,,,,,,,10.2,
Cassley,26/09/2019 16:00,13.4,,,,0.4,,85,,,-,,,,,,,11.1,
Cassley,26/09/2019 17:00,13.1,,,,0,,84,,,-,,,,,,,10.5,
Cassley,26/09/2019 18:00,12.5,,,15.5,0,1,83,,,-,,,,,,,9.8,
Cassley,26/09/2019 19:00,11.2,,,,0.2,,89,,,-,,,,,,,9.6,
Cassley,26/09/2019 20:00,9.4,,,,0,,91,,,-,,,,,,,8.1,
Cassley,26/09/2019 21:00,8.7,,,,0,,90,,,-,,,,,,,7.2,
Cassley,26/09/2019 22:00,8.1,,,,0,,94,,,-,,,,,,,7.2,
Cassley,26/09/2019 23:00,9.8,,,,0,,99,,,-,,,,,,,9.7,
Cassley,27/09/2019 00:00,9.6,,,,0,0.2,100,,,-,,,,,,,9.6,
Cassley,27/09/2019 01:00,9.4,,,,0,,99,,,-,,,,,,,9.3,
Cassley,27/09/2019 02:00,9.3,,,,0,,99,,,-,,,,,,,9.2,
Cassley,27/09/2019 03:00,9.3,,,,0,,100,,,-,,,,,,,9.3,
Cassley,27/09/2019 04:00,9.5,,,,0,,99,,,-,,,,,,,9.4,
Cassley,27/09/2019 05:00,9.3,,,,0,,100,,,-,,,,,,,9.3,
Cassley,27/09/2019 06:00,9.5,,8,,0,0,100,,,-,,,,,,,9.5,
Cassley,27/09/2019 07:00,9.6,,,,0,,99,,,-,,,,,,,9.5,
Cassley,27/09/2019 08:00,9.9,,,,0,,98,,,-,,,,,,,9.7,
Cassley,27/09/2019 09:00,10.2,,,,0.2,,97,,,-,,,,,,,9.8,
Cassley,27/09/2019 10:00,10.9,,,,0.2,,96,,,-,,,,,,,10.3,
Cassley,27/09/2019 11:00,12.4,,,,0,,90,,,-,,,,,,,10.9,
Cassley,27/09/2019 12:00,13.4,,,,0,0.4,79,,,-,,,,,,,10,
Cassley,27/09/2019 13:00,13.1,,,,0,,83,,,-,,,,,,,10.3,
Cassley,27/09/2019 14:00,13.1,,,,0,,83,,,-,,,,,,,10.4,
Cassley,27/09/2019 15:00,13,,,,0,,81,,,-,,,,,,,9.9,
Cassley,27/09/2019 16:00,12.5,,,,0,,85,,,-,,,,,,,10.1,
Cassley,27/09/2019 17:00,11.9,,,,0,,86,,,-,,,,,,,9.7,
Cassley,27/09/2019 18:00,10.5,,,13.6,0,0,91,,,-,,,,,,,9.1,
Cassley,27/09/2019 19:00,9.7,,,,0,,92,,,-,,,,,,,8.5,
Cassley,27/09/2019 20:00,8.8,,,,0,,92,,,-,,,,,,,7.7,
Cassley,27/09/2019 21:00,8,,,,0,,94,,,-,,,,,,,7.1,
Cassley,27/09/2019 22:00,7.6,,,,0,,96,,,-,,,,,,,7.1,
Cassley,27/09/2019 23:00,7.9,,,,0,,97,,,-,,,,,,,7.6,
Cassley,28/09/2019 00:00,7.8,,,,0,0,97,,,-,,,,,,,7.5,
Cassley,28/09/2019 01:00,8,,,,0,,98,,,-,,,,,,,7.8,
Cassley,28/09/2019 02:00,7.8,,,,0,,97,,,-,,,,,,,7.5,
Cassley,28/09/2019 03:00,8.4,,,,0,,98,,,-,,,,,,,8.2,
Cassley,28/09/2019 04:00,8.4,,,,0,,97,,,-,,,,,,,8.1,
Cassley,28/09/2019 05:00,8.6,,,,0,,99,,,-,,,,,,,8.5,
Cassley,28/09/2019 06:00,9,,6.9,,0,0,99,,,-,,,,,,,8.9,
Cassley,28/09/2019 07:00,9.3,,,,0,,98,,,-,,,,,,,9.1,
Cassley,28/09/2019 08:00,10.1,,,,0,,98,,,-,,,,,,,9.9,
Cassley,28/09/2019 09:00,11.1,,,,0.2,,97,,,-,,,,,,,10.7,
Cassley,28/09/2019 10:00,11.5,,,,0.2,,94,,,-,,,,,,,10.7,
Cassley,28/09/2019 11:00,12.5,,,,0,,90,,,-,,,,,,,11,
Cassley,28/09/2019 12:00,13.8,,,,0,0.4,83,,,-,,,,,,,11,
Cassley,28/09/2019 13:00,13.8,,,,0,,78,,,-,,,,,,,10.2,
Cassley,28/09/2019 14:00,12.6,,,,0.2,,87,,,-,,,,,,,10.6,
Cassley,28/09/2019 15:00,13.1,,,,0,,81,,,-,,,,,,,10.1,
Cassley,28/09/2019 16:00,13.4,,,,0,,81,,,-,,,,,,,10.3,
Cassley,28/09/2019 17:00,13,,,,0,,81,,,-,,,,,,,9.9,
Cassley,28/09/2019 18:00,10.4,,,13.9,0,0.2,88,,,-,,,,,,,8.6,
Cassley,28/09/2019 19:00,10.8,,,,0,,93,,,-,,,,,,,9.8,
Cassley,28/09/2019 20:00,8.4,,,,0,,92,,,-,,,,,,,7.3,
Cassley,28/09/2019 21:00,8.7,,,,0,,97,,,-,,,,,,,8.3,
Cassley,28/09/2019 22:00,9.3,,,,0,,97,,,-,,,,,,,9,
Cassley,28/09/2019 23:00,9.4,,,,0,,97,,,-,,,,,,,9.1,
Cassley,29/09/2019 00:00,10.3,,,,0,0,96,,,-,,,,,,,9.8,
Cassley,29/09/2019 01:00,9.7,,,,0,,95,,,-,,,,,,,9,
Cassley,29/09/2019 02:00,8.9,,,,0,,96,,,-,,,,,,,8.3,
Cassley,29/09/2019 03:00,9.6,,,,0,,96,,,-,,,,,,,9.1,
Cassley,29/09/2019 04:00,9.5,,,,0,,97,,,-,,,,,,,9.2,
Cassley,29/09/2019 05:00,10.6,,,,0,,96,,,-,,,,,,,10,
Cassley,29/09/2019 06:00,10.9,,8.1,,0,0,93,,,-,,,,,,,9.9,
Cassley,29/09/2019 07:00,10.7,,,,0,,91,,,-,,,,,,,9.4,
Cassley,29/09/2019 08:00,11.3,,,,0,,87,,,-,,,,,,,9.3,
Cassley,29/09/2019 09:00,12.1,,,,0,,82,,,-,,,,,,,9.2,
Cassley,29/09/2019 10:00,12.4,,,,0,,83,,,-,,,,,,,9.6,
Cassley,29/09/2019 11:00,12.8,,,,0,,81,,,-,,,,,,,9.8,
Cassley,29/09/2019 12:00,13.3,,,,0,0,78,,,-,,,,,,,9.6,
Cassley,29/09/2019 13:00,13.8,,,,0,,77,,,-,,,,,,,10,
Cassley,29/09/2019 14:00,13.6,,,,0,,78,,,-,,,,,,,10,
Cassley,29/09/2019 15:00,12,,,,0,,80,,,-,,,,,,,8.7,
Cassley,29/09/2019 16:00,11.6,,,,2.6,,93,,,-,,,,,,,10.6,
Cassley,29/09/2019 17:00,11.5,,,,0.6,,91,,,-,,,,,,,10.2,
Cassley,29/09/2019 18:00,10.8,,,14.2,0.4,4,94,,,-,,,,,,,10,
Cassley,29/09/2019 19:00,10.8,,,,0,,92,,,-,,,,,,,9.7,
Cassley,29/09/2019 20:00,10.2,,,,0,,90,,,-,,,,,,,8.7,
Cassley,29/09/2019 21:00,10.5,,,,0,,88,,,-,,,,,,,8.6,
Cassley,29/09/2019 22:00,10.2,,,,0,,91,,,-,,,,,,,8.8,
Cassley,29/09/2019 23:00,10.5,,,,0,,92,,,-,,,,,,,9.4,
Cassley,30/09/2019 00:00,10.4,,,,0.6,0.6,91,,,-,,,,,,,9,
Cassley,30/09/2019 01:00,10,,,,0,,88,,,-,,,,,,,8.2,
Cassley,30/09/2019 02:00,9.7,,,,0,,84,,,-,,,,,,,7.3,
Cassley,30/09/2019 03:00,9.6,,,,0,,84,,,-,,,,,,,7.2,
Cassley,30/09/2019 04:00,8.5,,,,0,,80,,,-,,,,,,,5.3,
Cassley,30/09/2019 05:00,6.7,,,,0,,81,,,-,,,,,,,3.7,
Cassley,30/09/2019 06:00,7.9,,6.5,,0,0,84,,,-,,,,,,,5.5,
Cassley,30/09/2019 07:00,6.7,,,,0,,87,,,-,,,,,,,4.8,
Cassley,30/09/2019 08:00,7.9,,,,0,,88,,,-,,,,,,,6.2,
Cassley,30/09/2019 09:00,8.7,,,,0,,84,,,-,,,,,,,6.2,
Cassley,30/09/2019 10:00,8.5,,,,0.2,,89,,,-,,,,,,,6.8,
Cassley,30/09/2019 11:00,9.8,,,,0,,71,,,-,,,,,,,4.9,
Cassley,30/09/2019 12:00,9.9,,,,0,0.2,69,,,-,,,,,,,4.6,
Cassley,30/09/2019 13:00,9.6,,,,0,,77,,,-,,,,,,,5.8,
Cassley,30/09/2019 14:00,10.1,,,,0,,71,,,-,,,,,,,5.1,
Cassley,30/09/2019 15:00,9.3,,,,0,,80,,,-,,,,,,,6.1,
Cassley,30/09/2019 16:00,8.9,,,,0,,79,,,-,,,,,,,5.5,
Cassley,30/09/2019 17:00,8.3,,,,0,,80,,,-,,,,,,,5.2,
Cassley,30/09/2019 18:00,7.6,,,10.9,0,0,84,,,-,,,,,,,5.1,
Cassley,30/09/2019 19:00,6.8,,,,0,,82,,,-,,,,,,,4,
Cassley,30/09/2019 20:00,5.5,,,,0,,82,,,-,,,,,,,2.7,
Cassley,30/09/2019 21:00,4.8,,,,0,,86,,,-,,,,,,,2.7,
Cassley,30/09/2019 22:00,3.6,,,,0,,93,,,-,,,,,,,2.6,
Cassley,30/09/2019 23:00,1.5,,,,0,,91,,,-,,,,,,,0.3,
Cassley,01/10/2019 00:00,1.8,,,,0,0,93,,,-,,,,,,,0.8,
Cassley,01/10/2019 01:00,1,,,,0,,95,,,-,,,,,,,0.3,
Cassley,01/10/2019 02:00,2.9,,,,0,,97,,,-,,,,,,,2.5,
Cassley,01/10/2019 03:00,2,,,,0,,94,,,-,,,,,,,1.2,
Cassley,01/10/2019 04:00,2.9,,,,0,,97,,,-,,,,,,,2.6,
Cassley,01/10/2019 05:00,3.2,,,,0,,96,,,-,,,,,,,2.7,
Cassley,01/10/2019 06:00,3.2,,0.7,,0.2,0.2,92,,,-,,,,,,,2.1,
Cassley,01/10/2019 07:00,3.5,,,,0,,90,,,-,,,,,,,2.1,
Cassley,01/10/2019 08:00,5.2,,,,0,,90,,,-,,,,,,,3.7,
Cassley,01/10/2019 09:00,7.8,,,,0,,78,,,-,,,,,,,4.3,
Cassley,01/10/2019 10:00,8.2,,,,0,,76,,,-,,,,,,,4.3,
Cassley,01/10/2019 11:00,8.4,,,,0,,79,,,-,,,,,,,5,
Cassley,01/10/2019 12:00,8.6,,,,0,0,79,,,-,,,,,,,5.3,
Cassley,01/10/2019 13:00,8.2,,,,0.4,,77,,,-,,,,,,,4.5,
Cassley,01/10/2019 14:00,8.7,,,,0.2,,71,,,-,,,,,,,3.8,
Cassley,01/10/2019 15:00,8.3,,,,0.2,,74,,,-,,,,,,,4.1,
Cassley,01/10/2019 16:00,7.8,,,,0.2,,79,,,-,,,,,,,4.5,
Cassley,01/10/2019 17:00,6.3,,,,0,,79,,,-,,,,,,,3.1,
Cassley,01/10/2019 18:00,5.6,,,9.8,0,1,82,,,-,,,,,,,2.8,
Cassley,01/10/2019 19:00,4.9,,,,0,,81,,,-,,,,,,,2,
Cassley,01/10/2019 20:00,5.1,,,,0,,81,,,-,,,,,,,2.2,
Cassley,01/10/2019 21:00,5.1,,,,0,,80,,,-,,,,,,,2,
Cassley,01/10/2019 22:00,5,,,,0.2,,83,,,-,,,,,,,2.5,
Cassley,01/10/2019 23:00,5.4,,,,0,,79,,,-,,,,,,,2.1,
Cassley,02/10/2019 00:00,6,,,,0,0.2,82,,,-,,,,,,,3.2,
Cassley,02/10/2019 01:00,5.9,,,,0.2,,88,,,-,,,,,,,4.2,
Cassley,02/10/2019 02:00,6.3,,,,0,,87,,,-,,,,,,,4.4,
Cassley,02/10/2019 03:00,6.7,,,,0.4,,85,,,-,,,,,,,4.5,
Cassley,02/10/2019 04:00,6.2,,,,0.4,,85,,,-,,,,,,,3.9,
Cassley,02/10/2019 05:00,6.5,,,,0,,81,,,-,,,,,,,3.6,
Cassley,02/10/2019 06:00,6.8,,4.3,,0,0.8,84,,,-,,,,,,,4.4,
Cassley,02/10/2019 07:00,7,,,,0.2,,86,,,-,,,,,,,4.9,
Cassley,02/10/2019 08:00,7.6,,,,0,,86,,,-,,,,,,,5.5,
Cassley,02/10/2019 09:00,9.1,,,,0,,78,,,-,,,,,,,5.6,
Cassley,02/10/2019 10:00,10.1,,,,0,,79,,,-,,,,,,,6.7,
Cassley,02/10/2019 11:00,9.5,,,,0,,79,,,-,,,,,,,6.1,
Cassley,02/10/2019 12:00,9.4,,,,0,0.2,81,,,-,,,,,,,6.4,
Cassley,02/10/2019 13:00,11.5,,,,0,,73,,,-,,,,,,,6.9,
Cassley,02/10/2019 14:00,9.8,,,,0,,78,,,-,,,,,,,6.2,
Cassley,02/10/2019 15:00,10,,,,0,,77,,,-,,,,,,,6.2,
Cassley,02/10/2019 16:00,9.8,,,,0,,76,,,-,,,,,,,5.9,
Cassley,02/10/2019 17:00,9,,,,0,,76,,,-,,,,,,,5.1,
Cassley,02/10/2019 18:00,8,,,11.6,0,0,82,,,-,,,,,,,5.2,
Cassley,02/10/2019 19:00,7.2,,,,0,,82,,,-,,,,,,,4.5,
Cassley,02/10/2019 20:00,6.6,,,,0,,84,,,-,,,,,,,4.2,
Cassley,02/10/2019 21:00,6.5,,,,0,,86,,,-,,,,,,,4.4,
Cassley,02/10/2019 22:00,6,,,,0,,85,,,-,,,,,,,3.7,
Cassley,02/10/2019 23:00,6,,,,0,,90,,,-,,,,,,,4.6,
Cassley,03/10/2019 00:00,6.1,,,,0,0,91,,,-,,,,,,,4.8,
Cassley,03/10/2019 01:00,5.1,,,,0,,90,,,-,,,,,,,3.6,
Cassley,03/10/2019 02:00,5.4,,,,0,,96,,,-,,,,,,,4.9,
Cassley,03/10/2019 03:00,3.2,,,,0,,95,,,-,,,,,,,2.5,
Cassley,03/10/2019 04:00,2.6,,,,0,,97,,,-,,,,,,,2.3,
Cassley,03/10/2019 05:00,2.5,,,,0,,99,,,-,,,,,,,2.4,
Cassley,03/10/2019 06:00,3.8,,1.8,,0,0,100,,,-,,,,,,,3.8,
Cassley,03/10/2019 07:00,4.8,,,,0,,100,,,-,,,,,,,4.8,
Cassley,03/10/2019 08:00,5.5,,,,0,,100,,,-,,,,,,,5.5,
Cassley,03/10/2019 09:00,6.6,,,,0,,97,,,-,,,,,,,6.3,
Cassley,03/10/2019 10:00,7.7,,,,0,,97,,,-,,,,,,,7.3,
Cassley,03/10/2019 11:00,9.6,,,,0,,92,,,-,,,,,,,8.5,
Cassley,03/10/2019 12:00,10.4,,,,0,0,82,,,-,,,,,,,7.6,
Cassley,03/10/2019 13:00,10.9,,,,0,,77,,,-,,,,,,,7.1,
Cassley,03/10/2019 14:00,10.6,,,,0,,78,,,-,,,,,,,7,
Cassley,03/10/2019 15:00,10.3,,,,0,,86,,,-,,,,,,,8.1,
Cassley,03/10/2019 16:00,10.1,,,,0,,86,,,-,,,,,,,7.9,
Cassley,03/10/2019 17:00,10,,,,0,,86,,,-,,,,,,,7.8,
Cassley,03/10/2019 18:00,9.8,,,11.2,0,0,87,,,-,,,,,,,7.8,
Cassley,03/10/2019 19:00,9.6,,,,0,,86,,,-,,,,,,,7.4,
Cassley,03/10/2019 20:00,9.4,,,,0,,85,,,-,,,,,,,7.1,
Cassley,03/10/2019 21:00,8.9,,,,0,,82,,,-,,,,,,,6,
Cassley,03/10/2019 22:00,8.8,,,,0,,81,,,-,,,,,,,5.9,
Cassley,03/10/2019 23:00,8.7,,,,0,,84,,,-,,,,,,,6.3,
Cassley,04/10/2019 00:00,9,,,,0,0,84,,,-,,,,,,,6.6,
Cassley,04/10/2019 01:00,9.2,,,,0,,84,,,-,,,,,,,6.7,
Cassley,04/10/2019 02:00,9.4,,,,0,,83,,,-,,,,,,,6.8,
Cassley,04/10/2019 03:00,9.6,,,,0,,82,,,-,,,,,,,6.8,
Cassley,04/10/2019 04:00,9.6,,,,0,,82,,,-,,,,,,,6.8,
Cassley,04/10/2019 05:00,9.2,,,,0,,87,,,-,,,,,,,7.2,
Cassley,04/10/2019 06:00,9.3,,8.5,,0,0,87,,,-,,,,,,,7.4,
Cassley,04/10/2019 07:00,9,,,,0,,91,,,-,,,,,,,7.7,
Cassley,04/10/2019 08:00,9,,,,0.2,,88,,,-,,,,,,,7.2,
Cassley,04/10/2019 09:00,9.8,,,,0,,82,,,-,,,,,,,6.9,
Cassley,04/10/2019 10:00,10.2,,,,0,,78,,,-,,,,,,,6.7,
Cassley,04/10/2019 11:00,10.4,,,,0,,71,,,-,,,,,,,5.5,
Cassley,04/10/2019 12:00,10.6,,,,0,0.2,73,,,-,,,,,,,6.1,
Cassley,04/10/2019 13:00,10.8,,,,0,,73,,,-,,,,,,,6.2,
Cassley,04/10/2019 14:00,11,,,,0,,70,,,-,,,,,,,5.8,
Cassley,04/10/2019 15:00,11.1,,,,0,,70,,,-,,,,,,,6,
Cassley,04/10/2019 16:00,10.8,,,,0,,71,,,-,,,,,,,5.9,
Cassley,04/10/2019 17:00,9,,,,0,,74,,,-,,,,,,,4.7,
Cassley,04/10/2019 18:00,7.1,,,11.2,0,0,80,,,-,,,,,,,3.9,
Cassley,04/10/2019 19:00,5.4,,,,0,,87,,,-,,,,,,,3.5,
Cassley,04/10/2019 20:00,5.4,,,,0,,91,,,-,,,,,,,4.1,
Cassley,04/10/2019 21:00,2.5,,,,0,,93,,,-,,,,,,,1.5,
Cassley,04/10/2019 22:00,3.4,,,,0,,96,,,-,,,,,,,2.9,
Cassley,04/10/2019 23:00,1.9,,,,0,,96,,,-,,,,,,,1.4,
Cassley,05/10/2019 00:00,1.5,,,,0,0,97,,,-,,,,,,,1.1,
Cassley,05/10/2019 01:00,1.7,,,,0,,97,,,-,,,,,,,1.4,
Cassley,05/10/2019 02:00,1.1,,,,0,,99,,,-,,,,,,,1,
Cassley,05/10/2019 03:00,1.4,,,,0,,100,,,-,,,,,,,1.4,
Cassley,05/10/2019 04:00,1.2,,,,0,,100,,,-,,,,,,,1.2,
Cassley,05/10/2019 05:00,1,,,,0,,100,,,-,,,,,,,1,
Cassley,05/10/2019 06:00,2.4,,0.3,,0,0,100,,,-,,,,,,,2.4,
Cassley,05/10/2019 07:00,3.4,,,,0,,100,,,-,,,,,,,3.4,
Cassley,05/10/2019 08:00,4.6,,,,0,,99,,,-,,,,,,,4.5,
Cassley,05/10/2019 09:00,6,,,,0,,97,,,-,,,,,,,5.7,
Cassley,05/10/2019 10:00,8.9,,,,0,,90,,,-,,,,,,,7.4,
Cassley,05/10/2019 11:00,10,,,,0,,86,,,-,,,,,,,7.9,
Cassley,05/10/2019 12:00,10.8,,,,0,0,82,,,-,,,,,,,7.9,
Cassley,05/10/2019 13:00,11.2,,,,0,,84,,,-,,,,,,,8.6,
Cassley,05/10/2019 14:00,11.6,,,,0,,82,,,-,,,,,,,8.7,
Cassley,05/10/2019 15:00,11.3,,,,0,,84,,,-,,,,,,,8.8,
Cassley,05/10/2019 16:00,11.3,,,,0,,85,,,-,,,,,,,9,
Cassley,05/10/2019 17:00,10.3,,,,0.6,,93,,,-,,,,,,,9.3,
Cassley,05/10/2019 18:00,9.9,,,11.6,1.2,2,95,,,-,,,,,,,9.2,
Cassley,05/10/2019 19:00,9.9,,,,0.6,,96,,,-,,,,,,,9.3,
Cassley,05/10/2019 20:00,9.6,,,,1.2,,96,,,-,,,,,,,9,
Cassley,05/10/2019 21:00,9.7,,,,1.6,,96,,,-,,,,,,,9.2,
Cassley,05/10/2019 22:00,9.6,,,,0.8,,96,,,-,,,,,,,9.1,
Cassley,05/10/2019 23:00,9.6,,,,0.4,,97,,,-,,,,,,,9.2,
Cassley,06/10/2019 00:00,9.7,,,,0.4,5,96,,,-,,,,,,,9.2,
Cassley,06/10/2019 01:00,9.8,,,,0.8,,96,,,-,,,,,,,9.3,
Cassley,06/10/2019 02:00,9.9,,,,1.2,,97,,,-,,,,,,,9.5,
Cassley,06/10/2019 03:00,10.3,,,,1.6,,97,,,-,,,,,,,9.9,
Cassley,06/10/2019 04:00,10.3,,,,1.4,,97,,,-,,,,,,,9.9,
Cassley,06/10/2019 05:00,10.1,,,,1.2,,96,,,-,,,,,,,9.6,
Cassley,06/10/2019 06:00,10,,9.5,,0.6,7,95,,,-,,,,,,,9.3,
Cassley,06/10/2019 07:00,9.5,,,,0.8,,95,,,-,,,,,,,8.8,
Cassley,06/10/2019 08:00,9.5,,,,0.4,,94,,,-,,,,,,,8.7,
Cassley,06/10/2019 09:00,10.1,,,,0.2,,91,,,-,,,,,,,8.8,
Cassley,06/10/2019 10:00,10.6,,,,0,,89,,,-,,,,,,,8.9,
Cassley,06/10/2019 11:00,11.8,,,,0,,78,,,-,,,,,,,8.2,
Cassley,06/10/2019 12:00,12.5,,,,0,1,74,,,-,,,,,,,8,
Cassley,06/10/2019 13:00,12,,,,0,,81,,,-,,,,,,,8.9,
Cassley,06/10/2019 14:00,12.6,,,,0,,72,,,-,,,,,,,7.8,
Cassley,06/10/2019 15:00,12.5,,,,0,,73,,,-,,,,,,,7.8,
Cassley,06/10/2019 16:00,12.3,,,,0,,74,,,-,,,,,,,7.9,
Cassley,06/10/2019 17:00,10.9,,,,0,,78,,,-,,,,,,,7.4,
Cassley,06/10/2019 18:00,9.3,,,13.3,0,0,83,,,-,,,,,,,6.7,
Cassley,06/10/2019 19:00,9,,,,0,,85,,,-,,,,,,,6.7,
Cassley,06/10/2019 20:00,8.4,,,,0,,86,,,-,,,,,,,6.3,
Cassley,06/10/2019 21:00,8.9,,,,0,,86,,,-,,,,,,,6.8,
Cassley,06/10/2019 22:00,9,,,,0,,89,,,-,,,,,,,7.4,
Cassley,06/10/2019 23:00,9.6,,,,0,,86,,,-,,,,,,,7.5,
Cassley,07/10/2019 00:00,9.8,,,,0,0,84,,,-,,,,,,,7.4,
Cassley,07/10/2019 01:00,10.2,,,,0,,82,,,-,,,,,,,7.3,
Cassley,07/10/2019 02:00,10.4,,,,0,,81,,,-,,,,,,,7.3,
Cassley,07/10/2019 03:00,11.1,,,,0,,80,,,-,,,,,,,7.9,
Cassley,07/10/2019 04:00,11.3,,,,0,,80,,,-,,,,,,,8.1,
Cassley,07/10/2019 05:00,10.8,,,,0,,83,,,-,,,,,,,8.2,
Cassley,07/10/2019 06:00,10.5,,7.8,,2.6,3,89,,,-,,,,,,,8.9,
Cassley,07/10/2019 07:00,10.8,,,,0,,84,,,-,,,,,,,8.3,
Cassley,07/10/2019 08:00,11.3,,,,0.2,,77,,,-,,,,,,,7.5,
Cassley,07/10/2019 09:00,10.9,,,,0,,84,,,-,,,,,,,8.4,
Cassley,07/10/2019 10:00,11.9,,,,0,,81,,,-,,,,,,,8.8,
Cassley,07/10/2019 11:00,12.2,,,,0,,81,,,-,,,,,,,9.2,
Cassley,07/10/2019 12:00,13.9,,,,1.2,1,73,,,-,,,,,,,9.3,
Cassley,07/10/2019 13:00,13.4,,,,0.8,,68,,,-,,,,,,,7.8,
Cassley,07/10/2019 14:00,14.4,,,,0,,60,,,-,,,,,,,6.9,
Cassley,07/10/2019 15:00,12.8,,,,0.2,,68,,,-,,,,,,,7.1,
Cassley,07/10/2019 16:00,11.9,,,,0.8,,70,,,-,,,,,,,6.8,
Cassley,07/10/2019 17:00,10.8,,,,0,,82,,,-,,,,,,,7.9,
Cassley,07/10/2019 18:00,10.5,,,14.7,0,2,71,,,-,,,,,,,5.5,
Cassley,07/10/2019 19:00,10.3,,,,0,,79,,,-,,,,,,,7,
Cassley,07/10/2019 20:00,10.1,,,,0,,76,,,-,,,,,,,6.1,
Cassley,07/10/2019 21:00,10.2,,,,0,,75,,,-,,,,,,,6.1,
Cassley,07/10/2019 22:00,9.4,,,,0,,86,,,-,,,,,,,7.3,
Cassley,07/10/2019 23:00,11.6,,,,0,,70,,,-,,,,,,,6.4,
Cassley,08/10/2019 00:00,11.9,,,,0,0,68,,,-,,,,,,,6.3,
Cassley,08/10/2019 01:00,11.4,,,,0,,69,,,-,,,,,,,6,
Cassley,08/10/2019 02:00,8.9,,,,0,,83,,,-,,,,,,,6.3,
Cassley,08/10/2019 03:00,7.9,,,,0.2,,89,,,-,,,,,,,6.3,
Cassley,08/10/2019 04:00,7.8,,,,0,,92,,,-,,,,,,,6.6,
Cassley,08/10/2019 05:00,7.2,,,,0,,93,,,-,,,,,,,6.2,
Cassley,08/10/2019 06:00,7.2,,6.5,,0.2,0.4,88,,,-,,,,,,,5.5,
Cassley,08/10/2019 07:00,7.8,,,,0.2,,91,,,-,,,,,,,6.5,
Cassley,08/10/2019 08:00,8.7,,,,0,,88,,,-,,,,,,,6.9,
Cassley,08/10/2019 09:00,9.6,,,,0.2,,86,,,-,,,,,,,7.5,
Cassley,08/10/2019 10:00,9.6,,,,0.8,,90,,,-,,,,,,,8.2,
Cassley,08/10/2019 11:00,10.1,,,,1.4,,91,,,-,,,,,,,8.7,
Cassley,08/10/2019 12:00,11.5,,,,1.4,4,82,,,-,,,,,,,8.7,
Cassley,08/10/2019 13:00,11.6,,,,1.4,,82,,,-,,,,,,,8.7,
Cassley,08/10/2019 14:00,12.1,,,,0.6,,82,,,-,,,,,,,9.2,
Cassley,08/10/2019 15:00,11.8,,,,0.6,,80,,,-,,,,,,,8.6,
Cassley,08/10/2019 16:00,11.2,,,,1,,80,,,-,,,,,,,8,
Cassley,08/10/2019 17:00,10.8,,,,1.6,,77,,,-,,,,,,,7.1,
Cassley,08/10/2019 18:00,10.4,,,12.5,0,5,84,,,-,,,,,,,7.9,
Cassley,08/10/2019 19:00,10.7,,,,0.4,,75,,,-,,,,,,,6.5,
Cassley,08/10/2019 20:00,10.1,,,,0.2,,85,,,-,,,,,,,7.7,
Cassley,08/10/2019 21:00,10.4,,,,0.8,,83,,,-,,,,,,,7.7,
Cassley,08/10/2019 22:00,10,,,,1.8,,85,,,-,,,,,,,7.7,
Cassley,08/10/2019 23:00,10.5,,,,2.2,,83,,,-,,,,,,,7.8,
Cassley,09/10/2019 00:00,10.7,,,,0.6,6,79,,,-,,,,,,,7.3,
Cassley,09/10/2019 01:00,10.7,,,,0.4,,77,,,-,,,,,,,7,
Cassley,09/10/2019 02:00,10.4,,,,1.4,,80,,,-,,,,,,,7.2,
Cassley,09/10/2019 03:00,10.1,,,,0.2,,83,,,-,,,,,,,7.5,
Cassley,09/10/2019 04:00,10.1,,,,2,,86,,,-,,,,,,,7.9,
Cassley,09/10/2019 05:00,10.3,,,,0.6,,82,,,-,,,,,,,7.4,
Cassley,09/10/2019 06:00,10.4,,9.8,,0.6,5,82,,,-,,,,,,,7.5,
Cassley,09/10/2019 07:00,10.1,,,,2.4,,84,,,-,,,,,,,7.6,
Cassley,09/10/2019 08:00,10.2,,,,3.2,,84,,,-,,,,,,,7.7,
Cassley,09/10/2019 09:00,10.4,,,,3,,83,,,-,,,,,,,7.7,
Cassley,09/10/2019 10:00,11,,,,1.4,,85,,,-,,,,,,,8.6,
Cassley,09/10/2019 11:00,11.7,,,,0.2,,76,,,-,,,,,,,7.7,
Cassley,09/10/2019 12:00,11.4,,,,0.4,11,81,,,-,,,,,,,8.3,
Cassley,09/10/2019 13:00,11.1,,,,2.4,,82,,,-,,,,,,,8.3,
Cassley,09/10/2019 14:00,11.4,,,,0.8,,79,,,-,,,,,,,7.9,
Cassley,09/10/2019 15:00,11.6,,,,0.2,,78,,,-,,,,,,,8,
Cassley,09/10/2019 16:00,11.2,,,,0.6,,81,,,-,,,,,,,8.1,
Cassley,09/10/2019 17:00,10.9,,,,1.6,,85,,,-,,,,,,,8.5,
Cassley,09/10/2019 18:00,11,,,12,3.4,9,86,,,-,,,,,,,8.9,
Cassley,09/10/2019 19:00,11.1,,,,2.4,,86,,,-,,,,,,,8.9,
Cassley,09/10/2019 20:00,10.7,,,,0.4,,89,,,-,,,,,,,9,
Cassley,09/10/2019 21:00,10.6,,,,0,,87,,,-,,,,,,,8.6,
Cassley,09/10/2019 22:00,10.5,,,,0,,87,,,-,,,,,,,8.5,
Cassley,09/10/2019 23:00,10.3,,,,0.8,,88,,,-,,,,,,,8.5,
Cassley,10/10/2019 00:00,9.9,,,,0.4,4,88,,,-,,,,,,,8.1,
Cassley,10/10/2019 01:00,9.2,,,,1.2,,89,,,-,,,,,,,7.6,
Cassley,10/10/2019 02:00,9.3,,,,0.2,,88,,,-,,,,,,,7.5,
Cassley,10/10/2019 03:00,9.1,,,,1.8,,89,,,-,,,,,,,7.4,
Cassley,10/10/2019 04:00,9,,,,0,,87,,,-,,,,,,,7.1,
Cassley,10/10/2019 05:00,8.7,,,,0.4,,84,,,-,,,,,,,6.2,
Cassley,10/10/2019 06:00,8.9,,8.3,,0,4,75,,,-,,,,,,,4.8,
Cassley,10/10/2019 07:00,8.7,,,,0.2,,81,,,-,,,,,,,5.8,
Cassley,10/10/2019 08:00,8.9,,,,0,,82,,,-,,,,,,,6,
Cassley,10/10/2019 09:00,9.8,,,,0,,77,,,-,,,,,,,6.1,
Cassley,10/10/2019 10:00,9.9,,,,0,,83,,,-,,,,,,,7.3,
Cassley,10/10/2019 11:00,10.3,,,,0.2,,72,,,-,,,,,,,5.6,
Cassley,10/10/2019 12:00,10.3,,,,0,0.4,73,,,-,,,,,,,5.8,
Cassley,10/10/2019 13:00,10.9,,,,0,,73,,,-,,,,,,,6.4,
Cassley,10/10/2019 14:00,12.6,,,,0,,69,,,-,,,,,,,7.1,
Cassley,10/10/2019 15:00,10.6,,,,0,,81,,,-,,,,,,,7.6,
Cassley,10/10/2019 16:00,9.9,,,,0.2,,88,,,-,,,,,,,8.1,
Cassley,10/10/2019 17:00,10,,,,0,,89,,,-,,,,,,,8.4,
Cassley,10/10/2019 18:00,9.1,,,12.6,0.4,0.6,94,,,-,,,,,,,8.2,
Cassley,10/10/2019 19:00,8.7,,,,0.4,,97,,,-,,,,,,,8.4,
Cassley,10/10/2019 20:00,8.3,,,,0.4,,96,,,-,,,,,,,7.8,
Cassley,10/10/2019 21:00,8.2,,,,0.6,,97,,,-,,,,,,,7.8,
Cassley,10/10/2019 22:00,8.3,,,,1,,97,,,-,,,,,,,7.9,
Cassley,10/10/2019 23:00,8.3,,,,0.2,,97,,,-,,,,,,,7.9,
Cassley,11/10/2019 00:00,8.9,,,,0.8,3,94,,,-,,,,,,,8,
Cassley,11/10/2019 01:00,10.6,,,,0.6,,80,,,-,,,,,,,7.3,
Cassley,11/10/2019 02:00,10.3,,,,0.2,,82,,,-,,,,,,,7.5,
Cassley,11/10/2019 03:00,9.3,,,,0,,89,,,-,,,,,,,7.6,
Cassley,11/10/2019 04:00,8.3,,,,0,,91,,,-,,,,,,,7,
Cassley,11/10/2019 05:00,8.6,,,,0.4,,94,,,-,,,,,,,7.7,
Cassley,11/10/2019 06:00,8.6,,8,,2,4,97,,,-,,,,,,,8.2,
Cassley,11/10/2019 07:00,10.1,,,,0.8,,86,,,-,,,,,,,8,
Cassley,11/10/2019 08:00,9.9,,,,1.6,,83,,,-,,,,,,,7.3,
Cassley,11/10/2019 09:00,11.8,,,,0.6,,72,,,-,,,,,,,7.1,
Cassley,11/10/2019 10:00,11.5,,,,0,,77,,,-,,,,,,,7.7,
Cassley,11/10/2019 11:00,11.6,,,,0.2,,78,,,-,,,,,,,7.9,
Cassley,11/10/2019 12:00,11.4,,,,0,3,80,,,-,,,,,,,8.1,
Cassley,11/10/2019 13:00,11.1,,,,0.8,,85,,,-,,,,,,,8.8,
Cassley,11/10/2019 14:00,11.4,,,,0,,79,,,-,,,,,,,7.9,
Cassley,11/10/2019 15:00,10.8,,,,0.2,,86,,,-,,,,,,,8.6,
Cassley,11/10/2019 16:00,11,,,,0.4,,82,,,-,,,,,,,8.2,
Cassley,11/10/2019 17:00,10.4,,,,0,,82,,,-,,,,,,,7.5,
Cassley,11/10/2019 18:00,9.7,,,12.6,0,2,89,,,-,,,,,,,8,
Cassley,11/10/2019 19:00,9,,,,0.4,,91,,,-,,,,,,,7.7,
Cassley,11/10/2019 20:00,9,,,,0,,95,,,-,,,,,,,8.3,
Cassley,11/10/2019 21:00,8.9,,,,0.2,,93,,,-,,,,,,,7.9,
Cassley,11/10/2019 22:00,8.5,,,,0,,88,,,-,,,,,,,6.7,
Cassley,11/10/2019 23:00,7.7,,,,0,,85,,,-,,,,,,,5.5,
Cassley,12/10/2019 00:00,8.1,,,,0,0.6,81,,,-,,,,,,,5.2,
Cassley,12/10/2019 01:00,7.7,,,,0,,87,,,-,,,,,,,5.7,
Cassley,12/10/2019 02:00,8.5,,,,0,,80,,,-,,,,,,,5.4,
Cassley,12/10/2019 03:00,8.1,,,,0,,84,,,-,,,,,,,5.6,
Cassley,12/10/2019 04:00,8.7,,,,0,,80,,,-,,,,,,,5.5,
Cassley,12/10/2019 05:00,8.7,,,,0,,83,,,-,,,,,,,6,
Cassley,12/10/2019 06:00,8.6,,7.1,,0,0,89,,,-,,,,,,,6.9,
Cassley,12/10/2019 07:00,8.4,,,,0.2,,81,,,-,,,,,,,5.4,
Cassley,12/10/2019 08:00,9.4,,,,0,,82,,,-,,,,,,,6.6,
Cassley,12/10/2019 09:00,9.5,,,,0,,84,,,-,,,,,,,7,
Cassley,12/10/2019 10:00,9.4,,,,0.4,,87,,,-,,,,,,,7.5,
Cassley,12/10/2019 11:00,8.9,,,,1.4,,87,,,-,,,,,,,7,
Cassley,12/10/2019 12:00,9.1,,,,3,5,90,,,-,,,,,,,7.6,
Cassley,12/10/2019 13:00,9.7,,,,0.8,,86,,,-,,,,,,,7.5,
Cassley,12/10/2019 14:00,10.8,,,,0.4,,77,,,-,,,,,,,7,
Cassley,12/10/2019 15:00,10.4,,,,0.2,,78,,,-,,,,,,,6.9,
Cassley,12/10/2019 16:00,10.5,,,,0,,75,,,-,,,,,,,6.4,
Cassley,12/10/2019 17:00,9.9,,,,0,,80,,,-,,,,,,,6.7,
Cassley,12/10/2019 18:00,8.3,,,11.2,1,2,87,,,-,,,,,,,6.3,
Cassley,12/10/2019 19:00,8,,,,1.6,,90,,,-,,,,,,,6.6,
Cassley,12/10/2019 20:00,7.8,,,,0,,92,,,-,,,,,,,6.6,
Cassley,12/10/2019 21:00,7.7,,,,0.8,,90,,,-,,,,,,,6.2,
Cassley,12/10/2019 22:00,8,,,,1.4,,95,,,-,,,,,,,7.3,
Cassley,12/10/2019 23:00,7.3,,,,0.8,,94,,,-,,,,,,,6.5,
Cassley,13/10/2019 00:00,6,,,,0,5,95,,,-,,,,,,,5.4,
Cassley,13/10/2019 01:00,5.7,,,,0,,97,,,-,,,,,,,5.3,
Cassley,13/10/2019 02:00,5.2,,,,0,,97,,,-,,,,,,,4.9,
Cassley,13/10/2019 03:00,4.6,,,,0,,98,,,-,,,,,,,4.4,
Cassley,13/10/2019 04:00,4.3,,,,0,,99,,,-,,,,,,,4.2,
Cassley,13/10/2019 05:00,3.8,,,,0,,100,,,-,,,,,,,3.8,
Cassley,13/10/2019 06:00,3.6,,2.6,,0.2,0,100,,,-,,,,,,,3.6,
Cassley,13/10/2019 07:00,3.4,,,,0,,100,,,-,,,,,,,3.4,
Cassley,13/10/2019 08:00,3.7,,,,0,,100,,,-,,,,,,,3.7,
Cassley,13/10/2019 09:00,4.1,,,,0,,100,,,-,,,,,,,4.1,
Cassley,13/10/2019 10:00,5.3,,,,0,,100,,,-,,,,,,,5.3,
Cassley,13/10/2019 11:00,7.6,,,,0,,95,,,-,,,,,,,6.9,
Cassley,13/10/2019 12:00,9.5,,,,0,0,81,,,-,,,,,,,6.5,
Cassley,13/10/2019 13:00,10.5,,,,0,,78,,,-,,,,,,,7,
Cassley,13/10/2019 14:00,10.3,,,,0,,70,,,-,,,,,,,5.2,
Cassley,13/10/2019 15:00,9.7,,,,0,,77,,,-,,,,,,,5.9,
Cassley,13/10/2019 16:00,9.9,,,,0,,77,,,-,,,,,,,6.1,
Cassley,13/10/2019 17:00,8.1,,,,0,,84,,,-,,,,,,,5.6,
Cassley,13/10/2019 18:00,5.7,,,11.7,0,0,90,,,-,,,,,,,4.3,
Cassley,13/10/2019 19:00,4.5,,,,0,,96,,,-,,,,,,,4,
Cassley,13/10/2019 20:00,4.6,,,,0,,98,,,-,,,,,,,4.4,
Cassley,13/10/2019 21:00,4.6,,,,0,,98,,,-,,,,,,,4.4,
Cassley,13/10/2019 22:00,4.6,,,,0,,100,,,-,,,,,,,4.6,
Cassley,13/10/2019 23:00,4.8,,,,0,,98,,,-,,,,,,,4.6,
Cassley,14/10/2019 00:00,4.4,,,,0,0,98,,,-,,,,,,,4.2,
Cassley,14/10/2019 01:00,5.3,,,,0,,100,,,-,,,,,,,5.3,
Cassley,14/10/2019 02:00,5.7,,,,0,,100,,,-,,,,,,,5.7,
Cassley,14/10/2019 03:00,5.7,,,,0,,99,,,-,,,,,,,5.6,
Cassley,14/10/2019 04:00,6.2,,,,0,,100,,,-,,,,,,,6.2,
Cassley,14/10/2019 05:00,6.3,,,,0,,100,,,-,,,,,,,6.3,
Cassley,14/10/2019 06:00,6,,3.4,,0,0,100,,,-,,,,,,,6,
Cassley,14/10/2019 07:00,6.2,,,,0,,100,,,-,,,,,,,6.2,
Cassley,14/10/2019 08:00,6.4,,,,0,,99,,,-,,,,,,,6.3,
Cassley,14/10/2019 09:00,6.5,,,,0,,99,,,-,,,,,,,6.4,
Cassley,14/10/2019 10:00,7,,,,0,,98,,,-,,,,,,,6.8,
Cassley,14/10/2019 11:00,7.5,,,,0,,96,,,-,,,,,,,7,
Cassley,14/10/2019 12:00,8.1,,,,0,0,95,,,-,,,,,,,7.4,
Cassley,14/10/2019 13:00,9.3,,,,0,,90,,,-,,,,,,,7.8,
Cassley,14/10/2019 14:00,9.3,,,,0,,90,,,-,,,,,,,7.8,
Cassley,14/10/2019 15:00,9.5,,,,0,,90,,,-,,,,,,,8,
Cassley,14/10/2019 16:00,9.3,,,,0,,92,,,-,,,,,,,8.1,
Cassley,14/10/2019 17:00,9,,,,0,,91,,,-,,,,,,,7.7,
Cassley,14/10/2019 18:00,8.1,,,9.6,0,0,94,,,-,,,,,,,7.3,
Cassley,14/10/2019 19:00,7.7,,,,0,,94,,,-,,,,,,,6.9,
Cassley,14/10/2019 20:00,7.3,,,,0,,94,,,-,,,,,,,6.5,
Cassley,14/10/2019 21:00,7,,,,0,,96,,,-,,,,,,,6.5,
Cassley,14/10/2019 22:00,7.3,,,,0,,97,,,-,,,,,,,6.9,
Cassley,14/10/2019 23:00,6.2,,,,0,,95,,,-,,,,,,,5.6,
Cassley,15/10/2019 00:00,6.1,,,,0,0,98,,,-,,,,,,,5.9,
Cassley,15/10/2019 01:00,5.8,,,,0,,99,,,-,,,,,,,5.7,
Cassley,15/10/2019 02:00,6.2,,,,0,,98,,,-,,,,,,,6,
Cassley,15/10/2019 03:00,5.8,,,,0,,97,,,-,,,,,,,5.5,
Cassley,15/10/2019 04:00,6.3,,,,0,,99,,,-,,,,,,,6.2,
Cassley,15/10/2019 05:00,6.6,,,,0,,100,,,-,,,,,,,6.6,
Cassley,15/10/2019 06:00,7.2,,5.2,,0,0,99,,,-,,,,,,,7.1,
Cassley,15/10/2019 07:00,6.7,,,,0,,97,,,-,,,,,,,6.3,
Cassley,15/10/2019 08:00,6.8,,,,0,,97,,,-,,,,,,,6.4,
Cassley,15/10/2019 09:00,7.4,,,,0,,93,,,-,,,,,,,6.4,
Cassley,15/10/2019 10:00,9.1,,,,0,,89,,,-,,,,,,,7.5,
Cassley,15/10/2019 11:00,10.7,,,,0.2,,80,,,-,,,,,,,7.5,
Cassley,15/10/2019 12:00,11.8,,,,0,0.2,70,,,-,,,,,,,6.6,
Cassley,15/10/2019 13:00,11.9,,,,0,,70,,,-,,,,,,,6.8,
Cassley,15/10/2019 14:00,11.9,,,,0,,72,,,-,,,,,,,7.1,
Cassley,15/10/2019 15:00,11.3,,,,0,,76,,,-,,,,,,,7.3,
Cassley,15/10/2019 16:00,10.9,,,,0,,81,,,-,,,,,,,7.9,
Cassley,15/10/2019 17:00,10.3,,,,0,,87,,,-,,,,,,,8.3,
Cassley,15/10/2019 18:00,9.7,,,12.2,0,0,89,,,-,,,,,,,8.1,
Cassley,15/10/2019 19:00,8.9,,,,0,,92,,,-,,,,,,,7.7,
Cassley,15/10/2019 20:00,8.6,,,,0,,92,,,-,,,,,,,7.5,
Cassley,15/10/2019 21:00,7.8,,,,0,,94,,,-,,,,,,,6.9,
Cassley,15/10/2019 22:00,8.1,,,,0,,95,,,-,,,,,,,7.5,
Cassley,15/10/2019 23:00,8.3,,,,0,,96,,,-,,,,,,,7.8,
Cassley,16/10/2019 00:00,8.6,,,,0,0,97,,,-,,,,,,,8.2,
Cassley,16/10/2019 01:00,9.1,,,,0,,94,,,-,,,,,,,8.3,
Cassley,16/10/2019 02:00,8.8,,,,0,,94,,,-,,,,,,,8,
Cassley,16/10/2019 03:00,8.9,,,,0,,94,,,-,,,,,,,8,
Cassley,16/10/2019 04:00,8.5,,,,0,,94,,,-,,,,,,,7.7,
Cassley,16/10/2019 05:00,8.3,,,,0,,94,,,-,,,,,,,7.5,
Cassley,16/10/2019 06:00,8.1,,7.5,,0,0,92,,,-,,,,,,,7,
Cassley,16/10/2019 07:00,8.4,,,,0,,95,,,-,,,,,,,7.7,
Cassley,16/10/2019 08:00,8.1,,,,2.2,,97,,,-,,,,,,,7.8,
Cassley,16/10/2019 09:00,8.6,,,,0.2,,97,,,-,,,,,,,8.3,
Cassley,16/10/2019 10:00,9.2,,,,0.2,,96,,,-,,,,,,,8.6,
Cassley,16/10/2019 11:00,9.3,,,,0,,96,,,-,,,,,,,8.7,
Cassley,16/10/2019 12:00,9.7,,,,0.4,3,96,,,-,,,,,,,9.2,
Cassley,16/10/2019 13:00,10.8,,,,0,,85,,,-,,,,,,,8.4,
Cassley,16/10/2019 14:00,11.5,,,,0,,81,,,-,,,,,,,8.5,
Cassley,16/10/2019 15:00,11,,,,0,,78,,,-,,,,,,,7.5,
Cassley,16/10/2019 16:00,10.5,,,,0,,77,,,-,,,,,,,6.8,
Cassley,16/10/2019 17:00,8,,,,0,,84,,,-,,,,,,,5.6,
Cassley,16/10/2019 18:00,5.7,,,11.9,0,0,88,,,-,,,,,,,4,
Cassley,16/10/2019 19:00,5.3,,,,0,,93,,,-,,,,,,,4.4,
Cassley,16/10/2019 20:00,5.2,,,,0,,95,,,-,,,,,,,4.6,
Cassley,16/10/2019 21:00,5,,,,0,,95,,,-,,,,,,,4.3,
Cassley,16/10/2019 22:00,2.9,,,,0,,95,,,-,,,,,,,2.2,
Cassley,16/10/2019 23:00,3.2,,,,0,,99,,,-,,,,,,,3.1,
Cassley,17/10/2019 00:00,2.5,,,,0,0,98,,,-,,,,,,,2.3,
Cassley,17/10/2019 01:00,2.8,,,,0.2,,100,,,-,,,,,,,2.8,
Cassley,17/10/2019 02:00,2.6,,,,0,,100,,,-,,,,,,,2.6,
Cassley,17/10/2019 03:00,2.1,,,,0,,100,,,-,,,,,,,2.1,
Cassley,17/10/2019 04:00,1.8,,,,0,,100,,,-,,,,,,,1.8,
Cassley,17/10/2019 05:00,1.3,,,,0,,100,,,-,,,,,,,1.3,
Cassley,17/10/2019 06:00,1.5,,0.9,,0,0.2,100,,,-,,,,,,,1.5,
Cassley,17/10/2019 07:00,0.9,,,,0.2,,100,,,-,,,,,,,0.9,
Cassley,17/10/2019 08:00,1.4,,,,0,,100,,,-,,,,,,,1.4,
Cassley,17/10/2019 09:00,1.9,,,,0,,100,,,-,,,,,,,1.9,
Cassley,17/10/2019 10:00,3.2,,,,0,,100,,,-,,,,,,,3.2,
Cassley,17/10/2019 11:00,4.5,,,,0,,100,,,-,,,,,,,4.5,
Cassley,17/10/2019 12:00,6.6,,,,0,0.2,93,,,-,,,,,,,5.6,
Cassley,17/10/2019 13:00,8.9,,,,0,,84,,,-,,,,,,,6.4,
Cassley,17/10/2019 14:00,9.6,,,,0,,79,,,-,,,,,,,6.2,
Cassley,17/10/2019 15:00,10.3,,,,0,,77,,,-,,,,,,,6.5,
Cassley,17/10/2019 16:00,8.5,,,,0,,86,,,-,,,,,,,6.3,
Cassley,17/10/2019 17:00,7.5,,,,0,,90,,,-,,,,,,,6.1,
Cassley,17/10/2019 18:00,6.4,,,11,0,0,93,,,-,,,,,,,5.4,
Cassley,17/10/2019 19:00,4.7,,,,0,,93,,,-,,,,,,,3.8,
Cassley,17/10/2019 20:00,4.4,,,,0,,97,,,-,,,,,,,4,
Cassley,17/10/2019 21:00,4.5,,,,0,,97,,,-,,,,,,,4.1,
Cassley,17/10/2019 22:00,5.2,,,,0,,97,,,-,,,,,,,4.9,
Cassley,17/10/2019 23:00,5.3,,,,0,,97,,,-,,,,,,,5,
Cassley,18/10/2019 00:00,5.4,,,,0,0,97,,,-,,,,,,,5.1,
Cassley,18/10/2019 01:00,5.7,,,,0,,98,,,-,,,,,,,5.5,
Cassley,18/10/2019 02:00,4.8,,,,0,,97,,,-,,,,,,,4.4,
Cassley,18/10/2019 03:00,5.1,,,,0,,99,,,-,,,,,,,5,
Cassley,18/10/2019 04:00,5.9,,,,0,,99,,,-,,,,,,,5.8,
Cassley,18/10/2019 05:00,7.2,,,,0,,99,,,-,,,,,,,7.1,
Cassley,18/10/2019 06:00,6.3,,3.8,,0,0,93,,,-,,,,,,,5.4,
Cassley,18/10/2019 07:00,7.3,,,,0.2,,99,,,-,,,,,,,7.2,
Cassley,18/10/2019 08:00,8.2,,,,0.2,,96,,,-,,,,,,,7.7,
Cassley,18/10/2019 09:00,9,,,,0,,87,,,-,,,,,,,7,
Cassley,18/10/2019 10:00,9.5,,,,0,,90,,,-,,,,,,,8,
Cassley,18/10/2019 11:00,9.8,,,,0,,89,,,-,,,,,,,8.2,
Cassley,18/10/2019 12:00,10.4,,,,0,0.4,88,,,-,,,,,,,8.6,
Cassley,18/10/2019 13:00,11.1,,,,0,,83,,,-,,,,,,,8.5,
Cassley,18/10/2019 14:00,11.5,,,,0.2,,80,,,-,,,,,,,8.3,
Cassley,18/10/2019 15:00,10.8,,,,0,,82,,,-,,,,,,,7.9,
Cassley,18/10/2019 16:00,10.2,,,,0.2,,86,,,-,,,,,,,8,
Cassley,18/10/2019 17:00,10,,,,0,,88,,,-,,,,,,,8.2,
Cassley,18/10/2019 18:00,9.9,,,11.8,0.4,0.6,90,,,-,,,,,,,8.5,
Cassley,18/10/2019 19:00,9.5,,,,0,,91,,,-,,,,,,,8.2,
Cassley,18/10/2019 20:00,9.6,,,,0,,90,,,-,,,,,,,8.1,
Cassley,18/10/2019 21:00,9.8,,,,0,,89,,,-,,,,,,,8.1,
Cassley,18/10/2019 22:00,9.5,,,,0.4,,88,,,-,,,,,,,7.7,
Cassley,18/10/2019 23:00,9.5,,,,0,,86,,,-,,,,,,,7.3,
Cassley,19/10/2019 00:00,9.4,,,,0,0.4,85,,,-,,,,,,,7.1,
Cassley,19/10/2019 01:00,9.3,,,,0,,83,,,-,,,,,,,6.6,
Cassley,19/10/2019 02:00,9.3,,,,0,,83,,,-,,,,,,,6.7,
Cassley,19/10/2019 03:00,8.3,,,,0,,84,,,-,,,,,,,5.9,
Cassley,19/10/2019 04:00,7.4,,,,0,,84,,,-,,,,,,,4.9,
Cassley,19/10/2019 05:00,8,,,,0,,87,,,-,,,,,,,6.1,
Cassley,19/10/2019 06:00,8.1,,7.1,,0,0,86,,,-,,,,,,,6,
Cassley,19/10/2019 07:00,8,,,,0,,86,,,-,,,,,,,5.9,
Cassley,19/10/2019 08:00,8.4,,,,0.6,,87,,,-,,,,,,,6.4,
Cassley,19/10/2019 09:00,9.2,,,,0,,86,,,-,,,,,,,7.1,
Cassley,19/10/2019 10:00,9.8,,,,0,,83,,,-,,,,,,,7.1,
Cassley,19/10/2019 11:00,9.4,,,,0.2,,87,,,-,,,,,,,7.4,
Cassley,19/10/2019 12:00,9.3,,,,0.4,1,87,,,-,,,,,,,7.3,
Cassley,19/10/2019 13:00,9.3,,,,0.2,,87,,,-,,,,,,,7.3,
Cassley,19/10/2019 14:00,8.9,,,,0.4,,86,,,-,,,,,,,6.8,
Cassley,19/10/2019 15:00,9.1,,,,0,,86,,,-,,,,,,,7,
Cassley,19/10/2019 16:00,8.8,,,,0,,92,,,-,,,,,,,7.7,
Cassley,19/10/2019 17:00,8.8,,,,0,,86,,,-,,,,,,,6.6,
Cassley,19/10/2019 18:00,8.2,,,10.2,0.2,1,88,,,-,,,,,,,6.4,
Cassley,19/10/2019 19:00,7.6,,,,0.6,,91,,,-,,,,,,,6.3,
Cassley,19/10/2019 20:00,7.7,,,,0.2,,85,,,-,,,,,,,5.5,
Cassley,19/10/2019 21:00,7.1,,,,0.6,,85,,,-,,,,,,,4.8,
Cassley,19/10/2019 22:00,7.1,,,,1,,84,,,-,,,,,,,4.7,
Cassley,19/10/2019 23:00,7.2,,,,0,,76,,,-,,,,,,,3.3,
Cassley,20/10/2019 00:00,6.6,,,,0,2,80,,,-,,,,,,,3.5,
Cassley,20/10/2019 01:00,6.7,,,,0,,82,,,-,,,,,,,3.9,
Cassley,20/10/2019 02:00,6.7,,,,0.2,,84,,,-,,,,,,,4.2,
Cassley,20/10/2019 03:00,7.1,,,,0.2,,82,,,-,,,,,,,4.4,
Cassley,20/10/2019 04:00,6.9,,,,0.2,,81,,,-,,,,,,,3.9,
Cassley,20/10/2019 05:00,6,,,,0,,84,,,-,,,,,,,3.6,
Cassley,20/10/2019 06:00,6.5,,5.3,,0,1,82,,,-,,,,,,,3.8,
Cassley,20/10/2019 07:00,6,,,,0,,81,,,-,,,,,,,3,
Cassley,20/10/2019 08:00,6.2,,,,0,,82,,,-,,,,,,,3.4,
Cassley,20/10/2019 09:00,7,,,,0.2,,81,,,-,,,,,,,4,
Cassley,20/10/2019 10:00,7.6,,,,0,,77,,,-,,,,,,,4,
Cassley,20/10/2019 11:00,8.2,,,,0,,73,,,-,,,,,,,3.8,
Cassley,20/10/2019 12:00,7.3,,,,0,0.2,74,,,-,,,,,,,3,
Cassley,20/10/2019 13:00,8.3,,,,0,,69,,,-,,,,,,,3,
Cassley,20/10/2019 14:00,7.2,,,,0,,81,,,-,,,,,,,4.3,
Cassley,20/10/2019 15:00,7.7,,,,0,,70,,,-,,,,,,,2.6,
Cassley,20/10/2019 16:00,6.8,,,,0,,84,,,-,,,,,,,4.3,
Cassley,20/10/2019 17:00,6.2,,,,0,,80,,,-,,,,,,,3.1,
Cassley,20/10/2019 18:00,5.1,,,8.9,0,0,86,,,-,,,,,,,3.1,
Cassley,20/10/2019 19:00,5.4,,,,0,,86,,,-,,,,,,,3.4,
Cassley,20/10/2019 20:00,5.3,,,,0,,87,,,-,,,,,,,3.4,
Cassley,20/10/2019 21:00,5.2,,,,0,,88,,,-,,,,,,,3.4,
Cassley,20/10/2019 22:00,5.5,,,,0,,85,,,-,,,,,,,3.3,
Cassley,20/10/2019 23:00,5.6,,,,0,,82,,,-,,,,,,,2.8,
Cassley,21/10/2019 00:00,5.4,,,,0,0,82,,,-,,,,,,,2.7,
Cassley,21/10/2019 01:00,5.1,,,,0,,82,,,-,,,,,,,2.4,
Cassley,21/10/2019 02:00,5.4,,,,0,,87,,,-,,,,,,,3.5,
Cassley,21/10/2019 03:00,5.3,,,,0,,82,,,-,,,,,,,2.5,
Cassley,21/10/2019 04:00,5.5,,,,0,,79,,,-,,,,,,,2.3,
Cassley,21/10/2019 05:00,5.3,,,,0,,81,,,-,,,,,,,2.4,
Cassley,21/10/2019 06:00,5,,4.9,,0,0,83,,,-,,,,,,,2.4,
Cassley,21/10/2019 07:00,4.8,,,,0,,79,,,-,,,,,,,1.6,
Cassley,21/10/2019 08:00,5.1,,,,0,,79,,,-,,,,,,,1.8,
Cassley,21/10/2019 09:00,6.3,,,,0,,77,,,-,,,,,,,2.6,
Cassley,21/10/2019 10:00,8.1,,,,0,,70,,,-,,,,,,,3,
Cassley,21/10/2019 11:00,8.9,,,,0,,67,,,-,,,,,,,3.3,
Cassley,21/10/2019 12:00,9.9,,,,0,0,61,,,-,,,,,,,2.9,
Cassley,21/10/2019 13:00,9.3,,,,0,,64,,,-,,,,,,,3,
Cassley,21/10/2019 14:00,9.5,,,,0,,66,,,-,,,,,,,3.6,
Cassley,21/10/2019 15:00,9.4,,,,0,,68,,,-,,,,,,,4,
Cassley,21/10/2019 16:00,9.2,,,,0,,71,,,-,,,,,,,4.3,
Cassley,21/10/2019 17:00,9.1,,,,0,,74,,,-,,,,,,,4.9,
Cassley,21/10/2019 18:00,9.2,,,10.1,0,0,74,,,-,,,,,,,4.9,
Cassley,21/10/2019 19:00,9.2,,,,0,,77,,,-,,,,,,,5.4,
Cassley,21/10/2019 20:00,9.8,,,,0,,74,,,-,,,,,,,5.4,
Cassley,21/10/2019 21:00,9.8,,,,0,,74,,,-,,,,,,,5.5,
Cassley,21/10/2019 22:00,10.3,,,,0,,71,,,-,,,,,,,5.3,
Cassley,21/10/2019 23:00,10.3,,,,0,,73,,,-,,,,,,,5.8,
Cassley,22/10/2019 00:00,10.7,,,,0,0,73,,,-,,,,,,,6.1,
Cassley,22/10/2019 01:00,11,,,,0,,73,,,-,,,,,,,6.5,
Cassley,22/10/2019 02:00,11.4,,,,0,,73,,,-,,,,,,,6.9,
Cassley,22/10/2019 03:00,11.1,,,,0,,80,,,-,,,,,,,7.8,
Cassley,22/10/2019 04:00,10.6,,,,0.6,,83,,,-,,,,,,,8,
Cassley,22/10/2019 05:00,11.1,,,,0.4,,82,,,-,,,,,,,8.3,
Cassley,22/10/2019 06:00,10.9,,8.9,,0.2,1,85,,,-,,,,,,,8.5,
Cassley,22/10/2019 07:00,11,,,,0.8,,86,,,-,,,,,,,8.8,
Cassley,22/10/2019 08:00,11.7,,,,0.8,,84,,,-,,,,,,,9.1,
Cassley,22/10/2019 09:00,11.6,,,,0.6,,84,,,-,,,,,,,9.1,
Cassley,22/10/2019 10:00,11.5,,,,0.4,,87,,,-,,,,,,,9.5,
Cassley,22/10/2019 11:00,12.2,,,,0,,81,,,-,,,,,,,9.2,
Cassley,22/10/2019 12:00,12.8,,,,0.2,3,76,,,-,,,,,,,8.8,
Cassley,22/10/2019 13:00,12.4,,,,0,,77,,,-,,,,,,,8.5,
Cassley,22/10/2019 14:00,12.4,,,,0,,76,,,-,,,,,,,8.4,
Cassley,22/10/2019 15:00,13.2,,,,0,,70,,,-,,,,,,,7.9,
Cassley,22/10/2019 16:00,12.6,,,,0,,73,,,-,,,,,,,7.9,
Cassley,22/10/2019 17:00,12.1,,,,0,,74,,,-,,,,,,,7.8,
Cassley,22/10/2019 18:00,12.1,,,13.6,0,0,71,,,-,,,,,,,7.1,
Cassley,22/10/2019 19:00,12.5,,,,0,,69,,,-,,,,,,,7,
Cassley,22/10/2019 20:00,12.4,,,,0,,71,,,-,,,,,,,7.3,
Cassley,22/10/2019 21:00,12.2,,,,0,,72,,,-,,,,,,,7.5,
Cassley,22/10/2019 22:00,11.1,,,,0,,82,,,-,,,,,,,8.2,
Cassley,22/10/2019 23:00,10.5,,,,0,,89,,,-,,,,,,,8.9,
Cassley,23/10/2019 00:00,10.4,,,,0,0,90,,,-,,,,,,,8.9,
Cassley,23/10/2019 01:00,10.2,,,,0.4,,94,,,-,,,,,,,9.3,
Cassley,23/10/2019 02:00,10.1,,,,0.4,,94,,,-,,,,,,,9.2,
Cassley,23/10/2019 03:00,10.4,,,,0,,90,,,-,,,,,,,8.9,
Cassley,23/10/2019 04:00,10,,,,0.2,,94,,,-,,,,,,,9.1,
Cassley,23/10/2019 05:00,10.1,,,,0,,89,,,-,,,,,,,8.4,
Cassley,23/10/2019 06:00,10.3,,9.8,,0,1,87,,,-,,,,,,,8.4,
Cassley,23/10/2019 07:00,10.5,,,,0,,86,,,-,,,,,,,8.4,
Cassley,23/10/2019 08:00,11,,,,0,,81,,,-,,,,,,,8,
Cassley,23/10/2019 09:00,10.5,,,,0.6,,86,,,-,,,,,,,8.3,
Cassley,23/10/2019 10:00,10.6,,,,0.2,,87,,,-,,,,,,,8.6,
Cassley,23/10/2019 11:00,11,,,,0,,83,,,-,,,,,,,8.4,
Cassley,23/10/2019 12:00,11.6,,,,0,0.8,77,,,-,,,,,,,7.8,
Cassley,23/10/2019 13:00,12.7,,,,0,,70,,,-,,,,,,,7.5,
Cassley,23/10/2019 14:00,13.2,,,,0,,66,,,-,,,,,,,7.1,
Cassley,23/10/2019 15:00,12.9,,,,0,,70,,,-,,,,,,,7.7,
Cassley,23/10/2019 16:00,12.5,,,,0,,72,,,-,,,,,,,7.7,
Cassley,23/10/2019 17:00,12.1,,,,0,,73,,,-,,,,,,,7.6,
Cassley,23/10/2019 18:00,10.8,,,13.3,0,0,81,,,-,,,,,,,7.7,
Cassley,23/10/2019 19:00,10.8,,,,0,,82,,,-,,,,,,,7.9,
Cassley,23/10/2019 20:00,10.4,,,,0.2,,86,,,-,,,,,,,8.3,
Cassley,23/10/2019 21:00,10.3,,,,0.2,,91,,,-,,,,,,,8.9,
Cassley,23/10/2019 22:00,11.3,,,,0.4,,85,,,-,,,,,,,9,
Cassley,23/10/2019 23:00,10.6,,,,0.6,,89,,,-,,,,,,,8.9,
Cassley,24/10/2019 00:00,11.1,,,,1.2,3,78,,,-,,,,,,,7.5,
Cassley,24/10/2019 01:00,10.3,,,,0,,82,,,-,,,,,,,7.4,
Cassley,24/10/2019 02:00,10.1,,,,1.6,,82,,,-,,,,,,,7.2,
Cassley,24/10/2019 03:00,10.1,,,,0.2,,83,,,-,,,,,,,7.4,
Cassley,24/10/2019 04:00,10.2,,,,0,,83,,,-,,,,,,,7.6,
Cassley,24/10/2019 05:00,8.1,,,,0,,94,,,-,,,,,,,7.2,
Cassley,24/10/2019 06:00,7.8,,6.9,,0,1,88,,,-,,,,,,,6,
Cassley,24/10/2019 07:00,8.3,,,,0,,87,,,-,,,,,,,6.3,
Cassley,24/10/2019 08:00,9.5,,,,0,,80,,,-,,,,,,,6.4,
Cassley,24/10/2019 09:00,9.8,,,,0.2,,83,,,-,,,,,,,7.1,
Cassley,24/10/2019 10:00,9.8,,,,1.2,,81,,,-,,,,,,,6.7,
Cassley,24/10/2019 11:00,9.2,,,,0.4,,82,,,-,,,,,,,6.4,
Cassley,24/10/2019 12:00,7.5,,,,0.6,2,82,,,-,,,,,,,4.7,
Cassley,24/10/2019 13:00,7,,,,0.2,,86,,,-,,,,,,,4.9,
Cassley,24/10/2019 14:00,6.8,,,,0.4,,82,,,-,,,,,,,4,
Cassley,24/10/2019 15:00,5.5,,,,0,,82,,,-,,,,,,,2.7,
Cassley,24/10/2019 16:00,4.9,,,,0.2,,86,,,-,,,,,,,2.9,
Cassley,24/10/2019 17:00,3.6,,,,0,,81,,,-,,,,,,,0.7,
Cassley,24/10/2019 18:00,4.6,,,10.5,0,1,79,,,-,,,,,,,1.3,
Cassley,24/10/2019 19:00,4.3,,,,0.4,,84,,,-,,,,,,,1.9,
Cassley,24/10/2019 20:00,3.8,,,,0.2,,83,,,-,,,,,,,1.3,
Cassley,24/10/2019 21:00,4.3,,,,0.2,,76,,,-,,,,,,,0.5,
Cassley,24/10/2019 22:00,3.8,,,,0,,70,,,-,,,,,,,-1.1,
Cassley,24/10/2019 23:00,3.2,,,,0.4,,73,,,-,,,,,,,-1.1,
Cassley,25/10/2019 00:00,2.4,,,,1,2,85,,,-,,,,,,,0.3,
Cassley,25/10/2019 01:00,3.9,,,,0.6,,70,,,-,,,,,,,-1,
Cassley,25/10/2019 02:00,2.9,,,,0.8,,80,,,-,,,,,,,-0.2,
Cassley,25/10/2019 03:00,2.4,,,,2.4,,85,,,-,,,,,,,0.2,
Cassley,25/10/2019 04:00,2.7,,,,2.2,,84,,,-,,,,,,,0.4,
Cassley,25/10/2019 05:00,4.5,,,,1.2,,67,,,-,,,,,,,-0.9,
Cassley,25/10/2019 06:00,4,,1.8,,0,7,73,,,-,,,,,,,-0.3,
Cassley,25/10/2019 07:00,4,,,,0.4,,77,,,-,,,,,,,0.5,
Cassley,25/10/2019 08:00,4.7,,,,1.4,,76,,,-,,,,,,,0.9,
Cassley,25/10/2019 09:00,3.9,,,,2,,80,,,-,,,,,,,0.9,
Cassley,25/10/2019 10:00,5.9,,,,2,,70,,,-,,,,,,,0.9,
Cassley,25/10/2019 11:00,5.8,,,,0.4,,73,,,-,,,,,,,1.4,
Cassley,25/10/2019 12:00,5.7,,,,0.6,7,75,,,-,,,,,,,1.7,
Cassley,25/10/2019 13:00,5.8,,,,0.8,,73,,,-,,,,,,,1.4,
Cassley,25/10/2019 14:00,6,,,,1.4,,70,,,-,,,,,,,1,
Cassley,25/10/2019 15:00,5.6,,,,1.6,,77,,,-,,,,,,,1.9,
Cassley,25/10/2019 16:00,4.7,,,,1.6,,80,,,-,,,,,,,1.6,
Cassley,25/10/2019 17:00,5.4,,,,1.4,,73,,,-,,,,,,,1.1,
Cassley,25/10/2019 18:00,5.4,,,6.7,0.4,7,74,,,-,,,,,,,1.2,
Cassley,25/10/2019 19:00,5.9,,,,0.6,,74,,,-,,,,,,,1.7,
Cassley,25/10/2019 20:00,5.4,,,,1.2,,79,,,-,,,,,,,2.1,
Cassley,25/10/2019 21:00,5.5,,,,0.2,,73,,,-,,,,,,,1.2,
Cassley,25/10/2019 22:00,5.5,,,,1.2,,75,,,-,,,,,,,1.6,
Cassley,25/10/2019 23:00,5.7,,,,0,,74,,,-,,,,,,,1.5,
Cassley,26/10/2019 00:00,5.5,,,,0.4,4,80,,,-,,,,,,,2.5,
Cassley,26/10/2019 01:00,5.5,,,,0.4,,80,,,-,,,,,,,2.5,
Cassley,26/10/2019 02:00,5.5,,,,2.2,,84,,,-,,,,,,,3.1,
Cassley,26/10/2019 03:00,5.4,,,,0.8,,84,,,-,,,,,,,3,
Cassley,26/10/2019 04:00,5.8,,,,0.8,,85,,,-,,,,,,,3.5,
Cassley,26/10/2019 05:00,5.6,,,,1.4,,85,,,-,,,,,,,3.4,
Cassley,26/10/2019 06:00,5.1,,3.4,,2.8,8,89,,,-,,,,,,,3.5,
Cassley,26/10/2019 07:00,5.3,,,,1.4,,88,,,-,,,,,,,3.5,
Cassley,26/10/2019 08:00,5.7,,,,0.6,,88,,,-,,,,,,,3.9,
Cassley,26/10/2019 09:00,6.2,,,,1,,86,,,-,,,,,,,4.1,
Cassley,26/10/2019 10:00,6.4,,,,1.4,,84,,,-,,,,,,,4,
Cassley,26/10/2019 11:00,6.9,,,,0,,82,,,-,,,,,,,4.1,
Cassley,26/10/2019 12:00,6.6,,,,0.2,5,83,,,-,,,,,,,4,
Cassley,26/10/2019 13:00,6.7,,,,0.4,,85,,,-,,,,,,,4.4,
Cassley,26/10/2019 14:00,6.5,,,,0,,79,,,-,,,,,,,3.3,
Cassley,26/10/2019 15:00,6.7,,,,0,,80,,,-,,,,,,,3.6,
Cassley,26/10/2019 16:00,6.4,,,,0.2,,82,,,-,,,,,,,3.7,
Cassley,26/10/2019 17:00,5.8,,,,0.8,,89,,,-,,,,,,,4.2,
Cassley,26/10/2019 18:00,5.2,,,7.4,2,3,88,,,-,,,,,,,3.5,
Cassley,26/10/2019 19:00,6.2,,,,1.8,,88,,,-,,,,,,,4.4,
Cassley,26/10/2019 20:00,6.5,,,,2,,88,,,-,,,,,,,4.7,
Cassley,26/10/2019 21:00,6.5,,,,0.8,,88,,,-,,,,,,,4.7,
Cassley,26/10/2019 22:00,6.1,,,,2.8,,91,,,-,,,,,,,4.8,
Cassley,26/10/2019 23:00,6.9,,,,1,,86,,,-,,,,,,,4.8,
Cassley,27/10/2019 00:00,6.8,,,,1.2,10,85,,,-,,,,,,,4.5,
Cassley,27/10/2019 01:00,5.5,,,,6.8,,93,,,-,,,,,,,4.6,
Cassley,27/10/2019 02:00,6.3,,,,5.8,,95,,,-,,,,,,,5.7,
Cassley,27/10/2019 03:00,7.1,,,,2,,92,,,-,,,,,,,5.9,
Cassley,27/10/2019 04:00,7.2,,,,1,,89,,,-,,,,,,,5.6,
Cassley,27/10/2019 05:00,5.8,,,,2.2,,88,,,-,,,,,,,4,
Cassley,27/10/2019 06:00,7.1,,4.7,,1,18,87,,,-,,,,,,,5.1,
Cassley,27/10/2019 07:00,6.9,,,,3,,93,,,-,,,,,,,5.9,
Cassley,27/10/2019 08:00,7.1,,,,2.4,,92,,,-,,,,,,,6,
Cassley,27/10/2019 09:00,7,,,,1,,90,,,-,,,,,,,5.6,
Cassley,27/10/2019 10:00,6.7,,,,2.4,,90,,,-,,,,,,,5.3,
Cassley,27/10/2019 11:00,7.8,,,,0.6,,83,,,-,,,,,,,5.2,
Cassley,27/10/2019 12:00,6.2,,,,0.4,10,89,,,-,,,,,,,4.6,
Cassley,27/10/2019 13:00,6.8,,,,0.4,,80,,,-,,,,,,,3.6,
Cassley,27/10/2019 14:00,7.1,,,,0.2,,88,,,-,,,,,,,5.3,
Cassley,27/10/2019 15:00,5.9,,,,0.2,,88,,,-,,,,,,,4.1,
Cassley,27/10/2019 16:00,5.8,,,,0,,82,,,-,,,,,,,3.1,
Cassley,27/10/2019 17:00,4.8,,,,0.8,,89,,,-,,,,,,,3.2,
Cassley,27/10/2019 18:00,4.9,,,8.1,0.2,2,90,,,-,,,,,,,3.5,
Cassley,27/10/2019 19:00,5.2,,,,0.2,,89,,,-,,,,,,,3.6,
Cassley,27/10/2019 20:00,3.6,,,,0.8,,88,,,-,,,,,,,1.9,
Cassley,27/10/2019 21:00,3.8,,,,0.6,,89,,,-,,,,,,,2.2,
Cassley,27/10/2019 22:00,3.9,,,,0.2,,91,,,-,,,,,,,2.6,
Cassley,27/10/2019 23:00,4.8,,,,0,,80,,,-,,,,,,,1.7,
Cassley,28/10/2019 00:00,4.4,,,,0,2,71,,,-,,,,,,,-0.3,
Cassley,28/10/2019 01:00,3.9,,,,0.2,,89,,,-,,,,,,,2.4,
Cassley,28/10/2019 02:00,4.3,,,,0.2,,89,,,-,,,,,,,2.7,
Cassley,28/10/2019 03:00,3.1,,,,0.2,,87,,,-,,,,,,,1.2,
Cassley,28/10/2019 04:00,3.4,,,,0,,91,,,-,,,,,,,2.2,
Cassley,28/10/2019 05:00,3.1,,,,0.2,,89,,,-,,,,,,,1.6,
Cassley,28/10/2019 06:00,4.2,,2.4,,0.2,1,89,,,-,,,,,,,2.7,
Cassley,28/10/2019 07:00,3.4,,,,0,,89,,,-,,,,,,,1.8,
Cassley,28/10/2019 08:00,2.8,,,,0,,90,,,-,,,,,,,1.4,
Cassley,28/10/2019 09:00,3.7,,,,0,,86,,,-,,,,,,,1.7,
Cassley,28/10/2019 10:00,6.2,,,,0,,79,,,-,,,,,,,2.9,
Cassley,28/10/2019 11:00,7,,,,0,,75,,,-,,,,,,,2.9,
Cassley,28/10/2019 12:00,6.7,,,,0,0,81,,,-,,,,,,,3.8,
Cassley,28/10/2019 13:00,7,,,,0,,79,,,-,,,,,,,3.7,
Cassley,28/10/2019 14:00,6.5,,,,0,,79,,,-,,,,,,,3.3,
Cassley,28/10/2019 15:00,6.2,,,,0.2,,84,,,-,,,,,,,3.8,
Cassley,28/10/2019 16:00,5.1,,,,0,,85,,,-,,,,,,,2.8,
Cassley,28/10/2019 17:00,4.8,,,,0,,84,,,-,,,,,,,2.4,
Cassley,28/10/2019 18:00,3.7,,,7.4,0,0.2,90,,,-,,,,,,,2.3,
Cassley,28/10/2019 19:00,3.5,,,,0.2,,89,,,-,,,,,,,1.9,
Cassley,28/10/2019 20:00,4,,,,0,,93,,,-,,,,,,,3,
Cassley,28/10/2019 21:00,1.8,,,,0,,91,,,-,,,,,,,0.6,
Cassley,28/10/2019 22:00,1.5,,,,0,,93,,,-,,,,,,,0.5,
Cassley,28/10/2019 23:00,1.7,,,,0,,97,,,-,,,,,,,1.4,
Cassley,29/10/2019 00:00,2.9,,,,0,0.2,97,,,-,,,,,,,2.5,
Cassley,29/10/2019 01:00,1.7,,,,0,,93,,,-,,,,,,,0.7,
Cassley,29/10/2019 02:00,1.4,,,,0,,94,,,-,,,,,,,0.6,
Cassley,29/10/2019 03:00,1.2,,,,0,,97,,,-,,,,,,,0.8,
Cassley,29/10/2019 04:00,1.5,,,,0,,97,,,-,,,,,,,1.2,
Cassley,29/10/2019 05:00,1,,,,0,,98,,,-,,,,,,,0.8,
Cassley,29/10/2019 06:00,0.8,,0.4,,0,0,99,,,-,,,,,,,0.7,
Cassley,29/10/2019 07:00,0.7,,,,0,,97,,,-,,,,,,,0.3,
Cassley,29/10/2019 08:00,0.2,,,,0,,97,,,-,,,,,,,-0.1,
Cassley,29/10/2019 09:00,1.8,,,,0,,99,,,-,,,,,,,1.7,
Cassley,29/10/2019 10:00,3.5,,,,0.2,,97,,,-,,,,,,,3.1,
Cassley,29/10/2019 11:00,4.2,,,,0,,92,,,-,,,,,,,3.1,
Cassley,29/10/2019 12:00,6.7,,,,0,0.2,84,,,-,,,,,,,4.3,
Cassley,29/10/2019 13:00,8.2,,,,0,,76,,,-,,,,,,,4.3,
Cassley,29/10/2019 14:00,5.4,,,,0,,83,,,-,,,,,,,2.8,
Cassley,29/10/2019 15:00,10.2,,,,0,,65,,,-,,,,,,,4,
Cassley,29/10/2019 16:00,4.1,,,,0,,86,,,-,,,,,,,2.1,
Cassley,29/10/2019 17:00,2.1,,,,0,,88,,,-,,,,,,,0.4,
Cassley,29/10/2019 18:00,1.9,,,10.3,0,0,93,,,-,,,,,,,1,
Cassley,29/10/2019 19:00,1.3,,,,0,,95,,,-,,,,,,,0.6,
Cassley,29/10/2019 20:00,0.6,,,,0,,95,,,-,,,,,,,0,
Cassley,29/10/2019 21:00,0.1,,,,0,,97,,,-,,,,,,,-0.2,
Cassley,29/10/2019 22:00,-0.2,,,,0,,98,,,-,,,,,,,-0.4,
Cassley,29/10/2019 23:00,-1.4,,,,0,,97,,,-,,,,,,,-1.7,
Cassley,30/10/2019 00:00,-0.1,,,,0,0,100,,,-,,,,,,,-0.1,
Cassley,30/10/2019 01:00,0.1,,,,0,,100,,,-,,,,,,,0.1,
Cassley,30/10/2019 02:00,0.5,,,,0,,100,,,-,,,,,,,0.5,
Cassley,30/10/2019 03:00,-0.1,,,,0,,99,,,-,,,,,,,-0.2,
Cassley,30/10/2019 04:00,-0.6,,,,0,,100,,,-,,,,,,,-0.6,
Cassley,30/10/2019 05:00,-0.6,,,,0,,100,,,-,,,,,,,-0.6,
Cassley,30/10/2019 06:00,-0.5,,-1.5,,0,0,100,,,-,,,,,,,-0.5,
Cassley,30/10/2019 07:00,-1.1,,,,0,,100,,,-,,,,,,,-1.1,
Cassley,30/10/2019 08:00,-0.7,,,,0,,100,,,-,,,,,,,-0.7,
Cassley,30/10/2019 09:00,-0.6,,,,0,,100,,,-,,,,,,,-0.6,
Cassley,30/10/2019 10:00,-0.1,,,,0,,100,,,-,,,,,,,-0.1,
Cassley,30/10/2019 11:00,0.7,,,,0.2,,100,,,-,,,,,,,0.7,
Cassley,30/10/2019 12:00,1.5,,,,0,0.2,100,,,-,,,,,,,1.5,
Cassley,30/10/2019 13:00,2.1,,,,0,,100,,,-,,,,,,,2.1,
Cassley,30/10/2019 14:00,3.1,,,,0,,97,,,-,,,,,,,2.7,
Cassley,30/10/2019 15:00,4.1,,,,0,,93,,,-,,,,,,,3.1,
Cassley,30/10/2019 16:00,4.5,,,,0,,93,,,-,,,,,,,3.5,
Cassley,30/10/2019 17:00,1.8,,,,0,,90,,,-,,,,,,,0.4,
Cassley,30/10/2019 18:00,2.2,,,5.6,0,0,97,,,-,,,,,,,1.8,
Cassley,30/10/2019 19:00,1.7,,,,0,,94,,,-,,,,,,,0.9,
Cassley,30/10/2019 20:00,0.4,,,,0,,96,,,-,,,,,,,-0.1,
Cassley,30/10/2019 21:00,0.2,,,,0,,98,,,-,,,,,,,0,
Cassley,30/10/2019 22:00,-0.5,,,,0,,97,,,-,,,,,,,-0.8,
Cassley,30/10/2019 23:00,-0.5,,,,0,,100,,,-,,,,,,,-0.5,
Cassley,31/10/2019 00:00,-1.5,,,,0,0,100,,,-,,,,,,,-1.5,
Dalwhinnie,01/09/2019 00:00,8.9,,,,0.4,0.6,83,,,-,,,,,,,6.2,
Dalwhinnie,01/09/2019 01:00,8.9,,,,0,,80,,,-,,,,,,,5.8,
Dalwhinnie,01/09/2019 02:00,8.9,,,,0,,82,,,-,,,,,,,6,
Dalwhinnie,01/09/2019 03:00,8.9,,,,0,,83,,,-,,,,,,,6.2,
Dalwhinnie,01/09/2019 04:00,8.8,,,,0,,84,,,-,,,,,,,6.4,
Dalwhinnie,01/09/2019 05:00,8.7,,,,0,,83,,,-,,,,,,,6,
Dalwhinnie,01/09/2019 06:00,8.4,,8.2,,0,0,85,,,-,,,,,,,6.1,
Dalwhinnie,01/09/2019 07:00,8.7,,,,0,,81,,,-,,,,,,,5.8,
Dalwhinnie,01/09/2019 08:00,9.4,,,,0,,76,,,-,,,,,,,5.4,
Dalwhinnie,01/09/2019 09:00,9.6,,,,0,,72,,,-,,,,,,,5,
Dalwhinnie,01/09/2019 10:00,9.3,,,,0,,77,,,-,,,,,,,5.5,
Dalwhinnie,01/09/2019 11:00,11.3,,,,0,,69,,,-,,,,,,,6,
Dalwhinnie,01/09/2019 12:00,11.9,,,,0,0,55,,,-,,,,,,,3.2,
Dalwhinnie,01/09/2019 13:00,12,,,,0,,59,,,-,,,,,,,4.4,
Dalwhinnie,01/09/2019 14:00,12.8,,,,0,,57,,,-,,,,,,,4.7,
Dalwhinnie,01/09/2019 15:00,11.3,,,,1.2,,69,,,-,,,,,,,5.9,
Dalwhinnie,01/09/2019 16:00,9.8,,,,0,,77,,,-,,,,,,,6,
Dalwhinnie,01/09/2019 17:00,10.6,,,,0.8,,66,,,-,,,,,,,4.7,
Dalwhinnie,01/09/2019 18:00,9.3,,,13,0,2,78,,,-,,,,,,,5.8,
Dalwhinnie,01/09/2019 19:00,8.1,,,,0,,80,,,-,,,,,,,5,
Dalwhinnie,01/09/2019 20:00,7.4,,,,0,,83,,,-,,,,,,,4.8,
Dalwhinnie,01/09/2019 21:00,7.6,,,,0.2,,82,,,-,,,,,,,4.8,
Dalwhinnie,01/09/2019 22:00,6.4,,,,0,,87,,,-,,,,,,,4.5,
Dalwhinnie,01/09/2019 23:00,5.8,,,,0,,93,,,-,,,,,,,4.8,
Dalwhinnie,02/09/2019 00:00,4.9,,,,0,0.2,93,,,-,,,,,,,4,
Dalwhinnie,02/09/2019 01:00,5,,,,0,,93,,,-,,,,,,,4.1,
Dalwhinnie,02/09/2019 02:00,7.1,,,,0,,93,,,-,,,,,,,6.1,
Dalwhinnie,02/09/2019 03:00,7.7,,,,0,,90,,,-,,,,,,,6.3,
Dalwhinnie,02/09/2019 04:00,8,,,,0,,87,,,-,,,,,,,6,
Dalwhinnie,02/09/2019 05:00,8.2,,,,0,,89,,,-,,,,,,,6.5,
Dalwhinnie,02/09/2019 06:00,8.5,,4.3,,0,0,89,,,-,,,,,,,6.8,
Dalwhinnie,02/09/2019 07:00,8.8,,,,0,,92,,,-,,,,,,,7.6,
Dalwhinnie,02/09/2019 08:00,8.9,,,,0.2,,89,,,-,,,,,,,7.2,
Dalwhinnie,02/09/2019 09:00,9.7,,,,0.2,,87,,,-,,,,,,,7.8,
Dalwhinnie,02/09/2019 10:00,10.6,,,,0,,91,,,-,,,,,,,9.2,
Dalwhinnie,02/09/2019 11:00,12.3,,,,0.2,,91,,,-,,,,,,,10.9,
Dalwhinnie,02/09/2019 12:00,12.7,,,,0.4,1,89,,,-,,,,,,,11,
Dalwhinnie,02/09/2019 13:00,13.2,,,,1.4,,90,,,-,,,,,,,11.6,
Dalwhinnie,02/09/2019 14:00,13,,,,0.4,,91,,,-,,,,,,,11.7,
Dalwhinnie,02/09/2019 15:00,13.8,,,,0,,87,,,-,,,,,,,11.8,
Dalwhinnie,02/09/2019 16:00,13.2,,,,1.2,,91,,,-,,,,,,,11.8,
Dalwhinnie,02/09/2019 17:00,13.2,,,,0.6,,90,,,-,,,,,,,11.7,
Dalwhinnie,02/09/2019 18:00,13.3,,,13.8,0.2,4,89,,,-,,,,,,,11.6,
Dalwhinnie,02/09/2019 19:00,13.2,,,,0,,85,,,-,,,,,,,10.9,
Dalwhinnie,02/09/2019 20:00,13.1,,,,0,,86,,,-,,,,,,,10.9,
Dalwhinnie,02/09/2019 21:00,13,,,,0,,85,,,-,,,,,,,10.7,
Dalwhinnie,02/09/2019 22:00,12.7,,,,0,,86,,,-,,,,,,,10.5,
Dalwhinnie,02/09/2019 23:00,12.4,,,,0,,87,,,-,,,,,,,10.3,
Dalwhinnie,03/09/2019 00:00,12.4,,,,0,0,85,,,-,,,,,,,10.1,
Dalwhinnie,03/09/2019 01:00,12.5,,,,0,,84,,,-,,,,,,,10,
Dalwhinnie,03/09/2019 02:00,12.3,,,,0,,84,,,-,,,,,,,9.8,
Dalwhinnie,03/09/2019 03:00,12.3,,,,0,,84,,,-,,,,,,,9.7,
Dalwhinnie,03/09/2019 04:00,12.1,,,,0,,85,,,-,,,,,,,9.7,
Dalwhinnie,03/09/2019 05:00,11.5,,,,0,,91,,,-,,,,,,,10.2,
Dalwhinnie,03/09/2019 06:00,11.5,,11.4,,0,0,92,,,-,,,,,,,10.4,
Dalwhinnie,03/09/2019 07:00,12.1,,,,0,,89,,,-,,,,,,,10.5,
Dalwhinnie,03/09/2019 08:00,12.4,,,,0,,89,,,-,,,,,,,10.8,
Dalwhinnie,03/09/2019 09:00,12.4,,,,0,,90,,,-,,,,,,,10.9,
Dalwhinnie,03/09/2019 10:00,12.7,,,,0.2,,94,,,-,,,,,,,11.9,
Dalwhinnie,03/09/2019 11:00,13.3,,,,0,,92,,,-,,,,,,,12.1,
Dalwhinnie,03/09/2019 12:00,14,,,,0,0.2,90,,,-,,,,,,,12.4,
Dalwhinnie,03/09/2019 13:00,14.2,,,,0,,90,,,-,,,,,,,12.6,
Dalwhinnie,03/09/2019 14:00,14.1,,,,0.8,,94,,,-,,,,,,,13.2,
Dalwhinnie,03/09/2019 15:00,14.7,,,,0,,93,,,-,,,,,,,13.6,
Dalwhinnie,03/09/2019 16:00,14.7,,,,1.4,,88,,,-,,,,,,,12.8,
Dalwhinnie,03/09/2019 17:00,13.5,,,,0,,87,,,-,,,,,,,11.4,
Dalwhinnie,03/09/2019 18:00,13.2,,,14.9,0,1.8,90,,,-,,,,,,,11.7,
Dalwhinnie,03/09/2019 19:00,13.3,,,,0,,88,,,-,,,,,,,11.5,
Dalwhinnie,03/09/2019 20:00,13.4,,,,0,,82,,,-,,,,,,,10.5,
Dalwhinnie,03/09/2019 21:00,12.4,,,,0,,81,,,-,,,,,,,9.4,
Dalwhinnie,03/09/2019 22:00,11.6,,,,0,,80,,,-,,,,,,,8.3,
Dalwhinnie,03/09/2019 23:00,9.5,,,,0,,87,,,-,,,,,,,7.5,
Dalwhinnie,04/09/2019 00:00,8.5,,,,0,0,87,,,-,,,,,,,6.6,
Dalwhinnie,04/09/2019 01:00,9.9,,,,0,,83,,,-,,,,,,,7.2,
Dalwhinnie,04/09/2019 02:00,8.9,,,,0.4,,84,,,-,,,,,,,6.5,
Dalwhinnie,04/09/2019 03:00,7.6,,,,0,,82,,,-,,,,,,,4.9,
Dalwhinnie,04/09/2019 04:00,8.2,,,,0,,76,,,-,,,,,,,4.3,
Dalwhinnie,04/09/2019 05:00,8.1,,,,0,,76,,,-,,,,,,,4.3,
Dalwhinnie,04/09/2019 06:00,7,,6.6,,0,0.4,84,,,-,,,,,,,4.5,
Dalwhinnie,04/09/2019 07:00,8.7,,,,0,,79,,,-,,,,,,,5.4,
Dalwhinnie,04/09/2019 08:00,8.9,,,,0,,83,,,-,,,,,,,6.2,
Dalwhinnie,04/09/2019 09:00,9.2,,,,0,,83,,,-,,,,,,,6.5,
Dalwhinnie,04/09/2019 10:00,9.3,,,,0.4,,84,,,-,,,,,,,6.9,
Dalwhinnie,04/09/2019 11:00,8.6,,,,2,,89,,,-,,,,,,,6.9,
Dalwhinnie,04/09/2019 12:00,10,,,,0.8,3,88,,,-,,,,,,,8.2,
Dalwhinnie,04/09/2019 13:00,9.8,,,,0.2,,91,,,-,,,,,,,8.5,
Dalwhinnie,04/09/2019 14:00,12.8,,,,0,,73,,,-,,,,,,,8.1,
Dalwhinnie,04/09/2019 15:00,11,,,,0.2,,76,,,-,,,,,,,7.1,
Dalwhinnie,04/09/2019 16:00,9.4,,,,1.2,,84,,,-,,,,,,,6.9,
Dalwhinnie,04/09/2019 17:00,8.4,,,,0,,84,,,-,,,,,,,6,
Dalwhinnie,04/09/2019 18:00,7.9,,,13.2,0,2,84,,,-,,,,,,,5.4,
Dalwhinnie,04/09/2019 19:00,7.3,,,,0,,81,,,-,,,,,,,4.3,
Dalwhinnie,04/09/2019 20:00,6.7,,,,0.4,,86,,,-,,,,,,,4.6,
Dalwhinnie,04/09/2019 21:00,6.7,,,,0,,80,,,-,,,,,,,3.5,
Dalwhinnie,04/09/2019 22:00,6.6,,,,0.2,,78,,,-,,,,,,,3.2,
Dalwhinnie,04/09/2019 23:00,6.1,,,,0,,78,,,-,,,,,,,2.6,
Dalwhinnie,05/09/2019 00:00,6.1,,,,0,0.6,80,,,-,,,,,,,3,
Dalwhinnie,05/09/2019 01:00,6.8,,,,0,,69,,,-,,,,,,,1.6,
Dalwhinnie,05/09/2019 02:00,6.7,,,,0,,71,,,-,,,,,,,2,
Dalwhinnie,05/09/2019 03:00,6.9,,,,0,,76,,,-,,,,,,,3,
Dalwhinnie,05/09/2019 04:00,6.8,,,,0,,76,,,-,,,,,,,3,
Dalwhinnie,05/09/2019 05:00,7.4,,,,0,,73,,,-,,,,,,,3,
Dalwhinnie,05/09/2019 06:00,7.8,,5.9,,0,0,70,,,-,,,,,,,2.8,
Dalwhinnie,05/09/2019 07:00,7.9,,,,0,,76,,,-,,,,,,,4.1,
Dalwhinnie,05/09/2019 08:00,8.3,,,,0.2,,87,,,-,,,,,,,6.3,
Dalwhinnie,05/09/2019 09:00,9.5,,,,0,,83,,,-,,,,,,,6.9,
Dalwhinnie,05/09/2019 10:00,9.9,,,,0.2,,85,,,-,,,,,,,7.5,
Dalwhinnie,05/09/2019 11:00,10.6,,,,1,,83,,,-,,,,,,,7.9,
Dalwhinnie,05/09/2019 12:00,12.9,,,,0,1,72,,,-,,,,,,,8.1,
Dalwhinnie,05/09/2019 13:00,13.8,,,,0,,65,,,-,,,,,,,7.4,
Dalwhinnie,05/09/2019 14:00,13.5,,,,0,,61,,,-,,,,,,,6.3,
Dalwhinnie,05/09/2019 15:00,13.2,,,,0,,60,,,-,,,,,,,5.8,
Dalwhinnie,05/09/2019 16:00,13,,,,0,,60,,,-,,,,,,,5.5,
Dalwhinnie,05/09/2019 17:00,12.5,,,,0,,65,,,-,,,,,,,6.2,
Dalwhinnie,05/09/2019 18:00,11.7,,,14.1,0,0,68,,,-,,,,,,,6,
Dalwhinnie,05/09/2019 19:00,10.7,,,,0,,73,,,-,,,,,,,6.1,
Dalwhinnie,05/09/2019 20:00,9.9,,,,0,,79,,,-,,,,,,,6.5,
Dalwhinnie,05/09/2019 21:00,9.4,,,,0.2,,80,,,-,,,,,,,6.2,
Dalwhinnie,05/09/2019 22:00,9.6,,,,0,,84,,,-,,,,,,,7.2,
Dalwhinnie,05/09/2019 23:00,10,,,,0.6,,90,,,-,,,,,,,8.6,
Dalwhinnie,06/09/2019 00:00,11,,,,0.6,1,90,,,-,,,,,,,9.5,
Dalwhinnie,06/09/2019 01:00,11.7,,,,0.4,,86,,,-,,,,,,,9.6,
Dalwhinnie,06/09/2019 02:00,12.2,,,,0.2,,79,,,-,,,,,,,8.7,
Dalwhinnie,06/09/2019 03:00,10.9,,,,1,,85,,,-,,,,,,,8.6,
Dalwhinnie,06/09/2019 04:00,9.7,,,,0,,78,,,-,,,,,,,6.2,
Dalwhinnie,06/09/2019 05:00,8.7,,,,0,,83,,,-,,,,,,,6,
Dalwhinnie,06/09/2019 06:00,8.9,,8.6,,0,2,78,,,-,,,,,,,5.4,
Dalwhinnie,06/09/2019 07:00,8.6,,,,0.2,,83,,,-,,,,,,,6,
Dalwhinnie,06/09/2019 08:00,8.7,,,,0,,84,,,-,,,,,,,6.3,
Dalwhinnie,06/09/2019 09:00,9.5,,,,0.4,,83,,,-,,,,,,,6.9,
Dalwhinnie,06/09/2019 10:00,10.2,,,,0,,84,,,-,,,,,,,7.7,
Dalwhinnie,06/09/2019 11:00,11.3,,,,0,,77,,,-,,,,,,,7.6,
Dalwhinnie,06/09/2019 12:00,12.6,,,,0,0.6,69,,,-,,,,,,,7.2,
Dalwhinnie,06/09/2019 13:00,13.3,,,,0,,67,,,-,,,,,,,7.4,
Dalwhinnie,06/09/2019 14:00,12.7,,,,0,,72,,,-,,,,,,,7.8,
Dalwhinnie,06/09/2019 15:00,14,,,,0,,61,,,-,,,,,,,6.7,
Dalwhinnie,06/09/2019 16:00,13.1,,,,0,,66,,,-,,,,,,,6.9,
Dalwhinnie,06/09/2019 17:00,12.1,,,,0,,72,,,-,,,,,,,7.4,
Dalwhinnie,06/09/2019 18:00,10.8,,,14.5,0.4,0.4,83,,,-,,,,,,,8.2,
Dalwhinnie,06/09/2019 19:00,10.3,,,,0,,83,,,-,,,,,,,7.7,
Dalwhinnie,06/09/2019 20:00,9.2,,,,0.2,,78,,,-,,,,,,,5.7,
Dalwhinnie,06/09/2019 21:00,9.1,,,,0,,73,,,-,,,,,,,4.7,
Dalwhinnie,06/09/2019 22:00,8.5,,,,0,,78,,,-,,,,,,,4.9,
Dalwhinnie,06/09/2019 23:00,8.8,,,,0,,78,,,-,,,,,,,5.2,
Dalwhinnie,07/09/2019 00:00,8.3,,,,0,0.2,85,,,-,,,,,,,6,
Dalwhinnie,07/09/2019 01:00,8.1,,,,0,,87,,,-,,,,,,,6.1,
Dalwhinnie,07/09/2019 02:00,7.7,,,,0,,81,,,-,,,,,,,4.8,
Dalwhinnie,07/09/2019 03:00,6.6,,,,0,,83,,,-,,,,,,,4,
Dalwhinnie,07/09/2019 04:00,6.8,,,,0,,76,,,-,,,,,,,2.9,
Dalwhinnie,07/09/2019 05:00,5.6,,,,0,,74,,,-,,,,,,,1.5,
Dalwhinnie,07/09/2019 06:00,5.4,,5.3,,0,0,84,,,-,,,,,,,3,
Dalwhinnie,07/09/2019 07:00,6.9,,,,0,,80,,,-,,,,,,,3.7,
Dalwhinnie,07/09/2019 08:00,7.9,,,,0,,73,,,-,,,,,,,3.5,
Dalwhinnie,07/09/2019 09:00,9.6,,,,0,,68,,,-,,,,,,,4,
Dalwhinnie,07/09/2019 10:00,9.3,,,,0,,64,,,-,,,,,,,2.9,
Dalwhinnie,07/09/2019 11:00,9.8,,,,0,,63,,,-,,,,,,,3.2,
Dalwhinnie,07/09/2019 12:00,11,,,,0,0,60,,,-,,,,,,,3.6,
Dalwhinnie,07/09/2019 13:00,11.9,,,,0,,60,,,-,,,,,,,4.4,
Dalwhinnie,07/09/2019 14:00,12.9,,,,0,,52,,,-,,,,,,,3.4,
Dalwhinnie,07/09/2019 15:00,14,,,,0,,48,,,-,,,,,,,3.2,
Dalwhinnie,07/09/2019 16:00,13.8,,,,0,,48,,,-,,,,,,,3.2,
Dalwhinnie,07/09/2019 17:00,13.9,,,,0,,50,,,-,,,,,,,3.7,
Dalwhinnie,07/09/2019 18:00,12.9,,,14.5,0,0,55,,,-,,,,,,,4.3,
Dalwhinnie,07/09/2019 19:00,8.3,,,,0,,80,,,-,,,,,,,5.1,
Dalwhinnie,07/09/2019 20:00,6.5,,,,0,,86,,,-,,,,,,,4.4,
Dalwhinnie,07/09/2019 21:00,4.8,,,,0,,89,,,-,,,,,,,3.3,
Dalwhinnie,07/09/2019 22:00,3.7,,,,0,,93,,,-,,,,,,,2.7,
Dalwhinnie,07/09/2019 23:00,4.2,,,,0,,91,,,-,,,,,,,2.9,
Dalwhinnie,08/09/2019 00:00,3.2,,,,0,0,91,,,-,,,,,,,1.9,
Dalwhinnie,08/09/2019 01:00,3.3,,,,0,,91,,,-,,,,,,,2.1,
Dalwhinnie,08/09/2019 02:00,2.1,,,,0,,93,,,-,,,,,,,1.1,
Dalwhinnie,08/09/2019 03:00,1.7,,,,0,,95,,,-,,,,,,,1,
Dalwhinnie,08/09/2019 04:00,1.2,,,,0,,95,,,-,,,,,,,0.6,
Dalwhinnie,08/09/2019 05:00,1.7,,,,0,,96,,,-,,,,,,,1.2,
Dalwhinnie,08/09/2019 06:00,2.4,,1,,0,0,97,,,-,,,,,,,2,
Dalwhinnie,08/09/2019 07:00,4.3,,,,0,,98,,,-,,,,,,,4.1,
Dalwhinnie,08/09/2019 08:00,6.9,,,,0,,91,,,-,,,,,,,5.6,
Dalwhinnie,08/09/2019 09:00,8.8,,,,0,,83,,,-,,,,,,,6.2,
Dalwhinnie,08/09/2019 10:00,10.7,,,,0,,75,,,-,,,,,,,6.6,
Dalwhinnie,08/09/2019 11:00,12.1,,,,0,,70,,,-,,,,,,,7,
Dalwhinnie,08/09/2019 12:00,12.4,,,,0,0,75,,,-,,,,,,,8.1,
Dalwhinnie,08/09/2019 13:00,12.6,,,,0,,76,,,-,,,,,,,8.5,
Dalwhinnie,08/09/2019 14:00,13.2,,,,0,,73,,,-,,,,,,,8.6,
Dalwhinnie,08/09/2019 15:00,13.5,,,,0,,74,,,-,,,,,,,9,
Dalwhinnie,08/09/2019 16:00,13.1,,,,0,,77,,,-,,,,,,,9.2,
Dalwhinnie,08/09/2019 17:00,12.5,,,,0,,79,,,-,,,,,,,9.1,
Dalwhinnie,08/09/2019 18:00,12.2,,,13.9,0,0,82,,,-,,,,,,,9.3,
Dalwhinnie,08/09/2019 19:00,11.9,,,,0,,84,,,-,,,,,,,9.4,
Dalwhinnie,08/09/2019 20:00,11.4,,,,0,,88,,,-,,,,,,,9.5,
Dalwhinnie,08/09/2019 21:00,10.8,,,,0,,92,,,-,,,,,,,9.7,
Dalwhinnie,08/09/2019 22:00,10.5,,,,0.8,,93,,,-,,,,,,,9.5,
Dalwhinnie,08/09/2019 23:00,10.6,,,,1,,93,,,-,,,,,,,9.6,
Dalwhinnie,09/09/2019 00:00,10.4,,,,0.4,2,92,,,-,,,,,,,9.3,
Dalwhinnie,09/09/2019 01:00,10.8,,,,0.2,,87,,,-,,,,,,,8.8,
Dalwhinnie,09/09/2019 02:00,10.5,,,,1,,89,,,-,,,,,,,8.8,
Dalwhinnie,09/09/2019 03:00,10.3,,,,0.4,,87,,,-,,,,,,,8.4,
Dalwhinnie,09/09/2019 04:00,10.1,,,,1,,89,,,-,,,,,,,8.5,
Dalwhinnie,09/09/2019 05:00,10.2,,,,0.4,,89,,,-,,,,,,,8.5,
Dalwhinnie,09/09/2019 06:00,10.3,,10,,0.6,4,88,,,-,,,,,,,8.5,
Dalwhinnie,09/09/2019 07:00,9.8,,,,1,,93,,,-,,,,,,,8.8,
Dalwhinnie,09/09/2019 08:00,10,,,,0.8,,95,,,-,,,,,,,9.3,
Dalwhinnie,09/09/2019 09:00,10.7,,,,0.2,,92,,,-,,,,,,,9.6,
Dalwhinnie,09/09/2019 10:00,11.1,,,,0.4,,91,,,-,,,,,,,9.8,
Dalwhinnie,09/09/2019 11:00,11,,,,0.6,,89,,,-,,,,,,,9.4,
Dalwhinnie,09/09/2019 12:00,12.3,,,,0.2,3,85,,,-,,,,,,,9.9,
Dalwhinnie,09/09/2019 13:00,13.5,,,,0,,72,,,-,,,,,,,8.6,
Dalwhinnie,09/09/2019 14:00,12.3,,,,1,,87,,,-,,,,,,,10.3,
Dalwhinnie,09/09/2019 15:00,12.9,,,,0.2,,81,,,-,,,,,,,9.8,
Dalwhinnie,09/09/2019 16:00,11.9,,,,1,,93,,,-,,,,,,,10.9,
Dalwhinnie,09/09/2019 17:00,11.8,,,,0.2,,92,,,-,,,,,,,10.6,
Dalwhinnie,09/09/2019 18:00,11.5,,,13.8,0.6,3,89,,,-,,,,,,,9.9,
Dalwhinnie,09/09/2019 19:00,11,,,,0,,92,,,-,,,,,,,9.8,
Dalwhinnie,09/09/2019 20:00,10.2,,,,0.2,,94,,,-,,,,,,,9.3,
Dalwhinnie,09/09/2019 21:00,10,,,,0.2,,95,,,-,,,,,,,9.3,
Dalwhinnie,09/09/2019 22:00,9.6,,,,0,,91,,,-,,,,,,,8.3,
Dalwhinnie,09/09/2019 23:00,9.6,,,,0,,89,,,-,,,,,,,8,
Dalwhinnie,10/09/2019 00:00,9.4,,,,0,0.4,89,,,-,,,,,,,7.8,
Dalwhinnie,10/09/2019 01:00,9.1,,,,0,,90,,,-,,,,,,,7.7,
Dalwhinnie,10/09/2019 02:00,8.9,,,,0,,91,,,-,,,,,,,7.6,
Dalwhinnie,10/09/2019 03:00,9,,,,0,,92,,,-,,,,,,,7.8,
Dalwhinnie,10/09/2019 04:00,8.9,,,,0,,92,,,-,,,,,,,7.8,
Dalwhinnie,10/09/2019 05:00,8.6,,,,0,,93,,,-,,,,,,,7.6,
Dalwhinnie,10/09/2019 06:00,8.7,,8.6,,0,0,92,,,-,,,,,,,7.6,
Dalwhinnie,10/09/2019 07:00,9,,,,0,,92,,,-,,,,,,,7.9,
Dalwhinnie,10/09/2019 08:00,9.9,,,,0,,88,,,-,,,,,,,8.1,
Dalwhinnie,10/09/2019 09:00,10.7,,,,0,,71,,,-,,,,,,,5.7,
Dalwhinnie,10/09/2019 10:00,11.2,,,,0,,74,,,-,,,,,,,6.9,
Dalwhinnie,10/09/2019 11:00,12.2,,,,0,,65,,,-,,,,,,,5.9,
Dalwhinnie,10/09/2019 12:00,11.9,,,,0,0,64,,,-,,,,,,,5.5,
Dalwhinnie,10/09/2019 13:00,12.7,,,,0,,60,,,-,,,,,,,5.3,
Dalwhinnie,10/09/2019 14:00,12.4,,,,0,,65,,,-,,,,,,,6.1,
Dalwhinnie,10/09/2019 15:00,11.7,,,,0,,70,,,-,,,,,,,6.6,
Dalwhinnie,10/09/2019 16:00,10.9,,,,0,,71,,,-,,,,,,,6,
Dalwhinnie,10/09/2019 17:00,10.4,,,,0,,75,,,-,,,,,,,6.2,
Dalwhinnie,10/09/2019 18:00,9.7,,,13.2,0.2,0.2,84,,,-,,,,,,,7.2,
Dalwhinnie,10/09/2019 19:00,9.5,,,,0.6,,89,,,-,,,,,,,7.8,
Dalwhinnie,10/09/2019 20:00,9.6,,,,1.6,,91,,,-,,,,,,,8.3,
Dalwhinnie,10/09/2019 21:00,10.3,,,,0.8,,92,,,-,,,,,,,9.1,
Dalwhinnie,10/09/2019 22:00,11,,,,0.4,,92,,,-,,,,,,,9.8,
Dalwhinnie,10/09/2019 23:00,11.4,,,,1.8,,94,,,-,,,,,,,10.5,
Dalwhinnie,11/09/2019 00:00,12.5,,,,0.2,5,90,,,-,,,,,,,11,
Dalwhinnie,11/09/2019 01:00,12.6,,,,0.2,,93,,,-,,,,,,,11.6,
Dalwhinnie,11/09/2019 02:00,13,,,,0.4,,92,,,-,,,,,,,11.8,
Dalwhinnie,11/09/2019 03:00,12.4,,,,0,,81,,,-,,,,,,,9.4,
Dalwhinnie,11/09/2019 04:00,12.1,,,,0,,77,,,-,,,,,,,8.3,
Dalwhinnie,11/09/2019 05:00,11.1,,,,0,,81,,,-,,,,,,,8.1,
Dalwhinnie,11/09/2019 06:00,10.6,,9.3,,1,2,86,,,-,,,,,,,8.5,
Dalwhinnie,11/09/2019 07:00,10.8,,,,0.4,,83,,,-,,,,,,,8.1,
Dalwhinnie,11/09/2019 08:00,11.1,,,,1.2,,76,,,-,,,,,,,7.1,
Dalwhinnie,11/09/2019 09:00,11.6,,,,0,,78,,,-,,,,,,,7.9,
Dalwhinnie,11/09/2019 10:00,11.3,,,,0,,76,,,-,,,,,,,7.4,
Dalwhinnie,11/09/2019 11:00,11.9,,,,0,,72,,,-,,,,,,,7.2,
Dalwhinnie,11/09/2019 12:00,12,,,,0,2,71,,,-,,,,,,,7,
Dalwhinnie,11/09/2019 13:00,13.2,,,,0,,66,,,-,,,,,,,7.1,
Dalwhinnie,11/09/2019 14:00,12.7,,,,0,,70,,,-,,,,,,,7.4,
Dalwhinnie,11/09/2019 15:00,12,,,,0,,74,,,-,,,,,,,7.7,
Dalwhinnie,11/09/2019 16:00,12.5,,,,0,,69,,,-,,,,,,,7.1,
Dalwhinnie,11/09/2019 17:00,11,,,,0.2,,85,,,-,,,,,,,8.7,
Dalwhinnie,11/09/2019 18:00,11.7,,,13.7,0,0,73,,,-,,,,,,,7.2,
Dalwhinnie,11/09/2019 19:00,11.4,,,,0,,76,,,-,,,,,,,7.5,
Dalwhinnie,11/09/2019 20:00,11.2,,,,0,,77,,,-,,,,,,,7.4,
Dalwhinnie,11/09/2019 21:00,11,,,,0,,77,,,-,,,,,,,7.3,
Dalwhinnie,11/09/2019 22:00,10.4,,,,0,,86,,,-,,,,,,,8.3,
Dalwhinnie,11/09/2019 23:00,10.7,,,,0.2,,80,,,-,,,,,,,7.4,
Dalwhinnie,12/09/2019 00:00,10.1,,,,0,0.2,82,,,-,,,,,,,7.3,
Dalwhinnie,12/09/2019 01:00,10.1,,,,0,,86,,,-,,,,,,,7.9,
Dalwhinnie,12/09/2019 02:00,10,,,,0.2,,85,,,-,,,,,,,7.7,
Dalwhinnie,12/09/2019 03:00,10.1,,,,0.2,,85,,,-,,,,,,,7.8,
Dalwhinnie,12/09/2019 04:00,10.1,,,,0,,80,,,-,,,,,,,6.9,
Dalwhinnie,12/09/2019 05:00,9.8,,,,0,,84,,,-,,,,,,,7.4,
Dalwhinnie,12/09/2019 06:00,10.2,,9.6,,0,0.4,79,,,-,,,,,,,6.9,
Dalwhinnie,12/09/2019 07:00,10.2,,,,0,,83,,,-,,,,,,,7.6,
Dalwhinnie,12/09/2019 08:00,11,,,,0,,82,,,-,,,,,,,8.2,
Dalwhinnie,12/09/2019 09:00,11.2,,,,0,,82,,,-,,,,,,,8.4,
Dalwhinnie,12/09/2019 10:00,11.3,,,,0,,84,,,-,,,,,,,8.8,
Dalwhinnie,12/09/2019 11:00,12,,,,0,,82,,,-,,,,,,,9.1,
Dalwhinnie,12/09/2019 12:00,12,,,,0,0,77,,,-,,,,,,,8.1,
Dalwhinnie,12/09/2019 13:00,12.3,,,,0,,81,,,-,,,,,,,9.2,
Dalwhinnie,12/09/2019 14:00,13,,,,0,,69,,,-,,,,,,,7.6,
Dalwhinnie,12/09/2019 15:00,13.4,,,,0,,60,,,-,,,,,,,5.9,
Dalwhinnie,12/09/2019 16:00,12.9,,,,0,,61,,,-,,,,,,,5.6,
Dalwhinnie,12/09/2019 17:00,12.2,,,,0,,60,,,-,,,,,,,4.8,
Dalwhinnie,12/09/2019 18:00,10.8,,,13.8,0,0,64,,,-,,,,,,,4.4,
Dalwhinnie,12/09/2019 19:00,9.8,,,,0,,72,,,-,,,,,,,5.1,
Dalwhinnie,12/09/2019 20:00,9.8,,,,0,,72,,,-,,,,,,,5.1,
Dalwhinnie,12/09/2019 21:00,9.4,,,,0,,76,,,-,,,,,,,5.5,
Dalwhinnie,12/09/2019 22:00,9.5,,,,0,,72,,,-,,,,,,,4.9,
Dalwhinnie,12/09/2019 23:00,8.6,,,,1.2,,84,,,-,,,,,,,6.1,
Dalwhinnie,13/09/2019 00:00,8.4,,,,0.2,1,82,,,-,,,,,,,5.6,
Dalwhinnie,13/09/2019 01:00,8.3,,,,0,,83,,,-,,,,,,,5.6,
Dalwhinnie,13/09/2019 02:00,8.8,,,,0,,78,,,-,,,,,,,5.3,
Dalwhinnie,13/09/2019 03:00,8.5,,,,0,,78,,,-,,,,,,,5,
Dalwhinnie,13/09/2019 04:00,8.2,,,,0,,77,,,-,,,,,,,4.5,
Dalwhinnie,13/09/2019 05:00,8.2,,,,0,,78,,,-,,,,,,,4.6,
Dalwhinnie,13/09/2019 06:00,8.5,,8,,0,0,77,,,-,,,,,,,4.8,
Dalwhinnie,13/09/2019 07:00,8.5,,,,0,,78,,,-,,,,,,,5,
Dalwhinnie,13/09/2019 08:00,9.3,,,,0,,73,,,-,,,,,,,4.9,
Dalwhinnie,13/09/2019 09:00,10.4,,,,0,,68,,,-,,,,,,,4.8,
Dalwhinnie,13/09/2019 10:00,11.1,,,,0,,68,,,-,,,,,,,5.5,
Dalwhinnie,13/09/2019 11:00,13,,,,0,,60,,,-,,,,,,,5.5,
Dalwhinnie,13/09/2019 12:00,12.4,,,,0,0,51,,,-,,,,,,,2.7,
Dalwhinnie,13/09/2019 13:00,11.6,,,,0,,67,,,-,,,,,,,5.7,
Dalwhinnie,13/09/2019 14:00,12.8,,,,0,,55,,,-,,,,,,,4.1,
Dalwhinnie,13/09/2019 15:00,13,,,,0.2,,53,,,-,,,,,,,3.9,
Dalwhinnie,13/09/2019 16:00,12.8,,,,0,,56,,,-,,,,,,,4.5,
Dalwhinnie,13/09/2019 17:00,10.9,,,,0,,70,,,-,,,,,,,5.7,
Dalwhinnie,13/09/2019 18:00,10.1,,,14.1,0,0.2,79,,,-,,,,,,,6.8,
Dalwhinnie,13/09/2019 19:00,9.8,,,,0,,79,,,-,,,,,,,6.5,
Dalwhinnie,13/09/2019 20:00,9.5,,,,0,,79,,,-,,,,,,,6.2,
Dalwhinnie,13/09/2019 21:00,9,,,,0,,90,,,-,,,,,,,7.5,
Dalwhinnie,13/09/2019 22:00,8.9,,,,0,,85,,,-,,,,,,,6.6,
Dalwhinnie,13/09/2019 23:00,9.5,,,,0,,85,,,-,,,,,,,7.2,
Dalwhinnie,14/09/2019 00:00,9.4,,,,0,0,83,,,-,,,,,,,6.7,
Dalwhinnie,14/09/2019 01:00,9.7,,,,0,,77,,,-,,,,,,,5.9,
Dalwhinnie,14/09/2019 02:00,9.6,,,,0,,76,,,-,,,,,,,5.7,
Dalwhinnie,14/09/2019 03:00,9.8,,,,0,,78,,,-,,,,,,,6.3,
Dalwhinnie,14/09/2019 04:00,10.2,,,,0,,77,,,-,,,,,,,6.5,
Dalwhinnie,14/09/2019 05:00,10.1,,,,0,,79,,,-,,,,,,,6.7,
Dalwhinnie,14/09/2019 06:00,10.5,,8.8,,0,0,78,,,-,,,,,,,7,
Dalwhinnie,14/09/2019 07:00,10,,,,0,,84,,,-,,,,,,,7.5,
Dalwhinnie,14/09/2019 08:00,10,,,,0.2,,86,,,-,,,,,,,7.9,
Dalwhinnie,14/09/2019 09:00,10,,,,0.6,,89,,,-,,,,,,,8.3,
Dalwhinnie,14/09/2019 10:00,10.1,,,,0,,87,,,-,,,,,,,8.2,
Dalwhinnie,14/09/2019 11:00,10.6,,,,0.2,,88,,,-,,,,,,,8.8,
Dalwhinnie,14/09/2019 12:00,11.5,,,,0,1,86,,,-,,,,,,,9.3,
Dalwhinnie,14/09/2019 13:00,11.2,,,,0,,85,,,-,,,,,,,8.9,
Dalwhinnie,14/09/2019 14:00,11.4,,,,0.2,,89,,,-,,,,,,,9.7,
Dalwhinnie,14/09/2019 15:00,13.3,,,,0,,84,,,-,,,,,,,10.7,
Dalwhinnie,14/09/2019 16:00,13.8,,,,0.2,,83,,,-,,,,,,,11.1,
Dalwhinnie,14/09/2019 17:00,13.7,,,,0.8,,86,,,-,,,,,,,11.5,
Dalwhinnie,14/09/2019 18:00,14,,,14.2,0.4,2,85,,,-,,,,,,,11.6,
Dalwhinnie,14/09/2019 19:00,13.9,,,,0.2,,86,,,-,,,,,,,11.6,
Dalwhinnie,14/09/2019 20:00,12,,,,0.6,,86,,,-,,,,,,,9.9,
Dalwhinnie,14/09/2019 21:00,10.6,,,,0.4,,82,,,-,,,,,,,7.8,
Dalwhinnie,14/09/2019 22:00,9.7,,,,0.2,,78,,,-,,,,,,,6.2,
Dalwhinnie,14/09/2019 23:00,10,,,,0,,76,,,-,,,,,,,6,
Dalwhinnie,15/09/2019 00:00,10.3,,,,0,1,73,,,-,,,,,,,5.8,
Dalwhinnie,15/09/2019 01:00,9.5,,,,0,,69,,,-,,,,,,,4.3,
Dalwhinnie,15/09/2019 02:00,9.1,,,,0,,75,,,-,,,,,,,5,
Dalwhinnie,15/09/2019 03:00,8.9,,,,0,,66,,,-,,,,,,,3,
Dalwhinnie,15/09/2019 04:00,8.7,,,,0,,62,,,-,,,,,,,1.9,
Dalwhinnie,15/09/2019 05:00,8.4,,,,0,,64,,,-,,,,,,,2.2,
Dalwhinnie,15/09/2019 06:00,8.4,,8,,0,0,64,,,-,,,,,,,2.2,
Dalwhinnie,15/09/2019 07:00,8.3,,,,0,,64,,,-,,,,,,,2,
Dalwhinnie,15/09/2019 08:00,8.7,,,,0,,69,,,-,,,,,,,3.4,
Dalwhinnie,15/09/2019 09:00,9.2,,,,0,,70,,,-,,,,,,,4.2,
Dalwhinnie,15/09/2019 10:00,9.8,,,,0,,69,,,-,,,,,,,4.4,
Dalwhinnie,15/09/2019 11:00,10,,,,0,,62,,,-,,,,,,,3.1,
Dalwhinnie,15/09/2019 12:00,10.2,,,,0,0,70,,,-,,,,,,,5,
Dalwhinnie,15/09/2019 13:00,11.1,,,,0,,56,,,-,,,,,,,2.9,
Dalwhinnie,15/09/2019 14:00,11.8,,,,0,,51,,,-,,,,,,,2.2,
Dalwhinnie,15/09/2019 15:00,11.6,,,,0,,57,,,-,,,,,,,3.5,
Dalwhinnie,15/09/2019 16:00,11.9,,,,0,,49,,,-,,,,,,,1.6,
Dalwhinnie,15/09/2019 17:00,10.8,,,,0,,49,,,-,,,,,,,0.6,
Dalwhinnie,15/09/2019 18:00,9.3,,,12.5,0,0,58,,,-,,,,,,,1.5,
Dalwhinnie,15/09/2019 19:00,8.6,,,,0,,64,,,-,,,,,,,2.4,
Dalwhinnie,15/09/2019 20:00,8.7,,,,0,,65,,,-,,,,,,,2.7,
Dalwhinnie,15/09/2019 21:00,7.5,,,,0,,72,,,-,,,,,,,2.9,
Dalwhinnie,15/09/2019 22:00,8.5,,,,0,,70,,,-,,,,,,,3.5,
Dalwhinnie,15/09/2019 23:00,7.9,,,,0,,77,,,-,,,,,,,4.2,
Dalwhinnie,16/09/2019 00:00,7.9,,,,0,0,77,,,-,,,,,,,4.3,
Dalwhinnie,16/09/2019 01:00,7.6,,,,0,,78,,,-,,,,,,,4.1,
Dalwhinnie,16/09/2019 02:00,8.5,,,,0,,72,,,-,,,,,,,3.9,
Dalwhinnie,16/09/2019 03:00,8.2,,,,0,,75,,,-,,,,,,,4.1,
Dalwhinnie,16/09/2019 04:00,7.9,,,,0,,82,,,-,,,,,,,5.1,
Dalwhinnie,16/09/2019 05:00,7.9,,,,0,,78,,,-,,,,,,,4.4,
Dalwhinnie,16/09/2019 06:00,7.4,,6.9,,0,0,76,,,-,,,,,,,3.5,
Dalwhinnie,16/09/2019 07:00,7.5,,,,0,,77,,,-,,,,,,,3.8,
Dalwhinnie,16/09/2019 08:00,8.7,,,,0,,73,,,-,,,,,,,4.2,
Dalwhinnie,16/09/2019 09:00,9.1,,,,0,,73,,,-,,,,,,,4.7,
Dalwhinnie,16/09/2019 10:00,9.4,,,,0,,75,,,-,,,,,,,5.2,
Dalwhinnie,16/09/2019 11:00,10.4,,,,0,,70,,,-,,,,,,,5.3,
Dalwhinnie,16/09/2019 12:00,11.1,,,,0,0,67,,,-,,,,,,,5.3,
Dalwhinnie,16/09/2019 13:00,11.8,,,,0,,63,,,-,,,,,,,5.2,
Dalwhinnie,16/09/2019 14:00,11.8,,,,0,,64,,,-,,,,,,,5.4,
Dalwhinnie,16/09/2019 15:00,11.3,,,,0,,66,,,-,,,,,,,5.3,
Dalwhinnie,16/09/2019 16:00,11,,,,0,,67,,,-,,,,,,,5.3,
Dalwhinnie,16/09/2019 17:00,10,,,,0,,74,,,-,,,,,,,5.6,
Dalwhinnie,16/09/2019 18:00,9.6,,,12.8,0,0,76,,,-,,,,,,,5.7,
Dalwhinnie,16/09/2019 19:00,8.4,,,,0.2,,87,,,-,,,,,,,6.4,
Dalwhinnie,16/09/2019 20:00,8.5,,,,0.2,,75,,,-,,,,,,,4.5,
Dalwhinnie,16/09/2019 21:00,8.4,,,,0,,73,,,-,,,,,,,3.9,
Dalwhinnie,16/09/2019 22:00,8.8,,,,0.2,,72,,,-,,,,,,,4.2,
Dalwhinnie,16/09/2019 23:00,8.1,,,,0,,72,,,-,,,,,,,3.4,
Dalwhinnie,17/09/2019 00:00,7.7,,,,0,0.6,63,,,-,,,,,,,1.2,
Dalwhinnie,17/09/2019 01:00,7.4,,,,0,,61,,,-,,,,,,,0.6,
Dalwhinnie,17/09/2019 02:00,7.6,,,,0,,64,,,-,,,,,,,1.3,
Dalwhinnie,17/09/2019 03:00,7.7,,,,0,,66,,,-,,,,,,,1.8,
Dalwhinnie,17/09/2019 04:00,5.6,,,,0,,75,,,-,,,,,,,1.6,
Dalwhinnie,17/09/2019 05:00,4.3,,,,0,,80,,,-,,,,,,,1.2,
Dalwhinnie,17/09/2019 06:00,4.8,,4,,0,0,74,,,-,,,,,,,0.6,
Dalwhinnie,17/09/2019 07:00,6.2,,,,0,,66,,,-,,,,,,,0.4,
Dalwhinnie,17/09/2019 08:00,7.8,,,,0,,65,,,-,,,,,,,1.7,
Dalwhinnie,17/09/2019 09:00,8.2,,,,0,,67,,,-,,,,,,,2.5,
Dalwhinnie,17/09/2019 10:00,9.8,,,,0,,64,,,-,,,,,,,3.5,
Dalwhinnie,17/09/2019 11:00,10,,,,0,,63,,,-,,,,,,,3.5,
Dalwhinnie,17/09/2019 12:00,10.8,,,,0,0,58,,,-,,,,,,,2.9,
Dalwhinnie,17/09/2019 13:00,10.7,,,,0,,55,,,-,,,,,,,2.1,
Dalwhinnie,17/09/2019 14:00,10.5,,,,0,,58,,,-,,,,,,,2.6,
Dalwhinnie,17/09/2019 15:00,10.5,,,,0,,58,,,-,,,,,,,2.7,
Dalwhinnie,17/09/2019 16:00,10.6,,,,0,,60,,,-,,,,,,,3.2,
Dalwhinnie,17/09/2019 17:00,10.1,,,,0,,61,,,-,,,,,,,3.1,
Dalwhinnie,17/09/2019 18:00,9.2,,,11.2,0,0,66,,,-,,,,,,,3.2,
Dalwhinnie,17/09/2019 19:00,7.6,,,,0,,76,,,-,,,,,,,3.7,
Dalwhinnie,17/09/2019 20:00,7,,,,0,,80,,,-,,,,,,,3.8,
Dalwhinnie,17/09/2019 21:00,7,,,,0,,78,,,-,,,,,,,3.5,
Dalwhinnie,17/09/2019 22:00,6.8,,,,0,,85,,,-,,,,,,,4.5,
Dalwhinnie,17/09/2019 23:00,6.6,,,,0,,88,,,-,,,,,,,4.9,
Dalwhinnie,18/09/2019 00:00,6.7,,,,0,0,89,,,-,,,,,,,5.1,
Dalwhinnie,18/09/2019 01:00,6.9,,,,0,,87,,,-,,,,,,,5,
Dalwhinnie,18/09/2019 02:00,6.7,,,,0,,88,,,-,,,,,,,5,
Dalwhinnie,18/09/2019 03:00,6.5,,,,0,,93,,,-,,,,,,,5.5,
Dalwhinnie,18/09/2019 04:00,7,,,,0,,94,,,-,,,,,,,6.2,
Dalwhinnie,18/09/2019 05:00,7.2,,,,0.2,,89,,,-,,,,,,,5.6,
Dalwhinnie,18/09/2019 06:00,7.2,,6.4,,0,0.2,90,,,-,,,,,,,5.7,
Dalwhinnie,18/09/2019 07:00,7.6,,,,0,,90,,,-,,,,,,,6.1,
Dalwhinnie,18/09/2019 08:00,8.6,,,,0,,90,,,-,,,,,,,7.1,
Dalwhinnie,18/09/2019 09:00,9.4,,,,0,,90,,,-,,,,,,,8,
Dalwhinnie,18/09/2019 10:00,11.2,,,,0,,85,,,-,,,,,,,8.8,
Dalwhinnie,18/09/2019 11:00,12.9,,,,0,,78,,,-,,,,,,,9.2,
Dalwhinnie,18/09/2019 12:00,13.5,,,,0,0,78,,,-,,,,,,,9.8,
Dalwhinnie,18/09/2019 13:00,14.2,,,,0,,78,,,-,,,,,,,10.5,
Dalwhinnie,18/09/2019 14:00,16.1,,,,0,,72,,,-,,,,,,,11.1,
Dalwhinnie,18/09/2019 15:00,15.8,,,,0,,70,,,-,,,,,,,10.4,
Dalwhinnie,18/09/2019 16:00,14.7,,,,0,,77,,,-,,,,,,,10.8,
Dalwhinnie,18/09/2019 17:00,14.1,,,,0,,79,,,-,,,,,,,10.7,
Dalwhinnie,18/09/2019 18:00,13.6,,,16.5,0,0,80,,,-,,,,,,,10.4,
Dalwhinnie,18/09/2019 19:00,12.5,,,,0,,86,,,-,,,,,,,10.3,
Dalwhinnie,18/09/2019 20:00,11.7,,,,0,,85,,,-,,,,,,,9.4,
Dalwhinnie,18/09/2019 21:00,10.5,,,,0,,91,,,-,,,,,,,9.2,
Dalwhinnie,18/09/2019 22:00,9.5,,,,0,,91,,,-,,,,,,,8.2,
Dalwhinnie,18/09/2019 23:00,8.7,,,,0,,94,,,-,,,,,,,7.9,
Dalwhinnie,19/09/2019 00:00,7,,,,0,0,93,,,-,,,,,,,6,
Dalwhinnie,19/09/2019 01:00,6.4,,,,0,,95,,,-,,,,,,,5.7,
Dalwhinnie,19/09/2019 02:00,6.5,,,,0,,95,,,-,,,,,,,5.9,
Dalwhinnie,19/09/2019 03:00,7.8,,,,0,,95,,,-,,,,,,,7.1,
Dalwhinnie,19/09/2019 04:00,7.8,,,,0,,94,,,-,,,,,,,7,
Dalwhinnie,19/09/2019 05:00,6.7,,,,0,,95,,,-,,,,,,,6.1,
Dalwhinnie,19/09/2019 06:00,6,,5.1,,0,0,96,,,-,,,,,,,5.5,
Dalwhinnie,19/09/2019 07:00,7.2,,,,0,,97,,,-,,,,,,,6.8,
Dalwhinnie,19/09/2019 08:00,10.5,,,,0,,94,,,-,,,,,,,9.6,
Dalwhinnie,19/09/2019 09:00,12.9,,,,0,,81,,,-,,,,,,,9.8,
Dalwhinnie,19/09/2019 10:00,13.9,,,,0,,77,,,-,,,,,,,10,
Dalwhinnie,19/09/2019 11:00,15.3,,,,0,,75,,,-,,,,,,,10.9,
Dalwhinnie,19/09/2019 12:00,15.7,,,,0,0,74,,,-,,,,,,,11.1,
Dalwhinnie,19/09/2019 13:00,17,,,,0,,67,,,-,,,,,,,11,
Dalwhinnie,19/09/2019 14:00,16.8,,,,0,,70,,,-,,,,,,,11.5,
Dalwhinnie,19/09/2019 15:00,16.4,,,,0,,71,,,-,,,,,,,11.2,
Dalwhinnie,19/09/2019 16:00,16.5,,,,0,,69,,,-,,,,,,,11,
Dalwhinnie,19/09/2019 17:00,15.3,,,,0,,71,,,-,,,,,,,10.1,
Dalwhinnie,19/09/2019 18:00,12.6,,,17.7,0,0,81,,,-,,,,,,,9.6,
Dalwhinnie,19/09/2019 19:00,10.8,,,,0,,88,,,-,,,,,,,8.9,
Dalwhinnie,19/09/2019 20:00,6.9,,,,0,,90,,,-,,,,,,,5.4,
Dalwhinnie,19/09/2019 21:00,7.1,,,,0,,90,,,-,,,,,,,5.7,
Dalwhinnie,19/09/2019 22:00,5.3,,,,0,,88,,,-,,,,,,,3.5,
Dalwhinnie,19/09/2019 23:00,5,,,,0,,86,,,-,,,,,,,3,
Dalwhinnie,20/09/2019 00:00,4.9,,,,0,0,83,,,-,,,,,,,2.4,
Dalwhinnie,20/09/2019 01:00,4.4,,,,0,,86,,,-,,,,,,,2.4,
Dalwhinnie,20/09/2019 02:00,3.3,,,,0,,87,,,-,,,,,,,1.5,
Dalwhinnie,20/09/2019 03:00,4.1,,,,0,,87,,,-,,,,,,,2.2,
Dalwhinnie,20/09/2019 04:00,3.9,,,,0,,91,,,-,,,,,,,2.7,
Dalwhinnie,20/09/2019 05:00,2.2,,,,0,,91,,,-,,,,,,,1,
Dalwhinnie,20/09/2019 06:00,1.9,,1.3,,0,0,93,,,-,,,,,,,1,
Dalwhinnie,20/09/2019 07:00,2.6,,,,0,,95,,,-,,,,,,,1.9,
Dalwhinnie,20/09/2019 08:00,6.7,,,,0,,81,,,-,,,,,,,3.7,
Dalwhinnie,20/09/2019 09:00,11.6,,,,0,,67,,,-,,,,,,,5.8,
Dalwhinnie,20/09/2019 10:00,14.5,,,,0,,54,,,-,,,,,,,5.5,
Dalwhinnie,20/09/2019 11:00,18.3,,,,0,,42,,,-,,,,,,,5.2,
Dalwhinnie,20/09/2019 12:00,20.2,,,,0,0,38,,,-,,,,,,,5.6,
Dalwhinnie,20/09/2019 13:00,21.1,,,,0,,38,,,-,,,,,,,6.3,
Dalwhinnie,20/09/2019 14:00,21,,,,0,,39,,,-,,,,,,,6.6,
Dalwhinnie,20/09/2019 15:00,21.4,,,,0,,40,,,-,,,,,,,7.3,
Dalwhinnie,20/09/2019 16:00,20.2,,,,0,,49,,,-,,,,,,,9.4,
Dalwhinnie,20/09/2019 17:00,18.7,,,,0,,53,,,-,,,,,,,9.1,
Dalwhinnie,20/09/2019 18:00,17.2,,,21.7,0,0,58,,,-,,,,,,,8.9,
Dalwhinnie,20/09/2019 19:00,17.1,,,,0,,58,,,-,,,,,,,8.8,
Dalwhinnie,20/09/2019 20:00,16,,,,0,,64,,,-,,,,,,,9.4,
Dalwhinnie,20/09/2019 21:00,15.1,,,,0,,68,,,-,,,,,,,9.3,
Dalwhinnie,20/09/2019 22:00,13.2,,,,0,,75,,,-,,,,,,,9,
Dalwhinnie,20/09/2019 23:00,11.4,,,,0,,79,,,-,,,,,,,8,
Dalwhinnie,21/09/2019 00:00,11.6,,,,0,0,75,,,-,,,,,,,7.4,
Dalwhinnie,21/09/2019 01:00,13.5,,,,0,,79,,,-,,,,,,,10.1,
Dalwhinnie,21/09/2019 02:00,13.4,,,,0,,74,,,-,,,,,,,8.9,
Dalwhinnie,21/09/2019 03:00,11.4,,,,0,,80,,,-,,,,,,,8.1,
Dalwhinnie,21/09/2019 04:00,11.8,,,,0,,81,,,-,,,,,,,8.8,
Dalwhinnie,21/09/2019 05:00,12.1,,,,0,,77,,,-,,,,,,,8.3,
Dalwhinnie,21/09/2019 06:00,11.2,,10.6,,0,0,82,,,-,,,,,,,8.3,
Dalwhinnie,21/09/2019 07:00,11.1,,,,0,,82,,,-,,,,,,,8.3,
Dalwhinnie,21/09/2019 08:00,11.7,,,,0,,80,,,-,,,,,,,8.4,
Dalwhinnie,21/09/2019 09:00,13.5,,,,0,,68,,,-,,,,,,,7.8,
Dalwhinnie,21/09/2019 10:00,14.7,,,,0,,65,,,-,,,,,,,8.2,
Dalwhinnie,21/09/2019 11:00,16.4,,,,0,,57,,,-,,,,,,,7.9,
Dalwhinnie,21/09/2019 12:00,17,,,,0,0,57,,,-,,,,,,,8.5,
Dalwhinnie,21/09/2019 13:00,17.5,,,,0,,57,,,-,,,,,,,8.9,
Dalwhinnie,21/09/2019 14:00,17.5,,,,0,,55,,,-,,,,,,,8.6,
Dalwhinnie,21/09/2019 15:00,17.5,,,,0,,58,,,-,,,,,,,9.3,
Dalwhinnie,21/09/2019 16:00,16.9,,,,0,,60,,,-,,,,,,,9.3,
Dalwhinnie,21/09/2019 17:00,16.5,,,,0,,61,,,-,,,,,,,9,
Dalwhinnie,21/09/2019 18:00,14.8,,,18.1,0,0,65,,,-,,,,,,,8.5,
Dalwhinnie,21/09/2019 19:00,14.4,,,,0,,66,,,-,,,,,,,8.2,
Dalwhinnie,21/09/2019 20:00,13.3,,,,0,,71,,,-,,,,,,,8.2,
Dalwhinnie,21/09/2019 21:00,13.1,,,,0,,70,,,-,,,,,,,7.8,
Dalwhinnie,21/09/2019 22:00,13.2,,,,0,,67,,,-,,,,,,,7.4,
Dalwhinnie,21/09/2019 23:00,11.6,,,,0,,76,,,-,,,,,,,7.7,
Dalwhinnie,22/09/2019 00:00,10.9,,,,0,0,82,,,-,,,,,,,8,
Dalwhinnie,22/09/2019 01:00,10.8,,,,0,,82,,,-,,,,,,,8,
Dalwhinnie,22/09/2019 02:00,10.8,,,,0,,82,,,-,,,,,,,8,
Dalwhinnie,22/09/2019 03:00,10.9,,,,0,,82,,,-,,,,,,,8,
Dalwhinnie,22/09/2019 04:00,11.3,,,,0,,81,,,-,,,,,,,8.2,
Dalwhinnie,22/09/2019 05:00,10.6,,,,0,,86,,,-,,,,,,,8.4,
Dalwhinnie,22/09/2019 06:00,10.8,,9.7,,0,0,85,,,-,,,,,,,8.5,
Dalwhinnie,22/09/2019 07:00,11.6,,,,0,,84,,,-,,,,,,,9,
Dalwhinnie,22/09/2019 08:00,14.5,,,,0,,67,,,-,,,,,,,8.5,
Dalwhinnie,22/09/2019 09:00,15.4,,,,0,,62,,,-,,,,,,,8.2,
Dalwhinnie,22/09/2019 10:00,15.1,,,,0,,66,,,-,,,,,,,9,
Dalwhinnie,22/09/2019 11:00,15.8,,,,0,,67,,,-,,,,,,,9.9,
Dalwhinnie,22/09/2019 12:00,15.9,,,,0,0,67,,,-,,,,,,,10,
Dalwhinnie,22/09/2019 13:00,16.4,,,,0,,69,,,-,,,,,,,10.9,
Dalwhinnie,22/09/2019 14:00,15.2,,,,0,,85,,,-,,,,,,,12.7,
Dalwhinnie,22/09/2019 15:00,16,,,,0,,80,,,-,,,,,,,12.7,
Dalwhinnie,22/09/2019 16:00,16.7,,,,0,,75,,,-,,,,,,,12.3,
Dalwhinnie,22/09/2019 17:00,16.8,,,,0,,75,,,-,,,,,,,12.4,
Dalwhinnie,22/09/2019 18:00,16,,,17.3,0,0,77,,,-,,,,,,,12,
Dalwhinnie,22/09/2019 19:00,15.2,,,,0,,82,,,-,,,,,,,12.2,
Dalwhinnie,22/09/2019 20:00,15.1,,,,0,,81,,,-,,,,,,,11.9,
Dalwhinnie,22/09/2019 21:00,14,,,,2,,90,,,-,,,,,,,12.5,
Dalwhinnie,22/09/2019 22:00,14.4,,,,0,,90,,,-,,,,,,,12.8,
Dalwhinnie,22/09/2019 23:00,14.2,,,,0,,91,,,-,,,,,,,12.8,
Dalwhinnie,23/09/2019 00:00,14.1,,,,0.8,3,88,,,-,,,,,,,12.3,
Dalwhinnie,23/09/2019 01:00,14.2,,,,0,,87,,,-,,,,,,,12.2,
Dalwhinnie,23/09/2019 02:00,14,,,,0.2,,86,,,-,,,,,,,11.8,
Dalwhinnie,23/09/2019 03:00,13.5,,,,0,,90,,,-,,,,,,,11.9,
Dalwhinnie,23/09/2019 04:00,13.2,,,,0,,90,,,-,,,,,,,11.6,
Dalwhinnie,23/09/2019 05:00,13.4,,,,0,,89,,,-,,,,,,,11.7,
Dalwhinnie,23/09/2019 06:00,13,,13,,0,0,93,,,-,,,,,,,11.9,
Dalwhinnie,23/09/2019 07:00,13,,,,0,,93,,,-,,,,,,,11.9,
Dalwhinnie,23/09/2019 08:00,13,,,,0,,93,,,-,,,,,,,11.9,
Dalwhinnie,23/09/2019 09:00,13.4,,,,0,,91,,,-,,,,,,,12,
Dalwhinnie,23/09/2019 10:00,15.7,,,,0,,72,,,-,,,,,,,10.7,
Dalwhinnie,23/09/2019 11:00,14.5,,,,0,,75,,,-,,,,,,,10.2,
Dalwhinnie,23/09/2019 12:00,14.9,,,,0,0,72,,,-,,,,,,,10.1,
Dalwhinnie,23/09/2019 13:00,14.5,,,,0,,74,,,-,,,,,,,10,
Dalwhinnie,23/09/2019 14:00,14,,,,0.2,,75,,,-,,,,,,,9.8,
Dalwhinnie,23/09/2019 15:00,11.9,,,,0.8,,88,,,-,,,,,,,10.1,
Dalwhinnie,23/09/2019 16:00,12.7,,,,0,,79,,,-,,,,,,,9.3,
Dalwhinnie,23/09/2019 17:00,13.1,,,,0,,71,,,-,,,,,,,8,
Dalwhinnie,23/09/2019 18:00,12.2,,,16,0,1,75,,,-,,,,,,,8,
Dalwhinnie,23/09/2019 19:00,11.3,,,,0,,78,,,-,,,,,,,7.7,
Dalwhinnie,23/09/2019 20:00,11.5,,,,0,,77,,,-,,,,,,,7.7,
Dalwhinnie,23/09/2019 21:00,10.9,,,,0,,80,,,-,,,,,,,7.7,
Dalwhinnie,23/09/2019 22:00,11.5,,,,0,,77,,,-,,,,,,,7.8,
Dalwhinnie,23/09/2019 23:00,11.8,,,,0,,77,,,-,,,,,,,8,
Dalwhinnie,24/09/2019 00:00,11.7,,,,0,0,80,,,-,,,,,,,8.4,
Dalwhinnie,24/09/2019 01:00,12.1,,,,0,,81,,,-,,,,,,,9.1,
Dalwhinnie,24/09/2019 02:00,11.8,,,,0,,86,,,-,,,,,,,9.7,
Dalwhinnie,24/09/2019 03:00,11.8,,,,0,,88,,,-,,,,,,,9.9,
Dalwhinnie,24/09/2019 04:00,12.1,,,,0,,88,,,-,,,,,,,10.3,
Dalwhinnie,24/09/2019 05:00,12.3,,,,0,,87,,,-,,,,,,,10.3,
Dalwhinnie,24/09/2019 06:00,12.9,,10.6,,0,0,84,,,-,,,,,,,10.4,
Dalwhinnie,24/09/2019 07:00,13,,,,0,,87,,,-,,,,,,,10.9,
Dalwhinnie,24/09/2019 08:00,13,,,,0,,89,,,-,,,,,,,11.3,
Dalwhinnie,24/09/2019 09:00,13.9,,,,0,,90,,,-,,,,,,,12.3,
Dalwhinnie,24/09/2019 10:00,15.1,,,,0,,81,,,-,,,,,,,12,
Dalwhinnie,24/09/2019 11:00,15,,,,0,,81,,,-,,,,,,,11.8,
Dalwhinnie,24/09/2019 12:00,16.5,,,,0,0,75,,,-,,,,,,,12.1,
Dalwhinnie,24/09/2019 13:00,17.1,,,,0,,71,,,-,,,,,,,11.9,
Dalwhinnie,24/09/2019 14:00,17.3,,,,0,,69,,,-,,,,,,,11.6,
Dalwhinnie,24/09/2019 15:00,16.6,,,,0,,72,,,-,,,,,,,11.7,
Dalwhinnie,24/09/2019 16:00,16.2,,,,0,,76,,,-,,,,,,,12,
Dalwhinnie,24/09/2019 17:00,15,,,,0,,81,,,-,,,,,,,11.9,
Dalwhinnie,24/09/2019 18:00,14.4,,,18,0,0,84,,,-,,,,,,,11.8,
Dalwhinnie,24/09/2019 19:00,14.1,,,,0,,83,,,-,,,,,,,11.4,
Dalwhinnie,24/09/2019 20:00,13.8,,,,0.2,,85,,,-,,,,,,,11.5,
Dalwhinnie,24/09/2019 21:00,13,,,,2.8,,93,,,-,,,,,,,11.9,
Dalwhinnie,24/09/2019 22:00,12.9,,,,0.4,,94,,,-,,,,,,,12,
Dalwhinnie,24/09/2019 23:00,12.7,,,,0,,96,,,-,,,,,,,12.1,
Dalwhinnie,25/09/2019 00:00,12.7,,,,0.6,4,96,,,-,,,,,,,12.1,
Dalwhinnie,25/09/2019 01:00,12.7,,,,0.2,,96,,,-,,,,,,,12.1,
Dalwhinnie,25/09/2019 02:00,12.5,,,,0.2,,96,,,-,,,,,,,11.9,
Dalwhinnie,25/09/2019 03:00,12.4,,,,0,,96,,,-,,,,,,,11.9,
Dalwhinnie,25/09/2019 04:00,12.3,,,,0,,96,,,-,,,,,,,11.7,
Dalwhinnie,25/09/2019 05:00,12.1,,,,0,,96,,,-,,,,,,,11.5,
Dalwhinnie,25/09/2019 06:00,12.3,,12.1,,0,0,95,,,-,,,,,,,11.6,
Dalwhinnie,25/09/2019 07:00,12.3,,,,0,,95,,,-,,,,,,,11.6,
Dalwhinnie,25/09/2019 08:00,12.7,,,,0,,94,,,-,,,,,,,11.9,
Dalwhinnie,25/09/2019 09:00,12.6,,,,0.2,,94,,,-,,,,,,,11.8,
Dalwhinnie,25/09/2019 10:00,13.1,,,,0,,91,,,-,,,,,,,11.7,
Dalwhinnie,25/09/2019 11:00,13.6,,,,0,,85,,,-,,,,,,,11.3,
Dalwhinnie,25/09/2019 12:00,14,,,,0,0.2,84,,,-,,,,,,,11.4,
Dalwhinnie,25/09/2019 13:00,14.8,,,,0,,81,,,-,,,,,,,11.6,
Dalwhinnie,25/09/2019 14:00,14.4,,,,0,,81,,,-,,,,,,,11.3,
Dalwhinnie,25/09/2019 15:00,14.1,,,,0,,86,,,-,,,,,,,11.9,
Dalwhinnie,25/09/2019 16:00,14.5,,,,0,,79,,,-,,,,,,,11,
Dalwhinnie,25/09/2019 17:00,14,,,,0,,83,,,-,,,,,,,11.3,
Dalwhinnie,25/09/2019 18:00,13.8,,,15.4,0,0,82,,,-,,,,,,,10.9,
Dalwhinnie,25/09/2019 19:00,13.8,,,,0,,84,,,-,,,,,,,11.2,
Dalwhinnie,25/09/2019 20:00,13.5,,,,0,,91,,,-,,,,,,,12.1,
Dalwhinnie,25/09/2019 21:00,13.4,,,,0.2,,87,,,-,,,,,,,11.3,
Dalwhinnie,25/09/2019 22:00,13.2,,,,0.4,,88,,,-,,,,,,,11.4,
Dalwhinnie,25/09/2019 23:00,13,,,,0,,85,,,-,,,,,,,10.6,
Dalwhinnie,26/09/2019 00:00,13,,,,0,0.6,84,,,-,,,,,,,10.4,
Dalwhinnie,26/09/2019 01:00,12.5,,,,0,,89,,,-,,,,,,,10.8,
Dalwhinnie,26/09/2019 02:00,12.4,,,,0.6,,89,,,-,,,,,,,10.7,
Dalwhinnie,26/09/2019 03:00,12.5,,,,0.2,,88,,,-,,,,,,,10.6,
Dalwhinnie,26/09/2019 04:00,12.9,,,,1,,84,,,-,,,,,,,10.3,
Dalwhinnie,26/09/2019 05:00,12.4,,,,0.8,,86,,,-,,,,,,,10.2,
Dalwhinnie,26/09/2019 06:00,12.4,,11.9,,0.2,2.4,88,,,-,,,,,,,10.5,
Dalwhinnie,26/09/2019 07:00,11.2,,,,0.6,,92,,,-,,,,,,,10.1,
Dalwhinnie,26/09/2019 08:00,11.8,,,,0,,86,,,-,,,,,,,9.7,
Dalwhinnie,26/09/2019 09:00,12.1,,,,0,,85,,,-,,,,,,,9.7,
Dalwhinnie,26/09/2019 10:00,10.9,,,,0,,89,,,-,,,,,,,9.2,
Dalwhinnie,26/09/2019 11:00,13.5,,,,0,,74,,,-,,,,,,,9,
Dalwhinnie,26/09/2019 12:00,12.4,,,,0,0.6,76,,,-,,,,,,,8.3,
Dalwhinnie,26/09/2019 13:00,12.8,,,,0,,73,,,-,,,,,,,8.1,
Dalwhinnie,26/09/2019 14:00,11.3,,,,0.2,,89,,,-,,,,,,,9.6,
Dalwhinnie,26/09/2019 15:00,11.2,,,,0.4,,86,,,-,,,,,,,9.1,
Dalwhinnie,26/09/2019 16:00,11.1,,,,0.2,,88,,,-,,,,,,,9.3,
Dalwhinnie,26/09/2019 17:00,10.4,,,,0,,82,,,-,,,,,,,7.6,
Dalwhinnie,26/09/2019 18:00,10.4,,,14,0,0.4,87,,,-,,,,,,,8.4,
Dalwhinnie,26/09/2019 19:00,9.9,,,,0,,85,,,-,,,,,,,7.6,
Dalwhinnie,26/09/2019 20:00,9.3,,,,0,,87,,,-,,,,,,,7.4,
Dalwhinnie,26/09/2019 21:00,8.6,,,,0,,89,,,-,,,,,,,7,
Dalwhinnie,26/09/2019 22:00,8.7,,,,0,,90,,,-,,,,,,,7.3,
Dalwhinnie,26/09/2019 23:00,8.8,,,,0.2,,92,,,-,,,,,,,7.6,
Dalwhinnie,27/09/2019 00:00,9.1,,,,0,0.2,92,,,-,,,,,,,8,
Dalwhinnie,27/09/2019 01:00,9.3,,,,0.2,,94,,,-,,,,,,,8.5,
Dalwhinnie,27/09/2019 02:00,9.6,,,,1.6,,95,,,-,,,,,,,8.9,
Dalwhinnie,27/09/2019 03:00,9.2,,,,1.2,,92,,,-,,,,,,,8,
Dalwhinnie,27/09/2019 04:00,9.1,,,,0.2,,92,,,-,,,,,,,7.9,
Dalwhinnie,27/09/2019 05:00,8.8,,,,0,,92,,,-,,,,,,,7.7,
Dalwhinnie,27/09/2019 06:00,8.8,,8.1,,0,2.8,93,,,-,,,,,,,7.8,
Dalwhinnie,27/09/2019 07:00,9.1,,,,0,,90,,,-,,,,,,,7.6,
Dalwhinnie,27/09/2019 08:00,9.6,,,,0,,87,,,-,,,,,,,7.6,
Dalwhinnie,27/09/2019 09:00,10.8,,,,0,,81,,,-,,,,,,,7.8,
Dalwhinnie,27/09/2019 10:00,10.2,,,,0,,85,,,-,,,,,,,7.8,
Dalwhinnie,27/09/2019 11:00,11.1,,,,0,,78,,,-,,,,,,,7.6,
Dalwhinnie,27/09/2019 12:00,11,,,,0,0,85,,,-,,,,,,,8.6,
Dalwhinnie,27/09/2019 13:00,11.4,,,,0,,76,,,-,,,,,,,7.4,
Dalwhinnie,27/09/2019 14:00,12,,,,0,,70,,,-,,,,,,,6.9,
Dalwhinnie,27/09/2019 15:00,10.7,,,,0,,85,,,-,,,,,,,8.3,
Dalwhinnie,27/09/2019 16:00,10.5,,,,1,,85,,,-,,,,,,,8.1,
Dalwhinnie,27/09/2019 17:00,10.7,,,,0.2,,83,,,-,,,,,,,8,
Dalwhinnie,27/09/2019 18:00,10.3,,,13.1,0,1,86,,,-,,,,,,,8.1,
Dalwhinnie,27/09/2019 19:00,9.6,,,,0,,86,,,-,,,,,,,7.5,
Dalwhinnie,27/09/2019 20:00,8.6,,,,0,,90,,,-,,,,,,,7.1,
Dalwhinnie,27/09/2019 21:00,7.5,,,,0,,92,,,-,,,,,,,6.4,
Dalwhinnie,27/09/2019 22:00,7.9,,,,0,,92,,,-,,,,,,,6.8,
Dalwhinnie,27/09/2019 23:00,7.9,,,,0,,92,,,-,,,,,,,6.7,
Dalwhinnie,28/09/2019 00:00,6.2,,,,0,0,92,,,-,,,,,,,5,
Dalwhinnie,28/09/2019 01:00,5.7,,,,0,,95,,,-,,,,,,,5.1,
Dalwhinnie,28/09/2019 02:00,5.1,,,,0,,94,,,-,,,,,,,4.3,
Dalwhinnie,28/09/2019 03:00,4.9,,,,0,,95,,,-,,,,,,,4.3,
Dalwhinnie,28/09/2019 04:00,5.9,,,,0,,97,,,-,,,,,,,5.5,
Dalwhinnie,28/09/2019 05:00,6.1,,,,0,,96,,,-,,,,,,,5.6,
Dalwhinnie,28/09/2019 06:00,6.5,,4.6,,0,0,95,,,-,,,,,,,5.9,
Dalwhinnie,28/09/2019 07:00,7.2,,,,0,,95,,,-,,,,,,,6.5,
Dalwhinnie,28/09/2019 08:00,7.2,,,,0,,94,,,-,,,,,,,6.4,
Dalwhinnie,28/09/2019 09:00,8.6,,,,0,,90,,,-,,,,,,,7.1,
Dalwhinnie,28/09/2019 10:00,10.3,,,,0,,76,,,-,,,,,,,6.3,
Dalwhinnie,28/09/2019 11:00,11.4,,,,0,,72,,,-,,,,,,,6.7,
Dalwhinnie,28/09/2019 12:00,12.4,,,,0,0,71,,,-,,,,,,,7.3,
Dalwhinnie,28/09/2019 13:00,12.4,,,,0,,66,,,-,,,,,,,6.4,
Dalwhinnie,28/09/2019 14:00,12.3,,,,0,,70,,,-,,,,,,,7,
Dalwhinnie,28/09/2019 15:00,12.6,,,,0,,66,,,-,,,,,,,6.6,
Dalwhinnie,28/09/2019 16:00,14.4,,,,0,,60,,,-,,,,,,,6.9,
Dalwhinnie,28/09/2019 17:00,12.5,,,,0,,69,,,-,,,,,,,7,
Dalwhinnie,28/09/2019 18:00,11.3,,,14.5,0,0,77,,,-,,,,,,,7.5,
Dalwhinnie,28/09/2019 19:00,10.3,,,,0,,82,,,-,,,,,,,7.5,
Dalwhinnie,28/09/2019 20:00,9.8,,,,0,,86,,,-,,,,,,,7.7,
Dalwhinnie,28/09/2019 21:00,9.5,,,,0,,89,,,-,,,,,,,7.8,
Dalwhinnie,28/09/2019 22:00,9.2,,,,0,,91,,,-,,,,,,,7.9,
Dalwhinnie,28/09/2019 23:00,8,,,,0,,92,,,-,,,,,,,6.8,
Dalwhinnie,29/09/2019 00:00,8.7,,,,0,0,93,,,-,,,,,,,7.7,
Dalwhinnie,29/09/2019 01:00,8.4,,,,0,,90,,,-,,,,,,,7,
Dalwhinnie,29/09/2019 02:00,9,,,,0,,92,,,-,,,,,,,7.9,
Dalwhinnie,29/09/2019 03:00,9,,,,0,,91,,,-,,,,,,,7.7,
Dalwhinnie,29/09/2019 04:00,9,,,,0,,93,,,-,,,,,,,8,
Dalwhinnie,29/09/2019 05:00,9.1,,,,0,,94,,,-,,,,,,,8.2,
Dalwhinnie,29/09/2019 06:00,9.3,,7.1,,0,0,92,,,-,,,,,,,8.2,
Dalwhinnie,29/09/2019 07:00,9.6,,,,0,,92,,,-,,,,,,,8.5,
Dalwhinnie,29/09/2019 08:00,9.6,,,,0,,92,,,-,,,,,,,8.4,
Dalwhinnie,29/09/2019 09:00,9.8,,,,0,,87,,,-,,,,,,,7.8,
Dalwhinnie,29/09/2019 10:00,10.5,,,,0,,83,,,-,,,,,,,7.8,
Dalwhinnie,29/09/2019 11:00,11.1,,,,0,,82,,,-,,,,,,,8.2,
Dalwhinnie,29/09/2019 12:00,11.1,,,,0,0,80,,,-,,,,,,,7.9,
Dalwhinnie,29/09/2019 13:00,11.3,,,,0,,80,,,-,,,,,,,8.1,
Dalwhinnie,29/09/2019 14:00,10.9,,,,0,,85,,,-,,,,,,,8.6,
Dalwhinnie,29/09/2019 15:00,10.3,,,,0.8,,90,,,-,,,,,,,8.8,
Dalwhinnie,29/09/2019 16:00,10,,,,0,,89,,,-,,,,,,,8.4,
Dalwhinnie,29/09/2019 17:00,10.4,,,,0.2,,87,,,-,,,,,,,8.4,
Dalwhinnie,29/09/2019 18:00,9.8,,,11.6,0,1,90,,,-,,,,,,,8.3,
Dalwhinnie,29/09/2019 19:00,9.4,,,,0,,92,,,-,,,,,,,8.2,
Dalwhinnie,29/09/2019 20:00,9.6,,,,0,,89,,,-,,,,,,,7.9,
Dalwhinnie,29/09/2019 21:00,8.6,,,,0.6,,90,,,-,,,,,,,7.1,
Dalwhinnie,29/09/2019 22:00,8.3,,,,0.6,,92,,,-,,,,,,,7.1,
Dalwhinnie,29/09/2019 23:00,8,,,,0,,94,,,-,,,,,,,7.2,
Dalwhinnie,30/09/2019 00:00,8.2,,,,0.2,1,94,,,-,,,,,,,7.4,
Dalwhinnie,30/09/2019 01:00,9.1,,,,0,,94,,,-,,,,,,,8.2,
Dalwhinnie,30/09/2019 02:00,9,,,,0,,89,,,-,,,,,,,7.4,
Dalwhinnie,30/09/2019 03:00,8,,,,0,,88,,,-,,,,,,,6.3,
Dalwhinnie,30/09/2019 04:00,8.3,,,,0,,89,,,-,,,,,,,6.7,
Dalwhinnie,30/09/2019 05:00,8.4,,,,0,,89,,,-,,,,,,,6.7,
Dalwhinnie,30/09/2019 06:00,7.1,,7.1,,0.4,1,92,,,-,,,,,,,6,
Dalwhinnie,30/09/2019 07:00,7,,,,0.2,,93,,,-,,,,,,,6.1,
Dalwhinnie,30/09/2019 08:00,7.4,,,,0,,93,,,-,,,,,,,6.4,
Dalwhinnie,30/09/2019 09:00,7,,,,0,,91,,,-,,,,,,,5.7,
Dalwhinnie,30/09/2019 10:00,7.2,,,,0,,90,,,-,,,,,,,5.8,
Dalwhinnie,30/09/2019 11:00,7.3,,,,0,,85,,,-,,,,,,,5.1,
Dalwhinnie,30/09/2019 12:00,8.4,,,,0,0.2,79,,,-,,,,,,,5,
Dalwhinnie,30/09/2019 13:00,9.3,,,,0,,69,,,-,,,,,,,4.1,
Dalwhinnie,30/09/2019 14:00,9.1,,,,0,,69,,,-,,,,,,,3.8,
Dalwhinnie,30/09/2019 15:00,8.9,,,,0,,67,,,-,,,,,,,3.3,
Dalwhinnie,30/09/2019 16:00,8.6,,,,0,,69,,,-,,,,,,,3.3,
Dalwhinnie,30/09/2019 17:00,7.6,,,,0,,80,,,-,,,,,,,4.4,
Dalwhinnie,30/09/2019 18:00,6.8,,,9.6,0,0,86,,,-,,,,,,,4.7,
Dalwhinnie,30/09/2019 19:00,6.4,,,,0,,88,,,-,,,,,,,4.7,
Dalwhinnie,30/09/2019 20:00,6,,,,0,,91,,,-,,,,,,,4.7,
Dalwhinnie,30/09/2019 21:00,5.6,,,,0,,94,,,-,,,,,,,4.8,
Dalwhinnie,30/09/2019 22:00,5.4,,,,0.2,,95,,,-,,,,,,,4.7,
Dalwhinnie,30/09/2019 23:00,5.2,,,,0,,93,,,-,,,,,,,4.3,
Dalwhinnie,01/10/2019 00:00,4.9,,,,0,0.2,90,,,-,,,,,,,3.4,
Dalwhinnie,01/10/2019 01:00,4.4,,,,0,,92,,,-,,,,,,,3.3,
Dalwhinnie,01/10/2019 02:00,4.3,,,,0,,91,,,-,,,,,,,3.1,
Dalwhinnie,01/10/2019 03:00,3.8,,,,0,,89,,,-,,,,,,,2.3,
Dalwhinnie,01/10/2019 04:00,2.7,,,,0,,92,,,-,,,,,,,1.6,
Dalwhinnie,01/10/2019 05:00,2.2,,,,0,,93,,,-,,,,,,,1.2,
Dalwhinnie,01/10/2019 06:00,1.7,,1.5,,0,0,93,,,-,,,,,,,0.8,
Dalwhinnie,01/10/2019 07:00,2.9,,,,0,,93,,,-,,,,,,,2,
Dalwhinnie,01/10/2019 08:00,4,,,,0,,88,,,-,,,,,,,2.2,
Dalwhinnie,01/10/2019 09:00,4.6,,,,0,,88,,,-,,,,,,,2.9,
Dalwhinnie,01/10/2019 10:00,6.3,,,,0,,81,,,-,,,,,,,3.4,
Dalwhinnie,01/10/2019 11:00,6.3,,,,0,,72,,,-,,,,,,,1.7,
Dalwhinnie,01/10/2019 12:00,6.8,,,,0,0,68,,,-,,,,,,,1.5,
Dalwhinnie,01/10/2019 13:00,7.6,,,,0,,62,,,-,,,,,,,0.9,
Dalwhinnie,01/10/2019 14:00,8.7,,,,0,,59,,,-,,,,,,,1.3,
Dalwhinnie,01/10/2019 15:00,8,,,,0,,68,,,-,,,,,,,2.5,
Dalwhinnie,01/10/2019 16:00,6.7,,,,0,,72,,,-,,,,,,,2.2,
Dalwhinnie,01/10/2019 17:00,6.3,,,,0,,74,,,-,,,,,,,2.1,
Dalwhinnie,01/10/2019 18:00,5.2,,,9.2,0.2,0.2,81,,,-,,,,,,,2.3,
Dalwhinnie,01/10/2019 19:00,4.2,,,,0.2,,86,,,-,,,,,,,2.2,
Dalwhinnie,01/10/2019 20:00,2.7,,,,0,,89,,,-,,,,,,,1.1,
Dalwhinnie,01/10/2019 21:00,2.6,,,,0,,92,,,-,,,,,,,1.5,
Dalwhinnie,01/10/2019 22:00,2.6,,,,0,,87,,,-,,,,,,,0.7,
Dalwhinnie,01/10/2019 23:00,2.5,,,,0,,86,,,-,,,,,,,0.5,
Dalwhinnie,02/10/2019 00:00,0.4,,,,0,0.2,91,,,-,,,,,,,-0.8,
Dalwhinnie,02/10/2019 01:00,1.3,,,,0,,85,,,-,,,,,,,-0.8,
Dalwhinnie,02/10/2019 02:00,0.8,,,,0,,90,,,-,,,,,,,-0.6,
Dalwhinnie,02/10/2019 03:00,1.5,,,,0,,87,,,-,,,,,,,-0.3,
Dalwhinnie,02/10/2019 04:00,1.9,,,,0,,83,,,-,,,,,,,-0.6,
Dalwhinnie,02/10/2019 05:00,2.8,,,,0,,81,,,-,,,,,,,0,
Dalwhinnie,02/10/2019 06:00,2.6,,-0.3,,0,0,81,,,-,,,,,,,-0.3,
Dalwhinnie,02/10/2019 07:00,1.8,,,,0,,86,,,-,,,,,,,-0.2,
Dalwhinnie,02/10/2019 08:00,3.1,,,,0,,84,,,-,,,,,,,0.8,
Dalwhinnie,02/10/2019 09:00,6.1,,,,0,,71,,,-,,,,,,,1.4,
Dalwhinnie,02/10/2019 10:00,6.6,,,,0,,70,,,-,,,,,,,1.7,
Dalwhinnie,02/10/2019 11:00,7.3,,,,0,,69,,,-,,,,,,,2,
Dalwhinnie,02/10/2019 12:00,8.2,,,,0,0,67,,,-,,,,,,,2.6,
Dalwhinnie,02/10/2019 13:00,9.2,,,,0,,63,,,-,,,,,,,2.7,
Dalwhinnie,02/10/2019 14:00,9.4,,,,0,,63,,,-,,,,,,,2.9,
Dalwhinnie,02/10/2019 15:00,8.6,,,,0,,69,,,-,,,,,,,3.4,
Dalwhinnie,02/10/2019 16:00,8.7,,,,0,,64,,,-,,,,,,,2.4,
Dalwhinnie,02/10/2019 17:00,8.2,,,,0,,71,,,-,,,,,,,3.4,
Dalwhinnie,02/10/2019 18:00,7.3,,,10.1,0,0,75,,,-,,,,,,,3.2,
Dalwhinnie,02/10/2019 19:00,6.2,,,,0,,77,,,-,,,,,,,2.5,
Dalwhinnie,02/10/2019 20:00,3.4,,,,0,,87,,,-,,,,,,,1.6,
Dalwhinnie,02/10/2019 21:00,2.7,,,,0,,89,,,-,,,,,,,1.2,
Dalwhinnie,02/10/2019 22:00,1.5,,,,0,,91,,,-,,,,,,,0.3,
Dalwhinnie,02/10/2019 23:00,0.6,,,,0,,95,,,-,,,,,,,-0.1,
Dalwhinnie,03/10/2019 00:00,0.6,,,,0,0,95,,,-,,,,,,,-0.1,
Dalwhinnie,03/10/2019 01:00,1,,,,0,,95,,,-,,,,,,,0.3,
Dalwhinnie,03/10/2019 02:00,0,,,,0,,93,,,-,,,,,,,-0.9,
Dalwhinnie,03/10/2019 03:00,0.2,,,,0,,95,,,-,,,,,,,-0.4,
Dalwhinnie,03/10/2019 04:00,-0.6,,,,0,,95,,,-,,,,,,,-1.2,
Dalwhinnie,03/10/2019 05:00,-1.9,,,,0,,92,,,-,,,,,,,-2.9,
Dalwhinnie,03/10/2019 06:00,-2.4,,-2.4,,0,0,94,,,-,,,,,,,-3.1,
Dalwhinnie,03/10/2019 07:00,-2.8,,,,0,,94,,,-,,,,,,,-3.5,
Dalwhinnie,03/10/2019 08:00,-0.5,,,,0,,97,,,-,,,,,,,-0.9,
Dalwhinnie,03/10/2019 09:00,2.1,,,,0,,93,,,-,,,,,,,1.2,
Dalwhinnie,03/10/2019 10:00,7.1,,,,0,,73,,,-,,,,,,,2.6,
Dalwhinnie,03/10/2019 11:00,8.5,,,,0,,70,,,-,,,,,,,3.4,
Dalwhinnie,03/10/2019 12:00,8.2,,,,0,0,72,,,-,,,,,,,3.5,
Dalwhinnie,03/10/2019 13:00,8.5,,,,0,,67,,,-,,,,,,,2.8,
Dalwhinnie,03/10/2019 14:00,8.2,,,,0,,67,,,-,,,,,,,2.6,
Dalwhinnie,03/10/2019 15:00,8.2,,,,0,,71,,,-,,,,,,,3.3,
Dalwhinnie,03/10/2019 16:00,7.9,,,,0,,68,,,-,,,,,,,2.5,
Dalwhinnie,03/10/2019 17:00,7.3,,,,0,,75,,,-,,,,,,,3.2,
Dalwhinnie,03/10/2019 18:00,7.7,,,9,0,0,71,,,-,,,,,,,2.9,
Dalwhinnie,03/10/2019 19:00,7.2,,,,0,,78,,,-,,,,,,,3.8,
Dalwhinnie,03/10/2019 20:00,7.2,,,,0.2,,77,,,-,,,,,,,3.5,
Dalwhinnie,03/10/2019 21:00,7.1,,,,0.4,,80,,,-,,,,,,,3.9,
Dalwhinnie,03/10/2019 22:00,7.2,,,,0.8,,81,,,-,,,,,,,4.2,
Dalwhinnie,03/10/2019 23:00,7.6,,,,0.2,,80,,,-,,,,,,,4.4,
Dalwhinnie,04/10/2019 00:00,7.8,,,,0,2,80,,,-,,,,,,,4.7,
Dalwhinnie,04/10/2019 01:00,7.9,,,,0,,80,,,-,,,,,,,4.8,
Dalwhinnie,04/10/2019 02:00,8,,,,0,,82,,,-,,,,,,,5.2,
Dalwhinnie,04/10/2019 03:00,8.3,,,,0,,79,,,-,,,,,,,5,
Dalwhinnie,04/10/2019 04:00,8.4,,,,0,,80,,,-,,,,,,,5.3,
Dalwhinnie,04/10/2019 05:00,9,,,,0,,75,,,-,,,,,,,5,
Dalwhinnie,04/10/2019 06:00,7.9,,7,,0,0,84,,,-,,,,,,,5.5,
Dalwhinnie,04/10/2019 07:00,8.5,,,,0,,77,,,-,,,,,,,4.8,
Dalwhinnie,04/10/2019 08:00,8.3,,,,0,,79,,,-,,,,,,,4.9,
Dalwhinnie,04/10/2019 09:00,8.5,,,,0,,79,,,-,,,,,,,5.2,
Dalwhinnie,04/10/2019 10:00,9.3,,,,0,,77,,,-,,,,,,,5.5,
Dalwhinnie,04/10/2019 11:00,10.5,,,,0,,72,,,-,,,,,,,5.8,
Dalwhinnie,04/10/2019 12:00,10.3,,,,0,0,71,,,-,,,,,,,5.4,
Dalwhinnie,04/10/2019 13:00,10.8,,,,0,,70,,,-,,,,,,,5.6,
Dalwhinnie,04/10/2019 14:00,10.4,,,,0,,72,,,-,,,,,,,5.6,
Dalwhinnie,04/10/2019 15:00,10.5,,,,0,,71,,,-,,,,,,,5.5,
Dalwhinnie,04/10/2019 16:00,10.4,,,,0,,68,,,-,,,,,,,4.8,
Dalwhinnie,04/10/2019 17:00,9.8,,,,0,,71,,,-,,,,,,,4.9,
Dalwhinnie,04/10/2019 18:00,8.7,,,11.2,0,0,74,,,-,,,,,,,4.5,
Dalwhinnie,04/10/2019 19:00,8.8,,,,0,,70,,,-,,,,,,,3.7,
Dalwhinnie,04/10/2019 20:00,8.3,,,,0,,73,,,-,,,,,,,3.9,
Dalwhinnie,04/10/2019 21:00,8.1,,,,0,,69,,,-,,,,,,,2.9,
Dalwhinnie,04/10/2019 22:00,7.3,,,,0,,73,,,-,,,,,,,2.8,
Dalwhinnie,04/10/2019 23:00,4.6,,,,0,,82,,,-,,,,,,,1.8,
Dalwhinnie,05/10/2019 00:00,4.1,,,,0,0,86,,,-,,,,,,,2.1,
Dalwhinnie,05/10/2019 01:00,6.3,,,,0,,83,,,-,,,,,,,3.7,
Dalwhinnie,05/10/2019 02:00,6.7,,,,0,,80,,,-,,,,,,,3.5,
Dalwhinnie,05/10/2019 03:00,6.9,,,,0,,80,,,-,,,,,,,3.8,
Dalwhinnie,05/10/2019 04:00,7.2,,,,0,,81,,,-,,,,,,,4.3,
Dalwhinnie,05/10/2019 05:00,7.1,,,,0,,84,,,-,,,,,,,4.6,
Dalwhinnie,05/10/2019 06:00,7.3,,3.8,,0,0,87,,,-,,,,,,,5.4,
Dalwhinnie,05/10/2019 07:00,7.3,,,,0,,88,,,-,,,,,,,5.6,
Dalwhinnie,05/10/2019 08:00,7.4,,,,0,,90,,,-,,,,,,,6,
Dalwhinnie,05/10/2019 09:00,8.3,,,,0,,86,,,-,,,,,,,6.1,
Dalwhinnie,05/10/2019 10:00,9,,,,0,,78,,,-,,,,,,,5.5,
Dalwhinnie,05/10/2019 11:00,9.5,,,,0,,76,,,-,,,,,,,5.5,
Dalwhinnie,05/10/2019 12:00,9.6,,,,0,0,76,,,-,,,,,,,5.6,
Dalwhinnie,05/10/2019 13:00,9.5,,,,0,,79,,,-,,,,,,,6.2,
Dalwhinnie,05/10/2019 14:00,9.8,,,,0,,79,,,-,,,,,,,6.5,
Dalwhinnie,05/10/2019 15:00,9.3,,,,0.2,,84,,,-,,,,,,,6.9,
Dalwhinnie,05/10/2019 16:00,9.2,,,,0.2,,83,,,-,,,,,,,6.6,
Dalwhinnie,05/10/2019 17:00,9.3,,,,0,,84,,,-,,,,,,,6.8,
Dalwhinnie,05/10/2019 18:00,9.3,,,9.8,0,0.4,85,,,-,,,,,,,7,
Dalwhinnie,05/10/2019 19:00,9.2,,,,0,,86,,,-,,,,,,,7,
Dalwhinnie,05/10/2019 20:00,9.4,,,,0.2,,86,,,-,,,,,,,7.3,
Dalwhinnie,05/10/2019 21:00,9.3,,,,0,,87,,,-,,,,,,,7.4,
Dalwhinnie,05/10/2019 22:00,9.4,,,,0.2,,87,,,-,,,,,,,7.5,
Dalwhinnie,05/10/2019 23:00,9.8,,,,0,,86,,,-,,,,,,,7.7,
Dalwhinnie,06/10/2019 00:00,9.9,,,,0.2,0.6,87,,,-,,,,,,,7.9,
Dalwhinnie,06/10/2019 01:00,10.1,,,,0.2,,86,,,-,,,,,,,8,
Dalwhinnie,06/10/2019 02:00,9.9,,,,0.8,,86,,,-,,,,,,,7.8,
Dalwhinnie,06/10/2019 03:00,9.7,,,,1.8,,86,,,-,,,,,,,7.6,
Dalwhinnie,06/10/2019 04:00,9.5,,,,1.2,,85,,,-,,,,,,,7.2,
Dalwhinnie,06/10/2019 05:00,8.5,,,,1.2,,83,,,-,,,,,,,5.9,
Dalwhinnie,06/10/2019 06:00,8.2,,8,,2,7.4,87,,,-,,,,,,,6.2,
Dalwhinnie,06/10/2019 07:00,8,,,,1.6,,88,,,-,,,,,,,6.2,
Dalwhinnie,06/10/2019 08:00,8,,,,1.8,,90,,,-,,,,,,,6.5,
Dalwhinnie,06/10/2019 09:00,8.2,,,,0.8,,90,,,-,,,,,,,6.8,
Dalwhinnie,06/10/2019 10:00,8.6,,,,0.4,,89,,,-,,,,,,,6.9,
Dalwhinnie,06/10/2019 11:00,9.3,,,,0,,80,,,-,,,,,,,6.2,
Dalwhinnie,06/10/2019 12:00,9.7,,,,0,5,79,,,-,,,,,,,6.4,
Dalwhinnie,06/10/2019 13:00,10.5,,,,0,,74,,,-,,,,,,,6.1,
Dalwhinnie,06/10/2019 14:00,9.4,,,,0,,78,,,-,,,,,,,5.9,
Dalwhinnie,06/10/2019 15:00,9.3,,,,0,,80,,,-,,,,,,,6.2,
Dalwhinnie,06/10/2019 16:00,9.2,,,,0,,78,,,-,,,,,,,5.7,
Dalwhinnie,06/10/2019 17:00,9,,,,0,,79,,,-,,,,,,,5.7,
Dalwhinnie,06/10/2019 18:00,8.9,,,11.1,0,0,80,,,-,,,,,,,5.7,
Dalwhinnie,06/10/2019 19:00,8.9,,,,0,,77,,,-,,,,,,,5.1,
Dalwhinnie,06/10/2019 20:00,8.9,,,,0,,81,,,-,,,,,,,5.9,
Dalwhinnie,06/10/2019 21:00,8.9,,,,0,,87,,,-,,,,,,,6.9,
Dalwhinnie,06/10/2019 22:00,9.2,,,,0,,83,,,-,,,,,,,6.6,
Dalwhinnie,06/10/2019 23:00,9.1,,,,0.2,,86,,,-,,,,,,,7,
Dalwhinnie,07/10/2019 00:00,9,,,,0.2,0.4,86,,,-,,,,,,,6.9,
Dalwhinnie,07/10/2019 01:00,9,,,,0,,86,,,-,,,,,,,6.8,
Dalwhinnie,07/10/2019 02:00,9.1,,,,0,,87,,,-,,,,,,,7.1,
Dalwhinnie,07/10/2019 03:00,9,,,,0,,89,,,-,,,,,,,7.3,
Dalwhinnie,07/10/2019 04:00,8.9,,,,0.2,,89,,,-,,,,,,,7.3,
Dalwhinnie,07/10/2019 05:00,9.9,,,,0.2,,82,,,-,,,,,,,7.1,
Dalwhinnie,07/10/2019 06:00,9.5,,8.6,,0.2,0.6,83,,,-,,,,,,,6.9,
Dalwhinnie,07/10/2019 07:00,10,,,,1.4,,76,,,-,,,,,,,6,
Dalwhinnie,07/10/2019 08:00,9,,,,1.6,,91,,,-,,,,,,,7.7,
Dalwhinnie,07/10/2019 09:00,9.2,,,,1.4,,90,,,-,,,,,,,7.7,
Dalwhinnie,07/10/2019 10:00,9.3,,,,0.8,,90,,,-,,,,,,,7.9,
Dalwhinnie,07/10/2019 11:00,9.7,,,,1,,89,,,-,,,,,,,8.1,
Dalwhinnie,07/10/2019 12:00,11.1,,,,0,6,89,,,-,,,,,,,9.4,
Dalwhinnie,07/10/2019 13:00,12.3,,,,0.2,,76,,,-,,,,,,,8.2,
Dalwhinnie,07/10/2019 14:00,12.8,,,,0,,69,,,-,,,,,,,7.3,
Dalwhinnie,07/10/2019 15:00,9.4,,,,4.8,,81,,,-,,,,,,,6.4,
Dalwhinnie,07/10/2019 16:00,9.2,,,,0.4,,77,,,-,,,,,,,5.4,
Dalwhinnie,07/10/2019 17:00,8.2,,,,2.4,,83,,,-,,,,,,,5.5,
Dalwhinnie,07/10/2019 18:00,8.7,,,13.1,0.6,9,78,,,-,,,,,,,5.1,
Dalwhinnie,07/10/2019 19:00,8.5,,,,0,,80,,,-,,,,,,,5.4,
Dalwhinnie,07/10/2019 20:00,8.6,,,,0,,79,,,-,,,,,,,5.3,
Dalwhinnie,07/10/2019 21:00,7.1,,,,4.8,,86,,,-,,,,,,,5,
Dalwhinnie,07/10/2019 22:00,8.1,,,,0,,83,,,-,,,,,,,5.4,
Dalwhinnie,07/10/2019 23:00,7.7,,,,1.4,,92,,,-,,,,,,,6.5,
Dalwhinnie,08/10/2019 00:00,8.6,,,,2.4,9,92,,,-,,,,,,,7.4,
Dalwhinnie,08/10/2019 01:00,8,,,,0.8,,90,,,-,,,,,,,6.6,
Dalwhinnie,08/10/2019 02:00,8.5,,,,4.4,,92,,,-,,,,,,,7.4,
Dalwhinnie,08/10/2019 03:00,8.5,,,,0.6,,89,,,-,,,,,,,6.8,
Dalwhinnie,08/10/2019 04:00,8.3,,,,2.4,,90,,,-,,,,,,,6.8,
Dalwhinnie,08/10/2019 05:00,7.2,,,,5.2,,84,,,-,,,,,,,4.8,
Dalwhinnie,08/10/2019 06:00,7.2,,6.6,,1.2,14,90,,,-,,,,,,,5.7,
Dalwhinnie,08/10/2019 07:00,6.9,,,,1,,82,,,-,,,,,,,4.2,
Dalwhinnie,08/10/2019 08:00,6.7,,,,0.2,,91,,,-,,,,,,,5.4,
Dalwhinnie,08/10/2019 09:00,8,,,,0.4,,85,,,-,,,,,,,5.8,
Dalwhinnie,08/10/2019 10:00,8,,,,3.4,,89,,,-,,,,,,,6.4,
Dalwhinnie,08/10/2019 11:00,8.5,,,,1.6,,89,,,-,,,,,,,6.8,
Dalwhinnie,08/10/2019 12:00,8.5,,,,2,9,88,,,-,,,,,,,6.7,
Dalwhinnie,08/10/2019 13:00,9.2,,,,0.8,,86,,,-,,,,,,,7.1,
Dalwhinnie,08/10/2019 14:00,8.9,,,,3,,90,,,-,,,,,,,7.5,
Dalwhinnie,08/10/2019 15:00,8.8,,,,1.2,,90,,,-,,,,,,,7.4,
Dalwhinnie,08/10/2019 16:00,8.7,,,,2.4,,89,,,-,,,,,,,7.1,
Dalwhinnie,08/10/2019 17:00,8.5,,,,0.2,,89,,,-,,,,,,,6.8,
Dalwhinnie,08/10/2019 18:00,8.2,,,9.4,0.6,8,87,,,-,,,,,,,6.3,
Dalwhinnie,08/10/2019 19:00,8,,,,0,,90,,,-,,,,,,,6.5,
Dalwhinnie,08/10/2019 20:00,7.9,,,,1.4,,90,,,-,,,,,,,6.4,
Dalwhinnie,08/10/2019 21:00,7.9,,,,0.2,,87,,,-,,,,,,,5.9,
Dalwhinnie,08/10/2019 22:00,7.9,,,,1.6,,83,,,-,,,,,,,5.2,
Dalwhinnie,08/10/2019 23:00,8.2,,,,0.4,,87,,,-,,,,,,,6.2,
Dalwhinnie,09/10/2019 00:00,8.1,,,,0.4,4,84,,,-,,,,,,,5.7,
Dalwhinnie,09/10/2019 01:00,8.2,,,,0.6,,81,,,-,,,,,,,5.3,
Dalwhinnie,09/10/2019 02:00,8.2,,,,0.8,,83,,,-,,,,,,,5.5,
Dalwhinnie,09/10/2019 03:00,7.8,,,,1,,87,,,-,,,,,,,5.8,
Dalwhinnie,09/10/2019 04:00,7.8,,,,0,,85,,,-,,,,,,,5.6,
Dalwhinnie,09/10/2019 05:00,7.3,,,,1.2,,84,,,-,,,,,,,4.8,
Dalwhinnie,09/10/2019 06:00,7.5,,7.1,,0,4,84,,,-,,,,,,,5.1,
Dalwhinnie,09/10/2019 07:00,7.5,,,,0.8,,87,,,-,,,,,,,5.5,
Dalwhinnie,09/10/2019 08:00,7.5,,,,0.2,,88,,,-,,,,,,,5.7,
Dalwhinnie,09/10/2019 09:00,7.9,,,,0.2,,85,,,-,,,,,,,5.7,
Dalwhinnie,09/10/2019 10:00,8.3,,,,0.2,,87,,,-,,,,,,,6.4,
Dalwhinnie,09/10/2019 11:00,9,,,,0.6,,77,,,-,,,,,,,5.3,
Dalwhinnie,09/10/2019 12:00,8.4,,,,0.2,2,80,,,-,,,,,,,5.3,
Dalwhinnie,09/10/2019 13:00,8.3,,,,0.2,,84,,,-,,,,,,,5.8,
Dalwhinnie,09/10/2019 14:00,8.1,,,,2,,80,,,-,,,,,,,4.9,
Dalwhinnie,09/10/2019 15:00,8.3,,,,0.4,,84,,,-,,,,,,,5.8,
Dalwhinnie,09/10/2019 16:00,7.9,,,,0.6,,86,,,-,,,,,,,5.8,
Dalwhinnie,09/10/2019 17:00,8,,,,0,,83,,,-,,,,,,,5.3,
Dalwhinnie,09/10/2019 18:00,8,,,9.2,0.2,4,84,,,-,,,,,,,5.6,
Dalwhinnie,09/10/2019 19:00,8.1,,,,0.2,,87,,,-,,,,,,,6.1,
Dalwhinnie,09/10/2019 20:00,8.3,,,,0.2,,84,,,-,,,,,,,5.8,
Dalwhinnie,09/10/2019 21:00,8.4,,,,0.2,,87,,,-,,,,,,,6.5,
Dalwhinnie,09/10/2019 22:00,8.4,,,,0.8,,89,,,-,,,,,,,6.7,
Dalwhinnie,09/10/2019 23:00,8.6,,,,3,,88,,,-,,,,,,,6.8,
Dalwhinnie,10/10/2019 00:00,8.9,,,,0.8,5,86,,,-,,,,,,,6.8,
Dalwhinnie,10/10/2019 01:00,8.9,,,,1.2,,86,,,-,,,,,,,6.7,
Dalwhinnie,10/10/2019 02:00,8.5,,,,0.2,,84,,,-,,,,,,,6,
Dalwhinnie,10/10/2019 03:00,8.8,,,,0.4,,84,,,-,,,,,,,6.4,
Dalwhinnie,10/10/2019 04:00,8.5,,,,0.6,,86,,,-,,,,,,,6.4,
Dalwhinnie,10/10/2019 05:00,8.4,,,,1.2,,87,,,-,,,,,,,6.5,
Dalwhinnie,10/10/2019 06:00,7.8,,7.7,,0,4,87,,,-,,,,,,,5.9,
Dalwhinnie,10/10/2019 07:00,7.8,,,,0,,83,,,-,,,,,,,5.1,
Dalwhinnie,10/10/2019 08:00,8,,,,0,,82,,,-,,,,,,,5.2,
Dalwhinnie,10/10/2019 09:00,8.9,,,,0,,77,,,-,,,,,,,5.1,
Dalwhinnie,10/10/2019 10:00,9,,,,0,,78,,,-,,,,,,,5.5,
Dalwhinnie,10/10/2019 11:00,9.2,,,,0,,82,,,-,,,,,,,6.4,
Dalwhinnie,10/10/2019 12:00,9.2,,,,0,0,86,,,-,,,,,,,7.1,
Dalwhinnie,10/10/2019 13:00,9.2,,,,0.2,,83,,,-,,,,,,,6.5,
Dalwhinnie,10/10/2019 14:00,9,,,,0,,86,,,-,,,,,,,6.8,
Dalwhinnie,10/10/2019 15:00,8.5,,,,0.2,,84,,,-,,,,,,,6.1,
Dalwhinnie,10/10/2019 16:00,7.8,,,,0.4,,88,,,-,,,,,,,6.1,
Dalwhinnie,10/10/2019 17:00,7.6,,,,1.2,,88,,,-,,,,,,,5.9,
Dalwhinnie,10/10/2019 18:00,8.1,,,9.4,0.6,3,88,,,-,,,,,,,6.3,
Dalwhinnie,10/10/2019 19:00,8.5,,,,0,,90,,,-,,,,,,,7.1,
Dalwhinnie,10/10/2019 20:00,8.6,,,,0.8,,93,,,-,,,,,,,7.6,
Dalwhinnie,10/10/2019 21:00,9.6,,,,0.8,,91,,,-,,,,,,,8.3,
Dalwhinnie,10/10/2019 22:00,8.3,,,,5.8,,84,,,-,,,,,,,5.8,
Dalwhinnie,10/10/2019 23:00,8.5,,,,0,,86,,,-,,,,,,,6.3,
Dalwhinnie,11/10/2019 00:00,8.4,,,,0.2,8,90,,,-,,,,,,,6.9,
Dalwhinnie,11/10/2019 01:00,8.4,,,,0,,83,,,-,,,,,,,5.8,
Dalwhinnie,11/10/2019 02:00,8.1,,,,1,,89,,,-,,,,,,,6.4,
Dalwhinnie,11/10/2019 03:00,8,,,,1,,87,,,-,,,,,,,6.1,
Dalwhinnie,11/10/2019 04:00,8.2,,,,1.6,,89,,,-,,,,,,,6.5,
Dalwhinnie,11/10/2019 05:00,8,,,,1.4,,91,,,-,,,,,,,6.7,
Dalwhinnie,11/10/2019 06:00,7.7,,7.7,,1.8,6,88,,,-,,,,,,,6,
Dalwhinnie,11/10/2019 07:00,7.9,,,,2.2,,91,,,-,,,,,,,6.6,
Dalwhinnie,11/10/2019 08:00,8.1,,,,2.6,,85,,,-,,,,,,,5.8,
Dalwhinnie,11/10/2019 09:00,7.8,,,,0.4,,87,,,-,,,,,,,5.8,
Dalwhinnie,11/10/2019 10:00,8.4,,,,0.2,,85,,,-,,,,,,,6.1,
Dalwhinnie,11/10/2019 11:00,8.6,,,,0.8,,84,,,-,,,,,,,6.2,
Dalwhinnie,11/10/2019 12:00,8.8,,,,3.4,10,83,,,-,,,,,,,6.2,
Dalwhinnie,11/10/2019 13:00,9.6,,,,0,,79,,,-,,,,,,,6.3,
Dalwhinnie,11/10/2019 14:00,8.5,,,,1.2,,83,,,-,,,,,,,5.8,
Dalwhinnie,11/10/2019 15:00,8.4,,,,0.4,,83,,,-,,,,,,,5.7,
Dalwhinnie,11/10/2019 16:00,8.5,,,,1.6,,78,,,-,,,,,,,5,
Dalwhinnie,11/10/2019 17:00,8,,,,0.8,,83,,,-,,,,,,,5.4,
Dalwhinnie,11/10/2019 18:00,7.8,,,9.8,0,4,85,,,-,,,,,,,5.5,
Dalwhinnie,11/10/2019 19:00,7.3,,,,0.2,,87,,,-,,,,,,,5.3,
Dalwhinnie,11/10/2019 20:00,7.1,,,,0,,92,,,-,,,,,,,6,
Dalwhinnie,11/10/2019 21:00,7.5,,,,0.2,,86,,,-,,,,,,,5.4,
Dalwhinnie,11/10/2019 22:00,7.6,,,,0,,87,,,-,,,,,,,5.7,
Dalwhinnie,11/10/2019 23:00,7.3,,,,0,,87,,,-,,,,,,,5.3,
Dalwhinnie,12/10/2019 00:00,7,,,,0,0.4,84,,,-,,,,,,,4.5,
Dalwhinnie,12/10/2019 01:00,6.7,,,,0,,82,,,-,,,,,,,3.9,
Dalwhinnie,12/10/2019 02:00,6.6,,,,0,,79,,,-,,,,,,,3.4,
Dalwhinnie,12/10/2019 03:00,6.4,,,,0,,80,,,-,,,,,,,3.3,
Dalwhinnie,12/10/2019 04:00,6.2,,,,0,,81,,,-,,,,,,,3.2,
Dalwhinnie,12/10/2019 05:00,6.7,,,,0,,80,,,-,,,,,,,3.5,
Dalwhinnie,12/10/2019 06:00,5.9,,5.9,,0,0,83,,,-,,,,,,,3.4,
Dalwhinnie,12/10/2019 07:00,6,,,,0,,83,,,-,,,,,,,3.5,
Dalwhinnie,12/10/2019 08:00,6.5,,,,0,,79,,,-,,,,,,,3.2,
Dalwhinnie,12/10/2019 09:00,7.3,,,,0,,76,,,-,,,,,,,3.4,
Dalwhinnie,12/10/2019 10:00,9,,,,0,,72,,,-,,,,,,,4.4,
Dalwhinnie,12/10/2019 11:00,8.7,,,,0,,79,,,-,,,,,,,5.4,
Dalwhinnie,12/10/2019 12:00,8.3,,,,0,0,80,,,-,,,,,,,5.2,
Dalwhinnie,12/10/2019 13:00,9.2,,,,0,,80,,,-,,,,,,,6.1,
Dalwhinnie,12/10/2019 14:00,9.6,,,,0.2,,76,,,-,,,,,,,5.7,
Dalwhinnie,12/10/2019 15:00,8.8,,,,0,,77,,,-,,,,,,,5,
Dalwhinnie,12/10/2019 16:00,8.9,,,,0,,71,,,-,,,,,,,4.1,
Dalwhinnie,12/10/2019 17:00,7.9,,,,0,,77,,,-,,,,,,,4.3,
Dalwhinnie,12/10/2019 18:00,7.1,,,9.9,0,0.2,87,,,-,,,,,,,5.1,
Dalwhinnie,12/10/2019 19:00,7.1,,,,0.2,,91,,,-,,,,,,,5.8,
Dalwhinnie,12/10/2019 20:00,5.4,,,,0,,89,,,-,,,,,,,3.8,
Dalwhinnie,12/10/2019 21:00,4.7,,,,0,,89,,,-,,,,,,,3.1,
Dalwhinnie,12/10/2019 22:00,5.3,,,,0,,90,,,-,,,,,,,3.9,
Dalwhinnie,12/10/2019 23:00,4,,,,0,,91,,,-,,,,,,,2.8,
Dalwhinnie,13/10/2019 00:00,4.2,,,,0,0.2,91,,,-,,,,,,,2.9,
Dalwhinnie,13/10/2019 01:00,3.7,,,,0,,93,,,-,,,,,,,2.8,
Dalwhinnie,13/10/2019 02:00,2.8,,,,0,,94,,,-,,,,,,,2,
Dalwhinnie,13/10/2019 03:00,1.2,,,,0,,94,,,-,,,,,,,0.4,
Dalwhinnie,13/10/2019 04:00,0.4,,,,0,,95,,,-,,,,,,,-0.2,
Dalwhinnie,13/10/2019 05:00,0.3,,,,0,,97,,,-,,,,,,,-0.1,
Dalwhinnie,13/10/2019 06:00,0,,-0.7,,0,0,97,,,-,,,,,,,-0.4,
Dalwhinnie,13/10/2019 07:00,-0.2,,,,0,,97,,,-,,,,,,,-0.5,
Dalwhinnie,13/10/2019 08:00,0.5,,,,0,,97,,,-,,,,,,,0.2,
Dalwhinnie,13/10/2019 09:00,2.6,,,,0.2,,97,,,-,,,,,,,2.3,
Dalwhinnie,13/10/2019 10:00,5,,,,0,,97,,,-,,,,,,,4.7,
Dalwhinnie,13/10/2019 11:00,6.6,,,,0,,92,,,-,,,,,,,5.5,
Dalwhinnie,13/10/2019 12:00,7.5,,,,0,0.2,87,,,-,,,,,,,5.6,
Dalwhinnie,13/10/2019 13:00,8.6,,,,0,,78,,,-,,,,,,,5,
Dalwhinnie,13/10/2019 14:00,9,,,,0,,78,,,-,,,,,,,5.5,
Dalwhinnie,13/10/2019 15:00,8.9,,,,0,,80,,,-,,,,,,,5.8,
Dalwhinnie,13/10/2019 16:00,8.6,,,,0,,83,,,-,,,,,,,5.9,
Dalwhinnie,13/10/2019 17:00,8,,,,0,,84,,,-,,,,,,,5.6,
Dalwhinnie,13/10/2019 18:00,7.3,,,9.1,0,0,90,,,-,,,,,,,5.9,
Dalwhinnie,13/10/2019 19:00,7,,,,0,,93,,,-,,,,,,,6,
Dalwhinnie,13/10/2019 20:00,6.6,,,,1,,94,,,-,,,,,,,5.8,
Dalwhinnie,13/10/2019 21:00,6.3,,,,0.2,,95,,,-,,,,,,,5.7,
Dalwhinnie,13/10/2019 22:00,6.4,,,,1.4,,96,,,-,,,,,,,5.9,
Dalwhinnie,13/10/2019 23:00,6.3,,,,0.8,,95,,,-,,,,,,,5.6,
Dalwhinnie,14/10/2019 00:00,4.6,,,,0.2,4,93,,,-,,,,,,,3.6,
Dalwhinnie,14/10/2019 01:00,3.5,,,,0,,93,,,-,,,,,,,2.6,
Dalwhinnie,14/10/2019 02:00,4.6,,,,0,,95,,,-,,,,,,,4,
Dalwhinnie,14/10/2019 03:00,4.1,,,,0,,96,,,-,,,,,,,3.6,
Dalwhinnie,14/10/2019 04:00,4.4,,,,0,,96,,,-,,,,,,,3.9,
Dalwhinnie,14/10/2019 05:00,6,,,,0,,93,,,-,,,,,,,5.1,
Dalwhinnie,14/10/2019 06:00,4.9,,3.4,,0,0,93,,,-,,,,,,,3.9,
Dalwhinnie,14/10/2019 07:00,2.6,,,,0,,94,,,-,,,,,,,1.8,
Dalwhinnie,14/10/2019 08:00,2.8,,,,0,,97,,,-,,,,,,,2.4,
Dalwhinnie,14/10/2019 09:00,6.4,,,,0,,97,,,-,,,,,,,6.1,
Dalwhinnie,14/10/2019 10:00,8.2,,,,0,,83,,,-,,,,,,,5.5,
Dalwhinnie,14/10/2019 11:00,8.7,,,,0,,79,,,-,,,,,,,5.4,
Dalwhinnie,14/10/2019 12:00,9.2,,,,0,0,77,,,-,,,,,,,5.5,
Dalwhinnie,14/10/2019 13:00,9.5,,,,0,,68,,,-,,,,,,,4,
Dalwhinnie,14/10/2019 14:00,9.9,,,,0,,69,,,-,,,,,,,4.6,
Dalwhinnie,14/10/2019 15:00,9.5,,,,0,,71,,,-,,,,,,,4.7,
Dalwhinnie,14/10/2019 16:00,9.2,,,,0,,75,,,-,,,,,,,5.1,
Dalwhinnie,14/10/2019 17:00,8.3,,,,0,,83,,,-,,,,,,,5.7,
Dalwhinnie,14/10/2019 18:00,6.7,,,10.4,0,0,90,,,-,,,,,,,5.2,
Dalwhinnie,14/10/2019 19:00,7.4,,,,0,,85,,,-,,,,,,,5.1,
Dalwhinnie,14/10/2019 20:00,7.6,,,,0,,80,,,-,,,,,,,4.5,
Dalwhinnie,14/10/2019 21:00,6.8,,,,0,,82,,,-,,,,,,,4.1,
Dalwhinnie,14/10/2019 22:00,7.6,,,,0,,80,,,-,,,,,,,4.4,
Dalwhinnie,14/10/2019 23:00,6.5,,,,0,,83,,,-,,,,,,,3.9,
Dalwhinnie,15/10/2019 00:00,6.9,,,,0,0,84,,,-,,,,,,,4.4,
Dalwhinnie,15/10/2019 01:00,6.9,,,,0,,88,,,-,,,,,,,5.1,
Dalwhinnie,15/10/2019 02:00,4.8,,,,0,,89,,,-,,,,,,,3.3,
Dalwhinnie,15/10/2019 03:00,5.4,,,,0,,92,,,-,,,,,,,4.3,
Dalwhinnie,15/10/2019 04:00,5.7,,,,0,,90,,,-,,,,,,,4.3,
Dalwhinnie,15/10/2019 05:00,6,,,,0,,88,,,-,,,,,,,4.2,
Dalwhinnie,15/10/2019 06:00,6.5,,4.8,,0,0,90,,,-,,,,,,,5,
Dalwhinnie,15/10/2019 07:00,7,,,,0,,83,,,-,,,,,,,4.4,
Dalwhinnie,15/10/2019 08:00,5.6,,,,0,,91,,,-,,,,,,,4.3,
Dalwhinnie,15/10/2019 09:00,8.3,,,,0,,80,,,-,,,,,,,5.1,
Dalwhinnie,15/10/2019 10:00,9,,,,0,,76,,,-,,,,,,,5.1,
Dalwhinnie,15/10/2019 11:00,9.1,,,,0,,77,,,-,,,,,,,5.4,
Dalwhinnie,15/10/2019 12:00,10,,,,0,0,70,,,-,,,,,,,4.9,
Dalwhinnie,15/10/2019 13:00,11,,,,0,,67,,,-,,,,,,,5.2,
Dalwhinnie,15/10/2019 14:00,11.7,,,,0,,66,,,-,,,,,,,5.7,
Dalwhinnie,15/10/2019 15:00,10.3,,,,0,,66,,,-,,,,,,,4.4,
Dalwhinnie,15/10/2019 16:00,9.7,,,,0,,72,,,-,,,,,,,5.1,
Dalwhinnie,15/10/2019 17:00,9.7,,,,0,,76,,,-,,,,,,,5.8,
Dalwhinnie,15/10/2019 18:00,7.9,,,11.8,0,0,80,,,-,,,,,,,4.7,
Dalwhinnie,15/10/2019 19:00,5.8,,,,0,,86,,,-,,,,,,,3.7,
Dalwhinnie,15/10/2019 20:00,6.9,,,,0,,82,,,-,,,,,,,4.2,
Dalwhinnie,15/10/2019 21:00,7.2,,,,0,,83,,,-,,,,,,,4.6,
Dalwhinnie,15/10/2019 22:00,7,,,,0,,84,,,-,,,,,,,4.6,
Dalwhinnie,15/10/2019 23:00,8.1,,,,0,,82,,,-,,,,,,,5.3,
Dalwhinnie,16/10/2019 00:00,8.5,,,,0,0,83,,,-,,,,,,,5.8,
Dalwhinnie,16/10/2019 01:00,8.2,,,,0,,87,,,-,,,,,,,6.2,
Dalwhinnie,16/10/2019 02:00,7.8,,,,0,,90,,,-,,,,,,,6.3,
Dalwhinnie,16/10/2019 03:00,8.2,,,,0,,88,,,-,,,,,,,6.4,
Dalwhinnie,16/10/2019 04:00,8.2,,,,0,,87,,,-,,,,,,,6.2,
Dalwhinnie,16/10/2019 05:00,8.4,,,,0,,84,,,-,,,,,,,6,
Dalwhinnie,16/10/2019 06:00,8.4,,5.3,,0,0,88,,,-,,,,,,,6.6,
Dalwhinnie,16/10/2019 07:00,8.4,,,,0.2,,89,,,-,,,,,,,6.7,
Dalwhinnie,16/10/2019 08:00,8.5,,,,0.6,,87,,,-,,,,,,,6.5,
Dalwhinnie,16/10/2019 09:00,8.8,,,,0.2,,87,,,-,,,,,,,6.8,
Dalwhinnie,16/10/2019 10:00,8.9,,,,0.4,,90,,,-,,,,,,,7.4,
Dalwhinnie,16/10/2019 11:00,9.2,,,,0,,89,,,-,,,,,,,7.5,
Dalwhinnie,16/10/2019 12:00,7.9,,,,1,2,87,,,-,,,,,,,6,
Dalwhinnie,16/10/2019 13:00,8.8,,,,0,,83,,,-,,,,,,,6.2,
Dalwhinnie,16/10/2019 14:00,10.4,,,,0,,70,,,-,,,,,,,5.2,
Dalwhinnie,16/10/2019 15:00,10.5,,,,0,,67,,,-,,,,,,,4.8,
Dalwhinnie,16/10/2019 16:00,9.7,,,,0,,69,,,-,,,,,,,4.3,
Dalwhinnie,16/10/2019 17:00,7.8,,,,0,,77,,,-,,,,,,,4.1,
Dalwhinnie,16/10/2019 18:00,5.7,,,10.9,0,0,88,,,-,,,,,,,4,
Dalwhinnie,16/10/2019 19:00,4.2,,,,0,,91,,,-,,,,,,,3,
Dalwhinnie,16/10/2019 20:00,3.8,,,,0,,91,,,-,,,,,,,2.6,
Dalwhinnie,16/10/2019 21:00,2.4,,,,0,,91,,,-,,,,,,,1.2,
Dalwhinnie,16/10/2019 22:00,1.5,,,,0,,95,,,-,,,,,,,0.9,
Dalwhinnie,16/10/2019 23:00,1,,,,0,,96,,,-,,,,,,,0.5,
Dalwhinnie,17/10/2019 00:00,1.5,,,,0,0,97,,,-,,,,,,,1.2,
Dalwhinnie,17/10/2019 01:00,1.6,,,,0,,97,,,-,,,,,,,1.2,
Dalwhinnie,17/10/2019 02:00,1.3,,,,0,,96,,,-,,,,,,,0.8,
Dalwhinnie,17/10/2019 03:00,1.7,,,,0,,97,,,-,,,,,,,1.3,
Dalwhinnie,17/10/2019 04:00,0.8,,,,0,,95,,,-,,,,,,,0.2,
Dalwhinnie,17/10/2019 05:00,1.3,,,,0,,96,,,-,,,,,,,0.8,
Dalwhinnie,17/10/2019 06:00,1.6,,0.3,,0,0,95,,,-,,,,,,,0.9,
Dalwhinnie,17/10/2019 07:00,1.6,,,,0.2,,95,,,-,,,,,,,1,
Dalwhinnie,17/10/2019 08:00,4.2,,,,0,,97,,,-,,,,,,,3.9,
Dalwhinnie,17/10/2019 09:00,6.3,,,,0,,88,,,-,,,,,,,4.5,
Dalwhinnie,17/10/2019 10:00,8.8,,,,0,,78,,,-,,,,,,,5.2,
Dalwhinnie,17/10/2019 11:00,10,,,,0,,77,,,-,,,,,,,6.2,
Dalwhinnie,17/10/2019 12:00,9.1,,,,0,0.2,75,,,-,,,,,,,5,
Dalwhinnie,17/10/2019 13:00,8.6,,,,0,,81,,,-,,,,,,,5.7,
Dalwhinnie,17/10/2019 14:00,8.8,,,,0,,79,,,-,,,,,,,5.5,
Dalwhinnie,17/10/2019 15:00,8.7,,,,0,,80,,,-,,,,,,,5.5,
Dalwhinnie,17/10/2019 16:00,8.3,,,,0,,82,,,-,,,,,,,5.5,
Dalwhinnie,17/10/2019 17:00,8.5,,,,0,,81,,,-,,,,,,,5.5,
Dalwhinnie,17/10/2019 18:00,8.6,,,10.2,0,0,81,,,-,,,,,,,5.7,
Dalwhinnie,17/10/2019 19:00,8.3,,,,0,,84,,,-,,,,,,,5.9,
Dalwhinnie,17/10/2019 20:00,8.4,,,,0,,82,,,-,,,,,,,5.6,
Dalwhinnie,17/10/2019 21:00,8.3,,,,0,,81,,,-,,,,,,,5.4,
Dalwhinnie,17/10/2019 22:00,8.2,,,,0,,80,,,-,,,,,,,5.1,
Dalwhinnie,17/10/2019 23:00,8,,,,0,,82,,,-,,,,,,,5.2,
Dalwhinnie,18/10/2019 00:00,8.2,,,,0,0,82,,,-,,,,,,,5.4,
Dalwhinnie,18/10/2019 01:00,8,,,,0.4,,84,,,-,,,,,,,5.5,
Dalwhinnie,18/10/2019 02:00,6.6,,,,0.8,,85,,,-,,,,,,,4.3,
Dalwhinnie,18/10/2019 03:00,5.9,,,,0,,89,,,-,,,,,,,4.3,
Dalwhinnie,18/10/2019 04:00,7,,,,0,,85,,,-,,,,,,,4.8,
Dalwhinnie,18/10/2019 05:00,6.8,,,,0,,88,,,-,,,,,,,5.1,
Dalwhinnie,18/10/2019 06:00,7.1,,5.4,,0,1,85,,,-,,,,,,,4.9,
Dalwhinnie,18/10/2019 07:00,7,,,,0,,84,,,-,,,,,,,4.6,
Dalwhinnie,18/10/2019 08:00,6,,,,0,,90,,,-,,,,,,,4.6,
Dalwhinnie,18/10/2019 09:00,5.7,,,,0,,91,,,-,,,,,,,4.4,
Dalwhinnie,18/10/2019 10:00,7,,,,0,,89,,,-,,,,,,,5.4,
Dalwhinnie,18/10/2019 11:00,8,,,,0,,81,,,-,,,,,,,5.1,
Dalwhinnie,18/10/2019 12:00,8.4,,,,0,0,77,,,-,,,,,,,4.7,
Dalwhinnie,18/10/2019 13:00,9.3,,,,0,,72,,,-,,,,,,,4.6,
Dalwhinnie,18/10/2019 14:00,10,,,,0.2,,72,,,-,,,,,,,5.3,
Dalwhinnie,18/10/2019 15:00,9.3,,,,0,,78,,,-,,,,,,,5.7,
Dalwhinnie,18/10/2019 16:00,8,,,,0,,87,,,-,,,,,,,6.1,
Dalwhinnie,18/10/2019 17:00,7.3,,,,1.2,,93,,,-,,,,,,,6.3,
Dalwhinnie,18/10/2019 18:00,6.6,,,10.3,2,3,92,,,-,,,,,,,5.5,
Dalwhinnie,18/10/2019 19:00,6.3,,,,0.4,,93,,,-,,,,,,,5.3,
Dalwhinnie,18/10/2019 20:00,6.8,,,,0.2,,91,,,-,,,,,,,5.5,
Dalwhinnie,18/10/2019 21:00,6.3,,,,0.8,,95,,,-,,,,,,,5.6,
Dalwhinnie,18/10/2019 22:00,6.1,,,,0.4,,95,,,-,,,,,,,5.5,
Dalwhinnie,18/10/2019 23:00,6.3,,,,0.4,,96,,,-,,,,,,,5.8,
Dalwhinnie,19/10/2019 00:00,6.9,,,,0,2,96,,,-,,,,,,,6.4,
Dalwhinnie,19/10/2019 01:00,7.2,,,,0.2,,96,,,-,,,,,,,6.7,
Dalwhinnie,19/10/2019 02:00,7.5,,,,0,,94,,,-,,,,,,,6.7,
Dalwhinnie,19/10/2019 03:00,7.6,,,,0.2,,93,,,-,,,,,,,6.6,
Dalwhinnie,19/10/2019 04:00,7.5,,,,0.4,,91,,,-,,,,,,,6.2,
Dalwhinnie,19/10/2019 05:00,7.2,,,,0.2,,86,,,-,,,,,,,5.1,
Dalwhinnie,19/10/2019 06:00,6.6,,6.1,,0,1,90,,,-,,,,,,,5.1,
Dalwhinnie,19/10/2019 07:00,6,,,,0,,90,,,-,,,,,,,4.5,
Dalwhinnie,19/10/2019 08:00,6.2,,,,0,,88,,,-,,,,,,,4.5,
Dalwhinnie,19/10/2019 09:00,6.5,,,,0.2,,84,,,-,,,,,,,4.1,
Dalwhinnie,19/10/2019 10:00,7,,,,0,,81,,,-,,,,,,,4.1,
Dalwhinnie,19/10/2019 11:00,8.4,,,,0,,76,,,-,,,,,,,4.6,
Dalwhinnie,19/10/2019 12:00,8.5,,,,0,0.2,73,,,-,,,,,,,4,
Dalwhinnie,19/10/2019 13:00,8.3,,,,0,,74,,,-,,,,,,,4.1,
Dalwhinnie,19/10/2019 14:00,8.9,,,,0,,72,,,-,,,,,,,4.3,
Dalwhinnie,19/10/2019 15:00,8.3,,,,0,,72,,,-,,,,,,,3.6,
Dalwhinnie,19/10/2019 16:00,7.7,,,,0,,79,,,-,,,,,,,4.3,
Dalwhinnie,19/10/2019 17:00,6.9,,,,0.2,,87,,,-,,,,,,,5,
Dalwhinnie,19/10/2019 18:00,6.6,,,9.1,0.4,0.6,87,,,-,,,,,,,4.7,
Dalwhinnie,19/10/2019 19:00,5.9,,,,0.6,,91,,,-,,,,,,,4.6,
Dalwhinnie,19/10/2019 20:00,6.6,,,,0.2,,87,,,-,,,,,,,4.7,
Dalwhinnie,19/10/2019 21:00,6.1,,,,0,,86,,,-,,,,,,,4.1,
Dalwhinnie,19/10/2019 22:00,5.8,,,,0,,85,,,-,,,,,,,3.5,
Dalwhinnie,19/10/2019 23:00,5.6,,,,0.2,,80,,,-,,,,,,,2.6,
Dalwhinnie,20/10/2019 00:00,4.5,,,,0,1,80,,,-,,,,,,,1.5,
Dalwhinnie,20/10/2019 01:00,4.6,,,,0,,78,,,-,,,,,,,1.2,
Dalwhinnie,20/10/2019 02:00,4.1,,,,0,,86,,,-,,,,,,,2.1,
Dalwhinnie,20/10/2019 03:00,3.9,,,,0,,85,,,-,,,,,,,1.7,
Dalwhinnie,20/10/2019 04:00,3.8,,,,0,,89,,,-,,,,,,,2.2,
Dalwhinnie,20/10/2019 05:00,4,,,,0.2,,90,,,-,,,,,,,2.6,
Dalwhinnie,20/10/2019 06:00,4.5,,3.7,,0,0,83,,,-,,,,,,,1.9,
Dalwhinnie,20/10/2019 07:00,4.4,,,,0,,84,,,-,,,,,,,2.1,
Dalwhinnie,20/10/2019 08:00,4.5,,,,0,,84,,,-,,,,,,,2.1,
Dalwhinnie,20/10/2019 09:00,4.9,,,,0,,82,,,-,,,,,,,2.2,
Dalwhinnie,20/10/2019 10:00,5.1,,,,0,,80,,,-,,,,,,,2,
Dalwhinnie,20/10/2019 11:00,5.7,,,,0,,75,,,-,,,,,,,1.8,
Dalwhinnie,20/10/2019 12:00,6,,,,0,0,73,,,-,,,,,,,1.7,
Dalwhinnie,20/10/2019 13:00,6.7,,,,0,,71,,,-,,,,,,,1.9,
Dalwhinnie,20/10/2019 14:00,7.1,,,,0,,65,,,-,,,,,,,1,
Dalwhinnie,20/10/2019 15:00,6.2,,,,0,,72,,,-,,,,,,,1.6,
Dalwhinnie,20/10/2019 16:00,5.9,,,,0,,71,,,-,,,,,,,1.1,
Dalwhinnie,20/10/2019 17:00,5,,,,0,,79,,,-,,,,,,,1.7,
Dalwhinnie,20/10/2019 18:00,4.9,,,7.4,0,0,81,,,-,,,,,,,2,
Dalwhinnie,20/10/2019 19:00,4.2,,,,0,,89,,,-,,,,,,,2.6,
Dalwhinnie,20/10/2019 20:00,3.4,,,,0,,89,,,-,,,,,,,1.8,
Dalwhinnie,20/10/2019 21:00,2.5,,,,0,,91,,,-,,,,,,,1.2,
Dalwhinnie,20/10/2019 22:00,2.9,,,,0,,93,,,-,,,,,,,1.9,
Dalwhinnie,20/10/2019 23:00,2.8,,,,0,,86,,,-,,,,,,,0.7,
Dalwhinnie,21/10/2019 00:00,1.3,,,,0,0,90,,,-,,,,,,,-0.1,
Dalwhinnie,21/10/2019 01:00,0.8,,,,0,,93,,,-,,,,,,,-0.1,
Dalwhinnie,21/10/2019 02:00,1.2,,,,0,,93,,,-,,,,,,,0.2,
Dalwhinnie,21/10/2019 03:00,1.6,,,,0,,90,,,-,,,,,,,0.2,
Dalwhinnie,21/10/2019 04:00,-1.4,,,,0,,90,,,-,,,,,,,-2.8,
Dalwhinnie,21/10/2019 05:00,-1.8,,,,0,,92,,,-,,,,,,,-2.9,
Dalwhinnie,21/10/2019 06:00,-2.1,,-2.3,,0,0,90,,,-,,,,,,,-3.4,
Dalwhinnie,21/10/2019 07:00,-2.7,,,,0,,90,,,-,,,,,,,-4.1,
Dalwhinnie,21/10/2019 08:00,-2.4,,,,0,,94,,,-,,,,,,,-3.2,
Dalwhinnie,21/10/2019 09:00,-1,,,,0,,91,,,-,,,,,,,-2.2,
Dalwhinnie,21/10/2019 10:00,2.4,,,,0,,88,,,-,,,,,,,0.7,
Dalwhinnie,21/10/2019 11:00,4.8,,,,0,,72,,,-,,,,,,,0.2,
Dalwhinnie,21/10/2019 12:00,6.4,,,,0,0,64,,,-,,,,,,,0.2,
Dalwhinnie,21/10/2019 13:00,7,,,,0,,64,,,-,,,,,,,0.8,
Dalwhinnie,21/10/2019 14:00,6.5,,,,0,,65,,,-,,,,,,,0.5,
Dalwhinnie,21/10/2019 15:00,6.5,,,,0,,68,,,-,,,,,,,1.1,
Dalwhinnie,21/10/2019 16:00,6.3,,,,0,,71,,,-,,,,,,,1.5,
Dalwhinnie,21/10/2019 17:00,6,,,,0,,71,,,-,,,,,,,1.3,
Dalwhinnie,21/10/2019 18:00,5.8,,,7.1,0,0,74,,,-,,,,,,,1.7,
Dalwhinnie,21/10/2019 19:00,6.5,,,,0,,72,,,-,,,,,,,2,
Dalwhinnie,21/10/2019 20:00,6.7,,,,0,,74,,,-,,,,,,,2.5,
Dalwhinnie,21/10/2019 21:00,7.2,,,,0,,72,,,-,,,,,,,2.6,
Dalwhinnie,21/10/2019 22:00,7.7,,,,0,,72,,,-,,,,,,,3,
Dalwhinnie,21/10/2019 23:00,7.8,,,,0,,72,,,-,,,,,,,3.2,
Dalwhinnie,22/10/2019 00:00,7.8,,,,0,0,74,,,-,,,,,,,3.5,
Dalwhinnie,22/10/2019 01:00,8.1,,,,0,,76,,,-,,,,,,,4.3,
Dalwhinnie,22/10/2019 02:00,8,,,,0,,79,,,-,,,,,,,4.7,
Dalwhinnie,22/10/2019 03:00,7.9,,,,0,,80,,,-,,,,,,,4.8,
Dalwhinnie,22/10/2019 04:00,7.8,,,,0,,82,,,-,,,,,,,5,
Dalwhinnie,22/10/2019 05:00,8,,,,0,,82,,,-,,,,,,,5.2,
Dalwhinnie,22/10/2019 06:00,8.6,,5.8,,0.2,0.2,80,,,-,,,,,,,5.4,
Dalwhinnie,22/10/2019 07:00,8.8,,,,0,,80,,,-,,,,,,,5.6,
Dalwhinnie,22/10/2019 08:00,8.7,,,,0,,84,,,-,,,,,,,6.2,
Dalwhinnie,22/10/2019 09:00,8.9,,,,0,,84,,,-,,,,,,,6.4,
Dalwhinnie,22/10/2019 10:00,9,,,,0,,85,,,-,,,,,,,6.7,
Dalwhinnie,22/10/2019 11:00,8.9,,,,0,,87,,,-,,,,,,,7,
Dalwhinnie,22/10/2019 12:00,9.1,,,,0.2,0.2,86,,,-,,,,,,,6.9,
Dalwhinnie,22/10/2019 13:00,9.2,,,,0,,86,,,-,,,,,,,7.1,
Dalwhinnie,22/10/2019 14:00,8.8,,,,0,,89,,,-,,,,,,,7.2,
Dalwhinnie,22/10/2019 15:00,9.7,,,,0,,83,,,-,,,,,,,7,
Dalwhinnie,22/10/2019 16:00,9.5,,,,0,,82,,,-,,,,,,,6.7,
Dalwhinnie,22/10/2019 17:00,8.8,,,,0,,86,,,-,,,,,,,6.7,
Dalwhinnie,22/10/2019 18:00,8.6,,,10.1,0,0,85,,,-,,,,,,,6.3,
Dalwhinnie,22/10/2019 19:00,8.6,,,,0,,84,,,-,,,,,,,6.1,
Dalwhinnie,22/10/2019 20:00,8.1,,,,0,,87,,,-,,,,,,,6.1,
Dalwhinnie,22/10/2019 21:00,8.3,,,,0,,78,,,-,,,,,,,4.8,
Dalwhinnie,22/10/2019 22:00,8,,,,0,,87,,,-,,,,,,,6.1,
Dalwhinnie,22/10/2019 23:00,7.9,,,,0,,90,,,-,,,,,,,6.4,
Dalwhinnie,23/10/2019 00:00,8.4,,,,0,0,83,,,-,,,,,,,5.8,
Dalwhinnie,23/10/2019 01:00,8.2,,,,0,,84,,,-,,,,,,,5.7,
Dalwhinnie,23/10/2019 02:00,8.2,,,,0,,83,,,-,,,,,,,5.5,
Dalwhinnie,23/10/2019 03:00,8.3,,,,0,,83,,,-,,,,,,,5.6,
Dalwhinnie,23/10/2019 04:00,8,,,,0,,87,,,-,,,,,,,6.1,
Dalwhinnie,23/10/2019 05:00,8.1,,,,0,,85,,,-,,,,,,,5.9,
Dalwhinnie,23/10/2019 06:00,8.1,,7.8,,0,0,87,,,-,,,,,,,6.2,
Dalwhinnie,23/10/2019 07:00,8.4,,,,0,,83,,,-,,,,,,,5.8,
Dalwhinnie,23/10/2019 08:00,8.6,,,,0,,81,,,-,,,,,,,5.6,
Dalwhinnie,23/10/2019 09:00,8.8,,,,0,,79,,,-,,,,,,,5.4,
Dalwhinnie,23/10/2019 10:00,8.9,,,,0,,81,,,-,,,,,,,5.9,
Dalwhinnie,23/10/2019 11:00,10.2,,,,0,,71,,,-,,,,,,,5.3,
Dalwhinnie,23/10/2019 12:00,10.7,,,,0,0,70,,,-,,,,,,,5.6,
Dalwhinnie,23/10/2019 13:00,10.9,,,,0,,71,,,-,,,,,,,6,
Dalwhinnie,23/10/2019 14:00,10.9,,,,0,,71,,,-,,,,,,,6,
Dalwhinnie,23/10/2019 15:00,10.7,,,,0,,69,,,-,,,,,,,5.4,
Dalwhinnie,23/10/2019 16:00,10.3,,,,0,,71,,,-,,,,,,,5.3,
Dalwhinnie,23/10/2019 17:00,9.2,,,,0,,82,,,-,,,,,,,6.4,
Dalwhinnie,23/10/2019 18:00,9,,,11.5,0,0,86,,,-,,,,,,,6.9,
Dalwhinnie,23/10/2019 19:00,9,,,,0.2,,88,,,-,,,,,,,7.2,
Dalwhinnie,23/10/2019 20:00,8.9,,,,0.4,,87,,,-,,,,,,,6.9,
Dalwhinnie,23/10/2019 21:00,8.9,,,,0.2,,88,,,-,,,,,,,7.1,
Dalwhinnie,23/10/2019 22:00,9,,,,0.4,,89,,,-,,,,,,,7.3,
Dalwhinnie,23/10/2019 23:00,8.7,,,,0.4,,94,,,-,,,,,,,7.8,
Dalwhinnie,24/10/2019 00:00,9.2,,,,0.4,2,92,,,-,,,,,,,8,
Dalwhinnie,24/10/2019 01:00,9,,,,0.2,,87,,,-,,,,,,,7.1,
Dalwhinnie,24/10/2019 02:00,8.9,,,,0,,88,,,-,,,,,,,7.1,
Dalwhinnie,24/10/2019 03:00,8.8,,,,0,,86,,,-,,,,,,,6.7,
Dalwhinnie,24/10/2019 04:00,8.7,,,,0,,86,,,-,,,,,,,6.6,
Dalwhinnie,24/10/2019 05:00,8.2,,,,0,,83,,,-,,,,,,,5.5,
Dalwhinnie,24/10/2019 06:00,8,,7.8,,0,0,81,,,-,,,,,,,5.1,
Dalwhinnie,24/10/2019 07:00,7.7,,,,0,,83,,,-,,,,,,,5.1,
Dalwhinnie,24/10/2019 08:00,7.7,,,,0,,80,,,-,,,,,,,4.5,
Dalwhinnie,24/10/2019 09:00,7.9,,,,0,,83,,,-,,,,,,,5.3,
Dalwhinnie,24/10/2019 10:00,8.5,,,,0,,78,,,-,,,,,,,5,
Dalwhinnie,24/10/2019 11:00,8.9,,,,0,,78,,,-,,,,,,,5.4,
Dalwhinnie,24/10/2019 12:00,7.7,,,,0.4,0.4,85,,,-,,,,,,,5.4,
Dalwhinnie,24/10/2019 13:00,7.4,,,,0.2,,80,,,-,,,,,,,4.3,
Dalwhinnie,24/10/2019 14:00,8.1,,,,0,,68,,,-,,,,,,,2.6,
Dalwhinnie,24/10/2019 15:00,7.6,,,,0,,60,,,-,,,,,,,0.4,
Dalwhinnie,24/10/2019 16:00,6.4,,,,0,,68,,,-,,,,,,,1,
Dalwhinnie,24/10/2019 17:00,4.8,,,,0,,80,,,-,,,,,,,1.7,
Dalwhinnie,24/10/2019 18:00,4,,,9.1,0,0.2,79,,,-,,,,,,,0.7,
Dalwhinnie,24/10/2019 19:00,2.9,,,,0,,78,,,-,,,,,,,-0.5,
Dalwhinnie,24/10/2019 20:00,3.4,,,,0,,79,,,-,,,,,,,0.2,
Dalwhinnie,24/10/2019 21:00,3.1,,,,0,,82,,,-,,,,,,,0.4,
Dalwhinnie,24/10/2019 22:00,2.5,,,,0,,85,,,-,,,,,,,0.3,
Dalwhinnie,24/10/2019 23:00,2.5,,,,0,,78,,,-,,,,,,,-0.9,
Dalwhinnie,25/10/2019 00:00,1.3,,,,0.2,0.2,85,,,-,,,,,,,-0.8,
Dalwhinnie,25/10/2019 01:00,1.2,,,,0,,77,,,-,,,,,,,-2.3,
Dalwhinnie,25/10/2019 02:00,0.9,,,,0,,81,,,-,,,,,,,-1.9,
Dalwhinnie,25/10/2019 03:00,1,,,,0,,83,,,-,,,,,,,-1.5,
Dalwhinnie,25/10/2019 04:00,1.5,,,,0,,91,,,-,,,,,,,0.2,
Dalwhinnie,25/10/2019 05:00,2.1,,,,0.6,,85,,,-,,,,,,,0,
Dalwhinnie,25/10/2019 06:00,1.4,,0.2,,0.4,0.8,91,,,-,,,,,,,0.2,
Dalwhinnie,25/10/2019 07:00,2,,,,0.2,,85,,,-,,,,,,,-0.1,
Dalwhinnie,25/10/2019 08:00,2.5,,,,0.2,,78,,,-,,,,,,,-0.8,
Dalwhinnie,25/10/2019 09:00,3.5,,,,0,,72,,,-,,,,,,,-1,
Dalwhinnie,25/10/2019 10:00,4.5,,,,0,,65,,,-,,,,,,,-1.3,
Dalwhinnie,25/10/2019 11:00,4.9,,,,0,,64,,,-,,,,,,,-1.2,
Dalwhinnie,25/10/2019 12:00,4.7,,,,0,0.4,68,,,-,,,,,,,-0.5,
Dalwhinnie,25/10/2019 13:00,4.6,,,,0,,72,,,-,,,,,,,0,
Dalwhinnie,25/10/2019 14:00,4.6,,,,0,,73,,,-,,,,,,,0.2,
Dalwhinnie,25/10/2019 15:00,4.4,,,,0,,77,,,-,,,,,,,0.8,
Dalwhinnie,25/10/2019 16:00,4,,,,0,,77,,,-,,,,,,,0.5,
Dalwhinnie,25/10/2019 17:00,3.4,,,,0,,81,,,-,,,,,,,0.5,
Dalwhinnie,25/10/2019 18:00,2.9,,,5,0,0,84,,,-,,,,,,,0.6,
Dalwhinnie,25/10/2019 19:00,2.1,,,,0,,86,,,-,,,,,,,0.1,
Dalwhinnie,25/10/2019 20:00,2.4,,,,0,,82,,,-,,,,,,,-0.3,
Dalwhinnie,25/10/2019 21:00,2.8,,,,0,,71,,,-,,,,,,,-1.8,
Dalwhinnie,25/10/2019 22:00,2,,,,0,,76,,,-,,,,,,,-1.7,
Dalwhinnie,25/10/2019 23:00,0.4,,,,0,,79,,,-,,,,,,,-2.7,
Dalwhinnie,26/10/2019 00:00,0.8,,,,0,0,79,,,-,,,,,,,-2.3,
Dalwhinnie,26/10/2019 01:00,3.3,,,,0,,68,,,-,,,,,,,-2,
Dalwhinnie,26/10/2019 02:00,3.2,,,,0,,70,,,-,,,,,,,-1.6,
Dalwhinnie,26/10/2019 03:00,3,,,,0,,70,,,-,,,,,,,-1.8,
Dalwhinnie,26/10/2019 04:00,1.9,,,,0,,82,,,-,,,,,,,-0.7,
Dalwhinnie,26/10/2019 05:00,2.6,,,,0,,73,,,-,,,,,,,-1.6,
Dalwhinnie,26/10/2019 06:00,2.8,,0.3,,0,0,74,,,-,,,,,,,-1.2,
Dalwhinnie,26/10/2019 07:00,2.3,,,,0,,77,,,-,,,,,,,-1.3,
Dalwhinnie,26/10/2019 08:00,1.9,,,,0,,79,,,-,,,,,,,-1.2,
Dalwhinnie,26/10/2019 09:00,3.8,,,,0,,75,,,-,,,,,,,-0.2,
Dalwhinnie,26/10/2019 10:00,5,,,,0,,71,,,-,,,,,,,0.3,
Dalwhinnie,26/10/2019 11:00,5.3,,,,0,,71,,,-,,,,,,,0.6,
Dalwhinnie,26/10/2019 12:00,6.7,,,,0,0,63,,,-,,,,,,,0.3,
Dalwhinnie,26/10/2019 13:00,7.2,,,,0,,62,,,-,,,,,,,0.6,
Dalwhinnie,26/10/2019 14:00,5.4,,,,0,,72,,,-,,,,,,,0.8,
Dalwhinnie,26/10/2019 15:00,3.6,,,,0.2,,84,,,-,,,,,,,1.2,
Dalwhinnie,26/10/2019 16:00,3.9,,,,0,,80,,,-,,,,,,,0.8,
Dalwhinnie,26/10/2019 17:00,3.7,,,,0,,83,,,-,,,,,,,1.2,
Dalwhinnie,26/10/2019 18:00,2.4,,,7.3,0.4,0.6,90,,,-,,,,,,,1,
Dalwhinnie,26/10/2019 19:00,2.6,,,,0.6,,90,,,-,,,,,,,1.2,
Dalwhinnie,26/10/2019 20:00,2.9,,,,0.6,,89,,,-,,,,,,,1.4,
Dalwhinnie,26/10/2019 21:00,3.5,,,,0,,85,,,-,,,,,,,1.3,
Dalwhinnie,26/10/2019 22:00,3.8,,,,0,,84,,,-,,,,,,,1.4,
Dalwhinnie,26/10/2019 23:00,3.8,,,,0.2,,87,,,-,,,,,,,1.9,
Dalwhinnie,27/10/2019 00:00,4.1,,,,0.2,2,84,,,-,,,,,,,1.7,
Dalwhinnie,27/10/2019 01:00,4.2,,,,0,,80,,,-,,,,,,,1.1,
Dalwhinnie,27/10/2019 02:00,3.9,,,,0.4,,86,,,-,,,,,,,1.8,
Dalwhinnie,27/10/2019 03:00,4.6,,,,0.2,,73,,,-,,,,,,,0.2,
Dalwhinnie,27/10/2019 04:00,4.9,,,,0,,70,,,-,,,,,,,0,
Dalwhinnie,27/10/2019 05:00,5,,,,0,,68,,,-,,,,,,,-0.3,
Dalwhinnie,27/10/2019 06:00,4.7,,1.8,,0,0,74,,,-,,,,,,,0.5,
Dalwhinnie,27/10/2019 07:00,4.2,,,,0,,80,,,-,,,,,,,1.2,
Dalwhinnie,27/10/2019 08:00,4.5,,,,0,,82,,,-,,,,,,,1.7,
Dalwhinnie,27/10/2019 09:00,5.2,,,,0,,79,,,-,,,,,,,1.9,
Dalwhinnie,27/10/2019 10:00,5.7,,,,0,,77,,,-,,,,,,,2.1,
Dalwhinnie,27/10/2019 11:00,6.1,,,,0,,74,,,-,,,,,,,2,
Dalwhinnie,27/10/2019 12:00,6.9,,,,0,0,74,,,-,,,,,,,2.6,
Dalwhinnie,27/10/2019 13:00,6.2,,,,0,,70,,,-,,,,,,,1.3,
Dalwhinnie,27/10/2019 14:00,6.1,,,,0,,71,,,-,,,,,,,1.3,
Dalwhinnie,27/10/2019 15:00,6.2,,,,0,,70,,,-,,,,,,,1.3,
Dalwhinnie,27/10/2019 16:00,5.3,,,,0,,74,,,-,,,,,,,1.2,
Dalwhinnie,27/10/2019 17:00,4.9,,,,0,,74,,,-,,,,,,,0.7,
Dalwhinnie,27/10/2019 18:00,4,,,7.9,0,0,78,,,-,,,,,,,0.6,
Dalwhinnie,27/10/2019 19:00,2.9,,,,0,,78,,,-,,,,,,,-0.5,
Dalwhinnie,27/10/2019 20:00,2.3,,,,0,,84,,,-,,,,,,,0,
Dalwhinnie,27/10/2019 21:00,2.8,,,,0,,86,,,-,,,,,,,0.8,
Dalwhinnie,27/10/2019 22:00,3,,,,0,,87,,,-,,,,,,,1.2,
Dalwhinnie,27/10/2019 23:00,2.7,,,,0,,87,,,-,,,,,,,0.9,
Dalwhinnie,28/10/2019 00:00,1.6,,,,0,0,86,,,-,,,,,,,-0.4,
Dalwhinnie,28/10/2019 01:00,1.9,,,,0,,87,,,-,,,,,,,0.1,
Dalwhinnie,28/10/2019 02:00,1.5,,,,0,,89,,,-,,,,,,,0,
Dalwhinnie,28/10/2019 03:00,-0.2,,,,0,,90,,,-,,,,,,,-1.5,
Dalwhinnie,28/10/2019 04:00,-0.9,,,,0,,93,,,-,,,,,,,-1.8,
Dalwhinnie,28/10/2019 05:00,-1.1,,,,0,,93,,,-,,,,,,,-2,
Dalwhinnie,28/10/2019 06:00,0,,-1.4,,0,0,90,,,-,,,,,,,-1.4,
Dalwhinnie,28/10/2019 07:00,-0.7,,,,0,,91,,,-,,,,,,,-1.9,
Dalwhinnie,28/10/2019 08:00,-0.5,,,,0,,94,,,-,,,,,,,-1.3,
Dalwhinnie,28/10/2019 09:00,0.9,,,,0,,93,,,-,,,,,,,-0.1,
Dalwhinnie,28/10/2019 10:00,3.3,,,,0.2,,86,,,-,,,,,,,1.3,
Dalwhinnie,28/10/2019 11:00,4.6,,,,0,,71,,,-,,,,,,,-0.1,
Dalwhinnie,28/10/2019 12:00,5.2,,,,0,0.2,70,,,-,,,,,,,0.2,
Dalwhinnie,28/10/2019 13:00,5.7,,,,0,,66,,,-,,,,,,,0,
Dalwhinnie,28/10/2019 14:00,5.4,,,,0,,68,,,-,,,,,,,0.1,
Dalwhinnie,28/10/2019 15:00,5.4,,,,0,,72,,,-,,,,,,,0.8,
Dalwhinnie,28/10/2019 16:00,4.4,,,,0,,76,,,-,,,,,,,0.6,
Dalwhinnie,28/10/2019 17:00,3.1,,,,0,,88,,,-,,,,,,,1.4,
Dalwhinnie,28/10/2019 18:00,2.1,,,6,0,0,89,,,-,,,,,,,0.6,
Dalwhinnie,28/10/2019 19:00,1.9,,,,0,,91,,,-,,,,,,,0.6,
Dalwhinnie,28/10/2019 20:00,2.1,,,,0,,90,,,-,,,,,,,0.7,
Dalwhinnie,28/10/2019 21:00,2.3,,,,0,,90,,,-,,,,,,,0.9,
Dalwhinnie,28/10/2019 22:00,1.7,,,,0,,92,,,-,,,,,,,0.6,
Dalwhinnie,28/10/2019 23:00,2,,,,0,,93,,,-,,,,,,,1.1,
Dalwhinnie,29/10/2019 00:00,2.8,,,,0,0,89,,,-,,,,,,,1.3,
Dalwhinnie,29/10/2019 01:00,2.6,,,,0,,90,,,-,,,,,,,1.2,
Dalwhinnie,29/10/2019 02:00,2.5,,,,0,,91,,,-,,,,,,,1.3,
Dalwhinnie,29/10/2019 03:00,2.4,,,,0,,93,,,-,,,,,,,1.4,
Dalwhinnie,29/10/2019 04:00,1.6,,,,0,,93,,,-,,,,,,,0.7,
Dalwhinnie,29/10/2019 05:00,2,,,,0,,95,,,-,,,,,,,1.4,
Dalwhinnie,29/10/2019 06:00,1.6,,0.8,,0,0,94,,,-,,,,,,,0.8,
Dalwhinnie,29/10/2019 07:00,2,,,,0,,95,,,-,,,,,,,1.4,
Dalwhinnie,29/10/2019 08:00,1.2,,,,0,,95,,,-,,,,,,,0.6,
Dalwhinnie,29/10/2019 09:00,3.1,,,,0.2,,97,,,-,,,,,,,2.7,
Dalwhinnie,29/10/2019 10:00,3.9,,,,0,,89,,,-,,,,,,,2.4,
Dalwhinnie,29/10/2019 11:00,4.4,,,,0,,81,,,-,,,,,,,1.5,
Dalwhinnie,29/10/2019 12:00,5.2,,,,0,0.2,76,,,-,,,,,,,1.5,
Dalwhinnie,29/10/2019 13:00,5.6,,,,0,,77,,,-,,,,,,,2,
Dalwhinnie,29/10/2019 14:00,5.6,,,,0,,75,,,-,,,,,,,1.7,
Dalwhinnie,29/10/2019 15:00,4.7,,,,0,,83,,,-,,,,,,,2.1,
Dalwhinnie,29/10/2019 16:00,4.8,,,,0,,81,,,-,,,,,,,1.9,
Dalwhinnie,29/10/2019 17:00,2,,,,0,,87,,,-,,,,,,,0.2,
Dalwhinnie,29/10/2019 18:00,0.1,,,6.3,0,0,93,,,-,,,,,,,-0.8,
Dalwhinnie,29/10/2019 19:00,-0.6,,,,0,,94,,,-,,,,,,,-1.4,
Dalwhinnie,29/10/2019 20:00,-0.6,,,,0,,94,,,-,,,,,,,-1.4,
Dalwhinnie,29/10/2019 21:00,0,,,,0,,93,,,-,,,,,,,-0.9,
Dalwhinnie,29/10/2019 22:00,0,,,,0,,95,,,-,,,,,,,-0.6,
Dalwhinnie,29/10/2019 23:00,0.7,,,,0,,95,,,-,,,,,,,0.1,
Dalwhinnie,30/10/2019 00:00,0.1,,,,0,0,95,,,-,,,,,,,-0.5,
Dalwhinnie,30/10/2019 01:00,0.1,,,,0,,96,,,-,,,,,,,-0.4,
Dalwhinnie,30/10/2019 02:00,-0.9,,,,0,,96,,,-,,,,,,,-1.4,
Dalwhinnie,30/10/2019 03:00,-0.8,,,,0,,97,,,-,,,,,,,-1.1,
Dalwhinnie,30/10/2019 04:00,-0.7,,,,0,,97,,,-,,,,,,,-1,
Dalwhinnie,30/10/2019 05:00,-0.8,,,,0,,97,,,-,,,,,,,-1.1,
Dalwhinnie,30/10/2019 06:00,-0.9,,-1.3,,0,0,97,,,-,,,,,,,-1.2,
Dalwhinnie,30/10/2019 07:00,-0.7,,,,0,,98,,,-,,,,,,,-0.9,
Dalwhinnie,30/10/2019 08:00,-0.9,,,,0,,97,,,-,,,,,,,-1.2,
Dalwhinnie,30/10/2019 09:00,-0.7,,,,0,,97,,,-,,,,,,,-1,
Dalwhinnie,30/10/2019 10:00,0.5,,,,0,,97,,,-,,,,,,,0.2,
Dalwhinnie,30/10/2019 11:00,1.9,,,,0,,95,,,-,,,,,,,1.3,
Dalwhinnie,30/10/2019 12:00,5.1,,,,0,0,83,,,-,,,,,,,2.6,
Dalwhinnie,30/10/2019 13:00,4.9,,,,0,,80,,,-,,,,,,,1.9,
Dalwhinnie,30/10/2019 14:00,5.5,,,,0,,78,,,-,,,,,,,2.1,
Dalwhinnie,30/10/2019 15:00,5.3,,,,0,,74,,,-,,,,,,,1.2,
Dalwhinnie,30/10/2019 16:00,4.6,,,,0,,80,,,-,,,,,,,1.6,
Dalwhinnie,30/10/2019 17:00,4.5,,,,0,,82,,,-,,,,,,,1.8,
Dalwhinnie,30/10/2019 18:00,4.7,,,6.1,0,0,75,,,-,,,,,,,0.8,
Dalwhinnie,30/10/2019 19:00,4.4,,,,0,,77,,,-,,,,,,,0.8,
Dalwhinnie,30/10/2019 20:00,4.4,,,,0,,79,,,-,,,,,,,1.2,
Dalwhinnie,30/10/2019 21:00,4.3,,,,0,,76,,,-,,,,,,,0.6,
Dalwhinnie,30/10/2019 22:00,4.4,,,,0,,78,,,-,,,,,,,1,
Dalwhinnie,30/10/2019 23:00,4.3,,,,0,,74,,,-,,,,,,,0.1,
Dalwhinnie,31/10/2019 00:00,4.4,,,,0,0,73,,,-,,,,,,,0.1,
Dunstaffnage,01/09/2019 00:00,11,8,,,0.2,1,89,,230,-,,,,,,,9.3,
Dunstaffnage,01/09/2019 01:00,10.8,7,,,0,,89,,220,-,,,,0,,,9.2,
Dunstaffnage,01/09/2019 02:00,11.6,12,,,0,,88,,260,-,,,,0,,,9.8,
Dunstaffnage,01/09/2019 03:00,11.6,16,,,0.2,,86,,270,-,,,,0,,,9.4,
Dunstaffnage,01/09/2019 04:00,11.4,12,,,0,,87,,250,-,,,,0,,,9.4,
Dunstaffnage,01/09/2019 05:00,10.7,10,,,0.4,,90,,260,-,,,,0,,,9.2,
Dunstaffnage,01/09/2019 06:00,10.2,14,10.2,,0.6,1,91,,270,-,,,,12,,,8.9,
Dunstaffnage,01/09/2019 07:00,11.2,9,,,0.2,,86,,290,-,,,,125,,,9,
Dunstaffnage,01/09/2019 08:00,10.5,9,,,1.2,,90,,270,-,,,,381,,,9,
Dunstaffnage,01/09/2019 09:00,12.8,9,,,0,,87,,260,-,,,,1052,,,10.7,
Dunstaffnage,01/09/2019 10:00,14.6,13,,,0,,75,,270,-,,,,1847,,,10.3,
Dunstaffnage,01/09/2019 11:00,14.8,16,,,0,,65,,270,-,,,,1928,,,8.4,
Dunstaffnage,01/09/2019 12:00,16.1,13,,,0,1,65,,270,-,,,,1613,,,9.6,
Dunstaffnage,01/09/2019 13:00,15.5,15,,,0,,61,,280,-,,,,2495,,,8.2,
Dunstaffnage,01/09/2019 14:00,14.4,15,,,0,,70,,270,-,,,,1676,,,9.1,
Dunstaffnage,01/09/2019 15:00,14.5,14,,,0,,69,,270,-,,,,1040,,,9,
Dunstaffnage,01/09/2019 16:00,12.6,8,,,0.8,,84,,260,-,,,,421,,,10.1,
Dunstaffnage,01/09/2019 17:00,12.7,12,,,0,,77,,270,-,,,,571,,,8.9,
Dunstaffnage,01/09/2019 18:00,12.3,12,,17.2,0,1,77,,250,-,,,,260,,,8.4,
Dunstaffnage,01/09/2019 19:00,11.2,5,,,0,,81,,220,-,,,,91,,,8.1,
Dunstaffnage,01/09/2019 20:00,10.7,2,,,0,,86,,210,-,,,,5,,,8.6,
Dunstaffnage,01/09/2019 21:00,10.6,3,,,0,,84,,210,-,,,,0,,,8.1,
Dunstaffnage,01/09/2019 22:00,10.9,2,,,0,,85,,210,-,,,,0,,,8.6,
Dunstaffnage,01/09/2019 23:00,10.2,2,,,1,,93,,180,-,,,,0,,,9.2,
Dunstaffnage,02/09/2019 00:00,10.1,5,,,0.6,2,95,,200,-,,,,,,,9.4,
Dunstaffnage,02/09/2019 01:00,9.7,1,,,0.8,,95,,220,-,,,,0,,,9,
Dunstaffnage,02/09/2019 02:00,9.5,3,,,0,,95,,90,-,,,,0,,,8.8,
Dunstaffnage,02/09/2019 03:00,9.6,6,,,0,,96,,120,-,,,,0,,,9.1,
Dunstaffnage,02/09/2019 04:00,10.3,3,,,0,,96,,80,-,,,,0,,,9.8,
Dunstaffnage,02/09/2019 05:00,11.3,5,,,3.2,,97,,170,-,,,,0,,,10.9,
Dunstaffnage,02/09/2019 06:00,11.5,7,9.3,,2,6,97,,160,-,,,,5,,,11.1,
Dunstaffnage,02/09/2019 07:00,11.6,7,,,0.6,,96,,170,-,,,,41,,,11,
Dunstaffnage,02/09/2019 08:00,12.3,7,,,1.6,,96,,180,-,,,,106,,,11.8,
Dunstaffnage,02/09/2019 09:00,13.1,10,,,1,,94,,210,-,,,,192,,,12.3,
Dunstaffnage,02/09/2019 10:00,13.4,10,,,1.4,,95,,220,-,,,,218,,,12.7,
Dunstaffnage,02/09/2019 11:00,13.6,13,,,1.4,,96,,230,-,,,,270,,,13.1,
Dunstaffnage,02/09/2019 12:00,13.6,15,,,1,7,96,,230,-,,,,292,,,13.1,
Dunstaffnage,02/09/2019 13:00,14.1,16,,,0.4,,96,30,230,-,,,,450,,,13.6,
Dunstaffnage,02/09/2019 14:00,14.5,21,,,0.2,,96,32,240,-,,,,543,,,13.9,
Dunstaffnage,02/09/2019 15:00,14.4,17,,,0.2,,96,36,240,-,,,,438,,,13.9,
Dunstaffnage,02/09/2019 16:00,14.5,17,,,0,,96,31,240,-,,,,441,,,13.9,
Dunstaffnage,02/09/2019 17:00,14.4,16,,,0.4,,96,29,240,-,,,,123,,,13.9,
Dunstaffnage,02/09/2019 18:00,14.4,16,,14.8,1.2,2,96,,240,-,,,,79,,,13.9,
Dunstaffnage,02/09/2019 19:00,14.2,14,,,3.2,,97,,240,-,,,,26,,,13.8,
Dunstaffnage,02/09/2019 20:00,14.3,12,,,0,,94,,260,-,,,,6,,,13.5,
Dunstaffnage,02/09/2019 21:00,14.3,13,,,0,,93,,280,-,,,,2,,,13.3,
Dunstaffnage,02/09/2019 22:00,14.2,12,,,0,,92,,260,-,,,,0,,,13,
Dunstaffnage,02/09/2019 23:00,14,10,,,0,,91,,240,-,,,,0,,,12.7,
Dunstaffnage,03/09/2019 00:00,13.9,8,,,0,3,92,,240,-,,,,,,,12.7,
Dunstaffnage,03/09/2019 01:00,13.5,3,,,0.6,,95,,230,-,,,,0,,,12.8,
Dunstaffnage,03/09/2019 02:00,13.4,6,,,0.4,,96,,240,-,,,,0,,,12.8,
Dunstaffnage,03/09/2019 03:00,13.4,6,,,0,,95,,230,-,,,,0,,,12.7,
Dunstaffnage,03/09/2019 04:00,13.4,3,,,0,,96,,240,-,,,,0,,,12.8,
Dunstaffnage,03/09/2019 05:00,13.6,3,,,0,,95,,220,-,,,,0,,,12.9,
Dunstaffnage,03/09/2019 06:00,13.4,2,13.3,,0.4,2,96,,210,-,,,,4,,,12.9,
Dunstaffnage,03/09/2019 07:00,13.7,5,,,1,,97,,110,-,,,,61,,,13.3,
Dunstaffnage,03/09/2019 08:00,14.4,5,,,0.2,,97,,210,-,,,,116,,,14,
Dunstaffnage,03/09/2019 09:00,14.8,3,,,0,,98,,190,-,,,,233,,,14.5,
Dunstaffnage,03/09/2019 10:00,15.3,5,,,0.6,,97,,180,-,,,,366,,,14.9,
Dunstaffnage,03/09/2019 11:00,16,6,,,0.2,,97,,200,-,,,,673,,,15.6,
Dunstaffnage,03/09/2019 12:00,15.6,6,,,0.2,2,96,,200,-,,,,495,,,15.1,
Dunstaffnage,03/09/2019 13:00,15.6,7,,,1.2,,96,,220,-,,,,281,,,15.1,
Dunstaffnage,03/09/2019 14:00,15.1,13,,,0.6,,96,,230,-,,,,229,,,14.6,
Dunstaffnage,03/09/2019 15:00,14.7,13,,,0,,97,,230,-,,,,247,,,14.3,
Dunstaffnage,03/09/2019 16:00,14.7,10,,,0.2,,97,,230,-,,,,248,,,14.3,
Dunstaffnage,03/09/2019 17:00,14.3,9,,,0,,97,,220,-,,,,197,,,13.9,
Dunstaffnage,03/09/2019 18:00,14.4,12,,16.2,0.2,2,97,,230,-,,,,133,,,14,
Dunstaffnage,03/09/2019 19:00,14.3,9,,,0,,96,,220,-,,,,19,,,13.8,
Dunstaffnage,03/09/2019 20:00,13.9,9,,,0.2,,95,,240,-,,,,4,,,13.2,
Dunstaffnage,03/09/2019 21:00,13.2,7,,,0,,91,,240,-,,,,0,,,11.9,
Dunstaffnage,03/09/2019 22:00,12.2,7,,,0,,91,,230,-,,,,0,,,10.8,
Dunstaffnage,03/09/2019 23:00,12.5,8,,,0,,91,,240,-,,,,0,,,11.1,
Dunstaffnage,04/09/2019 00:00,12.4,9,,,0,0.2,89,,240,-,,,,,,,10.7,
Dunstaffnage,04/09/2019 01:00,11.5,13,,,0,,83,,240,-,,,,0,,,8.8,
Dunstaffnage,04/09/2019 02:00,11.1,8,,,0,,85,,230,-,,,,0,,,8.8,
Dunstaffnage,04/09/2019 03:00,10.7,8,,,0,,86,,240,-,,,,0,,,8.5,
Dunstaffnage,04/09/2019 04:00,11.1,8,,,0,,86,,240,-,,,,0,,,8.9,
Dunstaffnage,04/09/2019 05:00,10.2,9,,,1.4,,92,,240,-,,,,0,,,9,
Dunstaffnage,04/09/2019 06:00,11.2,9,9.5,,0.4,1.8,89,,230,-,,,,13,,,9.5,
Dunstaffnage,04/09/2019 07:00,11,8,,,0.4,,91,,180,-,,,,94,,,9.6,
Dunstaffnage,04/09/2019 08:00,10.5,13,,,1.2,,92,,170,-,,,,110,,,9.4,
Dunstaffnage,04/09/2019 09:00,12.2,6,,,1.4,,96,,210,-,,,,280,,,11.6,
Dunstaffnage,04/09/2019 10:00,12.7,3,,,0.2,,94,,40,-,,,,364,,,11.9,
Dunstaffnage,04/09/2019 11:00,13,7,,,1.4,,90,,330,-,,,,867,,,11.4,
Dunstaffnage,04/09/2019 12:00,14.7,6,,,0,5,83,,30,-,,,,1919,,,11.9,
Dunstaffnage,04/09/2019 13:00,14.7,8,,,0,,73,,10,-,,,,1216,,,10,
Dunstaffnage,04/09/2019 14:00,14.3,16,,,0,,69,30,310,-,,,,1706,,,8.7,
Dunstaffnage,04/09/2019 15:00,13.3,22,,,0,,73,39,310,-,,,,1155,,,8.7,
Dunstaffnage,04/09/2019 16:00,12.5,28,,,0,,76,40,300,-,,,,2101,,,8.4,
Dunstaffnage,04/09/2019 17:00,11.9,9,,,0,,73,35,340,-,,,,744,,,7.3,
Dunstaffnage,04/09/2019 18:00,11.6,7,,16.2,0,0,75,,340,-,,,,218,,,7.4,
Dunstaffnage,04/09/2019 19:00,11.2,14,,,0,,75,30,330,-,,,,209,,,7.1,
Dunstaffnage,04/09/2019 20:00,11.6,16,,,0,,69,33,310,-,,,,8,,,6.2,
Dunstaffnage,04/09/2019 21:00,11.5,18,,,0,,64,31,310,-,,,,0,,,5,
Dunstaffnage,04/09/2019 22:00,11,18,,,0,,65,30,300,-,,,,0,,,4.8,
Dunstaffnage,04/09/2019 23:00,10.9,14,,,0,,68,,300,-,,,,0,,,5.4,
Dunstaffnage,05/09/2019 00:00,9.9,8,,,0,0,74,,270,-,,,,,,,5.5,
Dunstaffnage,05/09/2019 01:00,10.4,8,,,0,,76,,280,-,,,,0,,,6.4,
Dunstaffnage,05/09/2019 02:00,10,9,,,0,,81,,290,-,,,,0,,,7,
Dunstaffnage,05/09/2019 03:00,10.2,7,,,0,,78,,280,-,,,,0,,,6.7,
Dunstaffnage,05/09/2019 04:00,10.4,15,,,0.8,,82,,300,-,,,,0,,,7.6,
Dunstaffnage,05/09/2019 05:00,10.1,8,,,0,,87,,270,-,,,,0,,,8.1,
Dunstaffnage,05/09/2019 06:00,10.4,7,9.6,,0.2,1,91,,260,-,,,,3,,,9.1,
Dunstaffnage,05/09/2019 07:00,10.6,10,,,0.6,,91,,250,-,,,,40,,,9.3,
Dunstaffnage,05/09/2019 08:00,11.2,9,,,4.2,,96,,250,-,,,,89,,,10.7,
Dunstaffnage,05/09/2019 09:00,12.6,14,,,0,,94,,270,-,,,,390,,,11.7,
Dunstaffnage,05/09/2019 10:00,13.8,23,,,0,,88,33,270,-,,,,985,,,11.9,
Dunstaffnage,05/09/2019 11:00,15,20,,,0,,84,30,270,-,,,,1316,,,12.5,
Dunstaffnage,05/09/2019 12:00,15.3,15,,,0,5,75,29,270,-,,,,1619,,,10.9,
Dunstaffnage,05/09/2019 13:00,15.5,9,,,0,,73,,270,-,,,,1451,,,10.8,
Dunstaffnage,05/09/2019 14:00,14.9,12,,,0,,75,,270,-,,,,709,,,10.6,
Dunstaffnage,05/09/2019 15:00,14.7,13,,,0,,71,,240,-,,,,1107,,,9.6,
Dunstaffnage,05/09/2019 16:00,14.6,10,,,0,,73,,240,-,,,,1080,,,10,
Dunstaffnage,05/09/2019 17:00,13.7,13,,,0,,80,,240,-,,,,601,,,10.4,
Dunstaffnage,05/09/2019 18:00,13.5,10,,17,0,0,83,,240,-,,,,185,,,10.7,
Dunstaffnage,05/09/2019 19:00,12.5,12,,,0.6,,92,,240,-,,,,27,,,11.3,
Dunstaffnage,05/09/2019 20:00,12.8,18,,,2.2,,88,33,240,-,,,,1,,,11,
Dunstaffnage,05/09/2019 21:00,13,14,,,0.2,,88,29,240,-,,,,0,,,11.1,
Dunstaffnage,05/09/2019 22:00,12.7,17,,,2,,94,30,230,-,,,,0,,,11.9,
Dunstaffnage,05/09/2019 23:00,12.9,20,,,1.4,,96,35,240,-,,,,0,,,12.3,
Dunstaffnage,06/09/2019 00:00,13.1,20,,,0.4,7,96,33,240,-,,,,,,,12.6,
Dunstaffnage,06/09/2019 01:00,13.4,18,,,1.4,,96,31,250,-,,,,0,,,12.9,
Dunstaffnage,06/09/2019 02:00,13.4,16,,,1,,95,,240,-,,,,0,,,12.7,
Dunstaffnage,06/09/2019 03:00,12.5,15,,,0.8,,91,30,280,-,,,,0,,,11.2,
Dunstaffnage,06/09/2019 04:00,11.8,21,,,0,,81,35,270,-,,,,0,,,8.8,
Dunstaffnage,06/09/2019 05:00,12,21,,,0,,75,29,270,-,,,,0,,,7.8,
Dunstaffnage,06/09/2019 06:00,11.7,16,11.6,,0,3,77,30,260,-,,,,5,,,7.9,
Dunstaffnage,06/09/2019 07:00,11.4,14,,,0.2,,82,,260,-,,,,60,,,8.6,
Dunstaffnage,06/09/2019 08:00,12,14,,,0,,82,,250,-,,,,99,,,9.1,
Dunstaffnage,06/09/2019 09:00,12.9,17,,,0.6,,88,,270,-,,,,494,,,11,
Dunstaffnage,06/09/2019 10:00,12.6,20,,,1,,91,32,270,-,,,,639,,,11.3,
Dunstaffnage,06/09/2019 11:00,12.7,24,,,1,,93,33,270,-,,,,771,,,11.6,
Dunstaffnage,06/09/2019 12:00,12.4,13,,,4.4,7,94,,290,-,,,,581,,,11.5,
Dunstaffnage,06/09/2019 13:00,13.8,18,,,0,,88,33,270,-,,,,647,,,12,
Dunstaffnage,06/09/2019 14:00,14.5,17,,,0,,80,31,270,-,,,,1549,,,11.2,
Dunstaffnage,06/09/2019 15:00,14.2,14,,,0,,85,31,270,-,,,,1511,,,11.8,
Dunstaffnage,06/09/2019 16:00,15.6,10,,,0,,72,,270,-,,,,1811,,,10.7,
Dunstaffnage,06/09/2019 17:00,14.8,10,,,0,,76,,280,-,,,,1294,,,10.7,
Dunstaffnage,06/09/2019 18:00,14.5,9,,16,0,0,74,,290,-,,,,816,,,10.1,
Dunstaffnage,06/09/2019 19:00,12.8,9,,,0,,83,,280,-,,,,221,,,10.1,
Dunstaffnage,06/09/2019 20:00,12.4,8,,,0,,84,,280,-,,,,4,,,9.8,
Dunstaffnage,06/09/2019 21:00,11.7,6,,,0,,82,,290,-,,,,0,,,8.8,
Dunstaffnage,06/09/2019 22:00,12.3,9,,,0,,77,,290,-,,,,0,,,8.4,
Dunstaffnage,06/09/2019 23:00,12,8,,,0,,77,,280,-,,,,0,,,8.2,
Dunstaffnage,07/09/2019 00:00,11.9,7,,,0,0,80,,290,-,,,,,,,8.6,
Dunstaffnage,07/09/2019 01:00,11.9,8,,,0,,79,,300,-,,,,0,,,8.4,
Dunstaffnage,07/09/2019 02:00,11.5,12,,,0,,81,,290,-,,,,0,,,8.4,
Dunstaffnage,07/09/2019 03:00,11.3,12,,,0,,82,,300,-,,,,0,,,8.4,
Dunstaffnage,07/09/2019 04:00,11.2,7,,,0,,79,,310,-,,,,0,,,7.7,
Dunstaffnage,07/09/2019 05:00,10.6,2,,,0,,71,,10,-,,,,0,,,5.6,
Dunstaffnage,07/09/2019 06:00,9.6,3,9.6,,0,0,76,,350,-,,,,0,,,5.7,
Dunstaffnage,07/09/2019 07:00,8.9,1,,,0,,86,,340,-,,,,193,,,6.7,
Dunstaffnage,07/09/2019 08:00,11,1,,,0,,75,,250,-,,,,696,,,6.9,
Dunstaffnage,07/09/2019 09:00,12.8,2,,,0,,74,,90,-,,,,1220,,,8.4,
Dunstaffnage,07/09/2019 10:00,13.5,2,,,0,,68,,330,-,,,,1505,,,7.8,
Dunstaffnage,07/09/2019 11:00,14,3,,,0,,61,,300,-,,,,2051,,,6.8,
Dunstaffnage,07/09/2019 12:00,14,6,,,0,0,59,,280,-,,,,2295,,,6.3,
Dunstaffnage,07/09/2019 13:00,15.7,5,,,0,,62,,300,-,,,,2319,,,8.5,
Dunstaffnage,07/09/2019 14:00,15.3,5,,,0,,58,,300,-,,,,2247,,,7.3,
Dunstaffnage,07/09/2019 15:00,17.2,7,,,0,,56,,250,-,,,,2067,,,8.5,
Dunstaffnage,07/09/2019 16:00,15.4,8,,,0,,59,,240,-,,,,1692,,,7.6,
Dunstaffnage,07/09/2019 17:00,15.9,8,,,0,,58,,260,-,,,,1205,,,7.8,
Dunstaffnage,07/09/2019 18:00,13.7,7,,17.7,0,0,64,,260,-,,,,649,,,7.2,
Dunstaffnage,07/09/2019 19:00,12.2,6,,,0,,70,,280,-,,,,106,,,7,
Dunstaffnage,07/09/2019 20:00,11.2,3,,,0,,74,,280,-,,,,0,,,6.9,
Dunstaffnage,07/09/2019 21:00,8.5,3,,,0,,86,,210,-,,,,0,,,6.4,
Dunstaffnage,07/09/2019 22:00,7.4,6,,,0,,92,,210,-,,,,0,,,6.2,
Dunstaffnage,07/09/2019 23:00,7.1,0,,,0,,94,,0,-,,,,0,,,6.3,
Dunstaffnage,08/09/2019 00:00,7,1,,,0,0,95,,60,-,,,,,,,6.4,
Dunstaffnage,08/09/2019 01:00,6.3,2,,,0,,96,,60,-,,,,0,,,5.8,
Dunstaffnage,08/09/2019 02:00,7.3,6,,,0,,97,,80,-,,,,0,,,6.9,
Dunstaffnage,08/09/2019 03:00,7.1,6,,,0,,95,,70,-,,,,0,,,6.5,
Dunstaffnage,08/09/2019 04:00,7.3,6,,,0,,95,,80,-,,,,0,,,6.7,
Dunstaffnage,08/09/2019 05:00,7.5,6,,,0,,95,,80,-,,,,0,,,6.9,
Dunstaffnage,08/09/2019 06:00,7.2,7,5.7,,0,0,95,,90,-,,,,2,,,6.6,
Dunstaffnage,08/09/2019 07:00,7.9,6,,,0,,95,,80,-,,,,70,,,7.3,
Dunstaffnage,08/09/2019 08:00,9.1,7,,,0,,94,,80,-,,,,232,,,8.2,
Dunstaffnage,08/09/2019 09:00,10.7,5,,,0,,91,,70,-,,,,463,,,9.4,
Dunstaffnage,08/09/2019 10:00,12.5,6,,,0,,87,,70,-,,,,772,,,10.4,
Dunstaffnage,08/09/2019 11:00,13.9,5,,,0,,77,,140,-,,,,753,,,10.1,
Dunstaffnage,08/09/2019 12:00,13.2,3,,,0,0,80,,230,-,,,,523,,,9.9,
Dunstaffnage,08/09/2019 13:00,14.4,3,,,0,,78,,160,-,,,,687,,,10.7,
Dunstaffnage,08/09/2019 14:00,14.8,3,,,0,,77,,240,-,,,,633,,,11,
Dunstaffnage,08/09/2019 15:00,14.2,3,,,0,,82,,290,-,,,,440,,,11.2,
Dunstaffnage,08/09/2019 16:00,13.9,2,,,0,,88,,120,-,,,,273,,,12.1,
Dunstaffnage,08/09/2019 17:00,13.8,2,,,0,,91,,90,-,,,,192,,,12.4,
Dunstaffnage,08/09/2019 18:00,13.1,8,,15,0.2,0.2,93,,90,-,,,,119,,,12.1,
Dunstaffnage,08/09/2019 19:00,12.4,6,,,0,,94,,90,-,,,,30,,,11.5,
Dunstaffnage,08/09/2019 20:00,12.2,8,,,0.4,,95,,100,-,,,,0,,,11.5,
Dunstaffnage,08/09/2019 21:00,12.3,8,,,0,,96,,90,-,,,,0,,,11.8,
Dunstaffnage,08/09/2019 22:00,12.6,10,,,0,,96,,90,-,,,,0,,,12,
Dunstaffnage,08/09/2019 23:00,12.9,10,,,0,,94,,100,-,,,,0,,,12,
Dunstaffnage,09/09/2019 00:00,13,10,,,0,0.4,92,,110,-,,,,,,,11.8,
Dunstaffnage,09/09/2019 01:00,12.8,10,,,0.6,,94,,100,-,,,,0,,,11.9,
Dunstaffnage,09/09/2019 02:00,12.6,7,,,0.8,,96,,110,-,,,,0,,,12,
Dunstaffnage,09/09/2019 03:00,12.7,7,,,2.4,,96,,100,-,,,,0,,,12.1,
Dunstaffnage,09/09/2019 04:00,12.7,1,,,5.6,,96,,220,-,,,,0,,,12.2,
Dunstaffnage,09/09/2019 05:00,12.2,3,,,0.6,,97,,70,-,,,,0,,,11.8,
Dunstaffnage,09/09/2019 06:00,12,5,11.9,,0.2,10.6,97,,70,-,,,,2,,,11.6,
Dunstaffnage,09/09/2019 07:00,12.3,1,,,0.2,,98,,70,-,,,,60,,,12,
Dunstaffnage,09/09/2019 08:00,12.6,5,,,0.4,,98,,70,-,,,,172,,,12.4,
Dunstaffnage,09/09/2019 09:00,13.2,3,,,0.8,,98,,70,-,,,,339,,,12.9,
Dunstaffnage,09/09/2019 10:00,12.6,10,,,1,,97,,280,-,,,,377,,,12.2,
Dunstaffnage,09/09/2019 11:00,13,14,,,0.2,,88,,300,-,,,,912,,,11.2,
Dunstaffnage,09/09/2019 12:00,13.8,9,,,0,3,84,,300,-,,,,1028,,,11.3,
Dunstaffnage,09/09/2019 13:00,14.4,9,,,0,,83,,280,-,,,,1444,,,11.7,
Dunstaffnage,09/09/2019 14:00,14.3,15,,,0,,86,,270,-,,,,1117,,,12.1,
Dunstaffnage,09/09/2019 15:00,15,15,,,0,,83,,270,-,,,,1300,,,12.3,
Dunstaffnage,09/09/2019 16:00,14.2,12,,,0,,81,,280,-,,,,1123,,,11.1,
Dunstaffnage,09/09/2019 17:00,13.7,12,,,0,,83,,290,-,,,,852,,,11,
Dunstaffnage,09/09/2019 18:00,13,9,,15.6,0,0,83,,280,-,,,,385,,,10.2,
Dunstaffnage,09/09/2019 19:00,12.7,10,,,0,,84,,290,-,,,,74,,,10.2,
Dunstaffnage,09/09/2019 20:00,13,13,,,0,,80,,300,-,,,,0,,,9.8,
Dunstaffnage,09/09/2019 21:00,13,8,,,0,,77,,310,-,,,,0,,,9.2,
Dunstaffnage,09/09/2019 22:00,12.9,9,,,0,,79,,310,-,,,,0,,,9.4,
Dunstaffnage,09/09/2019 23:00,12.5,10,,,0,,81,,300,-,,,,0,,,9.5,
Dunstaffnage,10/09/2019 00:00,12.5,9,,,0,0,83,,300,-,,,,,,,9.7,
Dunstaffnage,10/09/2019 01:00,12.1,8,,,0,,85,,290,-,,,,0,,,9.8,
Dunstaffnage,10/09/2019 02:00,11.8,9,,,0,,82,,300,-,,,,0,,,9,
Dunstaffnage,10/09/2019 03:00,11,7,,,0,,86,,280,-,,,,0,,,8.9,
Dunstaffnage,10/09/2019 04:00,10.3,5,,,0,,87,,270,-,,,,0,,,8.3,
Dunstaffnage,10/09/2019 05:00,8.5,1,,,0,,91,,200,-,,,,0,,,7.2,
Dunstaffnage,10/09/2019 06:00,8.5,6,7.5,,0,0,96,,210,-,,,,1,,,7.9,
Dunstaffnage,10/09/2019 07:00,8.5,1,,,0,,96,,200,-,,,,178,,,8,
Dunstaffnage,10/09/2019 08:00,10.8,0,,,0,,97,,0,-,,,,732,,,10.4,
Dunstaffnage,10/09/2019 09:00,12.8,5,,,0,,87,,70,-,,,,912,,,10.7,
Dunstaffnage,10/09/2019 10:00,13.5,6,,,0,,76,,220,-,,,,919,,,9.4,
Dunstaffnage,10/09/2019 11:00,13.6,6,,,0,,74,,200,-,,,,972,,,9.2,
Dunstaffnage,10/09/2019 12:00,13.8,5,,,0,0,81,,190,-,,,,594,,,10.6,
Dunstaffnage,10/09/2019 13:00,13.2,9,,,0,,76,,200,-,,,,644,,,9.2,
Dunstaffnage,10/09/2019 14:00,13.3,10,,,0,,74,,190,-,,,,586,,,8.8,
Dunstaffnage,10/09/2019 15:00,12.6,7,,,0,,80,,180,-,,,,427,,,9.3,
Dunstaffnage,10/09/2019 16:00,12.3,7,,,0,,83,,170,-,,,,180,,,9.6,
Dunstaffnage,10/09/2019 17:00,11.4,7,,,0.4,,91,,170,-,,,,101,,,10.1,
Dunstaffnage,10/09/2019 18:00,11.5,7,,14.3,1.4,2,94,,100,-,,,,52,,,10.6,
Dunstaffnage,10/09/2019 19:00,11.8,5,,,4.4,,95,,110,-,,,,9,,,11.1,
Dunstaffnage,10/09/2019 20:00,12.8,12,,,1.4,,94,,170,-,,,,0,,,12,
Dunstaffnage,10/09/2019 21:00,13.3,12,,,1.4,,96,,160,-,,,,0,,,12.7,
Dunstaffnage,10/09/2019 22:00,13.9,12,,,4.8,,95,29,180,-,,,,0,,,13.2,
Dunstaffnage,10/09/2019 23:00,15,14,,,2.6,,96,,220,-,,,,0,,,14.4,
Dunstaffnage,11/09/2019 00:00,15.1,16,,,1.6,16,97,30,230,-,,,,,,,14.7,
Dunstaffnage,11/09/2019 01:00,15,15,,,1.8,,98,29,240,-,,,,0,,,14.7,
Dunstaffnage,11/09/2019 02:00,13.9,15,,,0.4,,96,,240,-,,,,0,,,13.4,
Dunstaffnage,11/09/2019 03:00,13,12,,,0,,91,,230,-,,,,0,,,11.7,
Dunstaffnage,11/09/2019 04:00,13.3,13,,,0,,90,,240,-,,,,0,,,11.7,
Dunstaffnage,11/09/2019 05:00,12.9,17,,,0.2,,87,,240,-,,,,0,,,10.8,
Dunstaffnage,11/09/2019 06:00,13,20,11.5,,0,3,87,29,250,-,,,,0,,,10.9,
Dunstaffnage,11/09/2019 07:00,13.1,17,,,0,,82,31,250,-,,,,100,,,10.2,
Dunstaffnage,11/09/2019 08:00,12.8,17,,,0.2,,88,32,250,-,,,,263,,,10.9,
Dunstaffnage,11/09/2019 09:00,13.6,18,,,0,,83,31,250,-,,,,554,,,10.9,
Dunstaffnage,11/09/2019 10:00,13.9,20,,,0,,86,36,250,-,,,,667,,,11.7,
Dunstaffnage,11/09/2019 11:00,15.1,18,,,0.4,,85,35,250,-,,,,1191,,,12.6,
Dunstaffnage,11/09/2019 12:00,14.8,16,,,0,0.6,76,30,250,-,,,,1231,,,10.8,
Dunstaffnage,11/09/2019 13:00,14.2,13,,,0,,82,29,240,-,,,,988,,,11.3,
Dunstaffnage,11/09/2019 14:00,14.4,13,,,0,,80,,250,-,,,,846,,,11.1,
Dunstaffnage,11/09/2019 15:00,14.5,18,,,0,,77,,260,-,,,,576,,,10.6,
Dunstaffnage,11/09/2019 16:00,13.2,20,,,0,,86,31,240,-,,,,419,,,11,
Dunstaffnage,11/09/2019 17:00,13.7,15,,,0,,84,,240,-,,,,273,,,11.1,
Dunstaffnage,11/09/2019 18:00,13.1,15,,16.1,0.2,0.2,88,30,250,-,,,,196,,,11.3,
Dunstaffnage,11/09/2019 19:00,12.7,15,,,0,,90,,240,-,,,,59,,,11.2,
Dunstaffnage,11/09/2019 20:00,12.5,14,,,0,,89,,250,-,,,,0,,,10.9,
Dunstaffnage,11/09/2019 21:00,12.6,9,,,0,,87,,230,-,,,,0,,,10.6,
Dunstaffnage,11/09/2019 22:00,12.8,12,,,0,,86,,240,-,,,,0,,,10.6,
Dunstaffnage,11/09/2019 23:00,12.4,10,,,0,,89,,230,-,,,,0,,,10.7,
Dunstaffnage,12/09/2019 00:00,12.6,8,,,0,0,88,,240,-,,,,,,,10.7,
Dunstaffnage,12/09/2019 01:00,12.4,10,,,0,,90,,250,-,,,,0,,,10.9,
Dunstaffnage,12/09/2019 02:00,12.4,8,,,0,,88,,240,-,,,,0,,,10.5,
Dunstaffnage,12/09/2019 03:00,12.2,9,,,0,,89,,240,-,,,,0,,,10.6,
Dunstaffnage,12/09/2019 04:00,12.2,7,,,0,,84,,230,-,,,,0,,,9.6,
Dunstaffnage,12/09/2019 05:00,12.1,8,,,0,,87,,250,-,,,,0,,,10.1,
Dunstaffnage,12/09/2019 06:00,11.8,5,11.7,,0.2,0.2,93,,220,-,,,,0,,,10.8,
Dunstaffnage,12/09/2019 07:00,12.4,5,,,0.2,,94,,230,-,,,,41,,,11.6,
Dunstaffnage,12/09/2019 08:00,12.4,5,,,0,,93,,230,-,,,,175,,,11.4,
Dunstaffnage,12/09/2019 09:00,12.5,3,,,0.2,,92,,210,-,,,,250,,,11.3,
Dunstaffnage,12/09/2019 10:00,12.8,7,,,0.2,,95,,230,-,,,,343,,,12.1,
Dunstaffnage,12/09/2019 11:00,12.9,7,,,0,,94,,260,-,,,,406,,,12.1,
Dunstaffnage,12/09/2019 12:00,13.2,6,,,0.2,0.8,90,,260,-,,,,461,,,11.7,
Dunstaffnage,12/09/2019 13:00,13.9,15,,,0,,82,,270,-,,,,796,,,11,
Dunstaffnage,12/09/2019 14:00,16.1,15,,,0,,70,,270,-,,,,1557,,,10.7,
Dunstaffnage,12/09/2019 15:00,14.9,15,,,0,,65,,280,-,,,,1994,,,8.6,
Dunstaffnage,12/09/2019 16:00,14.8,13,,,0,,70,,280,-,,,,1169,,,9.5,
Dunstaffnage,12/09/2019 17:00,14.7,17,,,0,,70,,270,-,,,,869,,,9.4,
Dunstaffnage,12/09/2019 18:00,13.4,12,,16.7,0,0,74,,280,-,,,,340,,,8.9,
Dunstaffnage,12/09/2019 19:00,12.2,9,,,0,,79,,250,-,,,,91,,,8.7,
Dunstaffnage,12/09/2019 20:00,11.4,8,,,0,,82,,250,-,,,,0,,,8.6,
Dunstaffnage,12/09/2019 21:00,11.3,5,,,0,,80,,220,-,,,,0,,,8.1,
Dunstaffnage,12/09/2019 22:00,11.3,7,,,0,,81,,230,-,,,,0,,,8.2,
Dunstaffnage,12/09/2019 23:00,10.7,7,,,0,,85,,220,-,,,,0,,,8.4,
Dunstaffnage,13/09/2019 00:00,10.7,10,,,1.4,1,91,,250,-,,,,,,,9.4,
Dunstaffnage,13/09/2019 01:00,10.4,7,,,0,,92,,250,-,,,,0,,,9.3,
Dunstaffnage,13/09/2019 02:00,11,9,,,0,,85,,260,-,,,,0,,,8.6,
Dunstaffnage,13/09/2019 03:00,11,10,,,0,,85,,270,-,,,,0,,,8.6,
Dunstaffnage,13/09/2019 04:00,10.3,7,,,0,,88,,240,-,,,,0,,,8.5,
Dunstaffnage,13/09/2019 05:00,10,6,,,0,,87,,230,-,,,,0,,,8,
Dunstaffnage,13/09/2019 06:00,11.3,8,9.1,,0,0,80,,240,-,,,,0,,,8.1,
Dunstaffnage,13/09/2019 07:00,9.9,5,,,0,,83,,210,-,,,,78,,,7.3,
Dunstaffnage,13/09/2019 08:00,12.7,7,,,0,,85,,240,-,,,,575,,,10.4,
Dunstaffnage,13/09/2019 09:00,13.7,9,,,0,,72,,260,-,,,,962,,,8.9,
Dunstaffnage,13/09/2019 10:00,14.4,12,,,0,,73,,260,-,,,,967,,,9.7,
Dunstaffnage,13/09/2019 11:00,16.6,16,,,0,,66,,250,-,,,,1779,,,10.3,
Dunstaffnage,13/09/2019 12:00,16.9,15,,,0,0,66,,250,-,,,,2273,,,10.6,
Dunstaffnage,13/09/2019 13:00,16.8,15,,,0,,66,,240,-,,,,2303,,,10.6,
Dunstaffnage,13/09/2019 14:00,16.3,16,,,0,,57,,260,-,,,,2087,,,8,
Dunstaffnage,13/09/2019 15:00,15.3,13,,,0,,69,,240,-,,,,1512,,,9.7,
Dunstaffnage,13/09/2019 16:00,15.4,14,,,0,,69,,240,-,,,,1291,,,9.8,
Dunstaffnage,13/09/2019 17:00,15.4,12,,,0,,73,,230,-,,,,854,,,10.7,
Dunstaffnage,13/09/2019 18:00,13.7,8,,17.2,0,0,74,,210,-,,,,461,,,9.3,
Dunstaffnage,13/09/2019 19:00,13,5,,,0,,80,,230,-,,,,65,,,9.7,
Dunstaffnage,13/09/2019 20:00,12.7,3,,,0,,83,,220,-,,,,0,,,9.9,
Dunstaffnage,13/09/2019 21:00,12,1,,,0,,86,,140,-,,,,0,,,9.8,
Dunstaffnage,13/09/2019 22:00,11.1,2,,,0,,91,,110,-,,,,0,,,9.8,
Dunstaffnage,13/09/2019 23:00,11.7,6,,,0,,90,,160,-,,,,0,,,10.2,
Dunstaffnage,14/09/2019 00:00,11,3,,,0,0,88,,250,-,,,,,,,9.1,
Dunstaffnage,14/09/2019 01:00,11.9,10,,,0,,86,,150,-,,,,0,,,9.8,
Dunstaffnage,14/09/2019 02:00,12,7,,,0,,86,,140,-,,,,0,,,9.9,
Dunstaffnage,14/09/2019 03:00,12.3,7,,,0,,80,,150,-,,,,0,,,9,
Dunstaffnage,14/09/2019 04:00,12.6,10,,,0,,78,,160,-,,,,0,,,8.9,
Dunstaffnage,14/09/2019 05:00,13.2,10,,,0,,76,,170,-,,,,0,,,9.2,
Dunstaffnage,14/09/2019 06:00,13.5,13,10.9,,0,0,76,,170,-,,,,0,,,9.4,
Dunstaffnage,14/09/2019 07:00,13.1,12,,,0,,78,,180,-,,,,26,,,9.4,
Dunstaffnage,14/09/2019 08:00,12.3,10,,,0,,85,,160,-,,,,73,,,10,
Dunstaffnage,14/09/2019 09:00,12.3,13,,,0.4,,91,,170,-,,,,117,,,11,
Dunstaffnage,14/09/2019 10:00,12.8,12,,,0.2,,89,,180,-,,,,238,,,11.2,
Dunstaffnage,14/09/2019 11:00,13,8,,,0,,88,,220,-,,,,355,,,11.1,
Dunstaffnage,14/09/2019 12:00,14.4,7,,,0.2,0.8,82,,180,-,,,,632,,,11.5,
Dunstaffnage,14/09/2019 13:00,15,14,,,0,,79,,240,-,,,,616,,,11.4,
Dunstaffnage,14/09/2019 14:00,14.7,18,,,0,,86,35,230,-,,,,476,,,12.5,
Dunstaffnage,14/09/2019 15:00,14.1,17,,,0.2,,92,35,230,-,,,,373,,,12.9,
Dunstaffnage,14/09/2019 16:00,13.9,13,,,2.2,,96,30,220,-,,,,138,,,13.3,
Dunstaffnage,14/09/2019 17:00,14.4,16,,,2.4,,97,30,240,-,,,,41,,,14,
Dunstaffnage,14/09/2019 18:00,14.6,17,,15.4,2.4,7.2,96,35,240,-,,,,27,,,14.1,
Dunstaffnage,14/09/2019 19:00,14.7,20,,,2.2,,96,35,240,-,,,,5,,,14.2,
Dunstaffnage,14/09/2019 20:00,12.4,21,,,4,,95,32,270,-,,,,0,,,11.7,
Dunstaffnage,14/09/2019 21:00,11.9,14,,,1,,94,30,260,-,,,,0,,,11,
Dunstaffnage,14/09/2019 22:00,11.9,15,,,1.4,,94,,270,-,,,,0,,,11,
Dunstaffnage,14/09/2019 23:00,12.2,18,,,0.2,,88,,270,-,,,,1,,,10.4,
Dunstaffnage,15/09/2019 00:00,12.1,16,,,0,9,85,,290,-,,,,,,,9.8,
Dunstaffnage,15/09/2019 01:00,11.8,25,,,0,,85,35,270,-,,,,0,,,9.4,
Dunstaffnage,15/09/2019 02:00,11.6,20,,,0,,79,31,270,-,,,,0,,,8.2,
Dunstaffnage,15/09/2019 03:00,11.5,14,,,0.2,,77,30,280,-,,,,0,,,7.8,
Dunstaffnage,15/09/2019 04:00,11.1,13,,,0,,78,,270,-,,,,0,,,7.6,
Dunstaffnage,15/09/2019 05:00,11.1,18,,,0,,77,29,270,-,,,,0,,,7.3,
Dunstaffnage,15/09/2019 06:00,10.9,14,10.6,,0,0,79,,270,-,,,,0,,,7.5,
Dunstaffnage,15/09/2019 07:00,11.3,12,,,0,,75,,270,-,,,,35,,,7.1,
Dunstaffnage,15/09/2019 08:00,11.5,13,,,0,,75,,260,-,,,,124,,,7.3,
Dunstaffnage,15/09/2019 09:00,11.9,13,,,0,,74,,270,-,,,,375,,,7.5,
Dunstaffnage,15/09/2019 10:00,12.8,14,,,0,,74,,270,-,,,,600,,,8.4,
Dunstaffnage,15/09/2019 11:00,14.4,16,,,0,,72,,270,-,,,,1211,,,9.6,
Dunstaffnage,15/09/2019 12:00,13.8,16,,,0,0,66,,270,-,,,,1564,,,7.7,
Dunstaffnage,15/09/2019 13:00,12.7,15,,,0,,70,,270,-,,,,723,,,7.4,
Dunstaffnage,15/09/2019 14:00,15.5,15,,,0,,60,,270,-,,,,1742,,,7.8,
Dunstaffnage,15/09/2019 15:00,15.4,13,,,0,,56,,270,-,,,,1880,,,6.8,
Dunstaffnage,15/09/2019 16:00,13.5,13,,,0,,64,,280,-,,,,793,,,7,
Dunstaffnage,15/09/2019 17:00,13.1,12,,,0,,68,,270,-,,,,447,,,7.4,
Dunstaffnage,15/09/2019 18:00,12.1,10,,15.9,0,0,70,,280,-,,,,411,,,6.9,
Dunstaffnage,15/09/2019 19:00,11.3,7,,,0,,74,,280,-,,,,49,,,7,
Dunstaffnage,15/09/2019 20:00,9.7,3,,,0,,84,,250,-,,,,0,,,7.2,
Dunstaffnage,15/09/2019 21:00,8.9,5,,,0,,85,,220,-,,,,0,,,6.6,
Dunstaffnage,15/09/2019 22:00,7.5,3,,,0,,91,,210,-,,,,0,,,6.2,
Dunstaffnage,15/09/2019 23:00,7.3,0,,,0,,93,,0,-,,,,0,,,6.3,
Dunstaffnage,16/09/2019 00:00,7.4,2,,,0,0,95,,70,-,,,,,,,6.8,
Dunstaffnage,16/09/2019 01:00,8.4,5,,,0,,96,,190,-,,,,0,,,7.9,
Dunstaffnage,16/09/2019 02:00,9.1,2,,,0,,94,,190,-,,,,0,,,8.3,
Dunstaffnage,16/09/2019 03:00,9.1,6,,,0.4,,95,,80,-,,,,0,,,8.4,
Dunstaffnage,16/09/2019 04:00,9.4,2,,,0,,96,,240,-,,,,0,,,8.9,
Dunstaffnage,16/09/2019 05:00,9.5,7,,,0,,95,,250,-,,,,0,,,8.8,
Dunstaffnage,16/09/2019 06:00,9.4,5,6.8,,0,0.4,92,,200,-,,,,0,,,8.3,
Dunstaffnage,16/09/2019 07:00,9.8,2,,,0,,91,,240,-,,,,56,,,8.5,
Dunstaffnage,16/09/2019 08:00,10.7,6,,,0,,89,,240,-,,,,150,,,9,
Dunstaffnage,16/09/2019 09:00,13.1,10,,,0,,78,,260,-,,,,892,,,9.4,
Dunstaffnage,16/09/2019 10:00,12.9,16,,,0,,72,,270,-,,,,827,,,8,
Dunstaffnage,16/09/2019 11:00,12.2,9,,,0,,86,,260,-,,,,619,,,10,
Dunstaffnage,16/09/2019 12:00,13.2,14,,,0,0,73,,270,-,,,,836,,,8.5,
Dunstaffnage,16/09/2019 13:00,13.1,9,,,0.2,,83,,250,-,,,,739,,,10.3,
Dunstaffnage,16/09/2019 14:00,13.9,14,,,0,,70,,270,-,,,,922,,,8.7,
Dunstaffnage,16/09/2019 15:00,14,16,,,0,,71,,270,-,,,,735,,,8.9,
Dunstaffnage,16/09/2019 16:00,15,17,,,0,,62,,270,-,,,,1083,,,7.8,
Dunstaffnage,16/09/2019 17:00,13.2,15,,,0,,71,,280,-,,,,666,,,8.1,
Dunstaffnage,16/09/2019 18:00,12.9,14,,15.8,0,0.2,73,,280,-,,,,256,,,8.3,
Dunstaffnage,16/09/2019 19:00,12.5,16,,,0,,80,,270,-,,,,48,,,9.2,
Dunstaffnage,16/09/2019 20:00,11.9,14,,,0,,80,,270,-,,,,0,,,8.7,
Dunstaffnage,16/09/2019 21:00,11.3,12,,,0.8,,91,,290,-,,,,0,,,10,
Dunstaffnage,16/09/2019 22:00,11,14,,,0,,88,,270,-,,,,0,,,9.2,
Dunstaffnage,16/09/2019 23:00,11.4,18,,,0,,86,,270,-,,,,0,,,9.3,
Dunstaffnage,17/09/2019 00:00,11.4,12,,,0.2,1,88,,290,-,,,,,,,9.5,
Dunstaffnage,17/09/2019 01:00,11.2,12,,,0,,77,,280,-,,,,0,,,7.5,
Dunstaffnage,17/09/2019 02:00,11.4,13,,,0,,75,,300,-,,,,0,,,7.2,
Dunstaffnage,17/09/2019 03:00,11.3,13,,,0,,79,,270,-,,,,0,,,7.8,
Dunstaffnage,17/09/2019 04:00,10.7,10,,,0,,76,,290,-,,,,0,,,6.8,
Dunstaffnage,17/09/2019 05:00,10.9,10,,,0,,74,,290,-,,,,0,,,6.6,
Dunstaffnage,17/09/2019 06:00,10.8,8,10.5,,0,0,73,,300,-,,,,0,,,6.3,
Dunstaffnage,17/09/2019 07:00,10.5,8,,,0,,74,,290,-,,,,80,,,6.1,
Dunstaffnage,17/09/2019 08:00,10.8,9,,,0,,69,,300,-,,,,536,,,5.4,
Dunstaffnage,17/09/2019 09:00,11.7,10,,,0,,64,,300,-,,,,1044,,,5.2,
Dunstaffnage,17/09/2019 10:00,12.3,9,,,0,,58,,310,-,,,,1552,,,4.5,
Dunstaffnage,17/09/2019 11:00,13.3,5,,,0,,56,,310,-,,,,1807,,,4.8,
Dunstaffnage,17/09/2019 12:00,13.3,6,,,0,0,52,,320,-,,,,2036,,,3.8,
Dunstaffnage,17/09/2019 13:00,13.8,8,,,0,,59,,300,-,,,,1264,,,6.1,
Dunstaffnage,17/09/2019 14:00,13.8,7,,,0,,59,,300,-,,,,1149,,,6.1,
Dunstaffnage,17/09/2019 15:00,13.6,6,,,0,,59,,310,-,,,,1091,,,5.9,
Dunstaffnage,17/09/2019 16:00,13.8,9,,,0,,62,,280,-,,,,1038,,,6.8,
Dunstaffnage,17/09/2019 17:00,13,13,,,0,,65,,270,-,,,,808,,,6.8,
Dunstaffnage,17/09/2019 18:00,11.8,9,,15.2,0,0,64,,270,-,,,,259,,,5.4,
Dunstaffnage,17/09/2019 19:00,11.6,8,,,0,,67,,290,-,,,,51,,,5.8,
Dunstaffnage,17/09/2019 20:00,11.9,6,,,0,,67,,300,-,,,,0,,,6,
Dunstaffnage,17/09/2019 21:00,10.7,3,,,0,,78,,190,-,,,,0,,,7.2,
Dunstaffnage,17/09/2019 22:00,10.1,1,,,0,,82,,200,-,,,,0,,,7.3,
Dunstaffnage,17/09/2019 23:00,9.9,1,,,0,,86,,190,-,,,,0,,,7.7,
Dunstaffnage,18/09/2019 00:00,10.3,0,,,0,0,77,,0,-,,,,,,,6.5,
Dunstaffnage,18/09/2019 01:00,10.1,2,,,0,,79,,210,-,,,,0,,,6.8,
Dunstaffnage,18/09/2019 02:00,10.2,2,,,0,,83,,60,-,,,,0,,,7.5,
Dunstaffnage,18/09/2019 03:00,10.2,1,,,0,,77,,180,-,,,,0,,,6.5,
Dunstaffnage,18/09/2019 04:00,9.7,2,,,0,,89,,150,-,,,,0,,,8,
Dunstaffnage,18/09/2019 05:00,9.5,8,,,0.4,,94,,90,-,,,,0,,,8.6,
Dunstaffnage,18/09/2019 06:00,9.6,5,9.4,,0,0.4,96,,80,-,,,,0,,,9,
Dunstaffnage,18/09/2019 07:00,9.8,7,,,0.2,,97,,60,-,,,,21,,,9.4,
Dunstaffnage,18/09/2019 08:00,10.6,6,,,0,,97,,70,-,,,,90,,,10.2,
Dunstaffnage,18/09/2019 09:00,12.4,7,,,0.2,,98,,230,-,,,,247,,,12.1,
Dunstaffnage,18/09/2019 10:00,13.1,9,,,0.2,,98,,230,-,,,,395,,,12.8,
Dunstaffnage,18/09/2019 11:00,13.8,9,,,0,,97,,230,-,,,,816,,,13.4,
Dunstaffnage,18/09/2019 12:00,14.1,9,,,0,0.6,96,,220,-,,,,801,,,13.6,
Dunstaffnage,18/09/2019 13:00,14.3,10,,,0,,96,,220,-,,,,1005,,,13.7,
Dunstaffnage,18/09/2019 14:00,14.5,8,,,0.4,,96,,240,-,,,,520,,,14,
Dunstaffnage,18/09/2019 15:00,14.8,8,,,0.6,,96,,250,-,,,,565,,,14.3,
Dunstaffnage,18/09/2019 16:00,14.5,7,,,0.2,,96,,240,-,,,,462,,,14,
Dunstaffnage,18/09/2019 17:00,14.3,7,,,0,,96,,260,-,,,,308,,,13.8,
Dunstaffnage,18/09/2019 18:00,14,8,,15,0,1.4,97,,260,-,,,,153,,,13.6,
Dunstaffnage,18/09/2019 19:00,13.7,6,,,0.2,,97,,260,-,,,,35,,,13.3,
Dunstaffnage,18/09/2019 20:00,13.4,7,,,0,,98,,240,-,,,,0,,,13.1,
Dunstaffnage,18/09/2019 21:00,13.5,6,,,0,,98,,260,-,,,,0,,,13.2,
Dunstaffnage,18/09/2019 22:00,13.4,5,,,0,,98,,240,-,,,,0,,,13.1,
Dunstaffnage,18/09/2019 23:00,13.3,5,,,0,,98,,230,-,,,,0,,,13,
Dunstaffnage,19/09/2019 00:00,13.2,3,,,0,0.2,98,,240,-,,,,,,,12.9,
Dunstaffnage,19/09/2019 01:00,13.1,2,,,0.2,,98,,200,-,,,,0,,,12.8,
Dunstaffnage,19/09/2019 02:00,13,5,,,0,,97,,240,-,,,,0,,,12.6,
Dunstaffnage,19/09/2019 03:00,12.4,3,,,0,,98,,230,-,,,,0,,,12.1,
Dunstaffnage,19/09/2019 04:00,12.5,2,,,0,,98,,230,-,,,,0,,,12.2,
Dunstaffnage,19/09/2019 05:00,12.2,3,,,0.2,,98,,220,-,,,,0,,,12,
Dunstaffnage,19/09/2019 06:00,12,3,11.9,,0,0.4,98,,220,-,,,,0,,,11.7,
Dunstaffnage,19/09/2019 07:00,12.2,2,,,0,,98,,240,-,,,,47,,,12,
Dunstaffnage,19/09/2019 08:00,12.4,6,,,0.2,,98,,240,-,,,,161,,,12.2,
Dunstaffnage,19/09/2019 09:00,12.6,2,,,0,,98,,210,-,,,,251,,,12.3,
Dunstaffnage,19/09/2019 10:00,12.6,5,,,-0.2,,96,,220,-,,,,,,,12.1,
Dunstaffnage,19/09/2019 11:00,13.2,5,,,0,,90,,220,-,,,,472,,,11.6,
Dunstaffnage,19/09/2019 12:00,13.6,5,,,0,0.2,88,,220,-,,,,469,,,11.7,
Dunstaffnage,19/09/2019 13:00,13.7,5,,,0,,86,,220,-,,,,550,,,11.5,
Dunstaffnage,19/09/2019 14:00,14.4,3,,,0,,87,,240,-,,,,526,,,12.3,
Dunstaffnage,19/09/2019 15:00,15.6,3,,,0,,78,,280,-,,,,849,,,11.8,
Dunstaffnage,19/09/2019 16:00,17.7,3,,,0,,69,,260,-,,,,1209,,,12.1,
Dunstaffnage,19/09/2019 17:00,14.6,3,,,0,,80,,60,-,,,,687,,,11.3,
Dunstaffnage,19/09/2019 18:00,13.7,1,,18,0,0,81,,90,-,,,,309,,,10.6,
Dunstaffnage,19/09/2019 19:00,11.6,0,,,0,,90,,0,-,,,,33,,,10.1,
Dunstaffnage,19/09/2019 20:00,9.8,0,,,0,,93,,0,-,,,,0,,,8.8,
Dunstaffnage,19/09/2019 21:00,10.3,5,,,0,,96,,70,-,,,,0,,,9.8,
Dunstaffnage,19/09/2019 22:00,10.5,6,,,0,,96,,70,-,,,,0,,,10,
Dunstaffnage,19/09/2019 23:00,9.7,3,,,0,,96,,90,-,,,,0,,,9.2,
Dunstaffnage,20/09/2019 00:00,9.6,5,,,0,0,96,,60,-,,,,,,,9.1,
Dunstaffnage,20/09/2019 01:00,9.3,6,,,0,,97,,80,-,,,,0,,,8.9,
Dunstaffnage,20/09/2019 02:00,9.1,5,,,0,,97,,70,-,,,,0,,,8.7,
Dunstaffnage,20/09/2019 03:00,8.9,7,,,0.2,,97,,80,-,,,,0,,,8.6,
Dunstaffnage,20/09/2019 04:00,8.7,5,,,0,,97,,80,-,,,,0,,,8.3,
Dunstaffnage,20/09/2019 05:00,7.5,3,,,0,,95,,90,-,,,,0,,,6.9,
Dunstaffnage,20/09/2019 06:00,8.2,3,7.3,,0,0.2,96,,70,-,,,,0,,,7.7,
Dunstaffnage,20/09/2019 07:00,8.9,8,,,0,,96,,70,-,,,,85,,,8.3,
Dunstaffnage,20/09/2019 08:00,10.3,6,,,0,,91,,70,-,,,,391,,,9,
Dunstaffnage,20/09/2019 09:00,12.7,6,,,0,,84,,70,-,,,,914,,,10.2,
Dunstaffnage,20/09/2019 10:00,15.1,5,,,0,,77,,70,-,,,,1355,,,11.2,
Dunstaffnage,20/09/2019 11:00,18,2,,,0,,74,,70,-,,,,1737,,,13.5,
Dunstaffnage,20/09/2019 12:00,17,6,,,0,0,75,,270,-,,,,1663,,,12.6,
Dunstaffnage,20/09/2019 13:00,17.4,5,,,0,,67,,310,-,,,,1556,,,11.4,
Dunstaffnage,20/09/2019 14:00,23.1,5,,,0,,57,,150,-,,,,1929,,,14.2,
Dunstaffnage,20/09/2019 15:00,22.5,7,,,0,,54,,110,-,,,,1726,,,12.8,
Dunstaffnage,20/09/2019 16:00,21.6,7,,,0,,56,,100,-,,,,1225,,,12.7,
Dunstaffnage,20/09/2019 17:00,20.7,7,,,0,,60,,110,-,,,,787,,,12.7,
Dunstaffnage,20/09/2019 18:00,18.1,7,,23.5,0,0,69,,100,-,,,,298,,,12.4,
Dunstaffnage,20/09/2019 19:00,17,5,,,0,,72,,140,-,,,,22,,,12,
Dunstaffnage,20/09/2019 20:00,17.9,12,,,0,,64,,120,-,,,,0,,,11.2,
Dunstaffnage,20/09/2019 21:00,17.2,12,,,0,,69,,100,-,,,,0,,,11.6,
Dunstaffnage,20/09/2019 22:00,16,6,,,0,,73,,80,-,,,,0,,,11.3,
Dunstaffnage,20/09/2019 23:00,16.8,14,,,0,,72,,100,-,,,,0,,,11.8,
Dunstaffnage,21/09/2019 00:00,16.5,14,,,0,0,73,,100,-,,,,,,,11.7,
Dunstaffnage,21/09/2019 01:00,16.1,5,,,0,,72,,130,-,,,,0,,,11.1,
Dunstaffnage,21/09/2019 02:00,15.4,5,,,0,,73,,140,-,,,,0,,,10.7,
Dunstaffnage,21/09/2019 03:00,15.4,8,,,0,,69,,130,-,,,,0,,,9.9,
Dunstaffnage,21/09/2019 04:00,15.3,10,,,0,,66,,110,-,,,,0,,,9,
Dunstaffnage,21/09/2019 05:00,14.8,13,,,0,,65,,100,-,,,,0,,,8.5,
Dunstaffnage,21/09/2019 06:00,11.6,0,11.6,,0,0,76,,0,-,,,,0,,,7.7,
Dunstaffnage,21/09/2019 07:00,14.3,8,,,0,,68,,90,-,,,,90,,,8.6,
Dunstaffnage,21/09/2019 08:00,16,16,,,0,,62,,100,-,,,,341,,,8.9,
Dunstaffnage,21/09/2019 09:00,17.2,20,,,0,,59,29,100,-,,,,719,,,9.2,
Dunstaffnage,21/09/2019 10:00,18.6,8,,,0,,53,,90,-,,,,1391,,,9.1,
Dunstaffnage,21/09/2019 11:00,21.4,6,,,0,,47,,90,-,,,,1801,,,9.7,
Dunstaffnage,21/09/2019 12:00,21.7,14,,,0,0,42,,90,-,,,,1723,,,8.4,
Dunstaffnage,21/09/2019 13:00,21.3,17,,,0,,46,,90,-,,,,1594,,,9.4,
Dunstaffnage,21/09/2019 14:00,21.6,24,,,0,,49,37,100,-,,,,1901,,,10.5,
Dunstaffnage,21/09/2019 15:00,22.5,12,,,0,,51,31,90,-,,,,1660,,,11.9,
Dunstaffnage,21/09/2019 16:00,21.6,16,,,0,,50,32,100,-,,,,1171,,,10.9,
Dunstaffnage,21/09/2019 17:00,20.7,17,,,0,,52,29,100,-,,,,728,,,10.7,
Dunstaffnage,21/09/2019 18:00,19.5,21,,22.6,0,0,56,29,100,-,,,,197,,,10.7,
Dunstaffnage,21/09/2019 19:00,18.5,12,,,0,,59,30,100,-,,,,19,,,10.4,
Dunstaffnage,21/09/2019 20:00,18.2,16,,,0,,61,,90,-,,,,0,,,10.6,
Dunstaffnage,21/09/2019 21:00,17.4,14,,,0,,63,,90,-,,,,0,,,10.5,
Dunstaffnage,21/09/2019 22:00,16.8,8,,,0,,66,,100,-,,,,0,,,10.6,
Dunstaffnage,21/09/2019 23:00,16.6,13,,,0,,66,,70,-,,,,0,,,10.4,
Dunstaffnage,22/09/2019 00:00,16.1,9,,,0,0,68,,80,-,,,,,,,10.4,
Dunstaffnage,22/09/2019 01:00,15.2,10,,,0,,73,,90,-,,,,0,,,10.4,
Dunstaffnage,22/09/2019 02:00,15.7,5,,,0,,70,,40,-,,,,0,,,10.4,
Dunstaffnage,22/09/2019 03:00,15.3,5,,,0,,73,,80,-,,,,0,,,10.6,
Dunstaffnage,22/09/2019 04:00,14.5,6,,,0,,80,,80,-,,,,0,,,11.1,
Dunstaffnage,22/09/2019 05:00,15.1,3,,,0,,75,,140,-,,,,0,,,10.8,
Dunstaffnage,22/09/2019 06:00,15.2,6,14.1,,0,0,74,,100,-,,,,0,,,10.8,
Dunstaffnage,22/09/2019 07:00,14.9,5,,,0,,80,,90,-,,,,26,,,11.6,
Dunstaffnage,22/09/2019 08:00,15.5,3,,,0,,81,,40,-,,,,197,,,12.3,
Dunstaffnage,22/09/2019 09:00,17.2,3,,,0,,75,,60,-,,,,376,,,12.8,
Dunstaffnage,22/09/2019 10:00,17.9,12,,,0,,70,,100,-,,,,309,,,12.4,
Dunstaffnage,22/09/2019 11:00,15.1,8,,,0.4,,88,29,90,-,,,,164,,,13.2,
Dunstaffnage,22/09/2019 12:00,15.7,5,,,0.2,0.6,91,,90,-,,,,281,,,14.4,
Dunstaffnage,22/09/2019 13:00,17.5,3,,,0,,80,,80,-,,,,388,,,14.1,
Dunstaffnage,22/09/2019 14:00,18,14,,,0,,79,,100,-,,,,220,,,14.4,
Dunstaffnage,22/09/2019 15:00,20.3,6,,,0,,73,,100,-,,,,826,,,15.5,
Dunstaffnage,22/09/2019 16:00,19.6,12,,,0,,74,,90,-,,,,743,,,14.9,
Dunstaffnage,22/09/2019 17:00,18.7,6,,,0,,77,,100,-,,,,285,,,14.7,
Dunstaffnage,22/09/2019 18:00,17.2,7,,20.3,0,0,85,,170,-,,,,49,,,14.7,
Dunstaffnage,22/09/2019 19:00,16.8,6,,,0.2,,89,,200,-,,,,6,,,15.1,
Dunstaffnage,22/09/2019 20:00,16.3,2,,,0,,91,,110,-,,,,0,,,14.9,
Dunstaffnage,22/09/2019 21:00,15.6,6,,,1.4,,93,,70,-,,,,0,,,14.6,
Dunstaffnage,22/09/2019 22:00,15.4,2,,,1.2,,94,,140,-,,,,0,,,14.6,
Dunstaffnage,22/09/2019 23:00,15.3,2,,,0.2,,96,,120,-,,,,0,,,14.7,
Dunstaffnage,23/09/2019 00:00,15.2,5,,,0.2,3,96,,140,-,,,,,,,14.7,
Dunstaffnage,23/09/2019 01:00,15.2,5,,,0,,96,,130,-,,,,0,,,14.6,
Dunstaffnage,23/09/2019 02:00,14.9,6,,,0,,96,,120,-,,,,0,,,14.4,
Dunstaffnage,23/09/2019 03:00,14.8,5,,,0,,96,,100,-,,,,0,,,14.3,
Dunstaffnage,23/09/2019 04:00,14.6,6,,,0,,96,,100,-,,,,0,,,14.1,
Dunstaffnage,23/09/2019 05:00,13.8,0,,,0,,96,,0,-,,,,0,,,13.2,
Dunstaffnage,23/09/2019 06:00,13.8,3,13.6,,0,0,97,,120,-,,,,0,,,13.4,
Dunstaffnage,23/09/2019 07:00,13.8,2,,,0,,97,,140,-,,,,34,,,13.4,
Dunstaffnage,23/09/2019 08:00,14.6,5,,,0,,96,,80,-,,,,199,,,14.1,
Dunstaffnage,23/09/2019 09:00,15.2,9,,,0,,88,,110,-,,,,311,,,13.3,
Dunstaffnage,23/09/2019 10:00,16.1,12,,,0,,83,,110,-,,,,479,,,13.3,
Dunstaffnage,23/09/2019 11:00,15.6,7,,,0,,81,,180,-,,,,645,,,12.5,
Dunstaffnage,23/09/2019 12:00,15.4,5,,,0,0,82,,160,-,,,,695,,,12.4,
Dunstaffnage,23/09/2019 13:00,14.7,8,,,0,,87,,170,-,,,,652,,,12.6,
Dunstaffnage,23/09/2019 14:00,15.6,9,,,0,,77,,180,-,,,,749,,,11.6,
Dunstaffnage,23/09/2019 15:00,17.5,2,,,0,,69,,130,-,,,,1461,,,11.9,
Dunstaffnage,23/09/2019 16:00,17.4,8,,,0,,64,,130,-,,,,1292,,,10.6,
Dunstaffnage,23/09/2019 17:00,16.4,5,,,0,,67,,140,-,,,,563,,,10.3,
Dunstaffnage,23/09/2019 18:00,14.2,6,,18.4,0,0,74,,90,-,,,,174,,,9.7,
Dunstaffnage,23/09/2019 19:00,13.5,7,,,0,,80,,100,-,,,,13,,,10.2,
Dunstaffnage,23/09/2019 20:00,14.3,12,,,0,,74,,90,-,,,,0,,,9.9,
Dunstaffnage,23/09/2019 21:00,14.7,12,,,0,,73,,100,-,,,,0,,,10,
Dunstaffnage,23/09/2019 22:00,15.3,18,,,0,,69,,90,-,,,,0,,,9.7,
Dunstaffnage,23/09/2019 23:00,15.3,18,,,0,,70,29,100,-,,,,0,,,9.9,
Dunstaffnage,24/09/2019 00:00,14.3,13,,,0,0,79,29,100,-,,,,,,,10.8,
Dunstaffnage,24/09/2019 01:00,14.7,14,,,0,,77,,100,-,,,,0,,,10.9,
Dunstaffnage,24/09/2019 02:00,14.8,12,,,0,,79,,100,-,,,,0,,,11.2,
Dunstaffnage,24/09/2019 03:00,14.6,12,,,0,,84,,100,-,,,,0,,,12,
Dunstaffnage,24/09/2019 04:00,14.3,8,,,0.2,,88,,100,-,,,,0,,,12.5,
Dunstaffnage,24/09/2019 05:00,13.7,7,,,1.2,,93,,120,-,,,,0,,,12.6,
Dunstaffnage,24/09/2019 06:00,13.6,6,13.4,,0.2,2,94,,110,-,,,,0,,,12.8,
Dunstaffnage,24/09/2019 07:00,13.9,9,,,0,,96,,100,-,,,,11,,,13.3,
Dunstaffnage,24/09/2019 08:00,14.6,10,,,0,,95,,100,-,,,,146,,,13.9,
Dunstaffnage,24/09/2019 09:00,15.5,7,,,0,,92,,80,-,,,,340,,,14.3,
Dunstaffnage,24/09/2019 10:00,17.2,10,,,0,,85,,90,-,,,,646,,,14.8,
Dunstaffnage,24/09/2019 11:00,18.1,8,,,0,,77,,110,-,,,,725,,,14.1,
Dunstaffnage,24/09/2019 12:00,20.9,13,,,0,0,69,,100,-,,,,1191,,,15.2,
Dunstaffnage,24/09/2019 13:00,21.8,9,,,0,,66,,110,-,,,,1660,,,15.2,
Dunstaffnage,24/09/2019 14:00,19.6,9,,,0,,70,,90,-,,,,871,,,14.1,
Dunstaffnage,24/09/2019 15:00,19,9,,,0,,72,,90,-,,,,653,,,13.9,
Dunstaffnage,24/09/2019 16:00,17.8,6,,,0,,80,,70,-,,,,372,,,14.4,
Dunstaffnage,24/09/2019 17:00,17.5,5,,,0,,80,,90,-,,,,283,,,14.2,
Dunstaffnage,24/09/2019 18:00,16.9,8,,21.9,0,0,83,,90,-,,,,95,,,14,
Dunstaffnage,24/09/2019 19:00,15.8,5,,,0,,86,,100,-,,,,11,,,13.5,
Dunstaffnage,24/09/2019 20:00,15.1,0,,,0,,89,,0,-,,,,0,,,13.4,
Dunstaffnage,24/09/2019 21:00,15,2,,,0,,90,,190,-,,,,0,,,13.5,
Dunstaffnage,24/09/2019 22:00,14.5,0,,,0.8,,94,,0,-,,,,0,,,13.6,
Dunstaffnage,24/09/2019 23:00,14.2,0,,,0.2,,95,,0,-,,,,0,,,13.5,
Dunstaffnage,25/09/2019 00:00,14.2,1,,,0.6,2,96,,170,-,,,,,,,13.7,
Dunstaffnage,25/09/2019 01:00,14.1,1,,,0,,97,,260,-,,,,0,,,13.7,
Dunstaffnage,25/09/2019 02:00,14.1,3,,,0,,97,,300,-,,,,0,,,13.7,
Dunstaffnage,25/09/2019 03:00,13.7,1,,,0,,97,,90,-,,,,0,,,13.3,
Dunstaffnage,25/09/2019 04:00,13.8,2,,,0,,97,,240,-,,,,0,,,13.4,
Dunstaffnage,25/09/2019 05:00,13.4,2,,,0,,98,,190,-,,,,0,,,13.1,
Dunstaffnage,25/09/2019 06:00,13.5,0,13.1,,0,0,98,,0,-,,,,0,,,13.2,
Dunstaffnage,25/09/2019 07:00,13.6,1,,,0,,98,,110,-,,,,21,,,13.3,
Dunstaffnage,25/09/2019 08:00,14.4,1,,,0,,98,,230,-,,,,128,,,14.1,
Dunstaffnage,25/09/2019 09:00,14.9,1,,,0,,98,,120,-,,,,300,,,14.6,
Dunstaffnage,25/09/2019 10:00,15.8,0,,,0,,97,,0,-,,,,704,,,15.4,
Dunstaffnage,25/09/2019 11:00,16.8,6,,,0,,92,,250,-,,,,679,,,15.5,
Dunstaffnage,25/09/2019 12:00,18.3,7,,,0,0,84,,250,-,,,,1283,,,15.7,
Dunstaffnage,25/09/2019 13:00,17.7,5,,,0,,85,,210,-,,,,913,,,15.2,
Dunstaffnage,25/09/2019 14:00,16.9,3,,,0,,89,,260,-,,,,563,,,15.1,
Dunstaffnage,25/09/2019 15:00,16.9,5,,,0.2,,90,,220,-,,,,430,,,15.3,
Dunstaffnage,25/09/2019 16:00,16.4,2,,,0.2,,92,,270,-,,,,344,,,15.1,
Dunstaffnage,25/09/2019 17:00,15.3,6,,,1.4,,94,,120,-,,,,215,,,14.4,
Dunstaffnage,25/09/2019 18:00,15.1,3,,18.6,0.2,2,94,,100,-,,,,208,,,14.2,
Dunstaffnage,25/09/2019 19:00,14.8,6,,,0,,93,,100,-,,,,3,,,13.8,
Dunstaffnage,25/09/2019 20:00,14.6,10,,,0,,93,,100,-,,,,0,,,13.6,
Dunstaffnage,25/09/2019 21:00,14.6,5,,,0,,93,,80,-,,,,0,,,13.6,
Dunstaffnage,25/09/2019 22:00,14.4,2,,,0.6,,94,,100,-,,,,0,,,13.5,
Dunstaffnage,25/09/2019 23:00,14.4,10,,,0.6,,93,,100,-,,,,0,,,13.4,
Dunstaffnage,26/09/2019 00:00,14,9,,,1,2,95,,90,-,,,,,,,13.3,
Dunstaffnage,26/09/2019 01:00,14.2,12,,,0.2,,93,,100,-,,,,0,,,13.1,
Dunstaffnage,26/09/2019 02:00,13.8,10,,,4,,95,,100,-,,,,0,,,13.1,
Dunstaffnage,26/09/2019 03:00,13.7,6,,,3.4,,96,,110,-,,,,0,,,13.2,
Dunstaffnage,26/09/2019 04:00,13.6,8,,,2.2,,94,,230,-,,,,0,,,12.8,
Dunstaffnage,26/09/2019 05:00,13,6,,,0,,91,,190,-,,,,0,,,11.6,
Dunstaffnage,26/09/2019 06:00,12.8,8,12.8,,0,10,91,,170,-,,,,0,,,11.5,
Dunstaffnage,26/09/2019 07:00,13.1,8,,,0.2,,91,,180,-,,,,36,,,11.8,
Dunstaffnage,26/09/2019 08:00,12.9,7,,,0,,89,,230,-,,,,212,,,11.3,
Dunstaffnage,26/09/2019 09:00,14.8,7,,,0,,87,,190,-,,,,830,,,12.7,
Dunstaffnage,26/09/2019 10:00,15.1,8,,,0,,80,,200,-,,,,1137,,,11.7,
Dunstaffnage,26/09/2019 11:00,14.6,8,,,0,,83,,240,-,,,,767,,,11.8,
Dunstaffnage,26/09/2019 12:00,15,7,,,0,0.2,79,,210,-,,,,899,,,11.5,
Dunstaffnage,26/09/2019 13:00,13,8,,,2.2,,93,,190,-,,,,326,,,11.9,
Dunstaffnage,26/09/2019 14:00,14.1,8,,,0.2,,89,,210,-,,,,639,,,12.4,
Dunstaffnage,26/09/2019 15:00,13.4,8,,,0,,87,,190,-,,,,580,,,11.3,
Dunstaffnage,26/09/2019 16:00,13.9,6,,,0.2,,89,,160,-,,,,560,,,12.2,
Dunstaffnage,26/09/2019 17:00,13.2,7,,,0,,87,,150,-,,,,411,,,11.2,
Dunstaffnage,26/09/2019 18:00,12.9,6,,15.5,0,2.8,89,,140,-,,,,153,,,11.3,
Dunstaffnage,26/09/2019 19:00,12,8,,,0,,92,,120,-,,,,2,,,10.8,
Dunstaffnage,26/09/2019 20:00,12,6,,,0.4,,94,,120,-,,,,0,,,11.2,
Dunstaffnage,26/09/2019 21:00,11.8,8,,,0.4,,95,,110,-,,,,0,,,11.1,
Dunstaffnage,26/09/2019 22:00,11.7,2,,,1.2,,96,,180,-,,,,0,,,11.1,
Dunstaffnage,26/09/2019 23:00,11.7,5,,,0.4,,96,,150,-,,,,0,,,11.1,
Dunstaffnage,27/09/2019 00:00,11,1,,,1,3,95,,170,-,,,,,,,10.3,
Dunstaffnage,27/09/2019 01:00,11,7,,,0.6,,96,,120,-,,,,0,,,10.4,
Dunstaffnage,27/09/2019 02:00,11.1,3,,,0.6,,96,,160,-,,,,0,,,10.6,
Dunstaffnage,27/09/2019 03:00,11.2,7,,,0.8,,97,,150,-,,,,0,,,10.8,
Dunstaffnage,27/09/2019 04:00,11.1,6,,,0,,94,,180,-,,,,0,,,10.3,
Dunstaffnage,27/09/2019 05:00,11,0,,,0.2,,94,,0,-,,,,0,,,10.2,
Dunstaffnage,27/09/2019 06:00,10.6,2,10.6,,3.8,6,96,,220,-,,,,0,,,10,
Dunstaffnage,27/09/2019 07:00,10.5,7,,,0.6,,96,,160,-,,,,10,,,10,
Dunstaffnage,27/09/2019 08:00,10.7,7,,,0.2,,96,,140,-,,,,96,,,10.2,
Dunstaffnage,27/09/2019 09:00,10.7,1,,,1.2,,96,,320,-,,,,93,,,10.2,
Dunstaffnage,27/09/2019 10:00,10.8,2,,,1,,97,,240,-,,,,185,,,10.4,
Dunstaffnage,27/09/2019 11:00,12,1,,,0.8,,96,,170,-,,,,511,,,11.5,
Dunstaffnage,27/09/2019 12:00,14,1,,,0.2,4,83,,200,-,,,,1400,,,11.3,
Dunstaffnage,27/09/2019 13:00,13.7,6,,,0,,83,,290,-,,,,1601,,,10.9,
Dunstaffnage,27/09/2019 14:00,14.5,8,,,0,,74,,280,-,,,,1321,,,10,
Dunstaffnage,27/09/2019 15:00,13.2,7,,,0,,76,,240,-,,,,985,,,9.2,
Dunstaffnage,27/09/2019 16:00,12.3,7,,,0,,86,,240,-,,,,421,,,10.1,
Dunstaffnage,27/09/2019 17:00,12.8,5,,,0,,85,,220,-,,,,459,,,10.5,
Dunstaffnage,27/09/2019 18:00,11.8,3,,15.5,0,0,90,,230,-,,,,111,,,10.3,
Dunstaffnage,27/09/2019 19:00,10.8,5,,,0,,92,,210,-,,,,6,,,9.7,
Dunstaffnage,27/09/2019 20:00,10.1,5,,,0,,95,,210,-,,,,0,,,9.4,
Dunstaffnage,27/09/2019 21:00,9.5,1,,,0,,96,,230,-,,,,0,,,8.9,
Dunstaffnage,27/09/2019 22:00,8.8,2,,,0,,96,,200,-,,,,0,,,8.3,
Dunstaffnage,27/09/2019 23:00,9.9,2,,,0,,98,,100,-,,,,0,,,9.6,
Dunstaffnage,28/09/2019 00:00,9.9,1,,,0.6,0.6,98,,120,-,,,,,,,9.6,
Dunstaffnage,28/09/2019 01:00,9.1,2,,,0,,97,,100,-,,,,0,,,8.7,
Dunstaffnage,28/09/2019 02:00,9.3,0,,,0,,97,,0,-,,,,0,,,9,
Dunstaffnage,28/09/2019 03:00,8.3,0,,,0,,97,,0,-,,,,0,,,8,
Dunstaffnage,28/09/2019 04:00,8.4,0,,,0,,97,,0,-,,,,0,,,8.1,
Dunstaffnage,28/09/2019 05:00,8.2,2,,,0,,97,,210,-,,,,0,,,7.9,
Dunstaffnage,28/09/2019 06:00,7.1,1,7.1,,0,0,97,,170,-,,,,0,,,6.8,
Dunstaffnage,28/09/2019 07:00,9.2,0,,,0,,99,,0,-,,,,14,,,9.1,
Dunstaffnage,28/09/2019 08:00,10.6,5,,,0,,99,,210,-,,,,136,,,10.5,
Dunstaffnage,28/09/2019 09:00,11.1,5,,,0,,98,,250,-,,,,330,,,10.9,
Dunstaffnage,28/09/2019 10:00,13.4,6,,,0,,97,,250,-,,,,961,,,13,
Dunstaffnage,28/09/2019 11:00,15.6,8,,,0,,82,,250,-,,,,1394,,,12.6,
Dunstaffnage,28/09/2019 12:00,15.9,8,,,0,0,76,,270,-,,,,1634,,,11.7,
Dunstaffnage,28/09/2019 13:00,15.3,9,,,0,,72,,260,-,,,,1406,,,10.4,
Dunstaffnage,28/09/2019 14:00,15.2,7,,,0,,74,,240,-,,,,1020,,,10.8,
Dunstaffnage,28/09/2019 15:00,17.1,9,,,0,,67,,250,-,,,,1760,,,11,
Dunstaffnage,28/09/2019 16:00,14.2,8,,,0,,80,,230,-,,,,714,,,10.9,
Dunstaffnage,28/09/2019 17:00,13.6,7,,,0,,81,,230,-,,,,595,,,10.5,
Dunstaffnage,28/09/2019 18:00,12.6,3,,18.1,0,0,86,,220,-,,,,95,,,10.4,
Dunstaffnage,28/09/2019 19:00,11.7,2,,,0,,90,,210,-,,,,0,,,10.2,
Dunstaffnage,28/09/2019 20:00,10.1,1,,,0,,93,,100,-,,,,0,,,9.1,
Dunstaffnage,28/09/2019 21:00,9.6,1,,,0,,96,,70,-,,,,0,,,9,
Dunstaffnage,28/09/2019 22:00,9.7,5,,,0,,96,,90,-,,,,0,,,9.1,
Dunstaffnage,28/09/2019 23:00,9.3,6,,,0,,96,,70,-,,,,0,,,8.7,
Dunstaffnage,29/09/2019 00:00,9,6,,,0.2,0.2,96,,80,-,,,,,,,8.5,
Dunstaffnage,29/09/2019 01:00,8.9,5,,,0,,97,,70,-,,,,0,,,8.5,
Dunstaffnage,29/09/2019 02:00,8.7,3,,,0,,97,,60,-,,,,0,,,8.3,
Dunstaffnage,29/09/2019 03:00,8,0,,,0,,96,,0,-,,,,0,,,7.5,
Dunstaffnage,29/09/2019 04:00,8.9,3,,,0,,97,,20,-,,,,0,,,8.6,
Dunstaffnage,29/09/2019 05:00,8.3,2,,,0,,97,,180,-,,,,0,,,7.9,
Dunstaffnage,29/09/2019 06:00,9.1,1,7.6,,0,0,97,,200,-,,,,0,,,8.8,
Dunstaffnage,29/09/2019 07:00,9.6,1,,,0,,98,,200,-,,,,15,,,9.3,
Dunstaffnage,29/09/2019 08:00,10.6,0,,,0,,98,,0,-,,,,105,,,10.4,
Dunstaffnage,29/09/2019 09:00,12.1,2,,,0,,97,,30,-,,,,242,,,11.7,
Dunstaffnage,29/09/2019 10:00,13.8,7,,,0,,83,,20,-,,,,527,,,11.1,
Dunstaffnage,29/09/2019 11:00,14.1,9,,,0,,77,,20,-,,,,819,,,10.3,
Dunstaffnage,29/09/2019 12:00,14.8,8,,,0,0,72,,10,-,,,,867,,,9.9,
Dunstaffnage,29/09/2019 13:00,15.4,6,,,0,,72,,360,-,,,,853,,,10.4,
Dunstaffnage,29/09/2019 14:00,14.9,7,,,0,,71,,20,-,,,,577,,,9.9,
Dunstaffnage,29/09/2019 15:00,14.5,6,,,0,,74,,10,-,,,,309,,,10.1,
Dunstaffnage,29/09/2019 16:00,15.2,5,,,0,,72,,20,-,,,,485,,,10.2,
Dunstaffnage,29/09/2019 17:00,14.3,5,,,0,,74,,360,-,,,,267,,,9.8,
Dunstaffnage,29/09/2019 18:00,13.5,3,,15.5,0,0,76,,10,-,,,,55,,,9.4,
Dunstaffnage,29/09/2019 19:00,13,3,,,0,,79,,20,-,,,,0,,,9.6,
Dunstaffnage,29/09/2019 20:00,12.3,2,,,0.4,,87,,70,-,,,,0,,,10.3,
Dunstaffnage,29/09/2019 21:00,11.2,2,,,0.2,,91,,180,-,,,,0,,,9.9,
Dunstaffnage,29/09/2019 22:00,9.5,2,,,0,,93,,240,-,,,,0,,,8.5,
Dunstaffnage,29/09/2019 23:00,8.8,1,,,0,,95,,250,-,,,,0,,,8.1,
Dunstaffnage,30/09/2019 00:00,8.7,5,,,0,0.6,96,,250,-,,,,,,,8.2,
Dunstaffnage,30/09/2019 01:00,10,6,,,0,,98,,200,-,,,,0,,,9.7,
Dunstaffnage,30/09/2019 02:00,10.6,5,,,0,,97,,350,-,,,,0,,,10.2,
Dunstaffnage,30/09/2019 03:00,10.8,3,,,0,,97,,250,-,,,,0,,,10.4,
Dunstaffnage,30/09/2019 04:00,9.9,3,,,0,,95,,220,-,,,,0,,,9.2,
Dunstaffnage,30/09/2019 05:00,9.6,3,,,0,,96,,200,-,,,,0,,,9.1,
Dunstaffnage,30/09/2019 06:00,8.8,0,7.9,,0,0,96,,0,-,,,,0,,,8.2,
Dunstaffnage,30/09/2019 07:00,8.3,3,,,0,,97,,220,-,,,,15,,,7.9,
Dunstaffnage,30/09/2019 08:00,9.3,0,,,0,,98,,0,-,,,,195,,,9.1,
Dunstaffnage,30/09/2019 09:00,11.9,2,,,0,,98,,40,-,,,,625,,,11.6,
Dunstaffnage,30/09/2019 10:00,12.8,5,,,0,,88,,40,-,,,,725,,,11,
Dunstaffnage,30/09/2019 11:00,14.6,2,,,0,,80,,350,-,,,,1237,,,11.3,
Dunstaffnage,30/09/2019 12:00,14.3,2,,,0,0,78,,310,-,,,,1266,,,10.7,
Dunstaffnage,30/09/2019 13:00,14.5,3,,,0,,75,,330,-,,,,1131,,,10.3,
Dunstaffnage,30/09/2019 14:00,14.4,6,,,0,,74,,20,-,,,,1030,,,10,
Dunstaffnage,30/09/2019 15:00,14,6,,,0,,74,,10,-,,,,673,,,9.5,
Dunstaffnage,30/09/2019 16:00,13.9,7,,,0,,74,,30,-,,,,419,,,9.5,
Dunstaffnage,30/09/2019 17:00,13.1,9,,,0,,75,,90,-,,,,149,,,8.8,
Dunstaffnage,30/09/2019 18:00,12.5,8,,16.2,0,0,78,,90,-,,,,39,,,8.8,
Dunstaffnage,30/09/2019 19:00,12.3,10,,,0,,77,,90,-,,,,0,,,8.4,
Dunstaffnage,30/09/2019 20:00,12.1,14,,,0,,76,,80,-,,,,0,,,8.1,
Dunstaffnage,30/09/2019 21:00,11.5,14,,,0,,78,,80,-,,,,0,,,7.9,
Dunstaffnage,30/09/2019 22:00,11.3,15,,,0,,77,,80,-,,,,0,,,7.5,
Dunstaffnage,30/09/2019 23:00,11.1,13,,,0,,77,,70,-,,,,0,,,7.4,
Dunstaffnage,01/10/2019 00:00,10.7,14,,,0,0,74,,80,-,,,,,,,6.4,
Dunstaffnage,01/10/2019 01:00,10.6,14,,,0,,74,,70,-,,,,0,,,6.3,
Dunstaffnage,01/10/2019 02:00,10.1,13,,,0,,74,,80,-,,,,0,,,5.7,
Dunstaffnage,01/10/2019 03:00,9.9,9,,,0,,75,,60,-,,,,0,,,5.7,
Dunstaffnage,01/10/2019 04:00,9.7,14,,,0,,72,,60,-,,,,0,,,5,
Dunstaffnage,01/10/2019 05:00,9.1,10,,,0,,70,,60,-,,,,0,,,4.1,
Dunstaffnage,01/10/2019 06:00,8.7,12,8.7,,0,0,71,,50,-,,,,0,,,3.9,
Dunstaffnage,01/10/2019 07:00,7.8,10,,,0,,68,,50,-,,,,6,,,2.4,
Dunstaffnage,01/10/2019 08:00,8.7,16,,,0,,69,,40,-,,,,221,,,3.5,
Dunstaffnage,01/10/2019 09:00,9.5,9,,,0,,63,,70,-,,,,600,,,3,
Dunstaffnage,01/10/2019 10:00,10.7,13,,,0,,65,,70,-,,,,755,,,4.4,
Dunstaffnage,01/10/2019 11:00,10.7,12,,,0,,58,,30,-,,,,1575,,,2.9,
Dunstaffnage,01/10/2019 12:00,11.3,10,,,0,0,56,,30,-,,,,1622,,,3,
Dunstaffnage,01/10/2019 13:00,11.7,8,,,0,,59,,20,-,,,,1273,,,4,
Dunstaffnage,01/10/2019 14:00,12.2,7,,,0,,55,,10,-,,,,1318,,,3.5,
Dunstaffnage,01/10/2019 15:00,12.3,7,,,0,,52,,360,-,,,,909,,,3,
Dunstaffnage,01/10/2019 16:00,12.2,3,,,0,,53,,10,-,,,,778,,,3,
Dunstaffnage,01/10/2019 17:00,11.4,13,,,0,,69,,310,-,,,,438,,,6,
Dunstaffnage,01/10/2019 18:00,10.4,9,,12.7,0,0,63,,340,-,,,,102,,,3.8,
Dunstaffnage,01/10/2019 19:00,9.7,6,,,0,,63,,320,-,,,,0,,,3.1,
Dunstaffnage,01/10/2019 20:00,9.5,6,,,0,,67,,330,-,,,,0,,,3.8,
Dunstaffnage,01/10/2019 21:00,8.7,3,,,0,,67,,340,-,,,,0,,,3.1,
Dunstaffnage,01/10/2019 22:00,8.4,5,,,0,,70,,340,-,,,,0,,,3.4,
Dunstaffnage,01/10/2019 23:00,8,6,,,0,,74,,360,-,,,,0,,,3.7,
Dunstaffnage,02/10/2019 00:00,7.2,3,,,0,0,78,,30,-,,,,,,,3.7,
Dunstaffnage,02/10/2019 01:00,7,3,,,0,,78,,360,-,,,,0,,,3.6,
Dunstaffnage,02/10/2019 02:00,8.1,7,,,0,,79,,320,-,,,,0,,,4.8,
Dunstaffnage,02/10/2019 03:00,7.7,6,,,0,,72,,340,-,,,,0,,,3,
Dunstaffnage,02/10/2019 04:00,7.5,9,,,0,,73,,290,-,,,,0,,,3,
Dunstaffnage,02/10/2019 05:00,5.6,1,,,0,,81,,190,-,,,,0,,,2.7,
Dunstaffnage,02/10/2019 06:00,4.5,3,4.4,,0,0,84,,190,-,,,,0,,,2.2,
Dunstaffnage,02/10/2019 07:00,6.1,5,,,0,,82,,310,-,,,,7,,,3.4,
Dunstaffnage,02/10/2019 08:00,8.2,10,,,0,,74,,290,-,,,,213,,,3.9,
Dunstaffnage,02/10/2019 09:00,9.5,9,,,0,,70,,300,-,,,,592,,,4.4,
Dunstaffnage,02/10/2019 10:00,9.8,6,,,0,,69,,290,-,,,,485,,,4.5,
Dunstaffnage,02/10/2019 11:00,11.8,6,,,0,,63,,320,-,,,,1425,,,5.1,
Dunstaffnage,02/10/2019 12:00,11.9,6,,,0,0,63,,310,-,,,,1096,,,5.1,
Dunstaffnage,02/10/2019 13:00,11.7,5,,,0,,59,,330,-,,,,1147,,,4.1,
Dunstaffnage,02/10/2019 14:00,12.4,3,,,0,,57,,320,-,,,,1182,,,4.3,
Dunstaffnage,02/10/2019 15:00,11.8,6,,,0,,57,,330,-,,,,700,,,3.7,
Dunstaffnage,02/10/2019 16:00,12.4,5,,,0,,58,,350,-,,,,548,,,4.4,
Dunstaffnage,02/10/2019 17:00,11.5,2,,,0,,59,,340,-,,,,238,,,4,
Dunstaffnage,02/10/2019 18:00,11.3,5,,13.3,0,0,59,,340,-,,,,51,,,3.6,
Dunstaffnage,02/10/2019 19:00,11,3,,,0,,59,,350,-,,,,0,,,3.4,
Dunstaffnage,02/10/2019 20:00,9.6,1,,,0,,74,,190,-,,,,0,,,5.2,
Dunstaffnage,02/10/2019 21:00,8.8,1,,,0,,82,,180,-,,,,0,,,6,
Dunstaffnage,02/10/2019 22:00,7.7,1,,,0,,84,,240,-,,,,0,,,5.3,
Dunstaffnage,02/10/2019 23:00,5.8,1,,,0,,88,,130,-,,,,0,,,4,
Dunstaffnage,03/10/2019 00:00,5.8,2,,,0,0,91,,110,-,,,,,,,4.5,
Dunstaffnage,03/10/2019 01:00,6.5,7,,,0,,86,,110,-,,,,0,,,4.4,
Dunstaffnage,03/10/2019 02:00,5.9,7,,,0,,85,,90,-,,,,0,,,3.6,
Dunstaffnage,03/10/2019 03:00,6.1,8,,,0,,83,,90,-,,,,0,,,3.5,
Dunstaffnage,03/10/2019 04:00,5.7,7,,,0,,85,,90,-,,,,0,,,3.4,
Dunstaffnage,03/10/2019 05:00,5.5,7,,,0,,85,,90,-,,,,0,,,3.2,
Dunstaffnage,03/10/2019 06:00,6,8,5.2,,0,0,82,,140,-,,,,0,,,3.3,
Dunstaffnage,03/10/2019 07:00,6.5,7,,,0,,79,,110,-,,,,14,,,3.2,
Dunstaffnage,03/10/2019 08:00,7.6,12,,,0,,80,,100,-,,,,199,,,4.4,
Dunstaffnage,03/10/2019 09:00,8.8,9,,,0,,73,,110,-,,,,308,,,4.4,
Dunstaffnage,03/10/2019 10:00,9.8,14,,,0,,71,,100,-,,,,431,,,4.8,
Dunstaffnage,03/10/2019 11:00,10.8,15,,,0,,67,,110,-,,,,619,,,5.1,
Dunstaffnage,03/10/2019 12:00,12.1,16,,,0,0,61,,100,-,,,,933,,,5,
Dunstaffnage,03/10/2019 13:00,11.4,16,,,0,,63,,100,-,,,,718,,,4.8,
Dunstaffnage,03/10/2019 14:00,10.9,17,,,0,,65,33,100,-,,,,338,,,4.6,
Dunstaffnage,03/10/2019 15:00,9.7,15,,,0.2,,78,29,100,-,,,,229,,,6.1,
Dunstaffnage,03/10/2019 16:00,10.4,18,,,0,,72,29,100,-,,,,368,,,5.6,
Dunstaffnage,03/10/2019 17:00,10.7,20,,,0,,68,32,100,-,,,,203,,,5.1,
Dunstaffnage,03/10/2019 18:00,10.4,13,,12.7,0,0.2,72,32,110,-,,,,51,,,5.7,
Dunstaffnage,03/10/2019 19:00,9.8,14,,,0,,79,29,90,-,,,,0,,,6.5,
Dunstaffnage,03/10/2019 20:00,8.6,18,,,1,,89,29,100,-,,,,0,,,7,
Dunstaffnage,03/10/2019 21:00,8.6,16,,,2.2,,93,29,100,-,,,,0,,,7.6,
Dunstaffnage,03/10/2019 22:00,8.7,15,,,2,,94,30,90,-,,,,0,,,7.9,
Dunstaffnage,03/10/2019 23:00,9.2,16,,,2.8,,92,,80,-,,,,0,,,8,
Dunstaffnage,04/10/2019 00:00,9.4,14,,,1,9,92,,80,-,,,,,,,8.2,
Dunstaffnage,04/10/2019 01:00,10,6,,,0,,81,29,120,-,,,,0,,,7,
Dunstaffnage,04/10/2019 02:00,10.2,13,,,0,,82,,90,-,,,,0,,,7.4,
Dunstaffnage,04/10/2019 03:00,10.9,20,,,0,,79,,100,-,,,,0,,,7.5,
Dunstaffnage,04/10/2019 04:00,11.3,21,,,0,,77,33,90,-,,,,0,,,7.6,
Dunstaffnage,04/10/2019 05:00,11.3,17,,,0,,76,35,100,-,,,,0,,,7.3,
Dunstaffnage,04/10/2019 06:00,11.7,21,8.5,,0,0,73,32,90,-,,,,0,,,7.2,
Dunstaffnage,04/10/2019 07:00,11.8,21,,,0,,74,35,80,-,,,,9,,,7.4,
Dunstaffnage,04/10/2019 08:00,12.6,16,,,0,,74,36,70,-,,,,155,,,8.1,
Dunstaffnage,04/10/2019 09:00,13.3,18,,,0,,70,29,70,-,,,,681,,,8.1,
Dunstaffnage,04/10/2019 10:00,13.1,17,,,0,,70,31,80,-,,,,813,,,7.9,
Dunstaffnage,04/10/2019 11:00,13.3,20,,,0,,70,,80,-,,,,563,,,8,
Dunstaffnage,04/10/2019 12:00,13.4,21,,,0,0,69,,80,-,,,,803,,,8,
Dunstaffnage,04/10/2019 13:00,13.8,17,,,0,,67,,70,-,,,,956,,,7.8,
Dunstaffnage,04/10/2019 14:00,14,12,,,0,,68,,70,-,,,,774,,,8.4,
Dunstaffnage,04/10/2019 15:00,13.9,13,,,0,,69,,80,-,,,,739,,,8.5,
Dunstaffnage,04/10/2019 16:00,14.1,14,,,0,,68,,70,-,,,,1085,,,8.3,
Dunstaffnage,04/10/2019 17:00,13.3,12,,,0,,69,,80,-,,,,417,,,7.9,
Dunstaffnage,04/10/2019 18:00,11,3,,14.6,0,0,76,,140,-,,,,77,,,7.1,
Dunstaffnage,04/10/2019 19:00,10.4,3,,,0,,80,,90,-,,,,0,,,7.2,
Dunstaffnage,04/10/2019 20:00,10.3,5,,,0,,79,,100,-,,,,0,,,7,
Dunstaffnage,04/10/2019 21:00,10.9,7,,,0,,74,,100,-,,,,0,,,6.6,
Dunstaffnage,04/10/2019 22:00,10.7,7,,,0,,75,,100,-,,,,0,,,6.6,
Dunstaffnage,04/10/2019 23:00,11.2,10,,,0,,72,,80,-,,,,0,,,6.5,
Dunstaffnage,05/10/2019 00:00,11.4,12,,,0,0,72,,80,-,,,,,,,6.7,
Dunstaffnage,05/10/2019 01:00,11.1,7,,,0,,72,,80,-,,,,0,,,6.3,
Dunstaffnage,05/10/2019 02:00,11,12,,,0,,75,,100,-,,,,0,,,6.8,
Dunstaffnage,05/10/2019 03:00,11,12,,,0,,75,,100,-,,,,0,,,6.9,
Dunstaffnage,05/10/2019 04:00,10.9,10,,,0,,77,,80,-,,,,0,,,7.1,
Dunstaffnage,05/10/2019 05:00,10.9,10,,,0,,76,,100,-,,,,0,,,7,
Dunstaffnage,05/10/2019 06:00,11.1,16,10.3,,0,0,76,,100,-,,,,0,,,7.1,
Dunstaffnage,05/10/2019 07:00,11.2,14,,,0,,76,,100,-,,,,3,,,7.2,
Dunstaffnage,05/10/2019 08:00,11.4,13,,,0,,76,,90,-,,,,49,,,7.4,
Dunstaffnage,05/10/2019 09:00,11.4,10,,,0,,77,,90,-,,,,119,,,7.7,
Dunstaffnage,05/10/2019 10:00,10.9,17,,,0,,85,,90,-,,,,168,,,8.5,
Dunstaffnage,05/10/2019 11:00,11.6,15,,,0.2,,80,,100,-,,,,279,,,8.3,
Dunstaffnage,05/10/2019 12:00,11.9,17,,,0,0.2,78,29,100,-,,,,269,,,8.2,
Dunstaffnage,05/10/2019 13:00,11.9,18,,,0,,78,31,100,-,,,,281,,,8.3,
Dunstaffnage,05/10/2019 14:00,12.5,16,,,0,,75,30,110,-,,,,319,,,8.2,
Dunstaffnage,05/10/2019 15:00,13.3,16,,,0,,74,31,100,-,,,,712,,,8.8,
Dunstaffnage,05/10/2019 16:00,12.8,15,,,0,,76,,100,-,,,,353,,,8.8,
Dunstaffnage,05/10/2019 17:00,12.4,18,,,0,,79,,100,-,,,,111,,,8.9,
Dunstaffnage,05/10/2019 18:00,11.7,16,,13.5,0,0,86,,100,-,,,,18,,,9.5,
Dunstaffnage,05/10/2019 19:00,11.6,17,,,0,,87,,100,-,,,,0,,,9.6,
Dunstaffnage,05/10/2019 20:00,11.3,15,,,0.2,,91,,90,-,,,,0,,,9.9,
Dunstaffnage,05/10/2019 21:00,11,16,,,1.2,,94,,100,-,,,,0,,,10.2,
Dunstaffnage,05/10/2019 22:00,11.1,15,,,1.6,,95,,100,-,,,,0,,,10.4,
Dunstaffnage,05/10/2019 23:00,11.1,12,,,2,,96,,100,-,,,,0,,,10.5,
Dunstaffnage,06/10/2019 00:00,11.1,16,,,2.6,8,96,,100,-,,,,,,,10.5,
Dunstaffnage,06/10/2019 01:00,11.2,6,,,4.2,,96,,210,-,,,,0,,,10.6,
Dunstaffnage,06/10/2019 02:00,11,1,,,7.4,,96,,210,-,,,,0,,,10.4,
Dunstaffnage,06/10/2019 03:00,10.8,0,,,3,,96,,0,-,,,,0,,,10.3,
Dunstaffnage,06/10/2019 04:00,10.8,1,,,2,,97,,190,-,,,,0,,,10.4,
Dunstaffnage,06/10/2019 05:00,10.8,0,,,3.2,,98,,0,-,,,,0,,,10.5,
Dunstaffnage,06/10/2019 06:00,10.9,8,10.7,,2,21,98,,90,-,,,,0,,,10.6,
Dunstaffnage,06/10/2019 07:00,10.8,5,,,0.8,,98,,90,-,,,,1,,,10.5,
Dunstaffnage,06/10/2019 08:00,10.6,6,,,0.2,,98,,120,-,,,,43,,,10.3,
Dunstaffnage,06/10/2019 09:00,10.6,7,,,0.2,,98,,130,-,,,,141,,,10.3,
Dunstaffnage,06/10/2019 10:00,11.4,7,,,0,,98,,100,-,,,,432,,,11.1,
Dunstaffnage,06/10/2019 11:00,12.7,7,,,0,,94,,90,-,,,,916,,,11.8,
Dunstaffnage,06/10/2019 12:00,13.8,6,,,0,1,82,,100,-,,,,1225,,,10.9,
Dunstaffnage,06/10/2019 13:00,13.6,12,,,0,,75,,90,-,,,,809,,,9.3,
Dunstaffnage,06/10/2019 14:00,13.4,10,,,0,,73,,100,-,,,,722,,,8.8,
Dunstaffnage,06/10/2019 15:00,13.3,8,,,0,,74,,110,-,,,,592,,,8.9,
Dunstaffnage,06/10/2019 16:00,12.7,9,,,0,,75,,110,-,,,,305,,,8.5,
Dunstaffnage,06/10/2019 17:00,12.1,15,,,0,,75,,100,-,,,,215,,,8,
Dunstaffnage,06/10/2019 18:00,11.4,13,,14.4,0,0,78,,100,-,,,,76,,,7.8,
Dunstaffnage,06/10/2019 19:00,11,9,,,0,,77,,120,-,,,,0,,,7.3,
Dunstaffnage,06/10/2019 20:00,11.4,7,,,0,,77,,110,-,,,,0,,,7.6,
Dunstaffnage,06/10/2019 21:00,11.4,8,,,0,,79,,90,-,,,,0,,,8,
Dunstaffnage,06/10/2019 22:00,11.7,8,,,0,,79,,110,-,,,,0,,,8.2,
Dunstaffnage,06/10/2019 23:00,12,14,,,0,,79,,110,-,,,,0,,,8.5,
Dunstaffnage,07/10/2019 00:00,12,8,,,0,0,80,,140,-,,,,,,,8.7,
Dunstaffnage,07/10/2019 01:00,12.1,7,,,0,,79,,120,-,,,,0,,,8.7,
Dunstaffnage,07/10/2019 02:00,12.1,9,,,0,,81,,100,-,,,,0,,,9.1,
Dunstaffnage,07/10/2019 03:00,11.8,7,,,0,,85,,150,-,,,,0,,,9.5,
Dunstaffnage,07/10/2019 04:00,11.8,8,,,0.4,,84,,170,-,,,,0,,,9.3,
Dunstaffnage,07/10/2019 05:00,11.8,10,,,0.2,,85,,180,-,,,,0,,,9.4,
Dunstaffnage,07/10/2019 06:00,11.1,13,10.8,,0.2,0.8,88,35,170,-,,,,0,,,9.3,
Dunstaffnage,07/10/2019 07:00,9.9,10,,,0.8,,90,35,150,-,,,,0,,,8.5,
Dunstaffnage,07/10/2019 08:00,10.5,9,,,0.2,,91,,150,-,,,,18,,,9.1,
Dunstaffnage,07/10/2019 09:00,11.5,13,,,0.4,,92,,180,-,,,,112,,,10.4,
Dunstaffnage,07/10/2019 10:00,12.5,10,,,1,,94,,180,-,,,,257,,,11.6,
Dunstaffnage,07/10/2019 11:00,14,14,,,0.2,,87,,190,-,,,,657,,,11.9,
Dunstaffnage,07/10/2019 12:00,14.9,12,,,0,3,76,30,210,-,,,,1181,,,10.9,
Dunstaffnage,07/10/2019 13:00,14.8,12,,,0,,76,,190,-,,,,1228,,,10.8,
Dunstaffnage,07/10/2019 14:00,14.7,18,,,0.2,,74,40,240,-,,,,1167,,,10.2,
Dunstaffnage,07/10/2019 15:00,11.6,20,,,1.4,,82,33,240,-,,,,816,,,8.8,
Dunstaffnage,07/10/2019 16:00,12.1,6,,,1.2,,88,,220,-,,,,266,,,10.3,
Dunstaffnage,07/10/2019 17:00,12.7,14,,,0,,80,,230,-,,,,299,,,9.5,
Dunstaffnage,07/10/2019 18:00,12.1,6,,15.9,0,2,82,,200,-,,,,47,,,9.3,
Dunstaffnage,07/10/2019 19:00,11.4,5,,,1.2,,88,,200,-,,,,0,,,9.6,
Dunstaffnage,07/10/2019 20:00,9.6,17,,,2.6,,90,30,250,-,,,,0,,,8.2,
Dunstaffnage,07/10/2019 21:00,11.6,8,,,2,,89,,230,-,,,,0,,,9.9,
Dunstaffnage,07/10/2019 22:00,12.1,10,,,0,,82,29,200,-,,,,0,,,9.3,
Dunstaffnage,07/10/2019 23:00,11.9,12,,,0,,83,,230,-,,,,0,,,9.2,
Dunstaffnage,08/10/2019 00:00,11.9,10,,,0,6,82,,210,-,,,,,,,9,
Dunstaffnage,08/10/2019 01:00,11.9,13,,,0,,79,,200,-,,,,0,,,8.5,
Dunstaffnage,08/10/2019 02:00,11.7,12,,,0,,82,,200,-,,,,0,,,8.9,
Dunstaffnage,08/10/2019 03:00,11.1,12,,,0.8,,86,,200,-,,,,0,,,9,
Dunstaffnage,08/10/2019 04:00,11,12,,,1.2,,86,29,220,-,,,,0,,,8.8,
Dunstaffnage,08/10/2019 05:00,10.9,8,,,0.2,,84,,220,-,,,,0,,,8.4,
Dunstaffnage,08/10/2019 06:00,9.9,9,9.5,,0.2,2,87,,200,-,,,,0,,,7.9,
Dunstaffnage,08/10/2019 07:00,10.9,12,,,0.2,,82,,240,-,,,,0,,,8,
Dunstaffnage,08/10/2019 08:00,10.3,14,,,0.6,,87,,190,-,,,,66,,,8.4,
Dunstaffnage,08/10/2019 09:00,10.4,10,,,1.8,,89,,210,-,,,,315,,,8.7,
Dunstaffnage,08/10/2019 10:00,11.1,10,,,1,,90,29,200,-,,,,363,,,9.6,
Dunstaffnage,08/10/2019 11:00,10.4,14,,,2,,91,,190,-,,,,698,,,9.1,
Dunstaffnage,08/10/2019 12:00,10.9,17,,,2.8,8,93,36,220,-,,,,198,,,9.9,
Dunstaffnage,08/10/2019 13:00,11.7,20,,,2.2,,91,37,240,-,,,,283,,,10.4,
Dunstaffnage,08/10/2019 14:00,11.5,17,,,1,,90,39,230,-,,,,495,,,10,
Dunstaffnage,08/10/2019 15:00,12.1,16,,,1.2,,86,30,240,-,,,,461,,,10,
Dunstaffnage,08/10/2019 16:00,11.6,12,,,1,,89,32,230,-,,,,279,,,10,
Dunstaffnage,08/10/2019 17:00,11.5,15,,,0.6,,88,31,240,-,,,,229,,,9.6,
Dunstaffnage,08/10/2019 18:00,11,16,,12.3,0.4,7,90,,240,-,,,,27,,,9.5,
Dunstaffnage,08/10/2019 19:00,11.3,16,,,0.6,,89,29,240,-,,,,0,,,9.6,
Dunstaffnage,08/10/2019 20:00,10.9,17,,,1.2,,91,32,240,-,,,,0,,,9.5,
Dunstaffnage,08/10/2019 21:00,11.2,16,,,0.2,,88,32,240,-,,,,0,,,9.4,
Dunstaffnage,08/10/2019 22:00,11.1,16,,,0.4,,87,32,240,-,,,,0,,,9.1,
Dunstaffnage,08/10/2019 23:00,11.1,16,,,0.4,,86,30,250,-,,,,0,,,8.9,
Dunstaffnage,09/10/2019 00:00,11.4,17,,,0,3,82,30,240,-,,,,,,,8.6,
Dunstaffnage,09/10/2019 01:00,10.9,14,,,0,,86,30,240,-,,,,0,,,8.8,
Dunstaffnage,09/10/2019 02:00,10.6,23,,,0.2,,86,33,250,-,,,,0,,,8.5,
Dunstaffnage,09/10/2019 03:00,10.8,16,,,0.4,,86,32,250,-,,,,0,,,8.6,
Dunstaffnage,09/10/2019 04:00,11.2,18,,,0.2,,84,30,250,-,,,,0,,,8.7,
Dunstaffnage,09/10/2019 05:00,10.6,16,,,0.4,,86,31,250,-,,,,0,,,8.5,
Dunstaffnage,09/10/2019 06:00,10.6,15,9.8,,0,1,85,31,240,-,,,,0,,,8.2,
Dunstaffnage,09/10/2019 07:00,10.3,18,,,0.6,,89,,250,-,,,,0,,,8.7,
Dunstaffnage,09/10/2019 08:00,9.8,14,,,0.6,,87,30,240,-,,,,42,,,7.9,
Dunstaffnage,09/10/2019 09:00,10.2,18,,,1.8,,92,,260,-,,,,112,,,9,
Dunstaffnage,09/10/2019 10:00,10.7,21,,,0.4,,84,38,260,-,,,,402,,,8.2,
Dunstaffnage,09/10/2019 11:00,10.4,16,,,0.4,,85,39,240,-,,,,427,,,8.1,
Dunstaffnage,09/10/2019 12:00,9.7,15,,,1.2,5,87,37,240,-,,,,196,,,7.8,
Dunstaffnage,09/10/2019 13:00,10.8,18,,,0.2,,86,31,240,-,,,,366,,,8.7,
Dunstaffnage,09/10/2019 14:00,10.7,15,,,0.6,,88,40,250,-,,,,620,,,8.8,
Dunstaffnage,09/10/2019 15:00,10.1,17,,,2.2,,89,,260,-,,,,250,,,8.4,
Dunstaffnage,09/10/2019 16:00,10.7,22,,,0,,83,32,250,-,,,,290,,,8.1,
Dunstaffnage,09/10/2019 17:00,10.6,17,,,0.4,,85,29,250,-,,,,125,,,8.3,
Dunstaffnage,09/10/2019 18:00,11.3,21,,11.6,0,3,78,31,250,-,,,,24,,,7.7,
Dunstaffnage,09/10/2019 19:00,10.6,14,,,0,,88,33,240,-,,,,0,,,8.7,
Dunstaffnage,09/10/2019 20:00,10.3,20,,,2,,92,30,250,-,,,,0,,,9.2,
Dunstaffnage,09/10/2019 21:00,10.8,13,,,0,,90,29,240,-,,,,0,,,9.3,
Dunstaffnage,09/10/2019 22:00,10.9,17,,,0.4,,92,30,250,-,,,,0,,,9.7,
Dunstaffnage,09/10/2019 23:00,11,17,,,0.4,,92,30,250,-,,,,0,,,9.9,
Dunstaffnage,10/10/2019 00:00,11.2,18,,,0.8,4,91,,250,-,,,,,,,9.8,
Dunstaffnage,10/10/2019 01:00,10.9,14,,,2,,92,,250,-,,,,0,,,9.7,
Dunstaffnage,10/10/2019 02:00,11,21,,,0.6,,92,29,260,-,,,,0,,,9.8,
Dunstaffnage,10/10/2019 03:00,11.1,16,,,0.8,,90,,260,-,,,,0,,,9.6,
Dunstaffnage,10/10/2019 04:00,11.1,17,,,0.2,,90,,270,-,,,,0,,,9.6,
Dunstaffnage,10/10/2019 05:00,10.5,16,,,0,,89,,270,-,,,,0,,,8.9,
Dunstaffnage,10/10/2019 06:00,10.5,12,10.2,,0.2,3,89,,250,-,,,,0,,,8.8,
Dunstaffnage,10/10/2019 07:00,10,9,,,1.2,,92,,240,-,,,,0,,,8.9,
Dunstaffnage,10/10/2019 08:00,10.3,7,,,0,,92,,230,-,,,,88,,,9.2,
Dunstaffnage,10/10/2019 09:00,11.1,8,,,0,,91,,230,-,,,,404,,,9.7,
Dunstaffnage,10/10/2019 10:00,11,13,,,0.8,,93,,240,-,,,,352,,,10,
Dunstaffnage,10/10/2019 11:00,11.9,9,,,0,,81,,230,-,,,,806,,,8.9,
Dunstaffnage,10/10/2019 12:00,11.7,5,,,0,2,82,,220,-,,,,329,,,8.8,
Dunstaffnage,10/10/2019 13:00,10.8,9,,,0.6,,91,,180,-,,,,281,,,9.5,
Dunstaffnage,10/10/2019 14:00,10.1,9,,,0.8,,92,,180,-,,,,243,,,8.9,
Dunstaffnage,10/10/2019 15:00,9.6,6,,,1.4,,93,,90,-,,,,148,,,8.6,
Dunstaffnage,10/10/2019 16:00,9.7,6,,,2.2,,95,,60,-,,,,97,,,9,
Dunstaffnage,10/10/2019 17:00,12.1,10,,,2.2,,96,,230,-,,,,55,,,11.5,
Dunstaffnage,10/10/2019 18:00,12.1,14,,12.9,0.8,8,91,,230,-,,,,28,,,10.7,
Dunstaffnage,10/10/2019 19:00,11.6,7,,,3.6,,94,,200,-,,,,0,,,10.8,
Dunstaffnage,10/10/2019 20:00,11.8,9,,,1.4,,92,,210,-,,,,0,,,10.6,
Dunstaffnage,10/10/2019 21:00,11.7,16,,,4.4,,89,32,240,-,,,,0,,,10.1,
Dunstaffnage,10/10/2019 22:00,12,8,,,0,,88,,230,-,,,,0,,,10.1,
Dunstaffnage,10/10/2019 23:00,11.9,14,,,1.4,,88,,240,-,,,,0,,,10.1,
Dunstaffnage,11/10/2019 00:00,10.7,17,,,0.4,11,86,37,230,-,,,,,,,8.6,
Dunstaffnage,11/10/2019 01:00,11.5,17,,,0.6,,85,32,240,-,,,,0,,,9.2,
Dunstaffnage,11/10/2019 02:00,10.8,10,,,2.4,,91,29,200,-,,,,0,,,9.4,
Dunstaffnage,11/10/2019 03:00,10.8,13,,,1.6,,89,29,210,-,,,,0,,,9.2,
Dunstaffnage,11/10/2019 04:00,10.8,8,,,0.8,,91,,210,-,,,,0,,,9.4,
Dunstaffnage,11/10/2019 05:00,11.4,17,,,3.6,,86,30,240,-,,,,1,,,9.2,
Dunstaffnage,11/10/2019 06:00,11.5,21,10.2,,1,10,84,39,240,-,,,,0,,,9,
Dunstaffnage,11/10/2019 07:00,11.6,18,,,0.2,,82,37,240,-,,,,2,,,8.7,
Dunstaffnage,11/10/2019 08:00,11,20,,,0,,81,37,240,-,,,,53,,,7.9,
Dunstaffnage,11/10/2019 09:00,11.9,18,,,0.4,,80,35,240,-,,,,267,,,8.6,
Dunstaffnage,11/10/2019 10:00,10.7,16,,,2,,87,37,230,-,,,,286,,,8.7,
Dunstaffnage,11/10/2019 11:00,10.1,22,,,2.6,,88,44,260,-,,,,385,,,8.3,
Dunstaffnage,11/10/2019 12:00,12,22,,,2.2,7,82,43,250,-,,,,802,,,9.2,
Dunstaffnage,11/10/2019 13:00,12.6,21,,,0.2,,79,39,240,-,,,,1053,,,9.2,
Dunstaffnage,11/10/2019 14:00,12.8,21,,,0,,74,40,240,-,,,,1104,,,8.4,
Dunstaffnage,11/10/2019 15:00,12.6,21,,,0.2,,76,39,240,-,,,,910,,,8.6,
Dunstaffnage,11/10/2019 16:00,12.3,17,,,0,,75,35,240,-,,,,679,,,8.1,
Dunstaffnage,11/10/2019 17:00,10,16,,,0.6,,88,35,230,-,,,,144,,,8.2,
Dunstaffnage,11/10/2019 18:00,10.5,17,,13.2,1,2,90,32,230,-,,,,27,,,9,
Dunstaffnage,11/10/2019 19:00,10.1,14,,,0.2,,94,35,260,-,,,,0,,,9.2,
Dunstaffnage,11/10/2019 20:00,9.9,17,,,0,,91,30,270,-,,,,0,,,8.6,
Dunstaffnage,11/10/2019 21:00,10.1,17,,,0,,86,,270,-,,,,0,,,7.9,
Dunstaffnage,11/10/2019 22:00,10,13,,,0,,83,,270,-,,,,0,,,7.3,
Dunstaffnage,11/10/2019 23:00,10.3,12,,,0,,76,,260,-,,,,0,,,6.4,
Dunstaffnage,12/10/2019 00:00,9.6,9,,,0,0.2,79,,260,-,,,,,,,6.3,
Dunstaffnage,12/10/2019 01:00,8.3,3,,,0,,82,,220,-,,,,0,,,5.5,
Dunstaffnage,12/10/2019 02:00,8.2,5,,,0,,87,,210,-,,,,0,,,6.2,
Dunstaffnage,12/10/2019 03:00,8.9,7,,,0,,85,,230,-,,,,0,,,6.6,
Dunstaffnage,12/10/2019 04:00,9.7,10,,,0,,76,,250,-,,,,0,,,5.7,
Dunstaffnage,12/10/2019 05:00,8.6,7,,,0,,77,,220,-,,,,0,,,4.9,
Dunstaffnage,12/10/2019 06:00,9.1,5,7.1,,0,0,81,,230,-,,,,0,,,6.1,
Dunstaffnage,12/10/2019 07:00,9.7,8,,,0,,82,,230,-,,,,0,,,6.9,
Dunstaffnage,12/10/2019 08:00,9.8,6,,,0,,87,,200,-,,,,69,,,7.8,
Dunstaffnage,12/10/2019 09:00,10.2,5,,,0,,86,,190,-,,,,216,,,8,
Dunstaffnage,12/10/2019 10:00,9.1,1,,,1.6,,92,31,200,-,,,,183,,,8,
Dunstaffnage,12/10/2019 11:00,9.7,5,,,0,,93,,180,-,,,,162,,,8.7,
Dunstaffnage,12/10/2019 12:00,10.5,10,,,2.4,4,91,29,250,-,,,,470,,,9.2,
Dunstaffnage,12/10/2019 13:00,11,2,,,0.4,,92,,210,-,,,,453,,,9.9,
Dunstaffnage,12/10/2019 14:00,11,7,,,0,,85,,210,-,,,,1181,,,8.6,
Dunstaffnage,12/10/2019 15:00,11.1,5,,,1,,86,,190,-,,,,696,,,8.9,
Dunstaffnage,12/10/2019 16:00,10.6,6,,,0,,88,,180,-,,,,272,,,8.7,
Dunstaffnage,12/10/2019 17:00,8.8,7,,,1.6,,89,,210,-,,,,72,,,7.2,
Dunstaffnage,12/10/2019 18:00,9.1,8,,13,5.6,9,96,,130,-,,,,52,,,8.5,
Dunstaffnage,12/10/2019 19:00,8.8,3,,,0.4,,95,,190,-,,,,0,,,8.1,
Dunstaffnage,12/10/2019 20:00,8.6,1,,,0.2,,94,,220,-,,,,0,,,7.8,
Dunstaffnage,12/10/2019 21:00,8.7,6,,,3.2,,95,,130,-,,,,0,,,8,
Dunstaffnage,12/10/2019 22:00,8.2,5,,,0.2,,96,,110,-,,,,0,,,7.7,
Dunstaffnage,12/10/2019 23:00,7.8,3,,,0,,96,,120,-,,,,0,,,7.3,
Dunstaffnage,13/10/2019 00:00,7.5,6,,,0,4,95,,100,-,,,,,,,6.9,
Dunstaffnage,13/10/2019 01:00,8,8,,,0,,97,,110,-,,,,0,,,7.6,
Dunstaffnage,13/10/2019 02:00,7.3,6,,,0,,97,,120,-,,,,0,,,6.9,
Dunstaffnage,13/10/2019 03:00,6.4,0,,,0,,96,,0,-,,,,0,,,5.9,
Dunstaffnage,13/10/2019 04:00,6.1,1,,,0,,97,,140,-,,,,0,,,5.8,
Dunstaffnage,13/10/2019 05:00,8,8,,,0,,98,,90,-,,,,0,,,7.8,
Dunstaffnage,13/10/2019 06:00,8,8,5.8,,0,0,97,,100,-,,,,0,,,7.7,
Dunstaffnage,13/10/2019 07:00,8.1,7,,,0,,97,,90,-,,,,0,,,7.7,
Dunstaffnage,13/10/2019 08:00,8.6,7,,,0,,94,,80,-,,,,54,,,7.8,
Dunstaffnage,13/10/2019 09:00,8.7,7,,,0,,92,,90,-,,,,274,,,7.6,
Dunstaffnage,13/10/2019 10:00,9.4,5,,,0,,90,,80,-,,,,403,,,7.9,
Dunstaffnage,13/10/2019 11:00,10.1,5,,,0,,88,,80,-,,,,395,,,8.3,
Dunstaffnage,13/10/2019 12:00,10.7,2,,,0,0,83,,50,-,,,,583,,,8.1,
Dunstaffnage,13/10/2019 13:00,11.5,0,,,0,,85,,0,-,,,,531,,,9.1,
Dunstaffnage,13/10/2019 14:00,12,2,,,0,,81,,90,-,,,,437,,,8.9,
Dunstaffnage,13/10/2019 15:00,12,1,,,0,,79,,330,-,,,,376,,,8.6,
Dunstaffnage,13/10/2019 16:00,11.3,2,,,0,,87,,170,-,,,,229,,,9.3,
Dunstaffnage,13/10/2019 17:00,10.5,3,,,0,,89,,170,-,,,,79,,,8.8,
Dunstaffnage,13/10/2019 18:00,10.1,6,,12.1,0.4,0.4,91,,160,-,,,,3,,,8.7,
Dunstaffnage,13/10/2019 19:00,9.6,5,,,1,,94,,140,-,,,,0,,,8.7,
Dunstaffnage,13/10/2019 20:00,9,1,,,0,,94,,160,-,,,,0,,,8.2,
Dunstaffnage,13/10/2019 21:00,9,2,,,0,,94,,160,-,,,,0,,,8.2,
Dunstaffnage,13/10/2019 22:00,8.1,1,,,0,,95,,170,-,,,,0,,,7.4,
Dunstaffnage,13/10/2019 23:00,8.2,7,,,0,,95,,130,-,,,,0,,,7.6,
Dunstaffnage,14/10/2019 00:00,8.4,6,,,0,1,96,,150,-,,,,,,,7.9,
Dunstaffnage,14/10/2019 01:00,8.3,7,,,0,,96,,110,-,,,,0,,,7.8,
Dunstaffnage,14/10/2019 02:00,8.3,6,,,0.2,,96,,130,-,,,,0,,,7.8,
Dunstaffnage,14/10/2019 03:00,8.5,8,,,0,,95,,120,-,,,,0,,,7.8,
Dunstaffnage,14/10/2019 04:00,8.7,10,,,0,,94,,110,-,,,,0,,,7.8,
Dunstaffnage,14/10/2019 05:00,8.4,8,,,0,,94,,110,-,,,,0,,,7.5,
Dunstaffnage,14/10/2019 06:00,7.9,9,7.9,,0,0,94,,100,-,,,,0,,,7,
Dunstaffnage,14/10/2019 07:00,7.6,10,,,0,,95,,100,-,,,,0,,,6.9,
Dunstaffnage,14/10/2019 08:00,8.6,9,,,0,,94,,130,-,,,,143,,,7.8,
Dunstaffnage,14/10/2019 09:00,9.2,7,,,0,,90,,100,-,,,,337,,,7.8,
Dunstaffnage,14/10/2019 10:00,12.4,8,,,0,,77,,130,-,,,,821,,,8.5,
Dunstaffnage,14/10/2019 11:00,12.1,8,,,0,,73,,110,-,,,,1113,,,7.5,
Dunstaffnage,14/10/2019 12:00,12,7,,,0,0,73,,120,-,,,,810,,,7.4,
Dunstaffnage,14/10/2019 13:00,12.3,6,,,0,,75,,90,-,,,,510,,,8.1,
Dunstaffnage,14/10/2019 14:00,11.9,6,,,0,,74,,110,-,,,,366,,,7.6,
Dunstaffnage,14/10/2019 15:00,11.5,6,,,0,,78,,110,-,,,,229,,,7.9,
Dunstaffnage,14/10/2019 16:00,11.4,5,,,0,,81,,100,-,,,,252,,,8.3,
Dunstaffnage,14/10/2019 17:00,11.1,1,,,0,,84,,110,-,,,,116,,,8.6,
Dunstaffnage,14/10/2019 18:00,10.1,1,,13.5,0,0,86,,140,-,,,,8,,,8,
Dunstaffnage,14/10/2019 19:00,9.9,1,,,0,,88,,100,-,,,,0,,,8.1,
Dunstaffnage,14/10/2019 20:00,11.1,7,,,0,,78,,80,-,,,,0,,,7.5,
Dunstaffnage,14/10/2019 21:00,11.1,6,,,0,,77,,90,-,,,,0,,,7.4,
Dunstaffnage,14/10/2019 22:00,10.8,6,,,0,,80,,100,-,,,,0,,,7.5,
Dunstaffnage,14/10/2019 23:00,10.7,7,,,0,,80,,100,-,,,,0,,,7.5,
Dunstaffnage,15/10/2019 00:00,10.7,8,,,0,0,78,,120,-,,,,,,,7.2,
Dunstaffnage,15/10/2019 01:00,10.6,12,,,0,,78,,120,-,,,,0,,,7,
Dunstaffnage,15/10/2019 02:00,10,8,,,0,,79,,100,-,,,,0,,,6.7,
Dunstaffnage,15/10/2019 03:00,9.5,7,,,0,,84,,100,-,,,,0,,,7,
Dunstaffnage,15/10/2019 04:00,8.9,9,,,0,,85,,100,-,,,,0,,,6.6,
Dunstaffnage,15/10/2019 05:00,8.7,8,,,0,,84,,100,-,,,,0,,,6.3,
Dunstaffnage,15/10/2019 06:00,9.4,13,8.7,,0,0,85,,100,-,,,,0,,,7.1,
Dunstaffnage,15/10/2019 07:00,9.4,6,,,0,,83,,140,-,,,,0,,,6.7,
Dunstaffnage,15/10/2019 08:00,10.5,6,,,0,,81,,80,-,,,,40,,,7.4,
Dunstaffnage,15/10/2019 09:00,11.7,12,,,0,,74,,100,-,,,,497,,,7.4,
Dunstaffnage,15/10/2019 10:00,12.7,14,,,0,,69,,100,-,,,,936,,,7.2,
Dunstaffnage,15/10/2019 11:00,13.7,13,,,0,,68,,90,-,,,,1325,,,8,
Dunstaffnage,15/10/2019 12:00,14.9,6,,,0,0,65,,120,-,,,,1428,,,8.5,
Dunstaffnage,15/10/2019 13:00,14.5,12,,,0,,64,,110,-,,,,1147,,,8,
Dunstaffnage,15/10/2019 14:00,15,8,,,0,,63,,110,-,,,,1418,,,8.1,
Dunstaffnage,15/10/2019 15:00,13.5,10,,,0,,62,,110,-,,,,1049,,,6.5,
Dunstaffnage,15/10/2019 16:00,11.8,1,,,0,,73,,160,-,,,,206,,,7.3,
Dunstaffnage,15/10/2019 17:00,11.6,3,,,0,,76,,90,-,,,,54,,,7.7,
Dunstaffnage,15/10/2019 18:00,11.6,2,,15.8,0,0,77,,130,-,,,,8,,,7.8,
Dunstaffnage,15/10/2019 19:00,11.4,9,,,0,,77,,90,-,,,,0,,,7.6,
Dunstaffnage,15/10/2019 20:00,11.5,9,,,0,,78,,100,-,,,,0,,,7.9,
Dunstaffnage,15/10/2019 21:00,11.6,12,,,0,,78,,100,-,,,,0,,,8,
Dunstaffnage,15/10/2019 22:00,11.5,12,,,0,,79,,100,-,,,,0,,,8,
Dunstaffnage,15/10/2019 23:00,11.5,13,,,0,,79,,100,-,,,,0,,,8.1,
Dunstaffnage,16/10/2019 00:00,11.7,13,,,0,0,79,,100,-,,,,,,,8.3,
Dunstaffnage,16/10/2019 01:00,11.7,13,,,0,,80,,100,-,,,,0,,,8.4,
Dunstaffnage,16/10/2019 02:00,11.9,15,,,0,,79,,100,-,,,,0,,,8.5,
Dunstaffnage,16/10/2019 03:00,10.7,14,,,0.4,,90,,100,-,,,,0,,,9.2,
Dunstaffnage,16/10/2019 04:00,10.6,13,,,0.4,,94,,100,-,,,,0,,,9.7,
Dunstaffnage,16/10/2019 05:00,11.4,14,,,0,,89,,100,-,,,,0,,,9.8,
Dunstaffnage,16/10/2019 06:00,10.8,10,10.6,,1.8,3,94,,200,-,,,,0,,,9.9,
Dunstaffnage,16/10/2019 07:00,10.3,5,,,4.2,,95,,210,-,,,,0,,,9.6,
Dunstaffnage,16/10/2019 08:00,9.8,7,,,1.4,,95,,240,-,,,,18,,,9.1,
Dunstaffnage,16/10/2019 09:00,9.7,2,,,0.2,,95,,170,-,,,,106,,,9,
Dunstaffnage,16/10/2019 10:00,10.4,5,,,0,,96,,120,-,,,,313,,,9.8,
Dunstaffnage,16/10/2019 11:00,10.9,3,,,0,,95,,110,-,,,,595,,,10.2,
Dunstaffnage,16/10/2019 12:00,12.1,3,,,0,6,93,,90,-,,,,761,,,11.1,
Dunstaffnage,16/10/2019 13:00,12.5,8,,,0,,86,,240,-,,,,734,,,10.3,
Dunstaffnage,16/10/2019 14:00,12.3,1,,,0.2,,76,,290,-,,,,1121,,,8.3,
Dunstaffnage,16/10/2019 15:00,12.5,9,,,0,,77,,230,-,,,,712,,,8.7,
Dunstaffnage,16/10/2019 16:00,12.1,7,,,0,,70,,240,-,,,,672,,,7,
Dunstaffnage,16/10/2019 17:00,10.9,3,,,0.2,,76,,210,-,,,,232,,,7,
Dunstaffnage,16/10/2019 18:00,9.8,2,,14.5,0,0,86,,180,-,,,,11,,,7.7,
Dunstaffnage,16/10/2019 19:00,9.2,7,,,0,,89,,150,-,,,,0,,,7.5,
Dunstaffnage,16/10/2019 20:00,8.8,9,,,0,,90,,130,-,,,,0,,,7.3,
Dunstaffnage,16/10/2019 21:00,8.4,10,,,0,,91,,120,-,,,,0,,,7.1,
Dunstaffnage,16/10/2019 22:00,8,9,,,0,,90,,120,-,,,,0,,,6.6,
Dunstaffnage,16/10/2019 23:00,7.8,9,,,0,,91,,110,-,,,,0,,,6.5,
Dunstaffnage,17/10/2019 00:00,6.9,7,,,0,0,92,,110,-,,,,,,,5.7,
Dunstaffnage,17/10/2019 01:00,6.9,8,,,0,,92,,110,-,,,,0,,,5.8,
Dunstaffnage,17/10/2019 02:00,8,12,,,0,,87,,100,-,,,,0,,,6.1,
Dunstaffnage,17/10/2019 03:00,8,8,,,0,,86,,110,-,,,,0,,,5.9,
Dunstaffnage,17/10/2019 04:00,8.4,7,,,0,,86,,110,-,,,,0,,,6.3,
Dunstaffnage,17/10/2019 05:00,8.1,5,,,0.2,,85,,130,-,,,,0,,,5.9,
Dunstaffnage,17/10/2019 06:00,7.9,6,6.8,,0,0.2,87,,110,-,,,,0,,,5.9,
Dunstaffnage,17/10/2019 07:00,8.3,9,,,0,,87,,120,-,,,,0,,,6.4,
Dunstaffnage,17/10/2019 08:00,9,10,,,0,,84,,100,-,,,,87,,,6.6,
Dunstaffnage,17/10/2019 09:00,10.2,12,,,0,,82,,90,-,,,,402,,,7.4,
Dunstaffnage,17/10/2019 10:00,10.8,13,,,0,,79,,90,-,,,,717,,,7.4,
Dunstaffnage,17/10/2019 11:00,12.6,13,,,0,,75,,100,-,,,,913,,,8.3,
Dunstaffnage,17/10/2019 12:00,12,14,,,0,0,75,,100,-,,,,813,,,7.9,
Dunstaffnage,17/10/2019 13:00,12.1,12,,,0,,79,,90,-,,,,669,,,8.7,
Dunstaffnage,17/10/2019 14:00,13.6,12,,,0,,74,,110,-,,,,845,,,9.1,
Dunstaffnage,17/10/2019 15:00,12,12,,,0,,75,,100,-,,,,644,,,7.9,
Dunstaffnage,17/10/2019 16:00,10.9,10,,,0,,82,,100,-,,,,279,,,8,
Dunstaffnage,17/10/2019 17:00,10.3,8,,,0,,82,,90,-,,,,118,,,7.4,
Dunstaffnage,17/10/2019 18:00,10.6,10,,13.6,0,0,82,,100,-,,,,7,,,7.7,
Dunstaffnage,17/10/2019 19:00,10.3,12,,,0,,81,,100,-,,,,0,,,7.2,
Dunstaffnage,17/10/2019 20:00,10.4,12,,,0,,82,,90,-,,,,0,,,7.5,
Dunstaffnage,17/10/2019 21:00,10.7,10,,,0,,82,,90,-,,,,0,,,7.8,
Dunstaffnage,17/10/2019 22:00,10.7,8,,,0,,82,,90,-,,,,0,,,7.8,
Dunstaffnage,17/10/2019 23:00,10.4,6,,,0,,82,,70,-,,,,0,,,7.5,
Dunstaffnage,18/10/2019 00:00,9,8,,,0,0,84,,90,-,,,,,,,6.5,
Dunstaffnage,18/10/2019 01:00,8.7,7,,,0.2,,87,,70,-,,,,0,,,6.7,
Dunstaffnage,18/10/2019 02:00,8.7,7,,,0,,83,,120,-,,,,0,,,6,
Dunstaffnage,18/10/2019 03:00,8.7,8,,,0,,84,,100,-,,,,0,,,6.2,
Dunstaffnage,18/10/2019 04:00,8.7,5,,,0,,86,,100,-,,,,0,,,6.6,
Dunstaffnage,18/10/2019 05:00,8.7,6,,,0,,84,,150,-,,,,0,,,6.3,
Dunstaffnage,18/10/2019 06:00,8.3,6,8.3,,0,0.2,85,,120,-,,,,0,,,6,
Dunstaffnage,18/10/2019 07:00,8.3,7,,,0,,89,,100,-,,,,0,,,6.6,
Dunstaffnage,18/10/2019 08:00,8.7,5,,,0,,86,,130,-,,,,36,,,6.6,
Dunstaffnage,18/10/2019 09:00,9.1,7,,,0,,86,,100,-,,,,205,,,6.9,
Dunstaffnage,18/10/2019 10:00,10.1,5,,,0,,83,,70,-,,,,289,,,7.4,
Dunstaffnage,18/10/2019 11:00,10.8,3,,,0,,78,,40,-,,,,359,,,7.3,
Dunstaffnage,18/10/2019 12:00,11.9,3,,,0,0,75,,30,-,,,,763,,,7.8,
Dunstaffnage,18/10/2019 13:00,12.6,0,,,0,,73,,0,-,,,,739,,,8,
Dunstaffnage,18/10/2019 14:00,13.1,1,,,0,,70,,80,-,,,,580,,,7.8,
Dunstaffnage,18/10/2019 15:00,12.9,5,,,0,,69,,20,-,,,,717,,,7.5,
Dunstaffnage,18/10/2019 16:00,12.7,7,,,0,,65,,30,-,,,,607,,,6.5,
Dunstaffnage,18/10/2019 17:00,11.7,7,,,0,,70,,20,-,,,,299,,,6.6,
Dunstaffnage,18/10/2019 18:00,11.4,7,,13.4,0,0,74,,20,-,,,,19,,,7.1,
Dunstaffnage,18/10/2019 19:00,11.2,5,,,0,,75,,360,-,,,,0,,,7,
Dunstaffnage,18/10/2019 20:00,10.1,6,,,0.2,,86,,20,-,,,,0,,,8,
Dunstaffnage,18/10/2019 21:00,9.5,6,,,0.8,,91,,20,-,,,,0,,,8.2,
Dunstaffnage,18/10/2019 22:00,9.6,3,,,0,,85,,330,-,,,,0,,,7.3,
Dunstaffnage,18/10/2019 23:00,9.5,3,,,0,,87,,40,-,,,,0,,,7.6,
Dunstaffnage,19/10/2019 00:00,9.2,2,,,0,1,88,,160,-,,,,,,,7.4,
Dunstaffnage,19/10/2019 01:00,8.8,2,,,0.2,,90,,170,-,,,,0,,,7.3,
Dunstaffnage,19/10/2019 02:00,8.8,5,,,0,,92,,80,-,,,,0,,,7.7,
Dunstaffnage,19/10/2019 03:00,10.2,8,,,0,,85,,360,-,,,,0,,,7.8,
Dunstaffnage,19/10/2019 04:00,10.4,10,,,0,,86,,20,-,,,,0,,,8.2,
Dunstaffnage,19/10/2019 05:00,10.5,10,,,0,,86,,20,-,,,,0,,,8.3,
Dunstaffnage,19/10/2019 06:00,10.6,13,8.3,,0,0,78,,20,-,,,,0,,,7.1,
Dunstaffnage,19/10/2019 07:00,10.6,14,,,0,,77,,30,-,,,,0,,,6.8,
Dunstaffnage,19/10/2019 08:00,10,10,,,0,,75,,10,-,,,,36,,,5.8,
Dunstaffnage,19/10/2019 09:00,10,15,,,0,,76,,30,-,,,,195,,,6,
Dunstaffnage,19/10/2019 10:00,10,12,,,0,,74,,20,-,,,,343,,,5.7,
Dunstaffnage,19/10/2019 11:00,10.5,10,,,0,,74,,20,-,,,,865,,,6.2,
Dunstaffnage,19/10/2019 12:00,12.1,7,,,0,0,67,,360,-,,,,1195,,,6.3,
Dunstaffnage,19/10/2019 13:00,12.3,10,,,0,,67,,30,-,,,,1485,,,6.5,
Dunstaffnage,19/10/2019 14:00,12.5,7,,,0,,64,,30,-,,,,799,,,6,
Dunstaffnage,19/10/2019 15:00,12.3,7,,,0,,64,,30,-,,,,512,,,5.7,
Dunstaffnage,19/10/2019 16:00,11.3,9,,,0,,74,,40,-,,,,164,,,6.9,
Dunstaffnage,19/10/2019 17:00,10.7,8,,,0,,76,,30,-,,,,99,,,6.8,
Dunstaffnage,19/10/2019 18:00,10.4,10,,12.7,0,0,76,,20,-,,,,7,,,6.5,
Dunstaffnage,19/10/2019 19:00,10.2,5,,,0,,77,,10,-,,,,0,,,6.4,
Dunstaffnage,19/10/2019 20:00,9.9,6,,,0,,77,,10,-,,,,0,,,6.2,
Dunstaffnage,19/10/2019 21:00,9.8,8,,,0,,80,,20,-,,,,0,,,6.6,
Dunstaffnage,19/10/2019 22:00,9.9,10,,,0,,77,,30,-,,,,0,,,6.2,
Dunstaffnage,19/10/2019 23:00,9.6,14,,,0,,69,,30,-,,,,0,,,4.3,
Dunstaffnage,20/10/2019 00:00,9.5,10,,,0,0,68,,20,-,,,,,,,4.1,
Dunstaffnage,20/10/2019 01:00,9.1,14,,,0,,70,,30,-,,,,0,,,4.1,
Dunstaffnage,20/10/2019 02:00,8.8,13,,,0,,70,,30,-,,,,0,,,3.8,
Dunstaffnage,20/10/2019 03:00,8.3,12,,,0,,73,,30,-,,,,0,,,3.9,
Dunstaffnage,20/10/2019 04:00,8,8,,,0,,74,,30,-,,,,0,,,3.8,
Dunstaffnage,20/10/2019 05:00,7.2,5,,,0,,75,,30,-,,,,0,,,3.2,
Dunstaffnage,20/10/2019 06:00,7.5,3,6.8,,0,0,74,,40,-,,,,0,,,3.3,
Dunstaffnage,20/10/2019 07:00,7.3,5,,,0,,71,,340,-,,,,0,,,2.4,
Dunstaffnage,20/10/2019 08:00,7.9,7,,,0,,73,,30,-,,,,58,,,3.4,
Dunstaffnage,20/10/2019 09:00,8.9,6,,,0,,71,,30,-,,,,339,,,4,
Dunstaffnage,20/10/2019 10:00,9.7,8,,,0,,67,,10,-,,,,925,,,3.9,
Dunstaffnage,20/10/2019 11:00,10.1,10,,,0,,62,,10,-,,,,1358,,,3.3,
Dunstaffnage,20/10/2019 12:00,10.5,14,,,0,0,62,,30,-,,,,1405,,,3.7,
Dunstaffnage,20/10/2019 13:00,10.5,17,,,0,,57,,30,-,,,,1494,,,2.4,
Dunstaffnage,20/10/2019 14:00,10.7,17,,,0,,56,,30,-,,,,1325,,,2.3,
Dunstaffnage,20/10/2019 15:00,10.6,10,,,0,,60,,20,-,,,,1063,,,3.3,
Dunstaffnage,20/10/2019 16:00,10.1,12,,,0,,59,,30,-,,,,669,,,2.6,
Dunstaffnage,20/10/2019 17:00,9.4,10,,,0,,63,,20,-,,,,227,,,2.9,
Dunstaffnage,20/10/2019 18:00,8.6,8,,10.9,0,0,62,,20,-,,,,4,,,1.9,
Dunstaffnage,20/10/2019 19:00,6.7,5,,,0,,72,,90,-,,,,0,,,2.1,
Dunstaffnage,20/10/2019 20:00,3.7,2,,,0,,84,,190,-,,,,0,,,1.3,
Dunstaffnage,20/10/2019 21:00,2.2,2,,,0,,90,,210,-,,,,0,,,0.8,
Dunstaffnage,20/10/2019 22:00,1.4,2,,,0,,93,,180,-,,,,0,,,0.5,
Dunstaffnage,20/10/2019 23:00,2.2,1,,,0,,95,,30,-,,,,0,,,1.5,
Dunstaffnage,21/10/2019 00:00,1.5,1,,,0,0,95,,20,-,,,,,,,0.8,
Dunstaffnage,21/10/2019 01:00,1.1,1,,,0,,96,,220,-,,,,0,,,0.6,
Dunstaffnage,21/10/2019 02:00,1.2,1,,,0,,96,,80,-,,,,0,,,0.7,
Dunstaffnage,21/10/2019 03:00,2.7,6,,,0,,94,,80,-,,,,0,,,1.9,
Dunstaffnage,21/10/2019 04:00,2.6,7,,,0,,93,,80,-,,,,0,,,1.7,
Dunstaffnage,21/10/2019 05:00,2.2,6,,,0,,93,,90,-,,,,0,,,1.3,
Dunstaffnage,21/10/2019 06:00,2.1,7,0.6,,0,0,91,,80,-,,,,0,,,0.8,
Dunstaffnage,21/10/2019 07:00,1.7,3,,,0,,92,,90,-,,,,0,,,0.6,
Dunstaffnage,21/10/2019 08:00,2.1,6,,,0,,92,,70,-,,,,62,,,1,
Dunstaffnage,21/10/2019 09:00,3.5,6,,,0,,88,,80,-,,,,357,,,1.8,
Dunstaffnage,21/10/2019 10:00,5,9,,,0,,86,,70,-,,,,706,,,3,
Dunstaffnage,21/10/2019 11:00,6.5,5,,,0,,82,,40,-,,,,417,,,3.8,
Dunstaffnage,21/10/2019 14:00,8.2,2,,,-0.2,,80,,80,-,,,,,,,5,
Dunstaffnage,21/10/2019 15:00,8.8,3,,,0,,79,,80,-,,,,,,,5.4,
Dunstaffnage,21/10/2019 16:00,9.5,6,,,0,,69,,230,-,,,,,,,4.2,
Dunstaffnage,21/10/2019 17:00,9.7,12,,,0,,69,,260,-,,,,50,,,4.4,
Dunstaffnage,21/10/2019 18:00,9.6,12,,,0,,74,,250,-,,,,3,,,5.3,
Dunstaffnage,21/10/2019 19:00,9.9,9,,,0,,74,,240,-,,,,0,,,5.5,
Dunstaffnage,21/10/2019 20:00,10.2,10,,,0,,74,,240,-,,,,0,,,5.9,
Dunstaffnage,21/10/2019 21:00,10.5,10,,,0,,73,,240,-,,,,0,,,6,
Dunstaffnage,21/10/2019 22:00,9.9,8,,,0,,78,,190,-,,,,0,,,6.3,
Dunstaffnage,21/10/2019 23:00,9.5,7,,,0,,82,,190,-,,,,0,,,6.7,
Dunstaffnage,22/10/2019 00:00,9.1,8,,,0,0,87,,190,-,,,,,,,7.2,
Dunstaffnage,22/10/2019 01:00,9.3,10,,,1,,94,,230,-,,,,0,,,8.5,
Dunstaffnage,22/10/2019 02:00,9.6,8,,,1.8,,95,,230,-,,,,0,,,8.9,
Dunstaffnage,22/10/2019 03:00,9.7,7,,,1,,96,,220,-,,,,0,,,9.1,
Dunstaffnage,22/10/2019 04:00,9.9,10,,,0.2,,94,,230,-,,,,0,,,9,
Dunstaffnage,22/10/2019 05:00,10,10,,,1.2,,96,,230,-,,,,0,,,9.4,
Dunstaffnage,22/10/2019 06:00,10,8,8.8,,0.4,6,95,,210,-,,,,0,,,9.3,
Dunstaffnage,22/10/2019 07:00,10.1,8,,,0.8,,95,,220,-,,,,0,,,9.4,
Dunstaffnage,22/10/2019 08:00,10.1,8,,,0.4,,94,,210,-,,,,10,,,9.3,
Dunstaffnage,22/10/2019 09:00,10.1,8,,,0,,94,,220,-,,,,86,,,9.2,
Dunstaffnage,22/10/2019 10:00,9.9,9,,,0.2,,94,,200,-,,,,151,,,9.1,
Dunstaffnage,22/10/2019 11:00,10.3,8,,,0.2,,96,,210,-,,,,281,,,9.7,
Dunstaffnage,22/10/2019 12:00,10.9,10,,,0,2,91,,200,-,,,,391,,,9.6,
Dunstaffnage,22/10/2019 13:00,11.3,9,,,0.2,,89,,210,-,,,,421,,,9.7,
Dunstaffnage,22/10/2019 14:00,10.9,9,,,0,,91,,210,-,,,,409,,,9.6,
Dunstaffnage,22/10/2019 15:00,10.6,7,,,0.4,,92,,200,-,,,,193,,,9.5,
Dunstaffnage,22/10/2019 16:00,10.4,7,,,0.2,,94,,190,-,,,,115,,,9.5,
Dunstaffnage,22/10/2019 17:00,10.8,8,,,0.2,,88,,190,-,,,,50,,,9,
Dunstaffnage,22/10/2019 18:00,10.9,9,,11.3,0,1,86,,190,-,,,,0,,,8.8,
Dunstaffnage,22/10/2019 19:00,10.9,9,,,0,,86,,170,-,,,,0,,,8.7,
Dunstaffnage,22/10/2019 20:00,10.8,8,,,0,,86,,170,-,,,,0,,,8.6,
Dunstaffnage,22/10/2019 21:00,10.9,10,,,0,,86,,170,-,,,,0,,,8.8,
Dunstaffnage,22/10/2019 22:00,11.2,9,,,0,,84,,190,-,,,,0,,,8.7,
Dunstaffnage,22/10/2019 23:00,11.1,7,,,0,,85,,180,-,,,,0,,,8.8,
Dunstaffnage,23/10/2019 00:00,11.1,12,,,0,0,85,,170,-,,,,,,,8.7,
Dunstaffnage,23/10/2019 01:00,11,12,,,0,,84,,170,-,,,,0,,,8.5,
Dunstaffnage,23/10/2019 02:00,10.3,9,,,0,,88,,190,-,,,,0,,,8.5,
Dunstaffnage,23/10/2019 03:00,9.8,7,,,0.6,,94,,160,-,,,,0,,,9,
Dunstaffnage,23/10/2019 04:00,9.6,8,,,0.4,,95,,170,-,,,,0,,,8.9,
Dunstaffnage,23/10/2019 05:00,10,8,,,0,,94,,160,-,,,,0,,,9.1,
Dunstaffnage,23/10/2019 06:00,10.1,12,9.6,,0,1,89,,170,-,,,,0,,,8.4,
Dunstaffnage,23/10/2019 07:00,10.5,13,,,0.2,,85,,170,-,,,,0,,,8.1,
Dunstaffnage,23/10/2019 08:00,10.8,13,,,0,,83,,170,-,,,,23,,,8.1,
Dunstaffnage,23/10/2019 09:00,11.2,12,,,0,,81,,170,-,,,,143,,,8.2,
Dunstaffnage,23/10/2019 10:00,11.8,10,,,0,,80,,170,-,,,,226,,,8.5,
Dunstaffnage,23/10/2019 11:00,12.1,12,,,0,,79,,170,-,,,,138,,,8.6,
Dunstaffnage,23/10/2019 12:00,12.6,8,,,0,0.2,77,,180,-,,,,400,,,8.8,
Dunstaffnage,23/10/2019 13:00,12.8,9,,,0,,76,,170,-,,,,347,,,8.7,
Dunstaffnage,23/10/2019 14:00,12.6,12,,,0,,74,,170,-,,,,208,,,8.2,
Dunstaffnage,23/10/2019 15:00,11,10,,,0.6,,89,,180,-,,,,130,,,9.3,
Dunstaffnage,23/10/2019 16:00,10.9,13,,,1,,91,,170,-,,,,95,,,9.6,
Dunstaffnage,23/10/2019 17:00,11.3,15,,,1.6,,90,30,170,-,,,,22,,,9.8,
Dunstaffnage,23/10/2019 18:00,11,14,,12.9,1.8,4.8,92,,170,-,,,,0,,,9.8,
Dunstaffnage,23/10/2019 19:00,11,16,,,2,,91,31,170,-,,,,0,,,9.7,
Dunstaffnage,23/10/2019 20:00,11,15,,,0.6,,92,31,180,-,,,,0,,,9.8,
Dunstaffnage,23/10/2019 21:00,11,13,,,0.6,,92,,180,-,,,,0,,,9.9,
Dunstaffnage,23/10/2019 22:00,11.2,9,,,0,,93,,190,-,,,,0,,,10.2,
Dunstaffnage,23/10/2019 23:00,11.5,9,,,0,,90,,200,-,,,,0,,,10,
Dunstaffnage,24/10/2019 00:00,11.6,9,,,0,3,89,,180,-,,,,,,,9.9,
Dunstaffnage,24/10/2019 01:00,11.7,10,,,0,,85,,190,-,,,,0,,,9.4,
Dunstaffnage,24/10/2019 02:00,11,8,,,0,,86,,190,-,,,,0,,,8.8,
Dunstaffnage,24/10/2019 03:00,10.7,8,,,0,,86,,190,-,,,,0,,,8.6,
Dunstaffnage,24/10/2019 04:00,10.5,7,,,0,,85,,180,-,,,,0,,,8.1,
Dunstaffnage,24/10/2019 05:00,10.5,8,,,0,,84,,170,-,,,,0,,,8,
Dunstaffnage,24/10/2019 06:00,10.6,8,10.2,,0,0,85,,170,-,,,,0,,,8.2,
Dunstaffnage,24/10/2019 07:00,10.2,10,,,0.2,,89,,160,-,,,,0,,,8.6,
Dunstaffnage,24/10/2019 08:00,9.9,10,,,0,,88,,170,-,,,,15,,,8.1,
Dunstaffnage,24/10/2019 09:00,10.1,12,,,0.2,,89,,190,-,,,,196,,,8.5,
Dunstaffnage,24/10/2019 10:00,10.1,13,,,0.4,,91,,230,-,,,,481,,,8.7,
Dunstaffnage,24/10/2019 11:00,10.2,16,,,0,,79,,270,-,,,,494,,,6.8,
Dunstaffnage,24/10/2019 12:00,9.9,17,,,0,0.8,79,,280,-,,,,495,,,6.5,
Dunstaffnage,24/10/2019 13:00,9.9,15,,,0,,70,,280,-,,,,605,,,4.8,
Dunstaffnage,24/10/2019 14:00,9.9,14,,,0,,65,,300,-,,,,678,,,3.8,
Dunstaffnage,24/10/2019 15:00,9.1,10,,,0,,67,,300,-,,,,700,,,3.4,
Dunstaffnage,24/10/2019 16:00,8.8,14,,,0,,70,,300,-,,,,304,,,3.8,
Dunstaffnage,24/10/2019 17:00,7.3,9,,,0.2,,77,,280,-,,,,79,,,3.7,
Dunstaffnage,24/10/2019 18:00,6.6,2,,11,0,0.2,79,,230,-,,,,0,,,3.4,
Dunstaffnage,24/10/2019 19:00,6.9,13,,,0,,76,,300,-,,,,0,,,3.1,
Dunstaffnage,24/10/2019 20:00,6,9,,,0,,84,,290,-,,,,0,,,3.6,
Dunstaffnage,24/10/2019 21:00,6.5,9,,,0,,84,,260,-,,,,0,,,4.1,
Dunstaffnage,24/10/2019 22:00,6.2,13,,,0,,67,,270,-,,,,0,,,0.6,
Dunstaffnage,24/10/2019 23:00,5.7,12,,,0,,58,,250,-,,,,0,,,-1.8,
Dunstaffnage,25/10/2019 00:00,6.1,13,,,0,0,59,,260,-,,,,,,,-1.2,
Dunstaffnage,25/10/2019 01:00,3.6,6,,,0,,77,,210,-,,,,0,,,0.1,
Dunstaffnage,25/10/2019 02:00,6.2,15,,,0,,67,,260,-,,,,0,,,0.7,
Dunstaffnage,25/10/2019 03:00,5.4,13,,,0,,85,31,270,-,,,,0,,,3.2,
Dunstaffnage,25/10/2019 04:00,5.1,13,,,0.4,,87,,240,-,,,,0,,,3.2,
Dunstaffnage,25/10/2019 05:00,6.2,20,,,0.2,,85,31,240,-,,,,0,,,3.9,
Dunstaffnage,25/10/2019 06:00,6.5,15,2.8,,0,0.6,76,31,250,-,,,,0,,,2.7,
Dunstaffnage,25/10/2019 07:00,6.4,15,,,0,,72,35,250,-,,,,0,,,1.9,
Dunstaffnage,25/10/2019 08:00,6.8,12,,,0,,70,,260,-,,,,16,,,1.8,
Dunstaffnage,25/10/2019 09:00,7.3,14,,,0,,63,,260,-,,,,75,,,0.9,
Dunstaffnage,25/10/2019 10:00,7.6,9,,,0,,66,,250,-,,,,151,,,1.7,
Dunstaffnage,25/10/2019 11:00,8,14,,,0,,63,,240,-,,,,278,,,1.5,
Dunstaffnage,25/10/2019 12:00,8.5,15,,,0,0,59,,250,-,,,,370,,,1.1,
Dunstaffnage,25/10/2019 13:00,8.5,12,,,0,,63,,250,-,,,,459,,,1.9,
Dunstaffnage,25/10/2019 14:00,7.7,7,,,0,,76,,180,-,,,,372,,,3.8,
Dunstaffnage,25/10/2019 15:00,7.3,12,,,0,,81,,170,-,,,,297,,,4.3,
Dunstaffnage,25/10/2019 16:00,7.2,6,,,0,,75,,200,-,,,,271,,,3.2,
Dunstaffnage,25/10/2019 17:00,6,9,,,0,,83,,170,-,,,,89,,,3.5,
Dunstaffnage,25/10/2019 18:00,5.4,6,,8.6,0,0,83,,210,-,,,,0,,,2.8,
Dunstaffnage,25/10/2019 19:00,5.7,2,,,0,,83,,160,-,,,,0,,,3.2,
Dunstaffnage,25/10/2019 20:00,4.6,5,,,0,,89,,110,-,,,,0,,,3.1,
Dunstaffnage,25/10/2019 21:00,4.4,3,,,0,,88,,280,-,,,,0,,,2.7,
Dunstaffnage,25/10/2019 22:00,6.5,9,,,0,,70,,250,-,,,,0,,,1.5,
Dunstaffnage,25/10/2019 23:00,6.7,9,,,0,,69,,250,-,,,,0,,,1.5,
Dunstaffnage,26/10/2019 00:00,6.2,9,,,0,0,68,,250,-,,,,,,,0.8,
Dunstaffnage,26/10/2019 01:00,6.4,10,,,0,,70,,280,-,,,,0,,,1.5,
Dunstaffnage,26/10/2019 02:00,6,20,,,0,,77,30,250,-,,,,0,,,2.4,
Dunstaffnage,26/10/2019 03:00,5.4,5,,,0,,84,,220,-,,,,0,,,3,
Dunstaffnage,26/10/2019 04:00,5.8,5,,,0,,82,,220,-,,,,0,,,3.1,
Dunstaffnage,26/10/2019 05:00,5.1,5,,,0.2,,82,,200,-,,,,0,,,2.4,
Dunstaffnage,26/10/2019 06:00,6.7,15,4,,0,0.2,76,,250,-,,,,0,,,2.8,
Dunstaffnage,26/10/2019 07:00,5,6,,,0.4,,83,30,210,-,,,,0,,,2.4,
Dunstaffnage,26/10/2019 08:00,6.2,10,,,0,,82,,240,-,,,,21,,,3.5,
Dunstaffnage,26/10/2019 09:00,7.4,12,,,0,,74,,250,-,,,,283,,,3.2,
Dunstaffnage,26/10/2019 10:00,8.8,12,,,0,,69,,250,-,,,,728,,,3.6,
Dunstaffnage,26/10/2019 11:00,6.4,14,,,1,,84,32,270,-,,,,943,,,4,
Dunstaffnage,26/10/2019 12:00,8.8,5,,,0,1,77,,220,-,,,,622,,,5.1,
Dunstaffnage,26/10/2019 13:00,7.7,20,,,0,,72,29,250,-,,,,639,,,3,
Dunstaffnage,26/10/2019 14:00,8.7,15,,,0.2,,71,30,250,-,,,,717,,,3.8,
Dunstaffnage,26/10/2019 15:00,8.1,20,,,0,,76,36,260,-,,,,696,,,4.2,
Dunstaffnage,26/10/2019 16:00,6.9,15,,,0.4,,87,,240,-,,,,98,,,4.9,
Dunstaffnage,26/10/2019 17:00,6.2,21,,,1.2,,87,31,260,-,,,,29,,,4.3,
Dunstaffnage,26/10/2019 18:00,6.7,10,,10,0,2,84,,240,-,,,,0,,,4.2,
Dunstaffnage,26/10/2019 19:00,6.8,12,,,0,,83,,240,-,,,,0,,,4.2,
Dunstaffnage,26/10/2019 20:00,7,15,,,0.6,,88,,280,-,,,,0,,,5.3,
Dunstaffnage,26/10/2019 21:00,7.1,10,,,2,,89,,260,-,,,,0,,,5.5,
Dunstaffnage,26/10/2019 22:00,7.6,16,,,0.2,,84,,270,-,,,,0,,,5.2,
Dunstaffnage,26/10/2019 23:00,7.4,12,,,0.4,,88,,290,-,,,,0,,,5.6,
Dunstaffnage,27/10/2019 00:00,7.1,23,,,0,3,87,33,270,-,,,,,,,5.2,
Dunstaffnage,27/10/2019 01:00,8,21,,,0.2,,83,37,280,-,,,,0,,,5.4,
Dunstaffnage,27/10/2019 02:00,7.9,21,,,0.2,,81,32,270,-,,,,0,,,4.9,
Dunstaffnage,27/10/2019 03:00,7.2,15,,,1,,84,29,290,-,,,,0,,,4.8,
Dunstaffnage,27/10/2019 04:00,8.4,17,,,0,,74,,280,-,,,,0,,,4.2,
Dunstaffnage,27/10/2019 05:00,7.9,14,,,0,,76,36,290,-,,,,0,,,4.1,
Dunstaffnage,27/10/2019 06:00,7.6,16,6.4,,0.6,2,82,48,280,-,,,,0,,,4.9,
Dunstaffnage,27/10/2019 07:00,7.4,15,,,0.2,,81,31,270,-,,,,0,,,4.5,
Dunstaffnage,27/10/2019 08:00,7.6,15,,,0,,86,,280,-,,,,15,,,5.5,
Dunstaffnage,27/10/2019 09:00,8.6,10,,,0.2,,80,,290,-,,,,132,,,5.5,
Dunstaffnage,27/10/2019 10:00,8.6,13,,,0,,77,,300,-,,,,333,,,4.9,
Dunstaffnage,27/10/2019 11:00,8.4,13,,,0,,78,30,290,-,,,,362,,,4.9,
Dunstaffnage,27/10/2019 12:00,9.1,14,,,0,0.4,75,,290,-,,,,525,,,5,
Dunstaffnage,27/10/2019 13:00,7.8,13,,,0.2,,85,30,290,-,,,,818,,,5.6,
Dunstaffnage,27/10/2019 14:00,9.9,17,,,0,,70,,300,-,,,,957,,,4.8,
Dunstaffnage,27/10/2019 15:00,9.1,17,,,0,,72,,310,-,,,,915,,,4.4,
Dunstaffnage,27/10/2019 16:00,8.5,10,,,0,,74,,290,-,,,,256,,,4.3,
Dunstaffnage,27/10/2019 17:00,8.3,9,,,0,,71,,290,-,,,,81,,,3.5,
Dunstaffnage,27/10/2019 18:00,7.2,9,,10.6,0,0.2,78,,280,-,,,,0,,,3.8,
Dunstaffnage,27/10/2019 19:00,7.4,15,,,0,,75,,300,-,,,,0,,,3.3,
Dunstaffnage,27/10/2019 20:00,6.8,8,,,0,,80,,290,-,,,,0,,,3.6,
Dunstaffnage,27/10/2019 21:00,6.8,8,,,0,,79,,280,-,,,,0,,,3.5,
Dunstaffnage,27/10/2019 22:00,6.6,9,,,0,,78,,300,-,,,,0,,,3.2,
Dunstaffnage,27/10/2019 23:00,7.1,7,,,0,,78,,330,-,,,,0,,,3.6,
Dunstaffnage,28/10/2019 00:00,6.1,2,,,0,0,78,,10,-,,,,,,,2.6,
Dunstaffnage,28/10/2019 01:00,3,1,,,0,,87,,210,-,,,,0,,,1.2,
Dunstaffnage,28/10/2019 02:00,1.8,2,,,0,,93,,220,-,,,,0,,,0.9,
Dunstaffnage,28/10/2019 03:00,1.3,1,,,0,,95,,200,-,,,,0,,,0.6,
Dunstaffnage,28/10/2019 04:00,3.2,2,,,0,,97,,50,-,,,,0,,,2.9,
Dunstaffnage,28/10/2019 05:00,1.1,0,,,0,,96,,0,-,,,,0,,,0.6,
Dunstaffnage,28/10/2019 06:00,0.8,0,0.4,,0,0,97,,0,-,,,,0,,,0.5,
Dunstaffnage,28/10/2019 07:00,1.2,1,,,0,,97,,20,-,,,,0,,,0.9,
Dunstaffnage,28/10/2019 08:00,0.5,1,,,0,,97,,190,-,,,,15,,,0.2,
Dunstaffnage,28/10/2019 09:00,2.9,3,,,0,,98,,80,-,,,,225,,,2.7,
Dunstaffnage,28/10/2019 10:00,5.4,1,,,0,,97,,80,-,,,,680,,,5,
Dunstaffnage,28/10/2019 11:00,6.6,2,,,0.2,,88,,100,-,,,,872,,,4.9,
Dunstaffnage,28/10/2019 12:00,10,2,,,0,0.2,71,,120,-,,,,1073,,,5.1,
Dunstaffnage,28/10/2019 13:00,9.4,2,,,0,,63,,300,-,,,,896,,,2.9,
Dunstaffnage,28/10/2019 14:00,10.5,2,,,0,,61,,300,-,,,,1044,,,3.5,
Dunstaffnage,28/10/2019 15:00,9.5,3,,,0,,62,,340,-,,,,857,,,2.6,
Dunstaffnage,28/10/2019 16:00,8.7,7,,,0,,66,,40,-,,,,489,,,2.8,
Dunstaffnage,28/10/2019 17:00,7.5,3,,,0,,67,,10,-,,,,107,,,1.9,
Dunstaffnage,28/10/2019 18:00,7.2,5,,12,0,0,75,,50,-,,,,0,,,3.1,
Dunstaffnage,28/10/2019 19:00,3.1,2,,,0,,85,,200,-,,,,0,,,0.9,
Dunstaffnage,28/10/2019 20:00,3,1,,,0,,91,,60,-,,,,0,,,1.7,
Dunstaffnage,28/10/2019 21:00,3.2,2,,,0,,94,,50,-,,,,0,,,2.4,
Dunstaffnage,28/10/2019 22:00,4,5,,,0,,90,,100,-,,,,0,,,2.6,
Dunstaffnage,28/10/2019 23:00,3.9,5,,,0,,91,,80,-,,,,0,,,2.6,
Dunstaffnage,29/10/2019 00:00,1.6,1,,,0,0,91,,160,-,,,,,,,0.4,
Dunstaffnage,29/10/2019 01:00,0.1,1,,,0,,92,,200,-,,,,0,,,-0.9,
Dunstaffnage,29/10/2019 02:00,-0.2,1,,,0,,95,,160,-,,,,0,,,-0.8,
Dunstaffnage,29/10/2019 03:00,-0.1,1,,,0,,96,,220,-,,,,0,,,-0.6,
Dunstaffnage,29/10/2019 04:00,0.5,2,,,0,,97,,50,-,,,,0,,,0.2,
Dunstaffnage,29/10/2019 05:00,0.3,0,,,0,,97,,0,-,,,,0,,,-0.1,
Dunstaffnage,29/10/2019 06:00,0,0,-0.7,,0,0,97,,0,-,,,,0,,,-0.4,
Dunstaffnage,29/10/2019 07:00,0.2,0,,,0,,97,,0,-,,,,0,,,-0.1,
Dunstaffnage,29/10/2019 08:00,0,1,,,0,,97,,280,-,,,,14,,,-0.3,
Dunstaffnage,29/10/2019 09:00,1.1,3,,,0,,97,,190,-,,,,277,,,0.8,
Dunstaffnage,29/10/2019 10:00,5.2,5,,,0,,91,,60,-,,,,701,,,3.9,
Dunstaffnage,29/10/2019 11:00,8.9,6,,,0.2,,71,,100,-,,,,1007,,,4,
Dunstaffnage,29/10/2019 12:00,10,2,,,0,0.2,65,,160,-,,,,1133,,,3.8,
Dunstaffnage,29/10/2019 13:00,10.3,5,,,0,,57,,70,-,,,,1077,,,2.2,
Dunstaffnage,29/10/2019 14:00,10.1,10,,,0,,64,,70,-,,,,1035,,,3.7,
Dunstaffnage,29/10/2019 15:00,10.6,7,,,0,,62,,80,-,,,,755,,,3.7,
Dunstaffnage,29/10/2019 16:00,9.4,5,,,0,,67,,90,-,,,,554,,,3.6,
Dunstaffnage,29/10/2019 17:00,6.3,1,,,0,,76,,200,-,,,,97,,,2.4,
Dunstaffnage,29/10/2019 18:00,4.3,2,,12.5,0,0,86,,170,-,,,,0,,,2.2,
Dunstaffnage,29/10/2019 19:00,4.7,2,,,0,,92,,80,-,,,,0,,,3.6,
Dunstaffnage,29/10/2019 20:00,4.7,5,,,0,,87,,110,-,,,,0,,,2.8,
Dunstaffnage,29/10/2019 21:00,5.3,5,,,0,,81,,90,-,,,,0,,,2.4,
Dunstaffnage,29/10/2019 22:00,4.5,5,,,0,,85,,90,-,,,,0,,,2.3,
Dunstaffnage,29/10/2019 23:00,4.6,7,,,0,,84,,90,-,,,,0,,,2.2,
Dunstaffnage,30/10/2019 00:00,4.6,5,,,0,0,86,,100,-,,,,,,,2.5,
Dunstaffnage,30/10/2019 01:00,4.3,6,,,0,,85,,90,-,,,,0,,,2.1,
Dunstaffnage,30/10/2019 02:00,4.4,6,,,0,,85,,70,-,,,,0,,,2.2,
Dunstaffnage,30/10/2019 03:00,3.9,6,,,0,,89,,90,-,,,,0,,,2.3,
Dunstaffnage,30/10/2019 04:00,4.1,6,,,0,,89,,110,-,,,,0,,,2.6,
Dunstaffnage,30/10/2019 05:00,3.8,3,,,0,,86,,100,-,,,,0,,,1.7,
Dunstaffnage,30/10/2019 06:00,2.7,1,2.6,,0,0,93,,210,-,,,,0,,,1.7,
Dunstaffnage,30/10/2019 07:00,2.3,2,,,0,,93,,160,-,,,,0,,,1.3,
Dunstaffnage,30/10/2019 08:00,1.6,0,,,0,,95,,0,-,,,,8,,,0.9,
Dunstaffnage,30/10/2019 09:00,3.3,0,,,0,,97,,0,-,,,,204,,,3,
Dunstaffnage,30/10/2019 10:00,7,0,,,0,,90,,0,-,,,,643,,,5.5,
Dunstaffnage,30/10/2019 11:00,9.4,12,,,0,,66,,90,-,,,,967,,,3.5,
Dunstaffnage,30/10/2019 12:00,9.4,12,,,0,0,67,,100,-,,,,742,,,3.7,
Dunstaffnage,30/10/2019 13:00,9.9,9,,,0,,61,,100,-,,,,738,,,2.8,
Dunstaffnage,30/10/2019 14:00,9.9,10,,,0,,56,,110,-,,,,760,,,1.6,
Dunstaffnage,30/10/2019 15:00,10,10,,,0,,56,,120,-,,,,708,,,1.8,
Dunstaffnage,30/10/2019 16:00,9.2,8,,,0,,60,,100,-,,,,420,,,1.9,
Dunstaffnage,30/10/2019 17:00,7.3,8,,,0,,68,,100,-,,,,92,,,1.8,
Dunstaffnage,30/10/2019 18:00,6.9,8,,10.2,0,0,71,,100,-,,,,0,,,2.2,
Dunstaffnage,30/10/2019 19:00,6.5,8,,,0,,73,,100,-,,,,0,,,2.2,
Dunstaffnage,30/10/2019 20:00,6.8,12,,,0,,73,,100,-,,,,0,,,2.4,
Dunstaffnage,30/10/2019 21:00,6.3,7,,,0,,71,,110,-,,,,0,,,1.5,
Dunstaffnage,30/10/2019 22:00,5.8,5,,,0,,73,,110,-,,,,0,,,1.4,
Dunstaffnage,30/10/2019 23:00,6.1,8,,,0,,74,,100,-,,,,0,,,2,
Dunstaffnage,31/10/2019 00:00,6.5,8,,,0,0,75,,110,-,,,,,,,2.4,
Drumnadrochit,01/09/2019 00:00,9.4,,,,0,0.6,94,,,-,,,,,,,8.5,
Drumnadrochit,01/09/2019 01:00,8.5,,,,0,,96,,,-,,,,,,,8,
Drumnadrochit,01/09/2019 02:00,8.4,,,,0,,97,,,-,,,,,,,8,
Drumnadrochit,01/09/2019 03:00,8.2,,,,0,,98,,,-,,,,,,,8,
Drumnadrochit,01/09/2019 04:00,9,,,,0.6,,98,,,-,,,,,,,8.8,
Drumnadrochit,01/09/2019 05:00,9,,,,0.8,,98,,,-,,,,,,,8.8,
Drumnadrochit,01/09/2019 06:00,8.1,,7,,0.2,1.4,96,,,-,,,,,,,7.6,
Drumnadrochit,01/09/2019 07:00,9.2,,,,0.2,,100,,,-,,,,,,,9.2,
Drumnadrochit,01/09/2019 08:00,9.9,,,,0.2,,100,,,-,,,,,,,9.9,
Drumnadrochit,01/09/2019 09:00,11.5,,,,0,,89,,,-,,,,,,,9.8,
Drumnadrochit,01/09/2019 10:00,12.6,,,,0,,77,,,-,,,,,,,8.7,
Drumnadrochit,01/09/2019 11:00,13.4,,,,0,,66,,,-,,,,,,,7.3,
Drumnadrochit,01/09/2019 12:00,13.5,,,,0,0.4,64,,,-,,,,,,,6.9,
Drumnadrochit,01/09/2019 13:00,15.3,,,,0,,51,,,-,,,,,,,5.4,
Drumnadrochit,01/09/2019 14:00,12.8,,,,0,,64,,,-,,,,,,,6.3,
Drumnadrochit,01/09/2019 15:00,11.9,,,,0.2,,75,,,-,,,,,,,7.7,
Drumnadrochit,01/09/2019 16:00,13,,,,0,,66,,,-,,,,,,,6.9,
Drumnadrochit,01/09/2019 17:00,12.8,,,,0,,62,,,-,,,,,,,5.8,
Drumnadrochit,01/09/2019 18:00,10.5,,,15.8,0,0.2,80,,,-,,,,,,,7.3,
Drumnadrochit,01/09/2019 19:00,9,,,,0,,89,,,-,,,,,,,7.3,
Drumnadrochit,01/09/2019 20:00,7.1,,,,0,,95,,,-,,,,,,,6.4,
Drumnadrochit,01/09/2019 21:00,5.8,,,,0,,96,,,-,,,,,,,5.3,
Drumnadrochit,01/09/2019 22:00,5.3,,,,0,,97,,,-,,,,,,,5,
Drumnadrochit,01/09/2019 23:00,5.1,,,,0.2,,99,,,-,,,,,,,5,
Drumnadrochit,02/09/2019 00:00,3.8,,,,0,0.2,97,,,-,,,,,,,3.4,
Drumnadrochit,02/09/2019 01:00,4,,,,0,,100,,,-,,,,,,,4,
Drumnadrochit,02/09/2019 02:00,5.6,,,,0,,98,,,-,,,,,,,5.4,
Drumnadrochit,02/09/2019 03:00,5.1,,,,0,,100,,,-,,,,,,,5.1,
Drumnadrochit,02/09/2019 04:00,7.1,,,,0,,100,,,-,,,,,,,7.1,
Drumnadrochit,02/09/2019 05:00,8.2,,,,0,,99,,,-,,,,,,,8.1,
Drumnadrochit,02/09/2019 06:00,8.7,,3.8,,0,0,98,,,-,,,,,,,8.5,
Drumnadrochit,02/09/2019 07:00,10.2,,,,0,,96,,,-,,,,,,,9.7,
Drumnadrochit,02/09/2019 08:00,11.2,,,,0,,89,,,-,,,,,,,9.6,
Drumnadrochit,02/09/2019 09:00,12.5,,,,0,,83,,,-,,,,,,,9.7,
Drumnadrochit,02/09/2019 10:00,12.7,,,,0,,87,,,-,,,,,,,10.6,
Drumnadrochit,02/09/2019 11:00,14.4,,,,0.2,,87,,,-,,,,,,,12.4,
Drumnadrochit,02/09/2019 12:00,15.1,,,,0.8,1,89,,,-,,,,,,,13.4,
Drumnadrochit,02/09/2019 13:00,15.9,,,,0,,80,,,-,,,,,,,12.6,
Drumnadrochit,02/09/2019 14:00,15.8,,,,0.4,,83,,,-,,,,,,,13.1,
Drumnadrochit,02/09/2019 15:00,15.4,,,,1.4,,87,,,-,,,,,,,13.4,
Drumnadrochit,02/09/2019 16:00,15.3,,,,0.4,,87,,,-,,,,,,,13.3,
Drumnadrochit,02/09/2019 17:00,15.5,,,,0.4,,87,,,-,,,,,,,13.4,
Drumnadrochit,02/09/2019 18:00,15.6,,,16,0.2,3,87,,,-,,,,,,,13.5,
Drumnadrochit,02/09/2019 19:00,15,,,,0,,87,,,-,,,,,,,12.9,
Drumnadrochit,02/09/2019 20:00,14.4,,,,0,,91,,,-,,,,,,,13,
Drumnadrochit,02/09/2019 21:00,13.7,,,,0,,96,,,-,,,,,,,13.1,
Drumnadrochit,02/09/2019 22:00,14.4,,,,0,,88,,,-,,,,,,,12.6,
Drumnadrochit,02/09/2019 23:00,12.8,,,,0,,96,,,-,,,,,,,12.2,
Drumnadrochit,03/09/2019 00:00,12.8,,,,0,0,98,,,-,,,,,,,12.6,
Drumnadrochit,03/09/2019 01:00,12.7,,,,0,,98,,,-,,,,,,,12.5,
Drumnadrochit,03/09/2019 02:00,12.3,,,,0,,98,,,-,,,,,,,12,
Drumnadrochit,03/09/2019 03:00,11.8,,,,0,,93,,,-,,,,,,,10.8,
Drumnadrochit,03/09/2019 04:00,11.4,,,,0,,91,,,-,,,,,,,10,
Drumnadrochit,03/09/2019 05:00,11.4,,,,0,,92,,,-,,,,,,,10.3,
Drumnadrochit,03/09/2019 06:00,11.4,,11.3,,0,0,94,,,-,,,,,,,10.5,
Drumnadrochit,03/09/2019 07:00,11.8,,,,0,,91,,,-,,,,,,,10.4,
Drumnadrochit,03/09/2019 08:00,12.1,,,,0,,90,,,-,,,,,,,10.6,
Drumnadrochit,03/09/2019 09:00,12.8,,,,0,,88,,,-,,,,,,,11,
Drumnadrochit,03/09/2019 10:00,13.5,,,,0,,86,,,-,,,,,,,11.3,
Drumnadrochit,03/09/2019 11:00,14.2,,,,0,,87,,,-,,,,,,,12.1,
Drumnadrochit,03/09/2019 12:00,14.6,,,,0,0,87,,,-,,,,,,,12.6,
Drumnadrochit,03/09/2019 13:00,16,,,,0,,87,,,-,,,,,,,13.9,
Drumnadrochit,03/09/2019 14:00,16.5,,,,0,,88,,,-,,,,,,,14.6,
Drumnadrochit,03/09/2019 15:00,16.4,,,,0.2,,89,,,-,,,,,,,14.6,
Drumnadrochit,03/09/2019 16:00,16.8,,,,0.6,,92,,,-,,,,,,,15.5,
Drumnadrochit,03/09/2019 17:00,15.8,,,,0,,89,,,-,,,,,,,14.1,
Drumnadrochit,03/09/2019 18:00,15.2,,,17.7,0,0.8,90,,,-,,,,,,,13.6,
Drumnadrochit,03/09/2019 19:00,15,,,,0.2,,88,,,-,,,,,,,13.2,
Drumnadrochit,03/09/2019 20:00,14.7,,,,0,,81,,,-,,,,,,,11.6,
Drumnadrochit,03/09/2019 21:00,12.2,,,,0,,86,,,-,,,,,,,10,
Drumnadrochit,03/09/2019 22:00,11.1,,,,0,,89,,,-,,,,,,,9.5,
Drumnadrochit,03/09/2019 23:00,10.6,,,,0,,85,,,-,,,,,,,8.2,
Drumnadrochit,04/09/2019 00:00,7.8,,,,0,0.2,90,,,-,,,,,,,6.3,
Drumnadrochit,04/09/2019 01:00,11.5,,,,0,,85,,,-,,,,,,,9.2,
Drumnadrochit,04/09/2019 02:00,10.2,,,,0,,84,,,-,,,,,,,7.7,
Drumnadrochit,04/09/2019 03:00,8.2,,,,0,,98,,,-,,,,,,,8,
Drumnadrochit,04/09/2019 04:00,8.7,,,,0,,85,,,-,,,,,,,6.4,
Drumnadrochit,04/09/2019 05:00,8.1,,,,0,,92,,,-,,,,,,,7,
Drumnadrochit,04/09/2019 06:00,7.2,,6.2,,0,0,97,,,-,,,,,,,6.8,
Drumnadrochit,04/09/2019 07:00,10.5,,,,0.2,,83,,,-,,,,,,,7.9,
Drumnadrochit,04/09/2019 08:00,10.8,,,,0,,81,,,-,,,,,,,7.7,
Drumnadrochit,04/09/2019 09:00,11.2,,,,0,,84,,,-,,,,,,,8.7,
Drumnadrochit,04/09/2019 10:00,11.8,,,,0,,81,,,-,,,,,,,8.7,
Drumnadrochit,04/09/2019 11:00,12.6,,,,0.4,,80,,,-,,,,,,,9.4,
Drumnadrochit,04/09/2019 12:00,12.3,,,,0,0.6,83,,,-,,,,,,,9.5,
Drumnadrochit,04/09/2019 13:00,14.9,,,,0,,65,,,-,,,,,,,8.4,
Drumnadrochit,04/09/2019 14:00,14.4,,,,0,,65,,,-,,,,,,,8,
Drumnadrochit,04/09/2019 15:00,12.1,,,,0.6,,81,,,-,,,,,,,9.1,
Drumnadrochit,04/09/2019 16:00,11.8,,,,0,,74,,,-,,,,,,,7.5,
Drumnadrochit,04/09/2019 17:00,10.9,,,,0,,72,,,-,,,,,,,6.1,
Drumnadrochit,04/09/2019 18:00,10.5,,,15.3,0,0.4,71,,,-,,,,,,,5.6,
Drumnadrochit,04/09/2019 19:00,10.1,,,,0,,72,,,-,,,,,,,5.3,
Drumnadrochit,04/09/2019 20:00,9.5,,,,0,,74,,,-,,,,,,,5.2,
Drumnadrochit,04/09/2019 21:00,8.6,,,,0,,73,,,-,,,,,,,4.2,
Drumnadrochit,04/09/2019 22:00,8.5,,,,0,,76,,,-,,,,,,,4.7,
Drumnadrochit,04/09/2019 23:00,8.1,,,,0,,78,,,-,,,,,,,4.6,
Drumnadrochit,05/09/2019 00:00,7.3,,,,0,0,84,,,-,,,,,,,4.8,
Drumnadrochit,05/09/2019 01:00,7.3,,,,0.2,,90,,,-,,,,,,,5.8,
Drumnadrochit,05/09/2019 02:00,6.3,,,,0,,95,,,-,,,,,,,5.7,
Drumnadrochit,05/09/2019 03:00,6.8,,,,0.2,,89,,,-,,,,,,,5.2,
Drumnadrochit,05/09/2019 04:00,5.1,,,,0,,97,,,-,,,,,,,4.8,
Drumnadrochit,05/09/2019 05:00,5.8,,,,0,,98,,,-,,,,,,,5.6,
Drumnadrochit,05/09/2019 06:00,6.5,,4.9,,0,0.4,99,,,-,,,,,,,6.4,
Drumnadrochit,05/09/2019 07:00,8.9,,,,0,,88,,,-,,,,,,,7.1,
Drumnadrochit,05/09/2019 08:00,8.8,,,,0,,92,,,-,,,,,,,7.7,
Drumnadrochit,05/09/2019 09:00,10.6,,,,0,,84,,,-,,,,,,,8.1,
Drumnadrochit,05/09/2019 10:00,11.5,,,,0,,91,,,-,,,,,,,10.1,
Drumnadrochit,05/09/2019 11:00,13.8,,,,0,,77,,,-,,,,,,,9.9,
Drumnadrochit,05/09/2019 12:00,15.2,,,,0.2,0.2,66,,,-,,,,,,,9.1,
Drumnadrochit,05/09/2019 13:00,16.9,,,,0,,62,,,-,,,,,,,9.8,
Drumnadrochit,05/09/2019 14:00,16.6,,,,0,,57,,,-,,,,,,,8.3,
Drumnadrochit,05/09/2019 15:00,15.6,,,,0,,54,,,-,,,,,,,6.4,
Drumnadrochit,05/09/2019 16:00,15.6,,,,0,,61,,,-,,,,,,,8.3,
Drumnadrochit,05/09/2019 17:00,14.4,,,,0,,65,,,-,,,,,,,8.1,
Drumnadrochit,05/09/2019 18:00,13.5,,,17.4,0,0,69,,,-,,,,,,,8,
Drumnadrochit,05/09/2019 19:00,12.1,,,,0,,74,,,-,,,,,,,7.8,
Drumnadrochit,05/09/2019 20:00,11.1,,,,0,,83,,,-,,,,,,,8.5,
Drumnadrochit,05/09/2019 21:00,11.4,,,,0,,79,,,-,,,,,,,8,
Drumnadrochit,05/09/2019 22:00,11.3,,,,0,,81,,,-,,,,,,,8.2,
Drumnadrochit,05/09/2019 23:00,11.2,,,,0.2,,88,,,-,,,,,,,9.4,
Drumnadrochit,06/09/2019 00:00,12.1,,,,0.2,0.4,89,,,-,,,,,,,10.5,
Drumnadrochit,06/09/2019 01:00,12.9,,,,0.2,,89,,,-,,,,,,,11.2,
Drumnadrochit,06/09/2019 02:00,12.3,,,,2.2,,93,,,-,,,,,,,11.3,
Drumnadrochit,06/09/2019 03:00,10.4,,,,0,,85,,,-,,,,,,,8,
Drumnadrochit,06/09/2019 04:00,10.2,,,,0,,89,,,-,,,,,,,8.6,
Drumnadrochit,06/09/2019 05:00,8.8,,,,0.2,,97,,,-,,,,,,,8.4,
Drumnadrochit,06/09/2019 06:00,9.1,,8.4,,0,2.6,94,,,-,,,,,,,8.3,
Drumnadrochit,06/09/2019 07:00,10.3,,,,0,,79,,,-,,,,,,,6.9,
Drumnadrochit,06/09/2019 08:00,10.4,,,,0,,92,,,-,,,,,,,9.3,
Drumnadrochit,06/09/2019 09:00,12.6,,,,0,,80,,,-,,,,,,,9.4,
Drumnadrochit,06/09/2019 10:00,13.5,,,,0,,73,,,-,,,,,,,8.9,
Drumnadrochit,06/09/2019 11:00,14.9,,,,0,,69,,,-,,,,,,,9.4,
Drumnadrochit,06/09/2019 12:00,15.6,,,,0,0,68,,,-,,,,,,,9.9,
Drumnadrochit,06/09/2019 13:00,14.9,,,,0,,75,,,-,,,,,,,10.7,
Drumnadrochit,06/09/2019 14:00,16.3,,,,0,,59,,,-,,,,,,,8.3,
Drumnadrochit,06/09/2019 15:00,14.8,,,,0,,70,,,-,,,,,,,9.4,
Drumnadrochit,06/09/2019 16:00,14.3,,,,0,,72,,,-,,,,,,,9.4,
Drumnadrochit,06/09/2019 17:00,13.7,,,,0,,71,,,-,,,,,,,8.7,
Drumnadrochit,06/09/2019 18:00,12.7,,,17.3,0,0,73,,,-,,,,,,,8.1,
Drumnadrochit,06/09/2019 19:00,12.2,,,,0,,70,,,-,,,,,,,7.1,
Drumnadrochit,06/09/2019 20:00,10.4,,,,0,,84,,,-,,,,,,,7.9,
Drumnadrochit,06/09/2019 21:00,10.6,,,,0,,82,,,-,,,,,,,7.7,
Drumnadrochit,06/09/2019 22:00,10.9,,,,0,,78,,,-,,,,,,,7.3,
Drumnadrochit,06/09/2019 23:00,10.4,,,,0,,83,,,-,,,,,,,7.8,
Drumnadrochit,07/09/2019 00:00,10.6,,,,0,0,81,,,-,,,,,,,7.6,
Drumnadrochit,07/09/2019 01:00,10.2,,,,0,,71,,,-,,,,,,,5.2,
Drumnadrochit,07/09/2019 02:00,8.9,,,,0,,80,,,-,,,,,,,5.8,
Drumnadrochit,07/09/2019 03:00,7.8,,,,0,,91,,,-,,,,,,,6.5,
Drumnadrochit,07/09/2019 04:00,7.3,,,,0,,91,,,-,,,,,,,6,
Drumnadrochit,07/09/2019 05:00,7.3,,,,0,,93,,,-,,,,,,,6.3,
Drumnadrochit,07/09/2019 06:00,5.6,,5.5,,0,0,93,,,-,,,,,,,4.6,
Drumnadrochit,07/09/2019 07:00,5.3,,,,0,,97,,,-,,,,,,,4.9,
Drumnadrochit,07/09/2019 08:00,8.2,,,,0,,87,,,-,,,,,,,6.3,
Drumnadrochit,07/09/2019 09:00,9.9,,,,0,,77,,,-,,,,,,,6.1,
Drumnadrochit,07/09/2019 10:00,12,,,,0,,63,,,-,,,,,,,5.4,
Drumnadrochit,07/09/2019 11:00,12.8,,,,0,,59,,,-,,,,,,,5,
Drumnadrochit,07/09/2019 12:00,13,,,,0,0,57,,,-,,,,,,,4.7,
Drumnadrochit,07/09/2019 13:00,14.3,,,,0,,54,,,-,,,,,,,5.3,
Drumnadrochit,07/09/2019 14:00,14.4,,,,0,,55,,,-,,,,,,,5.5,
Drumnadrochit,07/09/2019 15:00,15.1,,,,0,,54,,,-,,,,,,,6.1,
Drumnadrochit,07/09/2019 16:00,15.5,,,,0,,50,,,-,,,,,,,5.3,
Drumnadrochit,07/09/2019 17:00,14.5,,,,0,,67,,,-,,,,,,,8.5,
Drumnadrochit,07/09/2019 18:00,12.2,,,15.8,0,0,82,,,-,,,,,,,9.4,
Drumnadrochit,07/09/2019 19:00,8.9,,,,0,,89,,,-,,,,,,,7.2,
Drumnadrochit,07/09/2019 20:00,7.7,,,,0,,91,,,-,,,,,,,6.4,
Drumnadrochit,07/09/2019 21:00,6.4,,,,0,,95,,,-,,,,,,,5.7,
Drumnadrochit,07/09/2019 22:00,5.4,,,,0,,95,,,-,,,,,,,4.8,
Drumnadrochit,07/09/2019 23:00,4.3,,,,0,,96,,,-,,,,,,,3.8,
Drumnadrochit,08/09/2019 00:00,3.6,,,,0,0,97,,,-,,,,,,,3.2,
Drumnadrochit,08/09/2019 01:00,3.2,,,,0,,98,,,-,,,,,,,3,
Drumnadrochit,08/09/2019 02:00,2.5,,,,0,,98,,,-,,,,,,,2.3,
Drumnadrochit,08/09/2019 03:00,2,,,,0,,98,,,-,,,,,,,1.8,
Drumnadrochit,08/09/2019 04:00,1.8,,,,0,,100,,,-,,,,,,,1.8,
Drumnadrochit,08/09/2019 05:00,2.1,,,,0,,100,,,-,,,,,,,2.1,
Drumnadrochit,08/09/2019 06:00,1.6,,1.5,,0,0,100,,,-,,,,,,,1.6,
Drumnadrochit,08/09/2019 07:00,3.2,,,,0,,100,,,-,,,,,,,3.2,
Drumnadrochit,08/09/2019 08:00,8.1,,,,0,,100,,,-,,,,,,,8.1,
Drumnadrochit,08/09/2019 09:00,11.9,,,,0,,84,,,-,,,,,,,9.4,
Drumnadrochit,08/09/2019 10:00,14.2,,,,0,,71,,,-,,,,,,,9.2,
Drumnadrochit,08/09/2019 11:00,14.6,,,,0,,71,,,-,,,,,,,9.5,
Drumnadrochit,08/09/2019 12:00,14.6,,,,0,0,70,,,-,,,,,,,9.2,
Drumnadrochit,08/09/2019 13:00,15.4,,,,0,,70,,,-,,,,,,,10.1,
Drumnadrochit,08/09/2019 14:00,17,,,,0,,68,,,-,,,,,,,11.2,
Drumnadrochit,08/09/2019 15:00,16.2,,,,0,,71,,,-,,,,,,,11.1,
Drumnadrochit,08/09/2019 16:00,15.7,,,,0,,73,,,-,,,,,,,10.9,
Drumnadrochit,08/09/2019 17:00,15.5,,,,0,,74,,,-,,,,,,,11,
Drumnadrochit,08/09/2019 18:00,14.9,,,17,0,0,77,,,-,,,,,,,11.1,
Drumnadrochit,08/09/2019 19:00,14.4,,,,0,,78,,,-,,,,,,,10.8,
Drumnadrochit,08/09/2019 20:00,14.1,,,,0,,82,,,-,,,,,,,11.1,
Drumnadrochit,08/09/2019 21:00,13.7,,,,0,,83,,,-,,,,,,,11,
Drumnadrochit,08/09/2019 22:00,12.7,,,,0,,91,,,-,,,,,,,11.3,
Drumnadrochit,08/09/2019 23:00,12.2,,,,0.4,,96,,,-,,,,,,,11.7,
Drumnadrochit,09/09/2019 00:00,12,,,,0.2,0.6,97,,,-,,,,,,,11.6,
Drumnadrochit,09/09/2019 01:00,12,,,,0,,98,,,-,,,,,,,11.7,
Drumnadrochit,09/09/2019 02:00,11.8,,,,0.2,,98,,,-,,,,,,,11.6,
Drumnadrochit,09/09/2019 03:00,11.8,,,,0.2,,98,,,-,,,,,,,11.6,
Drumnadrochit,09/09/2019 04:00,11.7,,,,5.4,,98,,,-,,,,,,,11.5,
Drumnadrochit,09/09/2019 05:00,11.6,,,,0.6,,99,,,-,,,,,,,11.5,
Drumnadrochit,09/09/2019 06:00,11.5,,11.5,,0.4,6.4,99,,,-,,,,,,,11.4,
Drumnadrochit,09/09/2019 07:00,11.8,,,,0,,100,,,-,,,,,,,11.8,
Drumnadrochit,09/09/2019 08:00,12,,,,0.2,,100,,,-,,,,,,,12,
Drumnadrochit,09/09/2019 09:00,12.5,,,,0.6,,99,,,-,,,,,,,12.4,
Drumnadrochit,09/09/2019 10:00,13.5,,,,0.2,,91,,,-,,,,,,,12.2,
Drumnadrochit,09/09/2019 11:00,14.9,,,,0,,82,,,-,,,,,,,12,
Drumnadrochit,09/09/2019 12:00,15.3,,,,0,1,78,,,-,,,,,,,11.5,
Drumnadrochit,09/09/2019 13:00,15.9,,,,0,,78,,,-,,,,,,,12.1,
Drumnadrochit,09/09/2019 14:00,14.2,,,,0,,87,,,-,,,,,,,12.1,
Drumnadrochit,09/09/2019 15:00,14.7,,,,0,,86,,,-,,,,,,,12.4,
Drumnadrochit,09/09/2019 16:00,14.6,,,,0,,80,,,-,,,,,,,11.2,
Drumnadrochit,09/09/2019 17:00,13.9,,,,0,,79,,,-,,,,,,,10.5,
Drumnadrochit,09/09/2019 18:00,13.2,,,16,0,0,79,,,-,,,,,,,9.8,
Drumnadrochit,09/09/2019 19:00,12.6,,,,0,,82,,,-,,,,,,,9.7,
Drumnadrochit,09/09/2019 20:00,11.6,,,,0,,93,,,-,,,,,,,10.6,
Drumnadrochit,09/09/2019 21:00,11.2,,,,0,,94,,,-,,,,,,,10.4,
Drumnadrochit,09/09/2019 22:00,10.8,,,,0,,95,,,-,,,,,,,10.1,
Drumnadrochit,09/09/2019 23:00,10.5,,,,0,,96,,,-,,,,,,,10,
Drumnadrochit,10/09/2019 00:00,10.2,,,,0,0,98,,,-,,,,,,,9.9,
Drumnadrochit,10/09/2019 01:00,10,,,,0,,98,,,-,,,,,,,9.7,
Drumnadrochit,10/09/2019 02:00,10,,,,0,,98,,,-,,,,,,,9.7,
Drumnadrochit,10/09/2019 03:00,9.8,,,,0,,98,,,-,,,,,,,9.5,
Drumnadrochit,10/09/2019 04:00,8.9,,,,0,,96,,,-,,,,,,,8.4,
Drumnadrochit,10/09/2019 05:00,6.2,,,,0,,95,,,-,,,,,,,5.5,
Drumnadrochit,10/09/2019 06:00,5.6,,5.5,,0,0,98,,,-,,,,,,,5.4,
Drumnadrochit,10/09/2019 07:00,6.3,,,,0,,100,,,-,,,,,,,6.3,
Drumnadrochit,10/09/2019 08:00,9.4,,,,0,,90,,,-,,,,,,,7.9,
Drumnadrochit,10/09/2019 09:00,11.8,,,,0,,79,,,-,,,,,,,8.3,
Drumnadrochit,10/09/2019 10:00,14,,,,0,,63,,,-,,,,,,,7.1,
Drumnadrochit,10/09/2019 11:00,14.2,,,,0,,61,,,-,,,,,,,7,
Drumnadrochit,10/09/2019 12:00,14.4,,,,0,0,57,,,-,,,,,,,6.2,
Drumnadrochit,10/09/2019 13:00,15,,,,0,,57,,,-,,,,,,,6.8,
Drumnadrochit,10/09/2019 14:00,14.2,,,,0,,62,,,-,,,,,,,7.2,
Drumnadrochit,10/09/2019 15:00,14.3,,,,0,,63,,,-,,,,,,,7.5,
Drumnadrochit,10/09/2019 16:00,13.4,,,,0,,67,,,-,,,,,,,7.5,
Drumnadrochit,10/09/2019 17:00,13,,,,0,,69,,,-,,,,,,,7.5,
Drumnadrochit,10/09/2019 18:00,11.9,,,15.7,0,0,80,,,-,,,,,,,8.7,
Drumnadrochit,10/09/2019 19:00,12,,,,0.8,,84,,,-,,,,,,,9.5,
Drumnadrochit,10/09/2019 20:00,12.3,,,,0.6,,86,,,-,,,,,,,10.1,
Drumnadrochit,10/09/2019 21:00,12.8,,,,0.4,,87,,,-,,,,,,,10.8,
Drumnadrochit,10/09/2019 22:00,13.3,,,,0.4,,90,,,-,,,,,,,11.7,
Drumnadrochit,10/09/2019 23:00,14.5,,,,0,,84,,,-,,,,,,,11.9,
Drumnadrochit,11/09/2019 00:00,15.3,,,,0,2,82,,,-,,,,,,,12.4,
Drumnadrochit,11/09/2019 01:00,15.9,,,,0,,83,,,-,,,,,,,13.1,
Drumnadrochit,11/09/2019 02:00,15.4,,,,0,,82,,,-,,,,,,,12.5,
Drumnadrochit,11/09/2019 03:00,14.1,,,,0,,75,,,-,,,,,,,9.8,
Drumnadrochit,11/09/2019 04:00,13,,,,0,,77,,,-,,,,,,,9.2,
Drumnadrochit,11/09/2019 05:00,12.9,,,,0,,84,,,-,,,,,,,10.3,
Drumnadrochit,11/09/2019 06:00,12.6,,11.6,,0.2,0,83,,,-,,,,,,,9.8,
Drumnadrochit,11/09/2019 07:00,13.8,,,,0,,66,,,-,,,,,,,7.6,
Drumnadrochit,11/09/2019 08:00,12.8,,,,0,,81,,,-,,,,,,,9.7,
Drumnadrochit,11/09/2019 09:00,14.4,,,,0,,75,,,-,,,,,,,10.1,
Drumnadrochit,11/09/2019 10:00,14.9,,,,0,,67,,,-,,,,,,,9,
Drumnadrochit,11/09/2019 11:00,15.6,,,,0,,63,,,-,,,,,,,8.8,
Drumnadrochit,11/09/2019 12:00,15.3,,,,0,0,66,,,-,,,,,,,9.1,
Drumnadrochit,11/09/2019 13:00,15.3,,,,0,,64,,,-,,,,,,,8.7,
Drumnadrochit,11/09/2019 14:00,14.6,,,,0,,70,,,-,,,,,,,9.3,
Drumnadrochit,11/09/2019 15:00,16.4,,,,0,,57,,,-,,,,,,,8.1,
Drumnadrochit,11/09/2019 16:00,16.3,,,,0,,59,,,-,,,,,,,8.3,
Drumnadrochit,11/09/2019 17:00,14.8,,,,0,,66,,,-,,,,,,,8.7,
Drumnadrochit,11/09/2019 18:00,13.6,,,16.8,0,0,74,,,-,,,,,,,9.2,
Drumnadrochit,11/09/2019 19:00,13.5,,,,0,,74,,,-,,,,,,,9,
Drumnadrochit,11/09/2019 20:00,12.6,,,,0,,80,,,-,,,,,,,9.4,
Drumnadrochit,11/09/2019 21:00,11.8,,,,0,,78,,,-,,,,,,,8.2,
Drumnadrochit,11/09/2019 22:00,12.7,,,,0,,78,,,-,,,,,,,9,
Drumnadrochit,11/09/2019 23:00,12.2,,,,0,,77,,,-,,,,,,,8.4,
Drumnadrochit,12/09/2019 00:00,11.4,,,,0,0,83,,,-,,,,,,,8.7,
Drumnadrochit,12/09/2019 01:00,12.2,,,,0,,80,,,-,,,,,,,8.9,
Drumnadrochit,12/09/2019 02:00,11.8,,,,0,,86,,,-,,,,,,,9.7,
Drumnadrochit,12/09/2019 03:00,12,,,,0,,82,,,-,,,,,,,9.2,
Drumnadrochit,12/09/2019 04:00,11.9,,,,0,,84,,,-,,,,,,,9.3,
Drumnadrochit,12/09/2019 05:00,11.5,,,,0,,81,,,-,,,,,,,8.5,
Drumnadrochit,12/09/2019 06:00,11.4,,10.1,,0,0,84,,,-,,,,,,,8.8,
Drumnadrochit,12/09/2019 07:00,11.7,,,,0,,86,,,-,,,,,,,9.5,
Drumnadrochit,12/09/2019 08:00,13.1,,,,0,,75,,,-,,,,,,,8.8,
Drumnadrochit,12/09/2019 09:00,13,,,,0,,76,,,-,,,,,,,9,
Drumnadrochit,12/09/2019 10:00,14.1,,,,0,,75,,,-,,,,,,,9.9,
Drumnadrochit,12/09/2019 11:00,15.1,,,,0,,70,,,-,,,,,,,9.7,
Drumnadrochit,12/09/2019 12:00,15,,,,0,0,69,,,-,,,,,,,9.4,
Drumnadrochit,12/09/2019 13:00,17.1,,,,0,,62,,,-,,,,,,,10,
Drumnadrochit,12/09/2019 14:00,16.8,,,,0,,55,,,-,,,,,,,7.8,
Drumnadrochit,12/09/2019 15:00,16.4,,,,0,,52,,,-,,,,,,,6.8,
Drumnadrochit,12/09/2019 16:00,15.9,,,,0,,52,,,-,,,,,,,6.3,
Drumnadrochit,12/09/2019 17:00,13.9,,,,0,,58,,,-,,,,,,,6,
Drumnadrochit,12/09/2019 18:00,12.4,,,17.6,0,0,70,,,-,,,,,,,7.1,
Drumnadrochit,12/09/2019 19:00,10.6,,,,0,,71,,,-,,,,,,,5.7,
Drumnadrochit,12/09/2019 20:00,9,,,,0,,79,,,-,,,,,,,5.7,
Drumnadrochit,12/09/2019 21:00,8.7,,,,0,,83,,,-,,,,,,,6,
Drumnadrochit,12/09/2019 22:00,8.5,,,,0,,87,,,-,,,,,,,6.5,
Drumnadrochit,12/09/2019 23:00,9.2,,,,0,,82,,,-,,,,,,,6.3,
Drumnadrochit,13/09/2019 00:00,9.2,,,,0,0,78,,,-,,,,,,,5.6,
Drumnadrochit,13/09/2019 01:00,8.4,,,,0,,87,,,-,,,,,,,6.4,
Drumnadrochit,13/09/2019 02:00,8.2,,,,0,,85,,,-,,,,,,,5.9,
Drumnadrochit,13/09/2019 03:00,9,,,,0,,82,,,-,,,,,,,6.1,
Drumnadrochit,13/09/2019 04:00,5.5,,,,0,,94,,,-,,,,,,,4.7,
Drumnadrochit,13/09/2019 05:00,4.5,,,,0,,98,,,-,,,,,,,4.3,
Drumnadrochit,13/09/2019 06:00,8.9,,4.1,,0,0,87,,,-,,,,,,,6.9,
Drumnadrochit,13/09/2019 07:00,8.9,,,,0,,83,,,-,,,,,,,6.3,
Drumnadrochit,13/09/2019 08:00,11.4,,,,0,,76,,,-,,,,,,,7.5,
Drumnadrochit,13/09/2019 09:00,14,,,,0,,57,,,-,,,,,,,5.7,
Drumnadrochit,13/09/2019 10:00,14.4,,,,0,,61,,,-,,,,,,,7,
Drumnadrochit,13/09/2019 11:00,14.9,,,,0,,55,,,-,,,,,,,6.2,
Drumnadrochit,13/09/2019 12:00,14.9,,,,0,0,52,,,-,,,,,,,5.2,
Drumnadrochit,13/09/2019 13:00,16,,,,0,,52,,,-,,,,,,,6.3,
Drumnadrochit,13/09/2019 14:00,16.1,,,,0,,46,,,-,,,,,,,4.6,
Drumnadrochit,13/09/2019 15:00,14.4,,,,0,,53,,,-,,,,,,,5.1,
Drumnadrochit,13/09/2019 16:00,14.4,,,,0,,61,,,-,,,,,,,7.2,
Drumnadrochit,13/09/2019 17:00,14.1,,,,0,,59,,,-,,,,,,,6.4,
Drumnadrochit,13/09/2019 18:00,12.9,,,16.7,0,0,69,,,-,,,,,,,7.4,
Drumnadrochit,13/09/2019 19:00,11.4,,,,0,,77,,,-,,,,,,,7.7,
Drumnadrochit,13/09/2019 20:00,11.7,,,,0,,78,,,-,,,,,,,8.1,
Drumnadrochit,13/09/2019 21:00,11.4,,,,0,,81,,,-,,,,,,,8.4,
Drumnadrochit,13/09/2019 22:00,10.9,,,,0,,81,,,-,,,,,,,7.9,
Drumnadrochit,13/09/2019 23:00,11,,,,0,,84,,,-,,,,,,,8.5,
Drumnadrochit,14/09/2019 00:00,11.6,,,,0,0,81,,,-,,,,,,,8.5,
Drumnadrochit,14/09/2019 01:00,11.9,,,,0,,79,,,-,,,,,,,8.4,
Drumnadrochit,14/09/2019 02:00,12,,,,0,,77,,,-,,,,,,,8.1,
Drumnadrochit,14/09/2019 03:00,11.6,,,,0,,80,,,-,,,,,,,8.3,
Drumnadrochit,14/09/2019 04:00,12.2,,,,0,,79,,,-,,,,,,,8.8,
Drumnadrochit,14/09/2019 05:00,12.2,,,,0,,74,,,-,,,,,,,7.9,
Drumnadrochit,14/09/2019 06:00,13,,10.6,,0,0,68,,,-,,,,,,,7.3,
Drumnadrochit,14/09/2019 07:00,12,,,,0,,79,,,-,,,,,,,8.6,
Drumnadrochit,14/09/2019 08:00,11.8,,,,0,,85,,,-,,,,,,,9.4,
Drumnadrochit,14/09/2019 09:00,11.9,,,,0,,89,,,-,,,,,,,10.2,
Drumnadrochit,14/09/2019 10:00,12.3,,,,0,,88,,,-,,,,,,,10.5,
Drumnadrochit,14/09/2019 11:00,12.9,,,,0,,86,,,-,,,,,,,10.7,
Drumnadrochit,14/09/2019 12:00,13.2,,,,0,0,87,,,-,,,,,,,11.1,
Drumnadrochit,14/09/2019 13:00,13.8,,,,0,,88,,,-,,,,,,,11.9,
Drumnadrochit,14/09/2019 14:00,14.5,,,,0.2,,90,,,-,,,,,,,12.9,
Drumnadrochit,14/09/2019 15:00,15.7,,,,0,,83,,,-,,,,,,,12.9,
Drumnadrochit,14/09/2019 16:00,15.4,,,,1,,86,,,-,,,,,,,13.2,
Drumnadrochit,14/09/2019 17:00,15.6,,,,0.6,,86,,,-,,,,,,,13.3,
Drumnadrochit,14/09/2019 18:00,15.4,,,16,0.4,2,87,,,-,,,,,,,13.3,
Drumnadrochit,14/09/2019 19:00,14.4,,,,0.4,,83,,,-,,,,,,,11.7,
Drumnadrochit,14/09/2019 20:00,11.3,,,,0.8,,83,,,-,,,,,,,8.6,
Drumnadrochit,14/09/2019 21:00,11.4,,,,0.6,,82,,,-,,,,,,,8.6,
Drumnadrochit,14/09/2019 22:00,12.2,,,,0,,70,,,-,,,,,,,7.1,
Drumnadrochit,14/09/2019 23:00,12.1,,,,0,,69,,,-,,,,,,,6.8,
Drumnadrochit,15/09/2019 00:00,11.8,,,,0,2,68,,,-,,,,,,,6.2,
Drumnadrochit,15/09/2019 01:00,10.8,,,,0,,65,,,-,,,,,,,4.7,
Drumnadrochit,15/09/2019 02:00,10.4,,,,0,,69,,,-,,,,,,,5,
Drumnadrochit,15/09/2019 03:00,11.2,,,,0,,67,,,-,,,,,,,5.4,
Drumnadrochit,15/09/2019 04:00,10.8,,,,0,,57,,,-,,,,,,,2.7,
Drumnadrochit,15/09/2019 05:00,9.4,,,,0,,67,,,-,,,,,,,3.6,
Drumnadrochit,15/09/2019 06:00,10.3,,8.8,,0,0,60,,,-,,,,,,,3,
Drumnadrochit,15/09/2019 07:00,10.8,,,,0,,63,,,-,,,,,,,4.1,
Drumnadrochit,15/09/2019 08:00,11.3,,,,0,,60,,,-,,,,,,,4,
Drumnadrochit,15/09/2019 09:00,11.9,,,,0,,65,,,-,,,,,,,5.6,
Drumnadrochit,15/09/2019 10:00,12.1,,,,0,,63,,,-,,,,,,,5.4,
Drumnadrochit,15/09/2019 11:00,14.2,,,,0,,53,,,-,,,,,,,5,
Drumnadrochit,15/09/2019 12:00,13.7,,,,0,0,58,,,-,,,,,,,5.7,
Drumnadrochit,15/09/2019 13:00,15,,,,0,,51,,,-,,,,,,,5,
Drumnadrochit,15/09/2019 14:00,14.9,,,,0,,50,,,-,,,,,,,4.8,
Drumnadrochit,15/09/2019 15:00,15.2,,,,0,,50,,,-,,,,,,,5.1,
Drumnadrochit,15/09/2019 16:00,14.2,,,,0,,48,,,-,,,,,,,3.6,
Drumnadrochit,15/09/2019 17:00,13.2,,,,0,,50,,,-,,,,,,,3.1,
Drumnadrochit,15/09/2019 18:00,11.9,,,15.6,0,0,60,,,-,,,,,,,4.6,
Drumnadrochit,15/09/2019 19:00,8.8,,,,0,,70,,,-,,,,,,,3.8,
Drumnadrochit,15/09/2019 20:00,8,,,,0,,84,,,-,,,,,,,5.5,
Drumnadrochit,15/09/2019 21:00,7.9,,,,0,,84,,,-,,,,,,,5.4,
Drumnadrochit,15/09/2019 22:00,5.7,,,,0,,87,,,-,,,,,,,3.8,
Drumnadrochit,15/09/2019 23:00,4,,,,0,,95,,,-,,,,,,,3.3,
Drumnadrochit,16/09/2019 00:00,4.1,,,,0,0,99,,,-,,,,,,,4,
Drumnadrochit,16/09/2019 01:00,3.1,,,,0,,96,,,-,,,,,,,2.6,
Drumnadrochit,16/09/2019 02:00,3.4,,,,0,,99,,,-,,,,,,,3.3,
Drumnadrochit,16/09/2019 03:00,3.9,,,,0,,99,,,-,,,,,,,3.8,
Drumnadrochit,16/09/2019 04:00,2.8,,,,0,,97,,,-,,,,,,,2.4,
Drumnadrochit,16/09/2019 05:00,3.7,,,,0,,99,,,-,,,,,,,3.6,
Drumnadrochit,16/09/2019 06:00,6.3,,2.7,,0,0,92,,,-,,,,,,,5.1,
Drumnadrochit,16/09/2019 07:00,7.5,,,,0,,90,,,-,,,,,,,6.1,
Drumnadrochit,16/09/2019 08:00,9.4,,,,0,,84,,,-,,,,,,,7,
Drumnadrochit,16/09/2019 09:00,10.4,,,,0,,85,,,-,,,,,,,8.1,
Drumnadrochit,16/09/2019 10:00,11.6,,,,0,,76,,,-,,,,,,,7.6,
Drumnadrochit,16/09/2019 11:00,12.4,,,,0,,68,,,-,,,,,,,6.7,
Drumnadrochit,16/09/2019 12:00,12,,,,0,0,73,,,-,,,,,,,7.5,
Drumnadrochit,16/09/2019 13:00,13.4,,,,0,,64,,,-,,,,,,,6.8,
Drumnadrochit,16/09/2019 14:00,13.7,,,,0,,68,,,-,,,,,,,8,
Drumnadrochit,16/09/2019 15:00,15.1,,,,0,,61,,,-,,,,,,,7.8,
Drumnadrochit,16/09/2019 16:00,11.4,,,,0,,79,,,-,,,,,,,8,
Drumnadrochit,16/09/2019 17:00,12.1,,,,0,,76,,,-,,,,,,,8.1,
Drumnadrochit,16/09/2019 18:00,10.9,,,15.2,0.2,0.2,80,,,-,,,,,,,7.6,
Drumnadrochit,16/09/2019 19:00,9.2,,,,0,,81,,,-,,,,,,,6.2,
Drumnadrochit,16/09/2019 20:00,10.1,,,,0,,81,,,-,,,,,,,7.1,
Drumnadrochit,16/09/2019 21:00,10,,,,0,,83,,,-,,,,,,,7.4,
Drumnadrochit,16/09/2019 22:00,10,,,,0,,69,,,-,,,,,,,4.7,
Drumnadrochit,16/09/2019 23:00,9.4,,,,0,,68,,,-,,,,,,,3.8,
Drumnadrochit,17/09/2019 00:00,8.7,,,,0,0,76,,,-,,,,,,,4.8,
Drumnadrochit,17/09/2019 01:00,7.1,,,,0,,92,,,-,,,,,,,6,
Drumnadrochit,17/09/2019 02:00,7.5,,,,0,,88,,,-,,,,,,,5.8,
Drumnadrochit,17/09/2019 03:00,5.4,,,,0,,93,,,-,,,,,,,4.5,
Drumnadrochit,17/09/2019 04:00,4.3,,,,0.2,,96,,,-,,,,,,,3.8,
Drumnadrochit,17/09/2019 05:00,5.8,,,,0,,95,,,-,,,,,,,5.1,
Drumnadrochit,17/09/2019 06:00,5.6,,4.1,,0,0.2,92,,,-,,,,,,,4.5,
Drumnadrochit,17/09/2019 07:00,7,,,,0,,93,,,-,,,,,,,6,
Drumnadrochit,17/09/2019 08:00,7.6,,,,0,,84,,,-,,,,,,,5.1,
Drumnadrochit,17/09/2019 09:00,11.7,,,,0,,64,,,-,,,,,,,5.2,
Drumnadrochit,17/09/2019 10:00,12.6,,,,0,,56,,,-,,,,,,,4.1,
Drumnadrochit,17/09/2019 11:00,12.1,,,,0,,57,,,-,,,,,,,3.9,
Drumnadrochit,17/09/2019 12:00,12.7,,,,0,0,57,,,-,,,,,,,4.5,
Drumnadrochit,17/09/2019 13:00,12.6,,,,0,,58,,,-,,,,,,,4.8,
Drumnadrochit,17/09/2019 14:00,12.7,,,,0,,56,,,-,,,,,,,4.3,
Drumnadrochit,17/09/2019 15:00,12.6,,,,0,,50,,,-,,,,,,,2.5,
Drumnadrochit,17/09/2019 16:00,12.6,,,,0,,54,,,-,,,,,,,3.8,
Drumnadrochit,17/09/2019 17:00,12.2,,,,0,,65,,,-,,,,,,,6,
Drumnadrochit,17/09/2019 18:00,10.4,,,13.1,0,0,80,,,-,,,,,,,7.2,
Drumnadrochit,17/09/2019 19:00,9.1,,,,0,,87,,,-,,,,,,,7.2,
Drumnadrochit,17/09/2019 20:00,8.5,,,,0,,90,,,-,,,,,,,7.1,
Drumnadrochit,17/09/2019 21:00,8.4,,,,0,,92,,,-,,,,,,,7.3,
Drumnadrochit,17/09/2019 22:00,8.3,,,,0,,92,,,-,,,,,,,7.1,
Drumnadrochit,17/09/2019 23:00,8.1,,,,0,,95,,,-,,,,,,,7.5,
Drumnadrochit,18/09/2019 00:00,8.1,,,,0,0,95,,,-,,,,,,,7.5,
Drumnadrochit,18/09/2019 01:00,8.4,,,,0,,85,,,-,,,,,,,6.1,
Drumnadrochit,18/09/2019 02:00,7.7,,,,0.2,,94,,,-,,,,,,,6.9,
Drumnadrochit,18/09/2019 03:00,7.6,,,,0.4,,97,,,-,,,,,,,7.2,
Drumnadrochit,18/09/2019 04:00,9,,,,0,,89,,,-,,,,,,,7.3,
Drumnadrochit,18/09/2019 05:00,9,,,,0,,89,,,-,,,,,,,7.4,
Drumnadrochit,18/09/2019 06:00,8.8,,7.6,,0,0.6,92,,,-,,,,,,,7.7,
Drumnadrochit,18/09/2019 07:00,9.6,,,,0,,91,,,-,,,,,,,8.3,
Drumnadrochit,18/09/2019 08:00,11,,,,0,,88,,,-,,,,,,,9.1,
Drumnadrochit,18/09/2019 09:00,12,,,,0,,88,,,-,,,,,,,10.1,
Drumnadrochit,18/09/2019 10:00,12.8,,,,0,,85,,,-,,,,,,,10.5,
Drumnadrochit,18/09/2019 11:00,14.2,,,,0,,82,,,-,,,,,,,11.3,
Drumnadrochit,18/09/2019 12:00,15,,,,0,0,82,,,-,,,,,,,12.1,
Drumnadrochit,18/09/2019 13:00,15,,,,0,,91,,,-,,,,,,,13.6,
Drumnadrochit,18/09/2019 14:00,16.5,,,,0,,81,,,-,,,,,,,13.3,
Drumnadrochit,18/09/2019 15:00,16.4,,,,0,,85,,,-,,,,,,,14,
Drumnadrochit,18/09/2019 16:00,17,,,,0,,83,,,-,,,,,,,14.1,
Drumnadrochit,18/09/2019 17:00,13.4,,,,0,,87,,,-,,,,,,,11.3,
Drumnadrochit,18/09/2019 18:00,12.9,,,17.2,0,0,92,,,-,,,,,,,11.7,
Drumnadrochit,18/09/2019 19:00,12.4,,,,0,,94,,,-,,,,,,,11.5,
Drumnadrochit,18/09/2019 20:00,11.9,,,,0,,96,,,-,,,,,,,11.3,
Drumnadrochit,18/09/2019 21:00,11.9,,,,0,,97,,,-,,,,,,,11.5,
Drumnadrochit,18/09/2019 22:00,12,,,,0,,98,,,-,,,,,,,11.7,
Drumnadrochit,18/09/2019 23:00,10.1,,,,0,,94,,,-,,,,,,,9.3,
Drumnadrochit,19/09/2019 00:00,9,,,,0,0,97,,,-,,,,,,,8.6,
Drumnadrochit,19/09/2019 01:00,7.6,,,,0,,97,,,-,,,,,,,7.3,
Drumnadrochit,19/09/2019 02:00,8.1,,,,0,,100,,,-,,,,,,,8.1,
Drumnadrochit,19/09/2019 03:00,8.4,,,,0,,100,,,-,,,,,,,8.4,
Drumnadrochit,19/09/2019 04:00,8.2,,,,0,,100,,,-,,,,,,,8.2,
Drumnadrochit,19/09/2019 05:00,7.2,,,,0,,99,,,-,,,,,,,7.1,
Drumnadrochit,19/09/2019 06:00,7.5,,6.2,,0,0,100,,,-,,,,,,,7.5,
Drumnadrochit,19/09/2019 07:00,8.9,,,,0,,100,,,-,,,,,,,8.9,
Drumnadrochit,19/09/2019 08:00,12.9,,,,0,,100,,,-,,,,,,,12.9,
Drumnadrochit,19/09/2019 09:00,14.3,,,,0,,83,,,-,,,,,,,11.5,
Drumnadrochit,19/09/2019 10:00,16,,,,0,,77,,,-,,,,,,,12.1,
Drumnadrochit,19/09/2019 11:00,16.5,,,,0,,72,,,-,,,,,,,11.6,
Drumnadrochit,19/09/2019 12:00,16.4,,,,0,0,74,,,-,,,,,,,11.8,
Drumnadrochit,19/09/2019 13:00,17.5,,,,0,,72,,,-,,,,,,,12.5,
Drumnadrochit,19/09/2019 14:00,18,,,,0,,68,,,-,,,,,,,12.2,
Drumnadrochit,19/09/2019 15:00,18.2,,,,0,,69,,,-,,,,,,,12.6,
Drumnadrochit,19/09/2019 16:00,17.7,,,,0,,69,,,-,,,,,,,12,
Drumnadrochit,19/09/2019 17:00,17.1,,,,0,,69,,,-,,,,,,,11.4,
Drumnadrochit,19/09/2019 18:00,14,,,18.3,0,0,78,,,-,,,,,,,10.3,
Drumnadrochit,19/09/2019 19:00,12.2,,,,0,,86,,,-,,,,,,,10,
Drumnadrochit,19/09/2019 20:00,9.1,,,,0,,89,,,-,,,,,,,7.5,
Drumnadrochit,19/09/2019 21:00,7.7,,,,0,,95,,,-,,,,,,,7.1,
Drumnadrochit,19/09/2019 22:00,6.7,,,,0,,98,,,-,,,,,,,6.5,
Drumnadrochit,19/09/2019 23:00,5.8,,,,0,,97,,,-,,,,,,,5.5,
Drumnadrochit,20/09/2019 00:00,4.9,,,,0,0,98,,,-,,,,,,,4.7,
Drumnadrochit,20/09/2019 01:00,4.3,,,,0,,98,,,-,,,,,,,4.1,
Drumnadrochit,20/09/2019 02:00,3.5,,,,0,,98,,,-,,,,,,,3.3,
Drumnadrochit,20/09/2019 03:00,3.6,,,,0,,99,,,-,,,,,,,3.5,
Drumnadrochit,20/09/2019 04:00,3,,,,0,,100,,,-,,,,,,,3,
Drumnadrochit,20/09/2019 05:00,3.2,,,,0,,100,,,-,,,,,,,3.2,
Drumnadrochit,20/09/2019 06:00,2.5,,2.1,,0,0,100,,,-,,,,,,,2.5,
Drumnadrochit,20/09/2019 07:00,3.1,,,,0,,100,,,-,,,,,,,3.1,
Drumnadrochit,20/09/2019 08:00,7.2,,,,0,,100,,,-,,,,,,,7.2,
Drumnadrochit,20/09/2019 09:00,11.2,,,,0,,76,,,-,,,,,,,7.3,
Drumnadrochit,20/09/2019 10:00,15,,,,0,,64,,,-,,,,,,,8.3,
Drumnadrochit,20/09/2019 11:00,16,,,,0,,63,,,-,,,,,,,9.2,
Drumnadrochit,20/09/2019 12:00,16.9,,,,0,0,61,,,-,,,,,,,9.4,
Drumnadrochit,20/09/2019 13:00,18,,,,0,,61,,,-,,,,,,,10.6,
Drumnadrochit,20/09/2019 14:00,19.6,,,,0,,54,,,-,,,,,,,10.3,
Drumnadrochit,20/09/2019 15:00,19.8,,,,0,,59,,,-,,,,,,,11.7,
Drumnadrochit,20/09/2019 16:00,19.6,,,,0,,57,,,-,,,,,,,11.1,
Drumnadrochit,20/09/2019 17:00,16.8,,,,0,,66,,,-,,,,,,,10.5,
Drumnadrochit,20/09/2019 18:00,12.1,,,20.7,0,0,85,,,-,,,,,,,9.8,
Drumnadrochit,20/09/2019 19:00,10.2,,,,0,,91,,,-,,,,,,,8.9,
Drumnadrochit,20/09/2019 20:00,8.5,,,,0,,96,,,-,,,,,,,7.9,
Drumnadrochit,20/09/2019 21:00,7.3,,,,0,,95,,,-,,,,,,,6.7,
Drumnadrochit,20/09/2019 22:00,8.3,,,,0,,100,,,-,,,,,,,8.3,
Drumnadrochit,20/09/2019 23:00,6.3,,,,0,,95,,,-,,,,,,,5.7,
Drumnadrochit,21/09/2019 00:00,6.8,,,,0,0,100,,,-,,,,,,,6.8,
Drumnadrochit,21/09/2019 01:00,5.9,,,,0,,100,,,-,,,,,,,5.9,
Drumnadrochit,21/09/2019 02:00,5.2,,,,0,,99,,,-,,,,,,,5.1,
Drumnadrochit,21/09/2019 03:00,5.9,,,,0,,100,,,-,,,,,,,5.9,
Drumnadrochit,21/09/2019 04:00,6.8,,,,0,,100,,,-,,,,,,,6.8,
Drumnadrochit,21/09/2019 05:00,5.7,,,,0,,100,,,-,,,,,,,5.7,
Drumnadrochit,21/09/2019 06:00,4.8,,4.7,,0,0,99,,,-,,,,,,,4.7,
Drumnadrochit,21/09/2019 07:00,7.3,,,,0,,100,,,-,,,,,,,7.3,
Drumnadrochit,21/09/2019 08:00,10.9,,,,0,,100,,,-,,,,,,,10.9,
Drumnadrochit,21/09/2019 09:00,15,,,,0,,88,,,-,,,,,,,13.1,
Drumnadrochit,21/09/2019 10:00,19.4,,,,0,,61,,,-,,,,,,,11.8,
Drumnadrochit,21/09/2019 11:00,21,,,,0,,48,,,-,,,,,,,9.6,
Drumnadrochit,21/09/2019 12:00,21.6,,,,0,0,44,,,-,,,,,,,8.9,
Drumnadrochit,21/09/2019 13:00,22.4,,,,0,,41,,,-,,,,,,,8.8,
Drumnadrochit,21/09/2019 14:00,23.1,,,,0,,41,,,-,,,,,,,9.5,
Drumnadrochit,21/09/2019 15:00,22.6,,,,0,,42,,,-,,,,,,,9.4,
Drumnadrochit,21/09/2019 16:00,21.3,,,,0,,42,,,-,,,,,,,8.1,
Drumnadrochit,21/09/2019 17:00,19,,,,0,,51,,,-,,,,,,,8.8,
Drumnadrochit,21/09/2019 18:00,14.5,,,23.6,0,0,72,,,-,,,,,,,9.6,
Drumnadrochit,21/09/2019 19:00,12.5,,,,0,,83,,,-,,,,,,,9.8,
Drumnadrochit,21/09/2019 20:00,11.7,,,,0,,86,,,-,,,,,,,9.5,
Drumnadrochit,21/09/2019 21:00,9.2,,,,0,,90,,,-,,,,,,,7.8,
Drumnadrochit,21/09/2019 22:00,8.9,,,,0,,94,,,-,,,,,,,8,
Drumnadrochit,21/09/2019 23:00,7.8,,,,0,,96,,,-,,,,,,,7.3,
Drumnadrochit,22/09/2019 00:00,8.1,,,,0,0,98,,,-,,,,,,,7.9,
Drumnadrochit,22/09/2019 01:00,7.2,,,,0,,97,,,-,,,,,,,6.9,
Drumnadrochit,22/09/2019 02:00,6,,,,0,,96,,,-,,,,,,,5.5,
Drumnadrochit,22/09/2019 03:00,6.1,,,,0,,98,,,-,,,,,,,5.9,
Drumnadrochit,22/09/2019 04:00,7,,,,0,,100,,,-,,,,,,,7,
Drumnadrochit,22/09/2019 05:00,6.3,,,,0,,99,,,-,,,,,,,6.2,
Drumnadrochit,22/09/2019 06:00,7.7,,5.7,,0,0,100,,,-,,,,,,,7.7,
Drumnadrochit,22/09/2019 07:00,8.4,,,,0,,100,,,-,,,,,,,8.4,
Drumnadrochit,22/09/2019 08:00,9.2,,,,0,,98,,,-,,,,,,,9,
Drumnadrochit,22/09/2019 09:00,10.4,,,,0,,95,,,-,,,,,,,9.7,
Drumnadrochit,22/09/2019 10:00,12.2,,,,0,,85,,,-,,,,,,,9.9,
Drumnadrochit,22/09/2019 11:00,13.5,,,,0,,78,,,-,,,,,,,9.9,
Drumnadrochit,22/09/2019 12:00,13.5,,,,0,0,84,,,-,,,,,,,10.9,
Drumnadrochit,22/09/2019 13:00,14.2,,,,0,,78,,,-,,,,,,,10.5,
Drumnadrochit,22/09/2019 14:00,13.8,,,,0,,88,,,-,,,,,,,12,
Drumnadrochit,22/09/2019 15:00,14,,,,0,,90,,,-,,,,,,,12.5,
Drumnadrochit,22/09/2019 16:00,14.5,,,,0,,91,,,-,,,,,,,13.2,
Drumnadrochit,22/09/2019 17:00,15.1,,,,0,,88,,,-,,,,,,,13.2,
Drumnadrochit,22/09/2019 18:00,14.5,,,15.1,0,0,94,,,-,,,,,,,13.6,
Drumnadrochit,22/09/2019 19:00,14.1,,,,0,,94,,,-,,,,,,,13.3,
Drumnadrochit,22/09/2019 20:00,13.8,,,,0,,96,,,-,,,,,,,13.2,
Drumnadrochit,22/09/2019 21:00,13.7,,,,0,,96,,,-,,,,,,,13.2,
Drumnadrochit,22/09/2019 22:00,13.5,,,,0,,96,,,-,,,,,,,13,
Drumnadrochit,22/09/2019 23:00,13.6,,,,0,,96,,,-,,,,,,,13,
Drumnadrochit,23/09/2019 00:00,13.4,,,,0,0,97,,,-,,,,,,,13,
Drumnadrochit,23/09/2019 01:00,13.6,,,,0,,97,,,-,,,,,,,13.2,
Drumnadrochit,23/09/2019 02:00,13.7,,,,0,,94,,,-,,,,,,,12.9,
Drumnadrochit,23/09/2019 03:00,13.4,,,,0,,95,,,-,,,,,,,12.7,
Drumnadrochit,23/09/2019 04:00,13.2,,,,0,,97,,,-,,,,,,,12.8,
Drumnadrochit,23/09/2019 05:00,13.1,,,,1.2,,97,,,-,,,,,,,12.7,
Drumnadrochit,23/09/2019 06:00,13.1,,13.1,,0.2,1,96,,,-,,,,,,,12.6,
Drumnadrochit,23/09/2019 07:00,12.8,,,,0,,98,,,-,,,,,,,12.5,
Drumnadrochit,23/09/2019 08:00,13.8,,,,0,,96,,,-,,,,,,,13.3,
Drumnadrochit,23/09/2019 09:00,15.7,,,,0,,86,,,-,,,,,,,13.4,
Drumnadrochit,23/09/2019 10:00,14.9,,,,0,,89,,,-,,,,,,,13.2,
Drumnadrochit,23/09/2019 11:00,15.1,,,,0,,90,,,-,,,,,,,13.6,
Drumnadrochit,23/09/2019 12:00,19,,,,0,0,66,,,-,,,,,,,12.6,
Drumnadrochit,23/09/2019 13:00,19.1,,,,0,,58,,,-,,,,,,,10.7,
Drumnadrochit,23/09/2019 14:00,19.2,,,,0,,58,,,-,,,,,,,11,
Drumnadrochit,23/09/2019 15:00,17.9,,,,0,,65,,,-,,,,,,,11.3,
Drumnadrochit,23/09/2019 16:00,16.2,,,,0,,70,,,-,,,,,,,10.8,
Drumnadrochit,23/09/2019 17:00,15.8,,,,0,,70,,,-,,,,,,,10.4,
Drumnadrochit,23/09/2019 18:00,12.7,,,20.1,0,0,78,,,-,,,,,,,9.1,
Drumnadrochit,23/09/2019 19:00,9.1,,,,0,,92,,,-,,,,,,,8,
Drumnadrochit,23/09/2019 20:00,7.2,,,,0,,95,,,-,,,,,,,6.5,
Drumnadrochit,23/09/2019 21:00,7,,,,0,,97,,,-,,,,,,,6.7,
Drumnadrochit,23/09/2019 22:00,7.2,,,,0,,99,,,-,,,,,,,7.1,
Drumnadrochit,23/09/2019 23:00,8.4,,,,0,,99,,,-,,,,,,,8.3,
Drumnadrochit,24/09/2019 00:00,10.1,,,,0,0,99,,,-,,,,,,,10,
Drumnadrochit,24/09/2019 01:00,11.2,,,,0,,94,,,-,,,,,,,10.4,
Drumnadrochit,24/09/2019 02:00,11.2,,,,0.6,,94,,,-,,,,,,,10.4,
Drumnadrochit,24/09/2019 03:00,12,,,,0,,92,,,-,,,,,,,10.9,
Drumnadrochit,24/09/2019 04:00,11,,,,0,,96,,,-,,,,,,,10.4,
Drumnadrochit,24/09/2019 05:00,10.4,,,,0,,98,,,-,,,,,,,10.1,
Drumnadrochit,24/09/2019 06:00,10.1,,6.5,,0,0.6,98,,,-,,,,,,,9.9,
Drumnadrochit,24/09/2019 07:00,10.6,,,,0,,100,,,-,,,,,,,10.6,
Drumnadrochit,24/09/2019 08:00,12,,,,0.4,,100,,,-,,,,,,,12,
Drumnadrochit,24/09/2019 09:00,13,,,,0.2,,98,,,-,,,,,,,12.8,
Drumnadrochit,24/09/2019 10:00,15.2,,,,0,,93,,,-,,,,,,,14.2,
Drumnadrochit,24/09/2019 11:00,18.2,,,,0,,77,,,-,,,,,,,14.2,
Drumnadrochit,24/09/2019 12:00,17.5,,,,0,0.6,78,,,-,,,,,,,13.8,
Drumnadrochit,24/09/2019 13:00,18.4,,,,0,,71,,,-,,,,,,,13.2,
Drumnadrochit,24/09/2019 14:00,18.1,,,,0,,75,,,-,,,,,,,13.7,
Drumnadrochit,24/09/2019 15:00,19.3,,,,0,,72,,,-,,,,,,,14.3,
Drumnadrochit,24/09/2019 16:00,18,,,,0,,78,,,-,,,,,,,14.2,
Drumnadrochit,24/09/2019 17:00,17.3,,,,0,,84,,,-,,,,,,,14.6,
Drumnadrochit,24/09/2019 18:00,16.2,,,19.4,0,0,87,,,-,,,,,,,14.1,
Drumnadrochit,24/09/2019 19:00,14.7,,,,0,,91,,,-,,,,,,,13.4,
Drumnadrochit,24/09/2019 20:00,15.5,,,,0,,86,,,-,,,,,,,13.2,
Drumnadrochit,24/09/2019 21:00,14.6,,,,0.6,,92,,,-,,,,,,,13.4,
Drumnadrochit,24/09/2019 22:00,14.2,,,,1.4,,96,,,-,,,,,,,13.6,
Drumnadrochit,24/09/2019 23:00,14,,,,0.4,,97,,,-,,,,,,,13.6,
Drumnadrochit,25/09/2019 00:00,13.8,,,,0.6,3,98,,,-,,,,,,,13.6,
Drumnadrochit,25/09/2019 01:00,13.9,,,,0.2,,98,,,-,,,,,,,13.7,
Drumnadrochit,25/09/2019 02:00,13.9,,,,0.2,,98,,,-,,,,,,,13.7,
Drumnadrochit,25/09/2019 03:00,13.6,,,,0,,98,,,-,,,,,,,13.3,
Drumnadrochit,25/09/2019 04:00,13.6,,,,0,,98,,,-,,,,,,,13.3,
Drumnadrochit,25/09/2019 05:00,13.7,,,,0,,97,,,-,,,,,,,13.3,
Drumnadrochit,25/09/2019 06:00,13.7,,13.6,,0,0,96,,,-,,,,,,,13.2,
Drumnadrochit,25/09/2019 07:00,13.7,,,,0,,98,,,-,,,,,,,13.4,
Drumnadrochit,25/09/2019 08:00,14,,,,0,,97,,,-,,,,,,,13.6,
Drumnadrochit,25/09/2019 09:00,14.8,,,,0,,90,,,-,,,,,,,13.2,
Drumnadrochit,25/09/2019 10:00,15,,,,0,,87,,,-,,,,,,,13,
Drumnadrochit,25/09/2019 11:00,15.4,,,,0,,89,,,-,,,,,,,13.7,
Drumnadrochit,25/09/2019 12:00,15,,,,0,0,90,,,-,,,,,,,13.4,
Drumnadrochit,25/09/2019 13:00,15.5,,,,0,,90,,,-,,,,,,,13.9,
Drumnadrochit,25/09/2019 14:00,16,,,,0,,90,,,-,,,,,,,14.4,
Drumnadrochit,25/09/2019 15:00,17.6,,,,0,,78,,,-,,,,,,,13.9,
Drumnadrochit,25/09/2019 16:00,17.2,,,,0,,75,,,-,,,,,,,12.8,
Drumnadrochit,25/09/2019 17:00,16.7,,,,0,,79,,,-,,,,,,,13.1,
Drumnadrochit,25/09/2019 18:00,14.4,,,17.9,0,0,89,,,-,,,,,,,12.7,
Drumnadrochit,25/09/2019 19:00,13.2,,,,0,,96,,,-,,,,,,,12.7,
Drumnadrochit,25/09/2019 20:00,11.9,,,,0,,96,,,-,,,,,,,11.4,
Drumnadrochit,25/09/2019 21:00,12.5,,,,0,,99,,,-,,,,,,,12.4,
Drumnadrochit,25/09/2019 22:00,12.9,,,,0,,99,,,-,,,,,,,12.8,
Drumnadrochit,25/09/2019 23:00,13.2,,,,0,,100,,,-,,,,,,,13.2,
Drumnadrochit,26/09/2019 00:00,11.8,,,,0,0,97,,,-,,,,,,,11.4,
Drumnadrochit,26/09/2019 01:00,12.8,,,,0,,97,,,-,,,,,,,12.4,
Drumnadrochit,26/09/2019 02:00,12.9,,,,1.2,,96,,,-,,,,,,,12.4,
Drumnadrochit,26/09/2019 03:00,15.1,,,,0.2,,82,,,-,,,,,,,12.2,
Drumnadrochit,26/09/2019 04:00,15.9,,,,0.4,,73,,,-,,,,,,,11.2,
Drumnadrochit,26/09/2019 05:00,13.1,,,,1,,94,,,-,,,,,,,12.3,
Drumnadrochit,26/09/2019 06:00,12.9,,11.6,,1.6,4,96,,,-,,,,,,,12.3,
Drumnadrochit,26/09/2019 07:00,12.5,,,,1,,96,,,-,,,,,,,11.9,
Drumnadrochit,26/09/2019 08:00,13.1,,,,0,,96,,,-,,,,,,,12.5,
Drumnadrochit,26/09/2019 09:00,14.2,,,,0,,86,,,-,,,,,,,12,
Drumnadrochit,26/09/2019 10:00,15.5,,,,0,,74,,,-,,,,,,,11,
Drumnadrochit,26/09/2019 11:00,15.6,,,,0,,75,,,-,,,,,,,11.2,
Drumnadrochit,26/09/2019 12:00,16.2,,,,0,1,76,,,-,,,,,,,12.1,
Drumnadrochit,26/09/2019 13:00,16.1,,,,0,,69,,,-,,,,,,,10.6,
Drumnadrochit,26/09/2019 14:00,14.6,,,,0.4,,77,,,-,,,,,,,10.7,
Drumnadrochit,26/09/2019 15:00,14.2,,,,0,,75,,,-,,,,,,,10,
Drumnadrochit,26/09/2019 16:00,13.1,,,,0,,84,,,-,,,,,,,10.5,
Drumnadrochit,26/09/2019 17:00,13.2,,,,0,,82,,,-,,,,,,,10.2,
Drumnadrochit,26/09/2019 18:00,12.5,,,16.7,0,0,84,,,-,,,,,,,10,
Drumnadrochit,26/09/2019 19:00,10.3,,,,0,,88,,,-,,,,,,,8.5,
Drumnadrochit,26/09/2019 20:00,9.3,,,,0,,91,,,-,,,,,,,8,
Drumnadrochit,26/09/2019 21:00,8.1,,,,0,,96,,,-,,,,,,,7.6,
Drumnadrochit,26/09/2019 22:00,7.2,,,,0,,98,,,-,,,,,,,7,
Drumnadrochit,26/09/2019 23:00,7.7,,,,0,,100,,,-,,,,,,,7.7,
Drumnadrochit,27/09/2019 00:00,8.3,,,,0,0,100,,,-,,,,,,,8.3,
Drumnadrochit,27/09/2019 01:00,8.5,,,,0.2,,100,,,-,,,,,,,8.5,
Drumnadrochit,27/09/2019 02:00,8.4,,,,0,,100,,,-,,,,,,,8.4,
Drumnadrochit,27/09/2019 03:00,8.4,,,,0,,100,,,-,,,,,,,8.4,
Drumnadrochit,27/09/2019 04:00,8.6,,,,0.2,,100,,,-,,,,,,,8.6,
Drumnadrochit,27/09/2019 05:00,8.2,,,,0,,100,,,-,,,,,,,8.2,
Drumnadrochit,27/09/2019 06:00,7.9,,6.5,,0,0.4,100,,,-,,,,,,,7.9,
Drumnadrochit,27/09/2019 07:00,6.6,,,,0,,99,,,-,,,,,,,6.5,
Drumnadrochit,27/09/2019 08:00,9.2,,,,0,,100,,,-,,,,,,,9.2,
Drumnadrochit,27/09/2019 09:00,11.2,,,,0,,98,,,-,,,,,,,10.9,
Drumnadrochit,27/09/2019 10:00,12.2,,,,0,,95,,,-,,,,,,,11.5,
Drumnadrochit,27/09/2019 11:00,13,,,,0,,83,,,-,,,,,,,10.3,
Drumnadrochit,27/09/2019 12:00,14.5,,,,0.2,0.2,70,,,-,,,,,,,9.2,
Drumnadrochit,27/09/2019 13:00,15.1,,,,0,,62,,,-,,,,,,,8,
Drumnadrochit,27/09/2019 14:00,16.5,,,,0,,58,,,-,,,,,,,8.3,
Drumnadrochit,27/09/2019 15:00,14.1,,,,0,,69,,,-,,,,,,,8.6,
Drumnadrochit,27/09/2019 16:00,12.2,,,,4.8,,84,,,-,,,,,,,9.6,
Drumnadrochit,27/09/2019 17:00,12.4,,,,0,,87,,,-,,,,,,,10.3,
Drumnadrochit,27/09/2019 18:00,11.8,,,16.8,0.2,4.8,94,,,-,,,,,,,10.9,
Drumnadrochit,27/09/2019 19:00,10.8,,,,0,,97,,,-,,,,,,,10.4,
Drumnadrochit,27/09/2019 20:00,10.6,,,,0,,98,,,-,,,,,,,10.3,
Drumnadrochit,27/09/2019 21:00,9.1,,,,0,,96,,,-,,,,,,,8.6,
Drumnadrochit,27/09/2019 22:00,8.5,,,,0,,97,,,-,,,,,,,8.2,
Drumnadrochit,27/09/2019 23:00,8.7,,,,0,,99,,,-,,,,,,,8.6,
Drumnadrochit,28/09/2019 00:00,8.7,,,,0,0,99,,,-,,,,,,,8.6,
Drumnadrochit,28/09/2019 01:00,8.3,,,,0,,98,,,-,,,,,,,8.1,
Drumnadrochit,28/09/2019 02:00,7.8,,,,0,,99,,,-,,,,,,,7.7,
Drumnadrochit,28/09/2019 03:00,7.7,,,,0,,99,,,-,,,,,,,7.6,
Drumnadrochit,28/09/2019 04:00,6.1,,,,0,,97,,,-,,,,,,,5.7,
Drumnadrochit,28/09/2019 05:00,5.5,,,,0,,97,,,-,,,,,,,5.2,
Drumnadrochit,28/09/2019 06:00,6.2,,5.4,,0,0,100,,,-,,,,,,,6.2,
Drumnadrochit,28/09/2019 07:00,6.5,,,,0,,100,,,-,,,,,,,6.5,
Drumnadrochit,28/09/2019 08:00,7.4,,,,0,,100,,,-,,,,,,,7.4,
Drumnadrochit,28/09/2019 09:00,8.2,,,,0,,100,,,-,,,,,,,8.2,
Drumnadrochit,28/09/2019 10:00,9.2,,,,0,,97,,,-,,,,,,,8.8,
Drumnadrochit,28/09/2019 11:00,10.4,,,,0.2,,93,,,-,,,,,,,9.4,
Drumnadrochit,28/09/2019 12:00,12.9,,,,0,0.2,85,,,-,,,,,,,10.5,
Drumnadrochit,28/09/2019 13:00,14.4,,,,0,,76,,,-,,,,,,,10.3,
Drumnadrochit,28/09/2019 14:00,13.7,,,,0,,79,,,-,,,,,,,10.2,
Drumnadrochit,28/09/2019 15:00,12.9,,,,0.2,,88,,,-,,,,,,,11.1,
Drumnadrochit,28/09/2019 16:00,12.7,,,,0.4,,88,,,-,,,,,,,10.8,
Drumnadrochit,28/09/2019 17:00,12.3,,,,0,,94,,,-,,,,,,,11.5,
Drumnadrochit,28/09/2019 18:00,11.6,,,15.1,0,0.6,96,,,-,,,,,,,11,
Drumnadrochit,28/09/2019 19:00,10.6,,,,0,,97,,,-,,,,,,,10.2,
Drumnadrochit,28/09/2019 20:00,10.2,,,,0,,99,,,-,,,,,,,10.1,
Drumnadrochit,28/09/2019 21:00,10.2,,,,0,,100,,,-,,,,,,,10.2,
Drumnadrochit,28/09/2019 22:00,10.3,,,,0,,99,,,-,,,,,,,10.2,
Drumnadrochit,28/09/2019 23:00,10.1,,,,0,,99,,,-,,,,,,,10,
Drumnadrochit,29/09/2019 00:00,10.3,,,,0,0,100,,,-,,,,,,,10.3,
Drumnadrochit,29/09/2019 01:00,10.5,,,,0,,100,,,-,,,,,,,10.5,
Drumnadrochit,29/09/2019 02:00,10.7,,,,0,,98,,,-,,,,,,,10.5,
Drumnadrochit,29/09/2019 03:00,10.9,,,,0,,98,,,-,,,,,,,10.7,
Drumnadrochit,29/09/2019 04:00,10.8,,,,0.8,,98,,,-,,,,,,,10.6,
Drumnadrochit,29/09/2019 05:00,11,,,,1.8,,99,,,-,,,,,,,10.9,
Drumnadrochit,29/09/2019 06:00,10.8,,10,,0.6,3,99,,,-,,,,,,,10.7,
Drumnadrochit,29/09/2019 07:00,10.8,,,,0.2,,99,,,-,,,,,,,10.7,
Drumnadrochit,29/09/2019 08:00,11.2,,,,0,,99,,,-,,,,,,,11.1,
Drumnadrochit,29/09/2019 09:00,11.5,,,,0,,94,,,-,,,,,,,10.7,
Drumnadrochit,29/09/2019 10:00,11.9,,,,0,,92,,,-,,,,,,,10.7,
Drumnadrochit,29/09/2019 11:00,12.8,,,,0,,85,,,-,,,,,,,10.5,
Drumnadrochit,29/09/2019 12:00,13.2,,,,0,0.2,82,,,-,,,,,,,10.3,
Drumnadrochit,29/09/2019 13:00,13.4,,,,0,,82,,,-,,,,,,,10.4,
Drumnadrochit,29/09/2019 14:00,13.6,,,,0,,80,,,-,,,,,,,10.3,
Drumnadrochit,29/09/2019 15:00,12.7,,,,0.2,,87,,,-,,,,,,,10.6,
Drumnadrochit,29/09/2019 16:00,12.5,,,,0.4,,91,,,-,,,,,,,11.1,
Drumnadrochit,29/09/2019 17:00,12.2,,,,0,,95,,,-,,,,,,,11.5,
Drumnadrochit,29/09/2019 18:00,11.7,,,14,0.4,0.8,94,,,-,,,,,,,10.9,
Drumnadrochit,29/09/2019 19:00,10.6,,,,1.6,,96,,,-,,,,,,,10.1,
Drumnadrochit,29/09/2019 20:00,10.4,,,,0.8,,96,,,-,,,,,,,9.9,
Drumnadrochit,29/09/2019 21:00,10.2,,,,0.6,,98,,,-,,,,,,,10,
Drumnadrochit,29/09/2019 22:00,10.2,,,,2.2,,99,,,-,,,,,,,10.1,
Drumnadrochit,29/09/2019 23:00,10.1,,,,0,,99,,,-,,,,,,,10,
Drumnadrochit,30/09/2019 00:00,9.8,,,,0,5,98,,,-,,,,,,,9.6,
Drumnadrochit,30/09/2019 01:00,8.8,,,,0,,99,,,-,,,,,,,8.7,
Drumnadrochit,30/09/2019 02:00,8.9,,,,0,,100,,,-,,,,,,,8.9,
Drumnadrochit,30/09/2019 03:00,9.2,,,,0,,100,,,-,,,,,,,9.2,
Drumnadrochit,30/09/2019 04:00,9.1,,,,0.8,,96,,,-,,,,,,,8.6,
Drumnadrochit,30/09/2019 05:00,8.9,,,,0.2,,97,,,-,,,,,,,8.5,
Drumnadrochit,30/09/2019 06:00,8.7,,8.5,,0,1,98,,,-,,,,,,,8.5,
Drumnadrochit,30/09/2019 07:00,8.3,,,,0,,94,,,-,,,,,,,7.5,
Drumnadrochit,30/09/2019 08:00,8.6,,,,0,,91,,,-,,,,,,,7.3,
Drumnadrochit,30/09/2019 09:00,9.7,,,,0,,86,,,-,,,,,,,7.6,
Drumnadrochit,30/09/2019 10:00,10.2,,,,0,,79,,,-,,,,,,,6.9,
Drumnadrochit,30/09/2019 11:00,10.4,,,,0,,77,,,-,,,,,,,6.6,
Drumnadrochit,30/09/2019 12:00,10.8,,,,0,0,67,,,-,,,,,,,5.1,
Drumnadrochit,30/09/2019 13:00,10.9,,,,0,,73,,,-,,,,,,,6.3,
Drumnadrochit,30/09/2019 14:00,11.9,,,,0,,73,,,-,,,,,,,7.4,
Drumnadrochit,30/09/2019 15:00,11.2,,,,0,,64,,,-,,,,,,,4.7,
Drumnadrochit,30/09/2019 16:00,10.3,,,,0,,71,,,-,,,,,,,5.3,
Drumnadrochit,30/09/2019 17:00,9.2,,,,0,,78,,,-,,,,,,,5.6,
Drumnadrochit,30/09/2019 18:00,8.6,,,12.4,0,0,85,,,-,,,,,,,6.3,
Drumnadrochit,30/09/2019 19:00,8.3,,,,0,,85,,,-,,,,,,,6,
Drumnadrochit,30/09/2019 20:00,8.4,,,,0,,84,,,-,,,,,,,5.9,
Drumnadrochit,30/09/2019 21:00,8.1,,,,0,,80,,,-,,,,,,,4.9,
Drumnadrochit,30/09/2019 22:00,8,,,,0,,79,,,-,,,,,,,4.7,
Drumnadrochit,30/09/2019 23:00,7.7,,,,0,,79,,,-,,,,,,,4.4,
Drumnadrochit,01/10/2019 00:00,7.5,,,,0,0,80,,,-,,,,,,,4.3,
Drumnadrochit,01/10/2019 01:00,7.1,,,,0,,81,,,-,,,,,,,4.1,
Drumnadrochit,01/10/2019 02:00,6.8,,,,0,,86,,,-,,,,,,,4.7,
Drumnadrochit,01/10/2019 03:00,6.3,,,,0,,90,,,-,,,,,,,4.8,
Drumnadrochit,01/10/2019 04:00,5.9,,,,0,,91,,,-,,,,,,,4.7,
Drumnadrochit,01/10/2019 05:00,4.9,,,,0.2,,87,,,-,,,,,,,3,
Drumnadrochit,01/10/2019 06:00,4.6,,4.6,,0,0.2,87,,,-,,,,,,,2.7,
Drumnadrochit,01/10/2019 07:00,3,,,,0,,89,,,-,,,,,,,1.5,
Drumnadrochit,01/10/2019 08:00,2.8,,,,0,,94,,,-,,,,,,,2,
Drumnadrochit,01/10/2019 09:00,7.4,,,,0,,71,,,-,,,,,,,2.5,
Drumnadrochit,01/10/2019 10:00,8.7,,,,0,,64,,,-,,,,,,,2.3,
Drumnadrochit,01/10/2019 11:00,9.6,,,,0,,64,,,-,,,,,,,3.2,
Drumnadrochit,01/10/2019 12:00,10.4,,,,0,0,61,,,-,,,,,,,3.3,
Drumnadrochit,01/10/2019 13:00,8.6,,,,0.2,,76,,,-,,,,,,,4.8,
Drumnadrochit,01/10/2019 14:00,10.5,,,,0,,70,,,-,,,,,,,5.3,
Drumnadrochit,01/10/2019 15:00,9,,,,0.2,,80,,,-,,,,,,,5.9,
Drumnadrochit,01/10/2019 16:00,8,,,,0.6,,79,,,-,,,,,,,4.7,
Drumnadrochit,01/10/2019 17:00,8,,,,0,,76,,,-,,,,,,,4.2,
Drumnadrochit,01/10/2019 18:00,6.6,,,11.9,0,1,84,,,-,,,,,,,4.2,
Drumnadrochit,01/10/2019 19:00,5.1,,,,0.2,,88,,,-,,,,,,,3.4,
Drumnadrochit,01/10/2019 20:00,3.4,,,,0,,95,,,-,,,,,,,2.7,
Drumnadrochit,01/10/2019 21:00,2.8,,,,0,,96,,,-,,,,,,,2.3,
Drumnadrochit,01/10/2019 22:00,3.8,,,,0,,99,,,-,,,,,,,3.7,
Drumnadrochit,01/10/2019 23:00,1.5,,,,0,,94,,,-,,,,,,,0.7,
Drumnadrochit,02/10/2019 00:00,0.5,,,,0,0.2,96,,,-,,,,,,,0,
Drumnadrochit,02/10/2019 01:00,-0.2,,,,0,,98,,,-,,,,,,,-0.4,
Drumnadrochit,02/10/2019 02:00,0,,,,0,,100,,,-,,,,,,,0,
Drumnadrochit,02/10/2019 03:00,-0.1,,,,0,,100,,,-,,,,,,,-0.1,
Drumnadrochit,02/10/2019 04:00,0.3,,,,0,,100,,,-,,,,,,,0.3,
Drumnadrochit,02/10/2019 05:00,-0.2,,,,0,,100,,,-,,,,,,,-0.2,
Drumnadrochit,02/10/2019 06:00,0.1,,-0.8,,0,0,100,,,-,,,,,,,0.1,
Drumnadrochit,02/10/2019 07:00,0.5,,,,0,,100,,,-,,,,,,,0.5,
Drumnadrochit,02/10/2019 08:00,1.6,,,,0,,100,,,-,,,,,,,1.6,
Drumnadrochit,02/10/2019 20:00,7,,,,0,,92,,,-,,,,,,,5.9,
Drumnadrochit,02/10/2019 21:00,4.6,,,,0,,95,,,-,,,,,,,4,
Drumnadrochit,02/10/2019 22:00,2.8,,,,0,,96,,,-,,,,,,,2.3,
Drumnadrochit,02/10/2019 23:00,1.7,,,,0,,98,,,-,,,,,,,1.5,
Drumnadrochit,03/10/2019 00:00,0.3,,,,0,0,96,,,-,,,,,,,-0.2,
Drumnadrochit,03/10/2019 01:00,0.6,,,,0,,99,,,-,,,,,,,0.5,
Drumnadrochit,03/10/2019 02:00,-0.3,,,,0,,98,,,-,,,,,,,-0.5,
Drumnadrochit,03/10/2019 03:00,-0.8,,,,0,,99,,,-,,,,,,,-0.9,
Drumnadrochit,03/10/2019 04:00,-1.2,,,,0,,99,,,-,,,,,,,-1.3,
Drumnadrochit,03/10/2019 05:00,-1.6,,,,0,,99,,,-,,,,,,,-1.7,
Drumnadrochit,03/10/2019 06:00,-1.4,,-1.8,,0,0,99,,,-,,,,,,,-1.5,
Drumnadrochit,03/10/2019 07:00,-1.7,,,,0,,99,,,-,,,,,,,-1.8,
Drumnadrochit,03/10/2019 08:00,0.8,,,,0,,100,,,-,,,,,,,0.8,
Drumnadrochit,07/10/2019 08:00,12.2,,,,0.2,,75,,,-,,,,,,,8,
Drumnadrochit,07/10/2019 09:00,12.2,,,,0.2,,75,,,-,,,,,,,8,
Drumnadrochit,07/10/2019 10:00,12,,,,0,,80,,,-,,,,,,,8.7,
Drumnadrochit,07/10/2019 11:00,12.4,,,,0.2,,83,,,-,,,,,,,9.7,
Drumnadrochit,07/10/2019 12:00,12.1,,,,2,3,81,,,-,,,,,,,9.1,
Drumnadrochit,07/10/2019 13:00,12.9,,,,1.4,,79,,,-,,,,,,,9.4,
Drumnadrochit,07/10/2019 14:00,12.5,,,,0.8,,84,,,-,,,,,,,9.9,
Drumnadrochit,07/10/2019 15:00,11.4,,,,0.6,,79,,,-,,,,,,,8,
Drumnadrochit,07/10/2019 16:00,11,,,,0,,77,,,-,,,,,,,7.3,
Drumnadrochit,07/10/2019 17:00,10.1,,,,0,,86,,,-,,,,,,,8,
Drumnadrochit,07/10/2019 18:00,8.4,,,14.6,0,2,93,,,-,,,,,,,7.4,
Drumnadrochit,07/10/2019 19:00,6.9,,,,0.2,,98,,,-,,,,,,,6.7,
Drumnadrochit,07/10/2019 20:00,8.6,,,,2,,92,,,-,,,,,,,7.4,
Drumnadrochit,07/10/2019 21:00,8,,,,1.4,,96,,,-,,,,,,,7.5,
Drumnadrochit,07/10/2019 22:00,8.3,,,,0.8,,98,,,-,,,,,,,8.1,
Drumnadrochit,07/10/2019 23:00,9.9,,,,0.8,,90,,,-,,,,,,,8.4,
Drumnadrochit,08/10/2019 00:00,9.5,,,,0.2,5,90,,,-,,,,,,,8.1,
Drumnadrochit,08/10/2019 01:00,8.8,,,,0,,92,,,-,,,,,,,7.6,
Drumnadrochit,08/10/2019 02:00,8.6,,,,0.2,,96,,,-,,,,,,,8.1,
Drumnadrochit,08/10/2019 03:00,9.5,,,,0.2,,90,,,-,,,,,,,8,
Drumnadrochit,08/10/2019 04:00,8.3,,,,0.8,,91,,,-,,,,,,,7,
Drumnadrochit,08/10/2019 05:00,8.4,,,,0.2,,93,,,-,,,,,,,7.4,
Drumnadrochit,08/10/2019 06:00,7.4,,6.3,,0,2,92,,,-,,,,,,,6.3,
Drumnadrochit,08/10/2019 07:00,7.4,,,,0,,94,,,-,,,,,,,6.5,
Drumnadrochit,08/10/2019 08:00,8.5,,,,0.4,,90,,,-,,,,,,,7.1,
Drumnadrochit,08/10/2019 09:00,9.9,,,,0.2,,86,,,-,,,,,,,7.8,
Drumnadrochit,08/10/2019 10:00,10,,,,1.2,,89,,,-,,,,,,,8.3,
Drumnadrochit,08/10/2019 11:00,11.4,,,,0.8,,85,,,-,,,,,,,9,
Drumnadrochit,08/10/2019 12:00,11.1,,,,0.8,3,87,,,-,,,,,,,9.1,
Drumnadrochit,08/10/2019 13:00,11.3,,,,1.2,,84,,,-,,,,,,,8.8,
Drumnadrochit,08/10/2019 14:00,11,,,,1,,88,,,-,,,,,,,9.2,
Drumnadrochit,08/10/2019 15:00,11.4,,,,1.2,,87,,,-,,,,,,,9.4,
Drumnadrochit,08/10/2019 16:00,11.7,,,,0,,82,,,-,,,,,,,8.9,
Drumnadrochit,08/10/2019 17:00,10.8,,,,0,,82,,,-,,,,,,,8,
Drumnadrochit,08/10/2019 18:00,10.5,,,12.3,0.2,4,85,,,-,,,,,,,8.2,
Drumnadrochit,08/10/2019 19:00,9.5,,,,0,,87,,,-,,,,,,,7.5,
Drumnadrochit,08/10/2019 20:00,9.9,,,,0.4,,85,,,-,,,,,,,7.5,
Drumnadrochit,08/10/2019 21:00,9.2,,,,0.4,,88,,,-,,,,,,,7.4,
Drumnadrochit,08/10/2019 22:00,9.3,,,,0.2,,88,,,-,,,,,,,7.5,
Drumnadrochit,08/10/2019 23:00,9.4,,,,0,,88,,,-,,,,,,,7.6,
Drumnadrochit,09/10/2019 00:00,9.3,,,,0.4,1,90,,,-,,,,,,,7.8,
Drumnadrochit,09/10/2019 01:00,9,,,,0,,89,,,-,,,,,,,7.4,
Drumnadrochit,09/10/2019 02:00,9.8,,,,0.2,,86,,,-,,,,,,,7.7,
Drumnadrochit,09/10/2019 03:00,9.1,,,,0.6,,90,,,-,,,,,,,7.7,
Drumnadrochit,09/10/2019 04:00,8.9,,,,0.2,,92,,,-,,,,,,,7.8,
Drumnadrochit,09/10/2019 05:00,8.2,,,,0,,89,,,-,,,,,,,6.5,
Drumnadrochit,09/10/2019 06:00,9,,8.1,,0.2,2,89,,,-,,,,,,,7.4,
Drumnadrochit,09/10/2019 07:00,9.2,,,,0.2,,86,,,-,,,,,,,7,
Drumnadrochit,09/10/2019 08:00,9,,,,0,,84,,,-,,,,,,,6.6,
Drumnadrochit,09/10/2019 09:00,9.9,,,,0,,81,,,-,,,,,,,6.9,
Drumnadrochit,09/10/2019 10:00,10.5,,,,0,,84,,,-,,,,,,,8,
Drumnadrochit,09/10/2019 11:00,11.2,,,,0,,77,,,-,,,,,,,7.5,
Drumnadrochit,09/10/2019 12:00,11.3,,,,0,0.2,79,,,-,,,,,,,7.9,
Drumnadrochit,09/10/2019 13:00,12.1,,,,0,,75,,,-,,,,,,,8,
Drumnadrochit,09/10/2019 14:00,11.9,,,,0,,74,,,-,,,,,,,7.6,
Drumnadrochit,09/10/2019 15:00,11.9,,,,0,,70,,,-,,,,,,,6.7,
Drumnadrochit,09/10/2019 16:00,11.2,,,,0,,78,,,-,,,,,,,7.6,
Drumnadrochit,09/10/2019 17:00,10.8,,,,0,,81,,,-,,,,,,,7.8,
Drumnadrochit,09/10/2019 18:00,10.3,,,12.6,0,0,82,,,-,,,,,,,7.4,
Drumnadrochit,09/10/2019 19:00,10.5,,,,0,,82,,,-,,,,,,,7.7,
Drumnadrochit,09/10/2019 20:00,10.4,,,,0,,85,,,-,,,,,,,8,
Drumnadrochit,09/10/2019 21:00,10.6,,,,0.2,,85,,,-,,,,,,,8.2,
Drumnadrochit,09/10/2019 22:00,10.4,,,,1,,87,,,-,,,,,,,8.5,
Drumnadrochit,09/10/2019 23:00,10.1,,,,0,,87,,,-,,,,,,,8.2,
Drumnadrochit,10/10/2019 00:00,10,,,,0,1,88,,,-,,,,,,,8.2,
Drumnadrochit,10/10/2019 01:00,10.2,,,,0,,86,,,-,,,,,,,8,
Drumnadrochit,10/10/2019 02:00,8.4,,,,0.4,,94,,,-,,,,,,,7.6,
Drumnadrochit,10/10/2019 03:00,9.5,,,,0,,90,,,-,,,,,,,8,
Drumnadrochit,10/10/2019 04:00,8.8,,,,0.4,,96,,,-,,,,,,,8.2,
Drumnadrochit,10/10/2019 05:00,9.3,,,,0,,86,,,-,,,,,,,7.1,
Drumnadrochit,10/10/2019 06:00,8.5,,6.7,,0,1,89,,,-,,,,,,,6.9,
Drumnadrochit,10/10/2019 07:00,7.1,,,,0,,95,,,-,,,,,,,6.5,
Drumnadrochit,10/10/2019 08:00,7.4,,,,0,,97,,,-,,,,,,,7,
Drumnadrochit,10/10/2019 09:00,10.3,,,,0,,83,,,-,,,,,,,7.7,
Drumnadrochit,10/10/2019 10:00,12.8,,,,0,,64,,,-,,,,,,,6.3,
Drumnadrochit,10/10/2019 11:00,12,,,,0,,71,,,-,,,,,,,7,
Drumnadrochit,10/10/2019 12:00,11.8,,,,0,0,79,,,-,,,,,,,8.4,
Drumnadrochit,10/10/2019 13:00,11.5,,,,0,,82,,,-,,,,,,,8.6,
Drumnadrochit,10/10/2019 14:00,12,,,,0,,72,,,-,,,,,,,7.3,
Drumnadrochit,10/10/2019 15:00,11.7,,,,0,,77,,,-,,,,,,,7.9,
Drumnadrochit,10/10/2019 16:00,10.7,,,,0,,80,,,-,,,,,,,7.5,
Drumnadrochit,10/10/2019 17:00,9.4,,,,0.4,,90,,,-,,,,,,,8,
Drumnadrochit,10/10/2019 18:00,8.7,,,12.8,0.2,0.6,96,,,-,,,,,,,8.1,
Drumnadrochit,10/10/2019 19:00,8.7,,,,0.6,,97,,,-,,,,,,,8.4,
Drumnadrochit,10/10/2019 20:00,8.5,,,,0,,98,,,-,,,,,,,8.3,
Drumnadrochit,10/10/2019 21:00,8.7,,,,4.6,,98,,,-,,,,,,,8.5,
Drumnadrochit,10/10/2019 22:00,9.4,,,,5.4,,98,,,-,,,,,,,9.2,
Drumnadrochit,10/10/2019 23:00,8.6,,,,1.4,,96,,,-,,,,,,,8.1,
Drumnadrochit,11/10/2019 00:00,10.3,,,,0.6,13,92,,,-,,,,,,,9.1,
Drumnadrochit,11/10/2019 01:00,9.5,,,,0,,92,,,-,,,,,,,8.3,
Drumnadrochit,11/10/2019 02:00,8.2,,,,0.2,,98,,,-,,,,,,,8,
Drumnadrochit,11/10/2019 03:00,8.6,,,,0.4,,97,,,-,,,,,,,8.2,
Drumnadrochit,11/10/2019 04:00,9.2,,,,1,,97,,,-,,,,,,,8.8,
Drumnadrochit,11/10/2019 05:00,9.9,,,,2.2,,89,,,-,,,,,,,8.3,
Drumnadrochit,11/10/2019 06:00,10,,7.6,,1.4,5,87,,,-,,,,,,,8.1,
Drumnadrochit,11/10/2019 07:00,8.2,,,,1,,91,,,-,,,,,,,6.9,
Drumnadrochit,11/10/2019 08:00,10.1,,,,2,,89,,,-,,,,,,,8.4,
Drumnadrochit,11/10/2019 09:00,11,,,,0.6,,87,,,-,,,,,,,9,
Drumnadrochit,11/10/2019 10:00,10.8,,,,0,,82,,,-,,,,,,,8,
Drumnadrochit,11/10/2019 11:00,11.1,,,,0.4,,81,,,-,,,,,,,8,
Drumnadrochit,11/10/2019 12:00,11.5,,,,0.8,5,84,,,-,,,,,,,8.9,
Drumnadrochit,11/10/2019 13:00,12.6,,,,0,,73,,,-,,,,,,,8,
Drumnadrochit,11/10/2019 14:00,12.4,,,,0,,78,,,-,,,,,,,8.8,
Drumnadrochit,11/10/2019 15:00,11.2,,,,0.2,,80,,,-,,,,,,,7.9,
Drumnadrochit,11/10/2019 16:00,10.7,,,,0.2,,79,,,-,,,,,,,7.3,
Drumnadrochit,11/10/2019 17:00,10.1,,,,0,,82,,,-,,,,,,,7.3,
Drumnadrochit,11/10/2019 18:00,9.4,,,13,0,0,81,,,-,,,,,,,6.4,
Drumnadrochit,11/10/2019 19:00,8.4,,,,0,,84,,,-,,,,,,,6,
Drumnadrochit,11/10/2019 20:00,9.6,,,,0,,83,,,-,,,,,,,6.9,
Drumnadrochit,11/10/2019 21:00,8.7,,,,0,,92,,,-,,,,,,,7.6,
Drumnadrochit,11/10/2019 22:00,9.1,,,,0,,93,,,-,,,,,,,8.1,
Drumnadrochit,11/10/2019 23:00,8.7,,,,0.2,,92,,,-,,,,,,,7.6,
Drumnadrochit,12/10/2019 00:00,9.2,,,,0,0.2,80,,,-,,,,,,,6,
Drumnadrochit,12/10/2019 01:00,7.3,,,,0,,95,,,-,,,,,,,6.7,
Drumnadrochit,12/10/2019 02:00,7.2,,,,0,,95,,,-,,,,,,,6.6,
Drumnadrochit,12/10/2019 03:00,7.1,,,,0,,90,,,-,,,,,,,5.7,
Drumnadrochit,12/10/2019 04:00,6.1,,,,0,,96,,,-,,,,,,,5.6,
Drumnadrochit,12/10/2019 05:00,5.9,,,,0,,94,,,-,,,,,,,5.1,
Drumnadrochit,12/10/2019 06:00,5.2,,5.2,,0,0,95,,,-,,,,,,,4.6,
Drumnadrochit,12/10/2019 07:00,5.8,,,,0,,100,,,-,,,,,,,5.8,
Drumnadrochit,12/10/2019 08:00,7.8,,,,0,,90,,,-,,,,,,,6.3,
Drumnadrochit,12/10/2019 09:00,9.7,,,,0,,80,,,-,,,,,,,6.5,
Drumnadrochit,12/10/2019 10:00,9.9,,,,0,,77,,,-,,,,,,,6.2,
Drumnadrochit,12/10/2019 11:00,11.5,,,,0,,72,,,-,,,,,,,6.7,
Drumnadrochit,12/10/2019 12:00,12.7,,,,0,0,69,,,-,,,,,,,7.3,
Drumnadrochit,12/10/2019 13:00,11.9,,,,0,,70,,,-,,,,,,,6.8,
Drumnadrochit,12/10/2019 14:00,12.5,,,,0,,65,,,-,,,,,,,6.2,
Drumnadrochit,12/10/2019 15:00,12,,,,0,,66,,,-,,,,,,,6,
Drumnadrochit,12/10/2019 16:00,11.5,,,,0,,72,,,-,,,,,,,6.7,
Drumnadrochit,12/10/2019 17:00,9,,,,0,,80,,,-,,,,,,,5.9,
Drumnadrochit,12/10/2019 18:00,6.3,,,13.1,0,0,93,,,-,,,,,,,5.3,
Drumnadrochit,12/10/2019 19:00,6.5,,,,0,,93,,,-,,,,,,,5.6,
Drumnadrochit,12/10/2019 20:00,7.5,,,,0,,88,,,-,,,,,,,5.7,
Drumnadrochit,12/10/2019 21:00,6.9,,,,0,,87,,,-,,,,,,,5,
Drumnadrochit,12/10/2019 22:00,4.2,,,,0,,91,,,-,,,,,,,2.9,
Drumnadrochit,12/10/2019 23:00,3.3,,,,0,,97,,,-,,,,,,,3,
Drumnadrochit,13/10/2019 00:00,2.4,,,,0,0,97,,,-,,,,,,,2.1,
Drumnadrochit,13/10/2019 01:00,2.8,,,,0,,100,,,-,,,,,,,2.8,
Drumnadrochit,13/10/2019 02:00,2.4,,,,0,,99,,,-,,,,,,,2.3,
Drumnadrochit,13/10/2019 03:00,2,,,,0,,99,,,-,,,,,,,1.9,
Drumnadrochit,13/10/2019 04:00,2.1,,,,0,,100,,,-,,,,,,,2.1,
Drumnadrochit,13/10/2019 05:00,1.3,,,,0,,100,,,-,,,,,,,1.3,
Drumnadrochit,13/10/2019 06:00,1,,0.5,,0,0,100,,,-,,,,,,,1,
Drumnadrochit,13/10/2019 07:00,2.2,,,,0,,100,,,-,,,,,,,2.2,
Drumnadrochit,13/10/2019 08:00,1.7,,,,0,,100,,,-,,,,,,,1.7,
Drumnadrochit,13/10/2019 09:00,3.2,,,,0,,100,,,-,,,,,,,3.2,
Drumnadrochit,13/10/2019 10:00,6.4,,,,0,,100,,,-,,,,,,,6.4,
Drumnadrochit,13/10/2019 11:00,8.1,,,,0,,88,,,-,,,,,,,6.3,
Drumnadrochit,13/10/2019 12:00,8.9,,,,0,0,86,,,-,,,,,,,6.8,
Drumnadrochit,13/10/2019 13:00,10.1,,,,0,,79,,,-,,,,,,,6.7,
Drumnadrochit,13/10/2019 14:00,9.8,,,,0,,81,,,-,,,,,,,6.7,
Drumnadrochit,13/10/2019 15:00,10,,,,0,,85,,,-,,,,,,,7.7,
Drumnadrochit,13/10/2019 16:00,9.7,,,,0,,86,,,-,,,,,,,7.5,
Drumnadrochit,13/10/2019 17:00,9.2,,,,0,,89,,,-,,,,,,,7.5,
Drumnadrochit,13/10/2019 18:00,8.8,,,10.2,0,0,91,,,-,,,,,,,7.5,
Drumnadrochit,13/10/2019 19:00,8.8,,,,0,,90,,,-,,,,,,,7.3,
Drumnadrochit,13/10/2019 20:00,8.4,,,,0,,92,,,-,,,,,,,7.2,
Drumnadrochit,13/10/2019 21:00,8.1,,,,0,,95,,,-,,,,,,,7.4,
Drumnadrochit,13/10/2019 22:00,7.9,,,,0,,96,,,-,,,,,,,7.4,
Drumnadrochit,13/10/2019 23:00,7.6,,,,0.6,,97,,,-,,,,,,,7.3,
Drumnadrochit,14/10/2019 00:00,7.3,,,,0,0.6,97,,,-,,,,,,,7,
Drumnadrochit,14/10/2019 01:00,7.2,,,,0,,99,,,-,,,,,,,7.1,
Drumnadrochit,14/10/2019 02:00,6.6,,,,0,,97,,,-,,,,,,,6.3,
Drumnadrochit,14/10/2019 03:00,7.1,,,,0,,99,,,-,,,,,,,7,
Drumnadrochit,14/10/2019 04:00,7.1,,,,0,,100,,,-,,,,,,,7.1,
Drumnadrochit,14/10/2019 05:00,6.9,,,,0,,100,,,-,,,,,,,6.9,
Drumnadrochit,14/10/2019 06:00,6.1,,6.1,,0.2,0.2,99,,,-,,,,,,,6,
Drumnadrochit,14/10/2019 07:00,3.9,,,,0,,97,,,-,,,,,,,3.6,
Drumnadrochit,14/10/2019 08:00,5,,,,0,,100,,,-,,,,,,,5,
Drumnadrochit,14/10/2019 09:00,6.9,,,,0,,100,,,-,,,,,,,6.9,
Drumnadrochit,14/10/2019 10:00,9.6,,,,0,,87,,,-,,,,,,,7.7,
Drumnadrochit,14/10/2019 11:00,11.4,,,,0,,74,,,-,,,,,,,7.1,
Drumnadrochit,14/10/2019 12:00,12,,,,0,0,68,,,-,,,,,,,6.4,
Drumnadrochit,14/10/2019 13:00,12.6,,,,0,,69,,,-,,,,,,,7.1,
Drumnadrochit,14/10/2019 14:00,13.1,,,,0,,65,,,-,,,,,,,6.7,
Drumnadrochit,14/10/2019 15:00,12.1,,,,0,,74,,,-,,,,,,,7.8,
Drumnadrochit,14/10/2019 16:00,10.9,,,,0,,86,,,-,,,,,,,8.8,
Drumnadrochit,14/10/2019 17:00,9.8,,,,0,,90,,,-,,,,,,,8.3,
Drumnadrochit,14/10/2019 18:00,8.7,,,13.5,0,0,94,,,-,,,,,,,7.8,
Drumnadrochit,14/10/2019 19:00,7.7,,,,0,,95,,,-,,,,,,,7,
Drumnadrochit,14/10/2019 20:00,7,,,,0,,96,,,-,,,,,,,6.5,
Drumnadrochit,14/10/2019 21:00,7,,,,0,,99,,,-,,,,,,,6.9,
Drumnadrochit,14/10/2019 22:00,6.9,,,,0,,98,,,-,,,,,,,6.7,
Drumnadrochit,14/10/2019 23:00,6.7,,,,0,,98,,,-,,,,,,,6.5,
Drumnadrochit,15/10/2019 00:00,6.5,,,,0,0,98,,,-,,,,,,,6.3,
Drumnadrochit,15/10/2019 01:00,6.4,,,,0,,98,,,-,,,,,,,6.2,
Drumnadrochit,15/10/2019 02:00,6,,,,0,,98,,,-,,,,,,,5.8,
Drumnadrochit,15/10/2019 03:00,4.1,,,,0,,97,,,-,,,,,,,3.7,
Drumnadrochit,15/10/2019 04:00,3,,,,0,,99,,,-,,,,,,,2.9,
Drumnadrochit,15/10/2019 05:00,3.4,,,,0,,100,,,-,,,,,,,3.4,
Drumnadrochit,15/10/2019 06:00,4.2,,2.3,,0,0,100,,,-,,,,,,,4.2,
Drumnadrochit,15/10/2019 07:00,3.8,,,,0,,100,,,-,,,,,,,3.8,
Drumnadrochit,15/10/2019 08:00,4.2,,,,0,,100,,,-,,,,,,,4.2,
Drumnadrochit,15/10/2019 09:00,7.4,,,,0,,96,,,-,,,,,,,6.9,
Drumnadrochit,15/10/2019 10:00,10.1,,,,0,,82,,,-,,,,,,,7.2,
Drumnadrochit,15/10/2019 11:00,11.2,,,,0,,76,,,-,,,,,,,7.3,
Drumnadrochit,15/10/2019 12:00,12.8,,,,0,0,75,,,-,,,,,,,8.5,
Drumnadrochit,15/10/2019 13:00,13.6,,,,0,,64,,,-,,,,,,,7,
Drumnadrochit,15/10/2019 14:00,14,,,,0,,56,,,-,,,,,,,5.6,
Drumnadrochit,15/10/2019 15:00,13.1,,,,0,,66,,,-,,,,,,,6.9,
Drumnadrochit,15/10/2019 16:00,11.2,,,,0,,77,,,-,,,,,,,7.4,
Drumnadrochit,15/10/2019 17:00,7.3,,,,0,,87,,,-,,,,,,,5.4,
Drumnadrochit,15/10/2019 18:00,5.2,,,15.3,0,0,93,,,-,,,,,,,4.2,
Drumnadrochit,15/10/2019 19:00,4.1,,,,0,,97,,,-,,,,,,,3.7,
Drumnadrochit,15/10/2019 20:00,4.4,,,,0,,99,,,-,,,,,,,4.3,
Drumnadrochit,15/10/2019 21:00,4.5,,,,0,,100,,,-,,,,,,,4.5,
Drumnadrochit,15/10/2019 22:00,4.7,,,,0,,100,,,-,,,,,,,4.7,
Drumnadrochit,15/10/2019 23:00,4.6,,,,0,,100,,,-,,,,,,,4.6,
Drumnadrochit,16/10/2019 00:00,4.8,,,,0,0,100,,,-,,,,,,,4.8,
Drumnadrochit,16/10/2019 01:00,4.1,,,,0,,99,,,-,,,,,,,4,
Drumnadrochit,16/10/2019 02:00,5.3,,,,0,,100,,,-,,,,,,,5.3,
Drumnadrochit,16/10/2019 03:00,5.7,,,,0,,100,,,-,,,,,,,5.7,
Drumnadrochit,16/10/2019 04:00,7,,,,0,,100,,,-,,,,,,,7,
Drumnadrochit,16/10/2019 05:00,7.8,,,,0,,98,,,-,,,,,,,7.6,
Drumnadrochit,16/10/2019 06:00,8.2,,3.6,,0,0,98,,,-,,,,,,,8,
Drumnadrochit,16/10/2019 07:00,8.5,,,,0,,99,,,-,,,,,,,8.4,
Drumnadrochit,16/10/2019 08:00,8.7,,,,0.8,,100,,,-,,,,,,,8.7,
Drumnadrochit,16/10/2019 09:00,9.2,,,,0,,100,,,-,,,,,,,9.2,
Drumnadrochit,16/10/2019 10:00,10.4,,,,0.2,,99,,,-,,,,,,,10.3,
Drumnadrochit,16/10/2019 11:00,9.8,,,,0.4,,89,,,-,,,,,,,8.2,
Drumnadrochit,16/10/2019 12:00,9.8,,,,0.4,2,96,,,-,,,,,,,9.2,
Drumnadrochit,16/10/2019 13:00,10.8,,,,0,,88,,,-,,,,,,,8.9,
Drumnadrochit,16/10/2019 14:00,11.9,,,,0,,81,,,-,,,,,,,8.8,
Drumnadrochit,16/10/2019 15:00,10.7,,,,0,,87,,,-,,,,,,,8.7,
Drumnadrochit,16/10/2019 16:00,11.3,,,,0.2,,85,,,-,,,,,,,8.9,
Drumnadrochit,16/10/2019 17:00,7.1,,,,0,,93,,,-,,,,,,,6.2,
Drumnadrochit,16/10/2019 18:00,6.4,,,13,0,0,95,,,-,,,,,,,5.7,
Drumnadrochit,16/10/2019 19:00,3.8,,,,0,,92,,,-,,,,,,,2.7,
Drumnadrochit,16/10/2019 20:00,4.1,,,,0,,99,,,-,,,,,,,4,
Drumnadrochit,16/10/2019 21:00,2.8,,,,0,,97,,,-,,,,,,,2.4,
Drumnadrochit,16/10/2019 22:00,2.2,,,,0,,99,,,-,,,,,,,2.1,
Drumnadrochit,16/10/2019 23:00,2.2,,,,0,,100,,,-,,,,,,,2.2,
Drumnadrochit,17/10/2019 00:00,1.7,,,,0,0,99,,,-,,,,,,,1.6,
Drumnadrochit,17/10/2019 01:00,0.7,,,,0,,99,,,-,,,,,,,0.6,
Drumnadrochit,17/10/2019 02:00,-0.1,,,,0,,100,,,-,,,,,,,-0.1,
Drumnadrochit,17/10/2019 03:00,-0.5,,,,0,,99,,,-,,,,,,,-0.6,
Drumnadrochit,17/10/2019 04:00,-0.9,,,,0,,100,,,-,,,,,,,-0.9,
Drumnadrochit,17/10/2019 05:00,-1,,,,0,,100,,,-,,,,,,,-1,
Drumnadrochit,17/10/2019 06:00,-1,,-1.6,,0,0,100,,,-,,,,,,,-1,
Drumnadrochit,17/10/2019 07:00,-1.3,,,,0,,100,,,-,,,,,,,-1.3,
Drumnadrochit,17/10/2019 08:00,-1,,,,0,,100,,,-,,,,,,,-1,
Drumnadrochit,17/10/2019 09:00,2.5,,,,0.2,,100,,,-,,,,,,,2.5,
Drumnadrochit,17/10/2019 10:00,5.5,,,,0,,97,,,-,,,,,,,5.2,
Drumnadrochit,17/10/2019 11:00,6.7,,,,0,,92,,,-,,,,,,,5.6,
Drumnadrochit,17/10/2019 12:00,8.4,,,,0,0.2,88,,,-,,,,,,,6.6,
Drumnadrochit,17/10/2019 13:00,10.8,,,,0,,79,,,-,,,,,,,7.4,
Drumnadrochit,17/10/2019 14:00,11.1,,,,0,,71,,,-,,,,,,,6.2,
Drumnadrochit,17/10/2019 15:00,10.9,,,,0,,73,,,-,,,,,,,6.3,
Drumnadrochit,17/10/2019 16:00,9.6,,,,0,,83,,,-,,,,,,,6.9,
Drumnadrochit,17/10/2019 17:00,8.6,,,,0,,90,,,-,,,,,,,7.2,
Drumnadrochit,17/10/2019 18:00,7.6,,,11.5,0,0,92,,,-,,,,,,,6.5,
Drumnadrochit,17/10/2019 19:00,7.4,,,,0,,94,,,-,,,,,,,6.6,
Drumnadrochit,17/10/2019 20:00,7.1,,,,0,,95,,,-,,,,,,,6.5,
Drumnadrochit,17/10/2019 21:00,6.2,,,,0,,95,,,-,,,,,,,5.6,
Drumnadrochit,17/10/2019 22:00,5.2,,,,0,,97,,,-,,,,,,,4.8,
Drumnadrochit,17/10/2019 23:00,4,,,,0,,99,,,-,,,,,,,3.9,
Drumnadrochit,18/10/2019 00:00,4.3,,,,0,0,99,,,-,,,,,,,4.2,
Drumnadrochit,18/10/2019 01:00,4.2,,,,0,,100,,,-,,,,,,,4.2,
Drumnadrochit,18/10/2019 02:00,5.3,,,,0,,100,,,-,,,,,,,5.3,
Drumnadrochit,18/10/2019 03:00,5.7,,,,0,,100,,,-,,,,,,,5.7,
Drumnadrochit,18/10/2019 04:00,5,,,,0,,100,,,-,,,,,,,5,
Drumnadrochit,18/10/2019 05:00,3,,,,0,,97,,,-,,,,,,,2.7,
Drumnadrochit,18/10/2019 06:00,4.6,,3,,0,0,100,,,-,,,,,,,4.6,
Drumnadrochit,18/10/2019 07:00,3.7,,,,0,,99,,,-,,,,,,,3.6,
Drumnadrochit,18/10/2019 08:00,3.9,,,,0,,100,,,-,,,,,,,3.9,
Drumnadrochit,18/10/2019 09:00,5.1,,,,0,,100,,,-,,,,,,,5.1,
Drumnadrochit,18/10/2019 10:00,6.4,,,,0,,99,,,-,,,,,,,6.3,
Drumnadrochit,18/10/2019 11:00,8.5,,,,0,,96,,,-,,,,,,,7.9,
Drumnadrochit,18/10/2019 12:00,10.4,,,,0,0,85,,,-,,,,,,,8,
Drumnadrochit,18/10/2019 13:00,10.5,,,,0,,82,,,-,,,,,,,7.6,
Drumnadrochit,18/10/2019 14:00,11.4,,,,0,,77,,,-,,,,,,,7.6,
Drumnadrochit,18/10/2019 15:00,11.3,,,,0,,77,,,-,,,,,,,7.6,
Drumnadrochit,18/10/2019 16:00,10.8,,,,0,,82,,,-,,,,,,,7.9,
Drumnadrochit,18/10/2019 17:00,9.6,,,,0.4,,90,,,-,,,,,,,8.2,
Drumnadrochit,18/10/2019 18:00,9,,,11.9,0.8,1,94,,,-,,,,,,,8.1,
Drumnadrochit,18/10/2019 19:00,8.9,,,,3,,97,,,-,,,,,,,8.5,
Drumnadrochit,18/10/2019 20:00,8.8,,,,2.4,,98,,,-,,,,,,,8.6,
Drumnadrochit,18/10/2019 21:00,10.2,,,,1.4,,94,,,-,,,,,,,9.4,
Drumnadrochit,18/10/2019 22:00,10.3,,,,1.8,,92,,,-,,,,,,,9.2,
Drumnadrochit,18/10/2019 23:00,10,,,,0.6,,92,,,-,,,,,,,8.8,
Drumnadrochit,19/10/2019 00:00,9.2,,,,6.4,16,95,,,-,,,,,,,8.5,
Drumnadrochit,19/10/2019 01:00,9.1,,,,4.2,,95,,,-,,,,,,,8.4,
Drumnadrochit,19/10/2019 02:00,9.5,,,,1.4,,93,,,-,,,,,,,8.5,
Drumnadrochit,19/10/2019 03:00,9.5,,,,2.4,,92,,,-,,,,,,,8.3,
Drumnadrochit,19/10/2019 04:00,9,,,,1.4,,91,,,-,,,,,,,7.7,
Drumnadrochit,19/10/2019 05:00,8.5,,,,0,,90,,,-,,,,,,,7,
Drumnadrochit,19/10/2019 06:00,8.2,,8.2,,0,9,89,,,-,,,,,,,6.6,
Drumnadrochit,19/10/2019 07:00,7.8,,,,0,,87,,,-,,,,,,,5.8,
Drumnadrochit,19/10/2019 08:00,7.1,,,,0,,87,,,-,,,,,,,5.1,
Drumnadrochit,19/10/2019 09:00,7.4,,,,0,,87,,,-,,,,,,,5.4,
Drumnadrochit,19/10/2019 10:00,7.9,,,,0,,90,,,-,,,,,,,6.4,
Drumnadrochit,19/10/2019 11:00,9.1,,,,0,,87,,,-,,,,,,,7.2,
Drumnadrochit,19/10/2019 12:00,10.8,,,,0,0,78,,,-,,,,,,,7.2,
Drumnadrochit,19/10/2019 13:00,10.2,,,,0.2,,89,,,-,,,,,,,8.5,
Drumnadrochit,19/10/2019 14:00,9.3,,,,0.4,,90,,,-,,,,,,,7.8,
Drumnadrochit,19/10/2019 15:00,9.6,,,,0.2,,88,,,-,,,,,,,7.8,
Drumnadrochit,19/10/2019 16:00,9.4,,,,0,,87,,,-,,,,,,,7.4,
Drumnadrochit,19/10/2019 17:00,8.5,,,,0.8,,93,,,-,,,,,,,7.5,
Drumnadrochit,19/10/2019 18:00,8.4,,,11.2,0.2,2,91,,,-,,,,,,,7.1,
Drumnadrochit,19/10/2019 19:00,8.4,,,,0.2,,89,,,-,,,,,,,6.7,
Drumnadrochit,19/10/2019 20:00,8.4,,,,0.2,,89,,,-,,,,,,,6.8,
Drumnadrochit,19/10/2019 21:00,7.9,,,,0,,87,,,-,,,,,,,5.9,
Drumnadrochit,19/10/2019 22:00,7.5,,,,0,,82,,,-,,,,,,,4.8,
Drumnadrochit,19/10/2019 23:00,7,,,,0,,84,,,-,,,,,,,4.5,
Drumnadrochit,20/10/2019 00:00,6.8,,,,0,0.4,81,,,-,,,,,,,3.8,
Drumnadrochit,20/10/2019 01:00,7,,,,0,,75,,,-,,,,,,,3,
Drumnadrochit,20/10/2019 02:00,6.7,,,,0,,76,,,-,,,,,,,2.9,
Drumnadrochit,20/10/2019 03:00,6.6,,,,0.2,,79,,,-,,,,,,,3.3,
Drumnadrochit,20/10/2019 04:00,6.5,,,,0.2,,81,,,-,,,,,,,3.5,
Drumnadrochit,20/10/2019 05:00,6.8,,,,0,,78,,,-,,,,,,,3.3,
Drumnadrochit,20/10/2019 06:00,6.7,,6.4,,0,0.4,78,,,-,,,,,,,3.2,
Drumnadrochit,20/10/2019 07:00,6.6,,,,0,,79,,,-,,,,,,,3.3,
Drumnadrochit,20/10/2019 08:00,6.7,,,,0,,78,,,-,,,,,,,3.2,
Drumnadrochit,20/10/2019 09:00,7.2,,,,0,,76,,,-,,,,,,,3.4,
Drumnadrochit,20/10/2019 10:00,7.6,,,,0,,73,,,-,,,,,,,3.1,
Drumnadrochit,20/10/2019 11:00,8.3,,,,0,,71,,,-,,,,,,,3.5,
Drumnadrochit,20/10/2019 12:00,9,,,,0,0,71,,,-,,,,,,,4.1,
Drumnadrochit,20/10/2019 13:00,9.5,,,,0.4,,73,,,-,,,,,,,5.1,
Drumnadrochit,20/10/2019 14:00,9.8,,,,0,,62,,,-,,,,,,,2.9,
Drumnadrochit,20/10/2019 15:00,8.8,,,,0,,69,,,-,,,,,,,3.5,
Drumnadrochit,20/10/2019 16:00,8.6,,,,0,,73,,,-,,,,,,,4.2,
Drumnadrochit,20/10/2019 17:00,7,,,,0,,78,,,-,,,,,,,3.6,
Drumnadrochit,20/10/2019 18:00,4.4,,,10.1,0,0.4,87,,,-,,,,,,,2.5,
Drumnadrochit,20/10/2019 19:00,2.4,,,,0,,95,,,-,,,,,,,1.7,
Drumnadrochit,20/10/2019 20:00,1.3,,,,0,,97,,,-,,,,,,,0.9,
Drumnadrochit,20/10/2019 21:00,1.4,,,,0,,98,,,-,,,,,,,1.2,
Drumnadrochit,20/10/2019 22:00,-0.1,,,,0,,97,,,-,,,,,,,-0.5,
Drumnadrochit,20/10/2019 23:00,1.4,,,,0,,100,,,-,,,,,,,1.4,
Drumnadrochit,21/10/2019 00:00,1.9,,,,0,0,100,,,-,,,,,,,1.9,
Drumnadrochit,21/10/2019 01:00,2.9,,,,0,,99,,,-,,,,,,,2.8,
Drumnadrochit,21/10/2019 02:00,2.9,,,,0,,99,,,-,,,,,,,2.8,
Drumnadrochit,21/10/2019 03:00,3.1,,,,0,,99,,,-,,,,,,,3,
Drumnadrochit,21/10/2019 04:00,2.8,,,,0,,98,,,-,,,,,,,2.6,
Drumnadrochit,21/10/2019 05:00,0.8,,,,0,,95,,,-,,,,,,,0.2,
Drumnadrochit,21/10/2019 06:00,-0.8,,-0.8,,0,0,96,,,-,,,,,,,-1.3,
Drumnadrochit,21/10/2019 07:00,-1.2,,,,0,,98,,,-,,,,,,,-1.4,
Drumnadrochit,21/10/2019 08:00,-1,,,,0,,100,,,-,,,,,,,-1,
Drumnadrochit,22/10/2019 07:00,10.4,,,,0,,85,,,-,,,,,,,8.1,
Drumnadrochit,22/10/2019 08:00,10.9,,,,0,,82,,,-,,,,,,,8.1,
Drumnadrochit,22/10/2019 09:00,11.2,,,,0,,82,,,-,,,,,,,8.4,
Drumnadrochit,22/10/2019 10:00,11.5,,,,0,,81,,,-,,,,,,,8.5,
Drumnadrochit,22/10/2019 11:00,11.6,,,,0,,82,,,-,,,,,,,8.8,
Drumnadrochit,22/10/2019 12:00,11.5,,,,0,0,85,,,-,,,,,,,9.1,
Drumnadrochit,22/10/2019 13:00,12.5,,,,0,,79,,,-,,,,,,,9,
Drumnadrochit,22/10/2019 14:00,12.3,,,,0,,81,,,-,,,,,,,9.3,
Drumnadrochit,22/10/2019 15:00,12.3,,,,0,,80,,,-,,,,,,,9.1,
Drumnadrochit,22/10/2019 16:00,11.2,,,,0,,85,,,-,,,,,,,8.9,
Drumnadrochit,22/10/2019 17:00,11.4,,,,0,,84,,,-,,,,,,,8.8,
Drumnadrochit,22/10/2019 18:00,10.6,,,18.1,0,0,87,,,-,,,,,,,8.6,
Drumnadrochit,22/10/2019 19:00,10.5,,,,0.2,,86,,,-,,,,,,,8.3,
Drumnadrochit,22/10/2019 20:00,10.6,,,,0,,80,,,-,,,,,,,7.3,
Drumnadrochit,22/10/2019 21:00,10.4,,,,0,,83,,,-,,,,,,,7.8,
Drumnadrochit,22/10/2019 22:00,10.1,,,,0.2,,87,,,-,,,,,,,8.2,
Drumnadrochit,22/10/2019 23:00,10.2,,,,0.2,,89,,,-,,,,,,,8.5,
Drumnadrochit,23/10/2019 00:00,10.3,,,,0,0.6,87,,,-,,,,,,,8.3,
Drumnadrochit,23/10/2019 01:00,10.5,,,,0,,84,,,-,,,,,,,8,
Drumnadrochit,23/10/2019 02:00,10.6,,,,0,,82,,,-,,,,,,,7.8,
Drumnadrochit,23/10/2019 03:00,10.4,,,,0,,82,,,-,,,,,,,7.6,
Drumnadrochit,23/10/2019 04:00,10.8,,,,0,,80,,,-,,,,,,,7.6,
Drumnadrochit,23/10/2019 05:00,10.8,,,,0,,81,,,-,,,,,,,7.7,
Drumnadrochit,23/10/2019 06:00,10.6,,9.9,,0,0,82,,,-,,,,,,,7.8,
Drumnadrochit,23/10/2019 07:00,10.2,,,,0,,87,,,-,,,,,,,8.2,
Drumnadrochit,23/10/2019 08:00,10.2,,,,0,,86,,,-,,,,,,,8.1,
Drumnadrochit,23/10/2019 09:00,10.9,,,,0,,79,,,-,,,,,,,7.5,
Drumnadrochit,23/10/2019 10:00,11,,,,0,,79,,,-,,,,,,,7.6,
Drumnadrochit,23/10/2019 11:00,12.4,,,,0,,71,,,-,,,,,,,7.4,
Drumnadrochit,23/10/2019 12:00,13.3,,,,0,0,68,,,-,,,,,,,7.7,
Drumnadrochit,23/10/2019 13:00,13.3,,,,0,,67,,,-,,,,,,,7.4,
Drumnadrochit,23/10/2019 14:00,13.4,,,,0,,63,,,-,,,,,,,6.7,
Drumnadrochit,23/10/2019 15:00,13.5,,,,0,,62,,,-,,,,,,,6.5,
Drumnadrochit,23/10/2019 16:00,12.5,,,,0,,70,,,-,,,,,,,7.3,
Drumnadrochit,23/10/2019 17:00,11.8,,,,0,,74,,,-,,,,,,,7.5,
Drumnadrochit,23/10/2019 18:00,12,,,15.5,0,0,73,,,-,,,,,,,7.5,
Drumnadrochit,23/10/2019 19:00,11.4,,,,0,,79,,,-,,,,,,,8,
Drumnadrochit,23/10/2019 20:00,10.2,,,,0.2,,87,,,-,,,,,,,8.3,
Drumnadrochit,23/10/2019 21:00,11.5,,,,0,,81,,,-,,,,,,,8.5,
Drumnadrochit,23/10/2019 22:00,10.9,,,,0.8,,89,,,-,,,,,,,9.2,
Drumnadrochit,23/10/2019 23:00,11.5,,,,0,,81,,,-,,,,,,,8.4,
Drumnadrochit,24/10/2019 00:00,11.8,,,,0,1,76,,,-,,,,,,,7.8,
Drumnadrochit,24/10/2019 01:00,11.6,,,,0,,76,,,-,,,,,,,7.7,
Drumnadrochit,24/10/2019 02:00,10.7,,,,0.6,,87,,,-,,,,,,,8.7,
Drumnadrochit,24/10/2019 03:00,10.1,,,,1.2,,90,,,-,,,,,,,8.6,
Drumnadrochit,24/10/2019 04:00,9.5,,,,0.2,,89,,,-,,,,,,,7.9,
Drumnadrochit,24/10/2019 05:00,10.6,,,,0,,85,,,-,,,,,,,8.2,
Drumnadrochit,24/10/2019 06:00,9.9,,8.8,,0.8,3,85,,,-,,,,,,,7.6,
Drumnadrochit,24/10/2019 07:00,8.1,,,,0,,86,,,-,,,,,,,6,
Drumnadrochit,24/10/2019 08:00,6.3,,,,0,,96,,,-,,,,,,,5.8,
Drumnadrochit,24/10/2019 09:00,11,,,,0,,81,,,-,,,,,,,8,
Craibstone,01/09/2019 00:00,8.3,,,,0,0,85,,,-,,,,,,,6,
Craibstone,01/09/2019 01:00,8.5,,,,0,,83,,,-,,,,,,,5.9,
Craibstone,01/09/2019 02:00,9.4,,,,0,,78,,,-,,,,,,,5.8,
Craibstone,01/09/2019 03:00,9,,,,0,,81,,,-,,,,,,,6,
Craibstone,01/09/2019 04:00,8.9,,,,0,,82,,,-,,,,,,,6.1,
Craibstone,01/09/2019 05:00,9.3,,,,0,,79,,,-,,,,,,,5.9,
Craibstone,01/09/2019 06:00,10,,7.8,,0,0,79,,,-,,,,,,,6.6,
Craibstone,01/09/2019 07:00,10.3,,,,0,,82,,,-,,,,,,,7.4,
Craibstone,01/09/2019 08:00,10.9,,,,0,,79,,,-,,,,,,,7.5,
Craibstone,01/09/2019 09:00,11.7,,,,0,,77,,,-,,,,,,,7.9,
Craibstone,01/09/2019 10:00,12.8,,,,0,,71,,,-,,,,,,,7.8,
Craibstone,01/09/2019 11:00,13.2,,,,0,,68,,,-,,,,,,,7.5,
Craibstone,01/09/2019 12:00,13.6,,,,0,0,61,,,-,,,,,,,6.4,
Craibstone,01/09/2019 13:00,13.2,,,,0,,67,,,-,,,,,,,7.3,
Craibstone,01/09/2019 14:00,14.1,,,,0,,61,,,-,,,,,,,6.9,
Craibstone,01/09/2019 15:00,11,,,,0,,79,,,-,,,,,,,7.6,
Craibstone,01/09/2019 16:00,11.1,,,,0.2,,83,,,-,,,,,,,8.4,
Craibstone,01/09/2019 17:00,11.5,,,,0.4,,80,,,-,,,,,,,8.3,
Craibstone,01/09/2019 18:00,10.4,,,14.7,0.2,0.8,85,,,-,,,,,,,8.1,
Craibstone,01/09/2019 19:00,9.4,,,,0,,88,,,-,,,,,,,7.6,
Craibstone,01/09/2019 20:00,8.7,,,,0,,89,,,-,,,,,,,7.1,
Craibstone,01/09/2019 21:00,7.9,,,,0,,92,,,-,,,,,,,6.8,
Craibstone,01/09/2019 22:00,6.5,,,,0,,92,,,-,,,,,,,5.4,
Craibstone,01/09/2019 23:00,7.2,,,,0,,93,,,-,,,,,,,6.3,
Craibstone,02/09/2019 00:00,6.9,,,,0,0,93,,,-,,,,,,,5.9,
Craibstone,02/09/2019 01:00,7.7,,,,0,,84,,,-,,,,,,,5.2,
Craibstone,02/09/2019 02:00,7.3,,,,0,,84,,,-,,,,,,,4.8,
Craibstone,02/09/2019 03:00,7,,,,0,,87,,,-,,,,,,,5.1,
Craibstone,02/09/2019 04:00,4.6,,,,0,,90,,,-,,,,,,,3.2,
Craibstone,02/09/2019 05:00,4.8,,,,0,,94,,,-,,,,,,,4,
Craibstone,02/09/2019 06:00,7.1,,4.4,,0,0,84,,,-,,,,,,,4.6,
Craibstone,02/09/2019 07:00,8.1,,,,0,,85,,,-,,,,,,,5.8,
Craibstone,02/09/2019 08:00,10.6,,,,0,,75,,,-,,,,,,,6.4,
Craibstone,02/09/2019 09:00,11.3,,,,0,,80,,,-,,,,,,,8.1,
Craibstone,02/09/2019 10:00,10.5,,,,1.2,,91,,,-,,,,,,,9.1,
Craibstone,02/09/2019 11:00,10.8,,,,0.8,,95,,,-,,,,,,,10.1,
Craibstone,02/09/2019 12:00,11.8,,,,0,2,93,,,-,,,,,,,10.8,
Craibstone,02/09/2019 13:00,12.8,,,,0.4,,93,,,-,,,,,,,11.7,
Craibstone,02/09/2019 14:00,15,,,,0,,84,,,-,,,,,,,12.4,
Craibstone,02/09/2019 15:00,15.2,,,,0,,82,,,-,,,,,,,12.2,
Craibstone,02/09/2019 16:00,15.3,,,,0,,86,,,-,,,,,,,13,
Craibstone,02/09/2019 17:00,14.8,,,,0.2,,86,,,-,,,,,,,12.6,
Craibstone,02/09/2019 18:00,14.6,,,15.6,0,1,90,,,-,,,,,,,13.1,
Craibstone,02/09/2019 19:00,15.4,,,,0,,83,,,-,,,,,,,12.6,
Craibstone,02/09/2019 20:00,14.5,,,,0,,84,,,-,,,,,,,12,
Craibstone,02/09/2019 21:00,14.6,,,,0,,84,,,-,,,,,,,12.1,
Craibstone,02/09/2019 22:00,14.7,,,,0,,82,,,-,,,,,,,11.8,
Craibstone,02/09/2019 23:00,14.7,,,,0,,83,,,-,,,,,,,11.9,
Craibstone,03/09/2019 00:00,12.8,,,,0.4,0.4,87,,,-,,,,,,,10.8,
Craibstone,03/09/2019 01:00,11.5,,,,0.8,,96,,,-,,,,,,,10.9,
Craibstone,03/09/2019 02:00,10.7,,,,0.2,,94,,,-,,,,,,,9.9,
Craibstone,03/09/2019 03:00,10.4,,,,0,,95,,,-,,,,,,,9.7,
Craibstone,03/09/2019 04:00,10.3,,,,0,,96,,,-,,,,,,,9.7,
Craibstone,03/09/2019 05:00,10.1,,,,0,,96,,,-,,,,,,,9.6,
Craibstone,03/09/2019 06:00,10.3,,10.1,,0,0.6,97,,,-,,,,,,,9.9,
Craibstone,03/09/2019 07:00,10.6,,,,0,,96,,,-,,,,,,,10.1,
Craibstone,03/09/2019 08:00,11.4,,,,0,,92,,,-,,,,,,,10.3,
Craibstone,03/09/2019 09:00,12,,,,0,,89,,,-,,,,,,,10.4,
Craibstone,03/09/2019 10:00,12,,,,0,,86,,,-,,,,,,,9.9,
Craibstone,03/09/2019 11:00,13,,,,0,,90,,,-,,,,,,,11.4,
Craibstone,03/09/2019 12:00,12.9,,,,0,0,92,,,-,,,,,,,11.7,
Craibstone,03/09/2019 13:00,14.1,,,,0,,87,,,-,,,,,,,12,
Craibstone,03/09/2019 14:00,14.6,,,,0,,90,,,-,,,,,,,13,
Craibstone,03/09/2019 15:00,15.3,,,,0,,90,,,-,,,,,,,13.7,
Craibstone,03/09/2019 16:00,14.5,,,,0.4,,94,,,-,,,,,,,13.7,
Craibstone,03/09/2019 17:00,14.8,,,,0,,95,,,-,,,,,,,14.1,
Craibstone,03/09/2019 18:00,14.9,,,15.5,0,0.4,96,,,-,,,,,,,14.4,
Craibstone,03/09/2019 19:00,15.4,,,,0,,93,,,-,,,,,,,14.4,
Craibstone,03/09/2019 20:00,15.1,,,,0,,91,,,-,,,,,,,13.7,
Craibstone,03/09/2019 21:00,15,,,,0,,83,,,-,,,,,,,12.2,
Craibstone,03/09/2019 22:00,14.5,,,,0,,85,,,-,,,,,,,12.1,
Craibstone,03/09/2019 23:00,14,,,,0,,88,,,-,,,,,,,12.1,
Craibstone,04/09/2019 00:00,13.4,,,,0,0,91,,,-,,,,,,,12.1,
Craibstone,04/09/2019 01:00,13.4,,,,0.2,,90,,,-,,,,,,,11.9,
Craibstone,04/09/2019 02:00,12.9,,,,0,,91,,,-,,,,,,,11.6,
Craibstone,04/09/2019 03:00,12.1,,,,0,,81,,,-,,,,,,,9,
Craibstone,04/09/2019 04:00,11.5,,,,0,,80,,,-,,,,,,,8.3,
Craibstone,04/09/2019 05:00,10.2,,,,0,,82,,,-,,,,,,,7.4,
Craibstone,04/09/2019 06:00,9.7,,9.5,,0,0.2,79,,,-,,,,,,,6.4,
Craibstone,04/09/2019 07:00,10.6,,,,0,,75,,,-,,,,,,,6.4,
Craibstone,04/09/2019 08:00,11.6,,,,0,,71,,,-,,,,,,,6.7,
Craibstone,04/09/2019 09:00,12.8,,,,0,,66,,,-,,,,,,,6.7,
Craibstone,04/09/2019 10:00,14.1,,,,0,,65,,,-,,,,,,,7.7,
Craibstone,04/09/2019 11:00,13.3,,,,0,,67,,,-,,,,,,,7.5,
Craibstone,04/09/2019 12:00,15.2,,,,0,0,60,,,-,,,,,,,7.6,
Craibstone,04/09/2019 13:00,13,,,,0,,65,,,-,,,,,,,6.7,
Craibstone,04/09/2019 14:00,12.9,,,,0,,71,,,-,,,,,,,7.8,
Craibstone,04/09/2019 15:00,13.3,,,,0,,71,,,-,,,,,,,8.3,
Craibstone,04/09/2019 16:00,13.7,,,,0,,65,,,-,,,,,,,7.3,
Craibstone,04/09/2019 17:00,10.6,,,,0,,89,,,-,,,,,,,8.9,
Craibstone,04/09/2019 18:00,9.3,,,15.5,0.4,0.4,92,,,-,,,,,,,8.1,
Craibstone,04/09/2019 19:00,8.9,,,,0,,90,,,-,,,,,,,7.4,
Craibstone,04/09/2019 20:00,8.8,,,,0.2,,86,,,-,,,,,,,6.7,
Craibstone,04/09/2019 21:00,8.4,,,,0,,86,,,-,,,,,,,6.2,
Craibstone,04/09/2019 22:00,8.1,,,,0.4,,89,,,-,,,,,,,6.5,
Craibstone,04/09/2019 23:00,8.1,,,,0.8,,90,,,-,,,,,,,6.6,
Craibstone,05/09/2019 00:00,7.8,,,,0.8,2,89,,,-,,,,,,,6.2,
Craibstone,05/09/2019 01:00,8,,,,0.2,,83,,,-,,,,,,,5.3,
Craibstone,05/09/2019 02:00,8,,,,0,,80,,,-,,,,,,,4.9,
Craibstone,05/09/2019 03:00,7.8,,,,0,,79,,,-,,,,,,,4.5,
Craibstone,05/09/2019 04:00,7.3,,,,0,,78,,,-,,,,,,,3.9,
Craibstone,05/09/2019 05:00,6.9,,,,0,,82,,,-,,,,,,,4.1,
Craibstone,05/09/2019 06:00,6.8,,6.6,,0,0,83,,,-,,,,,,,4.2,
Craibstone,05/09/2019 07:00,8.4,,,,0,,79,,,-,,,,,,,5.1,
Craibstone,05/09/2019 08:00,9.9,,,,0,,74,,,-,,,,,,,5.5,
Craibstone,05/09/2019 09:00,10.3,,,,0,,73,,,-,,,,,,,5.7,
Craibstone,05/09/2019 10:00,10.5,,,,0,,75,,,-,,,,,,,6.4,
Craibstone,05/09/2019 11:00,12.1,,,,0,,73,,,-,,,,,,,7.6,
Craibstone,05/09/2019 12:00,12,,,,0,0,80,,,-,,,,,,,8.7,
Craibstone,05/09/2019 13:00,13.2,,,,0,,76,,,-,,,,,,,9.2,
Craibstone,05/09/2019 14:00,14.4,,,,0,,66,,,-,,,,,,,8.3,
Craibstone,05/09/2019 15:00,15.4,,,,0,,62,,,-,,,,,,,8.4,
Craibstone,05/09/2019 16:00,15.5,,,,0,,64,,,-,,,,,,,8.8,
Craibstone,05/09/2019 17:00,15.2,,,,0,,63,,,-,,,,,,,8.3,
Craibstone,05/09/2019 18:00,14.2,,,16.3,0,0,58,,,-,,,,,,,6.3,
Craibstone,05/09/2019 19:00,13.5,,,,0,,62,,,-,,,,,,,6.5,
Craibstone,05/09/2019 20:00,13.1,,,,0,,64,,,-,,,,,,,6.6,
Craibstone,05/09/2019 21:00,11.8,,,,0,,74,,,-,,,,,,,7.5,
Craibstone,05/09/2019 22:00,10.7,,,,0.6,,85,,,-,,,,,,,8.4,
Craibstone,05/09/2019 23:00,10.6,,,,0,,83,,,-,,,,,,,8,
Craibstone,06/09/2019 00:00,11.2,,,,0,0.6,80,,,-,,,,,,,7.9,
Craibstone,06/09/2019 01:00,10.9,,,,0,,85,,,-,,,,,,,8.5,
Craibstone,06/09/2019 02:00,11.2,,,,0,,86,,,-,,,,,,,9,
Craibstone,06/09/2019 03:00,11.2,,,,0.2,,88,,,-,,,,,,,9.4,
Craibstone,06/09/2019 04:00,11.6,,,,0,,88,,,-,,,,,,,9.7,
Craibstone,06/09/2019 05:00,11.4,,,,0.2,,85,,,-,,,,,,,9,
Craibstone,06/09/2019 06:00,10.9,,9.5,,0,0.4,80,,,-,,,,,,,7.7,
Craibstone,06/09/2019 07:00,12.3,,,,0,,72,,,-,,,,,,,7.6,
Craibstone,06/09/2019 08:00,11.2,,,,0,,73,,,-,,,,,,,6.7,
Craibstone,06/09/2019 09:00,11.9,,,,0,,72,,,-,,,,,,,7.1,
Craibstone,06/09/2019 10:00,12.4,,,,0,,67,,,-,,,,,,,6.5,
Craibstone,06/09/2019 11:00,14,,,,0,,63,,,-,,,,,,,7.2,
Craibstone,06/09/2019 12:00,14.6,,,,0,0,61,,,-,,,,,,,7.4,
Craibstone,06/09/2019 13:00,15.7,,,,0,,62,,,-,,,,,,,8.5,
Craibstone,06/09/2019 14:00,15.9,,,,0,,56,,,-,,,,,,,7.2,
Craibstone,06/09/2019 15:00,16,,,,0,,55,,,-,,,,,,,7.1,
Craibstone,06/09/2019 16:00,14.8,,,,0,,71,,,-,,,,,,,9.8,
Craibstone,06/09/2019 17:00,12.6,,,,0.2,,85,,,-,,,,,,,10.2,
Craibstone,06/09/2019 18:00,12,,,16.7,0.4,0.6,89,,,-,,,,,,,10.3,
Craibstone,06/09/2019 19:00,11.7,,,,0,,84,,,-,,,,,,,9.2,
Craibstone,06/09/2019 20:00,11.1,,,,0,,92,,,-,,,,,,,9.9,
Craibstone,06/09/2019 21:00,10.7,,,,0.2,,93,,,-,,,,,,,9.7,
Craibstone,06/09/2019 22:00,9.8,,,,0,,90,,,-,,,,,,,8.3,
Craibstone,06/09/2019 23:00,9.6,,,,0,,89,,,-,,,,,,,8,
Craibstone,07/09/2019 00:00,9.6,,,,0,0.2,87,,,-,,,,,,,7.7,
Craibstone,07/09/2019 01:00,9.3,,,,0,,87,,,-,,,,,,,7.3,
Craibstone,07/09/2019 02:00,8.2,,,,0,,83,,,-,,,,,,,5.6,
Craibstone,07/09/2019 03:00,8,,,,0,,81,,,-,,,,,,,5,
Craibstone,07/09/2019 04:00,8.1,,,,0,,85,,,-,,,,,,,5.8,
Craibstone,07/09/2019 05:00,7.8,,,,0,,90,,,-,,,,,,,6.4,
Craibstone,07/09/2019 06:00,7.9,,7.6,,0.2,0.2,94,,,-,,,,,,,7.1,
Craibstone,07/09/2019 07:00,8.6,,,,0,,90,,,-,,,,,,,7.2,
Craibstone,07/09/2019 08:00,9.7,,,,0,,83,,,-,,,,,,,7.1,
Craibstone,07/09/2019 09:00,9.8,,,,0,,84,,,-,,,,,,,7.3,
Craibstone,07/09/2019 10:00,11.6,,,,0,,74,,,-,,,,,,,7.2,
Craibstone,07/09/2019 11:00,11.8,,,,0,,67,,,-,,,,,,,5.9,
Craibstone,07/09/2019 12:00,12.6,,,,0,0,61,,,-,,,,,,,5.4,
Craibstone,07/09/2019 13:00,12.3,,,,0,,63,,,-,,,,,,,5.6,
Craibstone,07/09/2019 14:00,12.4,,,,0,,63,,,-,,,,,,,5.6,
Craibstone,07/09/2019 15:00,11.9,,,,0,,61,,,-,,,,,,,4.7,
Craibstone,07/09/2019 16:00,11.9,,,,0,,64,,,-,,,,,,,5.5,
Craibstone,07/09/2019 17:00,11.8,,,,0,,67,,,-,,,,,,,6,
Craibstone,07/09/2019 18:00,10.8,,,13,0,0,66,,,-,,,,,,,4.8,
Craibstone,07/09/2019 19:00,8.4,,,,0,,80,,,-,,,,,,,5.3,
Craibstone,07/09/2019 20:00,6.5,,,,0,,87,,,-,,,,,,,4.5,
Craibstone,07/09/2019 21:00,5.6,,,,0,,88,,,-,,,,,,,3.9,
Craibstone,07/09/2019 22:00,4.9,,,,0,,91,,,-,,,,,,,3.7,
Craibstone,07/09/2019 23:00,4,,,,0,,91,,,-,,,,,,,2.8,
Craibstone,08/09/2019 00:00,4.5,,,,0,0,93,,,-,,,,,,,3.5,
Craibstone,08/09/2019 01:00,4.9,,,,0,,91,,,-,,,,,,,3.6,
Craibstone,08/09/2019 02:00,3.8,,,,0,,92,,,-,,,,,,,2.7,
Craibstone,08/09/2019 03:00,5.3,,,,0,,97,,,-,,,,,,,4.9,
Craibstone,08/09/2019 04:00,4.6,,,,0,,95,,,-,,,,,,,4,
Craibstone,08/09/2019 05:00,3.3,,,,0,,96,,,-,,,,,,,2.8,
Craibstone,08/09/2019 06:00,3.6,,3.1,,0,0,98,,,-,,,,,,,3.4,
Craibstone,08/09/2019 07:00,5.4,,,,0,,98,,,-,,,,,,,5.2,
Craibstone,08/09/2019 08:00,9.1,,,,0,,87,,,-,,,,,,,7.2,
Craibstone,08/09/2019 09:00,11.1,,,,0,,78,,,-,,,,,,,7.5,
Craibstone,08/09/2019 10:00,12.7,,,,0,,75,,,-,,,,,,,8.4,
Craibstone,08/09/2019 11:00,12.9,,,,0,,75,,,-,,,,,,,8.7,
Craibstone,08/09/2019 12:00,12.7,,,,0,0,75,,,-,,,,,,,8.4,
Craibstone,08/09/2019 13:00,13.1,,,,0,,74,,,-,,,,,,,8.6,
Craibstone,08/09/2019 14:00,13.1,,,,0,,77,,,-,,,,,,,9.3,
Craibstone,08/09/2019 15:00,13.2,,,,0,,75,,,-,,,,,,,9,
Craibstone,08/09/2019 16:00,13.1,,,,0,,77,,,-,,,,,,,9.3,
Craibstone,08/09/2019 17:00,12.9,,,,0,,77,,,-,,,,,,,9,
Craibstone,08/09/2019 18:00,11.4,,,13.6,0,0,82,,,-,,,,,,,8.5,
Craibstone,08/09/2019 19:00,10.4,,,,0,,90,,,-,,,,,,,8.9,
Craibstone,08/09/2019 20:00,10.3,,,,0,,92,,,-,,,,,,,9.1,
Craibstone,08/09/2019 21:00,10.5,,,,0,,92,,,-,,,,,,,9.3,
Craibstone,08/09/2019 22:00,10.8,,,,0,,91,,,-,,,,,,,9.4,
Craibstone,08/09/2019 23:00,10.9,,,,0,,91,,,-,,,,,,,9.5,
Craibstone,09/09/2019 00:00,11.1,,,,0,0,92,,,-,,,,,,,9.9,
Craibstone,09/09/2019 01:00,11.3,,,,0,,93,,,-,,,,,,,10.3,
Craibstone,09/09/2019 02:00,11.3,,,,0,,93,,,-,,,,,,,10.3,
Craibstone,09/09/2019 03:00,11.3,,,,0,,94,,,-,,,,,,,10.5,
Craibstone,09/09/2019 04:00,11,,,,0.8,,94,,,-,,,,,,,10.2,
Craibstone,09/09/2019 05:00,10.7,,,,3.2,,97,,,-,,,,,,,10.3,
Craibstone,09/09/2019 06:00,10.3,,10.2,,2.4,6,96,,,-,,,,,,,9.8,
Craibstone,09/09/2019 07:00,10.6,,,,1.8,,97,,,-,,,,,,,10.2,
Craibstone,09/09/2019 08:00,10.5,,,,1,,96,,,-,,,,,,,9.9,
Craibstone,09/09/2019 09:00,11,,,,0.2,,94,,,-,,,,,,,10.2,
Craibstone,09/09/2019 10:00,11.5,,,,0,,94,,,-,,,,,,,10.6,
Craibstone,09/09/2019 11:00,12,,,,0,,92,,,-,,,,,,,10.8,
Craibstone,09/09/2019 12:00,12.9,,,,0,3,89,,,-,,,,,,,11.2,
Craibstone,09/09/2019 13:00,13.3,,,,0,,85,,,-,,,,,,,10.9,
Craibstone,09/09/2019 14:00,14,,,,0,,79,,,-,,,,,,,10.5,
Craibstone,09/09/2019 15:00,13.5,,,,0,,78,,,-,,,,,,,9.9,
Craibstone,09/09/2019 16:00,13.6,,,,0,,73,,,-,,,,,,,8.9,
Craibstone,09/09/2019 17:00,12.6,,,,0,,84,,,-,,,,,,,10,
Craibstone,09/09/2019 18:00,12.2,,,14.4,0,0,85,,,-,,,,,,,9.9,
Craibstone,09/09/2019 19:00,11.6,,,,0,,86,,,-,,,,,,,9.4,
Craibstone,09/09/2019 20:00,11,,,,0,,91,,,-,,,,,,,9.7,
Craibstone,09/09/2019 21:00,11,,,,0,,95,,,-,,,,,,,10.3,
Craibstone,09/09/2019 22:00,11.6,,,,0,,91,,,-,,,,,,,10.3,
Craibstone,09/09/2019 23:00,11.1,,,,0,,97,,,-,,,,,,,10.7,
Craibstone,10/09/2019 00:00,11,,,,0,0,96,,,-,,,,,,,10.5,
Craibstone,10/09/2019 01:00,10.8,,,,0,,93,,,-,,,,,,,9.8,
Craibstone,10/09/2019 02:00,10.6,,,,0,,91,,,-,,,,,,,9.3,
Craibstone,10/09/2019 03:00,10.4,,,,0,,92,,,-,,,,,,,9.2,
Craibstone,10/09/2019 04:00,10.4,,,,0,,92,,,-,,,,,,,9.2,
Craibstone,10/09/2019 05:00,10.4,,,,0,,90,,,-,,,,,,,8.9,
Craibstone,10/09/2019 06:00,10.3,,10.2,,0,0,89,,,-,,,,,,,8.7,
Craibstone,10/09/2019 07:00,10.5,,,,0,,86,,,-,,,,,,,8.4,
Craibstone,10/09/2019 08:00,11.3,,,,0,,82,,,-,,,,,,,8.4,
Craibstone,10/09/2019 09:00,12.1,,,,0,,81,,,-,,,,,,,9,
Craibstone,10/09/2019 10:00,13.3,,,,0,,69,,,-,,,,,,,7.9,
Craibstone,10/09/2019 11:00,15.2,,,,0,,61,,,-,,,,,,,7.9,
Craibstone,10/09/2019 12:00,14.6,,,,0,0,70,,,-,,,,,,,9.2,
Craibstone,10/09/2019 13:00,15.1,,,,0,,71,,,-,,,,,,,10,
Craibstone,10/09/2019 14:00,14.8,,,,0,,71,,,-,,,,,,,9.8,
Craibstone,10/09/2019 15:00,14.9,,,,0,,74,,,-,,,,,,,10.5,
Craibstone,10/09/2019 16:00,13.4,,,,0,,80,,,-,,,,,,,10.2,
Craibstone,10/09/2019 17:00,12.9,,,,0,,86,,,-,,,,,,,10.7,
Craibstone,10/09/2019 18:00,13.2,,,15.8,0,0,70,,,-,,,,,,,8,
Craibstone,10/09/2019 19:00,12.2,,,,0,,70,,,-,,,,,,,7,
Craibstone,10/09/2019 20:00,10.5,,,,0.8,,89,,,-,,,,,,,8.9,
Craibstone,10/09/2019 21:00,10.3,,,,3.6,,94,,,-,,,,,,,9.4,
Craibstone,10/09/2019 22:00,10.4,,,,4,,95,,,-,,,,,,,9.7,
Craibstone,10/09/2019 23:00,11,,,,1.4,,95,,,-,,,,,,,10.3,
Craibstone,11/09/2019 00:00,11.4,,,,0.4,10,95,,,-,,,,,,,10.7,
Craibstone,11/09/2019 01:00,11.9,,,,0,,94,,,-,,,,,,,11,
Craibstone,11/09/2019 02:00,13,,,,0,,91,,,-,,,,,,,11.7,
Craibstone,11/09/2019 03:00,13.3,,,,0,,91,,,-,,,,,,,11.9,
Craibstone,11/09/2019 04:00,12.9,,,,0,,94,,,-,,,,,,,12,
Craibstone,11/09/2019 05:00,13.7,,,,0,,93,,,-,,,,,,,12.6,
Craibstone,11/09/2019 06:00,13.6,,10.2,,0,0,76,,,-,,,,,,,9.6,
Craibstone,11/09/2019 07:00,13.7,,,,0,,74,,,-,,,,,,,9.2,
Craibstone,11/09/2019 08:00,14.6,,,,0,,73,,,-,,,,,,,10,
Craibstone,11/09/2019 09:00,15.5,,,,0,,66,,,-,,,,,,,9.4,
Craibstone,11/09/2019 10:00,15.4,,,,0,,64,,,-,,,,,,,8.7,
Craibstone,11/09/2019 11:00,16.2,,,,0,,60,,,-,,,,,,,8.6,
Craibstone,11/09/2019 12:00,15.8,,,,0,0,61,,,-,,,,,,,8.5,
Craibstone,11/09/2019 13:00,16.2,,,,0,,61,,,-,,,,,,,8.7,
Craibstone,11/09/2019 14:00,17.3,,,,0,,53,,,-,,,,,,,7.8,
Craibstone,11/09/2019 15:00,17.5,,,,0,,55,,,-,,,,,,,8.4,
Craibstone,11/09/2019 16:00,17,,,,0,,59,,,-,,,,,,,9,
Craibstone,11/09/2019 17:00,16.2,,,,0,,55,,,-,,,,,,,7.2,
Craibstone,11/09/2019 18:00,15.1,,,17.8,0,0,62,,,-,,,,,,,8.1,
Craibstone,11/09/2019 19:00,13.9,,,,0,,65,,,-,,,,,,,7.6,
Craibstone,11/09/2019 20:00,13.3,,,,0,,67,,,-,,,,,,,7.5,
Craibstone,11/09/2019 21:00,12,,,,0,,76,,,-,,,,,,,8,
Craibstone,11/09/2019 22:00,11.4,,,,0,,77,,,-,,,,,,,7.7,
Craibstone,11/09/2019 23:00,11.5,,,,0,,76,,,-,,,,,,,7.6,
Craibstone,12/09/2019 00:00,11,,,,0,0,81,,,-,,,,,,,7.9,
Craibstone,12/09/2019 01:00,9.8,,,,0,,86,,,-,,,,,,,7.7,
Craibstone,12/09/2019 02:00,11.3,,,,0,,81,,,-,,,,,,,8.2,
Craibstone,12/09/2019 03:00,10.1,,,,0,,85,,,-,,,,,,,7.8,
Craibstone,12/09/2019 04:00,10.7,,,,0,,85,,,-,,,,,,,8.4,
Craibstone,12/09/2019 05:00,10.3,,,,0,,87,,,-,,,,,,,8.3,
Craibstone,12/09/2019 06:00,10.7,,9.2,,0,0,88,,,-,,,,,,,8.9,
Craibstone,12/09/2019 07:00,11.4,,,,0,,84,,,-,,,,,,,8.9,
Craibstone,12/09/2019 08:00,12,,,,0,,81,,,-,,,,,,,9,
Craibstone,12/09/2019 09:00,12.4,,,,0,,80,,,-,,,,,,,9.2,
Craibstone,12/09/2019 10:00,13.1,,,,0,,79,,,-,,,,,,,9.7,
Craibstone,12/09/2019 11:00,13.9,,,,0,,76,,,-,,,,,,,9.9,
Craibstone,12/09/2019 12:00,14.1,,,,0,0,78,,,-,,,,,,,10.4,
Craibstone,12/09/2019 13:00,14.5,,,,0,,82,,,-,,,,,,,11.5,
Craibstone,12/09/2019 14:00,15.9,,,,0,,74,,,-,,,,,,,11.4,
Craibstone,12/09/2019 15:00,15,,,,0,,72,,,-,,,,,,,10.2,
Craibstone,12/09/2019 16:00,15.8,,,,0,,62,,,-,,,,,,,8.6,
Craibstone,12/09/2019 17:00,15.3,,,,0,,60,,,-,,,,,,,7.6,
Craibstone,12/09/2019 18:00,14,,,16.6,0,0,61,,,-,,,,,,,6.8,
Craibstone,12/09/2019 19:00,12.4,,,,0,,66,,,-,,,,,,,6.3,
Craibstone,12/09/2019 20:00,10.8,,,,0,,71,,,-,,,,,,,5.9,
Craibstone,12/09/2019 21:00,10.7,,,,0,,74,,,-,,,,,,,6.4,
Craibstone,12/09/2019 22:00,10.6,,,,0,,68,,,-,,,,,,,5.1,
Craibstone,12/09/2019 23:00,9.4,,,,0,,73,,,-,,,,,,,4.9,
Craibstone,13/09/2019 00:00,9.4,,,,0,0,72,,,-,,,,,,,4.8,
Craibstone,13/09/2019 01:00,8.4,,,,0,,75,,,-,,,,,,,4.4,
Craibstone,13/09/2019 02:00,8.8,,,,0,,75,,,-,,,,,,,4.7,
Craibstone,13/09/2019 03:00,8.9,,,,0,,73,,,-,,,,,,,4.5,
Craibstone,13/09/2019 04:00,8.1,,,,0,,77,,,-,,,,,,,4.4,
Craibstone,13/09/2019 05:00,8.1,,,,0,,78,,,-,,,,,,,4.6,
Craibstone,13/09/2019 06:00,8.6,,7.8,,0,0,77,,,-,,,,,,,4.9,
Craibstone,13/09/2019 07:00,10.3,,,,0,,70,,,-,,,,,,,5.2,
Craibstone,13/09/2019 08:00,12.2,,,,0,,58,,,-,,,,,,,4.4,
Craibstone,13/09/2019 09:00,11.7,,,,0,,67,,,-,,,,,,,5.9,
Craibstone,13/09/2019 10:00,13.8,,,,0,,59,,,-,,,,,,,6.1,
Craibstone,13/09/2019 11:00,14.9,,,,0,,49,,,-,,,,,,,4.4,
Craibstone,13/09/2019 12:00,15.9,,,,0,0,48,,,-,,,,,,,5.1,
Craibstone,13/09/2019 13:00,16.1,,,,0,,44,,,-,,,,,,,4.1,
Craibstone,13/09/2019 14:00,15.9,,,,0,,44,,,-,,,,,,,3.7,
Craibstone,13/09/2019 15:00,15.9,,,,0,,45,,,-,,,,,,,4.2,
Craibstone,13/09/2019 16:00,16.5,,,,0,,44,,,-,,,,,,,4.4,
Craibstone,13/09/2019 17:00,15.6,,,,0,,47,,,-,,,,,,,4.6,
Craibstone,13/09/2019 18:00,14,,,16.7,0,0,51,,,-,,,,,,,4.2,
Craibstone,13/09/2019 19:00,11.9,,,,0,,62,,,-,,,,,,,5,
Craibstone,13/09/2019 20:00,11.6,,,,0,,63,,,-,,,,,,,5,
Craibstone,13/09/2019 21:00,11.9,,,,0,,64,,,-,,,,,,,5.5,
Craibstone,13/09/2019 22:00,11.4,,,,0,,68,,,-,,,,,,,5.8,
Craibstone,13/09/2019 23:00,10.7,,,,0,,72,,,-,,,,,,,5.9,
Craibstone,14/09/2019 00:00,11.3,,,,0,0,69,,,-,,,,,,,6,
Craibstone,14/09/2019 01:00,10.6,,,,0,,75,,,-,,,,,,,6.4,
Craibstone,14/09/2019 02:00,10.5,,,,0,,76,,,-,,,,,,,6.6,
Craibstone,14/09/2019 03:00,10.2,,,,0,,77,,,-,,,,,,,6.5,
Craibstone,14/09/2019 04:00,10.6,,,,0,,75,,,-,,,,,,,6.4,
Craibstone,14/09/2019 05:00,10.5,,,,0,,75,,,-,,,,,,,6.4,
Craibstone,14/09/2019 06:00,10.8,,10.1,,0,0,76,,,-,,,,,,,6.8,
Craibstone,14/09/2019 07:00,10.8,,,,0.2,,87,,,-,,,,,,,8.8,
Craibstone,14/09/2019 08:00,10.9,,,,0,,87,,,-,,,,,,,8.9,
Craibstone,14/09/2019 09:00,11.6,,,,0,,82,,,-,,,,,,,8.8,
Craibstone,14/09/2019 10:00,12.5,,,,0,,78,,,-,,,,,,,8.8,
Craibstone,14/09/2019 11:00,13.4,,,,0,,73,,,-,,,,,,,8.8,
Craibstone,14/09/2019 12:00,14,,,,0,0.2,72,,,-,,,,,,,9.2,
Craibstone,14/09/2019 13:00,14.2,,,,0,,71,,,-,,,,,,,9.2,
Craibstone,14/09/2019 14:00,14.3,,,,0,,72,,,-,,,,,,,9.5,
Craibstone,14/09/2019 15:00,14.9,,,,0,,71,,,-,,,,,,,9.7,
Craibstone,14/09/2019 16:00,15,,,,0,,70,,,-,,,,,,,9.7,
Craibstone,14/09/2019 17:00,14.6,,,,0,,73,,,-,,,,,,,10,
Craibstone,14/09/2019 18:00,14.6,,,15.5,0,0,77,,,-,,,,,,,10.7,
Craibstone,14/09/2019 19:00,13.9,,,,0,,83,,,-,,,,,,,11.2,
Craibstone,14/09/2019 20:00,13.6,,,,0.2,,91,,,-,,,,,,,12.2,
Craibstone,14/09/2019 21:00,13.5,,,,0.8,,95,,,-,,,,,,,12.8,
Craibstone,14/09/2019 22:00,13.3,,,,0,,85,,,-,,,,,,,10.9,
Craibstone,14/09/2019 23:00,12.7,,,,0,,75,,,-,,,,,,,8.5,
Craibstone,15/09/2019 00:00,12.5,,,,0,1,62,,,-,,,,,,,5.5,
Craibstone,15/09/2019 01:00,12,,,,0,,62,,,-,,,,,,,5.1,
Craibstone,15/09/2019 02:00,11.9,,,,0,,60,,,-,,,,,,,4.6,
Craibstone,15/09/2019 03:00,10.5,,,,0,,63,,,-,,,,,,,3.9,
Craibstone,15/09/2019 04:00,10.6,,,,0,,65,,,-,,,,,,,4.5,
Craibstone,15/09/2019 05:00,10.4,,,,0,,63,,,-,,,,,,,3.7,
Craibstone,15/09/2019 06:00,9.9,,9.8,,0,0,63,,,-,,,,,,,3.4,
Craibstone,15/09/2019 07:00,10.3,,,,0,,62,,,-,,,,,,,3.5,
Craibstone,15/09/2019 08:00,10.9,,,,0,,58,,,-,,,,,,,3,
Craibstone,15/09/2019 09:00,11.1,,,,0,,60,,,-,,,,,,,3.7,
Craibstone,15/09/2019 10:00,11.2,,,,0,,60,,,-,,,,,,,3.9,
Craibstone,15/09/2019 11:00,11.5,,,,0,,60,,,-,,,,,,,4.2,
Craibstone,15/09/2019 12:00,12.3,,,,0,0,57,,,-,,,,,,,4.1,
Craibstone,15/09/2019 13:00,14.1,,,,0,,53,,,-,,,,,,,4.7,
Craibstone,15/09/2019 14:00,14.8,,,,0,,47,,,-,,,,,,,3.8,
Craibstone,15/09/2019 15:00,14.9,,,,0,,51,,,-,,,,,,,5,
Craibstone,15/09/2019 16:00,14.2,,,,0,,49,,,-,,,,,,,3.9,
Craibstone,15/09/2019 17:00,12.7,,,,0,,55,,,-,,,,,,,4,
Craibstone,15/09/2019 18:00,12.3,,,15.2,0,0,59,,,-,,,,,,,4.6,
Craibstone,15/09/2019 19:00,11.1,,,,0,,64,,,-,,,,,,,4.7,
Craibstone,15/09/2019 20:00,9.3,,,,0,,70,,,-,,,,,,,4.3,
Craibstone,15/09/2019 21:00,9.1,,,,0,,68,,,-,,,,,,,3.7,
Craibstone,15/09/2019 22:00,7.6,,,,0,,73,,,-,,,,,,,3.2,
Craibstone,15/09/2019 23:00,7.2,,,,0,,76,,,-,,,,,,,3.4,
Craibstone,16/09/2019 00:00,7.1,,,,0,0,74,,,-,,,,,,,2.9,
Craibstone,16/09/2019 01:00,7.6,,,,0,,73,,,-,,,,,,,3.2,
Craibstone,16/09/2019 02:00,6,,,,0,,76,,,-,,,,,,,2.2,
Craibstone,16/09/2019 03:00,6.5,,,,0,,76,,,-,,,,,,,2.6,
Craibstone,16/09/2019 04:00,5.9,,,,0,,79,,,-,,,,,,,2.7,
Craibstone,16/09/2019 05:00,6.2,,,,0,,77,,,-,,,,,,,2.6,
Craibstone,16/09/2019 06:00,6,,5.3,,0,0,79,,,-,,,,,,,2.8,
Craibstone,16/09/2019 07:00,7.6,,,,0,,78,,,-,,,,,,,4.1,
Craibstone,16/09/2019 08:00,9.7,,,,0,,70,,,-,,,,,,,4.6,
Craibstone,16/09/2019 09:00,11.6,,,,0,,67,,,-,,,,,,,5.8,
Craibstone,16/09/2019 10:00,12.5,,,,0,,56,,,-,,,,,,,4.2,
Craibstone,16/09/2019 11:00,13.8,,,,0,,56,,,-,,,,,,,5.3,
Craibstone,16/09/2019 12:00,14.3,,,,0,0,56,,,-,,,,,,,5.9,
Craibstone,16/09/2019 13:00,13.5,,,,0,,62,,,-,,,,,,,6.6,
Craibstone,16/09/2019 14:00,14,,,,0,,61,,,-,,,,,,,6.8,
Craibstone,16/09/2019 15:00,14.8,,,,0,,55,,,-,,,,,,,5.9,
Craibstone,16/09/2019 16:00,13.7,,,,0,,61,,,-,,,,,,,6.4,
Craibstone,16/09/2019 17:00,12.1,,,,0,,73,,,-,,,,,,,7.6,
Craibstone,16/09/2019 18:00,11.5,,,15.2,0,0,74,,,-,,,,,,,7.1,
Craibstone,16/09/2019 19:00,11.1,,,,0,,73,,,-,,,,,,,6.5,
Craibstone,16/09/2019 20:00,9.3,,,,0,,87,,,-,,,,,,,7.4,
Craibstone,16/09/2019 21:00,8.2,,,,0,,89,,,-,,,,,,,6.6,
Craibstone,16/09/2019 22:00,8.8,,,,0,,74,,,-,,,,,,,4.6,
Craibstone,16/09/2019 23:00,7.7,,,,0,,76,,,-,,,,,,,3.8,
Craibstone,17/09/2019 00:00,8.4,,,,0,0,74,,,-,,,,,,,4.2,
Craibstone,17/09/2019 01:00,7.9,,,,0,,76,,,-,,,,,,,4,
Craibstone,17/09/2019 02:00,7.6,,,,0,,76,,,-,,,,,,,3.7,
Craibstone,17/09/2019 03:00,7,,,,0,,80,,,-,,,,,,,3.8,
Craibstone,17/09/2019 04:00,7.3,,,,0,,72,,,-,,,,,,,2.6,
Craibstone,17/09/2019 05:00,6.9,,,,0,,72,,,-,,,,,,,2.4,
Craibstone,17/09/2019 06:00,7.4,,6.8,,0,0,72,,,-,,,,,,,2.8,
Craibstone,17/09/2019 07:00,8.1,,,,0,,73,,,-,,,,,,,3.6,
Craibstone,17/09/2019 08:00,9.3,,,,0,,69,,,-,,,,,,,4,
Craibstone,17/09/2019 09:00,10.3,,,,0,,67,,,-,,,,,,,4.5,
Craibstone,17/09/2019 10:00,11.1,,,,0,,65,,,-,,,,,,,4.8,
Craibstone,17/09/2019 11:00,12,,,,0,,56,,,-,,,,,,,3.7,
Craibstone,17/09/2019 12:00,12,,,,0,0,55,,,-,,,,,,,3.5,
Craibstone,17/09/2019 13:00,12.1,,,,0,,59,,,-,,,,,,,4.5,
Craibstone,17/09/2019 14:00,12.7,,,,0,,58,,,-,,,,,,,4.8,
Craibstone,17/09/2019 15:00,12.2,,,,0,,56,,,-,,,,,,,3.8,
Craibstone,17/09/2019 16:00,11.6,,,,0,,63,,,-,,,,,,,5,
Craibstone,17/09/2019 17:00,10.8,,,,0,,67,,,-,,,,,,,5.1,
Craibstone,17/09/2019 18:00,10.3,,,13.1,0,0,70,,,-,,,,,,,5.2,
Craibstone,17/09/2019 19:00,10,,,,0,,73,,,-,,,,,,,5.4,
Craibstone,17/09/2019 20:00,9.3,,,,0,,79,,,-,,,,,,,6,
Craibstone,17/09/2019 21:00,9,,,,0,,80,,,-,,,,,,,5.8,
Craibstone,17/09/2019 22:00,8.8,,,,0,,80,,,-,,,,,,,5.7,
Craibstone,17/09/2019 23:00,8.5,,,,0,,81,,,-,,,,,,,5.5,
Craibstone,18/09/2019 00:00,8.6,,,,0,0,81,,,-,,,,,,,5.6,
Craibstone,18/09/2019 01:00,8.5,,,,0,,83,,,-,,,,,,,5.8,
Craibstone,18/09/2019 02:00,8.6,,,,0,,81,,,-,,,,,,,5.6,
Craibstone,18/09/2019 03:00,8.3,,,,0,,81,,,-,,,,,,,5.4,
Craibstone,18/09/2019 04:00,8.6,,,,0,,74,,,-,,,,,,,4.3,
Craibstone,18/09/2019 05:00,8.3,,,,0,,78,,,-,,,,,,,4.8,
Craibstone,18/09/2019 06:00,7.4,,7.4,,0,0,91,,,-,,,,,,,6.1,
Craibstone,18/09/2019 07:00,7.8,,,,0.2,,94,,,-,,,,,,,6.9,
Craibstone,18/09/2019 08:00,9.1,,,,0,,87,,,-,,,,,,,7.1,
Craibstone,18/09/2019 09:00,9.5,,,,0,,83,,,-,,,,,,,6.9,
Craibstone,18/09/2019 10:00,9.9,,,,0,,82,,,-,,,,,,,7.1,
Craibstone,18/09/2019 11:00,11.4,,,,0,,85,,,-,,,,,,,9.1,
Craibstone,18/09/2019 12:00,11.3,,,,0,0.2,86,,,-,,,,,,,9.2,
Craibstone,18/09/2019 13:00,11.8,,,,0.2,,93,,,-,,,,,,,10.8,
Craibstone,18/09/2019 14:00,11.7,,,,0,,92,,,-,,,,,,,10.6,
Craibstone,18/09/2019 15:00,12.1,,,,0,,88,,,-,,,,,,,10.3,
Craibstone,18/09/2019 16:00,11.7,,,,0,,93,,,-,,,,,,,10.7,
Craibstone,18/09/2019 17:00,11,,,,0,,96,,,-,,,,,,,10.4,
Craibstone,18/09/2019 18:00,10.8,,,12.4,0.2,0.4,97,,,-,,,,,,,10.4,
Craibstone,18/09/2019 19:00,10.7,,,,0,,98,,,-,,,,,,,10.4,
Craibstone,18/09/2019 20:00,10.6,,,,0,,98,,,-,,,,,,,10.4,
Craibstone,18/09/2019 21:00,10.7,,,,0,,98,,,-,,,,,,,10.5,
Craibstone,18/09/2019 22:00,10.7,,,,0.4,,98,,,-,,,,,,,10.5,
Craibstone,18/09/2019 23:00,10.7,,,,0.4,,98,,,-,,,,,,,10.5,
Craibstone,19/09/2019 00:00,10.8,,,,0,0.8,99,,,-,,,,,,,10.7,
Craibstone,19/09/2019 01:00,10.8,,,,0.2,,99,,,-,,,,,,,10.7,
Craibstone,19/09/2019 02:00,10.2,,,,0,,98,,,-,,,,,,,10,
Craibstone,19/09/2019 03:00,9.8,,,,0,,99,,,-,,,,,,,9.7,
Craibstone,19/09/2019 04:00,8.4,,,,0,,98,,,-,,,,,,,8.2,
Craibstone,19/09/2019 05:00,8.1,,,,0,,99,,,-,,,,,,,8,
Craibstone,19/09/2019 06:00,8.4,,7.9,,0,0.2,100,,,-,,,,,,,8.4,
Craibstone,19/09/2019 07:00,9,,,,0,,100,,,-,,,,,,,9,
Craibstone,19/09/2019 08:00,10.6,,,,0,,100,,,-,,,,,,,10.6,
Craibstone,19/09/2019 09:00,12.8,,,,0,,100,,,-,,,,,,,12.8,
Craibstone,19/09/2019 10:00,15.3,,,,0,,86,,,-,,,,,,,13.1,
Craibstone,19/09/2019 11:00,17.5,,,,0,,71,,,-,,,,,,,12.4,
Craibstone,19/09/2019 12:00,17.9,,,,0.2,0.2,68,,,-,,,,,,,12.1,
Craibstone,19/09/2019 13:00,17,,,,0,,73,,,-,,,,,,,12.2,
Craibstone,19/09/2019 14:00,18.2,,,,0,,68,,,-,,,,,,,12.4,
Craibstone,19/09/2019 15:00,17.6,,,,0,,72,,,-,,,,,,,12.5,
Craibstone,19/09/2019 16:00,17.1,,,,0,,72,,,-,,,,,,,12.2,
Craibstone,19/09/2019 17:00,16.7,,,,0,,76,,,-,,,,,,,12.6,
Craibstone,19/09/2019 18:00,14.5,,,19.1,0,0,83,,,-,,,,,,,11.7,
Craibstone,19/09/2019 19:00,12.1,,,,0,,92,,,-,,,,,,,10.9,
Craibstone,19/09/2019 20:00,10.8,,,,0,,96,,,-,,,,,,,10.2,
Craibstone,19/09/2019 21:00,10,,,,0,,98,,,-,,,,,,,9.7,
Craibstone,19/09/2019 22:00,10.1,,,,0,,98,,,-,,,,,,,9.9,
Craibstone,19/09/2019 23:00,10.6,,,,0,,99,,,-,,,,,,,10.5,
Craibstone,20/09/2019 00:00,8.7,,,,0,0,98,,,-,,,,,,,8.5,
Craibstone,20/09/2019 01:00,8.8,,,,0,,98,,,-,,,,,,,8.6,
Craibstone,20/09/2019 02:00,8.5,,,,0,,99,,,-,,,,,,,8.4,
Craibstone,20/09/2019 03:00,7.1,,,,0,,98,,,-,,,,,,,6.9,
Craibstone,20/09/2019 04:00,7,,,,0,,99,,,-,,,,,,,6.9,
Craibstone,20/09/2019 05:00,6.4,,,,0,,99,,,-,,,,,,,6.3,
Craibstone,20/09/2019 06:00,6.2,,6.1,,0,0,100,,,-,,,,,,,6.2,
Craibstone,20/09/2019 07:00,7.3,,,,0,,100,,,-,,,,,,,7.3,
Craibstone,20/09/2019 08:00,10.2,,,,0,,100,,,-,,,,,,,10.2,
Craibstone,20/09/2019 09:00,14.3,,,,0,,94,,,-,,,,,,,13.5,
Craibstone,20/09/2019 10:00,16.7,,,,0,,77,,,-,,,,,,,12.8,
Craibstone,20/09/2019 11:00,18.9,,,,0,,65,,,-,,,,,,,12.2,
Craibstone,20/09/2019 12:00,20.7,,,,0,0,58,,,-,,,,,,,12.2,
Craibstone,20/09/2019 13:00,21.1,,,,0,,56,,,-,,,,,,,12.1,
Craibstone,20/09/2019 14:00,20.8,,,,0,,50,,,-,,,,,,,10.2,
Craibstone,20/09/2019 15:00,20.4,,,,0,,38,,,-,,,,,,,5.7,
Craibstone,20/09/2019 16:00,19.8,,,,0,,44,,,-,,,,,,,7.4,
Craibstone,20/09/2019 17:00,18.7,,,,0,,43,,,-,,,,,,,5.9,
Craibstone,20/09/2019 18:00,15.5,,,21.5,0,0,62,,,-,,,,,,,8.4,
Craibstone,20/09/2019 19:00,12.6,,,,0,,77,,,-,,,,,,,8.7,
Craibstone,20/09/2019 20:00,11.9,,,,0,,81,,,-,,,,,,,8.8,
Craibstone,20/09/2019 21:00,10.9,,,,0,,88,,,-,,,,,,,9,
Craibstone,20/09/2019 22:00,12.1,,,,0,,92,,,-,,,,,,,10.9,
Craibstone,20/09/2019 23:00,12.2,,,,0,,91,,,-,,,,,,,10.9,
Craibstone,21/09/2019 00:00,12.7,,,,0,0,89,,,-,,,,,,,11,
Craibstone,21/09/2019 01:00,12.3,,,,0,,92,,,-,,,,,,,11.1,
Craibstone,21/09/2019 02:00,12.5,,,,0,,89,,,-,,,,,,,10.8,
Craibstone,21/09/2019 03:00,12.2,,,,0,,96,,,-,,,,,,,11.6,
Craibstone,21/09/2019 04:00,12.3,,,,0,,94,,,-,,,,,,,11.5,
Craibstone,21/09/2019 05:00,11.8,,,,0,,94,,,-,,,,,,,11,
Craibstone,21/09/2019 06:00,11.6,,10.7,,0,0,94,,,-,,,,,,,10.8,
Craibstone,21/09/2019 07:00,11.9,,,,0,,95,,,-,,,,,,,11.2,
Craibstone,21/09/2019 08:00,12.9,,,,0,,91,,,-,,,,,,,11.6,
Craibstone,21/09/2019 09:00,13.5,,,,0,,87,,,-,,,,,,,11.4,
Craibstone,21/09/2019 10:00,13.4,,,,0,,87,,,-,,,,,,,11.4,
Craibstone,21/09/2019 11:00,13.8,,,,0,,85,,,-,,,,,,,11.4,
Craibstone,21/09/2019 12:00,14.4,,,,0,0,83,,,-,,,,,,,11.7,
Craibstone,21/09/2019 13:00,14.5,,,,0,,84,,,-,,,,,,,11.9,
Craibstone,21/09/2019 14:00,15.4,,,,0,,82,,,-,,,,,,,12.4,
Craibstone,21/09/2019 15:00,15.4,,,,0,,77,,,-,,,,,,,11.5,
Craibstone,21/09/2019 16:00,14.7,,,,0,,79,,,-,,,,,,,11.2,
Craibstone,21/09/2019 17:00,14,,,,0,,82,,,-,,,,,,,11.1,
Craibstone,21/09/2019 18:00,12.8,,,15.6,0,0,89,,,-,,,,,,,11.2,
Craibstone,21/09/2019 19:00,12,,,,0,,92,,,-,,,,,,,10.8,
Craibstone,21/09/2019 20:00,12.2,,,,0,,92,,,-,,,,,,,11.1,
Craibstone,21/09/2019 21:00,11.9,,,,0,,94,,,-,,,,,,,11.1,
Craibstone,21/09/2019 22:00,11.9,,,,0,,93,,,-,,,,,,,10.9,
Craibstone,21/09/2019 23:00,11.7,,,,0,,94,,,-,,,,,,,10.9,
Craibstone,22/09/2019 00:00,12.3,,,,0,0,95,,,-,,,,,,,11.6,
Craibstone,22/09/2019 01:00,12.7,,,,0,,94,,,-,,,,,,,11.9,
Craibstone,22/09/2019 02:00,12.8,,,,0,,96,,,-,,,,,,,12.2,
Craibstone,22/09/2019 03:00,12.9,,,,0,,96,,,-,,,,,,,12.3,
Craibstone,22/09/2019 04:00,13,,,,0,,95,,,-,,,,,,,12.3,
Craibstone,22/09/2019 05:00,12.9,,,,0,,96,,,-,,,,,,,12.4,
Craibstone,22/09/2019 06:00,12.9,,11.4,,0,0,97,,,-,,,,,,,12.5,
Craibstone,22/09/2019 07:00,13,,,,0,,98,,,-,,,,,,,12.7,
Craibstone,22/09/2019 08:00,13.2,,,,0,,98,,,-,,,,,,,12.9,
Craibstone,22/09/2019 09:00,14,,,,0,,96,,,-,,,,,,,13.4,
Craibstone,22/09/2019 10:00,14.6,,,,0,,91,,,-,,,,,,,13.2,
Craibstone,22/09/2019 11:00,16.3,,,,0,,85,,,-,,,,,,,13.9,
Craibstone,22/09/2019 12:00,17.1,,,,0,0,81,,,-,,,,,,,13.9,
Craibstone,22/09/2019 13:00,16.5,,,,0,,82,,,-,,,,,,,13.5,
Craibstone,22/09/2019 14:00,15.7,,,,0,,83,,,-,,,,,,,12.9,
Craibstone,22/09/2019 15:00,15.1,,,,0,,88,,,-,,,,,,,13.2,
Craibstone,22/09/2019 16:00,14.5,,,,0,,91,,,-,,,,,,,13.1,
Craibstone,22/09/2019 17:00,14,,,,0,,93,,,-,,,,,,,12.9,
Craibstone,22/09/2019 18:00,13.8,,,17.4,0,0,94,,,-,,,,,,,13,
Craibstone,22/09/2019 19:00,13.5,,,,0,,96,,,-,,,,,,,12.9,
Craibstone,22/09/2019 20:00,13.2,,,,0,,97,,,-,,,,,,,12.8,
Craibstone,22/09/2019 21:00,13,,,,0,,98,,,-,,,,,,,12.7,
Craibstone,22/09/2019 22:00,13,,,,0,,98,,,-,,,,,,,12.8,
Craibstone,22/09/2019 23:00,13.1,,,,0,,98,,,-,,,,,,,12.8,
Craibstone,23/09/2019 00:00,13,,,,0,0,98,,,-,,,,,,,12.8,
Craibstone,23/09/2019 01:00,13.3,,,,0,,98,,,-,,,,,,,13.1,
Craibstone,23/09/2019 02:00,13.1,,,,0,,98,,,-,,,,,,,12.9,
Craibstone,23/09/2019 03:00,13.3,,,,0,,99,,,-,,,,,,,13.2,
Craibstone,23/09/2019 04:00,13.3,,,,0.2,,99,,,-,,,,,,,13.2,
Craibstone,23/09/2019 05:00,13,,,,0,,100,,,-,,,,,,,13,
Craibstone,23/09/2019 06:00,13.1,,13,,0.2,0.4,100,,,-,,,,,,,13.1,
Craibstone,23/09/2019 07:00,13.3,,,,0,,100,,,-,,,,,,,13.3,
Craibstone,23/09/2019 08:00,13.6,,,,0,,100,,,-,,,,,,,13.6,
Craibstone,23/09/2019 09:00,14.3,,,,0,,100,,,-,,,,,,,14.3,
Craibstone,23/09/2019 10:00,15.8,,,,0,,93,,,-,,,,,,,14.8,
Craibstone,23/09/2019 11:00,16.7,,,,0,,87,,,-,,,,,,,14.6,
Craibstone,23/09/2019 12:00,16.8,,,,0,0,84,,,-,,,,,,,14.1,
Craibstone,23/09/2019 13:00,16.1,,,,0,,87,,,-,,,,,,,14,
Craibstone,23/09/2019 14:00,16.5,,,,0,,79,,,-,,,,,,,12.9,
Craibstone,23/09/2019 15:00,15.1,,,,0,,78,,,-,,,,,,,11.4,
Craibstone,23/09/2019 16:00,16,,,,0,,73,,,-,,,,,,,11.2,
Craibstone,23/09/2019 17:00,14.7,,,,0,,80,,,-,,,,,,,11.3,
Craibstone,23/09/2019 18:00,13.1,,,17.5,0,0,91,,,-,,,,,,,11.7,
Craibstone,23/09/2019 19:00,12.8,,,,0,,96,,,-,,,,,,,12.2,
Craibstone,23/09/2019 20:00,12.5,,,,0,,96,,,-,,,,,,,12,
Craibstone,23/09/2019 21:00,11.8,,,,0,,97,,,-,,,,,,,11.4,
Craibstone,23/09/2019 22:00,11.3,,,,0,,96,,,-,,,,,,,10.8,
Craibstone,23/09/2019 23:00,12.3,,,,0,,92,,,-,,,,,,,11.1,
Craibstone,24/09/2019 00:00,12.9,,,,0,0,92,,,-,,,,,,,11.7,
Craibstone,24/09/2019 01:00,13.1,,,,0,,91,,,-,,,,,,,11.7,
Craibstone,24/09/2019 02:00,12.9,,,,0.2,,94,,,-,,,,,,,12.1,
Craibstone,24/09/2019 03:00,12.9,,,,0.6,,97,,,-,,,,,,,12.5,
Craibstone,24/09/2019 04:00,12.9,,,,0.4,,99,,,-,,,,,,,12.8,
Craibstone,24/09/2019 05:00,13,,,,0.6,,98,,,-,,,,,,,12.8,
Craibstone,24/09/2019 06:00,12.9,,11.2,,0.4,2,100,,,-,,,,,,,12.9,
Craibstone,24/09/2019 07:00,13,,,,0,,100,,,-,,,,,,,13,
Craibstone,24/09/2019 08:00,13.4,,,,1.2,,99,,,-,,,,,,,13.3,
Craibstone,24/09/2019 09:00,13.5,,,,0.8,,98,,,-,,,,,,,13.3,
Craibstone,24/09/2019 10:00,13.4,,,,0,,99,,,-,,,,,,,13.3,
Craibstone,24/09/2019 11:00,13.5,,,,0,,100,,,-,,,,,,,13.5,
Craibstone,24/09/2019 12:00,13.7,,,,0,2,100,,,-,,,,,,,13.7,
Craibstone,24/09/2019 13:00,13.3,,,,0,,100,,,-,,,,,,,13.3,
Craibstone,24/09/2019 14:00,13.7,,,,0.2,,100,,,-,,,,,,,13.7,
Craibstone,24/09/2019 15:00,13.7,,,,0,,100,,,-,,,,,,,13.7,
Craibstone,24/09/2019 16:00,13.5,,,,0.4,,100,,,-,,,,,,,13.5,
Craibstone,24/09/2019 17:00,13.5,,,,0.4,,100,,,-,,,,,,,13.5,
Craibstone,24/09/2019 18:00,13.5,,,13.8,1.8,3,100,,,-,,,,,,,13.5,
Craibstone,24/09/2019 19:00,13.5,,,,0.8,,100,,,-,,,,,,,13.5,
Craibstone,24/09/2019 20:00,13.4,,,,0,,100,,,-,,,,,,,13.4,
Craibstone,24/09/2019 21:00,13.3,,,,1.4,,100,,,-,,,,,,,13.3,
Craibstone,24/09/2019 22:00,13.3,,,,2.2,,100,,,-,,,,,,,13.3,
Craibstone,24/09/2019 23:00,13.3,,,,0.4,,99,,,-,,,,,,,13.2,
Craibstone,25/09/2019 00:00,13.4,,,,0.2,5,99,,,-,,,,,,,13.3,
Craibstone,25/09/2019 01:00,13.4,,,,0,,99,,,-,,,,,,,13.3,
Craibstone,25/09/2019 02:00,13.3,,,,0,,100,,,-,,,,,,,13.3,
Craibstone,25/09/2019 03:00,13.3,,,,0.2,,99,,,-,,,,,,,13.2,
Craibstone,25/09/2019 04:00,12.9,,,,0,,100,,,-,,,,,,,12.9,
Craibstone,25/09/2019 05:00,12.8,,,,0,,99,,,-,,,,,,,12.7,
Craibstone,25/09/2019 06:00,12.9,,12.7,,0,0,100,,,-,,,,,,,12.9,
Craibstone,25/09/2019 07:00,13,,,,0,,99,,,-,,,,,,,12.9,
Craibstone,25/09/2019 08:00,13,,,,0,,100,,,-,,,,,,,13,
Craibstone,25/09/2019 09:00,13.2,,,,0,,100,,,-,,,,,,,13.2,
Craibstone,25/09/2019 10:00,13.3,,,,0,,100,,,-,,,,,,,13.3,
Craibstone,25/09/2019 11:00,13.5,,,,0.4,,100,,,-,,,,,,,13.5,
Craibstone,25/09/2019 12:00,13.5,,,,0.2,0.6,100,,,-,,,,,,,13.5,
Craibstone,25/09/2019 13:00,13.5,,,,0,,100,,,-,,,,,,,13.5,
Craibstone,25/09/2019 14:00,13.4,,,,0,,100,,,-,,,,,,,13.4,
Craibstone,25/09/2019 15:00,13.3,,,,0,,100,,,-,,,,,,,13.3,
Craibstone,25/09/2019 16:00,13.2,,,,0,,100,,,-,,,,,,,13.2,
Craibstone,25/09/2019 17:00,13.1,,,,0,,100,,,-,,,,,,,13.1,
Craibstone,25/09/2019 18:00,12.9,,,13.7,0,0,100,,,-,,,,,,,12.9,
Craibstone,25/09/2019 19:00,12.8,,,,0.2,,100,,,-,,,,,,,12.8,
Craibstone,25/09/2019 20:00,13.1,,,,0,,100,,,-,,,,,,,13.1,
Craibstone,25/09/2019 21:00,13,,,,0,,98,,,-,,,,,,,12.8,
Craibstone,25/09/2019 22:00,13.1,,,,0,,96,,,-,,,,,,,12.6,
Craibstone,25/09/2019 23:00,13.3,,,,0,,96,,,-,,,,,,,12.8,
Craibstone,26/09/2019 00:00,13.3,,,,0,0.2,96,,,-,,,,,,,12.8,
Craibstone,26/09/2019 01:00,13,,,,0,,98,,,-,,,,,,,12.8,
Craibstone,26/09/2019 02:00,13,,,,0,,100,,,-,,,,,,,13,
Craibstone,26/09/2019 03:00,13,,,,0,,99,,,-,,,,,,,12.9,
Craibstone,26/09/2019 04:00,12.9,,,,0,,100,,,-,,,,,,,12.9,
Craibstone,26/09/2019 05:00,12.8,,,,0,,100,,,-,,,,,,,12.8,
Craibstone,26/09/2019 06:00,12.7,,12.6,,0.2,0.2,100,,,-,,,,,,,12.7,
Craibstone,26/09/2019 07:00,12.8,,,,5.4,,100,,,-,,,,,,,12.8,
Craibstone,26/09/2019 08:00,13,,,,3,,99,,,-,,,,,,,12.9,
Craibstone,26/09/2019 09:00,13.7,,,,0.2,,99,,,-,,,,,,,13.6,
Craibstone,26/09/2019 10:00,14.4,,,,0,,94,,,-,,,,,,,13.5,
Craibstone,26/09/2019 11:00,15.1,,,,0,,86,,,-,,,,,,,12.8,
Craibstone,26/09/2019 12:00,14.9,,,,0,9,84,,,-,,,,,,,12.3,
Craibstone,26/09/2019 13:00,15.5,,,,0,,74,,,-,,,,,,,11,
Craibstone,26/09/2019 14:00,14.9,,,,0,,74,,,-,,,,,,,10.4,
Craibstone,26/09/2019 15:00,14.9,,,,0,,75,,,-,,,,,,,10.6,
Craibstone,26/09/2019 16:00,13.4,,,,0,,85,,,-,,,,,,,11,
Craibstone,26/09/2019 17:00,13.6,,,,0,,82,,,-,,,,,,,10.7,
Craibstone,26/09/2019 18:00,12.2,,,16.7,0,0,89,,,-,,,,,,,10.6,
Craibstone,26/09/2019 19:00,11.2,,,,0,,94,,,-,,,,,,,10.3,
Craibstone,26/09/2019 20:00,11.4,,,,0,,92,,,-,,,,,,,10.3,
Craibstone,26/09/2019 21:00,9.8,,,,0,,96,,,-,,,,,,,9.2,
Craibstone,26/09/2019 22:00,10.4,,,,0,,97,,,-,,,,,,,10,
Craibstone,26/09/2019 23:00,10.5,,,,0,,94,,,-,,,,,,,9.7,
Craibstone,27/09/2019 00:00,10.2,,,,0,0,96,,,-,,,,,,,9.7,
Craibstone,27/09/2019 01:00,11.4,,,,0,,98,,,-,,,,,,,11.1,
Craibstone,27/09/2019 02:00,11.5,,,,0,,98,,,-,,,,,,,11.2,
Craibstone,27/09/2019 03:00,10.9,,,,0,,96,,,-,,,,,,,10.3,
Craibstone,27/09/2019 04:00,10.6,,,,0,,96,,,-,,,,,,,10.1,
Craibstone,27/09/2019 05:00,10.4,,,,0,,94,,,-,,,,,,,9.5,
Craibstone,27/09/2019 06:00,10.7,,9.4,,0,0,95,,,-,,,,,,,10,
Craibstone,27/09/2019 07:00,10.9,,,,0,,92,,,-,,,,,,,9.8,
Craibstone,27/09/2019 08:00,11.7,,,,0,,89,,,-,,,,,,,10,
Craibstone,27/09/2019 09:00,13.1,,,,0,,79,,,-,,,,,,,9.7,
Craibstone,27/09/2019 10:00,14.6,,,,0,,74,,,-,,,,,,,10.1,
Craibstone,27/09/2019 11:00,13.9,,,,0,,74,,,-,,,,,,,9.4,
Craibstone,27/09/2019 12:00,14.3,,,,0,0,74,,,-,,,,,,,9.9,
Craibstone,27/09/2019 13:00,13.4,,,,0,,82,,,-,,,,,,,10.4,
Craibstone,27/09/2019 14:00,13.4,,,,0,,79,,,-,,,,,,,10,
Craibstone,27/09/2019 15:00,12.5,,,,0,,83,,,-,,,,,,,9.7,
Craibstone,27/09/2019 16:00,12.3,,,,0,,84,,,-,,,,,,,9.8,
Craibstone,27/09/2019 17:00,11.8,,,,0.2,,88,,,-,,,,,,,10,
Craibstone,27/09/2019 18:00,11.2,,,15.2,0.4,0.6,93,,,-,,,,,,,10.2,
Craibstone,27/09/2019 19:00,10.8,,,,1.6,,97,,,-,,,,,,,10.4,
Craibstone,27/09/2019 20:00,10.2,,,,4,,96,,,-,,,,,,,9.7,
Craibstone,27/09/2019 21:00,9.8,,,,2,,97,,,-,,,,,,,9.4,
Craibstone,27/09/2019 22:00,9.6,,,,0.8,,97,,,-,,,,,,,9.2,
Craibstone,27/09/2019 23:00,9.9,,,,1.4,,98,,,-,,,,,,,9.6,
Craibstone,28/09/2019 00:00,10,,,,0.8,11,97,,,-,,,,,,,9.6,
Craibstone,28/09/2019 01:00,9.9,,,,1,,97,,,-,,,,,,,9.5,
Craibstone,28/09/2019 02:00,10.1,,,,0.8,,97,,,-,,,,,,,9.7,
Craibstone,28/09/2019 03:00,10,,,,0.6,,98,,,-,,,,,,,9.7,
Craibstone,28/09/2019 04:00,10.1,,,,0.2,,96,,,-,,,,,,,9.6,
Craibstone,28/09/2019 05:00,10.1,,,,0,,96,,,-,,,,,,,9.5,
Craibstone,28/09/2019 06:00,10.2,,9.5,,0.2,2,94,,,-,,,,,,,9.4,
Craibstone,28/09/2019 07:00,10.1,,,,0.8,,95,,,-,,,,,,,9.4,
Craibstone,28/09/2019 08:00,10,,,,2,,95,,,-,,,,,,,9.3,
Craibstone,28/09/2019 09:00,9.8,,,,4.4,,95,,,-,,,,,,,9.1,
Craibstone,28/09/2019 10:00,9.6,,,,1.6,,95,,,-,,,,,,,8.9,
Craibstone,28/09/2019 11:00,10.2,,,,0.2,,92,,,-,,,,,,,9.1,
Craibstone,28/09/2019 12:00,10.3,,,,1,10,91,,,-,,,,,,,9,
Craibstone,28/09/2019 13:00,10.3,,,,4.8,,93,,,-,,,,,,,9.3,
Craibstone,28/09/2019 14:00,11.6,,,,0,,89,,,-,,,,,,,10,
Craibstone,28/09/2019 15:00,12.1,,,,0,,90,,,-,,,,,,,10.6,
Craibstone,28/09/2019 16:00,11.5,,,,0.4,,96,,,-,,,,,,,10.9,
Craibstone,28/09/2019 17:00,11.4,,,,0.6,,96,,,-,,,,,,,10.8,
Craibstone,28/09/2019 18:00,11.2,,,12.2,0,6,96,,,-,,,,,,,10.6,
Craibstone,28/09/2019 19:00,11.3,,,,0,,96,,,-,,,,,,,10.8,
Craibstone,28/09/2019 20:00,11.3,,,,0,,96,,,-,,,,,,,10.8,
Craibstone,28/09/2019 21:00,11,,,,0,,94,,,-,,,,,,,10.1,
Craibstone,28/09/2019 22:00,10.8,,,,0,,97,,,-,,,,,,,10.4,
Craibstone,28/09/2019 23:00,10.1,,,,0,,96,,,-,,,,,,,9.6,
Craibstone,29/09/2019 00:00,10.5,,,,0,0,98,,,-,,,,,,,10.3,
Craibstone,29/09/2019 01:00,10.7,,,,0,,99,,,-,,,,,,,10.6,
Craibstone,29/09/2019 02:00,10.8,,,,0,,98,,,-,,,,,,,10.6,
Craibstone,29/09/2019 03:00,10.8,,,,0,,98,,,-,,,,,,,10.5,
Craibstone,29/09/2019 04:00,10.6,,,,0,,98,,,-,,,,,,,10.3,
Craibstone,29/09/2019 05:00,10.5,,,,0,,96,,,-,,,,,,,10,
Craibstone,29/09/2019 06:00,10.7,,9.9,,0,0,96,,,-,,,,,,,10.1,
Craibstone,29/09/2019 07:00,10.7,,,,0,,96,,,-,,,,,,,10.1,
Craibstone,29/09/2019 08:00,11.2,,,,0,,95,,,-,,,,,,,10.5,
Craibstone,29/09/2019 09:00,11.6,,,,0,,92,,,-,,,,,,,10.5,
Craibstone,29/09/2019 10:00,12.2,,,,0,,89,,,-,,,,,,,10.5,
Craibstone,29/09/2019 11:00,12.3,,,,0,,88,,,-,,,,,,,10.4,
Craibstone,29/09/2019 12:00,12.5,,,,0,0,84,,,-,,,,,,,10,
Craibstone,29/09/2019 13:00,12.2,,,,0,,85,,,-,,,,,,,9.8,
Craibstone,29/09/2019 14:00,11.5,,,,0,,89,,,-,,,,,,,9.9,
Craibstone,29/09/2019 15:00,11.4,,,,0,,89,,,-,,,,,,,9.7,
Craibstone,29/09/2019 16:00,11.7,,,,0,,86,,,-,,,,,,,9.6,
Craibstone,29/09/2019 17:00,11.4,,,,0,,86,,,-,,,,,,,9.3,
Craibstone,29/09/2019 18:00,11.1,,,12.8,0,0,89,,,-,,,,,,,9.4,
Craibstone,29/09/2019 19:00,10.9,,,,0,,91,,,-,,,,,,,9.6,
Craibstone,29/09/2019 20:00,10.8,,,,0,,92,,,-,,,,,,,9.7,
Craibstone,29/09/2019 21:00,10.9,,,,0,,92,,,-,,,,,,,9.8,
Craibstone,29/09/2019 22:00,10.5,,,,0,,89,,,-,,,,,,,8.8,
Craibstone,29/09/2019 23:00,10.2,,,,0,,88,,,-,,,,,,,8.4,
Craibstone,30/09/2019 00:00,9.5,,,,0,0,89,,,-,,,,,,,7.9,
Craibstone,30/09/2019 01:00,9.8,,,,0,,88,,,-,,,,,,,8,
Craibstone,30/09/2019 02:00,9.9,,,,0,,89,,,-,,,,,,,8.3,
Craibstone,30/09/2019 03:00,9.6,,,,0.6,,96,,,-,,,,,,,9.1,
Craibstone,30/09/2019 04:00,9.7,,,,0.2,,93,,,-,,,,,,,8.7,
Craibstone,30/09/2019 05:00,9.1,,,,0,,90,,,-,,,,,,,7.6,
Craibstone,30/09/2019 06:00,8.8,,8.7,,0,0.8,92,,,-,,,,,,,7.6,
Craibstone,30/09/2019 07:00,8.5,,,,0,,89,,,-,,,,,,,6.8,
Craibstone,30/09/2019 08:00,8.6,,,,0,,90,,,-,,,,,,,7.2,
Craibstone,30/09/2019 09:00,9.1,,,,0,,84,,,-,,,,,,,6.7,
Craibstone,30/09/2019 10:00,10.4,,,,0,,80,,,-,,,,,,,7.2,
Craibstone,30/09/2019 11:00,10.6,,,,0,,80,,,-,,,,,,,7.4,
Craibstone,30/09/2019 12:00,10.7,,,,0,0,72,,,-,,,,,,,6,
Craibstone,30/09/2019 13:00,8.9,,,,0,,82,,,-,,,,,,,6.1,
Craibstone,30/09/2019 14:00,9.2,,,,0,,83,,,-,,,,,,,6.5,
Craibstone,30/09/2019 15:00,9.5,,,,0,,82,,,-,,,,,,,6.7,
Craibstone,30/09/2019 16:00,9.5,,,,0,,76,,,-,,,,,,,5.6,
Craibstone,30/09/2019 17:00,8.6,,,,0,,81,,,-,,,,,,,5.6,
Craibstone,30/09/2019 18:00,7.9,,,11.2,0,0,87,,,-,,,,,,,5.9,
Craibstone,30/09/2019 19:00,7.3,,,,0,,88,,,-,,,,,,,5.6,
Craibstone,30/09/2019 20:00,7.1,,,,0,,89,,,-,,,,,,,5.5,
Craibstone,30/09/2019 21:00,6.8,,,,0,,86,,,-,,,,,,,4.7,
Craibstone,30/09/2019 22:00,6.1,,,,0,,83,,,-,,,,,,,3.6,
Craibstone,30/09/2019 23:00,5.2,,,,0,,86,,,-,,,,,,,3.2,
Craibstone,01/10/2019 00:00,4.8,,,,0,0,85,,,-,,,,,,,2.5,
Craibstone,01/10/2019 01:00,4.5,,,,0,,86,,,-,,,,,,,2.4,
Craibstone,01/10/2019 02:00,4.7,,,,0,,83,,,-,,,,,,,2.1,
Craibstone,01/10/2019 03:00,5.1,,,,0,,84,,,-,,,,,,,2.7,
Craibstone,01/10/2019 04:00,4.5,,,,0,,84,,,-,,,,,,,2.2,
Craibstone,01/10/2019 05:00,4.2,,,,0,,84,,,-,,,,,,,1.8,
Craibstone,01/10/2019 06:00,4.2,,4.1,,0,0,85,,,-,,,,,,,2,
Craibstone,01/10/2019 07:00,4.6,,,,0,,86,,,-,,,,,,,2.5,
Craibstone,01/10/2019 08:00,7,,,,0,,78,,,-,,,,,,,3.6,
Craibstone,01/10/2019 09:00,8.1,,,,0,,72,,,-,,,,,,,3.4,
Craibstone,01/10/2019 10:00,8.7,,,,0,,71,,,-,,,,,,,3.9,
Craibstone,01/10/2019 11:00,7.5,,,,0.6,,87,,,-,,,,,,,5.5,
Craibstone,01/10/2019 12:00,10,,,,0,0.6,75,,,-,,,,,,,5.9,
Craibstone,01/10/2019 13:00,9.1,,,,0,,76,,,-,,,,,,,5.2,
Craibstone,01/10/2019 14:00,8.5,,,,0.6,,81,,,-,,,,,,,5.6,
Craibstone,01/10/2019 15:00,8.9,,,,0,,78,,,-,,,,,,,5.4,
Craibstone,01/10/2019 16:00,7.1,,,,0.4,,84,,,-,,,,,,,4.7,
Craibstone,01/10/2019 17:00,7.3,,,,0.2,,82,,,-,,,,,,,4.6,
Craibstone,01/10/2019 18:00,6,,,10.2,0.2,1.4,85,,,-,,,,,,,3.7,
Craibstone,01/10/2019 19:00,5.5,,,,0,,86,,,-,,,,,,,3.4,
Craibstone,01/10/2019 20:00,5.5,,,,0,,82,,,-,,,,,,,2.8,
Craibstone,01/10/2019 21:00,5,,,,0,,85,,,-,,,,,,,2.7,
Craibstone,01/10/2019 22:00,4.6,,,,0,,88,,,-,,,,,,,2.8,
Craibstone,01/10/2019 23:00,4.8,,,,0,,87,,,-,,,,,,,2.9,
Craibstone,02/10/2019 00:00,5.2,,,,0,0,84,,,-,,,,,,,2.8,
Craibstone,02/10/2019 01:00,5.1,,,,0,,84,,,-,,,,,,,2.7,
Craibstone,02/10/2019 02:00,5.5,,,,0,,82,,,-,,,,,,,2.8,
Craibstone,02/10/2019 03:00,5.7,,,,0,,83,,,-,,,,,,,3.1,
Craibstone,02/10/2019 04:00,5.8,,,,0,,82,,,-,,,,,,,3.1,
Craibstone,02/10/2019 05:00,6.5,,,,0,,82,,,-,,,,,,,3.7,
Craibstone,02/10/2019 06:00,6.6,,4.6,,0,0,81,,,-,,,,,,,3.7,
Craibstone,02/10/2019 07:00,7,,,,0,,81,,,-,,,,,,,4,
Craibstone,02/10/2019 08:00,7.5,,,,0,,81,,,-,,,,,,,4.6,
Craibstone,02/10/2019 09:00,8.2,,,,0,,81,,,-,,,,,,,5.2,
Craibstone,02/10/2019 10:00,8.6,,,,0,,86,,,-,,,,,,,6.4,
Craibstone,02/10/2019 11:00,8.8,,,,0,,90,,,-,,,,,,,7.3,
Craibstone,02/10/2019 12:00,8.9,,,,0.2,0.2,90,,,-,,,,,,,7.5,
Craibstone,02/10/2019 13:00,10,,,,0,,85,,,-,,,,,,,7.7,
Craibstone,02/10/2019 14:00,10.7,,,,0.2,,81,,,-,,,,,,,7.6,
Craibstone,02/10/2019 15:00,10.8,,,,0,,76,,,-,,,,,,,6.8,
Craibstone,02/10/2019 16:00,10,,,,0,,82,,,-,,,,,,,7.1,
Craibstone,02/10/2019 17:00,9.5,,,,0,,87,,,-,,,,,,,7.5,
Craibstone,02/10/2019 18:00,8.7,,,11.2,0,0.2,86,,,-,,,,,,,6.6,
Craibstone,02/10/2019 19:00,8.6,,,,0,,85,,,-,,,,,,,6.3,
Craibstone,02/10/2019 20:00,8.1,,,,0,,87,,,-,,,,,,,6.1,
Craibstone,02/10/2019 21:00,8.1,,,,0,,85,,,-,,,,,,,5.9,
Craibstone,02/10/2019 22:00,7.8,,,,0,,87,,,-,,,,,,,5.8,
Craibstone,02/10/2019 23:00,7.4,,,,0,,88,,,-,,,,,,,5.6,
Craibstone,03/10/2019 00:00,6.5,,,,0,0,90,,,-,,,,,,,5,
Craibstone,03/10/2019 01:00,6,,,,0,,91,,,-,,,,,,,4.8,
Craibstone,03/10/2019 02:00,6.1,,,,0,,92,,,-,,,,,,,4.9,
Craibstone,03/10/2019 03:00,6.4,,,,0,,90,,,-,,,,,,,4.9,
Craibstone,03/10/2019 04:00,6.4,,,,0,,90,,,-,,,,,,,4.9,
Craibstone,03/10/2019 05:00,6.6,,,,0,,92,,,-,,,,,,,5.4,
Craibstone,03/10/2019 06:00,6.6,,5.7,,0,0,92,,,-,,,,,,,5.4,
Craibstone,03/10/2019 07:00,6.5,,,,0,,91,,,-,,,,,,,5.2,
Craibstone,03/10/2019 08:00,7.3,,,,0,,92,,,-,,,,,,,6.1,
Craibstone,03/10/2019 09:00,7.7,,,,0,,95,,,-,,,,,,,7.1,
Craibstone,03/10/2019 10:00,8.5,,,,0.4,,96,,,-,,,,,,,8,
Craibstone,03/10/2019 11:00,9.8,,,,0,,93,,,-,,,,,,,8.8,
Craibstone,03/10/2019 12:00,9.8,,,,0,0.4,92,,,-,,,,,,,8.7,
Craibstone,03/10/2019 13:00,10.3,,,,0,,91,,,-,,,,,,,8.9,
Craibstone,03/10/2019 14:00,10.5,,,,0,,86,,,-,,,,,,,8.3,
Craibstone,03/10/2019 15:00,10.1,,,,0,,87,,,-,,,,,,,8.2,
Craibstone,03/10/2019 16:00,9.4,,,,0.2,,90,,,-,,,,,,,8,
Craibstone,03/10/2019 17:00,9.5,,,,0,,89,,,-,,,,,,,7.9,
Craibstone,03/10/2019 18:00,9.2,,,11,0,0.2,89,,,-,,,,,,,7.6,
Craibstone,03/10/2019 19:00,9.1,,,,0,,84,,,-,,,,,,,6.7,
Craibstone,03/10/2019 20:00,9.2,,,,0,,82,,,-,,,,,,,6.4,
Craibstone,03/10/2019 21:00,9.5,,,,0,,80,,,-,,,,,,,6.3,
Craibstone,03/10/2019 22:00,9.6,,,,0,,79,,,-,,,,,,,6.2,
Craibstone,03/10/2019 23:00,9.7,,,,0,,80,,,-,,,,,,,6.6,
Craibstone,04/10/2019 00:00,9.3,,,,0,0,89,,,-,,,,,,,7.6,
Craibstone,04/10/2019 01:00,9.4,,,,0.2,,89,,,-,,,,,,,7.7,
Craibstone,04/10/2019 02:00,9.4,,,,0.4,,90,,,-,,,,,,,8,
Craibstone,04/10/2019 03:00,8.8,,,,0.2,,87,,,-,,,,,,,6.9,
Craibstone,04/10/2019 04:00,9.3,,,,0,,82,,,-,,,,,,,6.5,
Craibstone,04/10/2019 05:00,9.5,,,,0,,83,,,-,,,,,,,6.9,
Craibstone,04/10/2019 06:00,9.2,,8.7,,0,0.8,86,,,-,,,,,,,7,
Craibstone,04/10/2019 07:00,9.7,,,,0,,92,,,-,,,,,,,8.6,
Craibstone,04/10/2019 08:00,10.6,,,,0,,83,,,-,,,,,,,8,
Craibstone,04/10/2019 09:00,10.9,,,,0,,82,,,-,,,,,,,8,
Craibstone,04/10/2019 10:00,10.7,,,,0,,83,,,-,,,,,,,8,
Craibstone,04/10/2019 11:00,11,,,,0,,77,,,-,,,,,,,7.3,
Craibstone,04/10/2019 12:00,11.3,,,,0,0,75,,,-,,,,,,,7.2,
Craibstone,04/10/2019 13:00,11.8,,,,0,,70,,,-,,,,,,,6.6,
Craibstone,04/10/2019 14:00,11.5,,,,0,,72,,,-,,,,,,,6.7,
Craibstone,04/10/2019 15:00,10.8,,,,0,,72,,,-,,,,,,,6,
Craibstone,04/10/2019 16:00,10.4,,,,0,,72,,,-,,,,,,,5.6,
Craibstone,04/10/2019 17:00,9.3,,,,0,,72,,,-,,,,,,,4.7,
Craibstone,04/10/2019 18:00,7.3,,,12.2,0,0,82,,,-,,,,,,,4.6,
Craibstone,04/10/2019 19:00,6.4,,,,0,,84,,,-,,,,,,,4,
Craibstone,04/10/2019 20:00,5.7,,,,0,,86,,,-,,,,,,,3.7,
Craibstone,04/10/2019 21:00,4.8,,,,0,,91,,,-,,,,,,,3.6,
Craibstone,04/10/2019 22:00,5.9,,,,0,,88,,,-,,,,,,,4.1,
Craibstone,04/10/2019 23:00,6.5,,,,0,,82,,,-,,,,,,,3.8,
Craibstone,05/10/2019 00:00,5.9,,,,0,0,82,,,-,,,,,,,3.2,
Craibstone,05/10/2019 01:00,5.8,,,,0,,83,,,-,,,,,,,3.3,
Craibstone,05/10/2019 02:00,4.4,,,,0,,93,,,-,,,,,,,3.5,
Craibstone,05/10/2019 03:00,4.9,,,,0,,92,,,-,,,,,,,3.8,
Craibstone,05/10/2019 04:00,5.1,,,,0,,92,,,-,,,,,,,4,
Craibstone,05/10/2019 05:00,5.9,,,,0.2,,90,,,-,,,,,,,4.5,
Craibstone,05/10/2019 06:00,4.7,,3.9,,0,0.2,97,,,-,,,,,,,4.3,
Craibstone,05/10/2019 07:00,5.9,,,,0.4,,99,,,-,,,,,,,5.8,
Craibstone,05/10/2019 08:00,8.4,,,,0.2,,99,,,-,,,,,,,8.3,
Craibstone,05/10/2019 09:00,9.8,,,,0.4,,94,,,-,,,,,,,8.9,
Craibstone,05/10/2019 10:00,10.6,,,,0.4,,95,,,-,,,,,,,9.9,
Craibstone,05/10/2019 11:00,10.7,,,,0.2,,92,,,-,,,,,,,9.6,
Craibstone,05/10/2019 12:00,11.3,,,,0,2,88,,,-,,,,,,,9.4,
Craibstone,05/10/2019 13:00,11.3,,,,0,,85,,,-,,,,,,,9,
Craibstone,05/10/2019 14:00,11,,,,0.2,,91,,,-,,,,,,,9.7,
Craibstone,05/10/2019 15:00,11.2,,,,0.2,,89,,,-,,,,,,,9.6,
Craibstone,05/10/2019 16:00,11.3,,,,0,,91,,,-,,,,,,,10,
Craibstone,05/10/2019 17:00,11.2,,,,0,,92,,,-,,,,,,,10.1,
Craibstone,05/10/2019 18:00,11,,,11.4,0,0,92,,,-,,,,,,,9.9,
Craibstone,05/10/2019 19:00,11,,,,0,,91,,,-,,,,,,,9.7,
Craibstone,05/10/2019 20:00,10.5,,,,0.8,,92,,,-,,,,,,,9.4,
Craibstone,05/10/2019 21:00,10.8,,,,0.6,,96,,,-,,,,,,,10.3,
Craibstone,05/10/2019 22:00,10.7,,,,0.4,,93,,,-,,,,,,,9.7,
Craibstone,05/10/2019 23:00,10.6,,,,0.6,,95,,,-,,,,,,,9.9,
Craibstone,06/10/2019 00:00,10.5,,,,1.8,4,94,,,-,,,,,,,9.6,
Craibstone,06/10/2019 01:00,10.7,,,,1.2,,96,,,-,,,,,,,10.2,
Craibstone,06/10/2019 02:00,10.8,,,,1.2,,96,,,-,,,,,,,10.2,
Craibstone,06/10/2019 03:00,10.7,,,,0.8,,96,,,-,,,,,,,10.2,
Craibstone,06/10/2019 04:00,10.5,,,,0.6,,96,,,-,,,,,,,9.9,
Craibstone,06/10/2019 05:00,10.6,,,,0.4,,96,,,-,,,,,,,10,
Craibstone,06/10/2019 06:00,10.2,,10,,0.8,5,96,,,-,,,,,,,9.6,
Craibstone,06/10/2019 07:00,10.2,,,,1,,98,,,-,,,,,,,9.9,
Craibstone,06/10/2019 08:00,10.5,,,,2,,98,,,-,,,,,,,10.2,
Craibstone,06/10/2019 09:00,10,,,,1.4,,96,,,-,,,,,,,9.5,
Craibstone,06/10/2019 10:00,10.1,,,,0.8,,96,,,-,,,,,,,9.5,
Craibstone,06/10/2019 11:00,10.2,,,,3.4,,95,,,-,,,,,,,9.5,
Craibstone,06/10/2019 12:00,11.2,,,,0,9,89,,,-,,,,,,,9.5,
Craibstone,06/10/2019 13:00,11.6,,,,2.4,,86,,,-,,,,,,,9.5,
Craibstone,06/10/2019 14:00,12.1,,,,0,,82,,,-,,,,,,,9.2,
Craibstone,06/10/2019 15:00,11.8,,,,0,,85,,,-,,,,,,,9.5,
Craibstone,06/10/2019 16:00,11.3,,,,0,,89,,,-,,,,,,,9.7,
Craibstone,06/10/2019 17:00,10.9,,,,0,,91,,,-,,,,,,,9.5,
Craibstone,06/10/2019 18:00,10.2,,,12.5,0,2,93,,,-,,,,,,,9.2,
Craibstone,06/10/2019 19:00,10.6,,,,0,,94,,,-,,,,,,,9.8,
Craibstone,06/10/2019 20:00,10.6,,,,0,,89,,,-,,,,,,,9,
Craibstone,06/10/2019 21:00,10.3,,,,0,,91,,,-,,,,,,,8.9,
Craibstone,06/10/2019 22:00,10.4,,,,0,,89,,,-,,,,,,,8.7,
Craibstone,06/10/2019 23:00,10.8,,,,0,,86,,,-,,,,,,,8.6,
Craibstone,07/10/2019 00:00,10.7,,,,0,0,82,,,-,,,,,,,7.9,
Craibstone,07/10/2019 01:00,11.1,,,,0,,84,,,-,,,,,,,8.6,
Craibstone,07/10/2019 02:00,11.1,,,,0,,82,,,-,,,,,,,8.2,
Craibstone,07/10/2019 03:00,11.1,,,,0,,83,,,-,,,,,,,8.4,
Craibstone,07/10/2019 04:00,11,,,,0,,82,,,-,,,,,,,8.1,
Craibstone,07/10/2019 05:00,11.1,,,,0,,83,,,-,,,,,,,8.4,
Craibstone,07/10/2019 06:00,11.1,,10,,0,0,83,,,-,,,,,,,8.5,
Craibstone,07/10/2019 07:00,11,,,,0,,81,,,-,,,,,,,7.9,
Craibstone,07/10/2019 08:00,11,,,,0,,81,,,-,,,,,,,8,
Craibstone,07/10/2019 09:00,10.9,,,,0,,86,,,-,,,,,,,8.7,
Craibstone,07/10/2019 10:00,10.1,,,,0.4,,94,,,-,,,,,,,9.3,
Craibstone,07/10/2019 11:00,10,,,,0.8,,96,,,-,,,,,,,9.5,
Craibstone,07/10/2019 12:00,10.1,,,,0.8,2,95,,,-,,,,,,,9.4,
Craibstone,07/10/2019 13:00,10.1,,,,0.6,,96,,,-,,,,,,,9.5,
Craibstone,07/10/2019 14:00,10.4,,,,0,,96,,,-,,,,,,,9.8,
Craibstone,07/10/2019 15:00,10.6,,,,0,,95,,,-,,,,,,,9.9,
Craibstone,07/10/2019 16:00,11.2,,,,0,,92,,,-,,,,,,,10.1,
Craibstone,07/10/2019 17:00,10.7,,,,0,,94,,,-,,,,,,,9.8,
Craibstone,07/10/2019 18:00,10.2,,,11.2,0,1,95,,,-,,,,,,,9.5,
Craibstone,07/10/2019 19:00,9.2,,,,0,,96,,,-,,,,,,,8.6,
Craibstone,07/10/2019 20:00,9.6,,,,0,,97,,,-,,,,,,,9.2,
Craibstone,07/10/2019 21:00,7.9,,,,0,,94,,,-,,,,,,,7.1,
Craibstone,07/10/2019 22:00,9.2,,,,0,,92,,,-,,,,,,,8,
Craibstone,07/10/2019 23:00,8.8,,,,0,,90,,,-,,,,,,,7.4,
Craibstone,08/10/2019 00:00,7.6,,,,0,0,95,,,-,,,,,,,7,
Craibstone,08/10/2019 01:00,8.6,,,,0,,91,,,-,,,,,,,7.3,
Craibstone,08/10/2019 02:00,8.5,,,,0.2,,92,,,-,,,,,,,7.3,
Craibstone,08/10/2019 03:00,8,,,,0,,94,,,-,,,,,,,7.1,
Craibstone,08/10/2019 04:00,8.6,,,,0,,90,,,-,,,,,,,7.2,
Craibstone,08/10/2019 05:00,8.2,,,,0,,95,,,-,,,,,,,7.5,
Craibstone,08/10/2019 06:00,8.8,,7.3,,0,0.2,92,,,-,,,,,,,7.7,
Craibstone,08/10/2019 07:00,8.8,,,,0,,94,,,-,,,,,,,8,
Craibstone,08/10/2019 08:00,9.4,,,,0.2,,94,,,-,,,,,,,8.5,
Craibstone,08/10/2019 09:00,11.1,,,,0,,82,,,-,,,,,,,8.3,
Craibstone,08/10/2019 10:00,11.3,,,,0,,70,,,-,,,,,,,6.1,
Craibstone,08/10/2019 11:00,10.8,,,,0,,76,,,-,,,,,,,6.8,
Craibstone,08/10/2019 12:00,11.7,,,,0,0.2,76,,,-,,,,,,,7.7,
Craibstone,08/10/2019 13:00,12.4,,,,0,,72,,,-,,,,,,,7.6,
Craibstone,08/10/2019 14:00,11.7,,,,0,,74,,,-,,,,,,,7.4,
Craibstone,08/10/2019 15:00,11.2,,,,0,,77,,,-,,,,,,,7.4,
Craibstone,08/10/2019 16:00,11.1,,,,0,,78,,,-,,,,,,,7.5,
Craibstone,08/10/2019 17:00,10.8,,,,0,,80,,,-,,,,,,,7.6,
Craibstone,08/10/2019 18:00,10.4,,,12.4,0,0,81,,,-,,,,,,,7.4,
Craibstone,08/10/2019 19:00,10,,,,0,,82,,,-,,,,,,,7.1,
Craibstone,08/10/2019 20:00,9.8,,,,0,,78,,,-,,,,,,,6.2,
Craibstone,08/10/2019 21:00,9.1,,,,0,,83,,,-,,,,,,,6.5,
Craibstone,08/10/2019 22:00,9,,,,0,,86,,,-,,,,,,,6.8,
Craibstone,08/10/2019 23:00,8.9,,,,0,,86,,,-,,,,,,,6.8,
Craibstone,09/10/2019 00:00,8.9,,,,0,0,86,,,-,,,,,,,6.7,
Craibstone,09/10/2019 01:00,9.4,,,,0,,84,,,-,,,,,,,6.9,
Craibstone,09/10/2019 02:00,8.9,,,,0,,84,,,-,,,,,,,6.5,
Craibstone,09/10/2019 03:00,9.1,,,,0,,83,,,-,,,,,,,6.4,
Craibstone,09/10/2019 04:00,9,,,,0,,81,,,-,,,,,,,6,
Craibstone,09/10/2019 05:00,9.5,,,,0,,77,,,-,,,,,,,5.7,
Craibstone,09/10/2019 06:00,9.5,,8.8,,0,0,78,,,-,,,,,,,5.9,
Craibstone,09/10/2019 07:00,9.3,,,,0,,80,,,-,,,,,,,6.2,
Craibstone,09/10/2019 08:00,9.8,,,,0,,77,,,-,,,,,,,6.1,
Craibstone,09/10/2019 09:00,10.7,,,,0,,74,,,-,,,,,,,6.3,
Craibstone,09/10/2019 10:00,10.5,,,,0,,73,,,-,,,,,,,6,
Craibstone,09/10/2019 11:00,12.8,,,,0,,67,,,-,,,,,,,7,
Craibstone,09/10/2019 12:00,12.3,,,,0,0,64,,,-,,,,,,,5.9,
Craibstone,09/10/2019 13:00,12.5,,,,0,,62,,,-,,,,,,,5.5,
Craibstone,09/10/2019 14:00,12.2,,,,0,,62,,,-,,,,,,,5.2,
Craibstone,09/10/2019 15:00,12.4,,,,0,,62,,,-,,,,,,,5.4,
Craibstone,09/10/2019 16:00,12.8,,,,0,,63,,,-,,,,,,,6,
Craibstone,09/10/2019 17:00,10.7,,,,0,,69,,,-,,,,,,,5.4,
Craibstone,09/10/2019 18:00,10.1,,,13.5,0,0,72,,,-,,,,,,,5.3,
Craibstone,09/10/2019 19:00,9.7,,,,0,,74,,,-,,,,,,,5.4,
Craibstone,09/10/2019 20:00,9.4,,,,0,,76,,,-,,,,,,,5.5,
Craibstone,09/10/2019 21:00,9.3,,,,0,,77,,,-,,,,,,,5.6,
Craibstone,09/10/2019 22:00,9.5,,,,0,,78,,,-,,,,,,,6,
Craibstone,09/10/2019 23:00,9.6,,,,0,,79,,,-,,,,,,,6.3,
Craibstone,10/10/2019 00:00,9.8,,,,0,0,79,,,-,,,,,,,6.5,
Craibstone,10/10/2019 01:00,10.1,,,,0,,79,,,-,,,,,,,6.7,
Craibstone,10/10/2019 02:00,9.8,,,,0,,80,,,-,,,,,,,6.6,
Craibstone,10/10/2019 03:00,9.6,,,,0,,79,,,-,,,,,,,6.2,
Craibstone,10/10/2019 04:00,10.1,,,,0,,77,,,-,,,,,,,6.4,
Craibstone,10/10/2019 05:00,10,,,,0,,75,,,-,,,,,,,5.9,
Craibstone,10/10/2019 06:00,10.2,,9.2,,0,0,76,,,-,,,,,,,6.3,
Craibstone,10/10/2019 07:00,9.7,,,,0,,78,,,-,,,,,,,6.1,
Craibstone,10/10/2019 08:00,10.1,,,,0,,71,,,-,,,,,,,5.2,
Craibstone,10/10/2019 09:00,11.1,,,,0,,68,,,-,,,,,,,5.6,
Craibstone,10/10/2019 10:00,12.3,,,,0,,61,,,-,,,,,,,5.2,
Craibstone,10/10/2019 11:00,13.3,,,,0,,60,,,-,,,,,,,5.8,
Craibstone,10/10/2019 12:00,13.8,,,,0,0,57,,,-,,,,,,,5.5,
Craibstone,10/10/2019 13:00,13.7,,,,0,,58,,,-,,,,,,,5.7,
Craibstone,10/10/2019 14:00,12.7,,,,0,,66,,,-,,,,,,,6.7,
Craibstone,10/10/2019 15:00,11.7,,,,0,,78,,,-,,,,,,,8,
Craibstone,10/10/2019 16:00,11.3,,,,0,,76,,,-,,,,,,,7.4,
Craibstone,10/10/2019 17:00,10.2,,,,0,,83,,,-,,,,,,,7.5,
Craibstone,10/10/2019 18:00,9,,,14.4,1,1,94,,,-,,,,,,,8.1,
Craibstone,10/10/2019 19:00,8.6,,,,0.8,,96,,,-,,,,,,,8,
Craibstone,10/10/2019 20:00,9.1,,,,0,,97,,,-,,,,,,,8.7,
Craibstone,10/10/2019 21:00,9.5,,,,0,,97,,,-,,,,,,,9.2,
Craibstone,10/10/2019 22:00,9.1,,,,0,,97,,,-,,,,,,,8.7,
Craibstone,10/10/2019 23:00,9.6,,,,0,,96,,,-,,,,,,,9.1,
Craibstone,11/10/2019 00:00,9.9,,,,0.2,1,93,,,-,,,,,,,8.9,
Craibstone,11/10/2019 01:00,9.6,,,,0,,92,,,-,,,,,,,8.4,
Craibstone,11/10/2019 02:00,9.5,,,,0,,90,,,-,,,,,,,8,
Craibstone,11/10/2019 03:00,9.1,,,,0,,87,,,-,,,,,,,7.2,
Craibstone,11/10/2019 04:00,8.6,,,,0,,89,,,-,,,,,,,6.9,
Craibstone,11/10/2019 05:00,8.5,,,,0,,87,,,-,,,,,,,6.6,
Craibstone,11/10/2019 06:00,8.7,,8.3,,0,0,88,,,-,,,,,,,6.9,
Craibstone,11/10/2019 07:00,8.9,,,,0,,86,,,-,,,,,,,6.8,
Craibstone,11/10/2019 08:00,9.8,,,,0,,83,,,-,,,,,,,7.2,
Craibstone,11/10/2019 09:00,10.7,,,,0,,78,,,-,,,,,,,7.1,
Craibstone,11/10/2019 10:00,12.4,,,,0,,70,,,-,,,,,,,7.1,
Craibstone,11/10/2019 11:00,12.9,,,,0,,64,,,-,,,,,,,6.3,
Craibstone,11/10/2019 12:00,13.4,,,,0,0,60,,,-,,,,,,,5.9,
Craibstone,11/10/2019 13:00,13.3,,,,0,,60,,,-,,,,,,,5.9,
Craibstone,11/10/2019 14:00,12.7,,,,0,,61,,,-,,,,,,,5.6,
Craibstone,11/10/2019 15:00,12.5,,,,0,,63,,,-,,,,,,,5.8,
Craibstone,11/10/2019 16:00,12.2,,,,0,,62,,,-,,,,,,,5.2,
Craibstone,11/10/2019 17:00,11.5,,,,0,,66,,,-,,,,,,,5.4,
Craibstone,11/10/2019 18:00,10.9,,,14.2,0,0,64,,,-,,,,,,,4.4,
Craibstone,11/10/2019 19:00,9.6,,,,0,,71,,,-,,,,,,,4.8,
Craibstone,11/10/2019 20:00,8.8,,,,0,,73,,,-,,,,,,,4.4,
Craibstone,11/10/2019 21:00,8.3,,,,0,,78,,,-,,,,,,,4.7,
Craibstone,11/10/2019 22:00,8.4,,,,0,,79,,,-,,,,,,,5.1,
Craibstone,11/10/2019 23:00,8.9,,,,0,,78,,,-,,,,,,,5.3,
Craibstone,12/10/2019 00:00,9.4,,,,0,0,81,,,-,,,,,,,6.4,
Craibstone,12/10/2019 01:00,9.3,,,,0,,88,,,-,,,,,,,7.5,
Craibstone,12/10/2019 02:00,9.1,,,,0,,86,,,-,,,,,,,6.9,
Craibstone,12/10/2019 03:00,8.3,,,,0,,84,,,-,,,,,,,5.9,
Craibstone,12/10/2019 04:00,8.2,,,,0,,76,,,-,,,,,,,4.3,
Craibstone,12/10/2019 05:00,7.1,,,,0,,81,,,-,,,,,,,4.1,
Craibstone,12/10/2019 06:00,7.2,,6.9,,0,0,77,,,-,,,,,,,3.6,
Craibstone,12/10/2019 07:00,6.6,,,,0,,82,,,-,,,,,,,3.8,
Craibstone,12/10/2019 08:00,8.7,,,,0,,73,,,-,,,,,,,4.2,
Craibstone,12/10/2019 09:00,9.9,,,,0,,71,,,-,,,,,,,4.9,
Craibstone,12/10/2019 10:00,11.1,,,,0,,64,,,-,,,,,,,4.6,
Craibstone,12/10/2019 11:00,12.2,,,,0,,58,,,-,,,,,,,4.3,
Craibstone,12/10/2019 12:00,12.3,,,,0,0,54,,,-,,,,,,,3.4,
Craibstone,12/10/2019 13:00,12.8,,,,0,,57,,,-,,,,,,,4.6,
Craibstone,12/10/2019 14:00,13.4,,,,0,,54,,,-,,,,,,,4.5,
Craibstone,12/10/2019 15:00,12.8,,,,0,,56,,,-,,,,,,,4.5,
Craibstone,12/10/2019 16:00,12.5,,,,0,,58,,,-,,,,,,,4.5,
Craibstone,12/10/2019 17:00,10.5,,,,0,,67,,,-,,,,,,,4.7,
Craibstone,12/10/2019 18:00,9.8,,,13.9,0,0,69,,,-,,,,,,,4.4,
Craibstone,12/10/2019 19:00,8,,,,0,,79,,,-,,,,,,,4.6,
Craibstone,12/10/2019 20:00,8.6,,,,0,,77,,,-,,,,,,,4.9,
Craibstone,12/10/2019 21:00,7.5,,,,0,,80,,,-,,,,,,,4.4,
Craibstone,12/10/2019 22:00,7.4,,,,0,,77,,,-,,,,,,,3.8,
Craibstone,12/10/2019 23:00,6.6,,,,0,,79,,,-,,,,,,,3.4,
Craibstone,13/10/2019 00:00,5,,,,0,0,91,,,-,,,,,,,3.7,
Craibstone,13/10/2019 01:00,7.2,,,,0,,80,,,-,,,,,,,4.1,
Craibstone,13/10/2019 02:00,6.6,,,,0,,81,,,-,,,,,,,3.6,
Craibstone,13/10/2019 03:00,5.4,,,,0,,79,,,-,,,,,,,2.1,
Craibstone,13/10/2019 04:00,3.5,,,,0,,93,,,-,,,,,,,2.6,
Craibstone,13/10/2019 05:00,2.9,,,,0,,94,,,-,,,,,,,2.1,
Craibstone,13/10/2019 06:00,2.6,,2.3,,0,0,97,,,-,,,,,,,2.2,
Craibstone,13/10/2019 07:00,2.2,,,,0,,97,,,-,,,,,,,1.8,
Craibstone,13/10/2019 08:00,3.5,,,,0,,98,,,-,,,,,,,3.3,
Craibstone,13/10/2019 09:00,5.1,,,,0,,91,,,-,,,,,,,3.8,
Craibstone,13/10/2019 10:00,7.5,,,,0,,81,,,-,,,,,,,4.5,
Craibstone,13/10/2019 11:00,6.9,,,,0,,86,,,-,,,,,,,4.8,
Craibstone,13/10/2019 12:00,8.8,,,,0,0,80,,,-,,,,,,,5.6,
Craibstone,13/10/2019 13:00,10.1,,,,0,,75,,,-,,,,,,,6,
Craibstone,13/10/2019 14:00,10.5,,,,0,,83,,,-,,,,,,,7.9,
Craibstone,13/10/2019 15:00,10.4,,,,0,,89,,,-,,,,,,,8.7,
Craibstone,13/10/2019 16:00,10.3,,,,0,,89,,,-,,,,,,,8.6,
Craibstone,13/10/2019 17:00,9.6,,,,0,,92,,,-,,,,,,,8.4,
Craibstone,13/10/2019 18:00,9.2,,,10.8,0,0,94,,,-,,,,,,,8.3,
Craibstone,13/10/2019 19:00,9.2,,,,0,,94,,,-,,,,,,,8.4,
Craibstone,13/10/2019 20:00,9.1,,,,0,,95,,,-,,,,,,,8.4,
Craibstone,13/10/2019 21:00,8.9,,,,0.2,,95,,,-,,,,,,,8.2,
Craibstone,13/10/2019 22:00,8.6,,,,2.2,,97,,,-,,,,,,,8.2,
Craibstone,13/10/2019 23:00,8.4,,,,1.4,,97,,,-,,,,,,,8,
Craibstone,14/10/2019 00:00,8.6,,,,0.4,4,97,,,-,,,,,,,8.3,
Craibstone,14/10/2019 01:00,8.2,,,,0.4,,96,,,-,,,,,,,7.7,
Craibstone,14/10/2019 02:00,7.5,,,,0,,97,,,-,,,,,,,7.1,
Craibstone,14/10/2019 03:00,7.7,,,,0,,97,,,-,,,,,,,7.4,
Craibstone,14/10/2019 04:00,7.3,,,,0,,98,,,-,,,,,,,7.1,
Craibstone,14/10/2019 05:00,6.1,,,,0,,97,,,-,,,,,,,5.8,
Craibstone,14/10/2019 06:00,6.2,,5.6,,0,1,99,,,-,,,,,,,6.1,
Craibstone,14/10/2019 07:00,5.1,,,,0,,97,,,-,,,,,,,4.8,
Craibstone,14/10/2019 08:00,5.8,,,,0.2,,99,,,-,,,,,,,5.7,
Craibstone,14/10/2019 09:00,8.2,,,,0,,99,,,-,,,,,,,8.1,
Craibstone,14/10/2019 10:00,11.2,,,,0,,81,,,-,,,,,,,8.2,
Craibstone,14/10/2019 11:00,12,,,,0,,71,,,-,,,,,,,7.1,
Craibstone,14/10/2019 12:00,12.9,,,,0,0.2,67,,,-,,,,,,,7,
Craibstone,14/10/2019 13:00,13.2,,,,0,,67,,,-,,,,,,,7.3,
Craibstone,14/10/2019 14:00,13.3,,,,0,,60,,,-,,,,,,,5.9,
Craibstone,14/10/2019 15:00,12.2,,,,0,,74,,,-,,,,,,,7.8,
Craibstone,14/10/2019 16:00,11.5,,,,0,,75,,,-,,,,,,,7.4,
Craibstone,14/10/2019 17:00,9.3,,,,0,,86,,,-,,,,,,,7.1,
Craibstone,14/10/2019 18:00,8.2,,,14.2,0,0,91,,,-,,,,,,,6.9,
Craibstone,14/10/2019 19:00,7.5,,,,0,,96,,,-,,,,,,,7,
Craibstone,14/10/2019 20:00,6.9,,,,0,,96,,,-,,,,,,,6.4,
Craibstone,14/10/2019 21:00,6.7,,,,0,,97,,,-,,,,,,,6.4,
Craibstone,14/10/2019 22:00,6.3,,,,0,,98,,,-,,,,,,,6.1,
Craibstone,14/10/2019 23:00,6.9,,,,0,,99,,,-,,,,,,,6.8,
Craibstone,15/10/2019 00:00,6.5,,,,0,0,98,,,-,,,,,,,6.3,
Craibstone,15/10/2019 01:00,5.7,,,,0,,99,,,-,,,,,,,5.6,
Craibstone,15/10/2019 02:00,6.4,,,,0,,100,,,-,,,,,,,6.4,
Craibstone,15/10/2019 03:00,7.3,,,,0,,100,,,-,,,,,,,7.3,
Craibstone,15/10/2019 04:00,6.9,,,,0,,99,,,-,,,,,,,6.8,
Craibstone,15/10/2019 05:00,6.6,,,,0,,100,,,-,,,,,,,6.6,
Craibstone,15/10/2019 06:00,6.5,,5.5,,0,0,100,,,-,,,,,,,6.5,
Craibstone,15/10/2019 07:00,6.4,,,,0,,100,,,-,,,,,,,6.4,
Craibstone,15/10/2019 08:00,6.7,,,,0,,99,,,-,,,,,,,6.6,
Craibstone,15/10/2019 09:00,7.7,,,,0,,100,,,-,,,,,,,7.7,
Craibstone,15/10/2019 10:00,8.4,,,,0.4,,100,,,-,,,,,,,8.4,
Craibstone,15/10/2019 11:00,9.4,,,,1,,99,,,-,,,,,,,9.3,
Craibstone,15/10/2019 12:00,10.2,,,,0.4,2,98,,,-,,,,,,,10,
Craibstone,15/10/2019 13:00,10.6,,,,0,,88,,,-,,,,,,,8.8,
Craibstone,15/10/2019 14:00,10.7,,,,0,,89,,,-,,,,,,,9.1,
Craibstone,15/10/2019 15:00,10.9,,,,0,,86,,,-,,,,,,,8.8,
Craibstone,15/10/2019 16:00,10.3,,,,0,,92,,,-,,,,,,,9.1,
Craibstone,15/10/2019 17:00,9.6,,,,0,,92,,,-,,,,,,,8.5,
Craibstone,15/10/2019 18:00,8.4,,,11.5,0,0,93,,,-,,,,,,,7.4,
Craibstone,15/10/2019 19:00,7.8,,,,0,,95,,,-,,,,,,,7.2,
Craibstone,15/10/2019 20:00,8.4,,,,0.2,,97,,,-,,,,,,,8.1,
Craibstone,15/10/2019 21:00,8.1,,,,0,,97,,,-,,,,,,,7.8,
Craibstone,15/10/2019 22:00,8.2,,,,0,,97,,,-,,,,,,,7.9,
Craibstone,15/10/2019 23:00,7.6,,,,0,,98,,,-,,,,,,,7.4,
Craibstone,16/10/2019 00:00,8,,,,0,0.2,99,,,-,,,,,,,7.9,
Craibstone,16/10/2019 01:00,7.2,,,,0,,98,,,-,,,,,,,7,
Craibstone,16/10/2019 02:00,8.1,,,,0,,99,,,-,,,,,,,8,
Craibstone,16/10/2019 03:00,8,,,,0,,95,,,-,,,,,,,7.4,
Craibstone,16/10/2019 04:00,7.3,,,,0,,97,,,-,,,,,,,7,
Craibstone,16/10/2019 05:00,7.9,,,,0,,98,,,-,,,,,,,7.7,
Craibstone,16/10/2019 06:00,8.8,,6.8,,0,0,98,,,-,,,,,,,8.6,
Craibstone,16/10/2019 07:00,8.5,,,,0,,98,,,-,,,,,,,8.3,
Craibstone,16/10/2019 08:00,10.2,,,,0,,98,,,-,,,,,,,10,
Craibstone,16/10/2019 09:00,10.6,,,,0,,93,,,-,,,,,,,9.6,
Craibstone,16/10/2019 10:00,10.8,,,,0,,92,,,-,,,,,,,9.6,
Craibstone,16/10/2019 11:00,11.3,,,,0,,91,,,-,,,,,,,10,
Craibstone,16/10/2019 12:00,11,,,,0,0,96,,,-,,,,,,,10.4,
Craibstone,16/10/2019 13:00,11.3,,,,0.4,,97,,,-,,,,,,,10.9,
Craibstone,16/10/2019 14:00,11.8,,,,0,,94,,,-,,,,,,,11,
Craibstone,16/10/2019 15:00,11.8,,,,0.2,,93,,,-,,,,,,,10.8,
Craibstone,16/10/2019 16:00,10.9,,,,0.2,,93,,,-,,,,,,,9.9,
Craibstone,16/10/2019 17:00,10.1,,,,0,,91,,,-,,,,,,,8.8,
Craibstone,16/10/2019 18:00,9.5,,,11.9,0,0.8,92,,,-,,,,,,,8.3,
Craibstone,16/10/2019 19:00,8.1,,,,0,,94,,,-,,,,,,,7.3,
Craibstone,16/10/2019 20:00,7.8,,,,0,,93,,,-,,,,,,,6.8,
Craibstone,16/10/2019 21:00,8.1,,,,0,,87,,,-,,,,,,,6.1,
Craibstone,16/10/2019 22:00,7.6,,,,0,,85,,,-,,,,,,,5.4,
Craibstone,16/10/2019 23:00,7.4,,,,0,,84,,,-,,,,,,,4.9,
Craibstone,17/10/2019 00:00,6.7,,,,0,0,82,,,-,,,,,,,3.9,
Craibstone,17/10/2019 01:00,7.3,,,,0,,79,,,-,,,,,,,4,
Craibstone,17/10/2019 02:00,4.4,,,,0,,88,,,-,,,,,,,2.6,
Craibstone,17/10/2019 03:00,5.2,,,,0,,89,,,-,,,,,,,3.6,
Craibstone,17/10/2019 04:00,5.4,,,,0,,92,,,-,,,,,,,4.3,
Craibstone,17/10/2019 05:00,6.1,,,,0,,83,,,-,,,,,,,3.6,
Craibstone,17/10/2019 06:00,2.6,,2.6,,0,0,91,,,-,,,,,,,1.3,
Craibstone,17/10/2019 07:00,4.1,,,,0,,91,,,-,,,,,,,2.9,
Craibstone,17/10/2019 08:00,6,,,,0.2,,93,,,-,,,,,,,5.1,
Craibstone,17/10/2019 09:00,8.3,,,,0,,84,,,-,,,,,,,5.8,
Craibstone,17/10/2019 10:00,10.3,,,,0,,83,,,-,,,,,,,7.6,
Craibstone,17/10/2019 11:00,11.7,,,,0,,76,,,-,,,,,,,7.8,
Craibstone,17/10/2019 12:00,11.8,,,,0,0.2,72,,,-,,,,,,,7.1,
Craibstone,17/10/2019 13:00,11.7,,,,0,,76,,,-,,,,,,,7.7,
Craibstone,17/10/2019 14:00,12.2,,,,0,,74,,,-,,,,,,,7.8,
Craibstone,17/10/2019 15:00,10.9,,,,0,,78,,,-,,,,,,,7.4,
Craibstone,17/10/2019 16:00,10.4,,,,0,,82,,,-,,,,,,,7.5,
Craibstone,17/10/2019 17:00,9.7,,,,0,,87,,,-,,,,,,,7.7,
Craibstone,17/10/2019 18:00,9.3,,,12.6,0,0,94,,,-,,,,,,,8.4,
Craibstone,17/10/2019 19:00,9.8,,,,0,,92,,,-,,,,,,,8.6,
Craibstone,17/10/2019 20:00,9.3,,,,0,,93,,,-,,,,,,,8.3,
Craibstone,17/10/2019 21:00,8.9,,,,0,,94,,,-,,,,,,,8.1,
Craibstone,17/10/2019 22:00,8.2,,,,0,,94,,,-,,,,,,,7.4,
Craibstone,17/10/2019 23:00,7.3,,,,0,,95,,,-,,,,,,,6.7,
Craibstone,18/10/2019 00:00,9.6,,,,0,0,98,,,-,,,,,,,9.3,
Craibstone,18/10/2019 01:00,10.3,,,,0,,95,,,-,,,,,,,9.6,
Craibstone,18/10/2019 02:00,8.3,,,,1.6,,94,,,-,,,,,,,7.5,
Craibstone,18/10/2019 03:00,9.2,,,,0,,97,,,-,,,,,,,8.9,
Craibstone,18/10/2019 04:00,8.2,,,,0,,97,,,-,,,,,,,7.8,
Craibstone,18/10/2019 05:00,7.4,,,,0,,97,,,-,,,,,,,7.1,
Craibstone,18/10/2019 06:00,7,,7,,0,2,99,,,-,,,,,,,6.9,
Craibstone,18/10/2019 07:00,7.2,,,,0,,100,,,-,,,,,,,7.2,
Craibstone,18/10/2019 08:00,8.3,,,,0.2,,100,,,-,,,,,,,8.3,
Craibstone,18/10/2019 09:00,8.3,,,,0.2,,100,,,-,,,,,,,8.3,
Craibstone,18/10/2019 10:00,9.1,,,,1.4,,100,,,-,,,,,,,9.1,
Craibstone,18/10/2019 11:00,9.7,,,,0.2,,99,,,-,,,,,,,9.6,
Craibstone,18/10/2019 12:00,9.9,,,,0,2,98,,,-,,,,,,,9.7,
Craibstone,18/10/2019 13:00,9.7,,,,0.4,,98,,,-,,,,,,,9.4,
Craibstone,18/10/2019 14:00,9.7,,,,3.4,,98,,,-,,,,,,,9.4,
Craibstone,18/10/2019 15:00,8.4,,,,8.6,,94,,,-,,,,,,,7.5,
Craibstone,18/10/2019 16:00,8.2,,,,3.4,,97,,,-,,,,,,,7.8,
Craibstone,18/10/2019 17:00,8.1,,,,3.6,,97,,,-,,,,,,,7.8,
Craibstone,18/10/2019 18:00,8,,,10.1,5,24,98,,,-,,,,,,,7.8,
Craibstone,18/10/2019 19:00,8,,,,4.2,,98,,,-,,,,,,,7.8,
Craibstone,18/10/2019 20:00,7.9,,,,6.2,,98,,,-,,,,,,,7.7,
Craibstone,18/10/2019 21:00,8.3,,,,4.4,,96,,,-,,,,,,,7.8,
Craibstone,18/10/2019 22:00,8.1,,,,2,,98,,,-,,,,,,,7.9,
Craibstone,18/10/2019 23:00,8.6,,,,0.6,,98,,,-,,,,,,,8.4,
Craibstone,19/10/2019 00:00,9,,,,0,17,98,,,-,,,,,,,8.8,
Craibstone,19/10/2019 01:00,9.2,,,,0.2,,99,,,-,,,,,,,9.1,
Craibstone,19/10/2019 02:00,9.2,,,,0,,99,,,-,,,,,,,9.1,
Craibstone,19/10/2019 03:00,9.4,,,,0.2,,97,,,-,,,,,,,9.1,
Craibstone,19/10/2019 04:00,9.1,,,,1.8,,97,,,-,,,,,,,8.7,
Craibstone,19/10/2019 05:00,8.7,,,,0.8,,96,,,-,,,,,,,8.1,
Craibstone,19/10/2019 06:00,8.4,,7.9,,0.8,4,94,,,-,,,,,,,7.6,
Craibstone,19/10/2019 07:00,8.5,,,,0.2,,91,,,-,,,,,,,7.2,
Craibstone,19/10/2019 08:00,8.4,,,,0,,87,,,-,,,,,,,6.4,
Craibstone,19/10/2019 09:00,8.4,,,,0,,84,,,-,,,,,,,6,
Craibstone,19/10/2019 10:00,9,,,,0,,80,,,-,,,,,,,5.8,
Craibstone,19/10/2019 11:00,9.9,,,,0,,82,,,-,,,,,,,7,
Craibstone,19/10/2019 12:00,10.4,,,,0,0.2,71,,,-,,,,,,,5.5,
Craibstone,19/10/2019 13:00,10.3,,,,0,,73,,,-,,,,,,,5.8,
Craibstone,19/10/2019 14:00,10.8,,,,0,,70,,,-,,,,,,,5.6,
Craibstone,19/10/2019 15:00,10.3,,,,0,,73,,,-,,,,,,,5.8,
Craibstone,19/10/2019 16:00,9.6,,,,0,,76,,,-,,,,,,,5.6,
Craibstone,19/10/2019 17:00,9,,,,0,,83,,,-,,,,,,,6.3,
Craibstone,19/10/2019 18:00,8.4,,,10.9,0,0,83,,,-,,,,,,,5.7,
Craibstone,19/10/2019 19:00,8.3,,,,0,,83,,,-,,,,,,,5.7,
Craibstone,19/10/2019 20:00,8.7,,,,0,,83,,,-,,,,,,,6.1,
Craibstone,19/10/2019 21:00,8.1,,,,0,,87,,,-,,,,,,,6.1,
Craibstone,19/10/2019 22:00,7.9,,,,0.2,,87,,,-,,,,,,,6,
Craibstone,19/10/2019 23:00,7.2,,,,0,,87,,,-,,,,,,,5.3,
Craibstone,20/10/2019 00:00,7.2,,,,0,0.2,88,,,-,,,,,,,5.5,
Craibstone,20/10/2019 01:00,7.2,,,,0.4,,90,,,-,,,,,,,5.7,
Craibstone,20/10/2019 02:00,7.1,,,,0.2,,90,,,-,,,,,,,5.7,
Craibstone,20/10/2019 03:00,7.2,,,,0,,93,,,-,,,,,,,6.2,
Craibstone,20/10/2019 04:00,7.3,,,,0.2,,94,,,-,,,,,,,6.5,
Craibstone,20/10/2019 05:00,7.4,,,,0,,92,,,-,,,,,,,6.3,
Craibstone,20/10/2019 06:00,7.4,,6.9,,0,0.8,90,,,-,,,,,,,6,
Craibstone,20/10/2019 07:00,7.1,,,,0.4,,93,,,-,,,,,,,6.2,
Craibstone,20/10/2019 08:00,7,,,,0.4,,95,,,-,,,,,,,6.3,
Craibstone,20/10/2019 09:00,7.7,,,,0,,85,,,-,,,,,,,5.5,
Craibstone,20/10/2019 10:00,8.1,,,,0,,77,,,-,,,,,,,4.4,
Craibstone,20/10/2019 11:00,8.8,,,,0,,71,,,-,,,,,,,4,
Craibstone,20/10/2019 12:00,9,,,,0,0.8,70,,,-,,,,,,,3.9,
Craibstone,20/10/2019 13:00,8.9,,,,0,,69,,,-,,,,,,,3.6,
Craibstone,20/10/2019 14:00,9.4,,,,0,,66,,,-,,,,,,,3.5,
Craibstone,20/10/2019 15:00,8.9,,,,0,,67,,,-,,,,,,,3.2,
Craibstone,20/10/2019 16:00,8.2,,,,0,,82,,,-,,,,,,,5.4,
Craibstone,20/10/2019 17:00,7.6,,,,0,,83,,,-,,,,,,,5,
Craibstone,20/10/2019 18:00,7.4,,,9.8,0,0,84,,,-,,,,,,,5,
Craibstone,20/10/2019 19:00,7.4,,,,0,,82,,,-,,,,,,,4.6,
Craibstone,20/10/2019 20:00,7.3,,,,0,,83,,,-,,,,,,,4.7,
Craibstone,20/10/2019 21:00,7,,,,0,,85,,,-,,,,,,,4.7,
Craibstone,20/10/2019 22:00,6.6,,,,0,,89,,,-,,,,,,,5,
Craibstone,20/10/2019 23:00,6.6,,,,0,,87,,,-,,,,,,,4.6,
Craibstone,21/10/2019 00:00,6.5,,,,0,0,87,,,-,,,,,,,4.6,
Craibstone,21/10/2019 01:00,6,,,,0,,92,,,-,,,,,,,4.9,
Craibstone,21/10/2019 02:00,6.2,,,,0,,85,,,-,,,,,,,4,
Craibstone,21/10/2019 03:00,6.1,,,,0,,81,,,-,,,,,,,3.1,
Craibstone,21/10/2019 04:00,6,,,,0,,78,,,-,,,,,,,2.6,
Craibstone,21/10/2019 05:00,5.8,,,,0,,79,,,-,,,,,,,2.5,
Craibstone,21/10/2019 06:00,5.4,,5.3,,0,0,79,,,-,,,,,,,2.1,
Craibstone,21/10/2019 07:00,4.9,,,,0,,78,,,-,,,,,,,1.5,
Craibstone,21/10/2019 08:00,4.6,,,,0,,78,,,-,,,,,,,1.1,
Craibstone,21/10/2019 09:00,4.7,,,,0,,79,,,-,,,,,,,1.4,
Craibstone,21/10/2019 10:00,5.6,,,,0,,75,,,-,,,,,,,1.6,
Craibstone,21/10/2019 11:00,8,,,,0,,66,,,-,,,,,,,2.1,
Craibstone,21/10/2019 12:00,8.3,,,,0,0,65,,,-,,,,,,,2.2,
Craibstone,21/10/2019 13:00,8.1,,,,0,,67,,,-,,,,,,,2.4,
Craibstone,21/10/2019 14:00,8.4,,,,0,,67,,,-,,,,,,,2.7,
Craibstone,21/10/2019 15:00,9.2,,,,0,,67,,,-,,,,,,,3.4,
Craibstone,21/10/2019 16:00,7.8,,,,0,,72,,,-,,,,,,,3.2,
Craibstone,21/10/2019 17:00,5.4,,,,0,,82,,,-,,,,,,,2.6,
Craibstone,21/10/2019 18:00,4.4,,,9.5,0,0,88,,,-,,,,,,,2.6,
Craibstone,21/10/2019 19:00,3.8,,,,0,,89,,,-,,,,,,,2.3,
Craibstone,21/10/2019 20:00,4.2,,,,0,,88,,,-,,,,,,,2.4,
Craibstone,21/10/2019 21:00,3.6,,,,0,,89,,,-,,,,,,,2.1,
Craibstone,21/10/2019 22:00,4.4,,,,0,,84,,,-,,,,,,,2.1,
Craibstone,21/10/2019 23:00,5.3,,,,0,,80,,,-,,,,,,,2.3,
Craibstone,22/10/2019 00:00,6,,,,0,0,78,,,-,,,,,,,2.5,
Craibstone,22/10/2019 01:00,6,,,,0,,78,,,-,,,,,,,2.6,
Craibstone,22/10/2019 02:00,4.4,,,,0,,88,,,-,,,,,,,2.6,
Craibstone,22/10/2019 03:00,4.6,,,,0,,89,,,-,,,,,,,3.1,
Craibstone,22/10/2019 04:00,5.1,,,,0,,88,,,-,,,,,,,3.4,
Craibstone,22/10/2019 05:00,7.8,,,,0,,79,,,-,,,,,,,4.4,
Craibstone,22/10/2019 06:00,7.2,,3.4,,0,0,82,,,-,,,,,,,4.4,
Craibstone,22/10/2019 07:00,6.7,,,,0,,85,,,-,,,,,,,4.5,
Craibstone,22/10/2019 08:00,7.3,,,,0,,89,,,-,,,,,,,5.7,
Craibstone,22/10/2019 09:00,8.6,,,,0,,87,,,-,,,,,,,6.6,
Craibstone,22/10/2019 10:00,12,,,,0,,77,,,-,,,,,,,8.2,
Craibstone,22/10/2019 11:00,11.3,,,,0,,76,,,-,,,,,,,7.3,
Craibstone,22/10/2019 12:00,11.9,,,,0,0,78,,,-,,,,,,,8.3,
Craibstone,22/10/2019 13:00,11.4,,,,0,,80,,,-,,,,,,,8.2,
Craibstone,22/10/2019 14:00,12.1,,,,0,,78,,,-,,,,,,,8.5,
Craibstone,22/10/2019 15:00,11.4,,,,0,,82,,,-,,,,,,,8.6,
Craibstone,22/10/2019 16:00,10.8,,,,0,,83,,,-,,,,,,,8.1,
Craibstone,22/10/2019 17:00,9.6,,,,0,,88,,,-,,,,,,,7.8,
Craibstone,22/10/2019 18:00,9.2,,,12.7,0,0,89,,,-,,,,,,,7.5,
Craibstone,22/10/2019 19:00,8.6,,,,0,,89,,,-,,,,,,,7,
Craibstone,22/10/2019 20:00,8.7,,,,0,,89,,,-,,,,,,,7.1,
Craibstone,22/10/2019 21:00,7.9,,,,0,,90,,,-,,,,,,,6.5,
Craibstone,22/10/2019 22:00,8.3,,,,0,,88,,,-,,,,,,,6.5,
Craibstone,22/10/2019 23:00,8.6,,,,0,,86,,,-,,,,,,,6.4,
Craibstone,23/10/2019 00:00,8.4,,,,0,0,87,,,-,,,,,,,6.4,
Craibstone,23/10/2019 01:00,7.9,,,,0,,87,,,-,,,,,,,6,
Craibstone,23/10/2019 02:00,8.1,,,,0,,91,,,-,,,,,,,6.8,
Craibstone,23/10/2019 03:00,8,,,,0,,90,,,-,,,,,,,6.6,
Craibstone,23/10/2019 04:00,8.4,,,,0,,89,,,-,,,,,,,6.7,
Craibstone,23/10/2019 05:00,8.2,,,,0,,92,,,-,,,,,,,7,
Craibstone,23/10/2019 06:00,8.3,,7.5,,0,0,91,,,-,,,,,,,7,
Craibstone,23/10/2019 07:00,9,,,,0,,87,,,-,,,,,,,7,
Craibstone,23/10/2019 08:00,9.6,,,,0,,84,,,-,,,,,,,7.2,
Craibstone,23/10/2019 09:00,9.8,,,,0,,84,,,-,,,,,,,7.3,
Craibstone,23/10/2019 10:00,10.4,,,,0,,82,,,-,,,,,,,7.5,
Craibstone,23/10/2019 11:00,10.8,,,,0,,81,,,-,,,,,,,7.8,
Craibstone,23/10/2019 12:00,11.3,,,,0,0,79,,,-,,,,,,,7.8,
Craibstone,23/10/2019 13:00,12.1,,,,0,,73,,,-,,,,,,,7.5,
Craibstone,23/10/2019 14:00,12.1,,,,0,,73,,,-,,,,,,,7.5,
Craibstone,23/10/2019 15:00,11.9,,,,0,,74,,,-,,,,,,,7.6,
Craibstone,23/10/2019 16:00,11.8,,,,0,,75,,,-,,,,,,,7.7,
Craibstone,23/10/2019 17:00,11.2,,,,0,,79,,,-,,,,,,,7.8,
Craibstone,23/10/2019 18:00,10.9,,,12.2,0,0,80,,,-,,,,,,,7.6,
Craibstone,23/10/2019 19:00,10.8,,,,0,,77,,,-,,,,,,,7.1,
Craibstone,23/10/2019 20:00,10.6,,,,0,,77,,,-,,,,,,,6.9,
Craibstone,23/10/2019 21:00,10.3,,,,0,,81,,,-,,,,,,,7.2,
Craibstone,23/10/2019 22:00,9.9,,,,0,,85,,,-,,,,,,,7.5,
Craibstone,23/10/2019 23:00,10,,,,0,,85,,,-,,,,,,,7.7,
Craibstone,24/10/2019 00:00,10.3,,,,0,0,84,,,-,,,,,,,7.8,
Craibstone,24/10/2019 01:00,10.3,,,,0,,85,,,-,,,,,,,8,
Craibstone,24/10/2019 02:00,10.2,,,,0,,87,,,-,,,,,,,8.2,
Craibstone,24/10/2019 03:00,10.5,,,,0,,88,,,-,,,,,,,8.7,
Craibstone,24/10/2019 04:00,10.1,,,,0,,87,,,-,,,,,,,8.2,
Craibstone,24/10/2019 05:00,9.7,,,,0,,87,,,-,,,,,,,7.7,
Craibstone,24/10/2019 06:00,9.9,,9.2,,0,0,89,,,-,,,,,,,8.3,
Craibstone,24/10/2019 07:00,9.7,,,,0,,86,,,-,,,,,,,7.6,
Craibstone,24/10/2019 08:00,9.2,,,,0,,92,,,-,,,,,,,8,
Craibstone,24/10/2019 09:00,10.5,,,,0,,84,,,-,,,,,,,8,
Craibstone,24/10/2019 10:00,11.3,,,,0,,75,,,-,,,,,,,7.2,
Craibstone,24/10/2019 11:00,11.6,,,,0,,74,,,-,,,,,,,7.2,
Craibstone,24/10/2019 12:00,13,,,,0,0,67,,,-,,,,,,,7.2,
Craibstone,24/10/2019 13:00,12.7,,,,0,,61,,,-,,,,,,,5.6,
Craibstone,24/10/2019 14:00,12.3,,,,0,,67,,,-,,,,,,,6.4,
Craibstone,24/10/2019 15:00,12.7,,,,0,,67,,,-,,,,,,,6.9,
Craibstone,24/10/2019 16:00,9.8,,,,0,,68,,,-,,,,,,,4.3,
Craibstone,24/10/2019 17:00,8.4,,,,0,,70,,,-,,,,,,,3.4,
Craibstone,24/10/2019 18:00,7.3,,,13.5,0,0,69,,,-,,,,,,,2.1,
Craibstone,24/10/2019 19:00,5.8,,,,0,,73,,,-,,,,,,,1.4,
Craibstone,24/10/2019 20:00,4.5,,,,0,,75,,,-,,,,,,,0.5,
Craibstone,24/10/2019 21:00,3.6,,,,0,,80,,,-,,,,,,,0.6,
Craibstone,24/10/2019 22:00,3.3,,,,0,,80,,,-,,,,,,,0.3,
Craibstone,24/10/2019 23:00,2.4,,,,0,,84,,,-,,,,,,,0,
Craibstone,25/10/2019 00:00,2,,,,0,0,82,,,-,,,,,,,-0.6,
Craibstone,25/10/2019 01:00,2.1,,,,0,,80,,,-,,,,,,,-0.9,
Craibstone,25/10/2019 02:00,2.3,,,,0,,79,,,-,,,,,,,-0.8,
Craibstone,25/10/2019 03:00,2.7,,,,0,,73,,,-,,,,,,,-1.6,
Craibstone,25/10/2019 04:00,2.3,,,,0,,70,,,-,,,,,,,-2.5,
Craibstone,25/10/2019 05:00,2.2,,,,0,,72,,,-,,,,,,,-2.3,
Craibstone,25/10/2019 06:00,2.1,,1.8,,0,0,72,,,-,,,,,,,-2.4,
Craibstone,25/10/2019 07:00,2.8,,,,0,,74,,,-,,,,,,,-1.2,
Craibstone,25/10/2019 08:00,3.6,,,,0,,76,,,-,,,,,,,-0.2,
Craibstone,25/10/2019 09:00,4.7,,,,0,,74,,,-,,,,,,,0.5,
Craibstone,25/10/2019 10:00,5.7,,,,0,,70,,,-,,,,,,,0.7,
Craibstone,25/10/2019 11:00,4.9,,,,0,,73,,,-,,,,,,,0.6,
Craibstone,25/10/2019 12:00,5.4,,,,0,0,73,,,-,,,,,,,1,
Craibstone,25/10/2019 13:00,6.2,,,,0,,71,,,-,,,,,,,1.5,
Craibstone,25/10/2019 14:00,6.2,,,,0,,72,,,-,,,,,,,1.7,
Craibstone,25/10/2019 15:00,6,,,,0,,75,,,-,,,,,,,2,
Craibstone,25/10/2019 16:00,5.7,,,,0,,76,,,-,,,,,,,1.9,
Craibstone,25/10/2019 17:00,5.6,,,,0,,78,,,-,,,,,,,2.1,
Craibstone,25/10/2019 18:00,4.9,,,6.6,0,0,82,,,-,,,,,,,2.2,
Craibstone,25/10/2019 19:00,4.9,,,,0,,80,,,-,,,,,,,1.9,
Craibstone,25/10/2019 20:00,3.9,,,,0,,82,,,-,,,,,,,1.2,
Craibstone,25/10/2019 21:00,3.4,,,,0,,79,,,-,,,,,,,0.2,
Craibstone,25/10/2019 22:00,3.4,,,,0,,78,,,-,,,,,,,0,
Craibstone,25/10/2019 23:00,3.1,,,,0,,76,,,-,,,,,,,-0.7,
Craibstone,26/10/2019 00:00,3.3,,,,0,0,75,,,-,,,,,,,-0.6,
Craibstone,26/10/2019 01:00,3.3,,,,0,,71,,,-,,,,,,,-1.4,
Craibstone,26/10/2019 02:00,3.1,,,,0,,69,,,-,,,,,,,-1.9,
Craibstone,26/10/2019 03:00,3.7,,,,0,,68,,,-,,,,,,,-1.6,
Craibstone,26/10/2019 04:00,4.7,,,,0,,65,,,-,,,,,,,-1.3,
Craibstone,26/10/2019 05:00,4.7,,,,0,,65,,,-,,,,,,,-1.3,
Craibstone,26/10/2019 06:00,4.8,,1.8,,0,0,66,,,-,,,,,,,-1,
Craibstone,26/10/2019 07:00,4.3,,,,0,,68,,,-,,,,,,,-1,
Craibstone,26/10/2019 08:00,4.2,,,,0,,69,,,-,,,,,,,-0.9,
Craibstone,26/10/2019 09:00,5.5,,,,0,,65,,,-,,,,,,,-0.5,
Craibstone,26/10/2019 10:00,6.7,,,,0,,61,,,-,,,,,,,-0.1,
Craibstone,26/10/2019 11:00,7.7,,,,0,,59,,,-,,,,,,,0.3,
Craibstone,26/10/2019 12:00,8.5,,,,0,0,55,,,-,,,,,,,0,
Craibstone,26/10/2019 13:00,8.9,,,,0,,55,,,-,,,,,,,0.4,
Craibstone,26/10/2019 14:00,9.4,,,,0,,53,,,-,,,,,,,0.4,
Craibstone,26/10/2019 15:00,8.8,,,,0,,53,,,-,,,,,,,-0.1,
Craibstone,26/10/2019 16:00,7.8,,,,0,,55,,,-,,,,,,,-0.5,
Craibstone,26/10/2019 17:00,6.4,,,,0,,64,,,-,,,,,,,0.2,
Craibstone,26/10/2019 18:00,5.4,,,9.5,0,0,68,,,-,,,,,,,0.1,
Craibstone,26/10/2019 19:00,5.4,,,,0,,69,,,-,,,,,,,0.2,
Craibstone,26/10/2019 20:00,4.9,,,,0,,73,,,-,,,,,,,0.5,
Craibstone,26/10/2019 21:00,4.3,,,,0,,76,,,-,,,,,,,0.6,
Craibstone,26/10/2019 22:00,5.2,,,,0,,73,,,-,,,,,,,0.8,
Craibstone,26/10/2019 23:00,5.8,,,,0,,72,,,-,,,,,,,1.2,
Craibstone,27/10/2019 00:00,5.9,,,,0,0,72,,,-,,,,,,,1.3,
Craibstone,27/10/2019 01:00,6.3,,,,0,,69,,,-,,,,,,,1.2,
Craibstone,27/10/2019 02:00,6.1,,,,0,,69,,,-,,,,,,,1,
Craibstone,27/10/2019 03:00,6.7,,,,0,,68,,,-,,,,,,,1.4,
Craibstone,27/10/2019 04:00,5.9,,,,0,,79,,,-,,,,,,,2.6,
Craibstone,27/10/2019 05:00,6.1,,,,0,,77,,,-,,,,,,,2.5,
Craibstone,27/10/2019 06:00,6.6,,4,,0,0,72,,,-,,,,,,,2.1,
Craibstone,27/10/2019 07:00,6.8,,,,0,,71,,,-,,,,,,,2,
Craibstone,27/10/2019 08:00,6.8,,,,0,,73,,,-,,,,,,,2.4,
Craibstone,27/10/2019 09:00,7.4,,,,0,,72,,,-,,,,,,,2.7,
Craibstone,27/10/2019 10:00,7,,,,0.8,,81,,,-,,,,,,,4,
Craibstone,27/10/2019 11:00,7.2,,,,0,,78,,,-,,,,,,,3.7,
Craibstone,27/10/2019 12:00,8.5,,,,0,0.8,79,,,-,,,,,,,5.2,
Craibstone,27/10/2019 13:00,7.8,,,,0.2,,84,,,-,,,,,,,5.4,
Craibstone,27/10/2019 14:00,8.4,,,,0,,77,,,-,,,,,,,4.7,
Craibstone,27/10/2019 15:00,6.9,,,,0,,77,,,-,,,,,,,3.3,
Craibstone,27/10/2019 16:00,6.8,,,,0,,78,,,-,,,,,,,3.3,
Craibstone,27/10/2019 17:00,6.2,,,,0,,77,,,-,,,,,,,2.6,
Craibstone,27/10/2019 18:00,5.6,,,8.6,0.2,0.2,83,,,-,,,,,,,3,
Craibstone,27/10/2019 19:00,5.5,,,,0,,83,,,-,,,,,,,3,
Craibstone,27/10/2019 20:00,5.4,,,,0,,82,,,-,,,,,,,2.6,
Craibstone,27/10/2019 21:00,4.9,,,,0,,85,,,-,,,,,,,2.7,
Craibstone,27/10/2019 22:00,4.6,,,,0,,88,,,-,,,,,,,2.9,
Craibstone,27/10/2019 23:00,4.4,,,,0,,91,,,-,,,,,,,3.1,
Craibstone,28/10/2019 00:00,4.6,,,,0,0,90,,,-,,,,,,,3.2,
Craibstone,28/10/2019 01:00,4.5,,,,0,,89,,,-,,,,,,,3,
Craibstone,28/10/2019 02:00,4.2,,,,0,,88,,,-,,,,,,,2.4,
Craibstone,28/10/2019 03:00,3.5,,,,0,,86,,,-,,,,,,,1.5,
Craibstone,28/10/2019 04:00,2.9,,,,0,,84,,,-,,,,,,,0.6,
Craibstone,28/10/2019 05:00,3.2,,,,0,,79,,,-,,,,,,,0,
Craibstone,28/10/2019 06:00,3.2,,2.8,,0,0,80,,,-,,,,,,,0.1,
Craibstone,28/10/2019 07:00,3.5,,,,0,,82,,,-,,,,,,,0.8,
Craibstone,28/10/2019 08:00,3.8,,,,0,,84,,,-,,,,,,,1.4,
Craibstone,28/10/2019 09:00,4.6,,,,0,,81,,,-,,,,,,,1.7,
Craibstone,28/10/2019 10:00,5.6,,,,0,,82,,,-,,,,,,,2.8,
Craibstone,28/10/2019 11:00,6.6,,,,0,,78,,,-,,,,,,,3.2,
Craibstone,28/10/2019 12:00,6.7,,,,0,0,77,,,-,,,,,,,3.1,
Craibstone,28/10/2019 13:00,6.2,,,,0.4,,86,,,-,,,,,,,4.1,
Craibstone,28/10/2019 14:00,5.8,,,,0.6,,89,,,-,,,,,,,4.2,
Craibstone,28/10/2019 15:00,6.4,,,,0,,84,,,-,,,,,,,4,
Craibstone,28/10/2019 16:00,5.6,,,,0,,83,,,-,,,,,,,3,
Craibstone,28/10/2019 17:00,5.3,,,,0,,86,,,-,,,,,,,3.2,
Craibstone,28/10/2019 18:00,5,,,7.5,0,1,88,,,-,,,,,,,3.2,
Craibstone,28/10/2019 19:00,4.6,,,,0,,89,,,-,,,,,,,3.1,
Craibstone,28/10/2019 20:00,4.6,,,,0.2,,90,,,-,,,,,,,3.2,
Craibstone,28/10/2019 21:00,4.6,,,,0,,88,,,-,,,,,,,2.8,
Craibstone,28/10/2019 22:00,4.4,,,,0,,86,,,-,,,,,,,2.4,
Craibstone,28/10/2019 23:00,4.1,,,,0,,89,,,-,,,,,,,2.6,
Craibstone,29/10/2019 00:00,4.5,,,,0,0.2,88,,,-,,,,,,,2.7,
Craibstone,29/10/2019 01:00,3.7,,,,0,,88,,,-,,,,,,,2,
Craibstone,29/10/2019 02:00,4.7,,,,0,,89,,,-,,,,,,,3.1,
Craibstone,29/10/2019 03:00,4.3,,,,0,,89,,,-,,,,,,,2.7,
Craibstone,29/10/2019 04:00,4.2,,,,0.2,,89,,,-,,,,,,,2.6,
Craibstone,29/10/2019 05:00,3.9,,,,0,,89,,,-,,,,,,,2.3,
Craibstone,29/10/2019 06:00,3.5,,3.4,,0,0.2,91,,,-,,,,,,,2.3,
Craibstone,29/10/2019 07:00,3.8,,,,0,,91,,,-,,,,,,,2.6,
Craibstone,29/10/2019 08:00,4.5,,,,0,,93,,,-,,,,,,,3.5,
Craibstone,29/10/2019 09:00,4.7,,,,0,,87,,,-,,,,,,,2.8,
Craibstone,29/10/2019 10:00,6.8,,,,0,,84,,,-,,,,,,,4.3,
Craibstone,29/10/2019 11:00,7.4,,,,0,,78,,,-,,,,,,,4,
Craibstone,29/10/2019 12:00,8.4,,,,0,0,78,,,-,,,,,,,4.9,
Craibstone,29/10/2019 13:00,9.1,,,,0,,75,,,-,,,,,,,5,
Craibstone,29/10/2019 14:00,7.5,,,,0.2,,82,,,-,,,,,,,4.7,
Craibstone,29/10/2019 15:00,7.6,,,,0,,79,,,-,,,,,,,4.3,
Craibstone,29/10/2019 16:00,6,,,,0,,85,,,-,,,,,,,3.7,
Craibstone,29/10/2019 17:00,5.6,,,,0,,86,,,-,,,,,,,3.6,
Craibstone,29/10/2019 18:00,5.6,,,9.4,0,0.2,88,,,-,,,,,,,3.8,
Craibstone,29/10/2019 19:00,5.1,,,,0,,90,,,-,,,,,,,3.6,
Craibstone,29/10/2019 20:00,3.7,,,,0,,93,,,-,,,,,,,2.8,
Craibstone,29/10/2019 21:00,3.7,,,,0,,95,,,-,,,,,,,3,
Craibstone,29/10/2019 22:00,3.4,,,,0,,93,,,-,,,,,,,2.5,
Craibstone,29/10/2019 23:00,3.3,,,,0,,95,,,-,,,,,,,2.7,
Craibstone,30/10/2019 00:00,3.6,,,,0.2,0.2,96,,,-,,,,,,,3.1,
Craibstone,30/10/2019 01:00,3.3,,,,0,,94,,,-,,,,,,,2.5,
Craibstone,30/10/2019 02:00,2.9,,,,0,,97,,,-,,,,,,,2.5,
Craibstone,30/10/2019 03:00,2.5,,,,0,,97,,,-,,,,,,,2.1,
Craibstone,30/10/2019 04:00,2.7,,,,0,,95,,,-,,,,,,,2,
Craibstone,30/10/2019 05:00,0.5,,,,0,,95,,,-,,,,,,,-0.2,
Craibstone,30/10/2019 06:00,2.4,,0.3,,0,0,96,,,-,,,,,,,1.9,
Craibstone,30/10/2019 07:00,0.7,,,,0,,95,,,-,,,,,,,0.1,
Craibstone,30/10/2019 08:00,1.3,,,,0,,95,,,-,,,,,,,0.6,
Craibstone,30/10/2019 09:00,1.4,,,,0,,95,,,-,,,,,,,0.7,
Craibstone,30/10/2019 10:00,3.7,,,,0.2,,95,,,-,,,,,,,3.1,
Craibstone,30/10/2019 11:00,6.1,,,,0,,91,,,-,,,,,,,4.8,
Craibstone,30/10/2019 12:00,6.5,,,,0,0.2,76,,,-,,,,,,,2.7,
Craibstone,30/10/2019 13:00,7.5,,,,0,,75,,,-,,,,,,,3.5,
Craibstone,30/10/2019 14:00,7.5,,,,0,,74,,,-,,,,,,,3.3,
Craibstone,30/10/2019 15:00,7.4,,,,0,,77,,,-,,,,,,,3.7,
Craibstone,30/10/2019 16:00,6.6,,,,0,,82,,,-,,,,,,,3.8,
Craibstone,30/10/2019 17:00,6.2,,,,0,,85,,,-,,,,,,,3.9,
Craibstone,30/10/2019 18:00,5.2,,,8.3,0,0,88,,,-,,,,,,,3.5,
Craibstone,30/10/2019 19:00,4.5,,,,0,,92,,,-,,,,,,,3.4,
Craibstone,30/10/2019 20:00,4.1,,,,0,,95,,,-,,,,,,,3.5,
Craibstone,30/10/2019 21:00,4.2,,,,0,,96,,,-,,,,,,,3.7,
Craibstone,30/10/2019 22:00,4.7,,,,0,,94,,,-,,,,,,,3.9,
Craibstone,30/10/2019 23:00,4.9,,,,0,,93,,,-,,,,,,,4,
Craibstone,31/10/2019 00:00,4.8,,,,0,0,95,,,-,,,,,,,4.1,
