Site,Date(UTC),Air Temp,Wind Speed,Min Temp,Max Temp,1Hr Precip,6Hr Precip,Rel Humidity,Wind Gust,Wind Direction,Weather,Pressure,Total Cloud,Visibility,Solar Rad,Sunshine,Snow Depth,Dew Point,OLE Temp
Wick,01/09/2016 00:00,12.4,15,,,0,0,87,,250,Dry,1012,1,40,,,,10.3,
Wick,01/09/2016 01:00,12.4,17,,,0,,83,,240,Dry,1012,4,45,,,,9.7,
Wick,01/09/2016 02:00,11.6,15,,,0,,83,,240,Dry,1013,1,45,,,,8.9,
Wick,01/09/2016 03:00,11,13,,,0,,81,,230,Dry,1013,0,40,,,,8,
Wick,01/09/2016 04:00,11.4,10,,,0,,79,,190,Dry,1013,1,40,,,,7.9,
Wick,01/09/2016 05:00,10.1,7,,,0,,83,,210,Dry,1013,1,40,,,,7.4,
Wick,01/09/2016 06:00,11.5,9,9.5,,0,0,81,,200,Dry,1014,1,45,,,,8.4,
Wick,01/09/2016 07:00,12.2,12,,,0,,80,,230,Dry,1014,1,40,,,,8.9,
Wick,01/09/2016 08:00,13.5,16,,,0,,74,,220,Dry,1014,1,40,,,,9.1,
Wick,01/09/2016 09:00,14.3,14,,,0,,69,,220,Dry,1014,1,45,,,,8.9,
Wick,01/09/2016 10:00,14.1,13,,,0,,75,,180,Dry,1014,3,45,,,,9.9,
Wick,01/09/2016 11:00,14.5,14,,,0,,76,,220,Dry,1013,3,45,,,,10.4,
Wick,01/09/2016 12:00,14.8,9,,,0,0,74,,200,Dry,1013,3,35,,,,10.4,
Wick,01/09/2016 13:00,14.4,12,,,0,,78,,190,Dry,1013,3,40,,,,10.7,
Wick,01/09/2016 14:00,13.9,16,,,0,,83,,200,Rain,1013,8,30,,,,11.1,
Wick,01/09/2016 15:00,13.1,15,,,0,,88,,200,Drizzly rain,1012,7,27,,,,11.3,
Wick,01/09/2016 16:00,13.6,14,,,0,,84,,190,Rain,1012,7,35,,,,11,
Wick,01/09/2016 17:00,13.4,9,,,0.2,,89,,170,Moderate shower,1011,7,18,,,,11.7,
Wick,01/09/2016 18:00,13.7,12,,14.9,0,0.2,84,,160,Rain,1010,7,35,,,,11.2,
Wick,01/09/2016 19:00,13.8,15,,,0,,79,,160,Dry,1009,6,40,,,,10.4,
Wick,01/09/2016 20:00,14.1,13,,,0,,82,,180,Dry,1009,2,35,,,,11.1,
Wick,01/09/2016 21:00,13.4,10,,,0,,87,,190,Dry,1009,4,35,,,,11.3,
Wick,01/09/2016 22:00,13.2,12,,,0,,88,,190,Dry,1008,0,35,,,,11.4,
Wick,01/09/2016 23:00,13.2,9,,,0,,91,,200,Dry,1008,3,45,,,,11.9,
Wick,02/09/2016 00:00,13.2,13,,,0,0,94,,200,Dry,1008,4,45,,,,12.3,
Wick,02/09/2016 01:00,13.1,12,,,0,,94,,200,Dry,1008,0,45,,,,12.3,
Wick,02/09/2016 02:00,13.1,9,,,0,,93,,200,Dry,1007,2,45,,,,12.1,
Wick,02/09/2016 03:00,13.2,10,,,0,,88,,220,Dry,1007,7,35,,,,11.4,
Wick,02/09/2016 04:00,12.7,6,,,0,,91,,240,Dry,1007,7,35,,,,11.3,
Wick,02/09/2016 05:00,13,8,,,0,,90,,230,Dry,1007,7,35,,,,11.4,
Wick,02/09/2016 06:00,13.3,3,12.4,,0,0,88,,220,Dry,1007,8,50,,,,11.5,
Wick,02/09/2016 07:00,13.7,9,,,0,,88,,230,Dry,1007,7,50,,,,11.8,
Wick,02/09/2016 08:00,14.9,8,,,0,,83,,240,Dry,1007,1,55,,,,12.1,
Wick,02/09/2016 09:00,16.6,13,,,0,,71,,230,Dry,1007,1,50,,,,11.5,
Wick,02/09/2016 10:00,14.7,13,,,0,,82,,240,Rain,1008,1,55,,,,11.7,
Wick,02/09/2016 11:00,15.7,13,,,0,,70,,260,Dry,1008,6,45,,,,10.3,
Wick,02/09/2016 12:00,16.9,13,,,0,0,63,,260,Dry,1008,1,50,,,,9.9,
Wick,02/09/2016 13:00,16.6,14,,,0,,60,,270,Dry,1008,1,40,,,,9,
Wick,02/09/2016 14:00,16.7,10,,,0,,63,,260,Dry,1008,4,40,,,,9.7,
Wick,02/09/2016 15:00,16.5,13,,,0,,64,,260,Dry,1007,1,40,,,,9.8,
Wick,02/09/2016 16:00,17,10,,,0,,61,,230,Dry,1007,2,45,,,,9.6,
Wick,02/09/2016 17:00,15.4,10,,,0,,63,,280,Dry,1008,5,45,,,,8.5,
Wick,02/09/2016 18:00,14.2,7,,17.9,0,0,71,,250,Moderate shower,1008,8,19,,,,9.2,
Wick,02/09/2016 19:00,13.5,7,,,0,,80,,230,Rain,1008,7,35,,,,10.3,
Wick,02/09/2016 20:00,12.2,6,,,0,,85,,250,Rain,1009,8,45,,,,9.8,
Wick,02/09/2016 21:00,12.2,5,,,0,,86,,210,Drizzly rain,1009,8,35,,,,10,
Wick,02/09/2016 22:00,12.5,10,,,0,,87,,230,Light shower,1009,8,30,,,,10.5,
Wick,02/09/2016 23:00,12.5,6,,,0.2,,89,,190,Light rain,1008,8,30,,,,10.8,
Wick,03/09/2016 00:00,12.3,8,,,0,0.2,92,,190,Rain,1008,3,35,,,,11.1,
Wick,03/09/2016 01:00,11.7,6,,,0,,88,,210,Dry,1008,0,40,,,,9.9,
Wick,03/09/2016 02:00,11.2,6,,,0,,89,,200,Dry,1008,1,40,,,,9.6,
Wick,03/09/2016 03:00,10.4,5,,,0,,91,,230,Dry,1008,0,35,,,,9.1,
Wick,03/09/2016 04:00,11.2,5,,,0,,92,,200,Dry,1008,5,35,,,,10,
Wick,03/09/2016 05:00,11.6,7,,,0,,90,,190,Light shower,1008,8,14,,,,10.1,
Wick,03/09/2016 06:00,12.1,7,10.2,,0,0,90,,180,Rain,1008,6,35,,,,10.6,
Wick,03/09/2016 07:00,12.7,10,,,0,,87,,200,Dry,1008,3,35,,,,10.7,
Wick,03/09/2016 08:00,13.2,10,,,0,,87,,190,Dry,1008,7,35,,,,11.1,
Wick,03/09/2016 09:00,14.2,12,,,0,,84,,190,Dry,1008,8,45,,,,11.6,
Wick,03/09/2016 10:00,15.2,12,,,0,,79,,180,Dry,1007,0,40,,,,11.6,
Wick,03/09/2016 11:00,15.4,13,,,0,,77,,170,Dry,1007,0,45,,,,11.5,
Wick,03/09/2016 12:00,15.2,12,,,0,0,79,,160,Dry,1007,7,45,,,,11.7,
Wick,03/09/2016 13:00,15.8,12,,,0,,72,,160,Dry,1007,7,50,,,,10.9,
Wick,03/09/2016 14:00,15.6,12,,,0,,78,,150,Dry,1007,7,40,,,,11.8,
Wick,03/09/2016 15:00,16.5,9,,,0,,76,,140,Dry,1006,0,50,,,,12.4,
Wick,03/09/2016 16:00,14.9,10,,,0,,81,,130,Dry,1006,7,40,,,,11.8,
Wick,03/09/2016 17:00,15.3,9,,,0,,81,,130,Dry,1006,0,45,,,,12.1,
Wick,03/09/2016 18:00,14.8,9,,16.5,0,0,79,,130,Dry,1006,0,40,,,,11.3,
Wick,03/09/2016 19:00,13.7,8,,,0,,92,,120,Dry,1006,0,29,,,,12.5,
Wick,03/09/2016 20:00,13.4,8,,,0,,95,,110,Dry,1006,8,20,,,,12.7,
Wick,03/09/2016 21:00,12.8,3,,,0,,98,,140,Dry,1006,0,16,,,,12.5,
Wick,03/09/2016 22:00,11.9,6,,,0,,98,,70,Dry,1006,0,18,,,,11.7,
Wick,03/09/2016 23:00,11.1,6,,,0,,100,,50,Dry,1006,0,16,,,,11.1,
Wick,04/09/2016 00:00,12.3,3,,,0,0,100,,50,Dry,1006,7,13,,,,12.3,
Wick,04/09/2016 01:00,10.1,7,,,0,,99,,20,Thickening fog,1006,7,0,,,,10,
Wick,04/09/2016 02:00,12.5,5,,,0,,100,,50,Fog,1006,8,12,,,,12.5,
Wick,04/09/2016 03:00,12.6,5,,,0,,100,,360,Misty,1007,8,10,,,,12.6,
Wick,04/09/2016 04:00,12.6,5,,,0,,100,,40,Dry,1007,8,11,,,,12.6,
Wick,04/09/2016 05:00,12.7,6,,,0,,100,,90,Dry,1007,8,13,,,,12.7,
Wick,04/09/2016 06:00,12.6,9,10.1,,0,0,100,,110,Misty,1008,8,9,,,,12.6,
Wick,04/09/2016 07:00,12.7,7,,,0,,96,,120,Dry,1009,8,24,,,,12.2,
Wick,04/09/2016 08:00,13,6,,,0,,92,,110,Dry,1009,8,30,,,,11.8,
Wick,04/09/2016 09:00,13.4,6,,,0,,89,,120,Dry,1010,8,35,,,,11.7,
Wick,04/09/2016 10:00,14,6,,,0,,86,,90,Dry,1010,8,30,,,,11.7,
Wick,04/09/2016 11:00,14.3,8,,,0,,86,,80,Dry,1011,8,30,,,,12.1,
Wick,04/09/2016 12:00,14.5,8,,,0,0,84,,100,Dry,1011,8,30,,,,12,
Wick,04/09/2016 13:00,14.6,8,,,0,,87,,100,Dry,1012,1,30,,,,12.6,
Wick,04/09/2016 14:00,14.7,9,,,0,,86,,100,Dry,1012,7,30,,,,12.5,
Wick,04/09/2016 15:00,14.5,10,,,0,,90,,100,Dry,1013,6,30,,,,12.9,
Wick,04/09/2016 16:00,14.7,10,,,0,,90,,110,Dry,1013,1,30,,,,13.2,
Wick,04/09/2016 17:00,14.6,9,,,0,,91,,120,Dry,1013,2,30,,,,13.2,
Wick,04/09/2016 18:00,13.8,7,,15.7,0,0,94,,130,Dry,1013,4,25,,,,13,
Wick,04/09/2016 19:00,13.3,7,,,0,,96,,130,Dry,1014,1,27,,,,12.8,
Wick,04/09/2016 20:00,13,7,,,0,,97,,120,Dry,1014,1,25,,,,12.6,
Wick,04/09/2016 21:00,12.8,8,,,0,,98,,120,Dry,1014,0,26,,,,12.6,
Wick,04/09/2016 22:00,13,12,,,0,,97,,120,Dry,1014,1,28,,,,12.6,
Wick,04/09/2016 23:00,12.9,10,,,0,,98,,120,Dry,1013,7,24,,,,12.6,
Wick,05/09/2016 00:00,13.1,12,,,0,0,96,,130,Dry,1014,6,26,,,,12.6,
Wick,05/09/2016 01:00,13.1,14,,,0,,96,,130,Dry,1013,4,27,,,,12.5,
Wick,05/09/2016 02:00,13.1,14,,,0,,95,,130,Dry,1013,1,25,,,,12.4,
Wick,05/09/2016 03:00,13,15,,,0,,94,,130,Dry,1013,0,27,,,,12.2,
Wick,05/09/2016 04:00,12.9,15,,,0,,95,,130,Dry,1012,3,26,,,,12.2,
Wick,05/09/2016 05:00,13,13,,,0,,95,,140,Dry,1012,6,25,,,,12.3,
Wick,05/09/2016 06:00,13,13,,,,,,,140,-,,3,10,,,,12,
Wick,05/09/2016 07:00,13.4,15,,,0,,93,,140,Dry,1012,3,26,,,,12.3,
Wick,05/09/2016 08:00,13.6,15,,,0,,92,,140,Dry,1012,3,21,,,,12.4,
Wick,05/09/2016 09:00,13.7,18,,,0,,92,29,140,Dry,1011,2,23,,,,12.5,
Wick,05/09/2016 10:00,13.9,18,,,0,,94,29,140,Haze,1011,1,7,,,,13,
Wick,05/09/2016 11:00,14.3,15,,,0,,94,,130,Rain,1010,3,24,,,,13.4,
Wick,05/09/2016 12:00,15.7,17,,,0,0,84,,150,Dry,1010,7,26,,,,13.1,
Wick,05/09/2016 13:00,16.2,15,,,0,,82,30,140,Dry,1010,1,30,,,,13.3,
Wick,05/09/2016 14:00,16.3,16,,,0,,81,31,160,Dry,1010,6,29,,,,13.2,
Wick,05/09/2016 15:00,15.8,15,,,0,,85,,150,Dry,1010,7,29,,,,13.3,
Wick,05/09/2016 16:00,17.2,16,,,0,,79,,180,Dry,1010,5,40,,,,13.6,
Wick,05/09/2016 17:00,17.6,9,,,0,,83,,150,Dry,1010,1,45,,,,14.7,
Wick,05/09/2016 18:00,16.9,16,,18.1,0,0,83,,190,Dry,1010,1,40,,,,14.1,
Wick,05/09/2016 19:00,17,16,,,0,,83,,240,Dry,1011,1,45,,,,14.1,
Wick,05/09/2016 20:00,17.2,8,,,0,,76,,220,Dry,1012,1,35,,,,13.1,
Wick,05/09/2016 21:00,14.7,6,,,0,,87,,100,Dry,1012,0,30,,,,12.6,
Wick,05/09/2016 22:00,15.1,7,,,0,,85,,190,Dry,1012,0,40,,,,12.7,
Wick,05/09/2016 23:00,15.2,12,,,0,,82,,200,Dry,1011,0,45,,,,12.3,
Wick,06/09/2016 00:00,15.5,7,,,-0.2,0,79,,230,Dry,1012,0,40,,,,12,
Wick,06/09/2016 01:00,15,12,,,0,,84,,200,Dry,1011,0,35,,,,12.4,
Wick,06/09/2016 02:00,14.6,5,,,0,,88,,190,Dry,1011,0,30,,,,12.8,
Wick,06/09/2016 03:00,15,13,,,0,,86,,160,Dry,1010,8,35,,,,12.8,
Wick,06/09/2016 04:00,15.4,15,,,0,,84,,180,Dry,1010,7,40,,,,12.8,
Wick,06/09/2016 05:00,15.9,18,,,0,,83,,180,Dry,1010,5,40,,,,13.2,
Wick,06/09/2016 06:00,15.8,15,14,,0,0,88,,190,Dry,1010,2,40,,,,13.9,
Wick,06/09/2016 07:00,16.5,13,,,0,,87,,200,Dry,1010,1,40,,,,14.4,
Wick,06/09/2016 08:00,18.8,16,,,0,,81,,230,Dry,1011,1,55,,,,15.6,
Wick,06/09/2016 09:00,19.4,18,,,0,,73,,230,Dry,1012,1,60,,,,14.6,
Wick,06/09/2016 10:00,19.4,13,,,0,,66,,260,Dry,1012,1,60,,,,13.1,
Wick,06/09/2016 11:00,18.8,16,,,0,,63,,250,Dry,1013,1,50,,,,11.7,
Wick,06/09/2016 12:00,20,17,,,0,0,57,,240,Dry,1013,1,55,,,,11.3,
Wick,06/09/2016 13:00,20.6,20,,,0,,52,29,240,Dry,1014,1,45,,,,10.5,
Wick,06/09/2016 14:00,20.2,26,,,0,,53,35,250,Dry,1014,1,45,,,,10.4,
Wick,06/09/2016 15:00,19.8,22,,,0,,48,36,250,Dry,1015,0,55,,,,8.6,
Wick,06/09/2016 16:00,18.9,20,,,0,,60,30,270,Dry,1016,0,40,,,,11.2,
Wick,06/09/2016 17:00,18.4,10,,,0,,62,,270,Dry,1016,0,40,,,,11.2,
Wick,06/09/2016 18:00,16.6,13,,21.1,0,0,68,,260,Dry,1016,0,35,,,,10.8,
Wick,06/09/2016 19:00,15.3,10,,,0,,71,,240,Dry,1017,0,35,,,,10.1,
Wick,06/09/2016 20:00,14,3,,,0,,75,,280,Dry,1018,0,29,,,,9.8,
Wick,06/09/2016 21:00,14.1,12,,,0,,74,,250,Dry,1018,0,35,,,,9.7,
Wick,06/09/2016 22:00,13.3,6,,,0,,78,,260,Dry,1018,0,35,,,,9.6,
Wick,06/09/2016 23:00,13.8,2,,,0,,75,,210,Dry,1018,0,35,,,,9.6,
Wick,07/09/2016 00:00,13.7,2,,,0,0,77,,220,Dry,1018,0,35,,,,9.9,
Wick,07/09/2016 01:00,13.1,2,,,0,,80,,80,Dry,1018,4,35,,,,9.9,
Wick,07/09/2016 02:00,13.4,5,,,0,,80,,150,Dry,1018,0,35,,,,10.2,
Wick,07/09/2016 03:00,13.2,2,,,0,,81,,130,Dry,1018,0,35,,,,10.1,
Wick,07/09/2016 04:00,13.3,1,,,0,,84,,130,Drizzly rain,1017,0,30,,,,10.7,
Wick,07/09/2016 05:00,13,3,,,0,,90,,140,Rain,1017,8,30,,,,11.4,
Wick,07/09/2016 06:00,13.3,3,12.5,,0,0,88,,110,Drizzly rain,1017,8,28,,,,11.5,
Wick,07/09/2016 07:00,13.4,6,,,0,,93,,90,Rain,1017,8,30,,,,12.3,
Wick,07/09/2016 08:00,13.5,3,,,0,,94,,200,Dry,1017,7,27,,,,12.6,
Wick,07/09/2016 09:00,14.5,7,,,0,,86,,140,Dry,1016,1,45,,,,12.3,
Wick,07/09/2016 10:00,13.5,8,,,0,,94,,140,Dry,1016,1,17,,,,12.7,
Wick,07/09/2016 11:00,13.9,8,,,0,,94,,120,Dry,1016,3,30,,,,13.1,
Wick,07/09/2016 12:00,14,9,,,0,0,91,,120,Dry,1015,3,24,,,,12.7,
Wick,07/09/2016 13:00,13.7,10,,,0,,96,,90,Misty,1015,7,8,,,,13.1,
Wick,07/09/2016 14:00,13.7,9,,,0,,98,,100,Misty,1015,8,2,,,,13.5,
Wick,07/09/2016 15:00,13.6,6,,,0,,100,,70,Thickening fog,1014,9,0,,,,13.6,
Wick,07/09/2016 16:00,13.7,7,,,0,,100,,80,Fog,1014,9,0,,,,13.7,
Wick,07/09/2016 17:00,13.5,7,,,0,,100,,90,Fog,1013,9,0,,,,13.5,
Wick,07/09/2016 18:00,13.3,5,,14.6,0,0,100,,90,Fog,1013,7,4,,,,13.3,
Wick,07/09/2016 19:00,13,5,,,,,,,120,-,,9,0,,,,13,
Wick,07/09/2016 20:00,13.2,2,,,0,,100,,120,Thickening fog,1012,9,0,,,,13.2,
Wick,07/09/2016 21:00,13.3,6,,,0,,100,,70,Light drizzle,1011,1,1,,,,13.3,
Wick,07/09/2016 22:00,13.8,9,,,0,,99,,100,Rain,1010,1,22,,,,13.7,
Wick,07/09/2016 23:00,14.6,12,,,0,,99,,130,Rain,1008,0,16,,,,14.5,
Wick,08/09/2016 00:00,14.7,10,,,0,0,96,,140,Dry,1008,0,23,,,,14.1,
Wick,08/09/2016 01:00,15.7,15,,,0,,91,,140,Dry,1007,0,30,,,,14.3,
Wick,08/09/2016 02:00,15.5,13,,,0,,91,,150,Dry,1006,0,29,,,,14.1,
Wick,08/09/2016 03:00,15.5,14,,,0,,90,,150,Rain,1006,0,26,,,,13.9,
Wick,08/09/2016 04:00,15.2,17,,,0,,90,,130,Light shower,1004,0,16,,,,13.7,
Wick,08/09/2016 05:00,14.7,17,,,0,,96,,130,Rain,1003,0,12,,,,14.1,
Wick,08/09/2016 06:00,14.5,20,13.1,,0,0,98,,120,Misty,1002,3,7,,,,14.3,
Wick,08/09/2016 07:00,14.7,17,,,0,,99,31,120,Fog,1001,7,2,,,,14.6,
Wick,08/09/2016 08:00,14.4,20,,,0,,100,30,130,Fog,1001,9,3,,,,14.4,
Wick,08/09/2016 09:00,14.5,16,,,0,,100,29,130,Fog,1000,8,2,,,,14.5,
Wick,08/09/2016 10:00,14.8,16,,,0,,98,,130,Drizzly rain,999,2,6,,,,14.5,
Wick,08/09/2016 11:00,14.9,14,,,0,,98,,130,Rain,998,6,5,,,,14.7,
Wick,08/09/2016 12:00,15,12,,,0,0,98,,140,Rain,997,5,5,,,,14.7,
Wick,08/09/2016 13:00,14.4,15,,,0,,98,,180,Moderate shower,997,4,8,,,,14.2,
Wick,08/09/2016 14:00,13.7,12,,,0,,96,,200,Moderate rain,996,7,14,,,,13.1,
Wick,08/09/2016 15:00,13.8,10,,,0,,97,,180,Drizzly rain,997,8,15,,,,13.4,
Wick,08/09/2016 16:00,13.9,9,,,0,,98,,180,Light rain,997,1,23,,,,13.6,
Wick,08/09/2016 17:00,15,15,,,0,,90,,180,Rain,998,5,40,,,,13.5,
Wick,08/09/2016 18:00,15.2,13,,15.3,0,0,89,,210,Dry,999,5,45,,,,13.5,
Wick,08/09/2016 19:00,13.4,14,,,0,,88,,240,Dry,1000,1,50,,,,11.6,
Wick,08/09/2016 20:00,12.5,14,,,0,,89,,240,Dry,1001,2,50,,,,10.9,
Wick,08/09/2016 21:00,12.9,7,,,0,,85,,200,Dry,1002,1,45,,,,10.5,
Wick,08/09/2016 22:00,12.3,2,,,0,,88,,220,Dry,1003,1,35,,,,10.4,
Wick,08/09/2016 23:00,12.9,10,,,0,,87,,180,Light shower,1003,0,29,,,,10.9,
Wick,09/09/2016 00:00,12.9,13,,,0,0,89,,190,Light shower,1003,8,25,,,,11.2,
Wick,09/09/2016 01:00,12.7,10,,,0,,84,,180,Rain,1004,8,40,,,,10.2,
Wick,09/09/2016 02:00,12.3,0,,,0,,81,,0,Dry,1004,8,50,,,,9.2,
Wick,09/09/2016 03:00,12.3,0,,,0,,84,,0,Dry,1004,0,35,,,,9.8,
Wick,09/09/2016 04:00,12,0,,,0,,88,,0,Dry,1004,1,30,,,,10.1,
Wick,09/09/2016 05:00,12.9,0,,,0,,85,,0,Dry,1003,0,30,,,,10.5,
Wick,09/09/2016 06:00,12.8,0,11.8,,0,0,88,,0,Dry,1003,0,30,,,,10.9,
Wick,09/09/2016 07:00,13.1,0,,,0,,90,,0,Rain,1003,8,30,,,,11.5,
Wick,09/09/2016 08:00,13.3,0,,,0,,91,,0,Dry,1002,8,30,,,,11.9,
Wick,09/09/2016 09:00,13.7,0,,,0,,91,,0,Dry,1002,1,28,,,,12.4,
Wick,09/09/2016 10:00,14.1,16,,,0,,93,,150,Dry,,1,30,,,,13,
Wick,09/09/2016 11:00,14.3,17,,,0,,91,,150,Fog,1000,1,30,,,,12.9,
Wick,09/09/2016 12:00,14,16,,,0,0,94,29,150,Moderate shower,1000,8,14,,,,13.1,
Wick,09/09/2016 13:00,14.5,12,,,0,,91,,140,Rain,999,1,30,,,,13.2,
Wick,09/09/2016 14:00,15.1,16,,,0,,85,,160,Dry,999,3,30,,,,12.7,
Wick,09/09/2016 15:00,15.3,12,,,0,,80,,180,Dry,998,1,35,,,,12,
Wick,09/09/2016 16:00,14.9,22,,,0,,74,31,160,Dry,997,1,30,,,,10.4,
Wick,09/09/2016 17:00,14.6,22,,,0,,80,36,140,Dry,995,1,30,,,,11.3,
Wick,09/09/2016 18:00,14.7,21,,15.5,0,0,86,31,150,Dry,994,6,28,,,,12.4,
Wick,09/09/2016 19:00,14.1,20,,,0,,93,33,140,Rain,993,1,24,,,,13,
Wick,09/09/2016 20:00,14.7,20,,,0,,90,31,150,Dry,992,1,25,,,,13.2,
Wick,09/09/2016 21:00,15.1,22,,,0,,88,33,160,Dry,992,1,28,,,,13.2,
Wick,09/09/2016 22:00,16.2,24,,,0,,83,41,180,Dry,993,4,30,,,,13.4,
Wick,09/09/2016 23:00,14,22,,,0,,67,41,210,Dry,995,0,45,,,,8,
Wick,10/09/2016 00:00,13,18,,,0,0,69,,200,Dry,997,0,40,,,,7.6,
Wick,10/09/2016 01:00,12.6,21,,,0,,69,33,210,Dry,998,0,35,,,,7.2,
Wick,10/09/2016 02:00,12.4,18,,,0,,72,30,200,Dry,999,0,30,,,,7.6,
Wick,10/09/2016 03:00,12.3,17,,,0,,72,,200,Dry,1000,0,40,,,,7.5,
Wick,10/09/2016 04:00,11.9,14,,,0,,78,,200,Dry,1002,1,30,,,,8.2,
Wick,10/09/2016 05:00,11.7,0,,,0,,78,,0,Dry,1002,0,35,,,,8.1,
Wick,10/09/2016 06:00,11.7,0,11.2,,0,0,82,,0,Dry,1003,0,30,,,,8.8,
Wick,10/09/2016 07:00,12.2,0,,,0,,76,,0,Dry,1004,0,35,,,,8.2,
Wick,10/09/2016 08:00,13,0,,,0,,75,,0,Dry,1005,0,35,,,,8.7,
Wick,10/09/2016 09:00,13.5,0,,,0,,74,,0,Dry,1006,1,30,,,,9.1,
Wick,10/09/2016 10:00,14,0,,,0,,70,,0,Dry,1006,0,35,,,,8.8,
Wick,10/09/2016 11:00,15.1,0,,,0,,66,,0,Dry,1006,0,40,,,,8.9,
Wick,10/09/2016 12:00,15.5,0,,,0,0,66,,0,Dry,1006,0,35,,,,9.4,
Wick,10/09/2016 13:00,16.9,0,,,0,,57,,0,Dry,1007,3,40,,,,8.4,
Wick,10/09/2016 14:00,16.4,0,,,0,,63,,0,Dry,1007,1,35,,,,9.5,
Wick,10/09/2016 15:00,16.4,0,,,0,,58,,0,Dry,1007,1,40,,,,8.2,
Wick,10/09/2016 16:00,16.5,0,,,0,,56,,0,Dry,1007,1,40,,,,7.9,
Wick,10/09/2016 17:00,16.3,7,,,0,,59,,190,Dry,1006,3,45,,,,8.5,
Wick,10/09/2016 18:00,14,6,,,,,,,150,-,,0,10,,,,10,
Wick,10/09/2016 19:00,14.1,6,,,0,,72,,150,Dry,1006,7,35,,,,9.2,
Wick,10/09/2016 20:00,13.7,8,,,0,,75,,180,Dry,1006,8,30,,,,9.5,
Wick,10/09/2016 21:00,12.7,7,,,0,,77,,180,Dry,1006,3,35,,,,8.8,
Wick,10/09/2016 22:00,12.5,10,,,0,,78,,180,Dry,1006,7,40,,,,8.8,
Wick,10/09/2016 23:00,12.4,13,,,0,,77,,190,Dry,1005,1,40,,,,8.5,
Wick,11/09/2016 00:00,11.9,13,,,0,0,81,,190,Dry,1005,0,35,,,,8.8,
Wick,11/09/2016 01:00,11.3,12,,,0,,82,,190,Dry,1004,1,35,,,,8.4,
Wick,11/09/2016 02:00,11.4,13,,,0,,82,,200,Dry,1004,2,40,,,,8.5,
Wick,11/09/2016 03:00,11.4,12,,,0,,82,,210,Dry,1005,7,40,,,,8.6,
Wick,11/09/2016 04:00,10.8,12,,,0,,87,,210,Dry,1005,2,40,,,,8.8,
Wick,11/09/2016 05:00,9.9,8,,,0,,86,,200,Dry,1006,1,40,,,,7.7,
Wick,11/09/2016 06:00,9.4,7,8.4,,0,0,83,,190,Dry,1006,0,50,,,,6.8,
Wick,11/09/2016 07:00,10.6,9,,,0,,83,,190,Dry,1007,0,50,,,,7.9,
Wick,11/09/2016 08:00,12.1,12,,,0,,80,,200,Dry,1007,1,40,,,,8.8,
Wick,11/09/2016 09:00,13.1,18,,,0,,66,,200,Dry,1008,1,55,,,,7.1,
Wick,11/09/2016 10:00,13.8,17,,,0,,71,,190,Dry,1008,0,55,,,,8.8,
Wick,11/09/2016 11:00,14,13,,,,,,,200,-,,0,10,,,,9,
Wick,11/09/2016 12:00,14.6,15,,,0,0,66,,180,Dry,1008,0,40,,,,8.4,
Wick,11/09/2016 13:00,14.3,8,,,0,,76,,150,Dry,1007,0,40,,,,10.2,
Wick,11/09/2016 14:00,14.2,12,,,0,,72,,140,Dry,1008,1,40,,,,9.3,
Wick,11/09/2016 15:00,14.5,15,,,0,,72,,160,Dry,1007,1,40,,,,9.6,
Wick,11/09/2016 16:00,13.9,17,,,0,,80,,140,Light shower,1006,1,24,,,,10.6,
Wick,11/09/2016 17:00,13.7,21,,,0,,84,31,130,Rain,1004,0,29,,,,11.2,
Wick,11/09/2016 18:00,13.8,22,,15,0,0,86,36,130,Dry,1003,0,26,,,,11.6,
Wick,11/09/2016 19:00,13.9,22,,,0,,86,33,150,Rain,1003,8,25,,,,11.6,
Wick,11/09/2016 20:00,14.9,23,,,0,,73,36,160,Rain,1002,8,28,,,,10.3,
Wick,11/09/2016 21:00,14.5,17,,,0,,78,32,150,Rain,1003,8,26,,,,10.9,
Wick,11/09/2016 22:00,14.4,20,,,0,,80,32,150,Light shower,1002,8,26,,,,11,
Wick,11/09/2016 23:00,14,17,,,0,,83,30,150,Light shower,1002,0,20,,,,11.2,
Wick,12/09/2016 00:00,14.1,28,,,0,0,79,39,150,Rain,1000,0,28,,,,10.7,
Wick,12/09/2016 01:00,14,22,,,0,,82,41,150,Dry,1000,0,26,,,,11,
Wick,12/09/2016 02:00,14.2,24,,,0,,81,30,160,Dry,1000,0,27,,,,11,
Wick,12/09/2016 03:00,14,25,,,0,,82,40,150,Dry,999,0,27,,,,11,
Wick,12/09/2016 04:00,14.1,30,,,0,,82,41,150,Dry,999,0,26,,,,11.1,
Wick,12/09/2016 05:00,14.1,25,,,0,,83,40,150,Dry,999,0,25,,,,11.3,
Wick,12/09/2016 06:00,14,24,13.5,,0,0,84,39,150,Dry,999,,25,,,,11.4,
Wick,12/09/2016 07:00,14.4,21,,,0,,83,39,150,Dry,1000,,23,,,,11.6,
Wick,12/09/2016 08:00,14.4,20,,,0,,83,36,140,Dry,1000,0,23,,,,11.7,
Wick,12/09/2016 09:00,14.9,22,,,0,,82,36,150,Dry,1000,0,24,,,,12,
Wick,12/09/2016 10:00,14.9,17,,,0,,84,33,130,Dry,1000,1,27,,,,12.4,
Wick,12/09/2016 11:00,17.1,16,,,0,,76,30,160,Dry,1000,1,30,,,,12.9,
Wick,12/09/2016 12:00,17.2,17,,,0,0,77,36,140,Dry,1001,1,29,,,,13.3,
Wick,12/09/2016 13:00,16.5,13,,,0,,81,29,130,Dry,1001,5,27,,,,13.3,
Wick,12/09/2016 14:00,16.8,20,,,0,,80,33,150,Dry,1001,1,29,,,,13.5,
Wick,12/09/2016 15:00,16.7,13,,,0,,82,32,150,Dry,1002,1,26,,,,13.7,
Wick,12/09/2016 16:00,16.3,13,,,0,,84,,150,Dry,1002,0,25,,,,13.6,
Wick,12/09/2016 17:00,17.1,14,,,0,,89,29,170,Light shower,1003,5,19,,,,15.3,
Wick,12/09/2016 18:00,16.4,12,,17.7,0,0,95,,200,Moderate drizzle,1004,7,6,,,,15.7,
Wick,12/09/2016 19:00,13.6,10,,,0,,99,,350,Light drizzle,1005,1,14,,,,13.5,
Wick,12/09/2016 20:00,13.6,5,,,0,,100,,330,Moderate shower,1006,6,3,,,,13.6,
Wick,12/09/2016 21:00,13.3,7,,,0,,100,,10,Drizzly rain,1007,3,7,,,,13.3,
Wick,12/09/2016 22:00,13.4,7,,,0,,100,,20,Rain,1007,2,27,,,,13.4,
Wick,12/09/2016 23:00,13.4,7,,,0,,100,,50,Rain,1008,1,12,,,,13.4,
Wick,13/09/2016 00:00,13.3,3,,,0,0,100,,10,Dry,1008,4,19,,,,13.3,
Wick,13/09/2016 01:00,13,3,,,0,,99,,20,Dry,1008,3,27,,,,12.9,
Wick,13/09/2016 02:00,12.7,7,,,0,,100,,30,Dry,1008,1,29,,,,12.7,
Wick,13/09/2016 03:00,13,9,,,0,,99,,50,Rain,1008,4,29,,,,12.9,
Wick,13/09/2016 04:00,12.9,12,,,0,,99,,30,Drizzly rain,1008,2,20,,,,12.8,
Wick,13/09/2016 05:00,12.9,0,,,-0.2,,99,,0,Moderate shower,1008,7,9,,,,12.8,
Wick,13/09/2016 06:00,13,0,12.7,,0,0,99,,0,Light drizzle,1008,6,4,,,,12.9,
Wick,13/09/2016 07:00,12.6,0,,,0,,100,,0,Drizzle,1009,8,28,,,,12.6,
Wick,13/09/2016 08:00,12.5,0,,,0,,99,,0,Drizzly rain,1010,5,5,,,,12.4,
Wick,13/09/2016 09:00,12.7,0,,,0,,98,,0,Rain,1011,6,35,,,,12.5,
Wick,13/09/2016 10:00,12.5,7,,,0,,96,,320,Dry,1012,4,30,,,,12,
Wick,13/09/2016 11:00,11.9,8,,,1,,100,,310,Light shower,1013,2,6,,,,11.9,
Wick,13/09/2016 12:00,13.2,9,,,0,2,98,,330,Rain,1014,1,35,,,,12.9,
Wick,13/09/2016 13:00,14,9,,,0,,96,,310,Dry,1014,4,35,,,,13.4,
Wick,13/09/2016 14:00,14.3,12,,,0,,87,,310,Dry,1015,2,45,,,,12.3,
Wick,13/09/2016 15:00,13.6,9,,,0,,84,,330,Dry,1016,7,40,,,,11,
Wick,13/09/2016 16:00,13.4,7,,,0,,78,,350,Dry,1016,8,35,,,,9.8,
Wick,13/09/2016 17:00,12.7,7,,,0,,87,,340,Rain,1017,8,35,,,,10.7,
Wick,13/09/2016 18:00,12.3,7,,14.6,0,,93,,320,Light shower,1017,8,30,,,,11.3,
Wick,13/09/2016 19:00,12.1,6,,,0,,97,,330,Light rain,1018,3,25,,,,11.7,
Wick,13/09/2016 20:00,12,6,,,0,,98,,340,Light shower,1018,7,29,,,,11.7,
Wick,13/09/2016 21:00,11.8,3,,,0,,98,,320,Rain,1019,8,29,,,,11.5,
Wick,13/09/2016 22:00,11.9,5,,,0,,97,,330,Dry,1019,7,26,,,,11.5,
Wick,13/09/2016 23:00,11.7,5,,,0,,94,,320,Dry,1019,3,35,,,,10.9,
Wick,14/09/2016 00:00,11.7,6,,,0,0,96,,320,Dry,1020,8,30,,,,11.1,
Wick,14/09/2016 01:00,11.7,6,,,0,,96,,340,Dry,1019,8,30,,,,11.2,
Wick,14/09/2016 02:00,11.5,6,,,0,,97,,300,Drizzly rain,1019,3,24,,,,11.1,
Wick,14/09/2016 03:00,11.6,6,,,0,,98,,340,Rain,1019,1,28,,,,11.3,
Wick,14/09/2016 04:00,11.7,6,,,0,,96,,340,Dry,1019,7,27,,,,11.2,
Wick,14/09/2016 05:00,11.7,5,,,0,,98,,340,Rain,1020,1,24,,,,11.5,
Wick,14/09/2016 06:00,12,6,11.3,,0,0,99,,360,Light shower,1020,5,24,,,,11.9,
Wick,14/09/2016 07:00,12.3,6,,,0,,98,,350,Rain,1020,7,25,,,,12.1,
Wick,14/09/2016 08:00,12.8,8,,,0,,98,,360,Dry,1020,1,23,,,,12.6,
Wick,14/09/2016 09:00,12.9,9,,,0,,96,,10,Dry,1020,1,25,,,,12.4,
Wick,14/09/2016 10:00,12.8,8,,,0,,89,,60,Dry,1020,4,30,,,,11.2,
Wick,14/09/2016 11:00,13.1,7,,,0,,90,,50,Dry,1020,8,30,,,,11.6,
Wick,14/09/2016 12:00,13.6,10,,,0,0,89,,50,Dry,1020,8,35,,,,11.9,
Wick,14/09/2016 13:00,13.6,10,,,0,,85,,40,Dry,1020,8,35,,,,11.3,
Wick,14/09/2016 14:00,13.7,14,,,0,,87,,50,Dry,1019,7,30,,,,11.6,
Wick,14/09/2016 15:00,12.7,8,,,0,,91,,40,Light shower,1020,6,30,,,,11.4,
Wick,14/09/2016 16:00,12.5,10,,,0,,96,,50,Rain,1018,6,20,,,,12,
Wick,14/09/2016 17:00,12.7,14,,,0,,96,,70,Dry,1018,8,25,,,,12.2,
Wick,14/09/2016 18:00,12.6,13,,13.8,0,0,98,,70,Misty,1018,8,8,,,,12.4,
Wick,14/09/2016 19:00,12.7,14,,,0,,100,,70,Misty,1017,8,2,,,,12.7,
Wick,14/09/2016 20:00,12.7,13,,,0,,100,,70,Thickening fog,1017,8,1,,,,12.7,
Wick,14/09/2016 21:00,12.8,13,,,0,,100,,80,Thickening fog,1017,9,0,,,,12.8,
Wick,14/09/2016 22:00,12.8,12,,,0,,100,,80,Thickening fog,1016,9,0,,,,12.8,
Wick,14/09/2016 23:00,12.9,10,,,0,,99,,90,Fog,1016,9,0,,,,12.8,
Wick,15/09/2016 00:00,13,8,,,0,0,99,,110,Fog,1015,9,0,,,,12.9,
Wick,15/09/2016 01:00,13,9,,,0,,100,,110,Fog thinning,1014,9,0,,,,13,
Wick,15/09/2016 02:00,13,7,,,0,,100,,120,Light drizzle,1014,9,0,,,,13,
Wick,15/09/2016 03:00,12.9,10,,,0,,100,,120,Fog thinning,1013,9,0,,,,12.9,
Wick,15/09/2016 04:00,12.7,8,,,0,,100,,130,Moderate drizzle,1013,9,0,,,,12.7,
Wick,15/09/2016 05:00,12.6,13,,,0,,100,,130,Moderate drizzle,1012,9,0,,,,12.6,
Wick,15/09/2016 06:00,12.6,12,12.5,,0,0,100,,130,Moderate drizzle,1012,9,0,,,,12.6,
Wick,15/09/2016 07:00,12.6,8,,,0,,100,,140,Moderate drizzle,1012,9,0,,,,12.6,
Wick,15/09/2016 08:00,12.8,9,,,0,,100,,130,Fog,1011,9,0,,,,12.8,
Wick,15/09/2016 09:00,12.9,7,,,0,,99,,150,Fog,1011,9,0,,,,12.8,
Wick,15/09/2016 10:00,13.2,8,,,0,,100,,140,Fog thinning,1011,9,0,,,,13.2,
Wick,15/09/2016 11:00,13.5,8,,,0,,100,,140,Fog thinning,1010,8,0,,,,13.5,
Wick,15/09/2016 12:00,14.1,9,,,0,0,99,,130,Fog,1010,8,2,,,,14,
Wick,15/09/2016 13:00,14.6,10,,,0,,99,,140,Fog,1010,8,5,,,,14.5,
Wick,15/09/2016 14:00,14.5,9,,,0,,100,,140,Thickening fog,1009,8,1,,,,14.5,
Wick,15/09/2016 15:00,13.9,10,,,0,,100,,140,Moderate rain,1009,8,0,,,,13.9,
Wick,15/09/2016 16:00,14.1,10,,,0,,100,,140,Drizzly rain,1008,8,0,,,,14.1,
Wick,15/09/2016 17:00,13.7,10,,,0,,100,,150,Moderate drizzle,1008,8,0,,,,13.7,
Wick,15/09/2016 18:00,13.9,8,,15.3,0,0,100,,150,Moderate drizzle,1008,9,0,,,,13.9,
Wick,15/09/2016 19:00,14.9,5,,,0,,100,,240,Drizzle,1008,4,4,,,,14.9,
Wick,15/09/2016 20:00,14,5,,,0,,100,,280,Rain,1008,1,4,,,,14,
Wick,15/09/2016 21:00,14.4,8,,,0,,100,,290,Misty,1008,4,6,,,,14.4,
Wick,15/09/2016 22:00,14.3,7,,,0,,100,,320,Misty,1009,5,4,,,,14.3,
Wick,15/09/2016 23:00,14.5,8,,,0,,100,,310,Dry,1009,8,12,,,,14.5,
Wick,16/09/2016 00:00,14.1,7,,,0,0,98,,300,Dry,1009,8,21,,,,13.9,
Wick,16/09/2016 01:00,13.8,8,,,0,,99,,290,Dry,1009,1,20,,,,13.7,
Wick,16/09/2016 02:00,13.3,7,,,0,,99,,310,Moderate shower,1009,6,9,,,,13.2,
Wick,16/09/2016 03:00,13,8,,,0.2,,100,,290,Moderate rain,1009,7,19,,,,13,
Wick,16/09/2016 04:00,12.7,10,,,0.8,,100,,310,Moderate drizzle,1009,5,13,,,,12.7,
Wick,16/09/2016 05:00,12.6,10,,,0.8,,100,,310,Moderate rain,1009,1,6,,,,12.6,
Wick,16/09/2016 06:00,11.9,12,11.9,,2.2,4,100,,310,Moderate rain,1010,2,8,,,,11.9,
Wick,16/09/2016 07:00,12.1,12,,,1,,100,,300,Moderate rain,1010,1,12,,,,12.1,
Wick,16/09/2016 08:00,12.5,9,,,0.8,,99,,290,Rain,1010,6,50,,,,12.4,
Wick,16/09/2016 09:00,12.8,10,,,0,,98,,290,Rain,1011,7,45,,,,12.5,
Wick,16/09/2016 10:00,12.7,13,,,0,,91,,280,Dry,1012,8,35,,,,11.4,
Wick,16/09/2016 11:00,13.1,12,,,0,,92,,290,Dry,1012,8,28,,,,11.9,
Wick,16/09/2016 12:00,14.3,15,,,0,2,81,,300,Dry,1012,1,30,,,,11.1,
Wick,16/09/2016 13:00,15,15,,,0,,77,,310,Dry,1013,3,40,,,,11.1,
Wick,16/09/2016 14:00,15.7,15,,,0,,77,,310,Dry,1014,3,45,,,,11.7,
Wick,16/09/2016 15:00,15.7,15,,,0,,74,,310,Dry,1014,2,40,,,,11.1,
Wick,16/09/2016 16:00,15.4,14,,,0,,74,,310,Dry,1015,1,40,,,,10.9,
Wick,16/09/2016 17:00,14.4,13,,,0,,80,,310,Dry,1015,1,40,,,,11,
Wick,16/09/2016 18:00,12.3,10,,16.1,0,0,89,,300,Dry,1016,1,30,,,,10.6,
Wick,16/09/2016 19:00,10.2,7,,,0,,93,,290,Dry,1017,1,30,,,,9.2,
Wick,16/09/2016 20:00,10.2,3,,,0,,98,,250,Dry,1017,0,27,,,,9.9,
Wick,16/09/2016 21:00,9.4,6,,,0,,98,,260,Dry,1018,0,23,,,,9.2,
Wick,16/09/2016 22:00,8.9,5,,,0,,99,,260,Dry,1018,0,28,,,,8.8,
Wick,16/09/2016 23:00,8.7,5,,,0,,99,,250,Dry,1019,0,30,,,,8.6,
Wick,17/09/2016 00:00,8.3,5,,,0,0,98,,250,Dry,1020,0,30,,,,8.1,
Wick,17/09/2016 01:00,9.2,5,,,0,,97,,220,Dry,1020,0,35,,,,8.9,
Wick,17/09/2016 02:00,8.6,3,,,0,,96,,220,Dry,1021,0,35,,,,8.1,
Wick,17/09/2016 03:00,8.7,5,,,0,,95,,230,Dry,1020,0,35,,,,8,
Wick,17/09/2016 04:00,9,3,,,,,,,250,-,,0,10,,,,8,
Wick,17/09/2016 05:00,10,3,,,,,,,240,-,,0,10,,,,8,
Wick,17/09/2016 06:00,9,5,7.8,,0,0,92,,220,Dry,1021,0,35,,,,7.9,
Wick,17/09/2016 07:00,8.9,5,,,0,,94,,250,Dry,1021,0,40,,,,8.1,
Wick,17/09/2016 08:00,11.3,3,,,0,,90,,190,Dry,1021,0,40,,,,9.8,
Wick,17/09/2016 09:00,13.9,6,,,0,,77,,170,Dry,1021,0,35,,,,10,
Wick,17/09/2016 10:00,13.9,8,,,0,,77,,190,Dry,1021,0,45,,,,10,
Wick,17/09/2016 11:00,13.6,9,,,0,,85,,170,Dry,1021,1,40,,,,11.2,
Wick,17/09/2016 12:00,13.8,10,,,0,0,83,,170,Dry,1021,1,35,,,,11.1,
Wick,17/09/2016 13:00,13.5,12,,,0,,80,,160,Dry,1021,0,35,,,,10.2,
Wick,17/09/2016 14:00,14.7,13,,,0,,80,,170,Dry,1020,0,40,,,,11.3,
Wick,17/09/2016 15:00,14.7,12,,,0,,80,,160,Dry,1020,0,40,,,,11.3,
Wick,17/09/2016 16:00,14.1,10,,,0,,77,,140,Dry,1020,0,40,,,,10.2,
Wick,17/09/2016 17:00,13.4,12,,,0,,85,,150,Dry,1020,0,35,,,,11,
Wick,17/09/2016 18:00,13.3,9,,15,0,0,88,,170,Dry,1019,0,30,,,,11.4,
Wick,17/09/2016 19:00,13.4,8,,,0,,91,,170,Dry,1019,0,30,,,,12,
Wick,17/09/2016 20:00,13.9,6,,,0,,88,,170,Dry,1019,0,30,,,,12,
Wick,17/09/2016 21:00,13.9,7,,,0,,87,,170,Dry,1019,0,30,,,,11.8,
Wick,17/09/2016 22:00,13.3,7,,,0,,91,,160,Dry,1019,0,27,,,,11.9,
Wick,17/09/2016 23:00,12.7,5,,,0,,89,,200,Dry,1019,0,30,,,,11,
Wick,18/09/2016 00:00,12.3,8,,,0,0,90,,180,Dry,1018,0,30,,,,10.8,
Wick,18/09/2016 01:00,12.5,2,,,0,,89,,170,Dry,1018,0,29,,,,10.8,
Wick,18/09/2016 02:00,12.1,2,,,0,,87,,240,Dry,1018,0,30,,,,10.1,
Wick,18/09/2016 03:00,12.1,8,,,0,,91,,180,Dry,1017,0,28,,,,10.8,
Wick,18/09/2016 04:00,12.7,12,,,0,,90,,170,Dry,1016,0,28,,,,11.2,
Wick,18/09/2016 05:00,12.8,12,,,0,,88,,170,Dry,1016,0,30,,,,10.9,
Wick,18/09/2016 06:00,13.2,13,11.6,,0,0,85,,170,Dry,1016,0,30,,,,10.8,
Wick,18/09/2016 07:00,13.5,9,,,0,,83,,180,Dry,1016,0,30,,,,10.8,
Wick,18/09/2016 08:00,14.4,9,,,0,,79,,160,Dry,1015,0,35,,,,10.9,
Wick,18/09/2016 09:00,14.7,13,,,0,,76,,190,Dry,1014,0,35,,,,10.6,
Wick,18/09/2016 10:00,14.4,12,,,0,,76,,210,Dry,1015,0,35,,,,10.3,
Wick,18/09/2016 11:00,14.9,17,,,0,,76,,200,Dry,1014,0,40,,,,10.8,
Wick,18/09/2016 12:00,16.7,17,,,0,0,69,29,200,Dry,1014,0,40,,,,11.2,
Wick,18/09/2016 13:00,17.4,12,,,0,,68,,200,Dry,1014,0,40,,,,11.5,
Wick,18/09/2016 14:00,16.7,6,,,0,,74,,140,Dry,1014,4,30,,,,12.2,
Wick,18/09/2016 15:00,16.5,6,,,0,,78,,150,Dry,1014,7,35,,,,12.8,
Wick,18/09/2016 16:00,17.3,10,,,0,,74,,210,Dry,1014,6,30,,,,12.7,
Wick,18/09/2016 17:00,15.5,8,,,0,,89,,290,Rain,1015,6,40,,,,13.7,
Wick,18/09/2016 18:00,14.2,6,,18.4,0,0,93,,300,Dry,1016,1,35,,,,13.1,
Wick,18/09/2016 19:00,14.6,3,,,0,,90,,230,Dry,1016,1,35,,,,13.1,
Wick,18/09/2016 20:00,14.4,5,,,0,,88,,230,Dry,1017,3,45,,,,12.5,
Wick,18/09/2016 21:00,13.7,7,,,0,,86,,200,Dry,1017,1,40,,,,11.5,
Wick,18/09/2016 22:00,12.2,5,,,0,,88,,220,Dry,1018,1,35,,,,10.3,
Wick,18/09/2016 23:00,10.9,9,,,0,,94,,260,Dry,1018,1,35,,,,10,
Wick,19/09/2016 00:00,9.6,9,,,0,0,94,,270,Dry,1019,0,45,,,,8.8,
Wick,19/09/2016 01:00,9.9,8,,,0,,96,,260,Dry,1019,2,40,,,,9.4,
Wick,19/09/2016 02:00,11.7,3,,,0,,88,,220,Dry,1020,7,50,,,,9.9,
Wick,19/09/2016 03:00,12,5,,,0,,87,,190,Dry,1020,7,50,,,,10,
Wick,19/09/2016 04:00,11.2,6,,,0,,94,,240,Dry,1020,1,55,,,,10.3,
Wick,19/09/2016 05:00,10.7,6,,,0,,96,,230,Dry,1021,7,45,,,,10.1,
Wick,19/09/2016 06:00,11.3,6,8.5,,0,0,92,,230,Dry,1021,8,40,,,,10.2,
Wick,19/09/2016 07:00,11.5,6,,,0,,90,,230,Dry,1022,8,45,,,,10,
Wick,19/09/2016 08:00,11.7,8,,,0,,79,,220,Dry,1022,6,45,,,,8.3,
Wick,19/09/2016 09:00,13.7,8,,,0,,71,,240,Dry,1022,1,45,,,,8.7,
Wick,19/09/2016 10:00,14.6,10,,,0,,67,,250,Dry,1023,2,60,,,,8.7,
Wick,19/09/2016 11:00,14.1,10,,,0,,63,,250,Dry,1023,1,50,,,,7.3,
Wick,19/09/2016 12:00,15.6,8,,,0,0,68,,230,Dry,1023,7,50,,,,9.8,
Wick,19/09/2016 13:00,13.8,9,,,0,,73,,150,Dry,1023,7,45,,,,9.1,
Wick,19/09/2016 14:00,14.7,12,,,0,,68,,200,Dry,1023,1,45,,,,9,
Wick,19/09/2016 15:00,14.1,2,,,0,,74,,40,Dry,1023,4,40,,,,9.7,
Wick,19/09/2016 16:00,14.9,2,,,0,,71,,320,Dry,1022,4,50,,,,9.8,
Wick,19/09/2016 17:00,13.3,3,,,0,,77,,250,Dry,1022,2,45,,,,9.5,
Wick,19/09/2016 18:00,13.2,5,,16.1,0,0,86,,140,Dry,1022,6,40,,,,11,
Wick,19/09/2016 19:00,13.1,6,,,0,,88,,130,Dry,1022,8,45,,,,11.3,
Wick,19/09/2016 20:00,13.4,7,,,0,,87,,150,Dry,1022,8,40,,,,11.3,
Wick,19/09/2016 21:00,13.1,10,,,0,,88,,150,Dry,1022,8,40,,,,11.2,
Wick,19/09/2016 22:00,12.9,9,,,0,,83,,150,Dry,1022,7,45,,,,10.2,
Wick,19/09/2016 23:00,13.1,10,,,0,,87,,160,Dry,1022,8,35,,,,11.1,
Wick,20/09/2016 00:00,13,7,,,0,0,84,,170,Dry,1022,8,40,,,,10.4,
Wick,20/09/2016 01:00,12.9,7,,,0,,88,,160,Dry,1021,8,35,,,,11.1,
Wick,20/09/2016 02:00,12.8,8,,,0,,87,,160,Dry,1021,8,40,,,,10.8,
Wick,20/09/2016 03:00,12.7,6,,,0,,88,,160,Dry,1020,8,40,,,,10.9,
Wick,20/09/2016 04:00,12.7,6,,,0,,87,,150,Dry,1020,8,40,,,,10.7,
Wick,20/09/2016 05:00,12.6,7,,,0,,89,,160,Dry,1020,8,35,,,,10.9,
Wick,20/09/2016 06:00,12.5,6,12.5,,0,0,90,,160,Dry,1020,8,35,,,,11,
Wick,20/09/2016 07:00,12.5,7,,,0,,87,,170,Dry,1020,8,35,,,,10.5,
Wick,20/09/2016 08:00,12.4,8,,,0,,84,,170,Dry,1020,8,40,,,,9.8,
Wick,20/09/2016 09:00,13.3,8,,,0,,80,,170,Dry,1019,1,40,,,,10.1,
Wick,20/09/2016 10:00,14,10,,,0,,72,,160,Dry,1019,1,40,,,,9.1,
Wick,20/09/2016 11:00,14.4,10,,,0,,70,,170,Dry,1019,1,45,,,,9.1,
Wick,20/09/2016 12:00,14.7,9,,,0,0,69,,180,Dry,1019,1,45,,,,9.1,
Wick,20/09/2016 13:00,14.5,10,,,0,,67,,170,Dry,1018,1,40,,,,8.5,
Wick,20/09/2016 14:00,14.3,9,,,0,,67,,150,Dry,1018,1,40,,,,8.3,
Wick,20/09/2016 15:00,14.1,10,,,0,,72,,150,Dry,1018,1,40,,,,9.3,
Wick,20/09/2016 16:00,14.1,10,,,0,,70,,150,Dry,1018,1,40,,,,8.8,
Wick,20/09/2016 17:00,13.8,10,,,0,,75,,140,Dry,1018,1,50,,,,9.5,
Wick,20/09/2016 18:00,13,7,,15,0,0,83,,140,Dry,1018,1,45,,,,10.2,
Wick,20/09/2016 19:00,12.7,6,,,0,,88,,140,Dry,1017,0,35,,,,10.9,
Wick,20/09/2016 20:00,12.8,8,,,0,,85,,150,Dry,1017,0,35,,,,10.5,
Wick,20/09/2016 21:00,12.8,7,,,0,,80,,150,Dry,1017,0,40,,,,9.5,
Wick,20/09/2016 22:00,13,7,,,0,,75,,170,Dry,1017,1,40,,,,8.8,
Wick,20/09/2016 23:00,12.4,10,,,0,,72,,180,Dry,1017,0,40,,,,7.7,
Wick,21/09/2016 00:00,11.8,10,,,0,0,74,,190,Dry,1016,0,40,,,,7.5,
Wick,21/09/2016 01:00,12.2,12,,,0,,84,,160,Dry,1016,0,30,,,,9.7,
Wick,21/09/2016 02:00,12.2,12,,,0,,79,,170,Dry,1016,0,35,,,,8.8,
Wick,21/09/2016 03:00,12.4,12,,,0,,81,,160,Dry,1016,0,30,,,,9.3,
Wick,21/09/2016 04:00,12.4,14,,,0,,79,,160,Dry,1015,0,35,,,,8.9,
Wick,21/09/2016 05:00,12.3,15,,,0,,84,,150,Dry,1014,0,30,,,,9.7,
Wick,21/09/2016 06:00,12.4,13,11.2,,0,0,87,,160,Dry,1014,0,30,,,,10.3,
Wick,21/09/2016 07:00,12.3,15,,,0,,91,,160,Dry,1014,1,30,,,,10.9,
Wick,21/09/2016 08:00,13.1,15,,,0,,80,,150,Dry,1013,0,35,,,,9.9,
Wick,21/09/2016 09:00,13.2,17,,,0,,79,,150,Dry,1013,1,35,,,,9.8,
Wick,21/09/2016 10:00,13.9,17,,,0,,83,,140,Dry,1013,1,30,,,,11.2,
Wick,21/09/2016 11:00,14.4,16,,,0,,81,,140,Dry,1012,1,29,,,,11.3,
Wick,21/09/2016 12:00,14.8,17,,,0,0,78,,140,Dry,1012,1,30,,,,11.1,
Wick,21/09/2016 13:00,15.3,16,,,0,,77,,130,Dry,1011,1,26,,,,11.4,
Wick,21/09/2016 14:00,14.9,12,,,0,,73,,150,Dry,1011,1,30,,,,10.2,
Wick,21/09/2016 15:00,14.8,16,,,0,,70,,180,Dry,1010,1,35,,,,9.4,
Wick,21/09/2016 16:00,14.7,15,,,0,,69,,160,Dry,1010,1,35,,,,9.1,
Wick,21/09/2016 17:00,14.5,12,,,0,,77,,150,Dry,1010,1,30,,,,10.7,
Wick,21/09/2016 18:00,14.6,22,,15.9,0,0,81,33,160,Dry,1011,0,25,,,,11.4,
Wick,21/09/2016 19:00,14.3,18,,,0,,86,29,160,Rain,1011,1,15,,,,12.1,
Wick,21/09/2016 20:00,13.9,17,,,0,,92,30,150,Light shower,1011,1,10,,,,12.7,
Wick,21/09/2016 21:00,13.7,17,,,0.2,,94,,150,Moderate rain,1012,7,7,,,,12.9,
Wick,21/09/2016 22:00,13.7,14,,,0.4,,94,,150,Moderate rain,1012,6,7,,,,12.9,
Wick,21/09/2016 23:00,13.8,10,,,0,,92,,160,Drizzly rain,1012,1,15,,,,12.6,
Wick,22/09/2016 00:00,13.3,8,,,0.4,1,96,,200,Light rain,1012,8,11,,,,12.7,
Wick,22/09/2016 01:00,11.3,6,,,1.2,,96,,280,Moderate rain,1012,2,8,,,,10.8,
Wick,22/09/2016 02:00,10.9,3,,,1.4,,99,,270,Moderate rain,1012,2,13,,,,10.8,
Wick,22/09/2016 03:00,10.1,3,,,0.2,,99,,320,Rain,1012,2,40,,,,10,
Wick,22/09/2016 04:00,10.8,1,,,0,,96,,230,Light shower,1012,6,29,,,,10.2,
Wick,22/09/2016 05:00,10.4,1,,,0,,97,,230,Rain,1012,7,35,,,,10,
Wick,22/09/2016 06:00,10.1,1,9.9,,0,3,98,,220,Dry,1012,6,50,,,,9.8,
Wick,22/09/2016 07:00,10.3,1,,,0,,95,,230,Light shower,1012,7,30,,,,9.6,
Wick,22/09/2016 08:00,10.8,1,,,0.2,,91,,210,Rain,1013,7,40,,,,9.5,
Wick,22/09/2016 09:00,11.9,3,,,0,,90,,180,Dry,1013,7,35,,,,10.4,
Wick,22/09/2016 10:00,13.3,2,,,0,,80,,170,Dry,1013,4,45,,,,10.1,
Wick,22/09/2016 11:00,12.4,6,,,0,,87,,150,Dry,1013,7,10,,,,10.4,
Wick,22/09/2016 12:00,14.3,12,,,0,0.2,58,,180,Rain,1012,1,40,,,,6.4,
Wick,22/09/2016 13:00,14.3,12,,,0,,52,,190,Dry,1012,1,50,,,,4.6,
Wick,22/09/2016 14:00,14,14,,,0,,58,,190,Dry,1012,1,45,,,,6.1,
Wick,22/09/2016 15:00,13.9,13,,,0,,56,,190,Dry,1012,1,45,,,,5.5,
Wick,22/09/2016 16:00,13.9,13,,,0,,63,,180,Dry,1012,1,35,,,,7,
Wick,22/09/2016 17:00,12.9,6,,,0,,70,,150,Dry,1012,1,40,,,,7.7,
Wick,22/09/2016 18:00,12.4,9,,14.6,0,0,78,,150,Dry,1012,,40,,,,8.8,
Wick,22/09/2016 19:00,12.4,13,,,0,,79,,150,Dry,1011,1,35,,,,8.9,
Wick,22/09/2016 20:00,12.2,13,,,0,,92,,140,Dry,1011,1,30,,,,11.1,
Wick,22/09/2016 21:00,12.8,10,,,0,,83,,170,Dry,1010,,35,,,,10.1,
Wick,22/09/2016 22:00,12.8,13,,,0,,71,,180,Dry,1010,0,40,,,,7.7,
Wick,22/09/2016 23:00,12.5,17,,,0,,73,,210,Dry,1011,5,40,,,,7.9,
Wick,23/09/2016 00:00,10.6,10,,,0.2,0.2,80,,200,Moderate shower,1010,7,17,,,,7.3,
Wick,23/09/2016 01:00,10.3,10,,,0,,87,,200,Rain,1011,2,45,,,,8.3,
Wick,23/09/2016 02:00,9.9,12,,,0,,89,,200,Dry,1011,0,55,,,,8.2,
Wick,23/09/2016 03:00,9.4,8,,,0,,89,,200,Dry,1012,0,45,,,,7.8,
Wick,23/09/2016 04:00,9,9,,,0,,89,,190,Dry,1012,0,45,,,,7.3,
Wick,23/09/2016 05:00,8.3,13,,,0,,81,,210,Dry,1013,0,45,,,,5.4,
Wick,23/09/2016 06:00,9,12,8.3,,0,0,83,,200,Dry,1013,1,35,,,,6.3,
Wick,23/09/2016 07:00,9.5,8,,,0,,83,,190,Dry,1014,2,40,,,,6.8,
Wick,23/09/2016 08:00,10.5,12,,,0,,82,,190,Dry,1015,1,35,,,,7.6,
Wick,23/09/2016 09:00,11.9,15,,,0,,75,,200,Dry,1015,1,45,,,,7.8,
Wick,23/09/2016 10:00,12.7,14,,,0,,73,,200,Dry,1015,1,40,,,,8.1,
Wick,23/09/2016 11:00,12.8,16,,,0,,72,,190,Dry,1015,1,45,,,,8,
Wick,23/09/2016 12:00,12.8,13,,,0,0,76,,180,Dry,1015,1,35,,,,8.8,
Wick,23/09/2016 13:00,13.4,12,,,0,,69,,180,Dry,1015,1,40,,,,7.9,
Wick,23/09/2016 14:00,13.4,15,,,0,,67,,180,Dry,1014,1,35,,,,7.6,
Wick,23/09/2016 15:00,13.2,13,,,0,,72,,140,Dry,1013,3,35,,,,8.4,
Wick,23/09/2016 16:00,12.3,16,,,0.2,,74,,180,Moderate shower,1013,1,18,,,,7.9,
Wick,23/09/2016 17:00,11.5,17,,,1,,77,,150,Light rain,1012,8,14,,,,7.7,
Wick,23/09/2016 18:00,12,22,,13.7,0.6,2,83,31,150,Drizzly rain,1010,8,28,,,,9.3,
Wick,23/09/2016 19:00,12.3,23,,,0.2,,87,36,150,Rain,1009,8,25,,,,10.3,
Wick,23/09/2016 20:00,12.9,23,,,0,,84,37,150,Dry,1008,8,27,,,,10.3,
Wick,23/09/2016 21:00,13,22,,,0,,84,37,160,Rain,1007,8,28,,,,10.4,
Wick,23/09/2016 22:00,13.3,25,,,0,,84,41,160,Dry,1007,0,28,,,,10.7,
Wick,23/09/2016 23:00,13.9,23,,,0,,83,35,160,Dry,1006,0,30,,,,11.2,
Wick,24/09/2016 00:00,14,20,,,0,0.2,83,30,180,Rain,1006,0,35,,,,11.3,
Wick,24/09/2016 01:00,14.2,15,,,0,,82,30,180,Drizzly rain,1006,0,30,,,,11.2,
Wick,24/09/2016 02:00,14.1,20,,,0,,82,32,180,Rain,1004,0,30,,,,11.2,
Wick,24/09/2016 03:00,13.9,18,,,0,,85,,160,Light shower,1004,0,28,,,,11.5,
Wick,24/09/2016 04:00,14,15,,,0,,83,23,160,Rain,1003,0,29,,,,11.2,
Wick,24/09/2016 05:00,14,17,,,0,,84,33,150,Dry,1002,0,28,,,,11.4,
Wick,24/09/2016 06:00,14.1,16,12,,0.2,0.2,85,,160,Moderate shower,1002,0,12,,,,11.7,
Wick,24/09/2016 07:00,14.1,20,,,0,,85,29,150,Rain,1001,0,28,,,,11.7,
Wick,24/09/2016 08:00,14.3,20,,,0,,84,32,160,Dry,1001,2,27,,,,11.7,
Wick,24/09/2016 09:00,14.3,23,,,0,,86,39,160,Dry,1000,1,26,,,,12,
Wick,24/09/2016 10:00,14.4,18,,,0,,87,32,150,Dry,1000,0,21,,,,12.4,
Wick,24/09/2016 11:00,14.9,18,,,0,,84,,160,Dry,1001,6,26,,,,12.4,
Wick,24/09/2016 12:00,15.9,21,,,0,0,80,30,160,Dry,1000,1,28,,,,12.5,
Wick,24/09/2016 13:00,16.1,18,,,0,,77,31,170,Dry,1000,0,28,,,,12.2,
Wick,24/09/2016 14:00,15.5,20,,,0,,83,29,160,Dry,1000,2,26,,,,12.7,
Wick,24/09/2016 15:00,15.3,14,,,0,,85,29,150,Dry,1001,4,21,,,,12.9,
Wick,24/09/2016 16:00,14.5,13,,,1,,93,,150,Drizzly rain,1000,1,15,,,,13.5,
Wick,24/09/2016 17:00,14.6,14,,,0.2,,91,,140,Rain,1000,6,17,,,,13.2,
Wick,24/09/2016 18:00,15.1,15,,17.4,0,1,88,,150,Dry,999,5,20,,,,13.3,
Wick,24/09/2016 19:00,14.8,20,,,0,,90,31,150,Dry,1000,1,21,,,,13.2,
Wick,24/09/2016 20:00,15,16,,,0,,88,29,180,Dry,1000,7,30,,,,13.1,
Wick,24/09/2016 21:00,13.7,13,,,0,,87,31,170,Light shower,1000,8,30,,,,11.6,
Wick,24/09/2016 22:00,13.3,13,,,0,,91,,170,Light shower,1000,8,15,,,,11.9,
Wick,24/09/2016 23:00,13.6,7,,,0,,94,,180,Rain,1000,3,30,,,,12.7,
Wick,25/09/2016 00:00,12.8,6,,,0,0,98,,140,Dry,999,1,30,,,,12.6,
Wick,25/09/2016 01:00,14.3,10,,,0,,91,,160,Dry,999,4,28,,,,13,
Wick,25/09/2016 02:00,14.2,14,,,0,,91,,150,Dry,999,4,25,,,,12.8,
Wick,25/09/2016 03:00,14.1,13,,,0,,91,,180,Dry,998,0,30,,,,12.8,
Wick,25/09/2016 04:00,13.9,9,,,0,,91,,170,Dry,998,0,30,,,,12.6,
Wick,25/09/2016 05:00,14.1,12,,,0,,83,,160,Dry,998,0,30,,,,11.4,
Wick,25/09/2016 06:00,13.8,12,12.8,,0,0,92,,160,Light shower,998,8,25,,,,12.6,
Wick,25/09/2016 07:00,14.1,14,,,0,,91,,150,Rain,998,0,26,,,,12.7,
Wick,25/09/2016 08:00,14.1,13,,,0,,90,,160,Dry,998,0,29,,,,12.5,
Wick,25/09/2016 09:00,14.5,15,,,0,,72,,190,Dry,998,0,35,,,,9.6,
Wick,25/09/2016 10:00,14,9,,,,,,,220,-,,1,10,,,,11,
Wick,25/09/2016 11:00,13.8,22,,,0,,69,33,210,Dry,1000,1,45,,,,8.4,
Wick,25/09/2016 12:00,14.4,26,,,0,0,64,36,210,Dry,1000,1,55,,,,7.9,
Wick,25/09/2016 13:00,14.5,22,,,0,,67,33,210,Dry,1001,0,45,,,,8.6,
Wick,25/09/2016 14:00,14.6,25,,,0,,67,35,210,Dry,1002,1,40,,,,8.7,
Wick,25/09/2016 15:00,14.6,20,,,0,,68,35,200,Dry,1002,4,35,,,,8.9,
Wick,25/09/2016 16:00,15.2,20,,,0,,62,31,210,Dry,1002,1,50,,,,8.1,
Wick,25/09/2016 17:00,13.6,16,,,0,,70,,200,Dry,1004,0,45,,,,8.4,
Wick,25/09/2016 18:00,12,8,,15.2,0,0,71,,200,Dry,1005,0,45,,,,7,
Wick,25/09/2016 19:00,11.1,12,,,0,,83,,200,Dry,1005,1,40,,,,8.5,
Wick,25/09/2016 20:00,11,12,,,0,,83,,210,Dry,1006,0,35,,,,8.4,
Wick,25/09/2016 21:00,10.4,13,,,0,,85,,200,Dry,1006,0,40,,,,8.1,
Wick,25/09/2016 22:00,10.2,14,,,0,,80,,210,Dry,1007,0,45,,,,7,
Wick,25/09/2016 23:00,9.5,12,,,0,,78,,210,Dry,1008,1,55,,,,6,
Wick,26/09/2016 00:00,9,9,,,0,0,80,,210,Dry,1009,0,55,,,,5.9,
Wick,26/09/2016 01:00,8.7,7,,,0,,81,,210,Dry,1010,0,50,,,,5.7,
Wick,26/09/2016 02:00,8.5,9,,,0,,80,,210,Dry,1010,0,50,,,,5.3,
Wick,26/09/2016 03:00,8.8,12,,,0,,84,,190,Dry,1011,0,45,,,,6.4,
Wick,26/09/2016 04:00,8.9,10,,,0,,87,,190,Dry,1012,0,40,,,,6.9,
Wick,26/09/2016 05:00,9,10,,,0,,89,,180,Dry,1012,0,45,,,,7.3,
Wick,26/09/2016 06:00,8.8,7,8,,0,0,90,,160,Dry,1012,0,40,,,,7.3,
Wick,26/09/2016 07:00,9.5,7,,,0,,89,,180,Dry,1013,1,40,,,,7.8,
Wick,26/09/2016 08:00,10.9,13,,,0,,84,,190,Dry,1013,1,40,,,,8.4,
Wick,26/09/2016 09:00,11.8,16,,,0,,74,,190,Dry,1014,1,45,,,,7.5,
Wick,26/09/2016 10:00,12.5,18,,,0,,71,,190,Dry,1014,1,45,,,,7.5,
Wick,26/09/2016 11:00,13.1,16,,,0,,69,,200,Dry,1014,7,50,,,,7.6,
Wick,26/09/2016 12:00,13.9,17,,,0,0,65,,190,Dry,1014,1,40,,,,7.6,
Wick,26/09/2016 13:00,13.4,18,,,0,,66,,190,Dry,1014,1,45,,,,7.3,
Wick,26/09/2016 14:00,13.9,16,,,0,,63,,180,Dry,1015,1,45,,,,7.1,
Wick,26/09/2016 15:00,14.4,13,,,0,,61,,180,Dry,1015,1,45,,,,7.2,
Wick,26/09/2016 16:00,14,10,,,0,,65,,170,Dry,1015,4,45,,,,7.7,
Wick,26/09/2016 17:00,13.4,9,,,0,,77,,140,Dry,1015,7,40,,,,9.6,
Wick,26/09/2016 18:00,13,10,,14.6,0,0,82,,150,Dry,1015,3,35,,,,10.1,
Wick,26/09/2016 19:00,13,10,,,0,,83,,160,Dry,1015,2,30,,,,10.2,
Wick,26/09/2016 20:00,12.8,14,,,0,,80,,170,Dry,1015,0,30,,,,9.6,
Wick,26/09/2016 21:00,12.5,12,,,0,,81,,180,Dry,1015,0,30,,,,9.5,
Wick,26/09/2016 22:00,12.1,7,,,0,,84,,170,Dry,1015,0,30,,,,9.6,
Wick,26/09/2016 23:00,12,10,,,0,,84,,180,Dry,1015,0,35,,,,9.5,
Wick,27/09/2016 00:00,11.3,8,,,0,0,86,,190,Dry,1014,0,35,,,,9.1,
Wick,27/09/2016 01:00,10.7,8,,,0,,86,,190,Dry,1013,0,40,,,,8.6,
Wick,27/09/2016 02:00,11.8,9,,,0,,81,,160,Dry,1012,0,40,,,,8.7,
Wick,27/09/2016 03:00,11.8,12,,,0,,85,,160,Dry,1011,0,40,,,,9.5,
Wick,27/09/2016 04:00,11.7,13,,,0,,84,,160,Dry,1010,0,40,,,,9.2,
Wick,27/09/2016 05:00,11.7,10,,,0,,88,,170,Dry,1009,0,35,,,,9.8,
Wick,27/09/2016 06:00,11.8,15,10.6,,0,0,84,,170,Drizzly rain,1008,1,35,,,,9.3,
Wick,27/09/2016 07:00,11.2,17,,,0,,91,,150,Light shower,1005,7,24,,,,9.8,
Wick,27/09/2016 08:00,11.4,22,,,0.6,,93,33,150,Rain,1002,1,28,,,,10.4,
Wick,27/09/2016 09:00,12.4,26,,,0,,91,46,160,Rain,1001,2,19,,,,11.1,
Wick,27/09/2016 10:00,13.2,21,,,0,,93,39,180,Rain,1001,4,20,,,,12.1,
Wick,27/09/2016 11:00,14.2,28,,,0.2,,72,33,250,Rain,1002,3,30,,,,9.3,
Wick,27/09/2016 12:00,15.2,25,,,0,0.8,58,36,250,Dry,1002,4,35,,,,7.1,
Wick,27/09/2016 13:00,15.1,33,,,0,,59,41,240,Dry,1002,1,30,,,,7.3,
Wick,27/09/2016 14:00,15.1,35,,,0,,61,41,240,Dry,1002,1,30,,,,7.7,
Wick,27/09/2016 15:00,14.8,33,,,0,,62,52,230,Dry,1003,2,30,,,,7.7,
Wick,27/09/2016 16:00,13.3,33,,,0,,68,38,230,Dry,1003,4,35,,,,7.7,
Wick,27/09/2016 17:00,12.8,32,,,0,,75,36,230,Dry,1003,6,29,,,,8.5,
Wick,27/09/2016 18:00,11.7,25,,15.6,0.2,0.2,86,51,220,Light shower,1003,7,13,,,,9.6,
Wick,27/09/2016 19:00,11.8,33,,,0.2,,82,45,230,Light shower,1002,8,29,,,,9,
Wick,27/09/2016 20:00,11.6,21,,,0.8,,90,46,230,Drizzly rain,1002,2,19,,,,10.1,
Wick,27/09/2016 21:00,11.4,32,,,0.6,,91,47,250,Moderate rain,1002,7,6,,,,10,
Wick,27/09/2016 22:00,11.2,24,,,0.8,,92,37,240,Light rain,1002,1,17,,,,10,
Wick,27/09/2016 23:00,11.6,26,,,0,,84,40,240,Rain,1002,2,35,,,,9,
Wick,28/09/2016 00:00,12,16,,,,,,,250,-,,1,10,,,,9,
Wick,28/09/2016 01:00,11.9,20,,,0,,82,29,230,Dry,1003,1,35,,,,9,
Wick,28/09/2016 02:00,12.1,23,,,0,,83,36,230,Dry,1004,3,45,,,,9.4,
Wick,28/09/2016 03:00,12.2,18,,,0,,82,31,250,Dry,1005,1,45,,,,9.4,
Wick,28/09/2016 04:00,11.5,22,,,0,,85,32,260,Dry,1006,6,40,,,,9.1,
Wick,28/09/2016 05:00,11.4,22,,,0,,86,35,260,Dry,1007,3,35,,,,9.3,
Wick,28/09/2016 06:00,11.2,21,10.9,,0,3,86,31,270,Dry,1008,3,50,,,,9,
Wick,28/09/2016 07:00,11.2,18,,,0,,88,,260,Dry,1008,1,40,,,,9.3,
Wick,28/09/2016 08:00,11.6,18,,,0,,89,,260,Dry,1009,5,35,,,,9.9,
Wick,28/09/2016 09:00,12.2,14,,,0,,85,,260,Dry,1011,3,35,,,,9.8,
Wick,28/09/2016 10:00,12.1,12,,,0,,89,,270,Dry,1010,2,35,,,,10.4,
Wick,28/09/2016 11:00,12.5,8,,,0,,82,,240,Dry,1010,1,40,,,,9.6,
Wick,28/09/2016 12:00,12,9,,,0,0,85,,210,Moderate shower,1009,1,20,,,,9.6,
Wick,28/09/2016 13:00,11.7,7,,,1.8,,95,,170,Moderate rain,1008,4,11,,,,11,
Wick,28/09/2016 14:00,11.6,12,,,2.4,,98,,150,Moderate rain,1006,2,9,,,,11.3,
Wick,28/09/2016 15:00,11.6,10,,,0.4,,96,,150,Moderate shower,1004,6,5,,,,11.1,
Wick,28/09/2016 16:00,11.4,15,,,2.6,,92,,140,Light rain,1002,1,4,,,,10.2,
Wick,28/09/2016 17:00,12.1,15,,,0.4,,96,,130,Rain,1000,7,12,,,,11.6,
Wick,28/09/2016 18:00,13.1,14,,13.1,0,8,98,,160,Dry,998,1,20,,,,12.8,
Wick,28/09/2016 19:00,13.3,12,,,0.4,,97,,190,Rain,997,5,35,,,,12.9,
Wick,28/09/2016 20:00,14,23,,,0,,97,31,210,Dry,995,1,40,,,,13.6,
Wick,28/09/2016 21:00,14.6,18,,,0,,91,31,210,Dry,994,0,45,,,,13.3,
Wick,28/09/2016 22:00,13.9,22,,,0,,88,35,240,Dry,994,0,50,,,,12.1,
Wick,28/09/2016 23:00,13.2,15,,,0,,88,31,220,Dry,993,0,50,,,,11.4,
Wick,29/09/2016 00:00,13,26,,,0,0.4,77,33,210,Dry,992,0,45,,,,9.2,
Wick,29/09/2016 01:00,12.5,32,,,0,,76,43,210,Dry,991,0,35,,,,8.5,
Wick,29/09/2016 02:00,12,29,,,0,,74,40,210,Rain,990,1,35,,,,7.6,
Wick,29/09/2016 03:00,11.1,22,,,0.4,,85,26,220,Moderate shower,990,1,16,,,,8.7,
Wick,29/09/2016 04:00,10.9,31,,,0,,81,32,220,Rain,989,1,30,,,,7.9,
Wick,29/09/2016 05:00,10.4,36,,,0,,83,51,230,Dry,987,1,21,,,,7.7,
Wick,29/09/2016 06:00,10.3,31,10.1,,0.2,0.6,88,43,240,Dry,987,3,27,,,,8.5,
Wick,29/09/2016 07:00,9.5,30,,,0,,80,47,250,Dry,988,2,35,,,,6.4,
Wick,29/09/2016 08:00,9.2,31,,,0,,85,44,260,Dry,989,5,30,,,,6.9,
Wick,29/09/2016 09:00,9.2,29,,,0,,86,40,270,Dry,991,3,14,,,,7.1,
Wick,29/09/2016 10:00,9.3,25,,,0,,89,45,280,Dry,992,2,16,,,,7.6,
Wick,29/09/2016 11:00,9.6,24,,,0,,89,39,280,Dry,993,6,35,,,,7.9,
Wick,29/09/2016 12:00,9.2,25,,,0.2,0.2,89,35,280,Dry,994,1,11,,,,7.5,
Wick,29/09/2016 13:00,9.9,21,,,0,,82,30,290,Dry,995,3,35,,,,7.1,
Wick,29/09/2016 14:00,9.8,15,,,0.6,,87,36,280,Dry,996,4,40,,,,7.9,
Wick,29/09/2016 15:00,9.2,18,,,0.2,,83,33,280,Dry,997,3,40,,,,6.5,
Wick,29/09/2016 16:00,8.6,14,,,0,,89,,260,Dry,998,3,35,,,,7,
Wick,29/09/2016 17:00,8,15,,,,,,,270,-,,3,10,,,,6,
Wick,29/09/2016 18:00,7.1,16,,11.6,0.2,0.8,88,32,270,Dry,1000,3,50,,,,5.3,
Wick,29/09/2016 19:00,6.9,18,,,0.2,,85,,260,Dry,1000,3,50,,,,4.7,
Wick,29/09/2016 20:00,7.2,16,,,0,,86,,260,Dry,1000,1,30,,,,5.1,
Wick,29/09/2016 21:00,6.5,10,,,0,,87,,230,Dry,1000,0,40,,,,4.5,
Wick,29/09/2016 22:00,6.3,8,,,0,,87,,210,Dry,1000,0,40,,,,4.3,
Wick,29/09/2016 23:00,6.6,10,,,0,,84,,200,Dry,1000,0,40,,,,4.1,
Wick,30/09/2016 00:00,7,14,,,0,0.2,81,,210,Dry,1000,0,40,,,,4.1,
Wick,30/09/2016 01:00,6.6,12,,,0,,84,,210,Dry,1000,1,40,,,,4.1,
Wick,30/09/2016 02:00,7.2,15,,,0,,83,,220,Dry,999,0,45,,,,4.6,
Wick,30/09/2016 03:00,6.9,14,,,0,,86,,220,Dry,999,0,45,,,,4.8,
Wick,30/09/2016 04:00,7,12,,,0,,86,,220,Dry,999,0,50,,,,4.9,
Wick,30/09/2016 05:00,7,12,,,0,,87,,230,Dry,999,0,50,,,,5.1,
Wick,30/09/2016 06:00,7.1,12,6.2,,0,0,88,,240,Dry,999,0,50,,,,5.3,
Wick,30/09/2016 07:00,7.9,14,,,0,,85,,230,Dry,999,3,45,,,,5.7,
Wick,30/09/2016 08:00,8.5,10,,,0,,84,,220,Dry,1000,1,45,,,,6.1,
Wick,30/09/2016 09:00,9.4,16,,,0,,82,,250,Dry,1000,2,50,,,,6.6,
Wick,30/09/2016 10:00,10.6,20,,,0,,79,,250,Dry,1000,1,50,,,,7.2,
Wick,30/09/2016 11:00,11.2,22,,,0,,75,29,250,Dry,1001,3,45,,,,7,
Wick,30/09/2016 12:00,12.1,22,,,0,0,69,30,260,Dry,1001,1,40,,,,6.6,
Wick,30/09/2016 13:00,11.8,20,,,0,,77,,280,Dry,1002,4,40,,,,8,
Wick,30/09/2016 14:00,12.2,21,,,0,,74,29,280,Dry,1002,1,35,,,,7.9,
Wick,30/09/2016 15:00,12.6,20,,,0,,74,,280,Dry,1002,3,45,,,,8.1,
Wick,30/09/2016 16:00,11.7,16,,,0,,74,,280,Dry,1003,1,40,,,,7.3,
Wick,30/09/2016 17:00,11.1,14,,,0,,76,,290,Dry,1003,3,29,,,,7.2,
Wick,30/09/2016 18:00,8.4,8,,12.8,0,0,88,,270,Dry,1004,1,40,,,,6.6,
Wick,30/09/2016 19:00,7.6,7,,,0,,92,,260,Dry,1004,3,35,,,,6.4,
Wick,30/09/2016 20:00,6.1,7,,,0,,91,,260,Dry,1005,1,35,,,,4.8,
Wick,30/09/2016 21:00,5.6,8,,,0,,92,,240,Dry,1006,0,35,,,,4.5,
Wick,30/09/2016 22:00,5.4,5,,,0,,93,,260,Dry,1006,0,30,,,,4.5,
Wick,30/09/2016 23:00,4.9,7,,,0,,93,,240,Dry,1006,0,40,,,,3.9,
Wick,01/10/2016 00:00,4.7,6,,,0,0,94,,250,Dry,1006,,40,,,,3.9,
Wick,01/10/2016 01:00,4.9,6,,,0,,93,,260,Dry,1006,1,35,,,,4,
Wick,01/10/2016 02:00,4.6,6,,,0,,93,,260,Dry,1006,4,35,,,,3.7,
Wick,01/10/2016 03:00,4.4,6,,,0,,93,,260,Dry,1006,1,35,,,,3.5,
Wick,01/10/2016 04:00,4,6,,,0,,96,,240,Dry,1006,,35,,,,3.5,
Wick,01/10/2016 05:00,4.5,8,,,0,,93,,270,Dry,1007,2,35,,,,3.6,
Wick,01/10/2016 06:00,3.7,7,2.9,,0,0,94,,260,Dry,1007,,30,,,,2.9,
Wick,01/10/2016 07:00,3.7,6,,,0,,95,,270,Dry,1008,,35,,,,3.1,
Wick,01/10/2016 08:00,4.8,5,,,0,,93,,250,Dry,1008,,45,,,,3.9,
Wick,01/10/2016 09:00,8.5,5,,,0,,92,,270,Dry,1009,4,45,,,,7.4,
Wick,01/10/2016 10:00,10.5,6,,,0,,88,,290,Dry,1009,1,35,,,,8.6,
Wick,01/10/2016 11:00,11.6,3,,,0,,72,,330,Dry,1009,,40,,,,6.9,
Wick,01/10/2016 12:00,11.1,8,,,0,0,76,,290,Dry,1010,1,45,,,,7.2,
Wick,01/10/2016 13:00,11.5,5,,,0,,70,,360,Dry,1010,1,50,,,,6.3,
Wick,01/10/2016 14:00,12,5,,,0,,66,,40,Dry,1010,1,55,,,,6,
Wick,01/10/2016 15:00,11.8,3,,,0,,73,,30,Dry,1010,4,55,,,,7.2,
Wick,01/10/2016 16:00,10.7,5,,,0,,83,,70,Dry,1011,5,45,,,,8,
Wick,01/10/2016 17:00,10.6,1,,,0,,82,,50,Dry,1011,1,50,,,,7.8,
Wick,01/10/2016 18:00,7.6,6,,13,0,0,88,,320,Dry,1012,,50,,,,5.8,
Wick,01/10/2016 19:00,7,3,,,0,,90,,260,Dry,1012,,40,,,,5.6,
Wick,01/10/2016 20:00,6.1,5,,,0,,94,,260,Dry,1013,2,35,,,,5.3,
Wick,01/10/2016 21:00,5.4,5,,,0,,92,,260,Dry,1014,5,19,,,,4.3,
Wick,01/10/2016 22:00,4.2,6,,,0,,96,,260,Dry,1014,1,35,,,,3.7,
Wick,01/10/2016 23:00,4.1,6,,,0,,95,,260,Dry,1014,,35,,,,3.5,
Wick,02/10/2016 00:00,3.5,5,,,0,0,96,,260,Dry,1015,,30,,,,3,
Wick,02/10/2016 01:00,3.1,6,,,0,,97,,260,Dry,1015,,35,,,,2.7,
Wick,02/10/2016 02:00,3.4,6,,,0,,97,,250,Dry,1015,,30,,,,3,
Wick,02/10/2016 03:00,3.2,6,,,0,,97,,250,Dry,1016,,30,,,,2.8,
Wick,02/10/2016 04:00,3.2,6,,,0,,97,,260,Dry,1016,1,30,,,,2.8,
Wick,02/10/2016 05:00,3.1,7,,,0,,97,,250,Dry,1016,,30,,,,2.7,
Wick,02/10/2016 06:00,2.8,6,2.7,,0,0,97,,250,Dry,1017,1,30,,,,2.5,
Wick,02/10/2016 07:00,3,5,,,0,,96,,270,Dry,1017,1,30,,,,2.5,
Wick,02/10/2016 08:00,4.2,5,,,0,,93,,250,Dry,1018,,35,,,,3.3,
Wick,02/10/2016 09:00,7.7,3,,,0,,92,,260,Dry,1018,,55,,,,6.6,
Wick,02/10/2016 10:00,11.1,2,,,0,,81,,240,Dry,1018,,55,,,,8.1,
Wick,02/10/2016 11:00,11.9,5,,,0,,67,,110,Dry,1019,,35,,,,6,
Wick,02/10/2016 12:00,12.3,7,,,0,0,69,,130,Dry,1019,,40,,,,6.9,
Wick,02/10/2016 13:00,12.4,7,,,0,,69,,140,Dry,1019,,40,,,,6.9,
Wick,02/10/2016 14:00,12.2,8,,,0,,68,,140,Dry,1020,1,55,,,,6.5,
Wick,02/10/2016 15:00,12.1,7,,,0,,70,,140,Dry,1020,1,55,,,,7,
Wick,02/10/2016 16:00,11.8,7,,,0,,68,,150,Dry,1020,1,50,,,,6.2,
Wick,02/10/2016 17:00,11.2,6,,,0,,73,,140,Dry,1020,0,45,,,,6.7,
Wick,02/10/2016 18:00,10.3,8,,12.8,0,0,78,,120,Dry,1021,0,50,,,,6.7,
Wick,02/10/2016 19:00,10.2,10,,,0,,80,,120,Dry,1021,0,45,,,,7,
Wick,02/10/2016 20:00,10.9,14,,,0,,79,,130,Dry,1021,0,45,,,,7.5,
Wick,02/10/2016 21:00,10.9,15,,,0,,80,,130,Dry,1022,4,45,,,,7.6,
Wick,02/10/2016 22:00,11.1,15,,,0,,77,,140,Dry,1022,4,50,,,,7.4,
Wick,02/10/2016 23:00,11,14,,,0,,78,,150,Dry,1023,7,40,,,,7.5,
Wick,03/10/2016 00:00,10.8,15,,,0,0,80,,160,Dry,1023,5,35,,,,7.5,
Wick,03/10/2016 01:00,10.8,16,,,0,,79,,150,Dry,1023,1,35,,,,7.4,
Wick,03/10/2016 02:00,10.8,16,,,0,,81,,150,Dry,1023,1,35,,,,7.7,
Wick,03/10/2016 03:00,10.6,17,,,0,,80,,160,Dry,1024,1,30,,,,7.4,
Wick,03/10/2016 04:00,10.4,14,,,0,,79,,170,Dry,1024,1,35,,,,7,
Wick,03/10/2016 05:00,10.2,15,,,0,,80,,160,Dry,1024,0,35,,,,7,
Wick,03/10/2016 06:00,10.3,14,10,,0,0,81,,160,Dry,1025,1,35,,,,7.2,
Wick,03/10/2016 07:00,10.6,15,,,0,,80,,160,Dry,1026,1,35,,,,7.3,
Wick,03/10/2016 08:00,11,16,,,,,,,160,-,,1,10,,,,8,
Wick,03/10/2016 09:00,11.2,18,,,0,,79,29,150,Dry,1026,1,30,,,,7.7,
Wick,03/10/2016 10:00,11.6,20,,,0,,79,30,160,Dry,1027,1,29,,,,8.1,
Wick,03/10/2016 11:00,12.5,20,,,0,,79,31,150,Dry,1028,1,30,,,,9,
Wick,03/10/2016 12:00,12.6,17,,,0,0,77,29,150,Dry,1028,1,30,,,,8.7,
Wick,03/10/2016 13:00,12.8,15,,,0,,78,29,150,Dry,1028,1,27,,,,9.1,
Wick,03/10/2016 14:00,13.4,18,,,0,,75,30,140,Dry,1028,1,30,,,,9.1,
Wick,03/10/2016 15:00,12.9,16,,,0,,79,,140,Dry,1028,0,29,,,,9.4,
Wick,03/10/2016 16:00,12.6,16,,,0,,79,,140,Dry,1028,1,28,,,,9.2,
Wick,03/10/2016 17:00,12.4,18,,,0,,79,31,130,Dry,1029,1,28,,,,9,
Wick,03/10/2016 18:00,12.1,22,,13.6,0,0,78,32,140,Dry,1029,0,26,,,,8.4,
Wick,03/10/2016 19:00,11.8,21,,,0,,76,35,140,Dry,1029,0,29,,,,7.9,
Wick,03/10/2016 20:00,11.7,21,,,0,,79,35,150,Dry,1029,0,27,,,,8.2,
Wick,03/10/2016 21:00,11.6,24,,,0,,82,41,150,Dry,1030,1,26,,,,8.8,
Wick,03/10/2016 22:00,11.6,22,,,0,,83,35,160,Dry,1030,0,28,,,,8.9,
Wick,03/10/2016 23:00,11.6,25,,,0,,84,37,160,Dry,1030,0,27,,,,9.1,
Wick,04/10/2016 00:00,11.8,26,,,0,0,85,40,150,Dry,1030,0,29,,,,9.5,
Wick,04/10/2016 01:00,12,21,,,0,,89,35,150,Dry,1031,1,27,,,,10.3,
Wick,04/10/2016 02:00,12.2,18,,,0,,90,33,150,Dry,1031,1,26,,,,10.7,
Wick,04/10/2016 03:00,12.7,21,,,0,,92,,150,Dry,1031,0,25,,,,11.5,
Wick,04/10/2016 04:00,12.7,15,,,0,,94,29,130,Dry,1032,1,24,,,,11.8,
Wick,04/10/2016 05:00,12.8,15,,,0,,93,,140,Dry,1032,1,25,,,,11.7,
Wick,04/10/2016 06:00,12.8,17,11.4,,0,0,92,,140,Dry,1032,1,25,,,,11.6,
Wick,04/10/2016 07:00,12.9,13,,,0,,92,,130,Dry,1032,1,23,,,,11.7,
Wick,04/10/2016 08:00,13.1,14,,,0,,91,,130,Dry,1033,1,23,,,,11.7,
Wick,04/10/2016 09:00,13.1,16,,,0,,91,,140,Dry,1033,1,23,,,,11.7,
Wick,04/10/2016 10:00,13.5,20,,,0,,88,29,140,Dry,1034,1,25,,,,11.7,
Wick,04/10/2016 11:00,14,22,,,0,,84,35,140,Dry,1034,1,24,,,,11.5,
Wick,04/10/2016 12:00,14.3,17,,,0,0,84,31,140,Dry,1034,1,28,,,,11.7,
Wick,04/10/2016 13:00,14.5,16,,,0,,81,,140,Dry,1034,1,29,,,,11.4,
Wick,04/10/2016 14:00,14.4,21,,,0,,82,29,150,Dry,1034,1,27,,,,11.5,
Wick,04/10/2016 15:00,13.9,16,,,0,,86,,140,Dry,1034,1,27,,,,11.7,
Wick,04/10/2016 16:00,13.7,13,,,0,,91,30,150,Dry,1035,1,23,,,,12.3,
Wick,04/10/2016 17:00,13.4,13,,,0,,93,,140,Dry,1035,1,22,,,,12.4,
Wick,04/10/2016 18:00,13.1,12,,14.6,0,0,95,,140,Dry,1035,1,21,,,,12.4,
Wick,04/10/2016 19:00,13.2,18,,,0,,96,,140,Dry,1035,7,20,,,,12.6,
Wick,04/10/2016 20:00,13.1,18,,,0,,94,,150,Dry,1035,1,22,,,,12.2,
Wick,04/10/2016 21:00,13.2,15,,,0,,92,31,150,Dry,1035,0,23,,,,12,
Wick,04/10/2016 22:00,13,17,,,0,,92,,150,Dry,1035,1,21,,,,11.8,
Wick,04/10/2016 23:00,12.9,15,,,0,,92,,130,Dry,1036,3,23,,,,11.7,
Wick,05/10/2016 00:00,12.8,17,,,0,0,91,,140,Dry,1036,2,24,,,,11.4,
Wick,05/10/2016 01:00,12.5,22,,,0,,91,31,140,Dry,1036,1,22,,,,11.1,
Wick,05/10/2016 02:00,12.5,16,,,0,,89,,140,Dry,1036,7,25,,,,10.9,
Wick,05/10/2016 03:00,12.2,15,,,0,,89,,130,Dry,1037,1,26,,,,10.5,
Wick,05/10/2016 04:00,12.2,18,,,0,,86,,130,Dry,1037,0,28,,,,10,
Wick,05/10/2016 05:00,12.3,20,,,0,,83,29,130,Dry,1036,0,28,,,,9.5,
Wick,05/10/2016 06:00,12.2,16,12.1,,0,0,89,29,130,Dry,1036,0,25,,,,10.6,
Wick,05/10/2016 07:00,12.4,16,,,0,,88,,130,Dry,1036,1,24,,,,10.5,
Wick,05/10/2016 08:00,13,17,,,0,,85,,140,Dry,1036,2,25,,,,10.6,
Wick,05/10/2016 09:00,13.2,17,,,0,,85,,140,Dry,1037,1,25,,,,10.8,
Wick,05/10/2016 10:00,13.5,17,,,0,,84,29,140,Dry,1037,1,23,,,,10.9,
Wick,05/10/2016 11:00,13.6,20,,,0,,83,30,140,Dry,1036,2,22,,,,10.9,
Wick,05/10/2016 12:00,13.9,20,,,0,0,82,31,130,Dry,1036,4,22,,,,11,
Wick,05/10/2016 13:00,13.9,18,,,0,,83,30,130,Dry,1036,6,23,,,,11.1,
Wick,05/10/2016 14:00,14.1,21,,,0,,79,32,140,Dry,1034,1,24,,,,10.6,
Wick,05/10/2016 15:00,13.9,21,,,0,,80,32,140,Dry,1034,1,24,,,,10.6,
Wick,05/10/2016 16:00,13.5,20,,,0,,80,32,130,Dry,1034,1,25,,,,10.3,
Wick,05/10/2016 17:00,13.1,18,,,0,,81,31,140,Dry,1034,1,23,,,,10.1,
Wick,05/10/2016 18:00,12.7,20,,14.3,0,0,83,31,140,Dry,1034,1,27,,,,10,
Wick,05/10/2016 19:00,12.5,18,,,0,,88,31,140,Dry,1034,1,25,,,,10.6,
Wick,05/10/2016 20:00,12.3,22,,,0,,86,35,140,Dry,1034,1,25,,,,10.1,
Wick,05/10/2016 21:00,12.1,22,,,0,,84,35,140,Dry,1034,3,26,,,,9.6,
Wick,05/10/2016 22:00,11.9,16,,,0,,85,37,140,Dry,1035,6,25,,,,9.6,
Wick,05/10/2016 23:00,11.8,21,,,0,,85,32,140,Dry,1034,3,27,,,,9.4,
Wick,06/10/2016 00:00,11.7,20,,,0,0,84,36,140,Dry,1035,1,28,,,,9.2,
Wick,06/10/2016 01:00,11.6,18,,,0,,84,32,140,Dry,1035,2,28,,,,9.1,
Wick,06/10/2016 02:00,11.9,21,,,0,,75,30,150,Dry,1036,1,29,,,,7.7,
Wick,06/10/2016 03:00,11.7,18,,,0,,73,30,140,Dry,1035,3,30,,,,7.2,
Wick,06/10/2016 04:00,11.5,17,,,0,,74,29,140,Dry,1035,1,30,,,,7.2,
Wick,06/10/2016 05:00,11.4,15,,,0,,76,,150,Dry,1036,1,30,,,,7.4,
Wick,06/10/2016 06:00,11.1,12,11.1,,0,0,76,,150,Dry,1036,1,30,,,,7.2,
Wick,06/10/2016 07:00,11.1,13,,,0,,74,,150,Dry,1036,3,30,,,,6.7,
Wick,06/10/2016 08:00,11.5,12,,,0,,74,,150,Dry,1036,7,30,,,,7.1,
Wick,06/10/2016 09:00,11.7,14,,,0,,71,,140,Dry,1036,8,29,,,,6.7,
Wick,06/10/2016 10:00,11.9,13,,,0,,74,,150,Dry,1036,8,29,,,,7.5,
Wick,06/10/2016 11:00,12.4,14,,,0,,72,,140,Dry,1036,7,30,,,,7.5,
Wick,06/10/2016 12:00,13,13,,,0,0,73,,130,Dry,1036,7,30,,,,8.3,
Wick,06/10/2016 13:00,13,14,,,0,,73,,120,Dry,1035,6,30,,,,8.3,
Wick,06/10/2016 14:00,12.8,15,,,0,,76,,120,Dry,1035,6,35,,,,8.7,
Wick,06/10/2016 15:00,12.7,15,,,0,,72,,120,Dry,1035,7,35,,,,7.9,
Wick,06/10/2016 16:00,12.3,15,,,0,,77,,120,Dry,1034,4,30,,,,8.5,
Wick,06/10/2016 17:00,11.5,13,,,0,,81,,120,Dry,1034,3,30,,,,8.4,
Wick,06/10/2016 18:00,11.3,13,,13.6,0,0,77,,120,Dry,1034,1,35,,,,7.6,
Wick,06/10/2016 19:00,10.9,13,,,0,,75,,120,Dry,1034,1,30,,,,6.8,
Wick,06/10/2016 20:00,10.9,13,,,0,,73,,120,Dry,1034,0,35,,,,6.3,
Wick,06/10/2016 21:00,11.1,12,,,0,,69,,120,Dry,1033,0,40,,,,5.8,
Wick,06/10/2016 22:00,10.8,10,,,0,,77,,120,Dry,1033,0,35,,,,7,
Wick,06/10/2016 23:00,10.4,12,,,0,,73,,110,Dry,1033,0,40,,,,5.8,
Wick,07/10/2016 00:00,10.2,9,,,0,0,72,,100,Dry,1033,0,35,,,,5.4,
Wick,07/10/2016 01:00,10.8,13,,,0,,73,,100,Dry,1033,0,40,,,,6.2,
Wick,07/10/2016 02:00,10.5,12,,,0,,76,,90,Dry,1032,0,35,,,,6.5,
Wick,07/10/2016 03:00,10.5,13,,,0,,76,,90,Dry,1031,0,35,,,,6.5,
Wick,07/10/2016 04:00,10.7,13,,,0,,75,,100,Dry,1031,0,35,,,,6.6,
Wick,07/10/2016 05:00,10.4,13,,,0,,81,,110,Dry,1030,0,35,,,,7.3,
Wick,07/10/2016 06:00,10.1,10,10,,0,0,87,,110,Dry,1030,0,35,,,,8.1,
Wick,07/10/2016 07:00,10.4,10,,,0,,87,,110,Dry,1030,1,30,,,,8.5,
Wick,07/10/2016 08:00,11.5,9,,,0,,84,,130,Dry,1030,3,35,,,,9,
Wick,07/10/2016 09:00,12.2,12,,,0,,77,,140,Dry,1030,1,35,,,,8.3,
Wick,07/10/2016 10:00,12.5,13,,,0,,78,,130,Dry,1029,1,35,,,,8.8,
Wick,07/10/2016 11:00,12.5,15,,,0,,76,,130,Dry,1029,2,30,,,,8.4,
Wick,07/10/2016 12:00,12.6,14,,,0,0,64,,140,Dry,1029,7,30,,,,6,
Wick,07/10/2016 13:00,13,13,,,0,,65,,130,Dry,1029,8,35,,,,6.8,
Wick,07/10/2016 14:00,13,15,,,0,,61,,130,Dry,1028,7,30,,,,5.7,
Wick,07/10/2016 15:00,12.7,16,,,0,,65,,120,Dry,1028,8,30,,,,6.4,
Wick,07/10/2016 16:00,12.7,14,,,0,,63,,140,Dry,1028,2,35,,,,6,
Wick,07/10/2016 17:00,12.2,14,,,0,,73,,130,Dry,1028,1,30,,,,7.7,
Wick,07/10/2016 18:00,11.8,14,,13.4,0,0,76,,130,Dry,1028,1,30,,,,7.8,
Wick,07/10/2016 19:00,11.8,15,,,0,,74,,130,Dry,1028,1,30,,,,7.4,
Wick,07/10/2016 20:00,11.8,13,,,0,,75,,140,Dry,1029,1,30,,,,7.6,
Wick,07/10/2016 21:00,11.7,13,,,0,,81,,140,Dry,1029,0,29,,,,8.6,
Wick,07/10/2016 22:00,11.6,12,,,0,,84,,140,Dry,1029,0,29,,,,9,
Wick,07/10/2016 23:00,11.5,12,,,0,,85,,140,Dry,1029,0,28,,,,9.2,
Wick,08/10/2016 00:00,12,13,,,,,,,140,-,,0,10,,,,9,
Wick,08/10/2016 01:00,11.4,12,,,0,,87,,140,Dry,1030,0,28,,,,9.4,
Wick,08/10/2016 02:00,11.7,10,,,0,,82,,140,Dry,1030,7,30,,,,8.8,
Wick,08/10/2016 03:00,11.6,10,,,0,,78,,160,Dry,1030,8,29,,,,8,
Wick,08/10/2016 04:00,11.7,9,,,0,,74,,160,Dry,1030,8,30,,,,7.4,
Wick,08/10/2016 05:00,11,7,,,0,,77,,140,Dry,1030,1,30,,,,7.3,
Wick,08/10/2016 06:00,11.2,9,10.9,,0,0,77,,140,Dry,1031,2,30,,,,7.5,
Wick,08/10/2016 07:00,11,8,,,0,,84,,140,Dry,1031,0,30,,,,8.5,
Wick,08/10/2016 08:00,11.5,8,,,0,,82,,150,Dry,1031,1,30,,,,8.7,
Wick,08/10/2016 09:00,12,9,,,0,,82,,140,Dry,1032,1,28,,,,9.2,
Wick,08/10/2016 10:00,12.9,13,,,0,,75,,140,Dry,1032,5,35,,,,8.6,
Wick,08/10/2016 11:00,12.2,13,,,0,,79,,130,Dry,1032,3,35,,,,8.8,
Wick,08/10/2016 12:00,13.1,14,,,0,0,76,,140,Dry,1032,3,35,,,,9.1,
Wick,08/10/2016 13:00,12.9,14,,,0,,78,,130,Dry,1032,3,35,,,,9.2,
Wick,08/10/2016 14:00,12.9,13,,,0,,80,,130,Dry,1032,4,35,,,,9.6,
Wick,08/10/2016 15:00,12.7,12,,,0,,84,,130,Dry,1032,4,35,,,,10.1,
Wick,08/10/2016 16:00,12.5,10,,,0,,79,,130,Dry,1032,3,40,,,,9.1,
Wick,08/10/2016 17:00,11.8,12,,,0,,87,,130,Dry,1032,2,29,,,,9.8,
Wick,08/10/2016 18:00,11.7,0,,13.6,0,0,90,,0,Dry,1032,6,30,,,,10.2,
Wick,08/10/2016 19:00,11.9,9,,,0,,88,,150,Dry,1033,0,30,,,,10.1,
Wick,08/10/2016 20:00,12.1,7,,,0,,83,,160,Dry,1033,7,35,,,,9.4,
Wick,08/10/2016 21:00,12,9,,,0,,84,,150,Dry,1033,7,30,,,,9.4,
Wick,08/10/2016 22:00,11.9,12,,,0,,82,,170,Dry,1033,1,30,,,,9.1,
Wick,08/10/2016 23:00,11.7,13,,,0,,82,,160,Dry,1033,7,30,,,,8.9,
Wick,09/10/2016 00:00,11.2,10,,,0,0,82,,170,Dry,1033,7,35,,,,8.3,
Wick,09/10/2016 01:00,8.4,5,,,0,,86,,220,Dry,1034,7,30,,,,6.2,
Wick,09/10/2016 02:00,9.8,8,,,0,,80,,180,Dry,1033,1,40,,,,6.6,
Wick,09/10/2016 03:00,10.2,8,,,0,,75,,180,Dry,1033,0,40,,,,6.1,
Wick,09/10/2016 04:00,8.4,6,,,0,,81,,160,Dry,1033,0,35,,,,5.4,
Wick,09/10/2016 05:00,9.5,6,,,0,,83,,160,Dry,1033,0,30,,,,6.8,
Wick,09/10/2016 06:00,8.7,5,8.3,,0,0,80,,170,Dry,1033,0,35,,,,5.6,
Wick,09/10/2016 07:00,9.5,5,,,0,,80,,150,Dry,1033,0,35,,,,6.3,
Wick,09/10/2016 08:00,10.9,7,,,0,,78,,140,Dry,1033,0,40,,,,7.3,
Wick,09/10/2016 09:00,11.7,8,,,0,,74,,160,Dry,1033,,35,,,,7.4,
Wick,09/10/2016 10:00,12.2,8,,,0,,70,,160,Dry,1033,0,45,,,,6.9,
Wick,09/10/2016 11:00,12.6,5,,,0,,68,,150,Dry,1033,0,45,,,,7,
Wick,09/10/2016 12:00,12.6,8,,,0,0,66,,170,Dry,1033,0,45,,,,6.6,
Wick,09/10/2016 13:00,12.7,8,,,0,,66,,170,Dry,1032,1,45,,,,6.6,
Wick,09/10/2016 14:00,12.7,3,,,0,,65,,150,Dry,1032,1,45,,,,6.3,
Wick,09/10/2016 15:00,12.6,7,,,0,,64,,160,Dry,1032,1,45,,,,6.1,
Wick,09/10/2016 16:00,11.9,7,,,0,,69,,140,Dry,1032,1,45,,,,6.6,
Wick,09/10/2016 17:00,11.4,3,,,0,,72,,180,Dry,1032,0,40,,,,6.6,
Wick,09/10/2016 18:00,10.2,3,,13.2,0,0,78,,170,Dry,1032,0,30,,,,6.6,
Wick,09/10/2016 19:00,9.2,5,,,0,,81,,120,Dry,1032,0,30,,,,6.2,
Wick,09/10/2016 20:00,7.6,3,,,0,,87,,120,Dry,1032,0,30,,,,5.6,
Wick,09/10/2016 21:00,5,1,,,0,,90,,180,Dry,1032,0,40,,,,3.6,
Wick,09/10/2016 22:00,4.5,3,,,0,,92,,250,Dry,1032,0,10,,,,3.4,
Wick,09/10/2016 23:00,2.6,3,,,0,,91,,230,Dry,1032,0,10,,,,1.3,
Wick,10/10/2016 00:00,2.6,5,,,0,0,95,,260,Dry,1032,0,40,,,,2,
Wick,10/10/2016 01:00,2.8,3,,,0,,95,,270,Dry,1032,1,40,,,,2.2,
Wick,10/10/2016 02:00,3.3,3,,,0,,97,,290,Dry,1032,1,30,,,,3,
Wick,10/10/2016 03:00,2.8,3,,,0,,96,,260,Dry,1031,3,29,,,,2.3,
Wick,10/10/2016 04:00,3.4,5,,,0,,98,,260,Dry,1031,0,28,,,,3.2,
Wick,10/10/2016 05:00,4.3,5,,,0,,99,,280,Dry,1031,,25,,,,4.2,
Wick,10/10/2016 06:00,2.5,5,1.8,,0,0,98,,240,Dry,1032,7,30,,,,2.3,
Wick,10/10/2016 07:00,4.9,3,,,0,,100,,290,Dry,1032,3,35,,,,4.9,
Wick,10/10/2016 08:00,7,2,,,0,,98,,160,Dry,1032,3,40,,,,6.8,
Wick,10/10/2016 09:00,10.6,12,,,0,,76,,130,Dry,1032,1,50,,,,6.7,
Wick,10/10/2016 10:00,11.5,12,,,0,,73,,140,Dry,1032,1,60,,,,7,
Wick,10/10/2016 11:00,11.7,12,,,0,,69,,140,Dry,1032,1,50,,,,6.3,
Wick,10/10/2016 12:00,11.8,13,,,0,0,65,,130,Dry,1032,3,45,,,,5.6,
Wick,10/10/2016 13:00,12.5,13,,,0,,67,,130,Dry,1032,6,45,,,,6.6,
Wick,10/10/2016 14:00,11.6,10,,,0,,71,,130,Dry,1032,2,50,,,,6.7,
Wick,10/10/2016 15:00,11.4,10,,,0,,77,,120,Dry,1032,1,35,,,,7.6,
Wick,10/10/2016 16:00,11.6,8,,,0,,74,,140,Dry,1032,4,40,,,,7.2,
Wick,10/10/2016 17:00,11.5,10,,,0,,78,,140,Dry,1032,2,35,,,,7.9,
Wick,10/10/2016 18:00,11,6,,12.6,0,0,81,,140,Dry,1033,1,35,,,,8,
Wick,10/10/2016 19:00,10.6,5,,,0,,88,,120,Dry,1033,1,30,,,,8.7,
Wick,10/10/2016 20:00,10.7,8,,,0,,83,,130,Dry,1033,2,40,,,,8.1,
Wick,10/10/2016 21:00,10.8,10,,,0,,82,,130,Dry,1033,1,30,,,,8,
Wick,10/10/2016 22:00,10.7,5,,,0,,86,,150,Dry,1033,1,30,,,,8.6,
Wick,10/10/2016 23:00,10.7,9,,,0,,80,,120,Dry,1033,2,40,,,,7.5,
Wick,11/10/2016 00:00,10.2,8,,,0,0,79,,120,Dry,1033,2,40,,,,6.9,
Wick,11/10/2016 01:00,10,7,,,0,,79,,120,Dry,1033,3,45,,,,6.7,
Wick,11/10/2016 02:00,9.8,6,,,0,,82,,110,Dry,1033,4,45,,,,7,
Wick,11/10/2016 03:00,9.8,8,,,0,,82,,100,Dry,1033,1,45,,,,7,
Wick,11/10/2016 04:00,10,8,,,0,,79,,100,Dry,1032,4,45,,,,6.7,
Wick,11/10/2016 05:00,10.3,12,,,0,,80,,100,Dry,1032,3,40,,,,7.1,
Wick,11/10/2016 06:00,10.3,10,9.5,,0,0,77,,120,Dry,1032,3,45,,,,6.6,
Wick,11/10/2016 07:00,10,12,,,0,,79,,110,Dry,1032,1,45,,,,6.7,
Wick,11/10/2016 08:00,10.9,9,,,0,,75,,110,Dry,1032,2,45,,,,6.8,
Wick,11/10/2016 09:00,11.6,12,,,0,,74,,100,Dry,1032,1,45,,,,7.2,
Wick,11/10/2016 10:00,11.9,14,,,0,,72,,100,Dry,1033,4,50,,,,7.2,
Wick,11/10/2016 11:00,11.4,14,,,0,,72,,80,Dry,1032,5,50,,,,6.7,
Wick,11/10/2016 12:00,12.1,14,,,0,0,69,,90,Dry,1032,6,50,,,,6.8,
Wick,11/10/2016 13:00,12.1,13,,,0,,67,,90,Dry,1032,1,65,,,,6.2,
Wick,11/10/2016 14:00,11.5,12,,,0,,68,,100,Dry,1032,2,55,,,,5.9,
Wick,11/10/2016 15:00,11.7,9,,,0,,73,,100,Dry,1032,4,50,,,,7.1,
Wick,11/10/2016 16:00,10.8,9,,,0,,77,,140,Dry,1031,1,55,,,,7.1,
Wick,11/10/2016 17:00,10.1,9,,,0,,76,,140,Dry,1032,1,45,,,,6.2,
Wick,11/10/2016 18:00,10.3,9,,12.5,0,0,76,,120,Dry,1032,2,35,,,,6.4,
Wick,11/10/2016 19:00,10,10,,,,,,,120,-,,3,10,,,,6,
Wick,11/10/2016 20:00,10.1,12,,,0,,74,,110,Dry,1032,2,40,,,,5.8,
Wick,11/10/2016 21:00,9.9,12,,,0,,72,,110,Dry,1032,4,45,,,,5.2,
Wick,11/10/2016 22:00,10,10,,,0,,72,,120,Dry,1032,2,40,,,,5.3,
Wick,11/10/2016 23:00,10.4,12,,,0,,72,,110,Dry,1032,1,40,,,,5.7,
Wick,12/10/2016 00:00,10.3,12,,,0,0,70,,110,Dry,1032,4,35,,,,5.1,
Wick,12/10/2016 01:00,10.3,12,,,0,,67,,120,Dry,1031,7,40,,,,4.6,
Wick,12/10/2016 02:00,10.1,10,,,0,,73,,120,Dry,1031,5,35,,,,5.6,
Wick,12/10/2016 03:00,10.3,13,,,0,,77,,120,Dry,1031,1,35,,,,6.5,
Wick,12/10/2016 04:00,10.7,12,,,0,,73,,120,Dry,1031,1,40,,,,6.1,
Wick,12/10/2016 05:00,10.6,12,,,0,,74,,110,Dry,1031,8,40,,,,6.2,
Wick,12/10/2016 06:00,10.4,12,9.5,,0,0,75,,120,Dry,1031,8,35,,,,6.3,
Wick,12/10/2016 07:00,10.3,12,,,0,,79,,90,Dry,1031,8,40,,,,7,
Wick,12/10/2016 08:00,10.5,15,,,0,,73,,110,Dry,1032,7,40,,,,6,
Wick,12/10/2016 09:00,10.6,12,,,0,,64,,100,Dry,1032,8,50,,,,4.3,
Wick,12/10/2016 10:00,10.8,13,,,0,,69,,120,Dry,1032,7,35,,,,5.5,
Wick,12/10/2016 11:00,10.7,15,,,0,,69,,120,Dry,1031,1,40,,,,5.4,
Wick,12/10/2016 12:00,10.9,14,,,0,0,65,,110,Dry,1031,7,45,,,,4.6,
Wick,12/10/2016 13:00,12,14,,,0,,61,,110,Dry,1031,7,50,,,,4.9,
Wick,12/10/2016 14:00,11.1,13,,,0,,74,,110,Dry,1030,7,40,,,,6.7,
Wick,12/10/2016 15:00,11.3,15,,,0,,73,,130,Dry,1030,1,40,,,,6.7,
Wick,12/10/2016 16:00,9.8,13,,,0,,88,,100,Dry,1030,3,40,,,,8,
Wick,12/10/2016 17:00,9.6,10,,,0,,85,,90,Dry,1030,1,40,,,,7.3,
Wick,12/10/2016 18:00,10.5,13,,12.1,0,0,78,,120,Dry,1030,7,35,,,,7,
Wick,12/10/2016 19:00,10.5,15,,,0,,77,,120,Dry,1030,1,40,,,,6.8,
Wick,12/10/2016 20:00,10.8,15,,,0,,76,,130,Dry,1029,1,35,,,,6.9,
Wick,12/10/2016 21:00,10.8,15,,,0,,77,,130,Dry,1029,1,35,,,,7,
Wick,12/10/2016 22:00,11,16,,,0,,61,,130,Dry,1029,8,45,,,,4,
Wick,12/10/2016 23:00,10.7,15,,,0,,65,,120,Dry,1028,8,40,,,,4.4,
Wick,13/10/2016 00:00,10.3,14,,,0,0,64,,110,Dry,1028,8,40,,,,3.9,
Wick,13/10/2016 01:00,10.5,15,,,0,,62,,120,Dry,1028,7,45,,,,3.6,
Wick,13/10/2016 02:00,10.5,14,,,0,,62,,120,Dry,1028,8,45,,,,3.7,
Wick,13/10/2016 03:00,10.3,14,,,0,,66,,130,Dry,1027,8,40,,,,4.3,
Wick,13/10/2016 04:00,10.4,8,,,0,,64,,120,Dry,1027,8,50,,,,4,
Wick,13/10/2016 05:00,10.2,13,,,0,,71,,100,Dry,1026,7,45,,,,5.2,
Wick,13/10/2016 06:00,10.6,14,9.9,,0,0,69,,110,Dry,1026,1,40,,,,5.3,
Wick,13/10/2016 07:00,9.9,16,,,0,,79,,110,Dry,1026,1,28,,,,6.6,
Wick,13/10/2016 08:00,9.3,15,,,0,,84,30,110,Rain,1026,1,55,,,,6.9,
Wick,13/10/2016 09:00,9.9,18,,,0,,82,,100,Dry,1026,4,45,,,,7,
Wick,13/10/2016 10:00,9.8,21,,,0,,86,,100,Dry,1025,1,35,,,,7.6,
Wick,13/10/2016 11:00,11.1,18,,,0,,81,,110,Dry,1024,2,30,,,,8.1,
Wick,13/10/2016 12:00,11.4,20,,,0,0,79,30,120,Dry,1024,1,35,,,,8,
Wick,13/10/2016 13:00,11.4,20,,,0,,80,31,110,Dry,1024,2,35,,,,8.1,
Wick,13/10/2016 14:00,10.9,18,,,0,,88,31,110,Dry,1023,1,30,,,,9,
Wick,13/10/2016 15:00,11.6,18,,,0,,80,,120,Dry,1022,2,29,,,,8.4,
Wick,13/10/2016 16:00,11.4,20,,,0,,79,31,110,Dry,1022,1,29,,,,7.9,
Wick,13/10/2016 17:00,11.1,17,,,0,,76,31,120,Dry,1022,1,30,,,,7.2,
Wick,13/10/2016 18:00,11.2,24,,12.2,0,0,78,30,110,Dry,1022,3,30,,,,7.6,
Wick,13/10/2016 19:00,11,21,,,0,,87,32,110,Dry,1021,2,26,,,,9,
Wick,13/10/2016 20:00,11.3,23,,,0,,84,32,100,Dry,1021,2,28,,,,8.8,
Wick,13/10/2016 21:00,10.9,24,,,0,,89,33,100,Dry,1021,2,21,,,,9.2,
Wick,13/10/2016 22:00,11.2,24,,,0,,86,35,100,Dry,1020,2,24,,,,9,
Wick,13/10/2016 23:00,10.4,20,,,0,,92,31,110,Rain,1020,3,17,,,,9.2,
Wick,14/10/2016 00:00,11.3,26,,,0,0,82,35,100,Rain,1020,4,28,,,,8.5,
Wick,14/10/2016 01:00,11.3,24,,,0,,85,33,100,Dry,1019,1,28,,,,8.9,
Wick,14/10/2016 02:00,11.2,24,,,0,,85,33,100,Dry,1019,1,25,,,,8.8,
Wick,14/10/2016 03:00,11,24,,,0,,88,35,100,Dry,1018,2,22,,,,9.1,
Wick,14/10/2016 04:00,11.2,25,,,0,,84,37,100,Dry,1018,2,24,,,,8.6,
Wick,14/10/2016 05:00,11.3,28,,,0,,81,40,100,Rain,1017,1,25,,,,8.2,
Wick,14/10/2016 06:00,11.2,28,10.2,,0,0,81,36,110,Dry,1017,1,25,,,,8.1,
Wick,14/10/2016 07:00,11,23,,,0,,78,37,110,Dry,1017,1,26,,,,7.4,
Wick,14/10/2016 08:00,10.2,26,,,0,,87,37,100,Haze,1017,1,10,,,,8.2,
Wick,14/10/2016 09:00,10.4,26,,,0,,82,41,100,Rain,1017,1,20,,,,7.6,
Wick,14/10/2016 10:00,10.1,31,,,0,,84,40,100,Dry,1017,1,26,,,,7.6,
Wick,14/10/2016 11:00,10.3,31,,,0,,89,40,90,Dry,1016,2,17,,,,8.7,
Wick,14/10/2016 12:00,10.7,32,,,0,0,85,41,100,Dry,1016,4,14,,,,8.4,
Wick,14/10/2016 13:00,10.3,32,,,0,,91,43,100,Rain,1016,2,11,,,,8.9,
Wick,14/10/2016 14:00,10.4,26,,,0.2,,92,40,100,Rain,1015,3,10,,,,9.3,
Wick,14/10/2016 15:00,10.5,29,,,0,,92,40,100,Dry,1015,2,14,,,,9.3,
Wick,14/10/2016 16:00,10,26,,,,,,,110,-,,5,7,,,,9,
Wick,14/10/2016 17:00,10.5,28,,,0,,87,39,100,Dry,1015,3,17,,,,8.5,
Wick,14/10/2016 18:00,10.3,28,,11.3,0,0.2,90,39,100,Dry,1015,1,13,,,,8.8,
Wick,14/10/2016 19:00,10.5,26,,,0,,85,38,100,Dry,1015,2,19,,,,8.2,
Wick,14/10/2016 20:00,10.4,23,,,0,,89,37,110,Dry,1016,2,16,,,,8.8,
Wick,14/10/2016 21:00,10.6,26,,,0,,83,37,100,Dry,1016,2,23,,,,8,
Wick,14/10/2016 22:00,10.3,29,,,0,,86,36,100,Rain,1016,1,27,,,,8.2,
Wick,14/10/2016 23:00,10.5,28,,,,,87,36,90,Dry,1015,3,23,,,,8.5,
Wick,15/10/2016 02:00,10.6,23,,,0,,89,36,100,Dry,1014,2,23,,,,8.9,
Wick,15/10/2016 03:00,11,22,,,,,,,90,-,,3,8,,,,9,
Wick,15/10/2016 04:00,11,22,,,,,,,90,-,,3,10,,,,9,
Wick,15/10/2016 05:00,11,22,,,,,,,90,-,,5,10,,,,9,
Wick,15/10/2016 06:00,11,22,,,,,,,100,-,,3,10,,,,9,
Wick,15/10/2016 07:00,10.1,28,,,0,,94,39,90,Haze,1013,4,8,,,,9.3,
Wick,15/10/2016 08:00,9.9,31,,,0.6,,96,38,90,Drizzly rain,1013,5,8,,,,9.4,
Wick,15/10/2016 09:00,10.4,28,,,0,,89,43,90,Rain,1013,2,20,,,,8.7,
Wick,15/10/2016 10:00,9.9,29,,,0.2,,89,44,90,Dry,1013,1,10,,,,8.3,
Wick,15/10/2016 11:00,9.8,29,,,0.4,,92,40,80,Dry,1012,4,12,,,,8.7,
Wick,15/10/2016 12:00,10.1,32,,,1.2,2,93,40,80,Drizzly rain,1012,6,15,,,,9.1,
Wick,15/10/2016 13:00,10,29,,,1,,90,40,90,Rain,1011,1,13,,,,8.5,
Wick,15/10/2016 14:00,10.2,28,,,0.8,,92,37,90,Dry,1010,3,12,,,,9.1,
Wick,15/10/2016 15:00,10.4,32,,,0.6,,91,43,90,Rain,1010,2,13,,,,9.1,
Wick,15/10/2016 16:00,10.3,32,,,0.4,,92,41,90,Dry,1009,3,13,,,,9.1,
Wick,15/10/2016 17:00,10.3,31,,,0.6,,92,41,90,Dry,1009,3,11,,,,9.2,
Wick,15/10/2016 18:00,10.4,29,,10.7,0.6,4,93,43,100,Rain,1009,3,14,,,,9.4,
Wick,15/10/2016 19:00,10.7,29,,,1,,92,38,100,Rain,1009,7,13,,,,9.5,
Wick,15/10/2016 20:00,10.8,25,,,0.2,,95,38,100,Dry,1009,8,12,,,,10.1,
Wick,15/10/2016 21:00,11.3,23,,,0.2,,93,35,100,Dry,1009,8,14,,,,10.3,
Wick,15/10/2016 22:00,11.5,20,,,0,,95,31,110,Misty,1008,8,8,,,,10.8,
Wick,15/10/2016 23:00,12,14,,,0.2,,96,,130,Dry,1009,4,13,,,,11.5,
Wick,16/10/2016 00:00,11.9,10,,,0,2,94,,140,Dry,1009,1,20,,,,11.1,
Wick,16/10/2016 01:00,11.6,10,,,0,,92,,140,Dry,1009,1,17,,,,10.5,
Wick,16/10/2016 02:00,11.5,15,,,0,,94,,130,Dry,1010,7,11,,,,10.6,
Wick,16/10/2016 03:00,11.6,14,,,0,,93,,140,Dry,1010,2,12,,,,10.6,
Wick,16/10/2016 04:00,11.7,14,,,0,,94,,130,Dry,1010,2,11,,,,10.9,
Wick,16/10/2016 05:00,11.9,13,,,0,,94,,130,Dry,1010,2,11,,,,11,
Wick,16/10/2016 06:00,11.9,14,10.2,,0,0,94,,130,Dry,1010,5,10,,,,11.1,
Wick,16/10/2016 07:00,11.9,12,,,0,,96,,120,Misty,1010,5,8,,,,11.3,
Wick,16/10/2016 08:00,12.1,14,,,0,,94,,130,Misty,1010,2,10,,,,11.3,
Wick,16/10/2016 09:00,12.2,12,,,0,,96,,130,Misty,1011,5,8,,,,11.6,
Wick,16/10/2016 10:00,12.4,14,,,0,,94,,110,Dry,1010,3,10,,,,11.6,
Wick,16/10/2016 11:00,12.9,14,,,0,,95,,120,Dry,1010,4,12,,,,12.2,
Wick,16/10/2016 12:00,12.9,14,,,0,0,94,,120,Dry,1009,3,10,,,,12.1,
Wick,16/10/2016 13:00,12.6,15,,,0,,94,,120,Dry,1009,3,12,,,,11.8,
Wick,16/10/2016 14:00,12.4,20,,,0,,89,30,130,Dry,1009,2,23,,,,10.8,
Wick,16/10/2016 15:00,12.2,20,,,0,,86,30,130,Dry,1008,3,27,,,,10,
Wick,16/10/2016 16:00,12.1,18,,,0,,88,33,130,Dry,1008,7,26,,,,10.2,
Wick,16/10/2016 17:00,11.3,16,,,0.8,,92,30,130,Dry,1008,1,14,,,,10.1,
Wick,16/10/2016 18:00,11.7,22,,13.3,0.2,1,91,29,120,Dry,1007,2,26,,,,10.4,
Wick,16/10/2016 19:00,11.8,20,,,0.2,,97,32,130,Rain,1006,4,27,,,,11.4,
Wick,16/10/2016 20:00,11.9,18,,,0,,92,32,140,Dry,1006,1,25,,,,10.8,
Wick,16/10/2016 21:00,11.7,18,,,0,,88,30,150,Dry,1007,0,23,,,,9.9,
Wick,16/10/2016 22:00,11.7,16,,,0,,86,31,150,Dry,1007,0,27,,,,9.6,
Wick,16/10/2016 23:00,11.7,20,,,0,,88,29,140,Dry,1007,0,29,,,,9.8,
Wick,17/10/2016 00:00,11.8,17,,,0,0.2,89,,150,Dry,1007,0,26,,,,10.1,
Wick,17/10/2016 01:00,12,21,,,0,,90,,130,Dry,1006,0,26,,,,10.5,
Wick,17/10/2016 02:00,12.1,20,,,0,,91,31,130,Dry,1006,0,24,,,,10.7,
Wick,17/10/2016 03:00,12.1,18,,,0,,92,,130,Dry,1006,0,22,,,,11,
Wick,17/10/2016 04:00,12.1,21,,,0,,91,29,130,Dry,1005,1,23,,,,10.7,
Wick,17/10/2016 05:00,11.8,20,,,0,,91,29,140,Dry,1005,0,24,,,,10.4,
Wick,17/10/2016 06:00,11.6,16,11.2,,0,0,89,31,140,Dry,1004,5,27,,,,10,
Wick,17/10/2016 07:00,11.6,17,,,0,,87,32,140,Dry,1004,5,27,,,,9.6,
Wick,17/10/2016 08:00,11.7,18,,,0,,88,33,140,Dry,1004,2,27,,,,9.9,
Wick,17/10/2016 09:00,11.9,18,,,0,,84,31,150,Dry,1004,2,24,,,,9.4,
Wick,17/10/2016 10:00,11.9,20,,,0,,85,30,150,Dry,1004,7,25,,,,9.5,
Wick,17/10/2016 11:00,12.2,16,,,0,,85,30,150,Dry,1004,7,26,,,,9.8,
Wick,17/10/2016 12:00,12.2,16,,,0,0,84,,150,Dry,1004,3,28,,,,9.6,
Wick,17/10/2016 13:00,12.7,15,,,0,,83,,160,Dry,1004,1,28,,,,9.9,
Wick,17/10/2016 14:00,12.5,15,,,0,,84,,160,Dry,1004,1,30,,,,9.9,
Wick,17/10/2016 15:00,12.9,16,,,0,,79,,180,Dry,1004,1,30,,,,9.4,
Wick,17/10/2016 16:00,12.8,14,,,0,,79,,190,Dry,1004,1,45,,,,9.3,
Wick,17/10/2016 17:00,11.8,12,,,0,,81,,200,Dry,1005,1,35,,,,8.7,
Wick,17/10/2016 18:00,10.6,9,,13.4,0,0,82,,200,Dry,1006,1,35,,,,7.7,
Wick,17/10/2016 19:00,10.2,9,,,0,,85,,190,Dry,1006,1,30,,,,7.9,
Wick,17/10/2016 20:00,10.5,15,,,0,,88,,200,Dry,1006,1,35,,,,8.7,
Wick,17/10/2016 21:00,10.9,14,,,0,,87,,210,Dry,1006,1,40,,,,8.9,
Wick,17/10/2016 22:00,11.1,16,,,0,,85,,190,Dry,1006,0,40,,,,8.7,
Wick,17/10/2016 23:00,11,10,,,0,,84,,180,Dry,1006,0,35,,,,8.5,
Wick,18/10/2016 00:00,11.3,12,,,0,0,80,,170,Dry,1006,2,30,,,,8.1,
Wick,18/10/2016 01:00,11.3,13,,,0,,81,,180,Dry,1006,5,30,,,,8.3,
Wick,18/10/2016 02:00,11.2,12,,,0,,82,,180,Dry,1005,1,35,,,,8.4,
Wick,18/10/2016 03:00,7.5,12,,,0.8,,90,,240,Haze,1006,2,13,,,,6.1,
Wick,18/10/2016 04:00,7,10,,,1,,94,,250,Dry,1006,7,27,,,,6.2,
Wick,18/10/2016 05:00,7,10,,,0.2,,93,,250,Dry,1006,8,55,,,,6,
Wick,18/10/2016 06:00,6.9,9,6.8,,0,2,92,,260,Dry,1006,5,55,,,,5.7,
Wick,18/10/2016 07:00,6.7,9,,,0,,92,,260,Dry,1007,7,50,,,,5.6,
Wick,18/10/2016 08:00,6.8,8,,,0,,93,,260,Dry,1008,1,45,,,,5.9,
Wick,18/10/2016 09:00,7.4,10,,,0,,91,,260,Dry,1008,1,40,,,,6.1,
Wick,18/10/2016 10:00,8.4,10,,,0,,89,,270,Dry,1009,6,40,,,,6.7,
Wick,18/10/2016 11:00,9.6,13,,,0,,84,,280,Dry,1010,6,50,,,,7.1,
Wick,18/10/2016 12:00,10.5,15,,,0,0,83,,290,Dry,1010,1,45,,,,7.8,
Wick,18/10/2016 13:00,11,17,,,0,,82,,290,Dry,1011,5,50,,,,8.1,
Wick,18/10/2016 14:00,11.3,15,,,0,,81,,290,Dry,1011,1,50,,,,8.3,
Wick,18/10/2016 15:00,11,13,,,0,,85,,290,Dry,1012,2,50,,,,8.7,
Wick,18/10/2016 16:00,10.8,12,,,0,,89,,300,Dry,1013,1,50,,,,9.1,
Wick,18/10/2016 17:00,10.2,7,,,0,,91,,290,Dry,1013,7,25,,,,8.9,
Wick,18/10/2016 18:00,9,6,,12.3,0,0,96,,270,Dry,1014,7,40,,,,8.5,
Wick,18/10/2016 19:00,8.6,8,,,0,,97,,270,Dry,1015,7,35,,,,8.2,
Wick,18/10/2016 20:00,9.4,13,,,0,,90,,300,Dry,1016,7,40,,,,8,
Wick,18/10/2016 21:00,9.4,8,,,0.2,,94,,330,Dry,1016,5,40,,,,8.6,
Wick,18/10/2016 22:00,8.8,7,,,0,,94,,260,Dry,1017,2,23,,,,7.9,
Wick,18/10/2016 23:00,8.9,6,,,0.4,,97,,250,Dry,1017,4,30,,,,8.6,
Wick,19/10/2016 00:00,7.5,9,,,0,0.6,97,,270,Dry,1018,1,30,,,,7.2,
Wick,19/10/2016 01:00,7.7,7,,,0,,99,,320,Dry,1018,4,30,,,,7.6,
Wick,19/10/2016 02:00,8.3,8,,,0.6,,99,,270,Dry,1018,1,30,,,,8.2,
Wick,19/10/2016 03:00,8.6,7,,,0,,98,,260,Dry,1019,1,40,,,,8.4,
Wick,19/10/2016 04:00,8.3,8,,,0,,98,,280,Dry,1020,2,35,,,,8.1,
Wick,19/10/2016 05:00,8.6,6,,,0,,96,,290,Dry,1020,7,35,,,,8,
Wick,19/10/2016 06:00,8.7,7,7.2,,0,0.4,92,,290,Dry,1021,2,40,,,,7.6,
Wick,19/10/2016 07:00,7.3,6,,,0,,95,,280,Dry,1022,7,40,,,,6.6,
Wick,19/10/2016 08:00,9.4,7,,,0,,96,,310,Dry,1022,8,30,,,,8.9,
Wick,19/10/2016 09:00,10.5,7,,,0,,96,,300,Dry,1023,8,30,,,,10,
Wick,19/10/2016 10:00,11.4,9,,,0,,92,,340,Dry,1023,8,30,,,,10.2,
Wick,19/10/2016 11:00,11.9,13,,,0,,89,,340,Dry,1023,8,30,,,,10.2,
Wick,19/10/2016 12:00,12.1,10,,,0,0,87,,340,Dry,1024,7,35,,,,10.1,
Wick,19/10/2016 13:00,10.7,12,,,0,,89,,320,Dry,1024,4,40,,,,9.1,
Wick,19/10/2016 14:00,10.7,8,,,0.4,,94,,300,Dry,1024,1,29,,,,9.8,
Wick,19/10/2016 15:00,11,10,,,0,,94,,320,Dry,1025,2,30,,,,10.2,
Wick,19/10/2016 16:00,10.8,7,,,0,,95,,320,Dry,1025,2,26,,,,10.1,
Wick,19/10/2016 17:00,10.3,7,,,0,,95,,320,Dry,1025,1,30,,,,9.6,
Wick,19/10/2016 18:00,10.2,7,,12.7,0,0.4,94,,330,Dry,1026,4,30,,,,9.4,
Wick,19/10/2016 19:00,9.6,7,,,0,,96,,310,Dry,1026,7,30,,,,9,
Wick,19/10/2016 20:00,9.4,7,,,0,,96,,330,Dry,1026,8,30,,,,8.9,
Wick,19/10/2016 21:00,8.1,5,,,0,,95,,310,Dry,1026,8,28,,,,7.5,
Wick,19/10/2016 22:00,7.7,5,,,0,,98,,260,Dry,1026,1,29,,,,7.5,
Wick,19/10/2016 23:00,6.3,8,,,0,,98,,300,Dry,1026,5,22,,,,6.1,
Wick,20/10/2016 00:00,6.5,5,,,0,0,99,,270,Dry,1026,3,30,,,,6.4,
Wick,20/10/2016 01:00,5.7,6,,,0,,99,,270,Dry,1026,1,30,,,,5.6,
Wick,20/10/2016 02:00,5.4,7,,,0,,99,,270,Dry,1026,4,35,,,,5.3,
Wick,20/10/2016 03:00,5,5,,,0,,99,,250,Dry,1026,3,30,,,,4.9,
Wick,20/10/2016 04:00,5.3,5,,,0,,99,,250,Dry,1026,7,35,,,,5.2,
Wick,20/10/2016 05:00,5.9,3,,,0,,100,,260,Dry,1026,8,40,,,,5.9,
Wick,20/10/2016 06:00,5.2,6,4.9,,0,0,98,,260,Dry,1026,5,40,,,,5,
Wick,20/10/2016 07:00,5.3,3,,,0,,98,,260,Dry,1026,8,45,,,,5.1,
Wick,20/10/2016 08:00,5.5,3,,,0,,98,,230,Dry,1026,1,30,,,,5.3,
Wick,20/10/2016 09:00,8.2,1,,,0,,99,,250,Dry,1026,1,35,,,,8.1,
Wick,20/10/2016 10:00,11.3,1,,,0,,91,,210,Dry,1026,1,35,,,,10,
Wick,20/10/2016 11:00,11.9,5,,,0,,82,,150,Dry,1026,1,45,,,,9,
Wick,20/10/2016 12:00,11.9,5,,,0,0,81,,170,Dry,1026,1,40,,,,8.9,
Wick,20/10/2016 13:00,12,6,,,0,,78,,180,Dry,1025,1,50,,,,8.3,
Wick,20/10/2016 14:00,11.6,6,,,0,,75,,180,Dry,1025,1,45,,,,7.5,
Wick,20/10/2016 15:00,11.2,2,,,0,,81,,180,Dry,1025,1,45,,,,8.1,
Wick,20/10/2016 16:00,10.9,5,,,0,,80,,160,Dry,1025,1,35,,,,7.6,
Wick,20/10/2016 17:00,10.4,3,,,0,,84,,150,Dry,1025,1,35,,,,7.9,
Wick,20/10/2016 18:00,10.3,5,,12.9,0,0,86,,160,Dry,1024,1,35,,,,8.2,
Wick,20/10/2016 19:00,9.8,3,,,0,,88,,160,Dry,1024,1,28,,,,8,
Wick,20/10/2016 20:00,9.9,5,,,0,,89,,180,Dry,1024,1,35,,,,8.3,
Wick,20/10/2016 21:00,9.4,3,,,0,,90,,200,Dry,1024,1,40,,,,8,
Wick,20/10/2016 22:00,9.5,2,,,0,,91,,190,Dry,1024,0,40,,,,8.2,
Wick,20/10/2016 23:00,9.9,5,,,0,,92,,160,Dry,1024,1,30,,,,8.7,
Wick,21/10/2016 00:00,10.6,6,,,0,0,88,,150,Dry,1023,1,40,,,,8.8,
Wick,21/10/2016 01:00,10.8,6,,,0,,89,,140,Dry,1023,2,40,,,,9.1,
Wick,21/10/2016 02:00,10.9,8,,,0,,89,,140,Dry,1023,2,40,,,,9.2,
Wick,21/10/2016 03:00,10.8,8,,,0,,88,,150,Dry,1022,2,35,,,,9,
Wick,21/10/2016 04:00,10.6,8,,,0,,89,,150,Dry,1022,5,29,,,,8.9,
Wick,21/10/2016 05:00,10.2,9,,,0.2,,86,,150,Dry,1022,7,35,,,,8.1,
Wick,21/10/2016 06:00,10.4,9,9.2,,0.2,0.4,90,,150,Dry,1022,8,30,,,,8.9,
Wick,21/10/2016 07:00,10.5,9,,,0,,89,,150,Dry,1022,5,30,,,,8.9,
Wick,21/10/2016 08:00,10.6,8,,,0,,86,,160,Dry,1022,1,40,,,,8.4,
Wick,21/10/2016 09:00,10.4,10,,,0,,78,,150,Dry,1022,7,45,,,,6.8,
Wick,21/10/2016 10:00,10.7,10,,,0.2,,83,,150,Dry,1022,1,45,,,,8.1,
Wick,21/10/2016 11:00,10.9,9,,,0,,83,,160,Dry,1022,5,40,,,,8.2,
Wick,21/10/2016 12:00,11,10,,,0,0.2,78,,150,Dry,1022,7,45,,,,7.4,
Wick,21/10/2016 13:00,11.2,10,,,0,,71,,150,Dry,1022,1,50,,,,6.3,
Wick,21/10/2016 14:00,11.2,13,,,0,,69,,150,Dry,1022,1,40,,,,5.9,
Wick,21/10/2016 15:00,11,10,,,0,,79,,140,Dry,1021,3,45,,,,7.6,
Wick,21/10/2016 16:00,10.9,8,,,0,,80,,150,Dry,1021,4,40,,,,7.7,
Wick,21/10/2016 17:00,10.6,10,,,0,,85,,140,Dry,1022,4,45,,,,8.2,
Wick,21/10/2016 18:00,10.6,12,,11.4,0,0,84,,130,Dry,1022,2,45,,,,8.1,
Wick,21/10/2016 19:00,10.5,12,,,0,,84,,150,Dry,1022,3,35,,,,8,
Wick,21/10/2016 20:00,10.5,12,,,0,,79,,150,Dry,1022,0,40,,,,7.2,
Wick,21/10/2016 21:00,10.3,9,,,0,,78,,150,Dry,1022,1,45,,,,6.8,
Wick,21/10/2016 22:00,10.3,12,,,0,,79,,150,Dry,1022,1,45,,,,7,
Wick,21/10/2016 23:00,10.5,10,,,0,,84,,150,Dry,1022,5,40,,,,8,
Wick,22/10/2016 00:00,10.3,10,,,0,0,85,,150,Dry,1022,6,35,,,,8,
Wick,22/10/2016 01:00,10.4,12,,,0,,85,,150,Dry,1022,5,30,,,,8,
Wick,22/10/2016 02:00,10.4,13,,,0,,86,,160,Dry,1022,3,30,,,,8.2,
Wick,22/10/2016 03:00,10.2,14,,,0,,84,,140,Dry,1022,3,29,,,,7.7,
Wick,22/10/2016 04:00,10.3,13,,,0,,81,,160,Dry,1022,1,30,,,,7.2,
Wick,22/10/2016 05:00,10.4,13,,,0,,77,,150,Dry,1022,2,28,,,,6.7,
Wick,22/10/2016 06:00,10.4,12,10.1,,0,0,77,,150,Dry,1022,7,30,,,,6.6,
Wick,22/10/2016 07:00,10,12,,,0.2,,85,,140,Haze,1022,1,11,,,,7.7,
Wick,22/10/2016 08:00,10.4,13,,,0.4,,83,,130,Dry,1022,2,30,,,,7.8,
Wick,22/10/2016 09:00,10.6,12,,,0.2,,81,,150,Dry,1022,1,35,,,,7.6,
Wick,22/10/2016 10:00,10.4,10,,,0,,83,,160,Dry,1023,3,30,,,,7.8,
Wick,22/10/2016 11:00,10.7,9,,,0,,77,,150,Dry,1023,7,35,,,,7,
Wick,22/10/2016 12:00,10.8,8,,,0,0.8,74,,140,Dry,1023,1,35,,,,6.5,
Wick,22/10/2016 13:00,9.8,16,,,0,,84,,120,Dry,1023,1,30,,,,7.3,
Wick,22/10/2016 14:00,10,12,,,0,,79,,110,Dry,1023,1,40,,,,6.7,
Wick,22/10/2016 15:00,10.5,9,,,0,,83,,120,Dry,1022,1,28,,,,7.9,
Wick,22/10/2016 16:00,10.5,12,,,0,,76,,130,Dry,1022,7,40,,,,6.6,
Wick,22/10/2016 17:00,10.3,9,,,0,,75,,130,Dry,1023,1,40,,,,6.1,
Wick,22/10/2016 18:00,10.2,8,,11,0,0,76,,140,Dry,1023,7,35,,,,6.3,
Wick,22/10/2016 19:00,10.2,8,,,0,,75,,130,Dry,1023,3,35,,,,6,
Wick,22/10/2016 20:00,9.7,5,,,0,,79,,140,Dry,1023,3,35,,,,6.3,
Wick,22/10/2016 21:00,10.2,10,,,0,,75,,130,Dry,1023,1,35,,,,6,
Wick,22/10/2016 22:00,9.8,8,,,0,,75,,120,Dry,1023,1,35,,,,5.7,
Wick,22/10/2016 23:00,6.8,3,,,0,,84,,260,Dry,1023,5,40,,,,4.4,
Wick,23/10/2016 00:00,6.7,3,,,0.2,0.2,91,,290,Haze,1023,3,8,,,,5.4,
Wick,23/10/2016 01:00,8.4,9,,,2.4,,80,,110,Dry,1023,1,35,,,,5.3,
Wick,23/10/2016 02:00,8.6,7,,,0,,79,,140,Dry,1023,7,45,,,,5.2,
Wick,23/10/2016 03:00,8.2,6,,,0,,83,,90,Dry,1023,7,40,,,,5.5,
Wick,23/10/2016 04:00,7.3,1,,,0,,84,,80,Dry,1023,7,35,,,,4.9,
Wick,23/10/2016 05:00,7.9,3,,,0,,90,,110,Dry,1023,2,30,,,,6.5,
Wick,23/10/2016 06:00,6.1,3,5.9,,0,2.8,94,,250,Dry,1023,3,30,,,,5.3,
Wick,23/10/2016 07:00,7.7,5,,,0.2,,80,,80,Dry,1023,1,15,,,,4.5,
Wick,23/10/2016 08:00,5.1,5,,,0,,94,,290,Dry,1023,7,30,,,,4.3,
Wick,23/10/2016 09:00,5.3,3,,,0,,98,,260,Dry,1022,1,28,,,,5.1,
Wick,23/10/2016 10:00,6.9,2,,,0,,99,,290,Dry,1022,7,30,,,,6.8,
Wick,23/10/2016 11:00,9.1,5,,,0,,90,,290,Dry,1022,1,40,,,,7.6,
Wick,23/10/2016 12:00,9.9,7,,,0,0.2,79,,30,Dry,1021,3,45,,,,6.6,
Wick,23/10/2016 13:00,7.7,14,,,1.2,,92,,100,Haze,1021,4,7,,,,6.6,
Wick,23/10/2016 14:00,8.3,2,,,1,,89,,140,Dry,1021,7,30,,,,6.7,
Wick,23/10/2016 15:00,8,5,,,0.6,,90,,10,Dry,1020,1,13,,,,6.5,
Wick,23/10/2016 16:00,8.4,5,,,0.2,,89,,350,Dry,1020,1,50,,,,6.7,
Wick,23/10/2016 17:00,8.1,3,,,0,,87,,50,Dry,1020,7,50,,,,6.2,
Wick,23/10/2016 18:00,6.8,2,,10.2,0,2.8,93,,260,Dry,1020,1,30,,,,5.9,
Wick,23/10/2016 19:00,7.1,1,,,1.2,,90,,330,Haze,1020,5,6,,,,5.7,
Wick,23/10/2016 20:00,6.6,6,,,0.4,,96,,310,Misty,1020,5,8,,,,6.1,
Wick,23/10/2016 21:00,6.9,1,,,1.8,,96,,310,Misty,1020,1,7,,,,6.4,
Wick,23/10/2016 22:00,6.1,3,,,0.4,,97,,250,Dry,1020,1,29,,,,5.7,
Wick,23/10/2016 23:00,7.7,9,,,0,,86,,130,Dry,1020,4,35,,,,5.6,
Wick,24/10/2016 00:00,8.5,6,,,0.2,4,82,,150,Dry,1020,4,55,,,,5.7,
Wick,24/10/2016 01:00,8.6,7,,,0,,81,,170,Dry,1020,2,45,,,,5.6,
Wick,24/10/2016 02:00,7.4,3,,,0,,84,,200,Dry,1020,1,50,,,,4.9,
Wick,24/10/2016 03:00,6.3,2,,,0,,88,,240,Dry,1020,8,40,,,,4.5,
Wick,24/10/2016 04:00,6.6,2,,,0,,88,,200,Dry,1020,1,45,,,,4.8,
Wick,24/10/2016 05:00,5.8,0,,,0,,93,,0,Dry,1020,1,20,,,,4.8,
Wick,24/10/2016 06:00,6.5,1,5.6,,1.2,1,90,,210,Dry,1020,5,45,,,,5.1,
Wick,24/10/2016 07:00,5.8,2,,,0,,97,,160,Dry,1020,3,40,,,,5.4,
Wick,24/10/2016 08:00,8,6,,,0,,74,,120,Dry,1021,3,40,,,,3.8,
Wick,24/10/2016 09:00,6.5,2,,,0,,88,,190,Dry,1021,1,45,,,,4.8,
Wick,24/10/2016 10:00,8,1,,,1,,87,,140,Dry,1021,7,60,,,,6,
Wick,24/10/2016 11:00,9.9,6,,,0.2,,73,,130,Dry,1020,4,55,,,,5.3,
Wick,24/10/2016 12:00,11,7,,,-0.2,,,,130,-,,1,10,,,,6,
Wick,24/10/2016 13:00,10,5,,,-0.2,,,,120,-,,1,10,,,,5,
Wick,24/10/2016 14:00,12,7,,,-0.2,,,,120,Dry,1020,1,50,,,,5,
Wick,24/10/2016 15:00,10,5,,,0,,,,110,Fog,1020,1,60,,,,5,
Wick,24/10/2016 16:00,9.7,3,,,0,,67,,110,Dry,1020,1,55,,,,4,
Wick,24/10/2016 17:00,6.9,1,,,0,,78,,290,Dry,1020,2,50,,,,3.4,
Wick,24/10/2016 18:00,6.7,2,,,0,,83,,240,Dry,1020,1,50,,,,4.1,
Wick,24/10/2016 19:00,5,3,,,0,,93,,280,Dry,1021,1,40,,,,4,
Wick,24/10/2016 20:00,3.7,7,,,0,,94,,260,Dry,1021,4,40,,,,2.9,
Wick,24/10/2016 21:00,4.3,5,,,0,,92,,250,Dry,1021,8,50,,,,3.2,
Wick,24/10/2016 22:00,4.8,3,,,0,,91,,260,Dry,1021,8,50,,,,3.6,
Wick,24/10/2016 23:00,4.2,6,,,0,,91,,250,Dry,1021,8,45,,,,3,
Wick,25/10/2016 00:00,3.6,5,,,0,0,93,,260,Dry,1021,0,50,,,,2.6,
Wick,25/10/2016 01:00,3.1,3,,,0,,93,,250,Dry,1021,0,50,,,,2.1,
Wick,25/10/2016 02:00,1.8,6,,,0,,89,,270,Dry,1021,0,50,,,,0.2,
Wick,25/10/2016 03:00,2.1,5,,,0,,91,,260,Dry,1021,0,50,,,,0.8,
Wick,25/10/2016 04:00,3.6,2,,,0,,89,,230,Dry,1021,0,45,,,,2.1,
Wick,25/10/2016 05:00,4.7,3,,,0,,92,,180,Dry,1021,0,50,,,,3.6,
Wick,25/10/2016 06:00,5,5,1.8,,0,0,90,,180,Dry,1021,1,45,,,,3.6,
Wick,25/10/2016 07:00,4.8,3,,,0,,90,,210,Dry,1021,1,45,,,,3.4,
Wick,25/10/2016 08:00,4,5,,,0,,97,,220,Dry,1021,1,30,,,,3.6,
Wick,25/10/2016 09:00,6.9,5,,,0,,93,,240,-,1021,1,10,,,,5.9,
Wick,25/10/2016 10:00,7.4,10,,,0,,88,,180,Dry,1021,1,35,,,,5.7,
Wick,25/10/2016 11:00,8.5,12,,,0,,80,,180,Dry,1021,1,65,,,,5.3,
Wick,25/10/2016 12:00,8.8,13,,,0,0,80,,180,Dry,1020,1,65,,,,5.6,
Wick,25/10/2016 13:00,9.2,14,,,0,,80,,180,Dry,1020,1,70,,,,6,
Wick,25/10/2016 14:00,8.8,13,,,0,,78,,180,Dry,1020,0,45,,,,5.2,
Wick,25/10/2016 15:00,9.1,14,,,0,,73,,190,Dry,1019,0,55,,,,4.7,
Wick,25/10/2016 16:00,9.3,12,,,0,,77,,190,Dry,1019,0,55,,,,5.6,
Wick,25/10/2016 17:00,9.2,12,,,0,,74,,180,Dry,1018,0,50,,,,4.9,
Wick,25/10/2016 18:00,10,10,,10,0,0,71,,180,Dry,1018,0,50,,,,5.1,
Wick,25/10/2016 19:00,10.5,16,,,0,,67,,180,Dry,1018,0,45,,,,4.8,
Wick,25/10/2016 20:00,10.3,15,,,0,,71,,180,Dry,1017,1,45,,,,5.3,
Wick,25/10/2016 21:00,10.6,17,,,0,,71,,180,Dry,1016,1,40,,,,5.6,
Wick,25/10/2016 22:00,10.4,17,,,0,,75,,170,Drizzly rain,1015,0,28,,,,6.3,
Wick,25/10/2016 23:00,10.1,15,,,0.2,,82,,180,Light rain,1015,8,30,,,,7.2,
Wick,26/10/2016 00:00,10.6,16,,,0,0.2,80,,180,Drizzly rain,1015,8,29,,,,7.3,
Wick,26/10/2016 01:00,10.7,16,,,0,,81,,190,Rain,1014,8,30,,,,7.6,
Wick,26/10/2016 02:00,11,17,,,0,,79,,190,Dry,1014,7,30,,,,7.6,
Wick,26/10/2016 03:00,11.1,15,,,0,,78,,190,Dry,1013,5,30,,,,7.5,
Wick,26/10/2016 04:00,10.8,17,,,0,,79,,190,Dry,1012,1,45,,,,7.4,
Wick,26/10/2016 05:00,10.5,22,,,0,,82,35,200,Dry,1012,8,45,,,,7.6,
Wick,26/10/2016 06:00,10.6,20,10,,0,0,85,,200,Dry,1012,4,45,,,,8.3,
Wick,26/10/2016 07:00,10.7,17,,,0,,87,29,190,Dry,1011,4,40,,,,8.7,
Wick,26/10/2016 08:00,10.8,16,,,0.4,,94,,200,Light shower,1012,6,23,,,,10,
Wick,26/10/2016 09:00,11.1,10,,,0,,92,,190,Rain,1012,7,40,,,,10,
Wick,26/10/2016 10:00,11.3,14,,,0,,85,32,240,Rain,1012,1,50,,,,8.9,
Wick,26/10/2016 11:00,12.4,12,,,0,,75,,210,Dry,1012,5,45,,,,8.1,
Wick,26/10/2016 12:00,11.7,18,,,0,0.4,74,,260,Dry,1013,5,40,,,,7.3,
Wick,26/10/2016 13:00,11.9,22,,,0,,68,31,250,Dry,1013,7,35,,,,6.3,
Wick,26/10/2016 14:00,12.2,24,,,0,,66,37,250,Dry,1014,1,50,,,,6.1,
Wick,26/10/2016 15:00,10.9,21,,,0,,71,32,250,Dry,1014,3,40,,,,6,
Wick,26/10/2016 16:00,10.4,17,,,0,,70,32,250,Dry,1015,4,40,,,,5.3,
Wick,26/10/2016 17:00,8.6,14,,,0,,78,,240,Dry,1016,1,35,,,,5.1,
Wick,26/10/2016 18:00,8.5,12,,13.1,0,0,78,,220,Dry,1016,2,35,,,,5,
Wick,26/10/2016 19:00,9.2,13,,,0,,84,,220,Rain,1017,1,30,,,,6.8,
Wick,26/10/2016 20:00,9.2,15,,,0,,77,,210,Dry,1017,0,35,,,,5.5,
Wick,26/10/2016 21:00,9.2,10,,,0,,77,,180,Dry,1017,0,30,,,,5.5,
Wick,26/10/2016 22:00,9.9,12,,,0,,76,,200,Dry,1017,1,30,,,,5.9,
Wick,26/10/2016 23:00,10.1,16,,,0,,78,,220,Dry,1017,0,29,,,,6.5,
Wick,27/10/2016 00:00,9.7,12,,,0,0,80,,200,Dry,1016,0,30,,,,6.5,
Wick,27/10/2016 01:00,10,13,,,0,,81,,190,Dry,1016,0,28,,,,6.9,
Wick,27/10/2016 02:00,10,13,,,0,,77,,210,Dry,1016,0,30,,,,6.2,
Wick,27/10/2016 03:00,10,13,,,0,,79,,230,Dry,1015,0,30,,,,6.6,
Wick,27/10/2016 04:00,10.2,14,,,0,,78,,230,Dry,1015,0,35,,,,6.7,
Wick,27/10/2016 05:00,10.2,13,,,0,,79,,210,Dry,1014,4,35,,,,6.9,
Wick,27/10/2016 06:00,10.5,15,8.6,,0,0,78,,220,Dry,1014,1,35,,,,6.9,
Wick,27/10/2016 07:00,11.5,14,,,0,,72,,200,Dry,1014,7,45,,,,6.7,
Wick,27/10/2016 08:00,11.7,18,,,0,,76,,220,Dry,1014,7,50,,,,7.7,
Wick,27/10/2016 09:00,12.1,20,,,0,,74,29,230,Dry,1013,2,55,,,,7.7,
Wick,27/10/2016 10:00,12.2,25,,,0,,74,36,230,Dry,1013,1,45,,,,7.9,
Wick,27/10/2016 11:00,12.1,22,,,0,,77,29,230,Dry,1013,1,55,,,,8.3,
Wick,27/10/2016 12:00,12.7,20,,,0,0,74,30,220,Dry,1012,1,55,,,,8.3,
Wick,27/10/2016 13:00,13.2,21,,,0,,74,29,230,Dry,1012,4,55,,,,8.7,
Wick,27/10/2016 14:00,14,20,,,0,,69,31,220,Dry,1012,1,65,,,,8.6,
Wick,27/10/2016 15:00,13.5,23,,,0,,75,38,230,Dry,1011,3,10,,,,9.2,
Wick,27/10/2016 16:00,12.4,28,,,0,,78,38,240,Dry,1011,1,55,,,,8.8,
Wick,27/10/2016 17:00,11.3,16,,,0,,81,31,230,Dry,1011,2,55,,,,8.3,
Wick,27/10/2016 18:00,9.7,16,,14.5,0.6,0.6,94,31,270,Rain,1013,2,35,,,,8.9,
Wick,27/10/2016 19:00,8.5,16,,,0,,90,,270,Dry,1013,3,35,,,,7,
Wick,27/10/2016 20:00,8.2,13,,,0,,87,,260,Dry,1014,2,29,,,,6.3,
Wick,27/10/2016 21:00,7.6,12,,,0,,82,,240,Dry,1015,1,30,,,,4.9,
Wick,27/10/2016 22:00,7,13,,,0,,83,,250,Dry,1016,1,30,,,,4.4,
Wick,27/10/2016 23:00,6.7,16,,,0,,81,,260,Dry,1017,2,35,,,,3.7,
Wick,28/10/2016 00:00,6.8,18,,,0,0,80,29,250,Dry,1017,,35,,,,3.7,
Wick,28/10/2016 01:00,6,20,,,0,,83,31,260,Dry,1018,1,40,,,,3.5,
Wick,28/10/2016 02:00,6.3,14,,,0,,83,,260,Dry,1018,1,40,,,,3.7,
Wick,28/10/2016 03:00,7.5,25,,,0,,75,38,260,Rain,1019,6,35,,,,3.4,
Wick,28/10/2016 04:00,7.4,21,,,0,,76,33,250,Dry,1020,2,40,,,,3.5,
Wick,28/10/2016 05:00,6.6,15,,,0,,81,29,240,Rain,1020,3,35,,,,3.7,
Wick,28/10/2016 06:00,6.8,12,5.5,,0,0,82,,220,Rain,1021,1,35,,,,4.1,
Wick,28/10/2016 07:00,7.1,16,,,0,,81,29,230,Rain,1022,3,30,,,,4.2,
Wick,28/10/2016 08:00,6.8,16,,,0,,81,,240,Rain,1023,3,35,,,,3.8,
Wick,28/10/2016 09:00,8,18,,,0,,77,31,250,Rain,1024,5,30,,,,4.3,
Wick,28/10/2016 10:00,9.2,18,,,0,,69,,250,Dry,1024,2,30,,,,3.9,
Wick,28/10/2016 11:00,9.7,24,,,0,,68,32,260,Dry,1025,1,35,,,,4.2,
Wick,28/10/2016 12:00,9.7,23,,,0,0,70,33,260,Dry,1025,1,40,,,,4.5,
Wick,28/10/2016 13:00,9.8,21,,,0,,71,40,260,Rain,1026,1,35,,,,4.8,
Wick,28/10/2016 14:00,9.7,24,,,0,,71,36,260,Dry,1026,2,40,,,,4.9,
Wick,28/10/2016 15:00,9.6,21,,,0,,65,32,260,Dry,1027,5,40,,,,3.4,
Wick,28/10/2016 16:00,8.8,15,,,0,,75,30,260,Dry,1028,2,35,,,,4.7,
Wick,28/10/2016 17:00,7.2,15,,,0,,85,,270,Rain,1028,1,35,,,,5,
Wick,28/10/2016 18:00,7.6,17,,10.4,0,0,79,,270,Light shower,1028,3,35,,,,4.3,
Wick,28/10/2016 19:00,7.7,10,,,0,,77,,250,Rain,1029,7,35,,,,4,
Wick,28/10/2016 20:00,8,7,,,0,,73,,200,Dry,1029,8,45,,,,3.5,
Wick,28/10/2016 21:00,8.2,14,,,0,,73,,240,Dry,1029,8,40,,,,3.8,
Wick,28/10/2016 22:00,7.6,10,,,0,,76,,260,Dry,1030,6,40,,,,3.7,
Wick,28/10/2016 23:00,7.4,8,,,0,,78,,240,Dry,1030,8,35,,,,4,
Wick,29/10/2016 00:00,7,10,,,0,0,81,,240,Dry,1030,2,35,,,,4.1,
Wick,29/10/2016 01:00,6.7,7,,,0,,82,,230,Dry,1030,4,40,,,,3.9,
Wick,29/10/2016 02:00,6.1,6,,,0,,86,,240,Dry,1031,2,35,,,,4,
Wick,29/10/2016 03:00,7.7,6,,,0,,82,,220,Dry,1030,1,35,,,,4.9,
Wick,29/10/2016 04:00,7.8,5,,,0,,84,,220,Dry,1030,1,40,,,,5.3,
Wick,29/10/2016 05:00,8.6,5,,,0,,81,,210,Dry,1030,8,35,,,,5.7,
Wick,29/10/2016 06:00,8.9,7,5.8,,0,0,78,,190,Dry,1030,8,35,,,,5.3,
Wick,29/10/2016 07:00,8.8,6,,,0.4,,86,,190,Light shower,1030,8,22,,,,6.6,
Wick,29/10/2016 08:00,9.3,8,,,0,,86,,190,Rain,1030,4,35,,,,7.1,
Wick,29/10/2016 09:00,9.5,10,,,0,,85,,190,Rain,1030,1,26,,,,7.2,
Wick,29/10/2016 10:00,8.9,8,,,0.2,,93,,170,Rain,1030,7,26,,,,7.9,
Wick,29/10/2016 11:00,10.5,10,,,0,,82,,170,Dry,1030,1,45,,,,7.7,
Wick,29/10/2016 12:00,10.9,6,,,0,0.6,79,,170,Dry,1030,7,50,,,,7.5,
Wick,29/10/2016 13:00,11.7,9,,,0,,84,,220,Dry,1029,3,50,,,,9.1,
Wick,29/10/2016 14:00,12.2,7,,,0,,88,,230,Dry,1029,5,55,,,,10.4,
Wick,29/10/2016 15:00,12.3,6,,,0,,88,,220,Dry,1029,3,55,,,,10.4,
Wick,29/10/2016 16:00,12,5,,,0,,90,,170,Dry,1029,7,50,,,,10.5,
Wick,29/10/2016 17:00,11.4,5,,,0,,88,,170,Dry,1028,5,35,,,,9.6,
Wick,29/10/2016 18:00,11.3,5,,12.4,0,0,87,,170,Dry,1028,5,45,,,,9.3,
Wick,29/10/2016 19:00,11.5,3,,,0,,87,,200,Dry,1028,7,50,,,,9.5,
Wick,29/10/2016 20:00,11.1,6,,,0,,91,,210,Dry,1028,8,40,,,,9.7,
Wick,29/10/2016 21:00,10.8,5,,,0,,92,,150,Dry,1028,7,35,,,,9.7,
Wick,29/10/2016 22:00,11.3,6,,,0,,95,,170,Dry,1028,8,45,,,,10.6,
Wick,29/10/2016 23:00,11.3,5,,,0,,95,,170,Dry,1027,8,45,,,,10.6,
Wick,30/10/2016 00:00,10.9,7,,,0,0,96,,170,Dry,1027,5,35,,,,10.3,
Wick,30/10/2016 01:00,10.4,6,,,0,,97,,190,Dry,1027,0,35,,,,10,
Wick,30/10/2016 02:00,9.8,3,,,0,,97,,190,Dry,1026,2,35,,,,9.4,
Wick,30/10/2016 03:00,10.5,7,,,0,,95,,190,Light shower,1026,0,30,,,,9.8,
Wick,30/10/2016 04:00,10.2,5,,,1.2,,94,,220,Moderate rain,1026,8,9,,,,9.4,
Wick,30/10/2016 05:00,10.1,3,,,0.2,,94,,150,Rain,1025,3,45,,,,9.3,
Wick,30/10/2016 06:00,10.2,5,9.6,,0,1,93,,160,Dry,1025,7,45,,,,9.2,
Wick,30/10/2016 07:00,10.4,6,,,0,,92,,190,Dry,1025,7,50,,,,9.2,
Wick,30/10/2016 08:00,10.6,5,,,0,,94,,140,Dry,1025,5,35,,,,9.7,
Wick,30/10/2016 09:00,10.9,10,,,0,,94,,190,Dry,1025,7,35,,,,10.1,
Wick,30/10/2016 10:00,11.2,13,,,0,,91,,200,Dry,1025,3,30,,,,9.9,
Wick,30/10/2016 11:00,11.9,10,,,0,,89,,190,Dry,1025,5,30,,,,10.3,
Wick,30/10/2016 12:00,12.5,7,,,0,0,86,,190,Dry,1025,2,35,,,,10.3,
Wick,30/10/2016 13:00,12.2,6,,,0,,91,,180,Rain,1025,3,27,,,,10.8,
Wick,30/10/2016 14:00,12,5,,,0.2,,91,,170,Light shower,1025,5,30,,,,10.6,
Wick,30/10/2016 15:00,11.9,6,,,0,,90,,110,Rain,1025,4,29,,,,10.4,
Wick,30/10/2016 16:00,11.8,3,,,0,,88,,170,Dry,1025,2,27,,,,9.9,
Wick,30/10/2016 17:00,12.1,3,,,0,,86,,170,Dry,1025,4,35,,,,10,
Wick,30/10/2016 18:00,12,2,,12.6,0,0.2,87,,180,Dry,1025,3,30,,,,10,
Wick,30/10/2016 19:00,11.8,1,,,0,,88,,220,Dry,1026,7,30,,,,9.9,
Wick,30/10/2016 20:00,11.5,5,,,0,,92,,150,Dry,1026,1,30,,,,10.3,
Wick,30/10/2016 21:00,12.2,2,,,0,,88,,200,Dry,1026,3,40,,,,10.3,
Wick,30/10/2016 22:00,11.5,2,,,0,,94,,200,Dry,1026,1,40,,,,10.6,
Wick,30/10/2016 23:00,10.8,5,,,0.2,,100,,290,Light drizzle,1026,1,5,,,,10.8,
Wick,31/10/2016 00:00,11.1,5,,,0.4,0.6,100,,290,Rain,1025,2,14,,,,11.1,
Wick,31/10/2016 01:00,11,5,,,0.4,,100,,310,Light drizzle,1025,1,3,,,,11,
Wick,31/10/2016 02:00,10.8,3,,,0.8,,100,,260,Moderate drizzle,1025,7,1,,,,10.8,
Wick,31/10/2016 03:00,11,2,,,0.8,,100,,210,Moderate shower,1025,4,3,,,,11,
Wick,31/10/2016 04:00,11.1,2,,,0.8,,100,,190,Drizzly rain,1024,4,14,,,,11.1,
Wick,31/10/2016 05:00,10.9,7,,,1,,100,,300,Moderate rain,1025,7,8,,,,10.9,
Wick,31/10/2016 06:00,10.3,9,10.3,,1.4,5.4,100,,300,Moderate rain,1025,1,8,,,,10.3,
Wick,31/10/2016 07:00,9.9,7,,,2,,100,,310,Moderate rain,1025,2,10,,,,9.9,
Wick,31/10/2016 08:00,9.7,7,,,0.2,,100,,290,Rain,1026,2,45,,,,9.7,
Wick,31/10/2016 09:00,9.8,9,,,0,,100,,310,Rain,1025,7,50,,,,9.8,
Wick,31/10/2016 10:00,9.9,12,,,0,,98,,330,Dry,1026,1,50,,,,9.7,
Wick,31/10/2016 11:00,9.5,13,,,0,,96,,340,Drizzly rain,1026,2,30,,,,8.9,
Wick,31/10/2016 12:00,9.1,12,,,0.6,3,95,,320,Light rain,1026,5,18,,,,8.4,
Wick,31/10/2016 13:00,8.8,10,,,1,,95,,320,Moderate rain,1026,3,11,,,,8.1,
Wick,31/10/2016 14:00,8.4,12,,,0.6,,92,,320,Light rain,1026,7,16,,,,7.3,
Wick,31/10/2016 15:00,8.1,9,,,0.6,,96,,290,Drizzly rain,1026,1,24,,,,7.6,
Wick,31/10/2016 16:00,8,8,,,0.2,,97,,290,Light rain,1026,1,23,,,,7.7,
Wick,31/10/2016 17:00,7.6,12,,,0,,95,,300,Rain,1026,4,19,,,,7,
Wick,31/10/2016 18:00,7.2,8,,10.3,0,2,99,,270,Light shower,1026,1,30,,,,7.1,
Wick,31/10/2016 19:00,7,9,,,0.4,,96,,280,Light drizzle,1027,1,8,,,,6.5,
Wick,31/10/2016 20:00,5.6,8,,,0.4,,93,,270,Rain,1027,4,40,,,,4.6,
Wick,31/10/2016 21:00,5.6,9,,,0,,92,,250,Dry,1027,6,35,,,,4.5,
Wick,31/10/2016 22:00,5,10,,,0.2,,94,,250,Rain,1026,2,40,,,,4.2,
Wick,31/10/2016 23:00,4.7,12,,,0,,94,,260,Rain,1026,1,45,,,,3.9,
Wick,01/11/2016 00:00,5,13,,,0,1,95,,270,Rain,1026,1,45,,,,4.3,
Wick,01/11/2016 01:00,5.6,17,,,0,,95,,270,Moderate shower,1026,1,4,,,,5,
Wick,01/11/2016 02:00,5.2,15,,,0.2,,96,,270,Light shower,1025,1,22,,,,4.7,
Wick,01/11/2016 03:00,6.5,22,,,0.2,,90,33,300,Rain,1025,1,8,,,,5.1,
Wick,01/11/2016 04:00,6.4,17,,,0,,92,29,320,Light shower,1025,1,11,,,,5.2,
Wick,01/11/2016 05:00,6,15,,,0.4,,90,,330,Rain,1025,2,45,,,,4.5,
Wick,01/11/2016 06:00,6.4,14,4.2,,0,1,88,,310,Light shower,1026,1,24,,,,4.7,
Wick,01/11/2016 07:00,5.8,13,,,0.2,,88,,300,Rain,1026,1,40,,,,4.1,
Wick,01/11/2016 08:00,5.3,12,,,0,,85,,300,Dry,1026,1,40,,,,3,
Wick,01/11/2016 09:00,7,15,,,0,,85,,290,Dry,1026,1,10,,,,4.7,
Wick,01/11/2016 10:00,7.6,14,,,0,,82,,300,Rain,1026,3,10,,,,4.9,
Wick,01/11/2016 11:00,9,20,,,0,,73,,300,Dry,1026,1,40,,,,4.5,
Wick,01/11/2016 12:00,8.7,16,,,0,0.2,77,30,290,Dry,1025,1,40,,,,5,
Wick,01/11/2016 13:00,8.3,16,,,0,,79,,280,Dry,1025,2,40,,,,4.9,
Wick,01/11/2016 14:00,6.4,21,,,0.6,,86,33,320,Moderate shower,1024,3,4,,,,4.3,
Wick,01/11/2016 15:00,6.6,25,,,0.2,,84,36,290,Rain,1024,1,6,,,,4.1,
Wick,01/11/2016 16:00,6.1,13,,,0.2,,86,37,280,Rain,1023,5,40,,,,4,
Wick,01/11/2016 17:00,5.9,22,,,0.2,,82,29,280,Rain,1022,7,45,,,,3.2,
Wick,01/11/2016 18:00,5.6,22,,9.2,0.2,1.8,88,31,290,Rain,1022,2,40,,,,3.8,
Wick,01/11/2016 19:00,5.3,15,,,0.8,,88,35,300,Rain,1022,5,45,,,,3.6,
Wick,01/11/2016 20:00,5.4,12,,,0.2,,93,,280,Rain,1022,3,35,,,,4.4,
Wick,01/11/2016 21:00,5.2,17,,,0.2,,86,32,310,Rain,1021,1,50,,,,3.1,
Wick,01/11/2016 22:00,6.2,23,,,0.2,,85,41,310,Rain,1021,1,35,,,,4,
Wick,01/11/2016 23:00,6.6,21,,,0,,82,30,300,Dry,1020,1,35,,,,3.8,
Wick,02/11/2016 00:00,6.8,18,,,0.2,2,87,31,310,Rain,1020,1,30,,,,4.8,
Wick,02/11/2016 01:00,7,22,,,0,,88,36,300,Rain,1020,6,30,,,,5.2,
Wick,02/11/2016 02:00,7.1,22,,,0.8,,93,35,320,Light shower,1020,1,13,,,,6.1,
Wick,02/11/2016 03:00,6.5,15,,,0.4,,93,31,310,Rain,1021,1,35,,,,5.5,
Wick,02/11/2016 04:00,6.4,15,,,0,,91,,320,Rain,1021,3,45,,,,5.1,
Wick,02/11/2016 05:00,6.8,17,,,0,,88,,330,Dry,1021,1,40,,,,5,
Wick,02/11/2016 06:00,7.1,14,5.1,,0,1,90,,330,Rain,1022,1,40,,,,5.6,
Wick,02/11/2016 07:00,5.1,0,,,0,,92,,0,Rain,1022,1,40,,,,4,
Wick,02/11/2016 08:00,6.2,0,,,0.2,,93,,0,Rain,1023,5,22,,,,5.3,
Wick,02/11/2016 09:00,7.5,0,,,0.2,,93,,0,Light shower,1023,1,5,,,,6.5,
Wick,02/11/2016 10:00,8,0,,,0.2,,93,,0,Rain,1023,1,10,,,,7,
Wick,02/11/2016 11:00,8.7,0,,,0,,87,,0,Rain,1023,3,55,,,,6.8,
Wick,02/11/2016 12:00,8.1,0,,,0,0.6,90,,0,Dry,1022,1,29,,,,6.6,
Wick,02/11/2016 13:00,8.3,0,,,0,,83,,0,Dry,1022,5,50,,,,5.6,
Wick,02/11/2016 14:00,7.5,0,,,0.2,,94,,0,Light shower,1022,1,23,,,,6.7,
Wick,02/11/2016 15:00,7.4,0,,,0,,90,,0,Rain,1022,6,60,,,,6,
Wick,02/11/2016 16:00,6.5,0,,,0,,94,,0,Rain,1022,1,45,,,,5.7,
Wick,02/11/2016 17:00,5.4,0,,,0,,94,,0,Rain,1022,1,45,,,,4.6,
Wick,02/11/2016 18:00,4,0,,9,0,0.2,97,,0,Dry,1021,1,40,,,,3.7,
Wick,02/11/2016 19:00,5.2,0,,,0.2,,100,,0,Dry,1021,2,35,,,,5.2,
Wick,02/11/2016 20:00,4.9,0,,,0,,98,,0,Dry,1020,1,55,,,,4.7,
Wick,02/11/2016 21:00,4.2,0,,,0,,98,,0,Dry,1020,0,55,,,,4,
Wick,02/11/2016 22:00,4.6,6,,,0,,95,,230,Dry,1020,0,55,,,,3.9,
Wick,02/11/2016 23:00,5.2,6,,,0,,92,,230,Dry,1019,1,65,,,,4.1,
Wick,03/11/2016 00:00,5.8,5,,,0,0.2,88,,210,Dry,1019,4,10,,,,4,
Wick,03/11/2016 01:00,6.1,7,,,0,,84,,210,Dry,1018,0,55,,,,3.7,
Wick,03/11/2016 02:00,5.8,6,,,0,,88,,210,Dry,1018,0,55,,,,4,
Wick,03/11/2016 03:00,5.8,5,,,0,,88,,230,Dry,1017,0,55,,,,4,
Wick,03/11/2016 04:00,5.9,3,,,0,,89,,200,Light shower,1016,0,50,,,,4.3,
Wick,03/11/2016 05:00,6.2,6,,,0,,92,,200,Rain,1015,5,60,,,,5,
Wick,03/11/2016 06:00,6.2,5,3.6,,0,0,92,,200,Rain,1014,2,50,,,,5,
Wick,03/11/2016 07:00,5.9,2,,,0,,90,,230,Dry,1014,3,50,,,,4.5,
Wick,03/11/2016 08:00,6.9,7,,,0,,92,,200,Drizzly rain,1013,1,35,,,,5.8,
Wick,03/11/2016 09:00,7.2,8,,,0,,93,,180,Rain,1013,6,45,,,,6.2,
Wick,03/11/2016 10:00,7.6,10,,,0,,92,,190,Dry,1012,1,55,,,,6.4,
Wick,03/11/2016 11:00,7.8,9,,,0,,93,,190,Drizzly rain,1012,4,35,,,,6.8,
Wick,03/11/2016 12:00,7.8,12,,,0.2,0.2,94,,190,Light rain,1011,3,22,,,,7,
Wick,03/11/2016 13:00,7.9,9,,,0.6,,94,,190,Light rain,1010,1,15,,,,7.1,
Wick,03/11/2016 14:00,8.3,12,,,0,,90,,170,Rain,1009,6,45,,,,6.8,
Wick,03/11/2016 15:00,8.5,9,,,0,,85,,170,Dry,1008,7,60,,,,6.2,
Wick,03/11/2016 16:00,8.4,9,,,0,,86,,170,Dry,1007,8,55,,,,6.2,
Wick,03/11/2016 17:00,8,8,,,0.2,,94,,170,Light shower,1007,1,21,,,,7.1,
Wick,03/11/2016 18:00,8.1,9,,8.5,0.6,1.8,94,,180,Light rain,1006,7,19,,,,7.2,
Wick,03/11/2016 19:00,8.2,7,,,0,,93,,190,Rain,1006,6,45,,,,7.2,
Wick,03/11/2016 20:00,8.4,5,,,0,,92,,200,Dry,1005,1,50,,,,7.2,
Wick,03/11/2016 21:00,7.3,6,,,0,,95,,270,Dry,1005,4,50,,,,6.7,
Wick,03/11/2016 22:00,6.4,7,,,0.2,,97,35,260,Dry,1005,2,60,,,,6,
Wick,03/11/2016 23:00,5.4,5,,,0,,96,,280,Dry,1005,4,55,,,,4.9,
Wick,04/11/2016 00:00,4.9,6,,,0,0.2,97,,250,Dry,1005,3,50,,,,4.5,
Wick,04/11/2016 01:00,4.7,5,,,0,,96,,260,Dry,1004,2,55,,,,4.2,
Wick,04/11/2016 02:00,3.9,8,,,0,,96,,260,Dry,1004,2,50,,,,3.4,
Wick,04/11/2016 03:00,3,9,,,0,,96,,270,Dry,1004,6,50,,,,2.5,
Wick,04/11/2016 04:00,3,9,,,0,,98,,270,Dry,1004,8,50,,,,2.8,
Wick,04/11/2016 05:00,3.3,8,,,0,,97,,260,Dry,1004,8,50,,,,3,
Wick,04/11/2016 06:00,2.2,8,2.1,,0,0,97,,270,Dry,1004,1,60,,,,1.8,
Wick,04/11/2016 07:00,3,7,,,0,,98,,260,Dry,1004,2,70,,,,2.8,
Wick,04/11/2016 08:00,4.2,8,,,0.8,,100,,290,Drizzly rain,1004,1,60,,,,4.2,
Wick,04/11/2016 09:00,4.9,8,,,2.8,,100,,280,Snow,1004,5,50,,,,4.9,
Wick,04/11/2016 10:00,8.1,16,,,0.4,,88,,50,Rain,1004,1,55,,,,6.3,
Wick,04/11/2016 11:00,8.8,18,,,0,,81,29,30,Rain,1005,3,45,,,,5.9,
Wick,04/11/2016 12:00,9.4,18,,,0,4,82,29,30,Dry,1005,1,50,,,,6.5,
Wick,04/11/2016 13:00,8.9,20,,,0,,83,31,30,Dry,1005,1,35,,,,6.2,
Wick,04/11/2016 14:00,8.3,24,,,0,,83,36,30,Rain,1006,1,50,,,,5.6,
Wick,04/11/2016 15:00,8.4,26,,,0,,78,33,20,Dry,1006,1,40,,,,4.9,
Wick,04/11/2016 16:00,7.8,23,,,0.2,,82,32,360,Rain,1007,5,35,,,,5,
Wick,04/11/2016 17:00,7.1,26,,,0.6,,80,40,10,Rain,1007,1,40,,,,4,
Wick,04/11/2016 18:00,7.5,26,,9.5,0,1,78,38,10,Rain,1008,3,30,,,,4,
Wick,04/11/2016 19:00,7,24,,,0.2,,81,40,10,Moderate shower,1008,3,29,,,,4,
Wick,04/11/2016 20:00,6.7,30,,,0,,69,43,20,Rain,1009,2,35,,,,1.6,
Wick,04/11/2016 21:00,6.8,31,,,0,,66,40,10,Dry,1010,1,35,,,,0.9,
Wick,04/11/2016 22:00,6.3,30,,,0,,76,43,360,Dry,1010,2,30,,,,2.4,
Wick,04/11/2016 23:00,6.4,32,,,0,,68,43,10,Dry,1011,3,35,,,,1,
Wick,05/11/2016 00:00,6.5,31,,,0,0.2,61,43,10,Dry,1011,4,40,,,,-0.4,
Wick,05/11/2016 01:00,5.6,25,,,0,,71,41,350,Rain,1011,4,35,,,,0.9,
Wick,05/11/2016 02:00,6.3,30,,,0,,65,51,10,Rain,1011,1,35,,,,0.3,
Wick,05/11/2016 03:00,5.8,30,,,0,,73,40,10,Dry,1012,2,30,,,,1.5,
Wick,05/11/2016 04:00,5.5,26,,,0,,73,51,360,Rain,1012,1,30,,,,1.1,
Wick,05/11/2016 05:00,5,20,,,0,,81,44,340,Dry,1012,1,30,,,,2.1,
Wick,05/11/2016 06:00,6,30,4.1,,0,0,67,46,360,Rain,1012,1,35,,,,0.4,
Wick,05/11/2016 07:00,5.3,26,,,0,,76,39,360,Dry,1012,1,18,,,,1.6,
Wick,05/11/2016 08:00,5.7,24,,,0.2,,78,47,350,Rain,1012,1,35,,,,2.2,
Wick,05/11/2016 09:00,5.5,29,,,0,,73,41,360,Rain,1012,1,40,,,,1.2,
Wick,05/11/2016 10:00,5.3,22,,,0,,76,43,350,Dry,1012,3,35,,,,1.6,
Wick,05/11/2016 11:00,5,26,,,0,,80,43,10,Dry,1012,4,35,,,,1.9,
Wick,05/11/2016 12:00,6.3,24,,,0,0.2,75,40,340,Dry,1012,5,50,,,,2.3,
Wick,05/11/2016 13:00,4.4,30,,,0.4,,84,43,350,Moderate shower,1012,1,9,,,,2.1,
Wick,05/11/2016 14:00,5.4,30,,,0.2,,78,41,360,Light shower,1011,1,35,,,,2,
Wick,05/11/2016 15:00,6,22,,,0,,76,37,340,Rain,1011,0,35,,,,2.2,
Wick,05/11/2016 16:00,4.5,20,,,0,,82,45,330,Rain,1011,4,30,,,,1.8,
Wick,05/11/2016 17:00,4.7,17,,,0.2,,84,43,330,Rain,1011,4,30,,,,2.3,
Wick,05/11/2016 18:00,5,25,,7.2,0,0.8,85,40,330,Light shower,1011,3,26,,,,2.8,
Wick,05/11/2016 19:00,5.6,22,,,0,,77,43,360,Rain,1011,1,35,,,,2,
Wick,05/11/2016 20:00,5.6,28,,,0,,80,41,360,Dry,1011,1,30,,,,2.5,
Wick,05/11/2016 21:00,5.6,23,,,0,,84,41,350,Rain,1011,4,30,,,,3.2,
Wick,05/11/2016 22:00,4.8,32,,,0.8,,86,41,350,Moderate shower,1011,1,16,,,,2.8,
Wick,05/11/2016 23:00,5.4,29,,,0.4,,82,45,350,Rain,1011,1,35,,,,2.6,
Wick,06/11/2016 00:00,5,31,,,0.4,2,86,46,360,Light shower,1011,2,35,,,,3,
Wick,06/11/2016 01:00,4.4,35,,,0,,87,45,350,Light shower,1012,1,22,,,,2.5,
Wick,06/11/2016 02:00,5.4,25,,,0.2,,91,48,350,Moderate shower,1011,3,12,,,,4.2,
Wick,06/11/2016 03:00,5.4,32,,,0.4,,85,49,360,Rain,1012,2,29,,,,3.1,
Wick,06/11/2016 04:00,6,31,,,0,,76,45,360,Rain,1012,1,27,,,,2.1,
Wick,06/11/2016 05:00,5.4,30,,,0.4,,85,44,360,Moderate shower,1012,1,30,,,,3.2,
Wick,06/11/2016 06:00,5.6,26,4.1,,0,1,85,37,350,Rain,1013,2,30,,,,3.4,
Wick,06/11/2016 07:00,5.6,28,,,0.2,,80,38,360,Rain,1013,1,35,,,,2.6,
Wick,06/11/2016 08:00,6,25,,,0,,80,39,360,Rain,1014,1,35,,,,2.9,
Wick,06/11/2016 09:00,5.9,28,,,0,,80,38,360,Dry,1014,1,40,,,,2.8,
Wick,06/11/2016 10:00,5.8,25,,,0,,83,35,360,Dry,1014,1,40,,,,3.2,
Wick,06/11/2016 11:00,5.9,20,,,0.2,,86,33,30,Rain,1015,4,40,,,,3.9,
Wick,06/11/2016 12:00,6.2,21,,,0.2,0.6,85,33,350,Rain,1015,1,40,,,,3.9,
Wick,06/11/2016 13:00,5.8,16,,,0.4,,86,,40,Light shower,1016,3,40,,,,3.7,
Wick,06/11/2016 14:00,5.2,21,,,1.8,,87,30,30,Moderate rain,1016,6,11,,,,3.3,
Wick,06/11/2016 15:00,6.2,9,,,0.2,,85,,350,Rain,1017,1,45,,,,4,
Wick,06/11/2016 16:00,5.3,12,,,0.4,,87,,10,Rain,1017,3,40,,,,3.4,
Wick,06/11/2016 17:00,5.6,14,,,0,,86,,340,Dry,1017,5,35,,,,3.6,
Wick,06/11/2016 18:00,4.4,10,,7.3,0,2.4,95,,320,Dry,1018,2,17,,,,3.8,
Wick,06/11/2016 19:00,5.5,12,,,0,,88,,340,Rain,1018,2,35,,,,3.7,
Wick,06/11/2016 20:00,5.5,13,,,0,,85,,350,Dry,1018,1,35,,,,3.2,
Wick,06/11/2016 21:00,5.8,18,,,0,,85,,360,Dry,1019,3,40,,,,3.5,
Wick,06/11/2016 22:00,5.4,10,,,0.6,,89,,10,Moderate shower,1019,4,40,,,,3.8,
Wick,06/11/2016 23:00,6,14,,,0,,83,,10,Rain,1019,4,35,,,,3.4,
Wick,07/11/2016 00:00,5.7,21,,,0,0.6,77,29,360,Dry,1019,1,40,,,,2,
Wick,07/11/2016 01:00,5.8,20,,,0,,79,,360,Dry,1019,7,40,,,,2.5,
Wick,07/11/2016 02:00,5.3,21,,,0,,84,29,350,Rain,1019,1,35,,,,2.9,
Wick,07/11/2016 03:00,5.3,18,,,0,,79,,350,Dry,1019,8,40,,,,2.1,
Wick,07/11/2016 04:00,5.3,23,,,0,,78,30,10,Dry,1019,8,40,,,,1.8,
Wick,07/11/2016 05:00,5.1,20,,,0,,78,,360,Dry,1019,8,40,,,,1.7,
Wick,07/11/2016 06:00,4.8,13,4.2,,0,0,80,,330,Dry,1019,7,29,,,,1.8,
Wick,07/11/2016 07:00,5.4,16,,,0,,72,28,350,Dry,1019,1,35,,,,0.9,
Wick,07/11/2016 08:00,5.1,13,,,0.2,,79,33,360,Rain,1019,8,40,,,,1.8,
Wick,07/11/2016 09:00,5.3,13,,,0,,75,,350,Dry,1019,8,40,,,,1.4,
Wick,07/11/2016 10:00,4.2,10,,,0,,85,,310,Dry,1019,7,45,,,,2,
Wick,07/11/2016 11:00,6,14,,,0,,67,,350,Dry,1019,7,50,,,,0.5,
Wick,07/11/2016 12:00,5.1,15,,,0,0.2,77,,340,Drizzly rain,1019,1,27,,,,1.5,
Wick,07/11/2016 13:00,5.9,13,,,0,,73,,340,Rain,1018,7,40,,,,1.6,
Wick,07/11/2016 14:00,6,13,,,0,,71,,10,Dry,1018,7,35,,,,1.3,
Wick,07/11/2016 15:00,5.9,12,,,0,,69,,350,Dry,1018,7,35,,,,0.8,
Wick,07/11/2016 16:00,5.6,14,,,0,,67,,10,Dry,1017,8,45,,,,0,
Wick,07/11/2016 17:00,5.4,14,,,0,,71,,10,Dry,1018,7,45,,,,0.6,
Wick,07/11/2016 18:00,5.3,12,,6.6,0,0,70,,360,Dry,1017,8,40,,,,0.3,
Wick,07/11/2016 19:00,5.3,10,,,0,,67,,350,Dry,1017,8,50,,,,-0.2,
Wick,07/11/2016 20:00,4.5,8,,,0,,76,,320,Dry,1017,7,35,,,,0.7,
Wick,07/11/2016 21:00,4.8,9,,,0,,67,,330,Dry,1016,8,55,,,,-0.8,
Wick,07/11/2016 22:00,3.1,5,,,0,,90,,260,Dry,1016,7,45,,,,1.7,
Wick,07/11/2016 23:00,3.5,5,,,0,,83,,270,Dry,1015,7,40,,,,0.9,
Wick,08/11/2016 00:00,2.7,8,,,0,0,93,,270,Dry,1015,8,45,,,,1.7,
Wick,08/11/2016 01:00,2.5,6,,,0,,93,,260,Dry,1014,8,50,,,,1.6,
Wick,08/11/2016 02:00,2.4,5,,,0,,93,,250,Dry,1014,8,45,,,,1.5,
Wick,08/11/2016 03:00,2.7,3,,,0,,90,,240,Dry,1013,8,50,,,,1.3,
Wick,08/11/2016 04:00,2.7,3,,,0,,88,,260,Dry,1012,1,45,,,,1,
Wick,08/11/2016 05:00,2.9,3,,,0,,86,,240,Dry,1011,1,45,,,,0.9,
Wick,08/11/2016 06:00,2.8,2,2.3,,0,0,84,,270,Dry,1011,8,45,,,,0.4,
Wick,08/11/2016 07:00,2.5,3,,,0,,91,,270,Rain,1010,1,45,,,,1.2,
Wick,08/11/2016 08:00,4.6,7,,,0,,76,,140,Dry,1010,1,40,,,,0.8,
Wick,08/11/2016 09:00,6.2,10,,,0,,64,,140,Dry,1009,2,55,,,,0.1,
Wick,08/11/2016 10:00,6.2,13,,,0,,70,,160,Dry,1008,2,45,,,,1.3,
Wick,08/11/2016 11:00,6.1,20,,,0,,77,31,150,Dry,1008,3,10,,,,2.5,
Wick,08/11/2016 12:00,5,22,,,0.2,0.2,90,36,150,Light shower,1007,3,10,,,,3.6,
Wick,08/11/2016 13:00,6,22,,,0.2,,84,35,150,Rain,1006,5,21,,,,3.6,
Wick,08/11/2016 14:00,5.9,26,,,0,,75,39,140,Dry,1005,1,30,,,,1.9,
Wick,08/11/2016 15:00,5.8,24,,,0,,74,38,140,Rain,1004,3,15,,,,1.7,
Wick,08/11/2016 16:00,5.9,26,,,0,,73,41,140,Dry,1003,4,30,,,,1.6,
Wick,08/11/2016 17:00,6.2,24,,,0,,74,40,150,Dry,1003,7,22,,,,2,
Wick,08/11/2016 18:00,6.2,22,,6.6,0,0.2,71,38,140,Rain,1002,4,30,,,,1.5,
Wick,08/11/2016 19:00,6.5,24,,,0,,69,38,140,Dry,1002,3,28,,,,1.3,
Wick,08/11/2016 20:00,6.6,22,,,0,,66,45,150,Dry,1002,3,26,,,,0.9,
Wick,08/11/2016 21:00,6.6,22,,,0,,66,40,140,Dry,1002,7,35,,,,0.8,
Wick,08/11/2016 22:00,6.6,22,,,0,,66,39,140,Dry,1001,8,30,,,,0.8,
Wick,08/11/2016 23:00,6.6,22,,,0,,65,36,140,Dry,1001,8,26,,,,0.6,
Wick,09/11/2016 00:00,6.5,22,,,0,0,65,37,140,Dry,1000,7,40,,,,0.6,
Wick,09/11/2016 01:00,6.8,24,,,0,,67,36,140,Dry,1000,3,30,,,,1.2,
Wick,09/11/2016 02:00,6.7,22,,,0,,68,38,140,Dry,1000,1,27,,,,1.4,
Wick,09/11/2016 03:00,6.3,21,,,0.2,,73,36,160,Rain,1000,4,26,,,,1.9,
Wick,09/11/2016 04:00,6.5,22,,,0,,68,37,150,Light shower,999,4,40,,,,1.2,
Wick,09/11/2016 05:00,5.4,23,,,0.6,,74,38,160,Rain,999,3,6,,,,1.2,
Wick,09/11/2016 06:00,5.9,22,5.1,,0.4,1,74,32,150,Rain,999,4,22,,,,1.8,
Wick,09/11/2016 07:00,5.2,22,,,2.2,,88,37,150,Moderate rain,1000,6,10,,,,3.4,
Wick,09/11/2016 08:00,5.7,25,,,0.4,,85,41,140,Light rain,1000,4,13,,,,3.4,
Wick,09/11/2016 09:00,6,24,,,0.4,,88,40,140,Light rain,1000,4,10,,,,4.2,
Wick,09/11/2016 10:00,5.3,24,,,0.2,,87,39,150,Light rain,1000,2,11,,,,3.4,
Wick,09/11/2016 11:00,5.9,23,,,0.2,,87,37,140,Rain,1000,4,12,,,,4,
Wick,09/11/2016 12:00,5.8,25,,,0,3,85,38,140,Light shower,1000,2,23,,,,3.6,
Wick,09/11/2016 13:00,5.9,21,,,0.4,,86,38,140,Rain,1000,5,24,,,,3.9,
Wick,09/11/2016 14:00,5.4,22,,,0.4,,89,38,150,Light shower,1000,4,14,,,,3.8,
Wick,09/11/2016 15:00,5.7,23,,,0.2,,81,38,160,Rain,1000,1,18,,,,2.8,
Wick,09/11/2016 16:00,5.9,21,,,0,,82,32,160,Light shower,1000,3,24,,,,3.2,
Wick,09/11/2016 17:00,6,18,,,0.2,,82,31,160,Rain,1000,3,22,,,,3.3,
Wick,09/11/2016 18:00,6.1,15,,6.2,0,2,79,,170,Rain,1000,2,35,,,,2.8,
Wick,09/11/2016 19:00,6,16,,,0,,81,,160,Light shower,999,4,35,,,,3.1,
Wick,09/11/2016 20:00,6.3,15,,,0,,77,,160,Rain,999,1,45,,,,2.7,
Wick,09/11/2016 21:00,6.2,15,,,0,,76,,160,Dry,998,1,30,,,,2.4,
Wick,09/11/2016 22:00,6,10,,,0,,77,,170,Dry,998,1,45,,,,2.4,
Wick,09/11/2016 23:00,6.2,13,,,0,,78,,160,Dry,998,1,40,,,,2.7,
Wick,10/11/2016 00:00,6.4,10,,,0,0,77,,170,Dry,998,2,45,,,,2.8,
Wick,10/11/2016 01:00,6.2,8,,,0,,81,,170,Dry,997,1,40,,,,3.2,
Wick,10/11/2016 02:00,5.4,6,,,0,,83,,180,Rain,997,3,40,,,,2.9,
Wick,10/11/2016 03:00,5.5,7,,,0,,85,,170,Dry,997,6,40,,,,3.2,
Wick,10/11/2016 04:00,5.8,5,,,0,,83,,180,Dry,997,7,40,,,,3.3,
Wick,10/11/2016 05:00,5,5,,,0,,85,,200,Dry,997,4,45,,,,2.8,
Wick,10/11/2016 06:00,2.8,3,2.8,,0,0,80,,210,Dry,997,1,40,,,,-0.2,
Wick,10/11/2016 07:00,1.1,5,,,0,,94,,270,Dry,998,1,40,,,,0.3,
Wick,10/11/2016 08:00,1.2,3,,,0,,97,,270,Dry,999,3,35,,,,0.8,
Wick,10/11/2016 09:00,0.4,6,,,0,,97,,280,Dry,1000,1,40,,,,0.1,
Wick,10/11/2016 10:00,2.1,6,,,0,,93,,250,Dry,1001,1,10,,,,1.2,
Wick,10/11/2016 11:00,4.6,5,,,0,,91,,270,Dry,1002,1,45,,,,3.4,
Wick,10/11/2016 12:00,6.2,6,,,0,0,90,,280,Dry,1003,1,40,,,,4.7,
Wick,10/11/2016 13:00,7.6,6,,,0,,81,,300,Dry,1004,1,50,,,,4.7,
Wick,10/11/2016 14:00,7.7,7,,,0,,85,,280,Dry,1005,1,45,,,,5.5,
Wick,10/11/2016 15:00,7.4,5,,,0,,83,,260,Dry,1006,1,55,,,,4.8,
Wick,10/11/2016 16:00,5.5,5,,,0,,91,,250,Dry,1007,1,55,,,,4.2,
Wick,10/11/2016 17:00,3.6,5,,,0,,96,,260,Dry,1008,1,45,,,,3.1,
Wick,10/11/2016 18:00,3.4,5,,7.8,0,0,94,,240,Dry,1009,1,45,,,,2.6,
Wick,10/11/2016 19:00,3,5,,,0,,90,,240,Dry,1010,1,50,,,,1.6,
Wick,10/11/2016 20:00,3.6,3,,,0,,86,,230,Dry,1011,,60,,,,1.6,
Wick,10/11/2016 21:00,3.9,5,,,0,,84,,220,Dry,1012,0,60,,,,1.6,
Wick,10/11/2016 22:00,4.6,5,,,0,,82,,190,Dry,1012,0,50,,,,1.8,
Wick,10/11/2016 23:00,3.2,3,,,0,,84,,220,Dry,1013,0,60,,,,0.8,
Wick,11/11/2016 00:00,3.3,3,,,0,0,93,,230,Dry,1013,0,55,,,,2.4,
Wick,11/11/2016 01:00,2.8,5,,,0,,93,,220,Dry,1014,0,50,,,,1.8,
Wick,11/11/2016 02:00,4.1,6,,,0,,92,,200,Dry,1014,1,55,,,,3,
Wick,11/11/2016 03:00,4.4,5,,,0.2,,88,,180,Dry,1015,0,65,,,,2.7,
Wick,11/11/2016 04:00,4.5,6,,,0,,91,,190,Dry,1015,,55,,,,3.2,
Wick,11/11/2016 05:00,3.5,6,,,0,,93,,230,Dry,1015,1,50,,,,2.5,
Wick,11/11/2016 06:00,4.7,7,1.6,,0,0.2,90,,210,Dry,1015,,60,,,,3.3,
Wick,11/11/2016 07:00,4.3,2,,,0,,93,,240,Dry,1015,,50,,,,3.4,
Wick,11/11/2016 08:00,4.8,5,,,0,,95,,180,Dry,1015,1,40,,,,4.2,
Wick,11/11/2016 09:00,5.7,10,,,0,,93,,180,Dry,1015,1,45,,,,4.8,
Wick,11/11/2016 10:00,6.9,10,,,0,,89,,180,Dry,1015,3,40,,,,5.3,
Wick,11/11/2016 11:00,7.1,10,,,0,,85,,180,Dry,1015,1,50,,,,4.8,
Wick,11/11/2016 12:00,7.3,6,,,0,0,81,,170,Dry,1014,1,40,,,,4.4,
Wick,11/11/2016 13:00,7.7,14,,,0,,77,,180,Dry,1014,1,40,,,,4,
Wick,11/11/2016 14:00,8,18,,,0,,79,,160,Dry,1012,1,40,,,,4.6,
Wick,11/11/2016 15:00,8,22,,,0,,75,32,160,Dry,1011,1,40,,,,4,
Wick,11/11/2016 16:00,8.2,23,,,0,,74,36,160,Dry,1010,1,35,,,,3.9,
Wick,11/11/2016 17:00,8,18,,,0,,80,36,150,Dry,1009,1,35,,,,4.8,
Wick,11/11/2016 18:00,8.5,24,,8.5,0,0,74,36,160,Dry,1008,1,35,,,,4.3,
Wick,11/11/2016 19:00,8.5,28,,,0,,78,39,160,Dry,1007,1,35,,,,4.9,
Wick,11/11/2016 20:00,8.2,26,,,0.4,,83,37,160,Light shower,1006,7,11,,,,5.5,
Wick,11/11/2016 21:00,7.7,29,,,1.4,,90,41,160,Light rain,1005,1,10,,,,6.2,
Wick,11/11/2016 22:00,7.6,29,,,1.6,,94,44,160,Light rain,1004,2,8,,,,6.7,
Wick,11/11/2016 23:00,8.1,29,,,0.4,,88,51,160,Rain,1003,1,20,,,,6.3,
Wick,12/11/2016 00:00,8,29,,,2,6,91,44,160,Light rain,1002,3,10,,,,6.7,
Wick,12/11/2016 01:00,8.3,28,,,0.8,,89,44,160,Light rain,1001,1,24,,,,6.7,
Wick,12/11/2016 02:00,8.4,26,,,0.4,,91,40,160,Light shower,1001,1,20,,,,7.1,
Wick,12/11/2016 03:00,8.9,24,,,0,,86,38,160,Drizzly rain,1000,3,21,,,,6.8,
Wick,12/11/2016 04:00,9.3,20,,,0,,87,37,170,Rain,1001,7,27,,,,7.3,
Wick,12/11/2016 05:00,8.9,14,,,0,,95,,170,Dry,1001,7,18,,,,8.2,
Wick,12/11/2016 06:00,9.3,8,7.6,,0,1,95,,240,Dry,1002,1,40,,,,8.6,
Wick,12/11/2016 07:00,8.2,9,,,0,,94,,270,Dry,1003,2,35,,,,7.3,
Wick,12/11/2016 08:00,7.4,9,,,0,,90,,250,Dry,1004,0,35,,,,5.9,
Wick,12/11/2016 09:00,7.1,12,,,0,,92,,270,Dry,1005,1,35,,,,6,
Wick,12/11/2016 10:00,8.4,9,,,0,,92,,250,Dry,1006,7,40,,,,7.3,
Wick,12/11/2016 11:00,8.5,7,,,0,,88,,220,Dry,1007,1,40,,,,6.7,
Wick,12/11/2016 12:00,10,10,,,0,0,83,,230,Dry,1008,1,40,,,,7.3,
Wick,12/11/2016 13:00,8.5,12,,,0,,88,,260,Dry,1009,3,35,,,,6.7,
Wick,12/11/2016 14:00,7.9,8,,,0,,87,,260,Dry,1009,0,35,,,,5.9,
Wick,12/11/2016 15:00,7.2,8,,,0,,88,,260,Dry,1010,0,35,,,,5.4,
Wick,12/11/2016 16:00,7.2,10,,,0,,85,,260,Dry,1011,0,35,,,,5,
Wick,12/11/2016 17:00,6.4,12,,,0,,84,,250,Dry,1012,0,40,,,,4,
Wick,12/11/2016 18:00,6.1,5,,10.1,0,0,84,,230,Dry,1013,0,40,,,,3.7,
Wick,12/11/2016 19:00,5.2,3,,,0,,91,,240,Dry,1014,0,55,,,,3.9,
Wick,12/11/2016 20:00,5.1,8,,,0,,91,,240,Dry,1015,4,40,,,,3.8,
Wick,12/11/2016 21:00,4.1,6,,,0,,90,,240,Dry,1016,1,40,,,,2.7,
Wick,12/11/2016 22:00,3.6,8,,,0,,91,,230,Dry,1017,0,40,,,,2.3,
Wick,12/11/2016 23:00,3.6,10,,,0,,90,,240,Dry,1018,0,45,,,,2.2,
Wick,13/11/2016 00:00,3.4,8,,,0,0,90,,240,Dry,1018,0,45,,,,2,
Wick,13/11/2016 01:00,3.3,8,,,0,,91,,240,Dry,1018,0,40,,,,2,
Wick,13/11/2016 02:00,4.4,7,,,0,,89,,240,Dry,1019,5,40,,,,2.9,
Wick,13/11/2016 03:00,4,6,,,0,,88,,250,Dry,1020,0,40,,,,2.2,
Wick,13/11/2016 04:00,3.8,8,,,0,,87,,240,Dry,1020,0,35,,,,1.9,
Wick,13/11/2016 05:00,4.6,5,,,0,,86,,230,Dry,1020,0,40,,,,2.5,
Wick,13/11/2016 06:00,4.5,7,3,,0,0,91,,230,Dry,1020,0,40,,,,3.2,
Wick,13/11/2016 07:00,6.3,8,,,0,,77,,220,Dry,1020,0,40,,,,2.7,
Wick,13/11/2016 08:00,6.6,10,,,0,,81,,190,Dry,1021,8,40,,,,3.7,
Wick,13/11/2016 09:00,7.3,10,,,0,,83,,190,Dry,1021,8,35,,,,4.7,
Wick,13/11/2016 10:00,7.7,10,,,0,,87,,180,Rain,1020,7,35,,,,5.7,
Wick,13/11/2016 11:00,8.1,14,,,0,,89,,180,Dry,1020,4,30,,,,6.4,
Wick,13/11/2016 12:00,8.1,14,,,0.2,0.2,93,,170,Rain,1020,7,30,,,,7.1,
Wick,13/11/2016 13:00,8.7,15,,,0,,90,,170,Dry,1019,3,35,,,,7.3,
Wick,13/11/2016 14:00,9.1,14,,,0.2,,90,,170,Drizzly rain,1018,7,5,,,,7.6,
Wick,13/11/2016 15:00,9.4,13,,,1.2,,94,,170,Light rain,1018,8,14,,,,8.5,
Wick,13/11/2016 16:00,9.6,13,,,1.4,,98,,170,Light rain,1018,8,15,,,,9.3,
Wick,13/11/2016 17:00,10.1,14,,,0.4,,98,,180,Light rain,1017,7,11,,,,9.8,
Wick,13/11/2016 18:00,10.2,15,,10.2,1.6,4.8,98,,190,Light rain,1017,7,20,,,,9.9,
Wick,13/11/2016 19:00,10.4,16,,,0.2,,95,,190,Rain,1017,6,35,,,,9.7,
Wick,13/11/2016 20:00,10.6,15,,,0,,93,,190,Rain,1016,1,10,,,,9.6,
Wick,13/11/2016 21:00,10.6,13,,,0.2,,93,,190,Light shower,1016,6,22,,,,9.6,
Wick,13/11/2016 22:00,10.9,15,,,1.4,,95,,190,Light rain,1015,1,21,,,,10.2,
Wick,13/11/2016 23:00,11.9,13,,,1,,94,,200,Moderate shower,1014,0,19,,,,11.1,
Wick,14/11/2016 00:00,11.4,18,,,1.8,5,92,,200,Drizzly rain,1014,8,30,,,,10.3,
Wick,14/11/2016 01:00,11.5,18,,,0,,92,30,200,Rain,1013,1,40,,,,10.3,
Wick,14/11/2016 02:00,11.5,8,,,0,,93,,200,Dry,1013,7,45,,,,10.5,
Wick,14/11/2016 03:00,13.3,17,,,0,,90,,230,Dry,1013,1,55,,,,11.7,
Wick,14/11/2016 04:00,13.7,20,,,0,,88,,240,Dry,1013,8,55,,,,11.8,
Wick,14/11/2016 05:00,13.6,20,,,0.2,,86,30,240,Rain,1012,6,45,,,,11.4,
Wick,14/11/2016 06:00,12.8,14,10.2,,0,0,91,,250,Dry,1013,7,35,,,,11.5,
Wick,14/11/2016 07:00,12.6,16,,,0,,92,,260,Dry,1014,6,50,,,,11.4,
Wick,14/11/2016 08:00,12.2,13,,,0,,98,,270,Dry,1015,5,14,,,,11.9,
Wick,14/11/2016 09:00,12.6,16,,,0,,94,,280,Dry,1015,6,45,,,,11.8,
Wick,14/11/2016 10:00,12.5,6,,,0,,91,,240,Dry,1016,7,45,,,,11.2,
Wick,14/11/2016 11:00,13.1,10,,,0,,87,,240,Dry,1016,6,50,,,,11.1,
Wick,14/11/2016 12:00,13.6,12,,,0,0,85,,250,Dry,1016,1,45,,,,11.3,
Wick,14/11/2016 13:00,14.6,7,,,0,,83,,220,Dry,1016,7,45,,,,11.8,
Wick,14/11/2016 14:00,14.4,14,,,0,,82,,250,Dry,1015,1,50,,,,11.5,
Wick,14/11/2016 15:00,13.8,10,,,0,,84,,210,Dry,1015,3,45,,,,11.2,
Wick,14/11/2016 16:00,13.9,10,,,0,,83,,190,Fog,1014,1,40,,,,11.2,
Wick,14/11/2016 17:00,12.1,9,,,0,,90,,160,Dry,1014,1,35,,,,10.6,
Wick,14/11/2016 18:00,12.2,12,,14.7,0,0,91,,180,Dry,1013,1,35,,,,10.8,
Wick,14/11/2016 19:00,12.7,13,,,0,,89,,210,Dry,1012,2,40,,,,11,
Wick,14/11/2016 20:00,11.9,13,,,0,,92,,190,Dry,1011,1,28,,,,10.8,
Wick,14/11/2016 21:00,12.8,5,,,0,,90,,170,Dry,1010,0,40,,,,11.3,
Wick,14/11/2016 22:00,13.9,15,,,0,,87,31,210,Light shower,1009,0,45,,,,11.9,
Wick,14/11/2016 23:00,14.7,22,,,0,,81,29,220,Rain,1008,1,45,,,,11.5,
Wick,15/11/2016 00:00,14,23,,,0,0,83,32,230,Dry,1008,3,45,,,,11.2,
Wick,15/11/2016 01:00,13.5,16,,,0,,87,29,230,Dry,1009,3,50,,,,11.5,
Wick,15/11/2016 02:00,11.2,30,,,0.2,,88,43,270,Rain,1010,1,29,,,,9.3,
Wick,15/11/2016 03:00,9.8,26,,,0,,87,38,280,Dry,1011,1,30,,,,7.9,
Wick,15/11/2016 04:00,8.9,22,,,0,,86,40,270,Dry,1012,1,35,,,,6.7,
Wick,15/11/2016 05:00,8,20,,,0,,81,33,270,Dry,1013,1,29,,,,5,
Wick,15/11/2016 06:00,8.2,13,7.7,,0,0.2,80,,250,Dry,1014,1,30,,,,5,
Wick,15/11/2016 07:00,8,13,,,0,,77,,260,Dry,1015,1,30,,,,4.4,
Wick,15/11/2016 08:00,6.8,14,,,0,,82,,240,Dry,1016,5,35,,,,4.1,
Wick,15/11/2016 09:00,8,15,,,0,,76,,240,Dry,1016,1,30,,,,4.2,
Wick,15/11/2016 10:00,8.9,14,,,0,,72,,220,Dry,1016,1,40,,,,4.3,
Wick,15/11/2016 11:00,9.9,14,,,0,,70,,220,Dry,1016,1,40,,,,4.8,
Wick,15/11/2016 12:00,10.2,20,,,0,0,75,,220,Dry,1015,7,40,,,,6,
Wick,15/11/2016 13:00,9.6,23,,,0,,77,32,230,Dry,1015,4,18,,,,5.8,
Wick,15/11/2016 14:00,9.4,18,,,0.2,,79,30,220,Rain,1014,1,55,,,,6.1,
Wick,15/11/2016 15:00,9.5,18,,,0,,74,,210,Dry,1014,6,30,,,,5.2,
Wick,15/11/2016 16:00,8.5,21,,,0,,89,29,220,Light shower,1013,1,30,,,,6.9,
Wick,15/11/2016 17:00,8.9,15,,,0,,85,,200,Rain,1012,6,40,,,,6.6,
Wick,15/11/2016 18:00,9,18,,10.7,0,0.2,87,,190,Dry,1011,2,35,,,,7,
Wick,15/11/2016 19:00,8.9,15,,,0,,88,,200,Dry,1011,4,40,,,,7.1,
Wick,15/11/2016 20:00,8.8,15,,,0,,88,,200,Dry,1009,3,35,,,,7,
Wick,15/11/2016 21:00,8.9,12,,,0,,82,,200,Dry,1008,4,40,,,,6.1,
Wick,15/11/2016 22:00,9,14,,,0,,85,,210,Dry,1007,5,40,,,,6.7,
Wick,15/11/2016 23:00,8.6,14,,,0,,86,,180,Dry,1005,1,35,,,,6.4,
Wick,16/11/2016 00:00,9.3,16,,,0,0,80,,190,Dry,1003,1,30,,,,6.2,
Wick,16/11/2016 01:00,9.3,18,,,0,,83,,190,Dry,1001,1,35,,,,6.7,
Wick,16/11/2016 02:00,9.4,12,,,0,,74,,200,Dry,999,0,35,,,,5.1,
Wick,16/11/2016 03:00,9.6,21,,,0,,79,29,180,Dry,996,0,30,,,,6.2,
Wick,16/11/2016 04:00,7.3,28,,,1,,88,41,250,Light shower,997,1,8,,,,5.5,
Wick,16/11/2016 05:00,5.1,14,,,0,,93,29,260,Rain,996,0,55,,,,4.1,
Wick,16/11/2016 06:00,4.8,15,4.7,,0,1,91,40,260,Dry,996,3,35,,,,3.5,
Wick,16/11/2016 07:00,4.2,12,,,0,,88,,230,Dry,996,3,30,,,,2.5,
Wick,16/11/2016 08:00,4.5,10,,,0,,82,,200,Dry,996,1,30,,,,1.7,
Wick,16/11/2016 09:00,3.8,16,,,0,,84,,240,Dry,996,1,30,,,,1.5,
Wick,16/11/2016 10:00,4.1,20,,,0,,87,32,240,Light shower,996,1,40,,,,2.2,
Wick,16/11/2016 11:00,4.1,17,,,0,,84,,210,Rain,996,1,45,,,,1.8,
Wick,16/11/2016 12:00,4.6,24,,,0,0,83,36,230,Dry,996,1,45,,,,2,
Wick,16/11/2016 13:00,3.9,21,,,0.2,,86,39,230,Rain,995,2,45,,,,1.8,
Wick,16/11/2016 14:00,3.5,21,,,0.4,,89,40,240,Rain,994,1,50,,,,2,
Wick,16/11/2016 15:00,3.8,18,,,0,,83,29,220,Dry,994,3,45,,,,1.2,
Wick,16/11/2016 16:00,4.1,24,,,0,,81,31,230,Rain,993,1,35,,,,1.3,
Wick,16/11/2016 17:00,3,21,,,0,,83,40,230,Rain,993,1,40,,,,0.5,
Wick,16/11/2016 18:00,3.2,20,,5.1,0,0.6,86,,230,Light shower,993,1,30,,,,1.1,
Wick,16/11/2016 19:00,1.9,18,,,0.4,,91,37,240,Rain,993,3,45,,,,0.7,
Wick,16/11/2016 20:00,3.7,26,,,0,,83,36,240,Light shower,993,2,15,,,,1.2,
Wick,16/11/2016 21:00,2.3,10,,,0.2,,92,36,200,Light rain,992,1,35,,,,1.2,
Wick,16/11/2016 22:00,2.8,17,,,0,,84,,220,Rain,992,1,40,,,,0.4,
Wick,16/11/2016 23:00,2.5,21,,,0,,89,30,210,Dry,991,0,50,,,,0.9,
Wick,17/11/2016 00:00,2.5,15,,,0,0.6,87,,210,Dry,991,1,45,,,,0.6,
Wick,17/11/2016 01:00,3.2,21,,,0,,84,,220,Precipitation,990,2,40,,,,0.9,
Wick,17/11/2016 02:00,2.3,15,,,0,,87,,220,Dry,990,2,50,,,,0.5,
Wick,17/11/2016 03:00,2.4,13,,,0,,89,,210,Rain,989,4,45,,,,0.8,
Wick,17/11/2016 04:00,1.6,14,,,0.2,,93,36,220,Rain,988,1,45,,,,0.6,
Wick,17/11/2016 05:00,2.4,16,,,0,,91,,230,Light shower,988,1,45,,,,1.2,
Wick,17/11/2016 06:00,2.9,18,1.6,,0.2,0.4,89,,220,Light shower,987,2,28,,,,1.3,
Wick,17/11/2016 07:00,2.5,10,,,0,,91,,230,Rain,986,1,55,,,,1.2,
Wick,17/11/2016 08:00,1.9,8,,,0.2,,96,,280,Rain,986,1,45,,,,1.4,
Wick,17/11/2016 09:00,2.4,8,,,0,,93,,210,Dry,984,3,50,,,,1.4,
Wick,17/11/2016 10:00,3,10,,,0,,86,,220,Dry,984,1,50,,,,1,
Wick,17/11/2016 11:00,3.9,9,,,0,,83,,250,Dry,984,6,70,,,,1.4,
Wick,17/11/2016 12:00,5.5,8,,,0,0.2,76,,220,Dry,983,7,10,,,,1.7,
Wick,17/11/2016 13:00,5.2,9,,,0,,80,,230,Dry,982,1,55,,,,2.2,
Wick,17/11/2016 14:00,4.9,9,,,0,,78,,240,Dry,982,1,60,,,,1.5,
Wick,17/11/2016 15:00,3.5,6,,,0,,81,,220,Dry,981,1,10,,,,0.6,
Wick,17/11/2016 16:00,1.8,8,,,0,,90,,260,Dry,981,1,50,,,,0.4,
Wick,17/11/2016 17:00,0.7,7,,,0,,93,,260,Dry,981,1,50,,,,-0.3,
Wick,17/11/2016 18:00,0.1,7,,5.6,0,0,92,,270,Dry,981,1,55,,,,-1,
Wick,17/11/2016 19:00,0.1,8,,,0,,95,,270,Dry,982,3,40,,,,-0.6,
Wick,17/11/2016 20:00,0.2,6,,,0,,97,,280,Dry,981,4,50,,,,-0.2,
Wick,17/11/2016 21:00,-0.4,5,,,0,,97,,260,Dry,981,0,35,,,,-0.7,
Wick,17/11/2016 22:00,-0.6,7,,,0,,98,,260,Dry,981,0,35,,,,-0.8,
Wick,17/11/2016 23:00,-0.9,6,,,0,,96,,250,Dry,981,0,45,,,,-1.4,
Wick,18/11/2016 00:00,-1.8,6,,,0,0,96,,250,Dry,982,0,45,,,,-2.3,
Wick,18/11/2016 01:00,-0.9,7,,,0,,96,,260,Dry,982,0,55,,,,-1.4,
Wick,18/11/2016 02:00,-2.3,7,,,0,,93,,280,Dry,981,0,55,,,,-3.2,
Wick,18/11/2016 03:00,-1.8,9,,,0,,97,,270,Dry,982,0,50,,,,-2.2,
Wick,18/11/2016 04:00,-1.9,7,,,0,,97,,270,Dry,982,1,50,,,,-2.2,
Wick,18/11/2016 05:00,-1.8,9,,,0,,98,,270,Dry,982,2,50,,,,-2,
Wick,18/11/2016 06:00,-2,10,-2.6,,0,0,98,,270,Dry,982,2,65,,,,-2.2,
Wick,18/11/2016 07:00,-1.5,9,,,0,,97,,270,Dry,983,4,50,,,,-1.9,
Wick,18/11/2016 08:00,-1.6,9,,,0,,97,,270,Dry,983,1,45,,,,-2,
Wick,18/11/2016 09:00,-0.8,8,,,0,,98,,260,Snow,984,3,50,,,,-1,
Wick,18/11/2016 10:00,0.2,12,,,0,,97,,260,Dry,984,1,65,,,,-0.1,
Wick,18/11/2016 11:00,0.8,8,,,0,,96,,260,Dry,985,1,60,,,,0.3,
Wick,18/11/2016 12:00,2.7,9,,,0.2,0.2,93,,270,Rain,985,1,50,,,,1.8,
Wick,18/11/2016 13:00,4.1,15,,,0,,88,,280,Dry,985,1,50,,,,2.4,
Wick,18/11/2016 14:00,2.4,12,,,0.6,,95,,350,Moderate shower,986,5,24,,,,1.8,
Wick,18/11/2016 15:00,1.4,6,,,1,,98,,300,Light rain,986,1,19,,,,1.2,
Wick,18/11/2016 16:00,1.4,10,,,0.4,,98,,270,Light rain,987,4,15,,,,1.2,
Wick,18/11/2016 17:00,0.7,14,,,0.6,,98,,260,Moderate shower,987,2,23,,,,0.5,
Wick,18/11/2016 18:00,1.1,7,,4.8,0.4,2.8,98,,260,Rain,988,1,40,,,,0.9,
Wick,18/11/2016 19:00,0.4,10,,,0.2,,98,,260,Dry,988,3,60,,,,0.2,
Wick,18/11/2016 20:00,0.9,12,,,0,,94,,260,Dry,988,1,60,,,,0.1,
Wick,18/11/2016 21:00,-0.3,10,,,0,,93,,260,Dry,988,,65,,,,-1.2,
Wick,18/11/2016 22:00,0.4,9,,,0,,94,,250,Dry,988,0,65,,,,-0.4,
Wick,18/11/2016 23:00,0.2,9,,,0,,92,,260,Dry,989,0,65,,,,-0.8,
Wick,19/11/2016 00:00,0.3,9,,,0,0.2,95,,240,Dry,989,0,60,,,,-0.3,
Wick,19/11/2016 01:00,0.4,8,,,0,,92,,250,Dry,989,0,65,,,,-0.6,
Wick,19/11/2016 02:00,0.1,6,,,0,,92,,240,Dry,989,0,55,,,,-0.9,
Wick,19/11/2016 03:00,-0.2,7,,,0,,93,,260,Dry,989,0,60,,,,-1.1,
Wick,19/11/2016 04:00,-0.9,7,,,0,,96,,270,Dry,989,0,65,,,,-1.4,
Wick,19/11/2016 05:00,0,7,,,0,,94,,240,Dry,989,0,55,,,,-0.8,
Wick,19/11/2016 06:00,0.9,8,-1.2,,0,0,92,,250,Dry,989,0,60,,,,-0.2,
Wick,19/11/2016 07:00,1.5,9,,,0,,93,,250,Dry,989,0,65,,,,0.5,
Wick,19/11/2016 08:00,1.5,13,,,0,,93,,260,Dry,990,0,60,,,,0.5,
Wick,19/11/2016 09:00,1.2,10,,,0,,93,,260,Dry,990,0,60,,,,0.3,
Wick,19/11/2016 10:00,1.7,9,,,0,,95,,250,Dry,990,5,60,,,,1,
Wick,19/11/2016 11:00,2.2,9,,,0,,93,,250,Dry,990,2,65,,,,1.2,
Wick,19/11/2016 12:00,2.7,6,,,0,0,93,,250,Dry,991,4,50,,,,1.7,
Wick,19/11/2016 13:00,4.5,8,,,0,,84,,230,Dry,990,2,55,,,,2.2,
Wick,19/11/2016 14:00,4.8,6,,,0,,79,,220,Dry,990,0,50,,,,1.6,
Wick,19/11/2016 15:00,4.3,6,,,0,,81,,200,Dry,990,4,50,,,,1.5,
Wick,19/11/2016 16:00,2.6,9,,,0,,86,,210,Dry,991,0,55,,,,0.5,
Wick,19/11/2016 17:00,1.8,10,,,0,,85,,220,Dry,991,0,60,,,,-0.3,
Wick,19/11/2016 18:00,0.6,3,,5,0,0,89,,230,Dry,991,1,55,,,,-0.9,
Wick,19/11/2016 19:00,0.3,2,,,0,,87,,280,Dry,991,0,50,,,,-1.6,
Wick,19/11/2016 20:00,1.6,7,,,0,,89,,220,Dry,990,1,55,,,,0,
Wick,19/11/2016 21:00,1.5,7,,,0,,89,,210,Dry,991,1,45,,,,0,
Wick,19/11/2016 22:00,0.8,6,,,0,,89,,210,Dry,991,0,45,,,,-0.8,
Wick,19/11/2016 23:00,-0.1,3,,,0,,90,,240,Dry,991,0,55,,,,-1.4,
Wick,20/11/2016 00:00,0.2,3,,,0,0,88,,240,Dry,991,0,60,,,,-1.5,
Wick,20/11/2016 01:00,-0.1,5,,,0,,94,,230,Dry,990,0,55,,,,-0.9,
Wick,20/11/2016 02:00,-0.2,5,,,0,,93,,230,Dry,990,0,75,,,,-1.1,
Wick,20/11/2016 03:00,0.2,3,,,0,,94,,240,Dry,990,0,75,,,,-0.6,
Wick,20/11/2016 04:00,-2.2,6,,,0,,97,,260,Dry,991,0,60,,,,-2.5,
Wick,20/11/2016 05:00,-2,6,,,0,,96,,260,Dry,990,0,65,,,,-2.5,
Wick,20/11/2016 06:00,-1.9,5,-3.2,,0,0,97,,270,Dry,991,0,65,,,,-2.2,
Wick,20/11/2016 07:00,-2.9,7,,,0,,97,,270,Dry,991,0,55,,,,-3.2,
Wick,20/11/2016 08:00,-2.7,6,,,0,,97,,270,Dry,991,0,55,,,,-3,
Wick,20/11/2016 09:00,-3.3,6,,,0,,97,,270,Dry,992,0,50,,,,-3.7,
Wick,20/11/2016 10:00,-2.1,6,,,0,,93,,260,Dry,992,0,60,,,,-3,
Wick,20/11/2016 11:00,-0.5,7,,,0,,93,,260,Dry,993,0,50,,,,-1.4,
Wick,20/11/2016 12:00,1.3,6,,,0,0,91,,260,Dry,993,1,55,,,,0.1,
Wick,20/11/2016 13:00,2.2,6,,,0.2,,89,,260,Dry,993,1,55,,,,0.7,
Wick,20/11/2016 14:00,2.8,5,,,0,,87,,260,Dry,993,1,65,,,,1,
Wick,20/11/2016 15:00,1.6,7,,,0,,92,,270,Dry,993,1,30,,,,0.5,
Wick,20/11/2016 16:00,0.7,7,,,0,,95,,270,Dry,994,1,45,,,,0,
Wick,20/11/2016 17:00,0,9,,,0,,96,,270,Dry,994,1,35,,,,-0.5,
Wick,20/11/2016 18:00,-0.2,8,,2.9,0,0.2,97,,260,Dry,995,0,45,,,,-0.6,
Wick,20/11/2016 19:00,-0.6,8,,,0,,95,,270,Dry,996,1,45,,,,-1.3,
Wick,20/11/2016 20:00,-0.5,7,,,0,,94,,260,Dry,996,7,50,,,,-1.3,
Wick,20/11/2016 21:00,-0.5,7,,,0,,97,,260,Dry,996,0,55,,,,-0.9,
Wick,20/11/2016 22:00,-0.9,10,,,0,,94,,260,Dry,997,0,50,,,,-1.7,
Wick,20/11/2016 23:00,-1.1,7,,,0,,92,,260,Dry,997,0,60,,,,-2.1,
Wick,21/11/2016 00:00,-0.9,9,,,0,0,94,,270,Dry,998,0,55,,,,-1.6,
Wick,21/11/2016 01:00,-1.2,9,,,0,,92,,260,Dry,998,0,55,,,,-2.3,
Wick,21/11/2016 02:00,-0.8,10,,,0,,92,,250,Dry,998,0,50,,,,-1.8,
Wick,21/11/2016 03:00,-0.8,7,,,0,,93,,260,Dry,999,0,50,,,,-1.7,
Wick,21/11/2016 04:00,-1.2,8,,,0,,92,,270,Dry,999,1,55,,,,-2.2,
Wick,21/11/2016 05:00,0.6,7,,,0,,93,,250,Dry,1000,3,60,,,,-0.3,
Wick,21/11/2016 06:00,0.1,5,-1.7,,0,0,92,,280,Dry,1000,1,60,,,,-0.9,
Wick,21/11/2016 07:00,-0.9,7,,,0,,95,,260,Dry,1001,1,60,,,,-1.5,
Wick,21/11/2016 08:00,-1.6,8,,,0,,93,,250,Dry,1001,1,50,,,,-2.5,
Wick,21/11/2016 09:00,-0.9,6,,,0,,94,,250,Dry,1002,1,55,,,,-1.7,
Wick,21/11/2016 10:00,0.5,6,,,0,,89,,260,Dry,1003,1,50,,,,-1,
Wick,21/11/2016 11:00,1.1,7,,,0,,88,,260,Dry,1003,,60,,,,-0.6,
Wick,21/11/2016 12:00,2.8,7,,,0,0,88,,260,Dry,1003,1,10,,,,1.1,
Wick,21/11/2016 13:00,3.7,6,,,0,,86,,250,Dry,1004,1,60,,,,1.7,
Wick,21/11/2016 14:00,3.3,6,,,0,,89,,280,Dry,1004,1,55,,,,1.8,
Wick,21/11/2016 15:00,3.3,3,,,0,,89,,240,Dry,1004,1,50,,,,1.7,
Wick,21/11/2016 16:00,1.9,6,,,0,,94,,280,Dry,1005,1,45,,,,1.1,
Wick,21/11/2016 17:00,1.1,3,,,0,,97,,300,Rain,1005,2,40,,,,0.7,
Wick,21/11/2016 18:00,2.9,7,,3.8,0,0,90,,350,Dry,1006,1,50,,,,1.5,
Wick,21/11/2016 19:00,3.8,14,,,0,,84,,360,Dry,1006,,55,,,,1.4,
Wick,21/11/2016 20:00,3.4,12,,,0,,80,,340,Dry,1005,0,50,,,,0.4,
Wick,21/11/2016 21:00,4.1,15,,,0,,83,,350,Dry,1005,1,45,,,,1.6,
Wick,21/11/2016 22:00,4,14,,,0,,83,,350,Dry,1005,1,50,,,,1.4,
Wick,21/11/2016 23:00,4.9,21,,,0,,81,,350,Dry,1004,2,50,,,,2,
Wick,22/11/2016 00:00,5.1,20,,,0,0,80,29,350,Dry,1004,0,55,,,,2,
Wick,22/11/2016 01:00,5.4,21,,,0,,80,,350,Dry,1004,3,50,,,,2.3,
Wick,22/11/2016 02:00,5.5,21,,,0,,78,30,350,Dry,1004,3,45,,,,2.1,
Wick,22/11/2016 03:00,5.5,22,,,0.2,,83,29,350,Rain,1003,0,45,,,,3,
Wick,22/11/2016 04:00,6.1,22,,,0,,81,30,360,Dry,1003,3,40,,,,3.1,
Wick,22/11/2016 05:00,6.2,21,,,0,,81,30,360,Dry,1004,2,45,,,,3.2,
Wick,22/11/2016 06:00,6.3,21,1.5,,0,0.2,79,31,360,Dry,1004,4,40,,,,3,
Wick,22/11/2016 07:00,6.2,22,,,0,,79,32,350,Dry,1004,2,40,,,,3,
Wick,22/11/2016 08:00,5.9,22,,,0,,85,31,350,Dry,1004,1,35,,,,3.7,
Wick,22/11/2016 09:00,6.2,21,,,0,,84,,350,Dry,1004,3,35,,,,3.8,
Wick,22/11/2016 10:00,6.4,18,,,0,,85,33,350,Dry,1005,1,35,,,,4.1,
Wick,22/11/2016 11:00,6,22,,,0.2,,90,29,350,Rain,1005,3,35,,,,4.6,
Wick,22/11/2016 12:00,5.9,23,,,0.4,0.6,88,31,350,Rain,1005,1,40,,,,4.1,
Wick,22/11/2016 13:00,6.3,22,,,0,,86,31,350,Dry,1005,1,28,,,,4.2,
Wick,22/11/2016 14:00,6.5,23,,,0,,84,31,350,Dry,1006,1,35,,,,4.1,
Wick,22/11/2016 15:00,6.1,21,,,0,,81,29,350,Rain,1006,3,40,,,,3.2,
Wick,22/11/2016 16:00,5.3,15,,,0.4,,89,32,340,Rain,1007,1,35,,,,3.7,
Wick,22/11/2016 17:00,3.7,12,,,0,,88,,320,Dry,1008,1,21,,,,2,
Wick,22/11/2016 18:00,3.9,13,,6.7,0,0.4,90,,330,Dry,1009,1,23,,,,2.5,
Wick,22/11/2016 19:00,4.6,14,,,0,,89,,340,Dry,1010,1,30,,,,3,
Wick,22/11/2016 20:00,4.3,9,,,0,,90,,330,Rain,1011,1,35,,,,2.9,
Wick,22/11/2016 21:00,2.4,12,,,0,,93,,320,Dry,1012,1,30,,,,1.4,
Wick,22/11/2016 22:00,3.2,12,,,0,,92,,320,Dry,1012,3,21,,,,2.1,
Wick,22/11/2016 23:00,2.7,9,,,0,,92,,330,Dry,1013,0,27,,,,1.6,
Wick,23/11/2016 00:00,1.1,9,,,0,0,91,,330,Dry,1014,0,29,,,,-0.2,
Wick,23/11/2016 01:00,1.4,7,,,0,,95,,280,Dry,1014,1,40,,,,0.7,
Wick,23/11/2016 02:00,1.7,9,,,0,,90,,300,Dry,1015,7,45,,,,0.3,
Wick,23/11/2016 03:00,1.5,3,,,0,,93,,260,Dry,1016,7,45,,,,0.5,
Wick,23/11/2016 04:00,2,5,,,0,,93,,220,Dry,1017,7,40,,,,1,
Wick,23/11/2016 05:00,1.2,6,,,0,,94,,280,Dry,1017,2,50,,,,0.4,
Wick,23/11/2016 06:00,1.1,5,0.6,,0,0,93,,230,Dry,1018,2,45,,,,0.2,
Wick,23/11/2016 07:00,1.3,6,,,0,,96,,220,Dry,1019,1,55,,,,0.8,
Wick,23/11/2016 08:00,1,9,,,0,,97,,260,Rain,1020,2,50,,,,0.6,
Wick,23/11/2016 09:00,1.4,6,,,0,,93,,230,Dry,1021,3,50,,,,0.5,
Wick,23/11/2016 10:00,1.4,6,,,0,,91,,230,Dry,1021,1,55,,,,0.2,
Wick,23/11/2016 11:00,1.7,7,,,0,,89,,250,Dry,1022,1,55,,,,0.2,
Wick,23/11/2016 12:00,3.4,7,,,0.2,0.2,86,,250,Dry,1022,1,60,,,,1.3,
Wick,23/11/2016 13:00,4.3,8,,,0,,84,,260,Dry,1023,1,55,,,,1.9,
Wick,23/11/2016 14:00,4.3,8,,,0,,84,,250,Dry,1023,1,65,,,,2,
Wick,23/11/2016 15:00,3.6,9,,,0,,83,,240,Dry,1023,1,50,,,,1.1,
Wick,23/11/2016 16:00,2.2,8,,,0,,86,,240,Dry,1024,1,45,,,,0.2,
Wick,23/11/2016 17:00,1.8,8,,,0,,86,,240,Dry,1024,0,55,,,,-0.2,
Wick,23/11/2016 18:00,2.3,8,,4.8,0,0,82,,220,Dry,1025,0,50,,,,-0.3,
Wick,23/11/2016 19:00,2.9,7,,,0,,81,,210,Dry,1026,0,55,,,,0.1,
Wick,23/11/2016 20:00,3.3,8,,,0,,81,,210,Dry,1026,0,55,,,,0.4,
Wick,23/11/2016 21:00,2.9,7,,,0,,82,,220,Dry,1027,0,50,,,,0.3,
Wick,23/11/2016 22:00,2.9,8,,,0,,83,,220,Dry,1027,0,50,,,,0.4,
Wick,23/11/2016 23:00,2.9,8,,,0,,84,,220,Dry,1027,0,55,,,,0.6,
Wick,24/11/2016 00:00,2.8,8,,,0,0,84,,230,Dry,1027,,55,,,,0.5,
Wick,24/11/2016 01:00,2.8,8,,,0,,87,,230,Dry,1027,0,55,,,,0.9,
Wick,24/11/2016 02:00,3.6,8,,,0,,83,,220,Dry,1027,0,50,,,,1.1,
Wick,24/11/2016 03:00,2.8,10,,,0,,87,,250,Dry,1027,0,50,,,,1,
Wick,24/11/2016 04:00,2.7,8,,,0,,87,,250,Dry,1028,0,10,,,,0.9,
Wick,24/11/2016 05:00,3,10,,,0,,84,,250,Dry,1028,0,45,,,,0.6,
Wick,24/11/2016 06:00,2.6,8,2,,0,0,86,,230,Dry,1028,0,45,,,,0.5,
Wick,24/11/2016 07:00,3.1,8,,,0,,86,,230,Dry,1028,1,50,,,,1,
Wick,24/11/2016 08:00,2.6,9,,,0,,84,,220,Dry,1028,0,45,,,,0.2,
Wick,24/11/2016 09:00,3.7,6,,,0,,81,,180,Dry,1028,1,50,,,,0.8,
Wick,24/11/2016 10:00,4.4,9,,,0,,79,,210,Dry,1028,1,50,,,,1.2,
Wick,24/11/2016 11:00,4.5,7,,,0,,83,,210,Dry,1028,0,50,,,,1.9,
Wick,24/11/2016 12:00,4.9,6,,,0,0,79,,200,Dry,1028,0,45,,,,1.6,
Wick,24/11/2016 13:00,5.9,5,,,0,,77,,210,Dry,1028,0,50,,,,2.2,
Wick,24/11/2016 14:00,5.3,9,,,0,,79,,230,Dry,1028,0,50,,,,2.1,
Wick,24/11/2016 15:00,5.6,5,,,0,,77,,190,Dry,1028,0,50,,,,2,
Wick,24/11/2016 16:00,4.8,5,,,0,,80,,170,Dry,1028,0,40,,,,1.8,
Wick,24/11/2016 17:00,4,7,,,0,,79,,240,Dry,1028,0,60,,,,0.8,
Wick,24/11/2016 18:00,3,7,,5.9,0,0,86,,230,Dry,1028,0,50,,,,0.9,
Wick,24/11/2016 19:00,3.5,8,,,0,,87,,250,Dry,1028,0,50,,,,1.6,
Wick,24/11/2016 20:00,3.5,3,,,0,,84,,220,Dry,1028,0,50,,,,1.2,
Wick,24/11/2016 21:00,4,5,,,0,,84,,190,Dry,1027,0,40,,,,1.7,
Wick,24/11/2016 22:00,3.9,6,,,0,,84,,220,Dry,1027,0,55,,,,1.6,
Wick,24/11/2016 23:00,4,6,,,0,,83,,190,Dry,1027,0,50,,,,1.4,
Wick,25/11/2016 00:00,2.3,7,,,0,0,89,,240,Dry,1026,0,50,,,,0.7,
Wick,25/11/2016 01:00,2.8,7,,,0,,90,,230,Dry,1026,0,65,,,,1.4,
Wick,25/11/2016 02:00,2.4,6,,,0,,89,,230,Dry,1026,0,55,,,,0.8,
Wick,25/11/2016 03:00,2.4,6,,,0,,89,,240,Dry,1025,0,55,,,,0.8,
Wick,25/11/2016 04:00,2.5,6,,,0,,87,,220,Dry,1025,,55,,,,0.6,
Wick,25/11/2016 05:00,2.7,7,,,0,,90,,220,Dry,1024,0,55,,,,1.3,
Wick,25/11/2016 06:00,2.9,8,2,,0,0,87,,240,Dry,1024,0,50,,,,1.1,
Wick,25/11/2016 07:00,4.3,7,,,0,,85,,210,Dry,1024,1,55,,,,2.1,
Wick,25/11/2016 08:00,3.8,5,,,0,,86,,210,Dry,1024,0,10,,,,1.8,
Wick,25/11/2016 09:00,4.7,7,,,0,,85,,200,Dry,1024,0,55,,,,2.5,
Wick,25/11/2016 10:00,4.6,5,,,0,,88,,190,Dry,1024,0,50,,,,2.9,
Wick,25/11/2016 11:00,5.6,7,,,0,,88,,210,Dry,1024,0,45,,,,3.9,
Wick,25/11/2016 12:00,7,7,,,0,0,85,,200,Dry,1024,4,45,,,,4.7,
Wick,25/11/2016 13:00,7.6,6,,,0,,83,,210,Dry,1023,4,50,,,,5,
Wick,25/11/2016 14:00,7.8,3,,,0,,84,,190,Dry,1023,4,55,,,,5.4,
Wick,25/11/2016 15:00,7.9,8,,,0,,84,,220,Dry,1023,1,55,,,,5.4,
Wick,25/11/2016 16:00,8,9,,,0,,86,,240,Dry,1023,7,50,,,,5.9,
Wick,25/11/2016 17:00,8.5,7,,,0,,87,,200,Dry,1022,8,45,,,,6.5,
Wick,25/11/2016 18:00,8.9,5,,8.9,0,0,86,,220,Dry,1022,7,50,,,,6.7,
Wick,25/11/2016 19:00,7.8,7,,,0,,88,,250,Dry,1022,8,45,,,,6,
Wick,25/11/2016 20:00,8.3,13,,,0,,91,,260,Dry,1022,2,50,,,,7,
Wick,25/11/2016 21:00,8.5,14,,,0,,91,,240,Dry,1022,1,45,,,,7.2,
Wick,25/11/2016 22:00,7.6,6,,,0,,93,,230,Dry,1022,2,45,,,,6.6,
Wick,25/11/2016 23:00,9.1,9,,,0,,90,,220,Dry,1022,8,50,,,,7.7,
Wick,26/11/2016 00:00,7.6,3,,,0,0,94,,200,Dry,1022,0,50,,,,6.8,
Wick,26/11/2016 01:00,7.5,2,,,0,,95,,270,Dry,1022,0,50,,,,6.8,
Wick,26/11/2016 02:00,8.3,8,,,0,,96,,250,Dry,1021,1,45,,,,7.8,
Wick,26/11/2016 03:00,8.7,15,,,0,,96,,270,Dry,1021,3,50,,,,8.2,
Wick,26/11/2016 04:00,9.9,18,,,0,,94,,280,Dry,1021,7,45,,,,9.1,
Wick,26/11/2016 05:00,9.5,16,,,0,,95,,280,Dry,1021,6,45,,,,8.8,
Wick,26/11/2016 06:00,9.3,16,7,,0,0,100,,290,Dry,1021,6,23,,,,9.3,
Wick,26/11/2016 07:00,9.4,17,,,0,,100,,290,Misty,1021,6,5,,,,9.4,
Wick,26/11/2016 08:00,9.1,17,,,0,,100,,290,Dry,1021,7,45,,,,9.1,
Wick,26/11/2016 09:00,8.8,16,,,0,,98,,300,Dry,1022,2,50,,,,8.6,
Wick,26/11/2016 10:00,9,13,,,0,,95,,320,Dry,1022,3,40,,,,8.3,
Wick,26/11/2016 11:00,8.6,14,,,0,,91,,330,Dry,1023,4,40,,,,7.3,
Wick,26/11/2016 12:00,8.9,15,,,0,0,89,,320,Dry,1023,1,29,,,,7.3,
Wick,26/11/2016 13:00,8,15,,,0,,88,,310,Dry,1022,6,35,,,,6.3,
Wick,26/11/2016 14:00,7.6,12,,,0,,87,,310,Dry,1023,5,40,,,,5.6,
Wick,26/11/2016 15:00,7.1,12,,,0,,85,,310,Dry,1023,7,30,,,,4.9,
Wick,26/11/2016 16:00,7.1,10,,,0,,84,,310,Dry,1023,8,27,,,,4.7,
Wick,26/11/2016 17:00,6.6,9,,,0,,85,,320,Dry,1024,8,26,,,,4.4,
Wick,26/11/2016 18:00,6.4,9,,9.4,0,0,85,,320,Dry,1024,8,26,,,,4.2,
Wick,26/11/2016 19:00,6.5,14,,,0,,76,,340,Dry,1025,7,30,,,,2.6,
Wick,26/11/2016 20:00,5.6,9,,,0,,87,,330,Dry,1025,8,27,,,,3.7,
Wick,26/11/2016 21:00,6,15,,,0,,78,,360,Dry,1026,8,35,,,,2.5,
Wick,26/11/2016 22:00,6.1,10,,,0,,79,,340,Dry,1026,8,35,,,,2.9,
Wick,26/11/2016 23:00,5.7,12,,,0,,84,,340,Dry,1027,7,45,,,,3.3,
Wick,27/11/2016 00:00,4.9,8,,,0,0,90,,300,Dry,1027,1,35,,,,3.4,
Wick,27/11/2016 01:00,4.2,7,,,0,,97,,310,Dry,1027,6,35,,,,3.8,
Wick,27/11/2016 02:00,4.8,8,,,0,,94,,300,Dry,1028,8,35,,,,4,
Wick,27/11/2016 03:00,5.3,7,,,0,,91,,310,Dry,1028,7,35,,,,4,
Wick,27/11/2016 04:00,5.6,7,,,0,,80,,320,Dry,1028,8,35,,,,2.5,
Wick,27/11/2016 05:00,4.8,6,,,0,,85,,310,Dry,1029,8,35,,,,2.6,
Wick,27/11/2016 06:00,4.5,6,3.1,,0,0,83,,340,Dry,1029,7,27,,,,2,
Wick,27/11/2016 07:00,6.2,5,,,0,,86,,360,Dry,1029,8,30,,,,4.2,
Wick,27/11/2016 08:00,3.7,5,,,0,,87,,270,Dry,1030,1,35,,,,1.8,
Wick,27/11/2016 09:00,3.2,3,,,0,,90,,250,Dry,1031,3,35,,,,1.8,
Wick,27/11/2016 10:00,4.2,3,,,0,,88,,250,Dry,1031,4,30,,,,2.5,
Wick,27/11/2016 11:00,7,9,,,0,,78,,80,Dry,1031,7,30,,,,3.5,
Wick,27/11/2016 12:00,8.4,12,,,0,0,68,,100,Dry,1031,6,28,,,,3,
Wick,27/11/2016 13:00,7.9,9,,,0,,68,,80,Dry,1031,7,30,,,,2.4,
Wick,27/11/2016 14:00,7.6,9,,,0,,63,,90,Dry,1031,8,30,,,,1.2,
Wick,27/11/2016 15:00,7,9,,,0,,66,,90,Dry,1032,8,30,,,,1.1,
Wick,27/11/2016 16:00,6,8,,,0,,67,,90,Dry,1032,6,30,,,,0.5,
Wick,27/11/2016 17:00,5.9,6,,,0,,67,,110,Dry,1032,5,30,,,,0.4,
Wick,27/11/2016 18:00,7.3,8,,8.4,0,0,63,,140,Dry,1032,8,35,,,,0.9,
Wick,27/11/2016 19:00,6.9,9,,,0,,62,,110,Dry,1033,8,35,,,,0.3,
Wick,27/11/2016 20:00,6.1,8,,,0,,63,,110,Dry,1033,7,35,,,,-0.3,
Wick,27/11/2016 21:00,6.6,8,,,0,,61,,120,Dry,1033,3,35,,,,-0.3,
Wick,27/11/2016 22:00,6.6,6,,,0,,63,,120,Dry,1033,7,35,,,,0.2,
Wick,27/11/2016 23:00,7,7,,,0,,63,,120,Dry,1033,8,35,,,,0.5,
Wick,28/11/2016 00:00,7.3,7,,,0,0,61,,160,Dry,1033,8,40,,,,0.4,
Wick,28/11/2016 01:00,7.3,7,,,0,,60,,160,Dry,1033,8,10,,,,0.1,
Wick,28/11/2016 02:00,7.3,7,,,0,,61,,160,Dry,1032,8,35,,,,0.4,
Wick,28/11/2016 03:00,7.1,7,,,0,,64,,170,Dry,1032,7,40,,,,0.8,
Wick,28/11/2016 04:00,5.2,6,,,0,,70,,190,Dry,1032,7,35,,,,0.2,
Wick,28/11/2016 05:00,4.2,3,,,0,,73,,200,Dry,1032,7,35,,,,-0.2,
Wick,28/11/2016 06:00,4.8,7,4.1,,0,0,70,,200,Dry,1032,8,35,,,,-0.1,
Wick,28/11/2016 07:00,4.8,6,,,0,,73,,190,Dry,1032,8,35,,,,0.4,
Wick,28/11/2016 08:00,4.8,7,,,0,,71,,210,Dry,1032,7,40,,,,0,
Wick,28/11/2016 09:00,4.2,7,,,0,,78,,210,Dry,1033,7,40,,,,0.8,
Wick,28/11/2016 10:00,3.9,6,,,0,,82,,200,Dry,1033,2,30,,,,1.2,
Wick,28/11/2016 11:00,5,9,,,0,,79,,180,Dry,1032,1,35,,,,1.8,
Wick,28/11/2016 12:00,5.6,10,,,0,0,78,,190,Dry,1032,1,35,,,,2.2,
Wick,28/11/2016 13:00,5.3,12,,,0,,75,,190,Dry,1032,1,35,,,,1.4,
Wick,28/11/2016 14:00,5,10,,,0,,76,,190,Dry,1032,1,35,,,,1.3,
Wick,28/11/2016 15:00,4.2,10,,,0,,81,,190,Dry,1031,0,30,,,,1.3,
Wick,28/11/2016 16:00,3.3,5,,,0,,84,,220,Dry,1031,0,35,,,,1,
Wick,28/11/2016 17:00,3.1,9,,,0,,85,,210,Dry,1031,0,35,,,,0.9,
Wick,28/11/2016 18:00,2.9,8,,5.8,0,0,78,,210,Dry,1031,0,35,,,,-0.4,
Wick,28/11/2016 19:00,2.2,6,,,0,,83,,220,Dry,1030,0,35,,,,-0.3,
Wick,28/11/2016 20:00,1.6,6,,,0,,82,,230,Dry,1030,0,45,,,,-1,
Wick,28/11/2016 21:00,1.5,6,,,0,,82,,220,Dry,1030,0,40,,,,-1.1,
Wick,28/11/2016 22:00,2.9,8,,,0,,75,,220,Dry,1030,2,40,,,,-1,
Wick,28/11/2016 23:00,2.5,3,,,0,,75,,220,Dry,1029,4,45,,,,-1.3,
Wick,29/11/2016 00:00,3.4,15,,,0,0,74,,210,Dry,1029,1,40,,,,-0.7,
Wick,29/11/2016 01:00,3.1,14,,,0,,75,,210,Dry,1028,1,45,,,,-0.8,
Wick,29/11/2016 02:00,3.4,17,,,0,,78,,210,Dry,1028,1,45,,,,0,
Wick,29/11/2016 03:00,4,15,,,0,,83,,200,Dry,1027,7,35,,,,1.5,
Wick,29/11/2016 04:00,4.5,15,,,0,,83,,210,Dry,1026,8,40,,,,1.9,
Wick,29/11/2016 05:00,4.3,15,,,0,,84,,210,Dry,1026,4,40,,,,1.9,
Wick,29/11/2016 06:00,4,10,0.8,,0,0,80,,210,Dry,1025,0,35,,,,1,
Wick,29/11/2016 07:00,4.6,13,,,0,,80,,200,Dry,1025,1,35,,,,1.5,
Wick,29/11/2016 08:00,5.2,18,,,0,,77,,220,Dry,1024,1,40,,,,1.6,
Wick,29/11/2016 09:00,5.8,16,,,0,,79,,220,Dry,1025,1,40,,,,2.6,
Wick,29/11/2016 10:00,6.7,18,,,0,,87,,250,Dry,1025,5,23,,,,4.7,
Wick,29/11/2016 11:00,6.8,14,,,0,,94,,250,Drizzle,1025,3,30,,,,6,
Wick,29/11/2016 12:00,6.9,13,,,0.2,0.2,92,,270,Dry,1025,1,24,,,,5.8,
Wick,29/11/2016 13:00,7.1,13,,,0,,87,,260,Dry,1025,5,35,,,,5.2,
Wick,29/11/2016 14:00,6.4,14,,,0,,85,,250,Dry,1025,3,35,,,,4.1,
Wick,29/11/2016 15:00,5.6,16,,,0,,83,,260,Dry,1025,1,40,,,,3.1,
Wick,29/11/2016 16:00,5.2,13,,,0,,87,,260,Dry,1025,1,35,,,,3.3,
Wick,29/11/2016 17:00,5.5,18,,,0,,87,,260,Light shower,1025,1,35,,,,3.6,
Wick,29/11/2016 18:00,5.3,13,,7.7,0,0,90,,240,Light shower,1026,3,30,,,,3.9,
Wick,29/11/2016 19:00,5.3,13,,,0,,90,,260,Rain,1026,3,35,,,,3.9,
Wick,29/11/2016 20:00,5,13,,,0,,90,,250,Rain,1026,5,35,,,,3.5,
Wick,29/11/2016 21:00,5.4,15,,,0,,91,,260,Rain,1026,1,35,,,,4.1,
Wick,29/11/2016 22:00,5.3,15,,,0.2,,90,,250,Rain,1026,3,35,,,,3.8,
Wick,29/11/2016 23:00,5,13,,,0,,91,,260,Dry,1026,2,35,,,,3.7,
Wick,30/11/2016 00:00,5.6,13,,,0,0.2,87,,250,Rain,1026,3,35,,,,3.7,
Wick,30/11/2016 01:00,5.8,15,,,0,,88,,260,Light shower,1025,3,30,,,,4,
Wick,30/11/2016 02:00,6.5,15,,,0,,82,,250,Rain,1025,7,30,,,,3.8,
Wick,30/11/2016 03:00,5.9,14,,,0,,91,,240,Rain,1025,2,28,,,,4.6,
Wick,30/11/2016 04:00,6.3,15,,,0.2,,88,,250,Light shower,1024,7,30,,,,4.6,
Wick,30/11/2016 05:00,6.4,14,,,0,,87,,250,Rain,1024,2,45,,,,4.5,
Wick,30/11/2016 06:00,6.6,14,4.1,,0,0.2,87,,240,Dry,1023,7,40,,,,4.7,
Wick,30/11/2016 07:00,7.4,13,,,0,,84,,250,Dry,1023,7,30,,,,4.9,
Wick,30/11/2016 08:00,7.9,17,,,0,,82,31,260,Dry,1023,6,35,,,,5.1,
Wick,30/11/2016 09:00,7.9,21,,,0,,84,33,270,Dry,1023,5,35,,,,5.4,
Wick,30/11/2016 10:00,8.4,23,,,0,,84,32,260,Dry,1023,7,30,,,,5.9,
Wick,30/11/2016 11:00,8.6,25,,,0,,84,39,270,Dry,1023,1,30,,,,6.2,
Wick,30/11/2016 12:00,9,24,,,0,0,83,32,270,Dry,1022,7,29,,,,6.4,
Wick,30/11/2016 13:00,9,23,,,0,,83,38,270,Dry,1022,8,28,,,,6.3,
Wick,30/11/2016 14:00,8.9,22,,,0,,82,30,270,Dry,1022,2,27,,,,6.1,
Wick,30/11/2016 15:00,8.5,22,,,0,,87,31,260,Dry,1022,2,20,,,,6.5,
Wick,30/11/2016 16:00,8.6,20,,,0,,81,30,260,Dry,1022,7,30,,,,5.7,
Wick,30/11/2016 17:00,8.8,21,,,0,,79,32,250,Dry,1023,7,28,,,,5.5,
Wick,30/11/2016 18:00,8.5,21,,9.2,0,0,81,32,260,Dry,1023,1,30,,,,5.6,
Wick,30/11/2016 19:00,8.4,21,,,0,,83,33,270,Dry,1023,2,28,,,,5.7,
Wick,30/11/2016 20:00,7.9,23,,,0,,88,39,270,Haze,1023,7,9,,,,6.1,
Wick,30/11/2016 21:00,8.3,20,,,0,,83,32,260,Dry,1023,1,30,,,,5.7,
Wick,30/11/2016 22:00,8.2,17,,,0,,85,36,260,Dry,1023,6,30,,,,5.9,
Wick,30/11/2016 23:00,8.7,17,,,0,,83,30,260,Dry,1023,1,30,,,,6.1,
Wick,01/12/2016 00:00,8.3,24,,,0,0,94,38,280,Haze,1023,1,4,,,,7.5,
Wick,01/12/2016 01:00,8.2,21,,,0,,88,37,270,Drizzle,1022,2,29,,,,6.4,
Wick,01/12/2016 02:00,8.2,17,,,0,,88,31,270,Dry,1022,2,35,,,,6.4,
Wick,01/12/2016 03:00,8.3,22,,,0,,89,31,270,Rain,1022,1,30,,,,6.7,
Wick,01/12/2016 04:00,8.5,23,,,0,,96,37,280,Misty,1022,1,9,,,,7.9,
Wick,01/12/2016 05:00,8.7,21,,,0.2,,92,32,270,Dry,1021,1,30,,,,7.6,
Wick,01/12/2016 06:00,8.5,24,7.6,,0.2,0.4,97,35,280,Drizzly rain,1022,3,4,,,,8.2,
Wick,01/12/2016 07:00,8.4,0,,,0,,94,,0,Rain,1022,1,21,,,,7.6,
Wick,01/12/2016 08:00,8.5,0,,,0.2,,94,,0,Rain,1022,5,24,,,,7.7,
Wick,01/12/2016 09:00,8.1,0,,,0.2,,95,,0,Drizzle,1022,1,30,,,,7.4,
Wick,01/12/2016 10:00,8.4,0,,,0,,91,,0,Dry,1022,2,12,,,,7.1,
Wick,01/12/2016 11:00,8.4,0,,,0,,91,,0,Dry,1023,1,21,,,,7.1,
Wick,01/12/2016 12:00,9.2,0,,,0,0.4,85,,0,Dry,1023,1,,,,,6.9,
Wick,01/12/2016 13:00,8.6,0,,,0,,92,,0,Dry,1022,2,4,,,,7.4,
Wick,01/12/2016 14:00,8.4,0,,,0,,92,,0,Dry,1023,2,35,,,,7.2,
Wick,01/12/2016 15:00,9,0,,,0.2,,92,,0,Rain,1022,3,10,,,,7.8,
Wick,01/12/2016 16:00,8.8,20,,,0,,86,35,290,Dry,1023,7,30,,,,6.7,
Wick,01/12/2016 17:00,8.5,16,,,0,,89,,280,Dry,1023,2,29,,,,6.8,
Wick,01/12/2016 18:00,8.1,17,,9.6,0,0.2,87,30,290,Rain,1024,7,30,,,,6.2,
Wick,01/12/2016 19:00,8.2,21,,,0,,94,29,300,Light shower,1024,2,21,,,,7.4,
Wick,01/12/2016 20:00,8,16,,,0,,95,,290,Rain,1024,7,30,,,,7.3,
Wick,01/12/2016 21:00,8.2,13,,,0.2,,97,,300,Drizzle,1024,1,24,,,,7.9,
Wick,01/12/2016 22:00,7.8,14,,,0,,96,,280,Dry,1024,7,24,,,,7.3,
Wick,01/12/2016 23:00,7.9,14,,,0.2,,95,,290,Dry,1025,1,25,,,,7.2,
Wick,02/12/2016 00:00,8.2,16,,,0.6,1,99,,320,Moderate shower,1025,3,4,,,,8.1,
Wick,02/12/2016 01:00,7.6,8,,,0.6,,98,,350,Rain,1026,4,40,,,,7.4,
Wick,02/12/2016 02:00,7.4,8,,,0,,96,,10,Dry,1026,5,40,,,,6.9,
Wick,02/12/2016 03:00,7.1,3,,,0,,96,,10,Dry,1026,8,10,,,,6.6,
Wick,02/12/2016 04:00,6.7,1,,,0,,95,,280,Dry,1026,8,55,,,,6.1,
Wick,02/12/2016 05:00,6.5,2,,,0,,97,,260,Dry,1026,6,50,,,,6.2,
Wick,02/12/2016 06:00,6.4,3,6.4,,0,1,97,,250,Dry,1027,4,55,,,,6.1,
Wick,02/12/2016 07:00,6.4,2,,,0,,97,,280,Dry,1027,8,40,,,,6.1,
Wick,02/12/2016 08:00,6.2,1,,,0,,97,,360,Rain,1027,6,10,,,,5.9,
Wick,02/12/2016 09:00,6.4,1,,,0,,98,,160,Dry,1028,5,16,,,,6.2,
Wick,02/12/2016 10:00,6.4,3,,,0,,100,,190,Dry,1028,2,28,,,,6.4,
Wick,02/12/2016 11:00,7,1,,,0,,97,,220,Dry,1028,2,40,,,,6.7,
Wick,02/12/2016 12:00,7.2,3,,,0,0,97,,200,Dry,1028,2,40,,,,6.8,
Wick,02/12/2016 13:00,7.4,2,,,0,,96,,180,Dry,1028,2,30,,,,6.9,
Wick,02/12/2016 14:00,7.5,6,,,0,,97,,210,Dry,1027,1,45,,,,7.1,
Wick,02/12/2016 15:00,7.4,3,,,0,,98,,160,Dry,1027,7,10,,,,7.2,
Wick,02/12/2016 16:00,6.9,5,,,0,,99,,210,Dry,1027,3,18,,,,6.8,
Wick,02/12/2016 17:00,7,5,,,0,,98,,200,Dry,1027,7,35,,,,6.8,
Wick,02/12/2016 18:00,6.2,3,,7.6,0,0,97,,200,Dry,1027,8,40,,,,5.9,
Wick,02/12/2016 19:00,5.7,5,,,0,,95,,250,Dry,1027,1,50,,,,5.1,
Wick,02/12/2016 20:00,5.9,7,,,0,,95,,250,Dry,1027,8,40,,,,5.2,
Wick,02/12/2016 21:00,5.6,5,,,0,,96,,260,Dry,1027,8,40,,,,5.1,
Wick,02/12/2016 22:00,5.4,6,,,0,,97,,270,Dry,1027,8,40,,,,5.1,
Wick,02/12/2016 23:00,5.7,5,,,0,,97,,270,Dry,1027,8,40,,,,5.3,
Wick,03/12/2016 00:00,5.6,3,,,0,0,95,,240,Dry,1027,8,40,,,,5,
Wick,03/12/2016 01:00,5.7,3,,,0,,95,,240,Dry,1026,8,40,,,,5.1,
Wick,03/12/2016 02:00,5.8,3,,,0,,93,,260,Dry,1026,8,45,,,,4.9,
Wick,03/12/2016 03:00,5.8,2,,,0,,93,,250,Dry,1026,8,45,,,,4.8,
Wick,03/12/2016 04:00,6.2,5,,,0,,92,,210,Dry,1026,8,45,,,,5,
Wick,03/12/2016 05:00,5.3,3,,,0,,93,,240,Dry,1026,8,45,,,,4.3,
Wick,03/12/2016 06:00,5.9,5,5.2,,0,0,84,,240,Dry,1025,8,55,,,,3.5,
Wick,03/12/2016 07:00,4.2,2,,,0,,93,,270,Dry,1025,8,10,,,,3.2,
Wick,03/12/2016 08:00,4.9,5,,,0,,90,,220,Dry,1025,8,45,,,,3.4,
Wick,03/12/2016 09:00,5,5,,,0,,90,,240,Dry,1026,8,50,,,,3.5,
Wick,03/12/2016 10:00,5.1,5,,,0,,88,,230,Dry,1026,8,50,,,,3.3,
Wick,03/12/2016 11:00,5.8,3,,,0,,81,,240,Dry,1026,8,50,,,,2.9,
Wick,03/12/2016 12:00,7.1,2,,,0,0,73,,170,Dry,1026,8,75,,,,2.6,
Wick,03/12/2016 13:00,6.4,2,,,0,,81,,270,Dry,1025,7,60,,,,3.5,
Wick,03/12/2016 14:00,6.9,3,,,0,,87,,270,Dry,1025,7,65,,,,4.9,
Wick,03/12/2016 15:00,5.7,3,,,0,,78,,240,Dry,1025,5,50,,,,2.2,
Wick,03/12/2016 16:00,5.2,5,,,0,,80,,240,Dry,1025,7,55,,,,2.1,
Wick,03/12/2016 17:00,3.6,7,,,0,,87,,260,Dry,1026,1,10,,,,1.7,
Wick,03/12/2016 18:00,3.5,6,,7.7,0,0,90,,260,Dry,1026,1,55,,,,2.1,
Wick,03/12/2016 19:00,3.7,6,,,0,,90,,260,Dry,1026,7,55,,,,2.3,
Wick,03/12/2016 20:00,4.8,7,,,0,,88,,260,Dry,1026,8,50,,,,3,
Wick,03/12/2016 21:00,3.7,7,,,0,,91,,250,Dry,1026,2,50,,,,2.5,
Wick,03/12/2016 22:00,4.3,6,,,0,,88,,250,Dry,1026,6,50,,,,2.6,
Wick,03/12/2016 23:00,5.2,6,,,0,,84,,230,Dry,1026,8,55,,,,2.8,
Wick,04/12/2016 00:00,5.2,6,,,0,0,84,,230,Dry,1026,8,50,,,,2.8,
Wick,04/12/2016 01:00,5.8,5,,,0,,79,,240,Dry,1026,8,55,,,,2.6,
Wick,04/12/2016 02:00,6,5,,,0,,79,,230,Dry,1026,8,55,,,,2.7,
Wick,04/12/2016 03:00,5.3,0,,,0,,83,,0,Dry,1026,8,50,,,,2.7,
Wick,04/12/2016 04:00,5.1,0,,,0,,82,,0,Dry,1026,8,55,,,,2.3,
Wick,04/12/2016 05:00,6.2,0,,,0,,69,,0,Dry,1026,8,50,,,,1.1,
Wick,04/12/2016 06:00,6.1,0,3.3,,0,0,67,,0,Dry,1026,8,50,,,,0.5,
Wick,04/12/2016 07:00,5.5,0,,,0,,71,,0,Dry,1027,8,50,,,,0.7,
Wick,04/12/2016 08:00,5.7,0,,,0,,76,,0,Dry,1027,7,45,,,,1.9,
Wick,04/12/2016 09:00,3.6,0,,,0,,77,,0,Dry,1027,7,55,,,,0.1,
Wick,04/12/2016 10:00,4.5,0,,,0,,79,,0,Dry,1027,3,45,,,,1.2,
Wick,04/12/2016 11:00,5.5,0,,,0,,69,,0,Dry,1027,0,50,,,,0.3,
Wick,04/12/2016 12:00,5.6,0,,,0,0,73,,0,Dry,1027,0,45,,,,1.3,
Wick,04/12/2016 13:00,6.9,0,,,0,,66,,0,Dry,1027,0,45,,,,1.1,
Wick,04/12/2016 14:00,6.4,0,,,0,,69,,0,Dry,1026,0,60,,,,1.2,
Wick,04/12/2016 15:00,5,0,,,0,,75,,0,Dry,1026,1,45,,,,1.1,
Wick,04/12/2016 16:00,3.5,0,,,0,,83,,0,Dry,1026,7,45,,,,0.9,
Wick,04/12/2016 17:00,3.1,0,,,0,,83,,0,Dry,1026,8,55,,,,0.6,
Wick,04/12/2016 18:00,3.6,0,,6.9,0,0,83,,0,Dry,1026,8,10,,,,1.1,
Wick,04/12/2016 19:00,3.8,0,,,0,,83,,0,Dry,1027,8,45,,,,1.3,
Wick,04/12/2016 20:00,2.6,0,,,0,,89,,0,Dry,1027,8,50,,,,1.1,
Wick,04/12/2016 21:00,2.1,6,,,0,,89,,260,Dry,1027,2,45,,,,0.5,
Wick,04/12/2016 22:00,0.8,,,,0,,90,,,Dry,1026,,50,,,,-0.5,
Wick,04/12/2016 23:00,0.1,7,,,0,,92,,260,Dry,1026,0,55,,,,-0.9,
Wick,05/12/2016 00:00,-0.3,8,,,0,0,94,,270,Dry,1026,0,55,,,,-1.1,
Wick,05/12/2016 01:00,-1.2,7,,,0,,92,,260,Dry,1026,0,60,,,,-2.3,
Wick,05/12/2016 02:00,-0.7,7,,,0,,91,,270,Dry,1026,0,55,,,,-1.9,
Wick,05/12/2016 03:00,-1.3,7,,,0,,92,,260,Dry,1026,0,50,,,,-2.4,
Wick,05/12/2016 04:00,-1.5,7,,,0,,94,,260,Dry,1026,0,10,,,,-2.3,
Wick,05/12/2016 05:00,-1.4,6,,,0,,94,,250,Dry,1025,0,50,,,,-2.1,
Wick,05/12/2016 06:00,-1.6,7,-2.2,,0,0,95,,240,Dry,1025,0,45,,,,-2.2,
Wick,05/12/2016 07:00,-1.9,7,,,0,,95,,260,Dry,1026,0,45,,,,-2.5,
Wick,05/12/2016 08:00,-2.3,7,,,0,,96,,260,Dry,1026,0,40,,,,-2.8,
Wick,05/12/2016 09:00,-2,6,,,0,,97,,270,Dry,1026,1,35,,,,-2.4,
Wick,05/12/2016 10:00,-2.5,6,,,0,,95,,240,Dry,1026,1,30,,,,-3.1,
Wick,05/12/2016 11:00,-0.5,5,,,0,,96,,270,Dry,1026,0,30,,,,-1,
Wick,05/12/2016 12:00,-0.2,3,,,0,0,97,,260,Dry,1026,0,29,,,,-0.5,
Wick,05/12/2016 13:00,1.4,2,,,0,,95,,260,Dry,1026,1,30,,,,0.7,
Wick,05/12/2016 14:00,1.9,2,,,0,,91,,270,Dry,1025,1,27,,,,0.6,
Wick,05/12/2016 15:00,1.3,2,,,0,,95,,300,Dry,1025,1,29,,,,0.6,
Wick,05/12/2016 16:00,0.4,3,,,0,,95,,250,Dry,1025,1,14,,,,-0.2,
Wick,05/12/2016 17:00,0.2,3,,,0,,98,,250,Misty,1025,1,11,,,,0,
Wick,05/12/2016 18:00,-1.2,3,,2,0,0,99,,240,Thickening fog,1025,1,1,,,,-1.3,
Wick,05/12/2016 19:00,-1.1,1,,,0,,100,,190,Fog,1025,1,6,,,,-1.1,
Wick,05/12/2016 20:00,0.8,5,,,0,,100,,150,Dry,1024,2,27,,,,0.8,
Wick,05/12/2016 21:00,5.1,10,,,0,,85,,150,Dry,1024,1,40,,,,2.9,
Wick,05/12/2016 22:00,6.2,10,,,0.2,,82,,150,Dry,1024,7,40,,,,3.4,
Wick,05/12/2016 23:00,6.3,16,,,0,,81,,150,Dry,1023,5,35,,,,3.3,
Wick,06/12/2016 00:00,6.3,18,,,0,0.2,79,31,150,Dry,1023,1,35,,,,3.1,
Wick,06/12/2016 01:00,6.5,17,,,0,,81,30,150,Dry,1023,4,35,,,,3.5,
Wick,06/12/2016 02:00,6.8,17,,,0,,80,,150,Dry,1023,4,35,,,,3.6,
Wick,06/12/2016 03:00,6.7,18,,,0,,78,31,150,Dry,1023,7,35,,,,3.3,
Wick,06/12/2016 04:00,6,15,,,0,,79,,160,Dry,1023,4,35,,,,2.7,
Wick,06/12/2016 05:00,6,15,,,0,,79,,160,Dry,1022,1,35,,,,2.8,
Wick,06/12/2016 06:00,6.2,12,-2.7,,0,0,82,,160,Dry,1022,3,35,,,,3.4,
Wick,06/12/2016 07:00,6.2,9,,,0,,85,,170,Dry,1022,2,30,,,,3.9,
Wick,06/12/2016 08:00,6.8,18,,,0,,87,,150,Dry,1021,5,22,,,,4.8,
Wick,06/12/2016 09:00,7,22,,,0,,86,30,160,Dry,1021,7,18,,,,4.9,
Wick,06/12/2016 10:00,7,20,,,0,,88,31,150,Dry,1020,7,15,,,,5.3,
Wick,06/12/2016 11:00,7.1,15,,,0,,89,30,150,Dry,1020,7,13,,,,5.5,
Wick,06/12/2016 12:00,7.1,15,,,0,0,89,,160,Dry,1019,4,12,,,,5.5,
Wick,06/12/2016 13:00,6.8,13,,,0,,90,,170,Dry,1018,3,10,,,,5.3,
Wick,06/12/2016 14:00,6.8,13,,,0,,90,,170,Dry,1018,1,10,,,,5.3,
Wick,06/12/2016 15:00,7.2,13,,,0,,92,,170,Light shower,1017,8,13,,,,6,
Wick,06/12/2016 16:00,7.9,14,,,0,,88,,160,Rain,1016,8,21,,,,6.2,
Wick,06/12/2016 17:00,8.6,17,,,0.2,,89,,160,Rain,1016,8,16,,,,7,
Wick,06/12/2016 18:00,8.7,16,,8.7,0,0.2,92,,160,Rain,1015,8,13,,,,7.6,
Wick,06/12/2016 19:00,8.7,17,,,0.4,,95,,160,Light rain,1014,8,8,,,,8,
Wick,06/12/2016 20:00,8.9,20,,,1.8,,98,33,160,Moderate rain,1013,2,6,,,,8.7,
Wick,06/12/2016 21:00,8.9,21,,,3.4,,98,31,160,Moderate rain,1012,2,7,,,,8.7,
Wick,06/12/2016 22:00,9,15,,,2.4,,98,29,150,Light rain,1011,4,11,,,,8.8,
Wick,06/12/2016 23:00,9.3,17,,,1.2,,97,,160,Light rain,1011,1,14,,,,8.9,
Wick,07/12/2016 00:00,9.7,15,,,0.4,10,94,,160,Drizzly rain,1010,8,30,,,,8.9,
Wick,07/12/2016 01:00,9.9,15,,,0,,92,,160,Rain,1009,7,30,,,,8.7,
Wick,07/12/2016 02:00,10.2,14,,,0.2,,89,,170,Dry,1009,7,40,,,,8.5,
Wick,07/12/2016 03:00,10,15,,,0,,90,,170,Dry,1009,8,35,,,,8.6,
Wick,07/12/2016 04:00,10.3,13,,,0,,91,,170,Rain,1008,8,35,,,,9,
Wick,07/12/2016 05:00,10.5,10,,,0,,93,,170,Dry,1008,7,35,,,,9.5,
Wick,07/12/2016 06:00,11.4,8,8.6,,0,0,91,,190,Rain,1007,0,45,,,,10,
Wick,07/12/2016 07:00,11.6,7,,,0,,90,,200,Rain,1007,0,50,,,,10.1,
Wick,07/12/2016 08:00,11.8,14,,,0.2,,92,,190,Light shower,1007,8,28,,,,10.7,
Wick,07/12/2016 09:00,12.3,18,,,0,,92,,200,Rain,1006,1,40,,,,11.2,
Wick,07/12/2016 10:00,12.9,18,,,0,,88,30,210,Dry,1006,2,40,,,,11.1,
Wick,07/12/2016 11:00,12.8,20,,,0,,87,,190,Dry,1005,1,50,,,,10.8,
Wick,07/12/2016 12:00,13,21,,,0,0.2,85,,190,Dry,1004,1,35,,,,10.6,
Wick,07/12/2016 13:00,13.2,13,,,0,,82,29,170,Dry,1004,1,35,,,,10.3,
Wick,07/12/2016 14:00,13.1,12,,,0,,84,,160,Dry,1004,3,35,,,,10.6,
Wick,07/12/2016 15:00,11.8,9,,,0,,89,,140,Dry,1003,1,35,,,,10.1,
Wick,07/12/2016 16:00,12,14,,,0,,91,,170,Dry,1002,7,30,,,,10.6,
Wick,07/12/2016 17:00,12.6,16,,,0,,87,,180,Dry,1002,5,35,,,,10.6,
Wick,07/12/2016 18:00,11.8,20,,13.7,0,0,89,,180,Dry,1002,1,35,,,,10.1,
Wick,07/12/2016 19:00,14,28,,,0,,78,38,230,Dry,1001,1,55,,,,10.3,
Wick,07/12/2016 20:00,12.9,32,,,0,,83,38,240,Dry,1002,0,55,,,,10.1,
Wick,07/12/2016 21:00,12.5,25,,,0,,84,47,250,Dry,1004,0,60,,,,9.9,
Wick,07/12/2016 22:00,11.6,21,,,0,,84,36,240,Dry,1005,1,50,,,,9,
Wick,07/12/2016 23:00,11.6,24,,,0,,81,43,250,Dry,1006,0,50,,,,8.6,
Wick,08/12/2016 00:00,11.7,25,,,0,0,79,37,240,Dry,1007,0,35,,,,8.3,
Wick,08/12/2016 01:00,10.8,14,,,0,,82,33,240,Dry,1008,2,30,,,,7.9,
Wick,08/12/2016 02:00,11.1,21,,,0,,82,35,240,Dry,1009,5,29,,,,8.2,
Wick,08/12/2016 03:00,10.7,21,,,0,,81,31,240,Dry,1009,1,30,,,,7.6,
Wick,08/12/2016 04:00,10.5,16,,,0,,79,,240,Dry,1010,0,29,,,,7.1,
Wick,08/12/2016 05:00,10,5,,,0,,79,,220,Dry,1010,0,29,,,,6.7,
Wick,08/12/2016 06:00,9.4,8,9.4,,0,0,75,,220,Dry,1010,0,30,,,,5.3,
Wick,08/12/2016 07:00,9.8,14,,,0,,78,,190,Dry,1010,2,30,,,,6.2,
Wick,08/12/2016 08:00,9.5,8,,,0,,81,,140,Dry,1012,6,25,,,,6.5,
Wick,08/12/2016 09:00,10.8,12,,,0,,74,,210,Dry,1013,1,30,,,,6.5,
Wick,08/12/2016 10:00,10.3,15,,,0,,83,,200,Dry,1013,7,26,,,,7.6,
Wick,08/12/2016 11:00,10.3,14,,,0,,84,,200,Dry,1014,7,26,,,,7.8,
Wick,08/12/2016 12:00,10.6,12,,,0,0,81,,200,Dry,1014,5,30,,,,7.5,
Wick,08/12/2016 13:00,10.5,12,,,0,,78,,200,Dry,1014,1,30,,,,7,
Wick,08/12/2016 14:00,10.7,16,,,0,,74,,240,Dry,1014,1,30,,,,6.3,
Wick,08/12/2016 15:00,10.2,13,,,0,,77,,220,Dry,1014,1,29,,,,6.5,
Wick,08/12/2016 16:00,8.6,3,,,0,,81,,140,Dry,1014,0,28,,,,5.7,
Wick,08/12/2016 17:00,9.2,5,,,0,,80,,210,Dry,1015,0,27,,,,6,
Wick,08/12/2016 18:00,8.8,3,,11.6,0,0,81,,170,Dry,1015,,27,,,,5.9,
Wick,08/12/2016 19:00,9,7,,,0,,80,,230,Dry,1016,0,30,,,,5.9,
Wick,08/12/2016 20:00,9.6,16,,,0,,78,,240,Dry,1015,0,30,,,,6.1,
Wick,08/12/2016 21:00,9.8,21,,,0,,78,31,240,Dry,1015,0,30,,,,6.2,
Wick,08/12/2016 22:00,9.7,13,,,0,,77,,210,Dry,1016,0,35,,,,6,
Wick,08/12/2016 23:00,7.7,12,,,0,,85,,230,Dry,1016,0,30,,,,5.4,
Wick,09/12/2016 00:00,8.5,8,,,0,0,83,,190,Dry,1016,0,30,,,,5.8,
Wick,09/12/2016 01:00,8.2,8,,,0,,83,,180,Dry,1015,0,30,,,,5.6,
Wick,09/12/2016 02:00,7.4,3,,,0,,88,,150,Dry,1015,0,30,,,,5.6,
Wick,09/12/2016 03:00,7.9,6,,,0,,87,,180,Dry,1015,0,30,,,,6,
Wick,09/12/2016 04:00,7.5,2,,,0,,88,,150,Dry,1014,0,30,,,,5.7,
Wick,09/12/2016 05:00,8.4,6,,,0,,91,,160,Dry,1012,0,30,,,,7.1,
Wick,09/12/2016 06:00,8.8,10,7.2,,0,0,83,,150,Dry,1011,0,30,,,,6.2,
Wick,09/12/2016 07:00,9.2,10,,,0,,80,,160,Dry,1011,0,35,,,,6.1,
Wick,09/12/2016 08:00,8.6,8,,,2.2,,93,,140,Moderate shower,1010,1,8,,,,7.6,
Wick,09/12/2016 09:00,9,9,,,0.2,,87,,150,Rain,1010,7,35,,,,7.1,
Wick,09/12/2016 10:00,9,6,,,0,,92,,170,Dry,1009,7,30,,,,7.9,
Wick,09/12/2016 11:00,9.2,9,,,0,,94,,180,Dry,1009,1,30,,,,8.3,
Wick,09/12/2016 12:00,9.5,2,,,0,2,90,,120,Dry,1009,1,40,,,,8.1,
Wick,09/12/2016 13:00,11.1,13,,,0,,88,,210,Dry,1009,1,45,,,,9.2,
Wick,09/12/2016 14:00,10.6,10,,,0,,90,,180,Dry,1008,1,45,,,,9.1,
Wick,09/12/2016 15:00,10.9,16,,,0,,88,,190,Dry,1008,1,35,,,,9.1,
Wick,09/12/2016 16:00,10.5,12,,,0,,89,,170,Dry,1008,1,35,,,,8.9,
Wick,09/12/2016 17:00,10.6,13,,,0,,88,,180,Dry,1008,3,35,,,,8.8,
Wick,09/12/2016 18:00,10.2,8,,11.3,0,0,89,,170,Dry,1007,1,30,,,,8.6,
Wick,09/12/2016 19:00,10.8,15,,,0,,86,,190,Dry,1007,6,30,,,,8.6,
Wick,09/12/2016 20:00,10.1,12,,,0.2,,89,,190,Rain,1007,8,29,,,,8.4,
Wick,09/12/2016 21:00,9.9,13,,,0,,87,,180,Dry,1007,1,29,,,,8,
Wick,09/12/2016 22:00,10.1,13,,,0,,86,,200,Drizzly rain,1007,7,27,,,,7.9,
Wick,09/12/2016 23:00,9.8,9,,,0,,86,,180,Rain,1007,6,29,,,,7.6,
Wick,10/12/2016 00:00,9.5,12,,,0,0.2,87,,170,Dry,1007,1,27,,,,7.6,
Wick,10/12/2016 01:00,9.3,16,,,0,,78,,200,Dry,1007,0,30,,,,5.8,
Wick,10/12/2016 02:00,8.9,14,,,0,,79,,190,Dry,1007,1,30,,,,5.5,
Wick,10/12/2016 03:00,7.4,12,,,0,,75,,200,Dry,1007,0,40,,,,3.4,
Wick,10/12/2016 04:00,7,12,,,0,,84,,210,Dry,1007,0,35,,,,4.5,
Wick,10/12/2016 05:00,7,13,,,0,,84,,220,Dry,1007,0,30,,,,4.6,
Wick,10/12/2016 06:00,6.9,9,6.1,,0,0,85,,210,Dry,1008,1,35,,,,4.6,
Wick,10/12/2016 07:00,6.8,12,,,0,,82,,220,Rain,1008,5,35,,,,4.1,
Wick,10/12/2016 08:00,7.8,13,,,0,,76,,200,Dry,1008,0,35,,,,3.9,
Wick,10/12/2016 09:00,7,10,,,0,,77,,190,Dry,1009,1,30,,,,3.4,
Wick,10/12/2016 10:00,7.7,15,,,0,,79,,220,Dry,1009,2,27,,,,4.4,
Wick,10/12/2016 11:00,8,13,,,0,,80,,200,Dry,1009,5,35,,,,4.8,
Wick,10/12/2016 12:00,8.4,9,,,0,0,83,,180,Dry,1010,1,30,,,,5.7,
Wick,10/12/2016 13:00,8.6,15,,,0,,79,,200,Dry,1010,2,35,,,,5.3,
Wick,10/12/2016 14:00,8.4,13,,,0,,80,,190,Dry,1009,5,30,,,,5.3,
Wick,10/12/2016 15:00,8.2,12,,,0,,81,,190,Dry,1009,1,30,,,,5.3,
Wick,10/12/2016 16:00,8.3,13,,,0,,81,,200,Dry,1009,7,30,,,,5.3,
Wick,10/12/2016 17:00,8,17,,,0,,75,,220,Dry,1009,6,35,,,,4,
Wick,10/12/2016 18:00,7.5,14,,8.9,0,0,75,,210,Dry,1008,1,35,,,,3.5,
Wick,10/12/2016 19:00,6.2,13,,,0,,78,,220,Dry,1009,0,40,,,,2.8,
Wick,10/12/2016 20:00,7.1,15,,,0,,78,,210,Dry,1008,0,40,,,,3.6,
Wick,10/12/2016 21:00,7.5,15,,,0,,78,,210,Rain,1008,8,35,,,,4,
Wick,10/12/2016 22:00,7.2,15,,,0,,78,,210,Dry,1008,8,40,,,,3.8,
Wick,10/12/2016 23:00,7.1,13,,,0,,83,,210,Rain,1008,6,40,,,,4.5,
Wick,11/12/2016 00:00,7.2,16,,,0,0,82,,230,Dry,1008,3,30,,,,4.4,
Wick,11/12/2016 01:00,7.4,16,,,0,,80,,250,Dry,1008,1,30,,,,4.2,
Wick,11/12/2016 02:00,7.1,20,,,0,,87,,260,Rain,1009,1,35,,,,5.2,
Wick,11/12/2016 03:00,7.2,17,,,0,,87,29,260,Dry,1009,1,35,,,,5.3,
Wick,11/12/2016 04:00,7.3,18,,,0,,89,,260,Dry,1009,7,30,,,,5.7,
Wick,11/12/2016 05:00,7.5,18,,,0,,85,31,260,Dry,1010,2,30,,,,5.2,
Wick,11/12/2016 06:00,7.2,18,6.1,,0,0,88,29,260,Dry,1010,3,30,,,,5.5,
Wick,11/12/2016 07:00,7.4,16,,,0,,86,,260,Dry,1010,1,35,,,,5.3,
Wick,11/12/2016 08:00,7.3,16,,,0,,87,,250,Dry,1011,2,35,,,,5.3,
Wick,11/12/2016 09:00,7.3,15,,,0,,86,29,260,Dry,1012,1,30,,,,5.2,
Wick,11/12/2016 10:00,7.9,22,,,0,,84,30,260,Dry,1012,1,30,,,,5.4,
Wick,11/12/2016 11:00,8.3,20,,,0,,85,29,270,Dry,1013,1,30,,,,6,
Wick,11/12/2016 12:00,7.9,12,,,0,0,95,,280,Dry,1014,3,24,,,,7.2,
Wick,11/12/2016 13:00,8.9,15,,,0,,88,26,270,Rain,1014,1,26,,,,7.1,
Wick,11/12/2016 14:00,8.6,14,,,0,,87,,280,Dry,1014,5,26,,,,6.7,
Wick,11/12/2016 15:00,8.4,10,,,0,,90,,280,Dry,1015,1,25,,,,7,
Wick,11/12/2016 16:00,7.7,12,,,0,,90,,280,Dry,1016,1,26,,,,6.2,
Wick,11/12/2016 17:00,7.6,7,,,0,,95,,240,Dry,1016,3,23,,,,6.9,
Wick,11/12/2016 18:00,6.9,8,,9,0,0,95,,250,Drizzle,1016,3,28,,,,6.3,
Wick,11/12/2016 19:00,6.1,6,,,0.2,,97,,260,Drizzle,1016,4,23,,,,5.7,
Wick,11/12/2016 20:00,5.6,7,,,0,,98,,260,Dry,1017,1,30,,,,5.4,
Wick,11/12/2016 21:00,6.8,6,,,0,,100,,210,Dry,1017,5,10,,,,6.8,
Wick,11/12/2016 22:00,7.9,5,,,0,,94,,200,Dry,1017,7,35,,,,7,
Wick,11/12/2016 23:00,8.3,6,,,0,,90,,180,Dry,1017,7,35,,,,6.9,
Wick,12/12/2016 00:00,8.3,3,,,0,0.2,96,,190,Dry,1017,3,26,,,,7.8,
Wick,12/12/2016 01:00,8.2,6,,,0,,92,,180,Dry,1017,2,35,,,,7,
Wick,12/12/2016 02:00,7.6,5,,,0,,89,,210,Dry,1017,2,40,,,,6,
Wick,12/12/2016 03:00,7.8,5,,,0,,86,,190,Dry,1017,0,45,,,,5.7,
Wick,12/12/2016 04:00,7.6,5,,,0,,92,,200,Dry,1016,2,35,,,,6.5,
Wick,12/12/2016 05:00,7.5,8,,,0,,92,,180,Dry,1016,0,35,,,,6.4,
Wick,12/12/2016 06:00,8,12,4.8,,0,0,93,,160,Dry,1015,0,30,,,,7,
Wick,12/12/2016 07:00,8.3,10,,,0,,93,,170,Dry,1015,1,35,,,,7.3,
Wick,12/12/2016 08:00,8.3,6,,,0,,92,,180,Dry,1015,1,35,,,,7.1,
Wick,12/12/2016 09:00,8.3,7,,,0,,92,,160,Dry,1015,1,35,,,,7.2,
Wick,12/12/2016 10:00,8.7,8,,,0,,83,,180,Dry,1015,1,40,,,,6,
Wick,12/12/2016 11:00,8.5,9,,,0,,81,,170,Dry,1015,1,40,,,,5.5,
Wick,12/12/2016 12:00,8.4,15,,,0,0,78,,190,Dry,1014,0,45,,,,4.9,
Wick,12/12/2016 13:00,8.2,14,,,0,,79,,200,Dry,1014,0,50,,,,4.8,
Wick,12/12/2016 14:00,7.6,9,,,0,,79,,200,Dry,1014,0,50,,,,4.2,
Wick,12/12/2016 15:00,7.5,7,,,0,,76,,230,Dry,1014,0,55,,,,3.6,
Wick,12/12/2016 16:00,6.9,6,,,0,,79,,230,Dry,1014,4,45,,,,3.6,
Wick,12/12/2016 17:00,7,6,,,0,,81,,260,Dry,1014,7,50,,,,4,
Wick,12/12/2016 18:00,6.9,5,,9.1,0.2,0.2,86,,240,Light shower,1015,1,23,,,,4.8,
Wick,12/12/2016 19:00,7.2,6,,,0.4,,89,,190,Light rain,1015,7,35,,,,5.6,
Wick,12/12/2016 20:00,7.5,15,,,0,,92,,260,Rain,1016,2,30,,,,6.4,
Wick,12/12/2016 21:00,6.9,9,,,0,,98,,280,Dry,1016,1,35,,,,6.7,
Wick,12/12/2016 22:00,6.4,5,,,0,,98,,290,Dry,1017,5,27,,,,6.2,
Wick,12/12/2016 23:00,4.4,8,,,0,,98,,260,Misty,1018,1,2,,,,4.2,
Wick,13/12/2016 00:00,3.1,5,,,0,0.4,100,,260,Dry,1018,1,28,,,,3.1,
Wick,13/12/2016 01:00,3.5,5,,,0.2,,98,,240,Dry,1019,3,30,,,,3.3,
Wick,13/12/2016 02:00,3.9,6,,,0,,95,,240,Dry,1018,0,30,,,,3.3,
Wick,13/12/2016 03:00,2.6,5,,,0,,98,,260,Dry,1019,,30,,,,2.4,
Wick,13/12/2016 04:00,2.1,6,,,0,,97,,270,Dry,1019,0,35,,,,1.8,
Wick,13/12/2016 05:00,2.8,6,,,0,,97,,270,Dry,1019,4,35,,,,2.5,
Wick,13/12/2016 06:00,3.3,5,1.3,,0,0.2,95,,250,Dry,1019,7,30,,,,2.6,
Wick,13/12/2016 07:00,1.9,2,,,0,,94,,260,Dry,1019,1,35,,,,1.1,
Wick,13/12/2016 08:00,1.9,0,,,0,,97,,0,Dry,1019,1,30,,,,1.5,
Wick,13/12/2016 09:00,5.2,6,,,0,,100,,110,Dry,1020,3,35,,,,5.2,
Wick,13/12/2016 10:00,8,10,,,0,,74,,110,Dry,1019,7,40,,,,3.7,
Wick,13/12/2016 11:00,8.4,15,,,0,,70,,120,Dry,1019,6,40,,,,3.4,
Wick,13/12/2016 12:00,8.4,16,,,0,0,71,,130,Dry,1019,4,35,,,,3.6,
Wick,13/12/2016 13:00,8.4,15,,,0,,76,,130,Dry,1018,7,35,,,,4.6,
Wick,13/12/2016 14:00,8.3,17,,,0,,76,,120,Dry,1018,7,40,,,,4.4,
Wick,13/12/2016 15:00,8.4,15,,,0,,83,,120,Dry,1017,8,35,,,,5.7,
Wick,13/12/2016 16:00,8.7,18,,,0,,80,,120,Dry,1017,8,35,,,,5.5,
Wick,13/12/2016 17:00,8.4,17,,,0,,89,,130,Dry,1016,8,35,,,,6.7,
Wick,13/12/2016 18:00,8.6,21,,8.9,0,0,94,29,130,Dry,1016,2,25,,,,7.8,
Wick,13/12/2016 19:00,8.9,18,,,0,,84,30,130,Dry,1016,7,30,,,,6.4,
Wick,13/12/2016 20:00,8.8,16,,,0,,84,,140,Dry,1015,7,35,,,,6.4,
Wick,13/12/2016 21:00,9.1,18,,,0,,87,31,130,Dry,1014,8,35,,,,7.1,
Wick,13/12/2016 22:00,9.1,18,,,0,,95,31,130,Dry,1014,4,30,,,,8.4,
Wick,13/12/2016 23:00,9.2,20,,,0,,92,30,130,Dry,1013,6,30,,,,8,
Wick,14/12/2016 00:00,9.3,18,,,0,0,92,30,140,Dry,1013,3,27,,,,8.1,
Wick,14/12/2016 01:00,9.2,18,,,0,,89,32,150,Dry,1013,8,26,,,,7.6,
Wick,14/12/2016 02:00,8.9,24,,,0,,93,37,150,Dry,1012,8,22,,,,7.9,
Wick,14/12/2016 03:00,8.9,21,,,0,,90,37,160,Dry,1012,8,29,,,,7.4,
Wick,14/12/2016 04:00,8.9,23,,,0,,87,35,160,Dry,1011,8,26,,,,7,
Wick,14/12/2016 05:00,8.9,20,,,0,,87,32,150,Dry,1011,8,23,,,,6.9,
Wick,14/12/2016 06:00,9,18,8.5,,0,0,90,35,150,Dry,1010,8,17,,,,7.6,
Wick,14/12/2016 07:00,9.1,22,,,0,,94,36,150,Dry,1010,8,18,,,,8.2,
Wick,14/12/2016 08:00,9.4,24,,,0,,96,39,150,Dry,1009,8,13,,,,8.8,
Wick,14/12/2016 09:00,9.6,22,,,0.2,,98,40,150,Rain,1010,8,10,,,,9.3,
Wick,14/12/2016 10:00,10,25,,,0,,95,39,140,Dry,1009,3,15,,,,9.3,
Wick,14/12/2016 11:00,9.9,22,,,0.2,,98,43,150,Dry,1009,2,11,,,,9.7,
Wick,14/12/2016 12:00,10.2,16,,,0,0.4,96,32,150,Dry,1010,1,11,,,,9.6,
Wick,14/12/2016 13:00,11.5,20,,,0,,85,32,160,Dry,1010,1,24,,,,9.2,
Wick,14/12/2016 14:00,11.2,20,,,0,,86,31,160,Dry,1010,7,22,,,,9.1,
Wick,14/12/2016 15:00,9.1,9,,,0.6,,96,30,280,Light drizzle,1012,7,6,,,,8.5,
Wick,14/12/2016 16:00,8.5,0,,,0.2,,100,,0,Rain,1012,6,40,,,,8.5,
Wick,14/12/2016 17:00,8.8,6,,,0,,97,,210,Rain,1014,3,30,,,,8.5,
Wick,14/12/2016 18:00,7.1,5,,,0.2,0.6,93,,260,Light shower,1014,7,40,,,,6.2,
Wick,14/12/2016 19:00,6.8,10,,,0,,76,,240,Drizzly rain,1015,7,40,,,,2.9,
Wick,14/12/2016 20:00,6.9,5,,,0.2,,82,,120,Moderate rain,1014,8,16,,,,4.2,
Wick,14/12/2016 21:00,7.9,7,,,0.4,,79,,160,Light rain,1015,7,50,,,,4.6,
Wick,14/12/2016 22:00,7.5,8,,,0,,82,,180,Rain,1015,7,45,,,,4.8,
Wick,14/12/2016 23:00,7.5,10,,,0,,82,,160,Dry,1015,7,45,,,,4.8,
Wick,15/12/2016 00:00,7.5,12,,,0,0.6,85,,160,Dry,1016,1,50,,,,5.3,
Wick,15/12/2016 01:00,7.4,12,,,0,,85,,160,Dry,1016,1,50,,,,5.2,
Wick,15/12/2016 02:00,7.5,9,,,0,,85,,160,Dry,1015,5,50,,,,5.3,
Wick,15/12/2016 03:00,7.7,10,,,0,,86,,150,Dry,1015,2,45,,,,5.6,
Wick,15/12/2016 04:00,8.2,8,,,0,,92,,150,Dry,1015,1,40,,,,7,
Wick,15/12/2016 05:00,8.4,12,,,0,,95,,130,Dry,1014,4,29,,,,7.7,
Wick,15/12/2016 06:00,8.4,10,6.6,,0,0,97,,140,Dry,1014,5,24,,,,8,
Wick,15/12/2016 07:00,8.2,12,,,0,,92,,150,Dry,1013,1,26,,,,7,
Wick,15/12/2016 08:00,8.1,13,,,0,,94,,150,Dry,1012,1,26,,,,7.2,
Wick,15/12/2016 09:00,8.5,15,,,0,,92,,150,Dry,1012,1,22,,,,7.3,
Wick,15/12/2016 10:00,8.4,16,,,0,,93,,150,Dry,1012,2,13,,,,7.4,
Wick,15/12/2016 11:00,8.7,10,,,0,,93,,150,Dry,1012,3,10,,,,7.7,
Wick,15/12/2016 12:00,8.8,17,,,0,0,92,30,150,Haze,1012,1,9,,,,7.6,
Wick,15/12/2016 13:00,8.8,16,,,0,,92,,150,Dry,1011,1,10,,,,7.6,
Wick,15/12/2016 14:00,8.8,16,,,0,,92,,150,Dry,1011,2,10,,,,7.7,
Wick,15/12/2016 15:00,8.6,17,,,0,,93,,150,Dry,1011,1,10,,,,7.6,
Wick,15/12/2016 16:00,9,21,,,0,,91,30,150,Dry,1011,1,12,,,,7.7,
Wick,15/12/2016 17:00,9.2,17,,,,,90,,160,Dry,1011,1,15,,,,7.8,
Wick,15/12/2016 18:00,9.1,18,,9.3,,0,92,30,150,Dry,1012,1,12,,,,8,
Wick,15/12/2016 19:00,9.2,20,,,,,91,30,160,Dry,1012,1,13,,,,7.9,
Wick,15/12/2016 20:00,9.2,18,,,,,91,29,160,Dry,1012,1,13,,,,7.9,
Wick,15/12/2016 21:00,9.2,20,,,,,91,29,150,Dry,1013,0,12,,,,7.9,
Wick,15/12/2016 22:00,9.3,17,,,,,90,,160,Dry,1014,0,12,,,,7.9,
Wick,15/12/2016 23:00,9.4,14,,,,,90,,160,Dry,1014,0,12,,,,8,
Wick,16/12/2016 00:00,9.5,11,,,,0,89,,170,Dry,1014,0,13,,,,7.9,
Wick,16/12/2016 01:00,9.3,16,,,,,90,,160,Dry,1014,0,12,,,,7.9,
Wick,16/12/2016 02:00,9,13,,,,,91,,170,Dry,1015,0,12,,,,7.7,
Wick,16/12/2016 03:00,9,8,,,,,91,,180,Dry,1016,0,12,,,,7.7,
Wick,16/12/2016 04:00,8.9,9,,,,,92,,180,Dry,1016,0,12,,,,7.7,
Wick,16/12/2016 05:00,8.8,8,,,,,91,,190,Dry,1016,0,12,,,,7.5,
Wick,16/12/2016 06:00,8.8,7,8.6,,0,0,92,,170,Dry,1017,0,12,,,,7.7,
Wick,16/12/2016 07:00,8.6,6,,,0,,93,,210,Dry,1017,7,12,,,,7.6,
Wick,16/12/2016 08:00,8.7,9,,,0,,92,,160,Dry,1018,0,16,,,,7.6,
Wick,16/12/2016 09:00,8.9,8,,,0,,90,,170,Dry,1018,8,24,,,,7.5,
Wick,16/12/2016 10:00,8.9,6,,,0,,94,,190,Dry,1019,7,16,,,,8.1,
Wick,16/12/2016 11:00,7.7,5,,,0,,93,,250,Dry,1020,1,19,,,,6.7,
Wick,16/12/2016 12:00,7.9,6,,,0,0,93,,250,Dry,1020,7,29,,,,6.9,
Wick,16/12/2016 13:00,8.2,5,,,0,,92,,260,Drizzly rain,1020,2,28,,,,7,
Wick,16/12/2016 14:00,7.6,5,,,0.2,,94,,260,Moderate shower,1021,4,14,,,,6.8,
Wick,16/12/2016 15:00,7.1,6,,,1,,97,,260,Light rain,1022,4,19,,,,6.7,
Wick,16/12/2016 16:00,6.7,8,,,0.6,,97,,270,Light rain,1022,3,24,,,,6.4,
Wick,16/12/2016 17:00,6.4,5,,,0.2,,96,,250,Light shower,1022,7,50,,,,5.9,
Wick,16/12/2016 18:00,6.9,5,,9.2,0.2,2,89,,230,Rain,1023,1,55,,,,5.3,
Wick,16/12/2016 19:00,5.7,7,,,0,,91,,250,Rain,1024,6,45,,,,4.4,
Wick,16/12/2016 20:00,5.1,7,,,0,,95,,270,Light shower,1025,1,40,,,,4.4,
Wick,16/12/2016 21:00,4.6,8,,,0,,93,,260,Rain,1025,1,40,,,,3.7,
Wick,16/12/2016 22:00,4,9,,,0,,93,,260,Dry,1025,3,35,,,,3,
Wick,16/12/2016 23:00,3.6,5,,,0,,93,,250,Dry,1026,4,45,,,,2.6,
Wick,17/12/2016 00:00,4,6,,,0,0,91,,220,Dry,1026,1,40,,,,2.8,
Wick,17/12/2016 01:00,3.3,9,,,0,,92,,250,Dry,1027,0,40,,,,2.2,
Wick,17/12/2016 02:00,2.8,6,,,0,,90,,230,Dry,1027,0,40,,,,1.4,
Wick,17/12/2016 03:00,4.3,10,,,0,,81,,220,Dry,1027,0,45,,,,1.4,
Wick,17/12/2016 04:00,4.9,12,,,0,,85,,190,Dry,1027,0,35,,,,2.6,
Wick,17/12/2016 05:00,5.5,13,,,0,,86,,190,Dry,1027,1,35,,,,3.4,
Wick,17/12/2016 06:00,5.9,14,2.2,,0,0,85,,190,Dry,1026,2,35,,,,3.7,
Wick,17/12/2016 07:00,6.6,16,,,0,,87,,200,Dry,1026,2,35,,,,4.7,
Wick,17/12/2016 08:00,6.7,16,,,0,,87,,190,Dry,1026,7,35,,,,4.7,
Wick,17/12/2016 09:00,7,17,,,0,,84,,190,Dry,1026,6,35,,,,4.5,
Wick,17/12/2016 10:00,8.4,22,,,0,,80,30,220,Dry,1026,2,40,,,,5.2,
Wick,17/12/2016 11:00,9.2,23,,,0,,80,31,210,Dry,1026,7,40,,,,6,
Wick,17/12/2016 12:00,9.5,25,,,0,0,83,36,230,Dry,1026,2,50,,,,6.8,
Wick,17/12/2016 13:00,9.3,22,,,0,,84,37,230,Dry,1027,1,50,,,,6.8,
Wick,17/12/2016 14:00,9.3,20,,,0,,84,31,250,Dry,1027,1,40,,,,6.9,
Wick,17/12/2016 15:00,9,12,,,0,,86,,230,Dry,1028,6,40,,,,6.8,
Wick,17/12/2016 16:00,9.2,15,,,0,,84,,240,Dry,1029,6,45,,,,6.7,
Wick,17/12/2016 17:00,9.1,12,,,0,,80,,230,Dry,1028,0,30,,,,6,
Wick,17/12/2016 18:00,9.1,8,,9.6,0,0,76,,190,Dry,1028,0,30,,,,5.2,
Wick,17/12/2016 19:00,8.3,7,,,0.6,,85,,200,Moderate shower,1028,7,10,,,,6,
Wick,17/12/2016 20:00,8,9,,,1,,91,,190,Light rain,1028,8,20,,,,6.7,
Wick,17/12/2016 21:00,8,12,,,0.6,,93,,200,Light rain,1028,8,13,,,,7,
Wick,17/12/2016 22:00,8,15,,,0.2,,90,,190,Light rain,1028,8,30,,,,6.6,
Wick,17/12/2016 23:00,8,15,,,0.4,,94,,180,Rain,1028,7,30,,,,7.2,
Wick,18/12/2016 00:00,8.3,15,,,0,3,94,,180,Rain,1028,2,30,,,,7.5,
Wick,18/12/2016 01:00,8.5,14,,,0,,92,,180,Rain,1028,7,35,,,,7.4,
Wick,18/12/2016 02:00,8.6,14,,,0,,94,,180,Dry,1028,8,35,,,,7.7,
Wick,18/12/2016 03:00,8.6,0,,,0,,94,,0,Rain,1027,7,35,,,,7.7,
Wick,18/12/2016 04:00,8.7,0,,,0,,92,,0,Rain,1027,7,40,,,,7.6,
Wick,18/12/2016 05:00,9.1,12,,,0,,92,,180,Dry,1027,3,45,,,,7.9,
Wick,18/12/2016 06:00,9.2,12,7.8,,0,0,92,,180,Dry,1027,7,45,,,,8,
Wick,18/12/2016 07:00,9.5,13,,,0,,89,,200,Dry,1027,3,45,,,,7.9,
Wick,18/12/2016 08:00,9.9,8,,,0,,90,,210,Dry,1027,8,70,,,,8.5,
Wick,18/12/2016 09:00,10.4,12,,,0,,88,,240,Dry,1027,8,75,,,,8.6,
Wick,18/12/2016 10:00,9.9,12,,,0,,90,,200,Rain,1027,2,75,,,,8.5,
Wick,18/12/2016 11:00,9.4,12,,,0,,92,,200,Dry,1027,1,60,,,,8.3,
Wick,18/12/2016 12:00,10.1,10,,,0,0,91,,190,Dry,1027,6,60,,,,8.7,
Wick,18/12/2016 13:00,11.1,8,,,0,,88,,180,Dry,1027,7,75,,,,9.3,
Wick,18/12/2016 14:00,9.8,14,,,0,,91,,190,Dry,1027,0,65,,,,8.5,
Wick,18/12/2016 15:00,9.9,15,,,0,,90,,200,Dry,1026,4,50,,,,8.5,
Wick,18/12/2016 16:00,10.6,10,,,0,,89,,190,Dry,1026,1,75,,,,8.9,
Wick,18/12/2016 17:00,9.8,7,,,0,,90,,200,Dry,1026,4,55,,,,8.4,
Wick,18/12/2016 18:00,9.7,10,,11.4,0,0,92,,210,Dry,1026,5,60,,,,8.6,
Wick,18/12/2016 19:00,10.4,15,,,0,,91,,190,Dry,1025,1,65,,,,9,
Wick,18/12/2016 20:00,10.5,6,,,0,,89,,260,Dry,1025,8,65,,,,8.8,
Wick,18/12/2016 21:00,10.9,2,,,0,,86,,240,Dry,1024,8,70,,,,8.8,
Wick,18/12/2016 22:00,9.4,14,,,0,,90,,170,Dry,1024,5,65,,,,8,
Wick,18/12/2016 23:00,9.3,17,,,0,,92,,180,Dry,1024,3,55,,,,8.1,
Wick,19/12/2016 00:00,9.4,7,,,0,0,92,,180,Dry,1023,0,50,,,,8.3,
Wick,19/12/2016 01:00,9.4,3,,,0,,90,,140,Dry,1023,0,55,,,,8,
Wick,19/12/2016 02:00,10.5,20,,,0,,86,,200,Dry,1022,0,65,,,,8.4,
Wick,19/12/2016 03:00,9.4,12,,,0,,90,,200,Dry,1022,0,60,,,,7.9,
Wick,19/12/2016 04:00,9.5,8,,,0,,87,,210,Dry,1021,0,65,,,,7.5,
Wick,19/12/2016 05:00,8.9,3,,,0,,88,,270,Dry,1021,0,60,,,,7.1,
Wick,19/12/2016 06:00,8.7,9,8.4,,0,0,86,,230,Dry,1020,0,60,,,,6.6,
Wick,19/12/2016 07:00,8.4,8,,,0,,86,,230,Dry,1021,1,50,,,,6.2,
Wick,19/12/2016 08:00,9.2,9,,,0,,76,,200,Dry,1021,7,45,,,,5.3,
Wick,19/12/2016 09:00,8.5,7,,,0,,79,,210,Dry,1021,1,40,,,,5.2,
Wick,19/12/2016 10:00,9.1,9,,,0,,75,,200,Dry,1021,2,45,,,,5,
Wick,19/12/2016 11:00,9.2,8,,,0,,79,,210,Dry,1021,2,45,,,,5.9,
Wick,19/12/2016 12:00,9.9,7,,,0,0,81,,210,Dry,1021,7,55,,,,6.9,
Wick,19/12/2016 13:00,8.7,17,,,0,,93,,270,Haze,1022,4,6,,,,7.7,
Wick,19/12/2016 14:00,8.2,12,,,0,,89,,280,Dry,1022,7,40,,,,6.5,
Wick,19/12/2016 15:00,6.5,7,,,0,,88,,250,Dry,1022,1,40,,,,4.8,
Wick,19/12/2016 16:00,5.6,8,,,0,,85,,240,Dry,1023,1,50,,,,3.4,
Wick,19/12/2016 17:00,5.5,10,,,0,,83,,220,Dry,1023,1,45,,,,2.9,
Wick,19/12/2016 18:00,3.9,9,,10.1,0,0,86,,230,Dry,1023,1,40,,,,1.9,
Wick,19/12/2016 19:00,4.6,8,,,0,,84,,180,Dry,1023,1,35,,,,2.2,
Wick,19/12/2016 20:00,4.3,7,,,0,,85,,190,Dry,1023,0,35,,,,2.1,
Wick,19/12/2016 21:00,3.2,10,,,0,,84,,230,Dry,1022,0,35,,,,0.8,
Wick,19/12/2016 22:00,4.8,10,,,0,,85,,200,Dry,1022,0,40,,,,2.5,
Wick,19/12/2016 23:00,4.5,10,,,0,,83,,220,Dry,1022,0,40,,,,2,
Wick,20/12/2016 00:00,4,8,,,0,0,83,,210,Dry,1021,,35,,,,1.4,
Wick,20/12/2016 01:00,4.5,15,,,0,,78,,200,Dry,1020,0,40,,,,1.1,
Wick,20/12/2016 02:00,4.5,10,,,0,,90,,190,Dry,1019,0,35,,,,3.1,
Wick,20/12/2016 03:00,4.3,9,,,0,,88,,200,Dry,1018,0,35,,,,2.6,
Wick,20/12/2016 04:00,6.1,15,,,0,,77,,180,Dry,1016,0,35,,,,2.5,
Wick,20/12/2016 05:00,6,17,,,0,,76,29,170,Dry,1014,0,35,,,,2.1,
Wick,20/12/2016 06:00,5.9,21,2.8,,0,0,73,35,170,Dry,1012,0,35,,,,1.5,
Wick,20/12/2016 07:00,5.9,21,,,0,,69,38,160,Dry,1010,0,40,,,,0.7,
Wick,20/12/2016 08:00,5.9,23,,,0,,64,37,170,Dry,1008,0,40,,,,-0.2,
Wick,20/12/2016 09:00,5.7,22,,,0,,67,37,180,Dry,1007,0,40,,,,0.2,
Wick,20/12/2016 10:00,6.2,23,,,0,,67,40,170,Dry,1004,0,35,,,,0.6,
Wick,20/12/2016 11:00,7.2,23,,,0,,61,47,170,Dry,1004,,30,,,,0.3,
Wick,20/12/2016 12:00,7.3,30,,,0,0,59,56,180,Dry,1002,0,40,,,,0,
Wick,20/12/2016 13:00,7.4,35,,,0,,63,41,190,Dry,1001,0,40,,,,0.9,
Wick,20/12/2016 14:00,7.8,36,,,0,,65,44,190,Dry,1000,0,35,,,,1.7,
Wick,20/12/2016 15:00,8,35,,,0,,64,41,190,Dry,999,0,40,,,,1.7,
Wick,20/12/2016 16:00,8.3,25,,,0,,64,39,180,Dry,999,1,35,,,,2.1,
Wick,20/12/2016 17:00,8.6,28,,,0,,60,37,190,Rain,999,7,40,,,,1.3,
Wick,20/12/2016 18:00,8.2,28,,8.7,0,0,64,37,190,Light shower,999,8,35,,,,2,
Wick,20/12/2016 19:00,7.3,22,,,0.2,,78,40,190,Rain,999,7,40,,,,3.8,
Wick,20/12/2016 20:00,7.7,22,,,0,,77,38,190,Rain,999,1,45,,,,4.1,
Wick,20/12/2016 21:00,7.3,22,,,0,,81,40,200,Dry,999,3,45,,,,4.3,
Wick,20/12/2016 22:00,7.1,20,,,0,,82,33,200,Rain,999,7,45,,,,4.4,
Wick,20/12/2016 23:00,5.3,23,,,0,,79,39,230,Rain,1000,7,40,,,,2.1,
Wick,21/12/2016 00:00,5.5,17,,,0,0.2,71,,230,Dry,1000,0,40,,,,0.7,
Wick,21/12/2016 01:00,5,14,,,0,,76,,210,Dry,1000,0,45,,,,1.2,
Wick,21/12/2016 02:00,5,10,,,0,,80,,200,Dry,1000,0,40,,,,2,
Wick,21/12/2016 03:00,4.6,14,,,0,,85,,200,Dry,999,0,35,,,,2.3,
Wick,21/12/2016 04:00,4.1,13,,,0,,86,,200,Dry,999,0,35,,,,2,
Wick,21/12/2016 05:00,4.5,14,,,0,,83,,200,Dry,998,0,35,,,,2,
Wick,21/12/2016 06:00,5.5,18,3.9,,0,0,77,,190,Dry,998,1,35,,,,1.9,
Wick,21/12/2016 07:00,5.6,23,,,0,,74,30,200,Dry,997,1,35,,,,1.4,
Wick,21/12/2016 08:00,4.5,24,,,0.2,,86,31,190,Rain,997,3,50,,,,2.4,
Wick,21/12/2016 09:00,3.9,24,,,0,,87,35,210,Dry,998,1,50,,,,2,
Wick,21/12/2016 10:00,3.5,15,,,0,,88,30,200,Dry,998,2,40,,,,1.8,
Wick,21/12/2016 11:00,1.7,28,,,0.2,,91,40,240,Moderate shower,999,1,25,,,,0.4,
Wick,21/12/2016 12:00,3.5,21,,,0,0.4,84,32,220,Rain,1000,1,60,,,,1.1,
Wick,21/12/2016 13:00,2.3,21,,,0.8,,89,35,210,Rain,1000,1,65,,,,0.7,
Wick,21/12/2016 14:00,2.6,17,,,0,,89,29,210,Dry,1001,1,55,,,,1,
Wick,21/12/2016 15:00,2.8,21,,,0,,89,,220,Light shower,1002,1,45,,,,1.3,
Wick,21/12/2016 16:00,1,13,,,1.2,,98,32,230,Light rain,1003,2,45,,,,0.8,
Wick,21/12/2016 17:00,2.5,24,,,0,,84,31,210,Rain,1003,3,75,,,,0.2,
Wick,21/12/2016 18:00,2.3,23,,6.2,0,1.6,90,33,210,Dry,1004,1,50,,,,0.9,
Wick,21/12/2016 19:00,2.4,22,,,0,,87,32,210,Dry,1004,1,55,,,,0.6,
Wick,21/12/2016 20:00,2.4,22,,,0,,89,35,200,Dry,1004,1,50,,,,0.8,
Wick,21/12/2016 21:00,2.8,25,,,0,,87,36,200,Dry,1004,0,50,,,,1,
Wick,21/12/2016 22:00,3.2,22,,,0,,87,32,210,Dry,1004,0,50,,,,1.4,
Wick,21/12/2016 23:00,2.9,18,,,0,,87,33,200,Dry,1004,1,55,,,,1,
Wick,22/12/2016 00:00,3.7,20,,,0,0,86,31,200,Rain,1004,5,50,,,,1.6,
Wick,22/12/2016 01:00,3.9,22,,,0,,83,36,200,Dry,1003,1,55,,,,1.4,
Wick,22/12/2016 02:00,4.3,23,,,0,,83,37,210,Dry,1002,0,50,,,,1.7,
Wick,22/12/2016 03:00,3.7,25,,,0.6,,88,30,220,Moderate shower,1003,4,10,,,,1.9,
Wick,22/12/2016 04:00,2.8,18,,,0.2,,89,37,220,Light shower,1004,1,21,,,,1.3,
Wick,22/12/2016 05:00,2.8,23,,,0.2,,89,32,210,Light shower,1003,1,30,,,,1.2,
Wick,22/12/2016 06:00,2.7,21,1.8,,0,1,79,30,210,Rain,1004,0,65,,,,-0.4,
Wick,22/12/2016 07:00,2.7,12,,,0,,90,,210,Rain,1004,4,55,,,,1.3,
Wick,22/12/2016 08:00,1.8,23,,,1.2,,88,39,220,Rain,1004,3,10,,,,0.1,
Wick,22/12/2016 09:00,2.1,23,,,0,,83,37,230,Dry,1005,1,60,,,,-0.4,
Wick,22/12/2016 10:00,2.3,30,,,0,,77,33,210,Dry,1005,1,60,,,,-1.3,
Wick,22/12/2016 11:00,2.8,21,,,0,,86,35,210,Dry,1006,1,60,,,,0.8,
Wick,22/12/2016 12:00,1.9,31,,,0.2,1,90,35,220,Moderate precip.,1006,3,50,,,,0.5,
Wick,22/12/2016 13:00,2.5,23,,,0.2,,87,31,230,Light shower,1007,2,30,,,,0.7,
Wick,22/12/2016 14:00,2.2,18,,,0,,86,,220,Rain,1007,1,55,,,,0.2,
Wick,22/12/2016 15:00,2.8,20,,,0,,83,32,210,Dry,1007,1,45,,,,0.3,
Wick,22/12/2016 16:00,3,21,,,0,,83,,210,Dry,1008,1,45,,,,0.5,
Wick,22/12/2016 17:00,2.1,20,,,0,,89,31,210,Dry,1008,1,65,,,,0.5,
Wick,22/12/2016 18:00,2.4,20,,3.3,0,1,84,30,210,Dry,1009,1,55,,,,0.1,
Wick,22/12/2016 19:00,2.3,17,,,0,,85,,220,Dry,1010,1,60,,,,0.2,
Wick,22/12/2016 20:00,2.1,18,,,0,,85,,220,Dry,1011,1,50,,,,-0.1,
Wick,22/12/2016 21:00,2.1,15,,,0,,85,33,220,Dry,1011,0,45,,,,0,
Wick,22/12/2016 22:00,2.4,13,,,0,,83,29,220,Dry,1013,5,40,,,,-0.1,
Wick,22/12/2016 23:00,2.3,20,,,0.6,,91,36,240,Moderate shower,1013,5,18,,,,1.1,
Wick,23/12/2016 00:00,2.1,18,,,0,0.6,89,31,240,Rain,1013,0,45,,,,0.5,
Wick,23/12/2016 01:00,3.1,15,,,0,,84,,210,Dry,1013,0,40,,,,0.7,
Wick,23/12/2016 02:00,3.6,16,,,0,,83,,210,Dry,1013,0,40,,,,1.1,
Wick,23/12/2016 03:00,3.9,16,,,0,,86,,200,Dry,1013,0,35,,,,1.9,
Wick,23/12/2016 04:00,5.2,18,,,0,,85,,190,Dry,1012,0,30,,,,2.9,
Wick,23/12/2016 05:00,5.7,18,,,0,,81,29,190,Dry,1010,2,30,,,,2.8,
Wick,23/12/2016 06:00,6.3,22,1.8,,0,0,77,36,180,Dry,1008,0,35,,,,2.7,
Wick,23/12/2016 07:00,6.7,24,,,0,,77,37,170,Dry,1006,0,40,,,,3,
Wick,23/12/2016 08:00,7.2,25,,,0,,77,40,160,Dry,1003,4,35,,,,3.6,
Wick,23/12/2016 09:00,7.4,33,,,0,,78,51,160,Dry,999,1,35,,,,3.9,
Wick,23/12/2016 10:00,7.5,29,,,0,,82,45,150,Dry,996,6,20,,,,4.7,
Wick,23/12/2016 11:00,8.4,31,,,0,,76,52,170,Rain,994,1,27,,,,4.5,
Wick,23/12/2016 12:00,8.7,28,,,0,0,78,41,170,Rain,991,3,30,,,,5.1,
Wick,23/12/2016 13:00,9.4,32,,,0,,75,38,190,Dry,990,7,35,,,,5.3,
Wick,23/12/2016 14:00,9,22,,,0,,74,30,200,Dry,989,2,30,,,,4.7,
Wick,23/12/2016 15:00,8.4,25,,,0,,73,40,210,Rain,989,1,30,,,,3.9,
Wick,23/12/2016 16:00,7.6,35,,,0,,66,43,230,Dry,990,4,30,,,,1.8,
Wick,23/12/2016 17:00,5.6,28,,,0,,82,71,230,Light shower,991,1,12,,,,2.8,
Wick,23/12/2016 18:00,5.3,36,,9.5,0,0,79,47,240,Rain,991,1,10,,,,2,
Wick,23/12/2016 19:00,4.3,25,,,0.4,,77,48,250,Rain,993,5,29,,,,0.7,
Wick,23/12/2016 20:00,3.2,33,,,0,,82,54,240,Light shower,994,1,10,,,,0.5,
Wick,23/12/2016 21:00,2.7,30,,,0.2,,82,44,240,Rain,996,1,30,,,,0,
Wick,23/12/2016 22:00,2.8,25,,,0,,77,46,250,Rain,996,4,30,,,,-0.8,
Wick,23/12/2016 23:00,3.7,24,,,0,,68,37,250,Dry,996,7,28,,,,-1.6,
Wick,24/12/2016 00:00,2.4,25,,,0.2,0.8,90,40,230,Rain,997,1,30,,,,1,
Wick,24/12/2016 01:00,2.3,23,,,0.4,,91,33,220,Moderate shower,997,5,10,,,,1.1,
Wick,24/12/2016 02:00,2.7,26,,,0.4,,87,38,230,Drizzly rain,997,2,16,,,,0.9,
Wick,24/12/2016 03:00,2.9,23,,,0.2,,78,36,230,Rain,997,1,45,,,,-0.4,
Wick,24/12/2016 04:00,2.5,23,,,0,,82,35,230,Precipitation,997,0,45,,,,-0.1,
Wick,24/12/2016 05:00,2.8,24,,,0,,80,37,230,Dry,998,5,50,,,,-0.2,
Wick,24/12/2016 06:00,2,17,1.3,,0.2,1.2,89,35,260,Light shower,998,4,25,,,,0.4,
Wick,24/12/2016 07:00,1.5,28,,,0.8,,94,33,230,Moderate precip.,998,2,14,,,,0.7,
Wick,24/12/2016 08:00,1.7,22,,,0.2,,88,48,250,Rain,999,2,9,,,,0,
Wick,24/12/2016 09:00,0.9,23,,,0.4,,95,39,240,Snow,998,1,40,,,,0.3,
Wick,24/12/2016 10:00,1.9,23,,,0.2,,87,35,250,Rain,999,1,45,,,,0,
Wick,24/12/2016 11:00,2,31,,,0.2,,88,48,260,Light shower,999,4,9,,,,0.3,
Wick,24/12/2016 12:00,2.3,29,,,0.4,2,84,47,250,Dry,999,0,10,,,,-0.1,
Wick,24/12/2016 13:00,2.8,30,,,0,,81,41,260,Rain,1000,4,10,,,,-0.1,
Wick,24/12/2016 14:00,2.7,26,,,0,,87,49,260,Light shower,1001,2,6,,,,0.8,
Wick,24/12/2016 15:00,2.7,26,,,0.2,,79,46,260,Dry,1002,2,10,,,,-0.5,
Wick,24/12/2016 16:00,3.1,33,,,0,,82,43,260,Moderate precip.,1002,5,10,,,,0.4,
Wick,24/12/2016 17:00,2.7,22,,,0,,86,46,260,Dry,1003,3,10,,,,0.7,
Wick,24/12/2016 18:00,3.1,25,,3.7,0,0,90,44,260,Misty,1004,1,10,,,,1.7,
Wick,24/12/2016 19:00,2.6,24,,,0.2,,94,46,260,Light shower,1004,1,9,,,,1.8,
Wick,24/12/2016 20:00,3,13,,,0,,91,,230,Dry,1004,1,10,,,,1.7,
Wick,24/12/2016 21:00,3.3,13,,,0,,86,,230,Dry,1004,3,30,,,,1.3,
Wick,24/12/2016 22:00,3.8,13,,,0,,82,,210,Dry,1003,2,30,,,,1.1,
Wick,24/12/2016 23:00,3.6,8,,,0,,86,,200,Dry,1003,1,10,,,,1.6,
Wick,25/12/2016 00:00,4.7,7,,,0,0.2,89,,170,Light shower,1001,7,21,,,,3.1,
Wick,25/12/2016 01:00,5.6,14,,,0.2,,91,,180,Light shower,1000,7,16,,,,4.3,
Wick,25/12/2016 02:00,5.8,12,,,1.4,,93,,180,Moderate rain,998,1,14,,,,4.8,
Wick,25/12/2016 03:00,6.2,14,,,0.8,,95,,170,Rain,997,6,28,,,,5.6,
Wick,25/12/2016 04:00,7.7,15,,,0,,97,,200,Rain,996,2,35,,,,7.4,
Wick,25/12/2016 05:00,10.9,15,,,0,,91,,230,Dry,996,2,50,,,,9.6,
Wick,25/12/2016 06:00,10.9,18,2.5,,0,2.8,89,,240,Dry,996,4,50,,,,9.2,
Wick,25/12/2016 07:00,11.8,26,,,0,,84,37,240,Dry,996,2,55,,,,9.3,
Wick,25/12/2016 08:00,11.5,24,,,0,,86,43,220,Dry,995,0,50,,,,9.3,
Wick,25/12/2016 09:00,12,21,,,0,,81,30,230,Dry,995,3,50,,,,9,
Wick,25/12/2016 10:00,11.5,9,,,0,,81,29,210,Dry,994,5,35,,,,8.4,
Wick,25/12/2016 11:00,12,22,,,0,,80,32,200,Dry,992,0,45,,,,8.7,
Wick,25/12/2016 12:00,13.2,25,,,0,0,74,33,210,Dry,991,1,50,,,,8.7,
Wick,25/12/2016 13:00,11.9,44,,,0,,68,56,240,Dry,991,3,15,,,,6.2,
Wick,25/12/2016 14:00,10.6,39,,,0,,66,51,240,Haze,992,4,10,,,,4.6,
Wick,25/12/2016 15:00,7.8,40,,,0,,74,61,250,Rain,995,4,30,,,,3.6,
Wick,25/12/2016 16:00,6.6,32,,,0.2,,76,56,250,Rain,996,1,35,,,,2.7,
Wick,25/12/2016 17:00,5.6,29,,,0,,77,39,230,Dry,997,0,19,,,,2,
Wick,25/12/2016 18:00,6.1,32,,14,0,0.2,66,43,240,Dry,998,0,26,,,,0.4,
Wick,25/12/2016 19:00,5.4,31,,,0,,57,49,240,Dry,999,1,35,,,,-2.2,
Wick,25/12/2016 20:00,5.2,32,,,0,,56,53,250,Dry,1000,2,23,,,,-2.8,
Wick,25/12/2016 21:00,4.9,23,,,0,,55,41,240,Dry,1000,7,22,,,,-3.3,
Wick,25/12/2016 22:00,5,28,,,0,,56,39,250,Dry,1001,4,22,,,,-3,
Wick,25/12/2016 23:00,3.3,25,,,0,,68,35,230,Dry,1000,1,30,,,,-1.9,
Wick,26/12/2016 00:00,1.6,29,,,0,0,87,38,230,Moderate shower,1001,5,8,,,,-0.3,
Wick,26/12/2016 01:00,1.4,15,,,0.2,,94,35,230,Light rain,1000,3,50,,,,0.6,
Wick,26/12/2016 02:00,2,22,,,0,,91,30,210,Rain,999,1,50,,,,0.7,
Wick,26/12/2016 03:00,1.2,25,,,0.2,,93,45,240,Moderate shower,1000,3,6,,,,0.3,
Wick,26/12/2016 04:00,1,21,,,0.4,,96,49,250,Snow,1000,1,50,,,,0.5,
Wick,26/12/2016 05:00,1.3,33,,,0,,85,59,250,Moderate shower,1000,1,2,,,,-0.9,
Wick,26/12/2016 06:00,1.2,16,0.4,,0,0.8,86,72,250,Snow,1001,1,40,,,,-0.8,
Wick,26/12/2016 07:00,0.3,40,,,0.2,,97,59,260,Snow shower,1001,1,4,,,,-0.1,
Wick,26/12/2016 08:00,1.3,38,,,0,,87,49,260,Light shower,1002,2,9,,,,-0.5,
Wick,26/12/2016 09:00,1.7,31,,,0,,83,43,250,Rain,1003,7,18,,,,-0.8,
Wick,26/12/2016 10:00,2.4,33,,,0.2,,77,53,260,Rain,1004,3,14,,,,-1.1,
Wick,26/12/2016 11:00,2.4,37,,,0.2,,85,62,280,Moderate shower,1006,1,10,,,,0.3,
Wick,26/12/2016 12:00,3.5,33,,,0,0.6,80,53,270,Rain,1006,2,9,,,,0.4,
Wick,26/12/2016 13:00,5,41,,,0,,69,56,270,Dry,1007,7,11,,,,-0.1,
Wick,26/12/2016 14:00,5.4,45,,,0,,67,59,280,Haze,1009,7,12,,,,-0.2,
Wick,26/12/2016 15:00,5.4,48,,,0,,68,64,280,Haze,1011,4,9,,,,0.1,
Wick,26/12/2016 16:00,5.4,40,,,0,,61,54,280,Dry,1014,1,13,,,,-1.3,
Wick,26/12/2016 17:00,5.4,37,,,0,,56,54,280,Dry,1017,7,19,,,,-2.5,
Wick,26/12/2016 18:00,6.1,37,,6.1,0,0,52,49,280,Dry,1019,8,26,,,,-2.8,
Wick,26/12/2016 19:00,5.7,31,,,0,,60,51,290,Dry,1022,7,20,,,,-1.4,
Wick,26/12/2016 20:00,6.1,30,,,0,,62,44,290,Dry,1023,2,16,,,,-0.5,
Wick,26/12/2016 21:00,5.9,21,,,0,,71,39,290,Dry,1024,4,13,,,,1.2,
Wick,26/12/2016 22:00,5.7,22,,,0,,79,29,280,Dry,1025,3,18,,,,2.4,
Wick,26/12/2016 23:00,5.2,16,,,0,,86,,260,Dry,1027,3,40,,,,3.1,
Wick,27/12/2016 00:00,4.9,9,,,0,0,90,,230,Dry,1028,4,20,,,,3.4,
Wick,27/12/2016 01:00,6,14,,,0,,86,,260,Rain,1028,4,50,,,,3.9,
Wick,27/12/2016 02:00,5.5,15,,,0,,86,,250,Dry,1028,3,28,,,,3.5,
Wick,27/12/2016 03:00,6,14,,,0,,83,,250,Dry,1029,0,24,,,,3.4,
Wick,27/12/2016 04:00,5.7,14,,,0,,85,,260,Dry,1029,0,23,,,,3.4,
Wick,27/12/2016 05:00,6.2,16,,,0,,82,,260,Dry,1030,2,25,,,,3.5,
Wick,27/12/2016 06:00,5.9,14,4.6,,0,0,81,,250,Dry,1030,3,22,,,,3,
Wick,27/12/2016 07:00,7,20,,,0,,77,,250,Dry,1031,5,29,,,,3.4,
Wick,27/12/2016 08:00,6,17,,,0,,79,29,240,Dry,1032,0,30,,,,2.7,
Wick,27/12/2016 09:00,5.5,10,,,0,,83,,220,Dry,1033,1,40,,,,3,
Wick,27/12/2016 10:00,6.7,12,,,0,,82,,200,Dry,1033,5,26,,,,3.9,
Wick,27/12/2016 11:00,6.7,10,,,0,,77,,200,Dry,1034,2,29,,,,3,
Wick,27/12/2016 12:00,6.9,13,,,0,0,78,,220,Dry,1034,1,30,,,,3.5,
Wick,27/12/2016 13:00,7.5,10,,,0,,76,,230,Dry,1033,1,30,,,,3.7,
Wick,27/12/2016 14:00,7.4,12,,,0,,76,,230,Dry,1033,1,29,,,,3.5,
Wick,27/12/2016 15:00,7.2,8,,,0,,74,,210,Dry,1034,0,30,,,,3,
Wick,27/12/2016 16:00,6.5,7,,,0,,75,,190,Dry,1034,0,40,,,,2.5,
Wick,27/12/2016 17:00,6.2,10,,,0,,80,,190,Dry,1034,0,30,,,,3.1,
Wick,27/12/2016 18:00,5.3,8,,8,0,0,80,,190,Dry,1035,0,28,,,,2.2,
Wick,27/12/2016 19:00,5,12,,,0,,80,,180,Dry,1034,0,23,,,,1.9,
Wick,27/12/2016 20:00,4.3,9,,,0,,86,,200,Dry,1035,0,26,,,,2.3,
Wick,27/12/2016 21:00,3.4,2,,,0,,88,,190,Dry,1034,0,21,,,,1.7,
Wick,27/12/2016 22:00,3.1,5,,,0,,90,,170,Dry,1034,0,23,,,,1.7,
Wick,27/12/2016 23:00,4,12,,,0,,86,,200,Dry,1034,0,26,,,,1.9,
Wick,28/12/2016 00:00,3.4,7,,,0,0,84,,220,Dry,1034,0,28,,,,1.1,
Wick,28/12/2016 01:00,3.4,10,,,0,,83,,190,Dry,1034,0,35,,,,0.9,
Wick,28/12/2016 02:00,3.9,13,,,0,,83,,190,Dry,1034,0,30,,,,1.3,
Wick,28/12/2016 03:00,4.8,12,,,0,,83,,170,Dry,1033,0,30,,,,2.2,
Wick,28/12/2016 04:00,5.8,17,,,0,,83,,190,Dry,1032,0,23,,,,3.3,
Wick,28/12/2016 05:00,6.4,17,,,0,,85,,190,Dry,1031,0,21,,,,4.2,
Wick,28/12/2016 06:00,6,16,2.2,,0,0,83,,180,Dry,1031,0,35,,,,3.5,
Wick,28/12/2016 07:00,6.5,18,,,0,,85,,190,Dry,1030,1,27,,,,4.3,
Wick,28/12/2016 08:00,7.1,18,,,0,,84,,190,Dry,1030,0,35,,,,4.6,
Wick,28/12/2016 09:00,7.1,18,,,0,,87,,190,Dry,1031,0,25,,,,5.1,
Wick,28/12/2016 10:00,7.7,18,,,0,,86,,190,Dry,1030,1,30,,,,5.6,
Wick,28/12/2016 11:00,7.8,21,,,0,,87,29,190,Dry,1030,1,25,,,,5.9,
Wick,28/12/2016 12:00,8.6,12,,,0,0,84,,200,Dry,1031,1,35,,,,6.1,
Wick,28/12/2016 13:00,8.4,14,,,0,,83,,200,Dry,1030,1,30,,,,5.8,
Wick,28/12/2016 14:00,8.4,10,,,0,,84,,190,Dry,1030,1,45,,,,6,
Wick,28/12/2016 15:00,8.3,16,,,0,,85,,180,Dry,1029,1,35,,,,6,
Wick,28/12/2016 16:00,7.9,15,,,0,,87,,180,Dry,1029,1,20,,,,6,
Wick,28/12/2016 17:00,7.7,8,,,0,,87,,160,Dry,1029,1,40,,,,5.8,
Wick,28/12/2016 18:00,8,16,,8.7,0,0,86,,210,Dry,1029,2,40,,,,5.9,
Wick,28/12/2016 19:00,7.8,15,,,0,,85,,190,Dry,1029,1,40,,,,5.5,
Wick,28/12/2016 20:00,7.7,17,,,0,,84,,200,Dry,1028,0,30,,,,5.2,
Wick,28/12/2016 21:00,7.6,21,,,0,,84,29,210,Dry,1028,0,29,,,,5.1,
Wick,28/12/2016 22:00,7.6,16,,,0,,84,29,190,Dry,1028,0,35,,,,5.1,
Wick,28/12/2016 23:00,7.3,15,,,0,,85,,210,Dry,1027,3,45,,,,5,
Wick,29/12/2016 00:00,7.6,18,,,0,0,84,31,200,Dry,1027,7,30,,,,5.1,
Wick,29/12/2016 01:00,7.3,17,,,0,,87,33,190,Dry,1027,3,40,,,,5.3,
Wick,29/12/2016 02:00,7.5,20,,,0,,85,,210,Dry,1026,0,45,,,,5.2,
Wick,29/12/2016 03:00,7.5,15,,,0,,86,,200,Dry,1025,0,45,,,,5.4,
Wick,29/12/2016 04:00,7.6,16,,,0,,86,,200,Dry,1025,0,35,,,,5.5,
Wick,29/12/2016 05:00,7.4,17,,,0,,87,,180,Dry,1024,0,40,,,,5.5,
Wick,29/12/2016 06:00,7.5,17,6.9,,0,0,87,,200,Dry,1024,0,40,,,,5.5,
Wick,29/12/2016 07:00,7.4,13,,,0,,87,,180,Dry,1024,0,40,,,,5.5,
Wick,29/12/2016 08:00,7.5,13,,,0,,88,,190,Dry,1023,0,35,,,,5.7,
Wick,29/12/2016 09:00,8,13,,,0,,85,,160,Dry,1023,0,20,,,,5.8,
Wick,29/12/2016 10:00,8.5,14,,,0,,84,,180,Dry,1023,0,25,,,,6.1,
Wick,29/12/2016 11:00,8.5,20,,,0,,81,30,200,Dry,1022,0,26,,,,5.5,
Wick,29/12/2016 12:00,8.5,15,,,0,0,83,,170,Dry,1022,0,23,,,,5.8,
Wick,29/12/2016 13:00,8.7,17,,,0,,82,,180,Dry,1021,1,19,,,,5.9,
Wick,29/12/2016 14:00,8.8,20,,,0,,80,29,210,Dry,1020,1,27,,,,5.6,
Wick,29/12/2016 15:00,9.2,18,,,0,,78,30,190,Dry,1020,1,30,,,,5.7,
Wick,29/12/2016 16:00,9.1,12,,,0,,82,,190,Dry,1019,1,26,,,,6.3,
Wick,29/12/2016 17:00,9.4,18,,,0,,82,29,210,Dry,1019,1,30,,,,6.5,
Wick,29/12/2016 18:00,9.3,21,,9.5,0,0,82,29,180,Dry,1019,1,23,,,,6.4,
Wick,29/12/2016 19:00,9.9,22,,,0,,75,30,190,Dry,1019,,30,,,,5.8,
Wick,29/12/2016 20:00,9,15,,,0,,82,,170,Dry,1018,0,21,,,,6.2,
Wick,29/12/2016 21:00,8.8,14,,,0,,83,,170,Dry,1018,0,17,,,,6.2,
Wick,29/12/2016 22:00,9.8,18,,,0,,77,23,210,Dry,1017,0,35,,,,6,
Wick,29/12/2016 23:00,11.5,39,,,0,,70,48,230,Dry,1015,0,45,,,,6.4,
Wick,30/12/2016 00:00,10.4,24,,,0,0,78,48,180,Dry,1016,0,20,,,,6.8,
Wick,30/12/2016 01:00,10.6,35,,,0,,79,46,220,Dry,1016,1,40,,,,7.2,
Wick,30/12/2016 02:00,10.1,22,,,0,,85,31,200,Dry,1016,7,20,,,,7.7,
Wick,30/12/2016 03:00,9.7,28,,,0,,91,36,200,Haze,1016,8,11,,,,8.4,
Wick,30/12/2016 04:00,9.8,29,,,0,,94,41,200,Light shower,1016,1,6,,,,9,
Wick,30/12/2016 05:00,9.7,24,,,1,,96,31,190,Moderate rain,1016,7,14,,,,9.2,
Wick,30/12/2016 06:00,10.1,22,8.8,,0,1,96,35,190,Rain,1016,1,11,,,,9.5,
Wick,30/12/2016 07:00,10.4,17,,,0,,94,30,190,Dry,1017,7,22,,,,9.5,
Wick,30/12/2016 08:00,9.6,7,,,0.6,,98,,300,Light drizzle,1018,1,5,,,,9.3,
Wick,30/12/2016 09:00,9.5,2,,,0.4,,98,,230,Rain,1018,7,3,,,,9.3,
Wick,30/12/2016 10:00,9.7,2,,,0,,100,,210,Dry,1018,1,45,,,,9.7,
Wick,30/12/2016 11:00,10.2,13,,,0,,96,,230,Dry,1018,7,35,,,,9.6,
Wick,30/12/2016 12:00,10.2,12,,,0.2,1,96,,240,Light shower,1018,6,40,,,,9.6,
Wick,30/12/2016 13:00,10.5,8,,,0,,94,,230,Rain,1018,3,21,,,,9.7,
Wick,30/12/2016 14:00,10.3,8,,,0.4,,96,,240,Light drizzle,1018,1,5,,,,9.8,
Wick,30/12/2016 15:00,10,1,,,1.8,,98,,190,Light drizzle,1017,7,12,,,,9.7,
Wick,30/12/2016 16:00,10.7,14,,,0.8,,97,,210,Light drizzle,1016,1,10,,,,10.3,
Wick,30/12/2016 17:00,10.9,18,,,1.2,,95,,210,Light rain,1016,7,15,,,,10.2,
Wick,30/12/2016 18:00,10.5,17,,11.5,0.2,5,96,,210,Rain,1015,1,20,,,,10,
Wick,30/12/2016 19:00,11,22,,,0.2,,95,30,220,Drizzly rain,1015,2,6,,,,10.3,
Wick,30/12/2016 20:00,11.1,20,,,0.6,,95,,210,Drizzly rain,1015,1,8,,,,10.4,
Wick,30/12/2016 21:00,11.5,16,,,0.6,,92,,220,Drizzly rain,1014,1,10,,,,10.4,
Wick,30/12/2016 22:00,11.8,18,,,0.2,,90,,220,Rain,1014,7,16,,,,10.3,
Wick,30/12/2016 23:00,10.7,14,,,0.2,,96,,200,Drizzly rain,1014,1,10,,,,10.1,
Wick,31/12/2016 00:00,10.7,15,,,0.6,2,95,,200,Rain,1013,4,45,,,,10,
Wick,31/12/2016 01:00,11.7,23,,,0.2,,91,33,230,Light shower,1013,1,12,,,,10.3,
Wick,31/12/2016 02:00,8.5,8,,,1.8,,98,31,320,Moderate rain,1014,3,7,,,,8.3,
Wick,31/12/2016 03:00,7.5,9,,,1.8,,99,,320,Light rain,1014,5,5,,,,7.4,
Wick,31/12/2016 04:00,7.2,3,,,0.8,,100,,280,Light drizzle,1014,1,10,,,,7.2,
Wick,31/12/2016 05:00,7,6,,,1,,100,,290,Light drizzle,1013,1,10,,,,7,
Wick,31/12/2016 06:00,6.9,5,6.9,,0.6,7,100,,280,Light rain,1013,3,12,,,,6.9,
Wick,31/12/2016 07:00,6.7,5,,,0.6,,100,,260,Light rain,1013,8,7,,,,6.7,
Wick,31/12/2016 08:00,6.9,7,,,1.6,,100,,290,Light rain,1014,2,2,,,,6.9,
Wick,31/12/2016 09:00,6.5,8,,,1.2,,100,,290,Light rain,1014,3,10,,,,6.5,
Wick,31/12/2016 10:00,6.4,6,,,0.8,,100,,260,Light rain,1014,7,15,,,,6.4,
Wick,31/12/2016 11:00,6.4,7,,,0.6,,100,,240,Light rain,1014,7,17,,,,6.4,
Wick,31/12/2016 12:00,6.5,12,,,0.2,5,95,,230,Light rain,1014,1,40,,,,5.9,
Wick,31/12/2016 13:00,6.2,16,,,0,,92,,260,Rain,1013,4,17,,,,5,
Wick,31/12/2016 14:00,6,15,,,0,,90,,260,Rain,1013,5,50,,,,4.6,
Wick,31/12/2016 15:00,5.5,13,,,0,,93,,260,Rain,1013,2,27,,,,4.6,
Wick,31/12/2016 16:00,4.8,12,,,0,,93,,260,Dry,1013,2,30,,,,3.8,
Wick,31/12/2016 17:00,4.5,14,,,0.2,,93,,260,Rain,1014,7,35,,,,3.5,
Wick,31/12/2016 18:00,3.8,15,,6.9,0,0,93,,260,Light shower,1014,2,30,,,,2.9,
Wick,31/12/2016 19:00,2.8,14,,,0,,97,,260,Rain,1014,1,35,,,,2.4,
Wick,31/12/2016 20:00,3,15,,,0,,95,,280,Moderate precip.,1015,2,8,,,,2.3,
Wick,31/12/2016 21:00,2.6,13,,,0.4,,88,29,300,Light shower,1015,1,50,,,,0.9,
Wick,31/12/2016 22:00,3,3,,,0,,90,,190,Rain,1016,3,35,,,,1.6,
Wick,31/12/2016 23:00,1.7,9,,,0,,88,,320,Dry,1017,0,40,,,,0,
Wick,01/01/2017 00:00,1.1,7,,,0,0.4,91,,300,Precipitation,1018,4,30,,,,-0.1,
Wick,01/01/2017 01:00,2.8,12,,,0,,88,23,340,Dry,1018,1,24,,,,1.1,
Wick,01/01/2017 02:00,2.9,16,,,0.2,,90,30,330,Rain,1019,1,40,,,,1.5,
Wick,01/01/2017 03:00,3.9,18,,,0.2,,86,29,330,Rain,1019,7,23,,,,1.9,
Wick,01/01/2017 04:00,2.8,15,,,0,,83,,320,Dry,1019,2,35,,,,0.3,
Wick,01/01/2017 05:00,2.3,26,,,0,,85,37,320,Rain,1019,1,50,,,,0.2,
Wick,01/01/2017 06:00,1.9,10,1,,0,0.4,87,,310,Dry,1019,4,24,,,,0.1,
Wick,01/01/2017 07:00,3.2,17,,,0,,81,,330,Dry,1020,1,23,,,,0.4,
Wick,01/01/2017 08:00,4,23,,,0,,84,31,340,Dry,1020,1,27,,,,1.7,
Wick,01/01/2017 09:00,4,33,,,0.6,,90,46,340,Light shower,1022,4,22,,,,2.6,
Wick,01/01/2017 10:00,4.1,33,,,0.2,,91,53,350,Light drizzle,1023,4,9,,,,2.9,
Wick,01/01/2017 11:00,4.3,30,,,0.4,,91,45,350,Rain,1025,1,22,,,,3.1,
Wick,01/01/2017 12:00,4.9,22,,,0.2,1,83,47,20,Rain,1025,1,16,,,,2.4,
Wick,01/01/2017 13:00,5,31,,,0,,75,45,360,Dry,1026,3,13,,,,1,
Wick,01/01/2017 14:00,5.2,28,,,0,,72,37,10,Dry,1027,7,17,,,,0.6,
Wick,01/01/2017 15:00,4.5,24,,,0,,80,41,10,Rain,1028,1,19,,,,1.4,
Wick,01/01/2017 16:00,4.6,23,,,0,,76,32,360,Dry,1029,1,21,,,,0.8,
Wick,01/01/2017 17:00,3.5,22,,,0,,76,30,350,Dry,1030,4,24,,,,-0.2,
Wick,01/01/2017 18:00,3.6,16,,5.8,0,0,76,,350,Dry,1030,0,20,,,,-0.2,
Wick,01/01/2017 19:00,0.9,8,,,0,,85,,310,Dry,1031,0,28,,,,-1.3,
Wick,01/01/2017 20:00,0.9,12,,,0,,87,,310,Dry,1031,0,35,,,,-1,
Wick,01/01/2017 21:00,2.1,8,,,0,,89,,330,Rain,1031,3,21,,,,0.5,
Wick,01/01/2017 22:00,1.2,9,,,0,,92,,300,Dry,1031,1,25,,,,0.1,
Wick,01/01/2017 23:00,1,14,,,0.6,,95,,320,Moderate shower,1031,5,3,,,,0.3,
Wick,02/01/2017 00:00,0.5,5,,,0.4,1,97,,240,Snow,1030,3,27,,,,0.2,
Wick,02/01/2017 01:00,1.4,9,,,0.4,,97,,330,Rain,1030,1,21,,,,1,
Wick,02/01/2017 02:00,1.4,9,,,0,,96,,320,Dry,1030,3,29,,,,0.9,
Wick,02/01/2017 03:00,1,5,,,0.8,,95,,280,Rain,1029,1,35,,,,0.4,
Wick,02/01/2017 04:00,1.9,12,,,0,,91,,290,Dry,1028,3,45,,,,0.6,
Wick,02/01/2017 05:00,2.2,13,,,0,,87,,290,Dry,1028,7,45,,,,0.3,
Wick,02/01/2017 06:00,2.3,13,0.1,,0,1,91,,260,Dry,1027,1,17,,,,1,
Wick,02/01/2017 07:00,2.4,13,,,0.2,,93,,250,Moderate precip.,1026,4,5,,,,1.5,
Wick,02/01/2017 08:00,2.3,9,,,1.2,,97,,280,Rain,1026,1,20,,,,2,
Wick,02/01/2017 09:00,3.5,18,,,0.2,,92,31,320,Light shower,1026,3,15,,,,2.4,
Wick,02/01/2017 10:00,3.7,15,,,0,,89,,320,Rain,1026,2,20,,,,2.2,
Wick,02/01/2017 11:00,3.9,12,,,0,,88,,310,Dry,1026,3,40,,,,2.2,
Wick,02/01/2017 12:00,4.4,10,,,0,2,86,,300,Dry,1026,1,23,,,,2.3,
Wick,02/01/2017 13:00,4.5,13,,,0,,89,,300,Rain,1025,1,28,,,,3,
Wick,02/01/2017 14:00,4.9,15,,,0.2,,91,,290,Rain,1025,4,30,,,,3.6,
Wick,02/01/2017 15:00,5.4,12,,,0.2,,93,,290,Rain,1024,4,23,,,,4.5,
Wick,02/01/2017 16:00,5.1,15,,,0.2,,91,,290,Rain,1024,1,30,,,,3.8,
Wick,02/01/2017 17:00,4.9,12,,,0,,95,,290,Dry,1024,3,40,,,,4.2,
Wick,02/01/2017 18:00,5,17,,5.8,0.6,1,95,31,290,Drizzle,1023,1,40,,,,4.4,
Wick,02/01/2017 19:00,5.1,20,,,0,,95,29,280,Drizzle,1023,2,30,,,,4.5,
Wick,02/01/2017 20:00,5.3,15,,,0,,95,35,270,Misty,1022,1,8,,,,4.7,
Wick,02/01/2017 21:00,5.7,22,,,0,,91,30,280,Dry,1021,1,27,,,,4.4,
Wick,02/01/2017 22:00,5.7,18,,,0,,94,30,270,Dry,1021,5,35,,,,4.9,
Wick,02/01/2017 23:00,6.2,26,,,0,,96,40,280,Misty,1020,7,4,,,,5.7,
Wick,03/01/2017 00:00,6.5,24,,,0,0,97,35,270,Dry,1019,5,10,,,,6.2,
Wick,03/01/2017 01:00,6.9,25,,,0,,96,35,270,Dry,1018,8,26,,,,6.4,
Wick,03/01/2017 02:00,7.3,23,,,0,,95,39,270,Dry,1018,8,35,,,,6.6,
Wick,03/01/2017 03:00,7.6,24,,,0,,96,36,270,Misty,1018,8,10,,,,7.1,
Wick,03/01/2017 04:00,7.8,26,,,0.2,,97,37,270,Misty,1016,8,11,,,,7.4,
Wick,03/01/2017 05:00,8.1,30,,,0,,95,41,280,Misty,1015,7,5,,,,7.5,
Wick,03/01/2017 06:00,8,33,4.7,,0,0.2,94,46,280,Misty,1014,4,9,,,,7.2,
Wick,03/01/2017 07:00,8.4,35,,,0,,92,49,280,Dry,1014,7,27,,,,7.3,
Wick,03/01/2017 08:00,8.5,39,,,0,,92,55,280,Dry,1013,6,10,,,,7.4,
Wick,03/01/2017 09:00,8.6,39,,,0,,94,52,280,Dry,1014,5,10,,,,7.8,
Wick,03/01/2017 10:00,8.4,37,,,0,,95,53,280,Dry,1014,5,18,,,,7.7,
Wick,03/01/2017 11:00,8.5,38,,,0,,92,49,280,Haze,1014,3,9,,,,7.3,
Wick,03/01/2017 12:00,7.7,38,,,0.4,0.4,92,52,290,Drizzle,1014,1,17,,,,6.6,
Wick,03/01/2017 13:00,7.4,36,,,0,,90,51,290,Dry,1013,1,26,,,,5.9,
Wick,03/01/2017 14:00,7.7,32,,,0,,90,49,290,Dry,1013,1,15,,,,6.3,
Wick,03/01/2017 15:00,7,29,,,0,,87,51,300,Dry,1014,2,13,,,,5,
Wick,03/01/2017 16:00,7,25,,,0,,85,43,290,Haze,1014,2,10,,,,4.7,
Wick,03/01/2017 17:00,6.4,30,,,0,,77,44,300,Rain,1014,3,15,,,,2.8,
Wick,03/01/2017 18:00,6.5,29,,8.7,0,0.2,81,43,300,Rain,1015,3,11,,,,3.5,
Wick,03/01/2017 19:00,5.3,31,,,0,,77,43,320,Dry,1016,6,16,,,,1.7,
Wick,03/01/2017 20:00,4.6,30,,,0,,71,43,320,Dry,1017,2,18,,,,-0.1,
Wick,03/01/2017 21:00,4.4,30,,,0,,67,44,310,Dry,1018,5,20,,,,-1,
Wick,03/01/2017 22:00,3.8,28,,,0,,67,43,310,Dry,1018,5,24,,,,-1.6,
Wick,03/01/2017 23:00,4.5,28,,,0,,67,43,310,Dry,1019,7,24,,,,-0.9,
Wick,04/01/2017 00:00,4.4,0,,,0,0,66,36,0,Rain,1019,2,18,,,,-1.3,
Wick,04/01/2017 01:00,3.5,0,,,0,,62,,0,Dry,1020,2,25,,,,-3,
Wick,04/01/2017 02:00,4.3,0,,,0,,63,,0,Dry,1021,5,35,,,,-2.1,
Wick,04/01/2017 03:00,3,0,,,0,,80,,0,Rain,1021,3,26,,,,-0.1,
Wick,04/01/2017 04:00,3.5,0,,,0,,77,33,0,Dry,1022,3,14,,,,-0.1,
Wick,04/01/2017 05:00,4.1,0,,,0,,69,,0,Rain,1022,1,27,,,,-0.9,
Wick,04/01/2017 06:00,3.5,0,2.7,,0,0,80,,0,Rain,1023,7,21,,,,0.4,
Wick,04/01/2017 07:00,3.4,0,,,0,,71,37,0,Rain,1024,8,27,,,,-1.3,
Wick,04/01/2017 08:00,3.7,0,,,0,,64,,0,Dry,1024,1,30,,,,-2.4,
Wick,04/01/2017 09:00,3.3,0,,,0.2,,70,,0,Rain,1026,7,25,,,,-1.6,
Wick,04/01/2017 10:00,2.3,0,,,0,,83,,0,Dry,1026,1,16,,,,-0.2,
Wick,04/01/2017 11:00,3,0,,,0,,74,,0,Dry,1027,7,30,,,,-1,
Wick,04/01/2017 12:00,3.2,0,,,0,0.2,70,,0,Dry,1027,8,24,,,,-1.7,
Wick,04/01/2017 13:00,3.2,0,,,0,,70,,0,Dry,1028,8,20,,,,-1.7,
Wick,04/01/2017 14:00,3.2,0,,,0,,68,,0,Dry,1028,8,25,,,,-2,
Wick,04/01/2017 15:00,3.2,0,,,0,,68,,0,Dry,1028,8,30,,,,-2,
Wick,04/01/2017 16:00,3,16,,,0,,74,,340,Dry,1029,8,28,,,,-1.1,
Wick,04/01/2017 17:00,3,17,,,0,,73,,340,Dry,1029,1,30,,,,-1.3,
Wick,04/01/2017 18:00,3.2,17,,4,0,0,63,,350,Dry,1030,8,45,,,,-3,
Wick,04/01/2017 19:00,3,9,,,0,,71,,320,Dry,1030,8,23,,,,-1.7,
Wick,04/01/2017 20:00,3,13,,,0,,72,,330,Dry,1031,8,22,,,,-1.4,
Wick,04/01/2017 21:00,2.5,8,,,0,,74,,320,Dry,1031,8,18,,,,-1.6,
Wick,04/01/2017 22:00,2.8,9,,,0,,73,,320,Dry,1032,8,16,,,,-1.4,
Wick,04/01/2017 23:00,2.8,9,,,0,,72,,320,Dry,1032,8,23,,,,-1.7,
Wick,05/01/2017 00:00,2.8,6,,,0,0,75,,350,Dry,1032,8,35,,,,-1.1,
Wick,05/01/2017 01:00,1.8,6,,,0,,81,,260,Dry,1032,8,30,,,,-1.1,
Wick,05/01/2017 02:00,1.8,5,,,0,,81,,260,Dry,1032,8,40,,,,-1.1,
Wick,05/01/2017 03:00,1.7,6,,,0,,81,,260,Dry,1032,8,35,,,,-1.2,
Wick,05/01/2017 04:00,2.9,6,,,0,,68,,220,Dry,1032,8,45,,,,-2.4,
Wick,05/01/2017 05:00,2.8,3,,,0,,66,,220,Dry,1032,8,40,,,,-2.8,
Wick,05/01/2017 06:00,2.3,2,1.4,,0,0,70,,220,Dry,1031,8,45,,,,-2.6,
Wick,05/01/2017 07:00,3.4,6,,,0,,64,,180,Dry,1031,8,45,,,,-2.6,
Wick,05/01/2017 08:00,3.9,8,,,0,,63,,160,Dry,1031,8,40,,,,-2.3,
Wick,05/01/2017 09:00,3.9,12,,,0,,64,,180,Dry,1031,8,50,,,,-2.1,
Wick,05/01/2017 10:00,3.8,13,,,0,,67,,170,Dry,1030,1,35,,,,-1.7,
Wick,05/01/2017 11:00,4,16,,,0,,63,,160,Dry,1030,1,50,,,,-2.3,
Wick,05/01/2017 12:00,3.7,14,,,0,0,65,,180,Dry,1029,1,30,,,,-2.1,
Wick,05/01/2017 13:00,3.5,14,,,0,,68,,180,Dry,1028,1,40,,,,-1.7,
Wick,05/01/2017 14:00,3.2,13,,,0,,72,,200,Dry,1028,1,30,,,,-1.3,
Wick,05/01/2017 15:00,2.8,12,,,0,,72,,200,Dry,1027,1,35,,,,-1.7,
Wick,05/01/2017 16:00,3.7,13,,,0,,70,,200,Dry,1027,1,50,,,,-1.1,
Wick,05/01/2017 17:00,3.8,13,,,0,,70,,190,Dry,1026,1,35,,,,-1.1,
Wick,05/01/2017 18:00,4.2,16,,4.3,0,0,68,30,190,Dry,1025,1,30,,,,-1.1,
Wick,05/01/2017 19:00,3.9,13,,,0,,69,,180,Dry,1025,1,30,,,,-1.1,
Wick,05/01/2017 20:00,4,13,,,0,,72,,190,Dry,1024,1,27,,,,-0.4,
Wick,05/01/2017 21:00,4.5,15,,,0,,77,,180,Dry,1024,1,30,,,,0.9,
Wick,05/01/2017 22:00,5,18,,,0,,78,31,180,Dry,1023,1,29,,,,1.5,
Wick,05/01/2017 23:00,5.9,17,,,0,,79,32,190,Dry,1023,5,13,,,,2.7,
Wick,06/01/2017 00:00,5.7,15,,,1.2,1,86,,180,Light shower,1022,4,21,,,,3.7,
Wick,06/01/2017 01:00,5.8,16,,,0,,85,,190,Rain,1022,7,30,,,,3.5,
Wick,06/01/2017 02:00,5.7,15,,,0.2,,88,,190,Light shower,1022,8,13,,,,4,
Wick,06/01/2017 03:00,5.9,13,,,1.6,,93,,190,Rain,1021,3,35,,,,5,
Wick,06/01/2017 04:00,6.6,20,,,0,,88,,190,Dry,1020,1,45,,,,4.9,
Wick,06/01/2017 05:00,7.7,17,,,0,,85,31,200,Dry,1020,8,45,,,,5.5,
Wick,06/01/2017 06:00,7.3,9,3.7,,0,2,88,,180,Dry,1020,5,50,,,,5.5,
Wick,06/01/2017 07:00,7.2,20,,,0,,90,,190,Dry,1020,2,40,,,,5.7,
Wick,06/01/2017 08:00,7.2,7,,,0,,91,,180,Dry,1021,6,45,,,,5.9,
Wick,06/01/2017 09:00,7.4,7,,,0,,90,,170,Dry,1021,8,50,,,,5.9,
Wick,06/01/2017 10:00,7.8,10,,,0,,91,,210,Dry,1021,3,50,,,,6.5,
Wick,06/01/2017 11:00,8.4,12,,,0,,92,,210,Dry,1021,4,40,,,,7.3,
Wick,06/01/2017 12:00,8.5,9,,,0,0,92,,200,Dry,1021,7,45,,,,7.3,
Wick,06/01/2017 13:00,8.6,7,,,0,,92,,210,Dry,1021,7,35,,,,7.5,
Wick,06/01/2017 14:00,9.9,8,,,0,,89,,260,Dry,1021,8,50,,,,8.3,
Wick,06/01/2017 15:00,9.1,9,,,0,,92,,300,Dry,1022,7,25,,,,7.9,
Wick,06/01/2017 16:00,8.6,3,,,0,,94,,220,Dry,1022,1,9,,,,7.8,
Wick,06/01/2017 17:00,8.4,5,,,0,,96,,240,Dry,1023,7,40,,,,7.9,
Wick,06/01/2017 18:00,7.9,10,,10.2,0,0,93,,250,Dry,1023,2,50,,,,6.9,
Wick,06/01/2017 19:00,7.7,13,,,0,,97,,260,Misty,1024,3,9,,,,7.4,
Wick,06/01/2017 20:00,7.6,10,,,0.2,,99,,290,Misty,1024,7,3,,,,7.5,
Wick,06/01/2017 21:00,6.7,16,,,0,,97,,300,Misty,1026,1,7,,,,6.4,
Wick,06/01/2017 22:00,6.4,12,,,0,,93,,270,Dry,1026,7,12,,,,5.4,
Wick,06/01/2017 23:00,5.1,12,,,0,,90,,290,Dry,1026,3,15,,,,3.7,
Wick,07/01/2017 00:00,4.7,10,,,0,0.2,93,,270,Dry,1027,6,13,,,,3.7,
Wick,07/01/2017 01:00,4.9,13,,,0,,93,,270,Dry,1027,7,12,,,,4,
Wick,07/01/2017 02:00,3.8,14,,,0,,92,,270,Dry,1027,0,15,,,,2.7,
Wick,07/01/2017 03:00,3.4,7,,,0,,91,,260,Dry,1027,0,16,,,,2.1,
Wick,07/01/2017 04:00,2,12,,,0,,93,,260,Dry,1027,0,16,,,,1.1,
Wick,07/01/2017 05:00,2.5,6,,,0,,92,,250,Dry,1028,3,18,,,,1.4,
Wick,07/01/2017 06:00,3.1,6,2,,0,0,93,,240,Dry,1028,7,17,,,,2.1,
Wick,07/01/2017 07:00,3.9,8,,,0,,90,,240,Dry,1028,8,19,,,,2.5,
Wick,07/01/2017 08:00,3.4,7,,,0,,89,,250,Dry,1028,7,16,,,,1.9,
Wick,07/01/2017 09:00,2.7,6,,,0,,91,,260,Dry,1029,1,18,,,,1.4,
Wick,07/01/2017 10:00,2.3,6,,,0,,91,,250,Dry,1029,0,14,,,,1.1,
Wick,07/01/2017 11:00,3.7,8,,,0,,90,,260,Dry,1029,0,19,,,,2.3,
Wick,07/01/2017 12:00,4.4,3,,,0,0,87,,220,Dry,1028,0,22,,,,2.5,
Wick,07/01/2017 13:00,5.8,7,,,0,,81,,190,Dry,1028,2,18,,,,2.9,
Wick,07/01/2017 14:00,5.8,7,,,0,,86,,180,Dry,1027,3,21,,,,3.7,
Wick,07/01/2017 15:00,6.2,10,,,0,,90,,180,Dry,1027,1,30,,,,4.7,
Wick,07/01/2017 16:00,6.3,12,,,0,,95,,180,Dry,1027,7,35,,,,5.6,
Wick,07/01/2017 17:00,6.3,15,,,0,,97,,190,Dry,1026,8,29,,,,5.9,
Wick,07/01/2017 18:00,6.4,9,,6.5,0,0,94,,180,Dry,1026,8,45,,,,5.6,
Wick,07/01/2017 19:00,6.1,6,,,0,,95,,130,Dry,1025,8,27,,,,5.4,
Wick,07/01/2017 20:00,6.5,5,,,0,,90,,180,Dry,1025,2,40,,,,5,
Wick,07/01/2017 21:00,6.8,5,,,0,,89,,220,Dry,1025,0,45,,,,5.2,
Wick,07/01/2017 22:00,6.1,9,,,0,,92,,190,Dry,1024,0,45,,,,5,
Wick,07/01/2017 23:00,5.9,6,,,0,,96,,190,Dry,1024,0,40,,,,5.4,
Wick,08/01/2017 00:00,5.7,6,,,0,0,95,,190,Dry,1024,0,50,,,,5.1,
Wick,08/01/2017 01:00,4.7,8,,,0,,87,,240,Dry,1024,0,50,,,,2.8,
Wick,08/01/2017 02:00,6.9,17,,,0,,89,,260,Dry,1024,0,50,,,,5.3,
Wick,08/01/2017 03:00,7.3,7,,,0,,85,,200,Dry,1025,1,50,,,,5,
Wick,08/01/2017 04:00,8,9,,,0,,84,,210,Dry,1025,0,50,,,,5.6,
Wick,08/01/2017 05:00,7.5,10,,,0,,87,,230,Dry,1024,0,50,,,,5.6,
Wick,08/01/2017 06:00,7.1,9,4.7,,0,0,88,,190,Dry,1025,0,50,,,,5.4,
Wick,08/01/2017 07:00,7.3,10,,,0,,90,,210,Dry,1025,0,50,,,,5.8,
Wick,08/01/2017 08:00,6.3,7,,,0,,94,,200,Dry,1025,0,45,,,,5.5,
Wick,08/01/2017 09:00,5.1,6,,,0,,94,,250,Dry,1026,0,50,,,,4.3,
Wick,08/01/2017 10:00,6.5,5,,,0,,95,,180,Dry,1026,0,40,,,,5.8,
Wick,08/01/2017 11:00,7.7,7,,,0,,90,,210,Dry,1025,0,45,,,,6.3,
Wick,08/01/2017 12:00,8.3,8,,,0,0,92,,180,Dry,1025,2,40,,,,7.2,
Wick,08/01/2017 13:00,9.5,9,,,0,,85,,190,Dry,1024,1,35,,,,7.2,
Wick,08/01/2017 14:00,8.5,8,,,0,,89,,180,Dry,1024,6,50,,,,6.8,
Wick,08/01/2017 15:00,8.3,12,,,0,,89,,180,Dry,1022,1,50,,,,6.6,
Wick,08/01/2017 16:00,7.7,13,,,0,,94,,180,Dry,1022,1,50,,,,6.8,
Wick,08/01/2017 17:00,8.6,13,,,0,,90,,180,Dry,1021,7,45,,,,7.2,
Wick,08/01/2017 18:00,8.6,12,,9.5,0,0,93,,180,Dry,1020,1,50,,,,7.6,
Wick,08/01/2017 19:00,8.6,14,,,0,,92,,190,Dry,1019,0,45,,,,7.4,
Wick,08/01/2017 20:00,8.4,13,,,0,,93,,180,Dry,1018,0,50,,,,7.4,
Wick,08/01/2017 21:00,8.7,14,,,0,,92,,180,Dry,1017,0,45,,,,7.6,
Wick,08/01/2017 22:00,9,12,,,0,,90,,160,Dry,1016,2,45,,,,7.5,
Wick,08/01/2017 23:00,9.1,13,,,0,,87,,160,Dry,1015,1,35,,,,7.2,
Wick,09/01/2017 00:00,8.9,12,,,0,0,89,,170,Dry,1012,1,40,,,,7.2,
Wick,09/01/2017 01:00,9.3,17,,,0,,87,,190,Dry,1011,0,50,,,,7.3,
Wick,09/01/2017 02:00,9.7,22,,,0,,84,31,180,Rain,1008,7,40,,,,7.3,
Wick,09/01/2017 03:00,9.9,17,,,0,,83,30,170,Dry,1007,2,45,,,,7.3,
Wick,09/01/2017 04:00,10.1,21,,,0,,80,35,170,Dry,1004,7,30,,,,6.9,
Wick,09/01/2017 05:00,10.2,18,,,0,,79,29,170,Dry,1003,7,35,,,,6.9,
Wick,09/01/2017 06:00,9.7,20,8.4,,0,0,80,30,180,Drizzly rain,1001,7,30,,,,6.5,
Wick,09/01/2017 07:00,7.1,16,,,0,,88,32,260,Light shower,1001,1,40,,,,5.3,
Wick,09/01/2017 08:00,6.3,15,,,0,,87,,250,Rain,1001,5,50,,,,4.3,
Wick,09/01/2017 09:00,5.2,8,,,0,,86,,210,Dry,1001,1,50,,,,3.1,
Wick,09/01/2017 10:00,4.4,9,,,0,,83,,230,Dry,1001,1,27,,,,1.9,
Wick,09/01/2017 11:00,5.3,14,,,0,,82,,200,Dry,1000,1,40,,,,2.5,
Wick,09/01/2017 12:00,5.8,13,,,0,0,81,,200,Dry,999,1,30,,,,2.9,
Wick,09/01/2017 13:00,5.9,17,,,0,,79,,200,Dry,998,1,23,,,,2.7,
Wick,09/01/2017 14:00,5.8,17,,,0,,81,,190,Dry,997,1,30,,,,2.9,
Wick,09/01/2017 15:00,5.4,20,,,0,,83,29,190,Dry,996,1,50,,,,2.8,
Wick,09/01/2017 16:00,5.2,17,,,0,,85,,190,Dry,996,1,30,,,,2.9,
Wick,09/01/2017 17:00,5.3,24,,,0,,80,32,190,Dry,994,1,28,,,,2.3,
Wick,09/01/2017 18:00,5.5,22,,9.7,0,0,79,32,180,Dry,993,1,27,,,,2.3,
Wick,09/01/2017 19:00,5.6,22,,,0,,78,37,190,Dry,992,7,21,,,,2.2,
Wick,09/01/2017 20:00,5.3,24,,,0,,82,37,190,Dry,991,5,35,,,,2.6,
Wick,09/01/2017 21:00,4.8,20,,,0,,86,32,190,Dry,990,6,50,,,,2.7,
Wick,09/01/2017 22:00,4.9,20,,,0,,88,,190,Dry,990,1,40,,,,3.2,
Wick,09/01/2017 23:00,4.8,18,,,1,,93,,190,Moderate shower,989,6,7,,,,3.8,
Wick,10/01/2017 00:00,5.1,16,,,1,2,95,,200,Rain,989,2,30,,,,4.4,
Wick,10/01/2017 01:00,6.1,17,,,1.6,,93,29,250,Moderate shower,989,3,5,,,,5.2,
Wick,10/01/2017 02:00,5.8,16,,,0.4,,92,31,260,Light shower,990,1,8,,,,4.7,
Wick,10/01/2017 03:00,6,22,,,0.2,,92,31,270,Light shower,991,1,11,,,,4.9,
Wick,10/01/2017 04:00,6.3,28,,,0.6,,87,40,280,Rain,991,1,24,,,,4.3,
Wick,10/01/2017 05:00,6.6,24,,,0,,85,33,290,Dry,992,1,22,,,,4.3,
Wick,10/01/2017 06:00,7,24,4.6,,0,3,88,36,280,Dry,994,1,24,,,,5.3,
Wick,10/01/2017 07:00,6.5,28,,,0,,93,38,290,Light shower,995,1,18,,,,5.5,
Wick,10/01/2017 08:00,6.6,24,,,0.2,,92,35,280,Rain,996,2,3,,,,5.5,
Wick,10/01/2017 09:00,5.9,17,,,0,,91,32,280,Rain,996,1,18,,,,4.6,
Wick,10/01/2017 10:00,5.5,20,,,0,,91,29,270,Dry,996,1,30,,,,4.3,
Wick,10/01/2017 11:00,5.7,13,,,0,,91,,240,Dry,996,4,29,,,,4.4,
Wick,10/01/2017 12:00,6.5,22,,,0,0.2,89,30,260,Dry,996,2,35,,,,4.9,
Wick,10/01/2017 13:00,6.9,18,,,0,,88,30,260,Dry,996,2,20,,,,5.1,
Wick,10/01/2017 14:00,6.8,16,,,0,,87,,250,Dry,996,1,40,,,,4.9,
Wick,10/01/2017 15:00,7.2,15,,,0,,91,,240,Dry,995,2,13,,,,5.9,
Wick,10/01/2017 16:00,6.5,25,,,0,,89,37,270,Dry,995,1,28,,,,4.9,
Wick,10/01/2017 17:00,6,25,,,0,,85,37,270,Dry,995,3,20,,,,3.8,
Wick,10/01/2017 18:00,5.6,18,,7.3,0,0,85,35,250,Dry,996,1,30,,,,3.4,
Wick,10/01/2017 19:00,5.5,16,,,0,,86,,240,Dry,995,1,19,,,,3.4,
Wick,10/01/2017 20:00,5.8,18,,,0,,85,,230,Dry,994,2,18,,,,3.5,
Wick,10/01/2017 21:00,6.5,17,,,0,,82,,210,Dry,992,1,14,,,,3.8,
Wick,10/01/2017 22:00,6.4,13,,,0,,79,29,210,Dry,990,7,14,,,,3.1,
Wick,10/01/2017 23:00,5.8,12,,,0,,82,,180,Dry,986,8,15,,,,3,
Wick,11/01/2017 00:00,6.2,25,,,0,0,90,37,200,Light shower,981,1,13,,,,4.8,
Wick,11/01/2017 01:00,8.6,29,,,0.4,,89,41,240,Light shower,979,2,7,,,,7,
Wick,11/01/2017 02:00,7.3,47,,,0,,84,66,260,Rain,979,3,7,,,,4.9,
Wick,11/01/2017 03:00,6.5,41,,,0.4,,89,54,270,Rain,981,4,14,,,,4.9,
Wick,11/01/2017 04:00,5.5,33,,,0.2,,88,46,270,Drizzle,983,2,15,,,,3.7,
Wick,11/01/2017 05:00,5.5,36,,,0,,86,67,270,Light shower,984,5,11,,,,3.4,
Wick,11/01/2017 06:00,4.3,32,3.9,,0.2,1,87,48,280,Rain,984,5,4,,,,2.4,
Wick,11/01/2017 07:00,5.2,36,,,0.4,,82,48,280,Rain,985,1,13,,,,2.5,
Wick,11/01/2017 08:00,4.9,31,,,0,,88,43,270,Rain,986,4,11,,,,3.1,
Wick,11/01/2017 09:00,3.3,33,,,0.6,,93,48,280,Rain,986,2,20,,,,2.3,
Wick,11/01/2017 10:00,4.1,31,,,0.4,,91,43,280,Light shower,988,2,12,,,,2.9,
Wick,11/01/2017 11:00,3.7,35,,,0,,91,53,270,Rain,989,1,21,,,,2.5,
Wick,11/01/2017 12:00,4,37,,,0.2,2,89,61,270,Rain,989,3,22,,,,2.5,
Wick,11/01/2017 13:00,3.8,32,,,0,,85,53,270,Dry,989,1,35,,,,1.6,
Wick,11/01/2017 14:00,3.2,32,,,0,,91,47,260,Light shower,990,2,5,,,,1.9,
Wick,11/01/2017 15:00,3,36,,,0,,86,49,270,Rain,990,2,50,,,,0.9,
Wick,11/01/2017 16:00,3.2,30,,,0.2,,87,51,260,Rain,990,1,30,,,,1.3,
Wick,11/01/2017 17:00,2,30,,,0.4,,90,44,260,Moderate shower,991,1,4,,,,0.6,
Wick,11/01/2017 18:00,1.6,29,,5.6,1,1,95,52,260,Light shower,991,4,30,,,,1,
Wick,11/01/2017 19:00,2,32,,,0.2,,91,48,260,Light shower,991,3,19,,,,0.7,
Wick,11/01/2017 20:00,1.2,33,,,0.4,,95,47,260,Moderate shower,991,3,40,,,,0.5,
Wick,11/01/2017 21:00,1.5,29,,,0,,91,43,250,Moderate shower,991,1,2,,,,0.3,
Wick,11/01/2017 22:00,1.4,26,,,0.4,,95,39,270,Light shower,992,2,30,,,,0.7,
Wick,11/01/2017 23:00,2,29,,,0.4,,87,46,260,Rain,991,1,40,,,,0.2,
Wick,12/01/2017 00:00,1.2,30,,,0.2,2,93,40,250,Light shower,992,3,5,,,,0.3,
Wick,12/01/2017 01:00,2.2,35,,,0.2,,84,51,260,Rain,991,1,45,,,,-0.2,
Wick,12/01/2017 02:00,1.5,32,,,0,,91,44,260,Rain,991,2,35,,,,0.2,
Wick,12/01/2017 03:00,1.2,30,,,0.6,,93,46,260,Moderate shower,992,4,19,,,,0.3,
Wick,12/01/2017 04:00,1.1,32,,,0,,91,45,270,Light shower,991,1,19,,,,-0.2,
Wick,12/01/2017 05:00,0.5,30,,,0.2,,97,40,270,Snow shower,992,5,4,,,,0.2,
Wick,12/01/2017 06:00,0.4,21,0.2,,0.2,1,98,43,260,Light rain,992,4,4,,,,0.2,
Wick,12/01/2017 07:00,0.8,29,,,0.2,,90,43,260,Rain,991,1,30,,,,-0.5,
Wick,12/01/2017 08:00,0.7,26,,,0.2,,90,45,270,Snow,991,1,35,,,,-0.6,
Wick,12/01/2017 09:00,0.2,12,,,0,,94,29,250,Snow shower,991,2,9,,,,-0.6,
Wick,12/01/2017 10:00,0.6,20,,,0,,93,30,250,Snow,990,1,45,,,,-0.3,
Wick,12/01/2017 11:00,0.1,20,,,0.2,,99,37,260,Snow shower,990,7,1,,,,0,
Wick,12/01/2017 12:00,0,15,,,0.2,0.8,100,29,260,Moderate snow,991,7,1,,,30,0,
Wick,12/01/2017 13:00,0.2,13,,,0,,100,,260,Snow,990,7,50,,,30,0.2,
Wick,12/01/2017 14:00,0.2,18,,,0.2,,99,,260,Snow shower,990,3,7,,,40,0.1,
Wick,12/01/2017 15:00,0.1,16,,,0,,99,,260,Snow shower,990,7,1,,,50,0,
Wick,12/01/2017 16:00,0.4,14,,,0,,97,,270,Light rain,990,1,27,,,50,0,
Wick,12/01/2017 17:00,0.8,21,,,0,,78,35,310,Rain,991,2,27,,,50,-2.5,
Wick,12/01/2017 18:00,0.5,24,,1.2,0.2,0.2,72,39,300,Rain,991,2,30,,,50,-3.8,
Wick,12/01/2017 19:00,0.6,28,,,0,,76,37,300,Rain,991,4,9,,,50,-3.1,
Wick,12/01/2017 20:00,0.5,30,,,0,,75,46,280,Rain,991,1,10,,,40,-3.4,
Wick,12/01/2017 21:00,1,31,,,0,,77,40,280,Dry,990,1,9,,,40,-2.5,
Wick,12/01/2017 22:00,1.2,35,,,0,,85,46,280,Rain,989,1,4,,,,-0.9,
Wick,12/01/2017 23:00,0.7,35,,,0,,99,49,270,Light drizzle,988,6,4,,,,0.6,
Wick,13/01/2017 00:00,1.9,36,,,0,0,97,53,280,Rain,986,2,9,,,,1.5,
Wick,13/01/2017 01:00,2.3,22,,,0,,98,44,310,Moderate shower,987,4,4,,,,2.1,
Wick,13/01/2017 02:00,4.1,43,,,1.6,,90,53,340,Rain,990,1,8,,,,2.7,
Wick,13/01/2017 03:00,3.4,43,,,0,,90,54,340,Light drizzle,993,6,4,,,,2,
Wick,13/01/2017 04:00,3.6,33,,,0.2,,86,55,330,Rain,996,2,7,,,,1.6,
Wick,13/01/2017 05:00,3.2,37,,,0.2,,82,49,330,Rain,998,1,7,,,,0.5,
Wick,13/01/2017 06:00,2.5,31,0,,0.2,2,84,49,320,Moderate precip.,1000,7,6,,,,0.2,
Wick,13/01/2017 07:00,2.7,33,,,0.2,,79,47,330,Rain,1002,7,18,,,,-0.4,
Wick,13/01/2017 08:00,2.3,36,,,0,,82,48,330,Precipitation,1003,2,17,,,,-0.4,
Wick,13/01/2017 09:00,2.1,29,,,0,,84,47,330,Precipitation,1005,1,21,,,,-0.2,
Wick,13/01/2017 10:00,1.8,26,,,0,,83,51,330,Snow,1007,7,16,,,,-0.7,
Wick,13/01/2017 11:00,0.7,24,,,0,,90,39,320,Heavy snow,1008,1,6,,,,-0.6,
Wick,13/01/2017 12:00,1,29,,,0,0.2,85,38,330,Rain,1008,3,30,,,,-1.2,
Wick,13/01/2017 13:00,1.2,21,,,0.2,,75,38,310,Rain,1008,1,35,,,,-2.6,
Wick,13/01/2017 14:00,1.3,22,,,0,,77,35,340,Dry,1009,4,35,,,,-2.2,
Wick,13/01/2017 15:00,0.6,20,,,0,,84,33,310,Light shower,1009,2,30,,,,-1.7,
Wick,13/01/2017 16:00,-0.6,13,,,0,,88,36,280,Snow,1010,1,50,,,,-2.2,
Wick,13/01/2017 17:00,0.6,15,,,0,,90,28,290,Moderate precip.,1010,5,8,,,,-0.8,
Wick,13/01/2017 18:00,0.3,14,,3,0,0.2,93,,280,Rain,1010,1,45,,,,-0.6,
Wick,13/01/2017 19:00,-1,7,,,0,,97,,270,Snow,1010,3,35,,,,-1.3,
Wick,13/01/2017 20:00,-0.1,7,,,0,,99,,230,Snow shower,1009,6,2,,,40,-0.2,
Wick,13/01/2017 21:00,-0.3,6,,,0,,99,,240,Moderate snow,1009,7,1,,,90,-0.4,
Wick,13/01/2017 22:00,-0.3,3,,,0,,99,,260,Light snow,1008,7,2,,,110,-0.4,
Wick,13/01/2017 23:00,0.5,10,,,0,,99,,350,Moderate precip.,1009,1,27,,,120,0.4,
Wick,14/01/2017 00:00,0,14,,,0,0,93,,350,Moderate precip.,1010,4,40,,,120,-0.9,
Wick,14/01/2017 01:00,-2.9,8,,,0,,93,,300,Precipitation,1011,1,50,,,120,-3.8,
Wick,14/01/2017 02:00,0.6,12,,,0,,92,,340,Dry,1012,4,45,,,120,-0.5,
Wick,14/01/2017 03:00,-2,8,,,0,,92,30,310,Snow,1012,1,45,,,120,-3,
Wick,14/01/2017 04:00,-0.6,18,,,0,,98,30,300,Snow shower,1012,3,8,,,130,-0.8,
Wick,14/01/2017 05:00,-0.5,13,,,0,,98,,300,Snow shower,1012,3,35,,,130,-0.7,
Wick,14/01/2017 06:00,-1.6,7,-3.6,,0,0,96,,280,Snow,1013,1,45,,,130,-2.1,
Wick,14/01/2017 07:00,-3.4,7,,,0,,92,,290,Dry,1014,0,40,,,130,-4.4,
Wick,14/01/2017 08:00,-0.8,10,,,0,,93,,320,Dry,1014,5,24,,,130,-1.7,
Wick,14/01/2017 09:00,-1,10,,,0,,91,,270,Freezing rain,1014,6,35,,,130,-2.2,
Wick,14/01/2017 10:00,0.3,9,,,0,,94,,300,Moderate precip.,1016,3,7,,,130,-0.5,
Wick,14/01/2017 11:00,0.1,7,,,0,,92,,290,Rain,1016,2,40,,,120,-1,
Wick,14/01/2017 12:00,-0.2,13,,,0,0,89,,300,Rain,1017,1,35,,,120,-1.7,
Wick,14/01/2017 13:00,-1.1,7,,,0,,83,,280,Dry,1017,2,35,,,120,-3.6,
Wick,14/01/2017 14:00,-0.6,13,,,0,,90,,260,Dry,1017,3,28,,,120,-1.9,
Wick,14/01/2017 15:00,-0.3,9,,,0,,95,,260,Dry,1018,2,40,,,120,-1,
Wick,14/01/2017 16:00,-0.6,6,,,0,,96,,240,Dry,1018,4,45,,,120,-1.1,
Wick,14/01/2017 17:00,0,7,,,0,,95,,240,Dry,1018,3,45,,,110,-0.6,
Wick,14/01/2017 18:00,-0.3,3,,1.3,0,0,92,,250,Dry,1018,6,45,,,110,-1.4,
Wick,14/01/2017 19:00,-0.3,3,,,0,,95,,230,Dry,1018,8,50,,,110,-1,
Wick,14/01/2017 20:00,2.3,7,,,0,,83,,180,Dry,1018,8,50,,,110,-0.2,
Wick,14/01/2017 21:00,1.6,5,,,0,,85,,210,Dry,1017,7,45,,,110,-0.5,
Wick,14/01/2017 22:00,1.5,7,,,0,,92,,180,Light shower,1017,5,14,,,100,0.4,
Wick,14/01/2017 23:00,2,8,,,0,,95,,170,Drizzly rain,1016,7,9,,,80,1.4,
Wick,15/01/2017 00:00,2.3,10,,,0,0,95,,190,Light rain,1015,7,23,,,80,1.6,
Wick,15/01/2017 01:00,2.7,10,,,3.2,,96,,190,Light rain,1014,7,7,,,70,2.2,
Wick,15/01/2017 02:00,2.4,10,,,4.2,,97,,180,Light rain,1013,3,9,,,70,2,
Wick,15/01/2017 03:00,3,13,,,3,,98,,180,Light rain,1012,7,4,,,60,2.8,
Wick,15/01/2017 04:00,3.4,10,,,1.8,,99,,170,Light drizzle,1012,7,2,,,50,3.3,
Wick,15/01/2017 05:00,3.2,9,,,1.2,,100,,180,Drizzle,1012,7,45,,,40,3.2,
Wick,15/01/2017 06:00,3,2,-0.6,,0.2,14,100,,260,Fog,1012,7,1,,,20,3,
Wick,15/01/2017 07:00,2.6,8,,,0,,100,,300,Thickening fog,1013,5,0,,,20,2.6,
Wick,15/01/2017 08:00,3.9,12,,,0,,100,,280,Fog,1014,3,1,,,,3.9,
Wick,15/01/2017 09:00,3.7,8,,,0,,100,,300,Thickening fog,1015,1,0,,,,3.7,
Wick,15/01/2017 10:00,3.5,7,,,0.2,,100,,280,Fog,1016,4,0,,,,3.5,
Wick,15/01/2017 11:00,4.1,10,,,0.4,,100,,270,Fog thinning,1017,3,1,,,,4.1,
Wick,15/01/2017 12:00,4.6,6,,,0.4,1,100,,280,Rain,1017,5,3,,,,4.6,
Wick,15/01/2017 13:00,5,9,,,0,,100,,280,Fog,1018,1,8,,,,5,
Wick,15/01/2017 14:00,6.4,8,,,0,,100,,290,Dry,1019,7,10,,,,6.4,
Wick,15/01/2017 15:00,5.3,7,,,0,,100,,260,Fog,1019,1,4,,,,5.3,
Wick,15/01/2017 16:00,5.3,1,,,0,,100,,290,Fog,1020,7,10,,,,5.3,
Wick,15/01/2017 17:00,5.2,2,,,0,,100,,270,Dry,1020,1,20,,,,5.2,
Wick,15/01/2017 18:00,5.6,6,,6.6,0,0,100,,280,Dry,1021,7,50,,,,5.6,
Wick,15/01/2017 19:00,5.4,2,,,0.4,,100,,270,Light drizzle,1021,3,1,,,,5.4,
Wick,15/01/2017 20:00,6.1,5,,,0.4,,100,,170,Light rain,1022,7,3,,,,6.1,
Wick,15/01/2017 21:00,6.6,5,,,0.4,,100,,180,Rain,1022,1,5,,,,6.6,
Wick,15/01/2017 22:00,7,7,,,0,,100,,190,Misty,1022,2,6,,,,7,
Wick,15/01/2017 23:00,6.9,5,,,0.6,,100,,190,Light drizzle,1022,2,8,,,,6.9,
Wick,16/01/2017 00:00,6.9,5,,,0.2,2,100,,200,Rain,1022,4,9,,,,6.9,
Wick,16/01/2017 01:00,7,0,,,0.2,,100,,0,Misty,1022,1,3,,,,7,
Wick,16/01/2017 02:00,7,0,,,0.2,,100,,0,Misty,1022,3,3,,,,7,
Wick,16/01/2017 03:00,7.1,0,,,0,,100,,0,Dry,1022,5,50,,,,7.1,
Wick,16/01/2017 04:00,7.1,0,,,0.2,,100,,0,Rain,1022,6,45,,,,7.1,
Wick,16/01/2017 05:00,7.5,0,,,0,,100,,0,Dry,1022,6,50,,,,7.5,
Wick,16/01/2017 06:00,7.4,0,5.3,,0,1,98,,0,Dry,1023,8,50,,,,7.2,
Wick,16/01/2017 07:00,7.2,0,,,0,,97,,0,Dry,1023,8,50,,,,6.9,
Wick,16/01/2017 08:00,7.4,0,,,0,,97,,0,Dry,1023,8,40,,,,7,
Wick,16/01/2017 09:00,7,0,,,0,,96,,0,Dry,1024,1,45,,,,6.5,
Wick,16/01/2017 10:00,7.2,0,,,0,,93,,0,Dry,1024,1,45,,,,6.2,
Wick,16/01/2017 11:00,7.8,0,,,0,,92,,0,Dry,1024,7,50,,,,6.6,
Wick,16/01/2017 12:00,8.5,0,,,0,0,92,,0,Dry,1024,8,50,,,,7.3,
Wick,16/01/2017 13:00,8.2,0,,,0,,94,,0,Dry,1024,8,40,,,,7.3,
Wick,16/01/2017 14:00,8.4,9,,,0,,93,,190,Dry,1024,7,35,,,,7.4,
Wick,16/01/2017 15:00,8.1,8,,,0,,94,,190,Dry,1024,1,35,,,,7.2,
Wick,16/01/2017 16:00,8,8,,,0.2,,95,,190,Light shower,1024,7,4,,,,7.4,
Wick,16/01/2017 17:00,8.7,8,,,0.2,,94,,190,Rain,1024,6,26,,,,7.9,
Wick,16/01/2017 18:00,8.7,8,,8.8,0,0.4,91,,190,Dry,1024,8,50,,,,7.4,
Wick,16/01/2017 19:00,8.5,10,,,0,,92,,180,Haze,1024,8,9,,,,7.4,
Wick,16/01/2017 20:00,8.3,8,,,0,,96,,170,Dry,1024,8,40,,,,7.8,
Wick,16/01/2017 21:00,8.8,6,,,0,,94,,170,Dry,1025,3,27,,,,7.9,
Wick,16/01/2017 22:00,8.8,8,,,0,,92,,190,Dry,1025,7,40,,,,7.7,
Wick,16/01/2017 23:00,9.1,5,,,0,,94,,180,Dry,1025,6,50,,,,8.2,
Wick,17/01/2017 00:00,9.2,10,,,0,0,91,,200,Dry,1025,2,50,,,,7.9,
Wick,17/01/2017 01:00,9.3,7,,,0,,92,,210,Dry,1025,7,45,,,,8.2,
Wick,17/01/2017 02:00,9.2,5,,,0,,90,,170,Dry,1025,4,50,,,,7.7,
Wick,17/01/2017 03:00,8.3,3,,,0,,95,,150,Dry,1025,0,45,,,,7.7,
Wick,17/01/2017 04:00,8.5,6,,,0,,93,,190,Dry,1025,2,45,,,,7.5,
Wick,17/01/2017 05:00,9.3,6,,,0,,94,,190,Dry,1025,3,45,,,,8.4,
Wick,17/01/2017 06:00,8.6,7,8.1,,0,0,94,,180,Dry,1026,3,50,,,,7.8,
Wick,17/01/2017 07:00,8.7,8,,,0,,95,,180,Dry,1026,5,50,,,,8,
Wick,17/01/2017 08:00,9.3,7,,,0,,94,,210,Dry,1026,7,45,,,,8.5,
Wick,17/01/2017 09:00,9.9,8,,,0,,93,,240,Dry,1027,1,50,,,,8.9,
Wick,17/01/2017 10:00,10.2,7,,,0,,94,,220,Dry,1027,1,50,,,,9.4,
Wick,17/01/2017 11:00,10.8,10,,,0,,92,,250,Dry,1028,6,50,,,,9.6,
Wick,17/01/2017 12:00,11.5,12,,,0,0,89,,240,Dry,1028,8,50,,,,9.8,
Wick,17/01/2017 13:00,11.4,10,,,0,,88,,220,Dry,1028,1,35,,,,9.5,
Wick,17/01/2017 14:00,11.2,6,,,0,,89,,230,Dry,1028,1,45,,,,9.6,
Wick,17/01/2017 15:00,10.2,7,,,0,,91,,230,Dry,1028,5,45,,,,8.8,
Wick,17/01/2017 16:00,10.5,8,,,0,,91,,230,Dry,1028,2,50,,,,9.1,
Wick,17/01/2017 17:00,10.8,12,,,0,,81,,220,Dry,1028,6,45,,,,7.7,
Wick,17/01/2017 18:00,9.8,10,,11.9,0,0,86,,220,Dry,1028,6,50,,,,7.6,
Wick,17/01/2017 19:00,9.9,8,,,0,,84,,180,Dry,1028,7,45,,,,7.4,
Wick,17/01/2017 20:00,9.2,5,,,0,,89,,190,Dry,1028,8,50,,,,7.5,
Wick,17/01/2017 21:00,8.4,8,,,0,,89,,190,Dry,1028,8,45,,,,6.7,
Wick,17/01/2017 22:00,8.2,10,,,0,,85,,200,Dry,1028,7,50,,,,6,
Wick,17/01/2017 23:00,8.2,9,,,0,,83,,210,Dry,1028,8,50,,,,5.6,
Wick,18/01/2017 00:00,8.1,8,,,0,0,83,,190,Dry,1028,8,30,,,,5.5,
Wick,18/01/2017 01:00,7.4,9,,,0,,85,,180,Dry,1028,3,50,,,,5.2,
Wick,18/01/2017 02:00,6.7,8,,,0,,89,,180,Dry,1028,1,45,,,,5.1,
Wick,18/01/2017 03:00,6.7,13,,,0,,86,,190,Dry,1028,1,45,,,,4.6,
Wick,18/01/2017 04:00,6.7,12,,,0,,88,,180,Dry,1028,2,35,,,,5,
Wick,18/01/2017 05:00,6.8,8,,,0,,88,,190,Dry,1027,0,45,,,,5,
Wick,18/01/2017 06:00,6.6,10,6.3,,0,0,86,,190,Dry,1028,0,50,,,,4.5,
Wick,18/01/2017 07:00,6.9,14,,,0,,87,,180,Dry,1028,7,50,,,,5,
Wick,18/01/2017 08:00,7.1,10,,,0,,84,,180,Dry,1028,1,50,,,,4.7,
Wick,18/01/2017 09:00,6.9,8,,,0,,82,,200,Dry,1028,1,50,,,,4.1,
Wick,18/01/2017 10:00,7.9,12,,,0,,77,,210,Dry,1029,1,50,,,,4.3,
Wick,18/01/2017 11:00,8.4,13,,,0,,78,,210,Dry,1029,1,40,,,,4.9,
Wick,18/01/2017 12:00,8.8,10,,,0,0,80,,200,Dry,1029,,40,,,,5.6,
Wick,18/01/2017 13:00,10.1,15,,,0,,75,,240,Dry,1029,3,50,,,,6,
Wick,18/01/2017 14:00,10.1,25,,,0,,74,37,240,Dry,1028,1,50,,,,5.8,
Wick,18/01/2017 15:00,9.9,21,,,0,,75,30,240,Dry,1029,1,50,,,,5.8,
Wick,18/01/2017 16:00,9.5,21,,,0,,77,33,250,Dry,1029,1,50,,,,5.7,
Wick,18/01/2017 17:00,9.3,18,,,0,,79,29,250,Dry,1029,1,50,,,,5.9,
Wick,18/01/2017 18:00,8.5,6,,10.3,0,0,79,,200,Dry,1030,1,50,,,,5.1,
Wick,18/01/2017 19:00,7.3,8,,,0,,84,,220,Dry,1030,1,50,,,,4.9,
Wick,18/01/2017 20:00,8,9,,,0,,81,,180,Dry,1031,1,45,,,,5.1,
Wick,18/01/2017 21:00,7.5,9,,,0,,82,,210,Dry,1030,0,50,,,,4.8,
Wick,18/01/2017 22:00,7.3,13,,,0,,86,,210,Dry,1030,0,50,,,,5.2,
Wick,18/01/2017 23:00,6.2,6,,,0,,92,,190,Dry,1030,0,40,,,,5,
Wick,19/01/2017 00:00,6,5,,,0,0,91,,170,Dry,1030,0,50,,,,4.8,
Wick,19/01/2017 01:00,7,7,,,0,,86,,200,Dry,1030,0,50,,,,4.9,
Wick,19/01/2017 02:00,7.2,6,,,0,,86,,230,Dry,1030,0,50,,,,5.1,
Wick,19/01/2017 03:00,7.9,12,,,0,,83,,230,Dry,1031,1,50,,,,5.3,
Wick,19/01/2017 04:00,8,12,,,0,,83,,190,Dry,1031,7,45,,,,5.4,
Wick,19/01/2017 05:00,7.5,12,,,0,,84,,210,Dry,1031,6,45,,,,5.1,
Wick,19/01/2017 06:00,7.7,12,5.9,,0,0,85,,210,Dry,1031,7,50,,,,5.5,
Wick,19/01/2017 07:00,8.5,10,,,0,,81,,210,Dry,1031,8,50,,,,5.5,
Wick,19/01/2017 08:00,8.1,12,,,0,,84,,200,Dry,1032,8,50,,,,5.6,
Wick,19/01/2017 09:00,8.5,12,,,0,,83,,200,Dry,1032,8,50,,,,5.8,
Wick,19/01/2017 10:00,8.3,14,,,0,,83,,220,Dry,1032,8,45,,,,5.7,
Wick,19/01/2017 11:00,8.5,13,,,0,,83,,210,Dry,1032,8,50,,,,5.8,
Wick,19/01/2017 12:00,9,13,,,0,0,,,200,Dry,,8,35,,,,6,
Wick,19/01/2017 13:00,8.4,10,,,0,,83,,190,Dry,1032,8,29,,,,5.8,
Wick,19/01/2017 14:00,8.8,12,,,0,,80,,200,Dry,1032,8,35,,,,5.7,
Wick,19/01/2017 15:00,8.3,8,,,0,,84,,180,Dry,1032,7,28,,,,5.9,
Wick,19/01/2017 16:00,8.4,9,,,0,,83,,210,Dry,1032,8,45,,,,5.8,
Wick,19/01/2017 17:00,8.4,7,,,0,,86,,190,Dry,1032,8,35,,,,6.2,
Wick,19/01/2017 18:00,9,10,,,0,0,80,,190,Dry,1032,8,30,,,,5.8,
Wick,19/01/2017 19:00,8.9,9,,,0,,78,,200,Dry,1032,8,45,,,,5.4,
Wick,19/01/2017 20:00,8.7,12,,,0,,78,,210,Dry,1033,8,45,,,,5.1,
Wick,19/01/2017 21:00,8.5,9,,,0,,81,,220,Dry,1033,8,50,,,,5.6,
Wick,19/01/2017 22:00,8.1,6,,,0,,83,,180,Dry,1033,8,45,,,,5.5,
Wick,19/01/2017 23:00,8.4,12,,,0,,81,,210,Dry,1033,8,40,,,,5.4,
Wick,20/01/2017 00:00,8.1,8,,,0,0,83,,180,Dry,1033,8,45,,,,5.4,
Wick,20/01/2017 01:00,8.3,12,,,0,,80,,220,Dry,1032,8,45,,,,5.1,
Wick,20/01/2017 02:00,8,10,,,0,,81,,220,Dry,1032,8,35,,,,5.1,
Wick,20/01/2017 03:00,7.8,8,,,0,,81,,200,Dry,1032,8,35,,,,4.9,
Wick,20/01/2017 04:00,7.6,9,,,0,,81,,210,Dry,1032,8,50,,,,4.7,
Wick,20/01/2017 05:00,7.4,6,,,0,,82,,200,Dry,1032,8,40,,,,4.6,
Wick,20/01/2017 06:00,7.3,8,6.9,,0,0,80,,210,Dry,1032,8,40,,,,4.1,
Wick,20/01/2017 07:00,6.8,5,,,0,,81,,230,Dry,1032,8,40,,,,3.8,
Wick,20/01/2017 08:00,6.9,6,,,0,,80,,190,Dry,1033,8,45,,,,3.8,
Wick,20/01/2017 09:00,6.4,6,,,0,,81,,230,Dry,1033,8,45,,,,3.5,
Wick,20/01/2017 10:00,5.9,2,,,0,,84,,190,Dry,1033,7,35,,,,3.5,
Wick,20/01/2017 11:00,6.3,3,,,0,,85,,200,Dry,1033,7,29,,,,4,
Wick,20/01/2017 12:00,8.3,2,,,0,0,75,,190,Dry,1033,7,29,,,,4.2,
Wick,20/01/2017 13:00,8.2,7,,,0,,80,,180,Dry,1032,3,35,,,,5.1,
Wick,20/01/2017 14:00,7.3,8,,,0,,85,,180,Dry,1032,1,22,,,,5.1,
Wick,20/01/2017 15:00,6.7,7,,,0,,85,,210,Dry,1032,1,22,,,,4.5,
Wick,20/01/2017 16:00,5.7,6,,,0,,89,,180,Dry,1032,1,24,,,,4.1,
Wick,20/01/2017 17:00,4.9,5,,,0,,91,,180,Dry,1032,1,18,,,,3.7,
Wick,20/01/2017 18:00,5.3,6,,8.3,0,0,93,,150,Dry,1032,0,17,,,,4.3,
Wick,20/01/2017 19:00,5.8,7,,,0,,90,,150,Dry,1032,0,45,,,,4.3,
Wick,20/01/2017 20:00,5.9,7,,,0,,90,,140,Dry,1032,3,40,,,,4.5,
Wick,20/01/2017 21:00,5.9,10,,,0,,93,,130,Dry,1031,7,14,,,,4.9,
Wick,20/01/2017 22:00,5,9,,,0,,95,,140,Dry,1031,6,12,,,,4.4,
Wick,20/01/2017 23:00,4.7,9,,,0,,97,,150,Dry,1030,8,10,,,,4.4,
Wick,21/01/2017 00:00,4.5,8,,,0,0,98,,120,Misty,1030,8,5,,,,4.3,
Wick,21/01/2017 01:00,4.4,7,,,0,,100,,120,Misty,1029,8,4,,,,4.4,
Wick,21/01/2017 02:00,4.1,9,,,0,,100,,140,Misty,1029,8,4,,,,4.1,
Wick,21/01/2017 03:00,4.2,9,,,0,,99,,160,Misty,1029,8,3,,,,4.1,
Wick,21/01/2017 04:00,4.5,10,,,0,,99,,160,Misty,1028,8,8,,,,4.4,
Wick,21/01/2017 05:00,4.8,9,,,0,,98,,180,Dry,1028,8,13,,,,4.6,
Wick,21/01/2017 06:00,3.6,12,3.6,,0,0,98,,210,Misty,1028,8,5,,,,3.4,
Wick,21/01/2017 07:00,3.1,8,,,0,,99,,240,Misty,1028,8,6,,,,3,
Wick,21/01/2017 08:00,2.2,6,,,0,,99,,190,Thickening fog,1028,7,0,,,,2.1,
Wick,21/01/2017 09:00,2.6,2,,,0,,100,,340,Fog,1028,5,10,,,,2.6,
Wick,21/01/2017 10:00,2.3,2,,,0,,100,,260,Dry,1028,7,21,,,,2.3,
Wick,21/01/2017 11:00,3.8,3,,,0,,100,,120,Misty,1028,8,6,,,,3.8,
Wick,21/01/2017 12:00,4.7,5,,,0,0,99,,160,Dry,1027,8,20,,,,4.6,
Wick,21/01/2017 13:00,5,9,,,0,,93,,160,Dry,1027,5,24,,,,4,
Wick,21/01/2017 14:00,5.1,14,,,0,,85,,170,Dry,1026,1,18,,,,2.8,
Wick,21/01/2017 15:00,5.1,12,,,0,,86,,180,Dry,1025,0,40,,,,3,
Wick,21/01/2017 16:00,4.7,14,,,0,,84,,170,Dry,1025,0,45,,,,2.3,
Wick,21/01/2017 17:00,4.3,9,,,0,,88,,170,Dry,1025,0,50,,,,2.6,
Wick,21/01/2017 18:00,4.8,10,,5.6,0,0,88,,160,Dry,1025,0,45,,,,3,
Wick,21/01/2017 19:00,5.5,13,,,0,,85,,160,Dry,1024,0,50,,,,3.3,
Wick,21/01/2017 20:00,5.7,12,,,0,,82,,170,Dry,1024,0,50,,,,3,
Wick,21/01/2017 21:00,5.2,9,,,0,,82,,190,Dry,1024,0,50,,,,2.4,
Wick,21/01/2017 22:00,4.6,13,,,0,,82,,190,Dry,1024,0,50,,,,1.9,
Wick,21/01/2017 23:00,4.7,13,,,0,,83,,180,Dry,1024,0,50,,,,2.1,
Wick,22/01/2017 00:00,3.4,5,,,0,0,91,,200,Dry,1024,0,50,,,,2.1,
Wick,22/01/2017 01:00,2.4,3,,,0,,91,,270,Dry,1024,0,50,,,,1.2,
Wick,22/01/2017 02:00,1.1,3,,,0,,91,,280,Dry,1023,0,50,,,,-0.2,
Wick,22/01/2017 03:00,0.4,5,,,0,,92,,280,Dry,1023,0,45,,,,-0.6,
Wick,22/01/2017 04:00,1.2,5,,,0,,93,,230,Dry,1023,0,50,,,,0.2,
Wick,22/01/2017 05:00,2.7,2,,,0,,95,,180,Dry,1022,0,35,,,,2.1,
Wick,22/01/2017 06:00,-1.7,3,-1.9,,0,0,94,,260,Dry,1022,0,35,,,,-2.4,
Wick,22/01/2017 07:00,-1.5,5,,,0,,94,,250,Dry,1022,0,45,,,,-2.3,
Wick,22/01/2017 08:00,-1.2,6,,,0,,94,,260,Dry,1022,0,50,,,,-1.9,
Wick,22/01/2017 09:00,-0.4,5,,,0,,95,,240,Dry,1022,0,50,,,,-1,
Wick,22/01/2017 10:00,0.9,3,,,0,,90,,240,Dry,1022,0,50,,,,-0.5,
Wick,22/01/2017 11:00,1.4,3,,,0,,92,,270,Dry,1022,0,50,,,,0.3,
Wick,22/01/2017 12:00,2.8,6,,,0,0,86,,260,Dry,1022,0,26,,,,0.8,
Wick,22/01/2017 13:00,4.3,5,,,0,,83,,290,Dry,1021,0,28,,,,1.8,
Wick,22/01/2017 14:00,5.3,1,,,0,,73,,240,Dry,1021,0,40,,,,1,
Wick,22/01/2017 15:00,5.4,1,,,0,,74,,230,Dry,1021,1,22,,,,1.3,
Wick,22/01/2017 16:00,3.5,5,,,0,,86,,290,Dry,1021,1,35,,,,1.4,
Wick,22/01/2017 17:00,3.4,3,,,0,,91,,260,Dry,1022,1,17,,,,2.1,
Wick,22/01/2017 18:00,3.3,3,,6,0,0,89,,230,Dry,1022,8,21,,,,1.8,
Wick,22/01/2017 19:00,3.6,7,,,0,,84,,240,Dry,1022,8,40,,,,1.2,
Wick,22/01/2017 20:00,2.2,9,,,0,,87,,250,Dry,1022,2,30,,,,0.3,
Wick,22/01/2017 21:00,3.2,7,,,0,,84,,250,Dry,1022,8,29,,,,0.9,
Wick,22/01/2017 22:00,3.3,7,,,0,,87,,270,Dry,1022,7,22,,,,1.5,
Wick,22/01/2017 23:00,2.4,8,,,0,,87,,260,Dry,1022,1,24,,,,0.6,
Wick,23/01/2017 00:00,1.9,6,,,0,0,89,,250,Dry,1022,6,17,,,,0.3,
Wick,23/01/2017 01:00,2.3,6,,,0,,90,,250,Dry,1023,5,22,,,,0.9,
Wick,23/01/2017 02:00,2.8,5,,,0,,89,,260,Dry,1022,7,19,,,,1.3,
Wick,23/01/2017 03:00,3.8,8,,,0,,86,,240,Dry,1022,8,30,,,,1.8,
Wick,23/01/2017 04:00,4.1,6,,,0,,88,,250,Dry,1022,1,28,,,,2.3,
Wick,23/01/2017 05:00,3.5,9,,,0,,89,,250,Dry,1022,7,30,,,,2,
Wick,23/01/2017 06:00,3.4,7,1.6,,0,0,89,,240,Dry,1022,5,27,,,,1.9,
Wick,23/01/2017 07:00,2.8,7,,,0,,94,,270,Dry,1022,3,40,,,,2,
Wick,23/01/2017 08:00,4,8,,,0,,90,,240,Precipitation,1022,4,50,,,,2.6,
Wick,23/01/2017 09:00,3.8,7,,,0,,88,,240,Dry,1022,5,35,,,,2,
Wick,23/01/2017 10:00,4.4,5,,,0,,90,,240,Dry,1022,7,30,,,,3,
Wick,23/01/2017 11:00,5.9,7,,,0,,86,,180,Dry,1022,1,24,,,,3.9,
Wick,23/01/2017 12:00,6,8,,,0,0,83,,190,Dry,1022,1,30,,,,3.5,
Wick,23/01/2017 13:00,6.4,10,,,0,,76,,190,Dry,1021,1,30,,,,2.5,
Wick,23/01/2017 14:00,6.1,14,,,0,,71,,200,Dry,1020,0,45,,,,1.3,
Wick,23/01/2017 15:00,5.6,10,,,0,,75,,190,Dry,1020,0,30,,,,1.6,
Wick,23/01/2017 16:00,4.9,9,,,0,,80,,190,Dry,1020,0,30,,,,1.9,
Wick,23/01/2017 17:00,5.2,12,,,0,,70,,190,Dry,1019,0,45,,,,0.2,
Wick,23/01/2017 18:00,4.1,9,,7.1,0,0,76,,200,Dry,1019,0,35,,,,0.3,
Wick,23/01/2017 19:00,4.2,8,,,0,,79,,190,Dry,1018,0,30,,,,0.9,
Wick,23/01/2017 20:00,4.3,8,,,0,,81,,180,Dry,1018,0,30,,,,1.4,
Wick,23/01/2017 21:00,4.4,8,,,0,,83,,170,Dry,1017,0,27,,,,1.9,
Wick,23/01/2017 22:00,5.2,9,,,0,,83,,170,Dry,1017,0,35,,,,2.7,
Wick,23/01/2017 23:00,5.9,10,,,0,,81,,170,Dry,1016,0,35,,,,2.9,
Wick,24/01/2017 00:00,6,14,,,0,0,80,,180,Dry,1016,0,45,,,,2.9,
Wick,24/01/2017 01:00,6.2,12,,,0,,80,,180,Dry,1015,0,35,,,,3.1,
Wick,24/01/2017 02:00,6.8,14,,,0,,79,,170,Dry,1014,0,22,,,,3.5,
Wick,24/01/2017 03:00,6.8,18,,,0,,78,,160,Dry,1013,0,24,,,,3.4,
Wick,24/01/2017 04:00,7.1,14,,,0,,79,29,170,Dry,1012,1,21,,,,3.8,
Wick,24/01/2017 05:00,7.3,14,,,0,,80,,170,Dry,1013,4,26,,,,4.1,
Wick,24/01/2017 06:00,7.5,18,4.1,,0,0,77,,180,Dry,1012,0,40,,,,3.8,
Wick,24/01/2017 07:00,7.5,21,,,0,,81,29,190,Dry,1012,1,30,,,,4.5,
Wick,24/01/2017 08:00,7.4,16,,,0,,84,29,200,Dry,1013,3,45,,,,5,
Wick,24/01/2017 09:00,7.1,16,,,0,,90,,190,Dry,1014,1,30,,,,5.6,
Wick,24/01/2017 10:00,7.3,14,,,0,,90,,190,Dry,1014,1,30,,,,5.8,
Wick,24/01/2017 11:00,7.9,15,,,0,,87,,200,Dry,1014,1,30,,,,6,
Wick,24/01/2017 12:00,8.6,14,,,0,0,84,,200,Dry,1015,1,40,,,,6.1,
Wick,24/01/2017 13:00,8.5,14,,,0,,85,,180,Dry,1014,1,29,,,,6.2,
Wick,24/01/2017 14:00,8.4,9,,,0,,86,,190,Dry,1014,1,27,,,,6.3,
Wick,24/01/2017 15:00,8.3,16,,,0,,86,,180,Dry,1014,1,24,,,,6.2,
Wick,24/01/2017 16:00,8.6,20,,,0,,83,28,190,Dry,1014,1,45,,,,5.9,
Wick,24/01/2017 17:00,9,20,,,0,,77,29,190,Dry,1014,1,30,,,,5.3,
Wick,24/01/2017 18:00,8.6,15,,9.2,0,0,80,30,190,Dry,1014,0,35,,,,5.5,
Wick,24/01/2017 19:00,8.6,16,,,0,,81,36,170,Dry,1013,0,35,,,,5.6,
Wick,24/01/2017 20:00,8.3,24,,,0,,83,35,190,Dry,1013,0,35,,,,5.7,
Wick,24/01/2017 21:00,8.2,20,,,0,,82,38,170,Dry,1012,0,40,,,,5.4,
Wick,24/01/2017 22:00,8.7,20,,,0,,80,35,170,Dry,1012,0,26,,,,5.6,
Wick,24/01/2017 23:00,8.9,16,,,0,,80,35,170,Dry,1013,0,30,,,,5.8,
Wick,25/01/2017 00:00,8.8,15,,,0,0,81,,180,Dry,1013,0,30,,,,5.8,
Wick,25/01/2017 01:00,8.4,15,,,0,,82,,180,Dry,1012,0,30,,,,5.6,
Wick,25/01/2017 02:00,9.1,17,,,0,,83,,190,Dry,1012,0,35,,,,6.4,
Wick,25/01/2017 03:00,9.8,20,,,0,,78,30,190,Dry,1011,0,40,,,,6.2,
Wick,25/01/2017 04:00,9.4,17,,,0,,83,26,180,Dry,1011,0,35,,,,6.7,
Wick,25/01/2017 05:00,9.2,14,,,0,,86,,190,Dry,1012,0,35,,,,7,
Wick,25/01/2017 06:00,9.2,13,8.2,,0,0,86,,170,Dry,1012,0,35,,,,7.1,
Wick,25/01/2017 07:00,9.2,16,,,0,,87,,180,Dry,1011,0,23,,,,7.2,
Wick,25/01/2017 08:00,9.7,14,,,0,,86,,170,Dry,1012,0,30,,,,7.5,
Wick,25/01/2017 09:00,9.9,18,,,0,,83,,170,Dry,1011,0,23,,,,7.2,
Wick,25/01/2017 10:00,9.9,23,,,0,,80,33,180,Dry,1012,0,15,,,,6.7,
Wick,25/01/2017 11:00,10,24,,,0,,76,35,180,Dry,1012,0,30,,,,6.1,
Wick,25/01/2017 12:00,10.1,25,,,0,0,74,38,180,Dry,1012,0,23,,,,5.8,
Wick,25/01/2017 13:00,10.4,25,,,0,,73,37,180,Dry,1011,0,29,,,,5.8,
Wick,25/01/2017 14:00,9.8,20,,,0,,76,39,170,Dry,1010,1,18,,,,5.9,
Wick,25/01/2017 15:00,9.6,22,,,0,,71,35,180,Dry,1010,1,21,,,,4.8,
Wick,25/01/2017 16:00,9.4,20,,,0,,71,36,180,Dry,1010,0,19,,,,4.6,
Wick,25/01/2017 17:00,9.5,22,,,0,,71,33,180,Dry,1011,0,20,,,,4.6,
Wick,25/01/2017 18:00,9.3,21,,10.4,0,0,70,32,170,Dry,1011,0,24,,,,4.3,
Wick,25/01/2017 19:00,9.1,18,,,0,,74,32,160,Dry,1011,0,21,,,,4.8,
Wick,25/01/2017 20:00,9.1,20,,,0,,72,30,170,Dry,1011,0,18,,,,4.5,
Wick,25/01/2017 21:00,8.9,25,,,0,,70,39,170,Dry,1012,0,19,,,,3.9,
Wick,25/01/2017 22:00,8.6,17,,,0,,71,36,170,Dry,1012,0,18,,,,3.8,
Wick,25/01/2017 23:00,8.6,16,,,0,,74,,150,Dry,1012,0,15,,,,4.4,
Wick,26/01/2017 00:00,8.2,16,,,0,0,78,33,160,Dry,1012,0,21,,,,4.6,
Wick,26/01/2017 01:00,7.9,17,,,0,,79,29,160,Dry,1012,0,17,,,,4.6,
Wick,26/01/2017 02:00,7.8,22,,,0,,73,30,160,Dry,1012,0,18,,,,3.3,
Wick,26/01/2017 03:00,7.4,17,,,0,,75,30,160,Dry,1012,0,18,,,,3.3,
Wick,26/01/2017 04:00,7,16,,,0,,75,35,150,Dry,1012,0,17,,,,3,
Wick,26/01/2017 05:00,6.2,17,,,0,,79,38,160,Dry,1013,0,18,,,,2.9,
Wick,26/01/2017 06:00,5.9,22,5.8,,0,0,80,35,160,Dry,1012,0,13,,,,2.8,
Wick,26/01/2017 07:00,5.7,18,,,0,,79,30,140,Dry,1012,0,14,,,,2.4,
Wick,26/01/2017 08:00,5.5,21,,,0,,80,32,150,Dry,1012,1,13,,,,2.5,
Wick,26/01/2017 09:00,5.3,23,,,0,,80,38,150,Dry,1012,0,12,,,,2.2,
Wick,26/01/2017 10:00,5.3,23,,,0,,79,37,150,Dry,1012,0,12,,,,2.1,
Wick,26/01/2017 11:00,5.4,23,,,0,,78,37,150,Haze,1012,0,9,,,,1.9,
Wick,26/01/2017 12:00,5.5,24,,,0,0,79,41,150,Haze,1012,0,8,,,,2.3,
Wick,26/01/2017 13:00,6,26,,,0,,79,39,140,Haze,1011,1,9,,,,2.7,
Wick,26/01/2017 14:00,5.7,28,,,0,,82,44,150,Haze,1010,1,9,,,,3,
Wick,26/01/2017 15:00,5.5,25,,,0,,80,43,150,Haze,1010,1,6,,,,2.5,
Wick,26/01/2017 16:00,5.3,29,,,0,,83,51,140,Haze,1009,1,5,,,,2.7,
Wick,26/01/2017 17:00,5.2,25,,,0,,83,45,150,Haze,1009,1,6,,,,2.7,
Wick,26/01/2017 18:00,5.2,25,,6.1,0,0,85,39,150,Haze,1010,5,7,,,,2.9,
Wick,26/01/2017 19:00,5,24,,,0,,84,38,150,Haze,1010,7,7,,,,2.6,
Wick,26/01/2017 20:00,4.8,25,,,0,,81,41,140,Haze,1009,6,8,,,,1.9,
Wick,26/01/2017 21:00,4.7,25,,,0,,85,40,150,Haze,1009,6,6,,,,2.5,
Wick,26/01/2017 22:00,4.4,17,,,0,,83,33,160,Haze,1010,7,6,,,,1.8,
Wick,26/01/2017 23:00,4.3,21,,,0,,85,32,150,Haze,1009,8,5,,,,2.1,
Wick,27/01/2017 00:00,4,22,,,0,0,83,35,150,Haze,1009,7,5,,,,1.5,
Wick,27/01/2017 01:00,3.6,18,,,0,,84,32,140,Haze,1009,3,5,,,,1.3,
Wick,27/01/2017 02:00,3.5,20,,,0,,86,29,150,Haze,1009,3,5,,,,1.5,
Wick,27/01/2017 03:00,3.6,16,,,0,,85,31,160,Haze,1008,4,5,,,,1.4,
Wick,27/01/2017 04:00,3.8,17,,,0,,84,,160,Haze,1008,6,5,,,,1.4,
Wick,27/01/2017 05:00,3.9,17,,,0,,81,,160,Haze,1008,4,6,,,,1.1,
Wick,27/01/2017 06:00,4.1,18,3.4,,0,0,83,,150,Haze,1008,6,6,,,,1.6,
Wick,27/01/2017 07:00,4.1,13,,,0,,83,,170,Haze,1008,5,6,,,,1.5,
Wick,27/01/2017 08:00,4.1,10,,,0,,81,,160,Haze,1008,5,7,,,,1.3,
Wick,27/01/2017 09:00,4.6,10,,,0,,83,,160,Haze,1007,6,7,,,,2,
Wick,27/01/2017 10:00,4.9,14,,,0,,84,,160,Haze,1007,6,6,,,,2.5,
Wick,27/01/2017 11:00,5,20,,,0,,85,29,160,Haze,1006,7,7,,,,2.8,
Wick,27/01/2017 12:00,5.1,13,,,0,0,85,,160,Haze,1006,7,7,,,,2.9,
Wick,27/01/2017 13:00,5.3,17,,,0,,84,,150,Haze,1004,7,7,,,,2.9,
Wick,27/01/2017 14:00,5.5,18,,,0,,84,,160,Haze,1004,7,7,,,,3.1,
Wick,27/01/2017 15:00,5.4,20,,,0,,84,33,160,Haze,1003,4,6,,,,3,
Wick,27/01/2017 16:00,5.6,22,,,0,,81,35,160,Haze,1002,3,8,,,,2.7,
Wick,27/01/2017 17:00,5.8,23,,,0,,80,35,160,Haze,1002,1,8,,,,2.7,
Wick,27/01/2017 18:00,5.5,22,,5.8,0,0,83,39,160,Haze,1002,1,7,,,,3,
Wick,27/01/2017 19:00,5.3,21,,,0,,83,35,160,Haze,1003,1,7,,,,2.7,
Wick,27/01/2017 20:00,5.3,22,,,0,,82,32,160,Haze,1003,1,8,,,,2.5,
Wick,27/01/2017 21:00,5.4,20,,,0,,75,36,160,Dry,1004,,14,,,,1.4,
Wick,27/01/2017 22:00,5.4,16,,,0,,77,,160,Dry,1004,0,12,,,,1.7,
Wick,27/01/2017 23:00,5.5,16,,,0,,78,,160,Dry,1005,0,13,,,,2,
Wick,28/01/2017 00:00,5.4,16,,,0,0,78,,160,Haze,1005,8,10,,,,2,
Wick,28/01/2017 01:00,5.3,13,,,0,,80,,170,Haze,1005,0,8,,,,2.2,
Wick,28/01/2017 02:00,5.4,14,,,0,,79,,160,Haze,1004,5,9,,,,2.2,
Wick,28/01/2017 03:00,5.2,12,,,0,,82,,170,Haze,1004,1,8,,,,2.5,
Wick,28/01/2017 04:00,5.4,10,,,0,,84,,170,Haze,1004,0,8,,,,3,
Wick,28/01/2017 05:00,5.2,13,,,0,,87,,150,Haze,1004,8,7,,,,3.3,
Wick,28/01/2017 06:00,5.3,9,4.9,,0,0,87,,170,Haze,1004,1,7,,,,3.4,
Wick,28/01/2017 07:00,5.1,14,,,0,,87,,160,Rain,1004,7,6,,,,3.2,
Wick,28/01/2017 08:00,5,9,,,0,,91,,160,Light drizzle,1003,2,5,,,,3.7,
Wick,28/01/2017 09:00,4.9,7,,,0.2,,93,,160,Light rain,1003,7,5,,,,3.9,
Wick,28/01/2017 10:00,4.5,2,,,0.4,,95,,240,Light rain,1003,3,3,,,,3.9,
Wick,28/01/2017 11:00,4.7,0,,,0.4,,96,,0,Light rain,1003,1,5,,,,4.2,
Wick,28/01/2017 12:00,5,1,,,0.4,1,95,,170,Light drizzle,1002,2,5,,,,4.4,
Wick,28/01/2017 13:00,5,2,,,0.2,,95,,200,Light shower,1002,1,5,,,,4.4,
Wick,28/01/2017 14:00,5.1,2,,,0.4,,96,,280,Light rain,1001,7,4,,,,4.6,
Wick,28/01/2017 15:00,5,5,,,0.4,,97,,290,Rain,1001,1,4,,,,4.7,
Wick,28/01/2017 16:00,4.5,5,,,0,,98,,300,Light shower,1001,7,4,,,,4.3,
Wick,28/01/2017 17:00,4.2,7,,,0.2,,99,,290,Rain,1001,1,4,,,,4.1,
Wick,28/01/2017 18:00,4.2,8,,5.4,0.8,2,100,,290,Light drizzle,1001,7,7,,,,4.2,
Wick,28/01/2017 19:00,4.2,10,,,0.4,,99,,280,Light rain,1000,3,6,,,,4.1,
Wick,28/01/2017 20:00,4.4,14,,,1,,97,,310,Light drizzle,1000,1,10,,,,4,
Wick,28/01/2017 21:00,4.3,12,,,1.6,,98,,290,Moderate rain,1000,7,9,,,,4.1,
Wick,28/01/2017 22:00,4.3,15,,,2.6,,95,,310,Moderate rain,1000,5,8,,,,3.6,
Wick,28/01/2017 23:00,3.5,14,,,2.6,,94,,310,Moderate rain,1001,7,7,,,,2.7,
Wick,29/01/2017 00:00,4.1,14,,,2.6,11,95,,310,Moderate rain,1001,7,10,,,,3.5,
Wick,29/01/2017 01:00,4.5,12,,,0.2,,96,,280,Light rain,1000,1,21,,,,4,
Wick,29/01/2017 02:00,4.6,16,,,1.2,,90,29,280,Rain,1000,4,50,,,,3.2,
Wick,29/01/2017 03:00,3.7,16,,,-0.2,,94,,270,Light shower,1001,1,40,,,,2.9,
Wick,29/01/2017 04:00,3,17,,,0,,93,,260,Rain,1001,1,50,,,,2.1,
Wick,29/01/2017 05:00,2.7,15,,,0,,92,,270,Dry,1002,1,45,,,,1.6,
Wick,29/01/2017 06:00,2.6,16,2.6,,0,1,93,,260,Dry,1002,1,50,,,,1.7,
Wick,29/01/2017 07:00,2.1,15,,,0,,93,,260,Dry,1002,0,50,,,,1.2,
Wick,29/01/2017 08:00,2.6,14,,,0,,92,,250,Dry,1003,0,50,,,,1.5,
Wick,29/01/2017 09:00,2.4,13,,,0,,93,,250,Dry,1004,0,50,,,,1.5,
Wick,29/01/2017 10:00,2.5,9,,,0,,92,,240,Dry,1004,1,35,,,,1.4,
Wick,29/01/2017 11:00,4.1,10,,,0,,88,,230,Dry,1004,0,50,,,,2.4,
Wick,29/01/2017 12:00,5.2,14,,,0,0,82,,240,Dry,1004,0,40,,,,2.5,
Wick,29/01/2017 13:00,5.9,13,,,0,,79,,250,Dry,1005,0,50,,,,2.7,
Wick,29/01/2017 14:00,6.1,13,,,0,,78,,250,Dry,1005,0,30,,,,2.7,
Wick,29/01/2017 15:00,6,7,,,0,,78,,260,Dry,1005,1,45,,,,2.6,
Wick,29/01/2017 16:00,5.3,5,,,0,,79,,250,Dry,1006,1,50,,,,2.1,
Wick,29/01/2017 17:00,3.3,6,,,0,,86,,220,Dry,1006,1,45,,,,1.3,
Wick,29/01/2017 18:00,2.3,5,,6.1,0,0,90,,200,Dry,1007,0,45,,,,0.9,
Wick,29/01/2017 19:00,1.7,3,,,0,,91,,220,Dry,1007,2,50,,,,0.4,
Wick,29/01/2017 20:00,1.1,5,,,0,,93,,260,Dry,1008,1,50,,,,0.2,
Wick,29/01/2017 21:00,0.6,3,,,0,,91,,250,Dry,1008,0,50,,,,-0.6,
Wick,29/01/2017 22:00,0.8,3,,,0,,93,,260,Dry,1009,0,50,,,,-0.2,
Wick,29/01/2017 23:00,-0.6,3,,,0,,92,,240,Dry,1009,0,50,,,,-1.7,
Wick,30/01/2017 00:00,-0.4,3,,,0,0,94,,240,Dry,1009,0,50,,,,-1.2,
Wick,30/01/2017 01:00,-1.7,5,,,0,,95,,240,Dry,1010,0,50,,,,-2.3,
Wick,30/01/2017 02:00,-1.3,3,,,0,,96,,240,Dry,1010,0,50,,,,-1.8,
Wick,30/01/2017 03:00,-1.2,1,,,0,,97,,170,Dry,1010,0,50,,,,-1.6,
Wick,30/01/2017 04:00,-0.9,3,,,0,,97,,100,Dry,1010,3,50,,,,-1.2,
Wick,30/01/2017 05:00,3.5,7,,,0,,93,,140,Dry,1010,3,50,,,,2.6,
Wick,30/01/2017 06:00,4.6,8,-2.1,,0.2,0.2,84,,150,Dry,1010,7,50,,,,2.2,
Wick,30/01/2017 07:00,4.6,10,,,0,,85,,140,Dry,1010,7,40,,,,2.3,
Wick,30/01/2017 08:00,4.6,9,,,0,,83,,150,Dry,1011,6,45,,,,2.1,
Wick,30/01/2017 09:00,4.9,13,,,0,,80,,150,Dry,1011,3,45,,,,1.9,
Wick,30/01/2017 10:00,5.1,13,,,0,,81,,150,Dry,1011,1,35,,,,2.2,
Wick,30/01/2017 11:00,5.1,14,,,0,,78,,160,Dry,1011,1,35,,,,1.6,
Wick,30/01/2017 12:00,5.1,18,,,0,0,75,,150,Dry,1011,1,28,,,,1.1,
Wick,30/01/2017 13:00,5.6,18,,,0,,79,29,140,Dry,1010,1,28,,,,2.3,
Wick,30/01/2017 14:00,5.8,20,,,0,,78,30,150,Dry,1010,2,26,,,,2.4,
Wick,30/01/2017 15:00,5.8,18,,,0,,81,30,150,Dry,1009,7,26,,,,2.9,
Wick,30/01/2017 16:00,5.9,23,,,0,,75,35,150,Dry,1009,7,30,,,,1.9,
Wick,30/01/2017 17:00,5.8,22,,,0,,75,37,150,Dry,1009,6,30,,,,1.9,
Wick,30/01/2017 18:00,5.7,23,,6.1,0,0,77,35,160,Dry,1009,7,26,,,,2,
Wick,30/01/2017 19:00,5.5,26,,,0,,77,40,150,Dry,1009,7,35,,,,1.8,
Wick,30/01/2017 20:00,5.3,25,,,0,,79,41,150,Dry,1008,3,25,,,,2,
Wick,30/01/2017 21:00,5.7,26,,,0,,76,41,150,Dry,1008,3,30,,,,1.9,
Wick,30/01/2017 22:00,5.6,31,,,0,,78,47,150,Dry,1007,4,20,,,,2.2,
Wick,30/01/2017 23:00,5.8,31,,,0,,78,48,150,Dry,1006,3,19,,,,2.3,
Wick,31/01/2017 00:00,6.1,25,,,0,0,78,38,150,Dry,1007,1,17,,,,2.7,
Wick,31/01/2017 01:00,6.1,26,,,0,,77,43,150,Dry,1007,1,17,,,,2.4,
Wick,31/01/2017 02:00,6.2,31,,,0,,79,58,150,Dry,1005,2,12,,,,3,
Wick,31/01/2017 03:00,6.3,29,,,0,,81,49,150,Dry,1005,1,14,,,,3.4,
Wick,31/01/2017 04:00,6.3,31,,,0,,81,45,150,Dry,1005,4,12,,,,3.4,
Wick,31/01/2017 05:00,5.9,28,,,0.4,,89,46,150,Light shower,1005,6,11,,,,4.3,
Wick,31/01/2017 06:00,5.9,26,5.3,,1.4,2,92,43,140,Light rain,1005,7,6,,,,4.8,
Wick,31/01/2017 07:00,6.2,26,,,1,,90,41,160,Light rain,1005,6,9,,,,4.8,
Wick,31/01/2017 08:00,6.2,25,,,0.4,,91,39,160,Light rain,1005,4,11,,,,4.9,
Wick,31/01/2017 09:00,6.3,26,,,1.2,,92,41,160,Light rain,1005,7,8,,,,5.2,
Wick,31/01/2017 10:00,6.4,22,,,0.8,,93,39,160,Moderate rain,1005,8,10,,,,5.4,
Wick,31/01/2017 11:00,6.3,22,,,0.4,,94,40,160,Rain,1005,8,10,,,,5.5,
Wick,31/01/2017 12:00,6.7,23,,,0,4,90,35,160,Drizzle,1005,8,11,,,,5.3,
Wick,31/01/2017 13:00,6.6,22,,,0.4,,92,35,160,Light shower,1004,7,8,,,,5.5,
Wick,31/01/2017 14:00,6.3,15,,,2.2,,96,31,170,Light drizzle,1004,7,4,,,,5.8,
Wick,31/01/2017 15:00,6.6,16,,,0.2,,92,,170,Light drizzle,1004,7,14,,,,5.5,
Wick,31/01/2017 16:00,6.6,16,,,0.4,,92,,170,Rain,1004,7,12,,,,5.5,
Wick,31/01/2017 17:00,6.8,21,,,0,,90,31,170,Dry,1004,2,15,,,,5.4,
Wick,31/01/2017 18:00,6.9,17,,6.9,0,3,90,30,170,Dry,1004,1,16,,,,5.4,
Wick,31/01/2017 19:00,6.9,14,,,0,,89,,170,Dry,1004,1,22,,,,5.3,
Wick,31/01/2017 20:00,6.8,12,,,0,,90,,170,Dry,1004,1,16,,,,5.4,
Wick,31/01/2017 21:00,6.7,9,,,0,,92,,180,Dry,1005,0,25,,,,5.5,
Wick,31/01/2017 22:00,6.7,8,,,0,,92,,180,Dry,1005,4,26,,,,5.5,
Wick,31/01/2017 23:00,6.8,6,,,0,,90,,180,Dry,1005,7,50,,,,5.3,
Wick,01/02/2017 00:00,6.3,6,,,0,0,90,,210,Dry,1005,5,45,,,,4.9,
Wick,01/02/2017 01:00,6.3,10,,,0,,90,,190,Dry,1005,0,45,,,,4.9,
Wick,01/02/2017 02:00,5.9,8,,,0,,90,,180,Dry,1005,0,50,,,,4.5,
Wick,01/02/2017 03:00,5.9,9,,,0,,91,,160,Dry,1005,0,45,,,,4.7,
Wick,01/02/2017 04:00,5.9,6,,,0,,93,,180,Dry,1005,0,50,,,,5,
Wick,01/02/2017 05:00,5.2,7,,,0,,93,,190,Dry,1005,0,50,,,,4.3,
Wick,01/02/2017 06:00,5.2,6,5,,0,0,90,,190,Dry,1005,0,50,,,,3.7,
Wick,01/02/2017 07:00,5.4,7,,,0,,92,,170,Dry,1004,1,45,,,,4.3,
Wick,01/02/2017 08:00,5.6,6,,,0,,94,,150,Dry,1004,1,11,,,,4.8,
Wick,01/02/2017 09:00,5.9,6,,,0,,97,,150,Dry,1004,0,14,,,,5.5,
Wick,01/02/2017 10:00,6.5,10,,,0,,97,,130,Dry,1003,0,17,,,,6.1,
Wick,01/02/2017 11:00,7.2,9,,,0,,93,,130,Dry,1002,2,16,,,,6.2,
Wick,01/02/2017 12:00,7.1,13,,,0,0,93,,130,Haze,1001,2,8,,,,6.2,
Wick,01/02/2017 13:00,6.9,13,,,0,,96,,130,Dry,1000,5,11,,,,6.4,
Wick,01/02/2017 14:00,7.2,13,,,0,,95,,150,Misty,999,7,7,,,,6.5,
Wick,01/02/2017 15:00,7.3,9,,,0,,97,,140,Misty,998,7,6,,,,6.9,
Wick,01/02/2017 16:00,7.1,9,,,0,,96,,130,Dry,997,8,10,,,,6.6,
Wick,01/02/2017 17:00,7.1,18,,,0,,93,29,160,Dry,996,3,14,,,,6.2,
Wick,01/02/2017 18:00,7,16,,7.5,0,0,95,31,140,Dry,996,2,12,,,,6.4,
Wick,01/02/2017 19:00,7,15,,,0,,97,29,150,Misty,995,7,9,,,,6.6,
Wick,01/02/2017 20:00,7.1,17,,,0,,95,29,140,Dry,995,7,14,,,,6.5,
Wick,01/02/2017 21:00,6.9,22,,,0,,95,32,140,Dry,993,8,14,,,,6.2,
Wick,01/02/2017 22:00,7.1,24,,,0,,95,37,150,Dry,992,3,11,,,,6.4,
Wick,01/02/2017 23:00,7.3,18,,,0,,92,38,150,Dry,993,0,14,,,,6.2,
Wick,02/02/2017 00:00,7.2,17,,,0,0,91,,150,Dry,992,2,11,,,,5.9,
Wick,02/02/2017 01:00,7.3,15,,,0,,92,,150,Haze,992,6,10,,,,6.2,
Wick,02/02/2017 02:00,7.9,20,,,0,,91,31,150,Haze,990,7,9,,,,6.6,
Wick,02/02/2017 03:00,7.9,22,,,0,,92,33,150,Haze,990,2,9,,,,6.7,
Wick,02/02/2017 04:00,7.8,18,,,0,,92,32,140,Dry,990,2,11,,,,6.7,
Wick,02/02/2017 05:00,7.6,17,,,0,,91,33,150,Dry,990,0,10,,,,6.3,
Wick,02/02/2017 06:00,7.6,16,6.8,,0,0,90,30,140,Dry,990,0,12,,,,6.1,
Wick,02/02/2017 07:00,7.8,16,,,0,,88,,150,Dry,990,1,11,,,,6,
Wick,02/02/2017 08:00,7.7,16,,,0,,88,,150,Dry,990,0,14,,,,6,
Wick,02/02/2017 09:00,8.1,20,,,0,,87,31,150,Dry,989,0,12,,,,6.2,
Wick,02/02/2017 10:00,7.8,18,,,0,,92,33,140,Dry,989,3,10,,,,6.6,
Wick,02/02/2017 11:00,8,14,,,0,,94,,140,Drizzle,988,6,8,,,,7.2,
Wick,02/02/2017 12:00,8.2,18,,,0,0,96,29,140,Misty,988,8,6,,,,7.7,
Wick,02/02/2017 13:00,8.3,25,,,0,,97,37,140,Misty,987,7,6,,,,8,
Wick,02/02/2017 14:00,8.3,22,,,0,,97,37,120,Misty,986,8,5,,,,7.9,
Wick,02/02/2017 15:00,8.5,22,,,0,,97,33,130,Misty,985,7,6,,,,8.1,
Wick,02/02/2017 16:00,8.5,20,,,0,,96,33,140,Misty,985,7,7,,,,8,
Wick,02/02/2017 17:00,8.6,18,,,0,,95,30,130,Misty,985,8,8,,,,7.9,
Wick,02/02/2017 18:00,8.6,18,,8.6,0,0,94,31,140,Misty,984,7,7,,,,7.8,
Wick,02/02/2017 19:00,8.5,23,,,0,,94,40,140,Misty,984,5,8,,,,7.6,
Wick,02/02/2017 20:00,8.3,25,,,0,,94,39,140,Misty,983,2,7,,,,7.5,
Wick,02/02/2017 21:00,8.5,29,,,0,,92,43,130,Haze,983,0,8,,,,7.4,
Wick,02/02/2017 22:00,8.4,20,,,0,,93,39,150,Haze,983,1,8,,,,7.4,
Wick,02/02/2017 23:00,8.4,22,,,0,,92,39,140,Haze,983,2,8,,,,7.3,
Wick,03/02/2017 00:00,8.5,22,,,0,0,91,36,140,Haze,982,7,9,,,,7.2,
Wick,03/02/2017 01:00,8.6,24,,,0,,90,37,130,Haze,982,3,9,,,,7.2,
Wick,03/02/2017 02:00,8.6,26,,,0,,90,39,130,Haze,981,2,8,,,,7.1,
Wick,03/02/2017 03:00,8.6,22,,,0,,90,40,150,Haze,981,7,7,,,,7.1,
Wick,03/02/2017 04:00,8.7,24,,,0,,87,37,150,Haze,980,3,6,,,,6.8,
Wick,03/02/2017 05:00,8.7,24,,,0,,87,40,150,Haze,981,5,7,,,,6.7,
Wick,03/02/2017 06:00,8.7,24,8.2,,0,0,86,44,150,Haze,981,0,7,,,,6.5,
Wick,03/02/2017 07:00,8.6,24,,,0,,84,37,150,Haze,981,0,8,,,,6.1,
Wick,03/02/2017 08:00,8.7,24,,,0,,81,38,150,Haze,982,0,9,,,,5.7,
Wick,03/02/2017 09:00,8.6,20,,,0,,81,35,160,Haze,984,1,12,,,,5.6,
Wick,03/02/2017 10:00,8.8,22,,,0,,77,35,160,Dry,985,1,20,,,,5.1,
Wick,03/02/2017 11:00,8.7,21,,,0,,77,32,160,Dry,986,1,19,,,,4.9,
Wick,03/02/2017 12:00,8.7,22,,,0,0,78,33,160,Dry,987,1,13,,,,5.1,
Wick,03/02/2017 13:00,8.9,20,,,0,,73,35,160,Dry,988,2,19,,,,4.5,
Wick,03/02/2017 14:00,9,17,,,0,,72,31,170,Dry,988,1,17,,,,4.3,
Wick,03/02/2017 15:00,8.9,18,,,0,,65,,170,Dry,989,1,21,,,,2.9,
Wick,03/02/2017 16:00,8.1,10,,,0,,74,,160,Dry,990,0,19,,,,3.9,
Wick,03/02/2017 17:00,7.8,13,,,0,,77,,160,Dry,991,0,18,,,,4.2,
Wick,03/02/2017 18:00,7.9,14,,9.1,0,0,73,,160,Dry,992,0,17,,,,3.5,
Wick,03/02/2017 19:00,7.3,14,,,0,,85,,150,Dry,992,0,12,,,,5.1,
Wick,03/02/2017 20:00,7.4,16,,,0,,84,,150,Dry,993,0,16,,,,5,
Wick,03/02/2017 21:00,7,14,,,0,,88,,130,Dry,992,0,15,,,,5.2,
Wick,03/02/2017 22:00,6.9,15,,,0,,91,,130,Dry,992,1,12,,,,5.6,
Wick,03/02/2017 23:00,7.1,21,,,0,,90,29,130,Dry,992,6,10,,,,5.7,
Wick,04/02/2017 00:00,7.3,22,,,0,0,91,30,130,Dry,992,6,11,,,,6,
Wick,04/02/2017 01:00,7.3,23,,,0,,88,32,120,Dry,991,2,10,,,,5.6,
Wick,04/02/2017 02:00,7,24,,,0,,83,35,120,Dry,990,6,11,,,,4.4,
Wick,04/02/2017 03:00,7,0,,,0,,86,30,0,Dry,990,7,10,,,,4.9,
Wick,04/02/2017 04:00,7.1,0,,,0,,85,,0,Dry,990,6,11,,,,4.9,
Wick,04/02/2017 05:00,7.3,0,,,0,,82,,0,Dry,989,1,13,,,,4.5,
Wick,04/02/2017 06:00,7.2,0,6.7,,0,0,84,,0,Dry,989,1,12,,,,4.8,
Wick,04/02/2017 07:00,7.1,0,,,0,,87,,0,Haze,988,2,10,,,,5.2,
Wick,04/02/2017 08:00,7.3,0,,,0,,87,,0,Dry,988,2,11,,,,5.4,
Wick,04/02/2017 09:00,7.4,0,,,0,,87,,0,Dry,987,5,12,,,,5.5,
Wick,04/02/2017 10:00,7.6,0,,,0,,86,,0,Dry,986,2,11,,,,5.5,
Wick,04/02/2017 11:00,7.3,0,,,0,,87,,0,Haze,985,2,9,,,,5.3,
Wick,04/02/2017 12:00,6.7,0,,,0,0,85,,0,Rain,984,5,11,,,,4.5,
Wick,04/02/2017 13:00,6.5,0,,,0.2,,90,,0,Light drizzle,982,6,9,,,,5,
Wick,04/02/2017 14:00,5.9,0,,,0,,88,,0,Drizzle,981,5,17,,,,4.2,
Wick,04/02/2017 15:00,4.7,0,,,0.6,,91,38,0,Light shower,982,5,8,,,,3.4,
Wick,04/02/2017 16:00,4.6,25,,,0.8,,91,38,190,Light rain,984,6,9,,,,3.3,
Wick,04/02/2017 17:00,4.9,21,,,1.4,,88,33,190,Drizzly rain,986,3,9,,,,3.1,
Wick,04/02/2017 18:00,5.7,24,,7.6,0.4,3,81,36,190,Rain,988,1,45,,,,2.7,
Wick,04/02/2017 19:00,5.5,21,,,0,,83,32,190,Dry,989,0,30,,,,3,
Wick,04/02/2017 20:00,5.3,21,,,0,,82,,190,Dry,991,0,45,,,,2.5,
Wick,04/02/2017 21:00,5.3,21,,,0,,82,35,190,Dry,993,0,40,,,,2.5,
Wick,04/02/2017 22:00,5.1,16,,,0,,82,30,200,Dry,994,0,45,,,,2.4,
Wick,04/02/2017 23:00,4.5,12,,,0,,80,,190,Dry,995,0,45,,,,1.4,
Wick,05/02/2017 00:00,5.4,14,,,0,0,77,,180,Dry,996,0,25,,,,1.7,
Wick,05/02/2017 01:00,5.8,15,,,0,,73,,160,Dry,997,0,22,,,,1.4,
Wick,05/02/2017 02:00,5.7,13,,,0,,73,,160,Dry,998,0,35,,,,1.4,
Wick,05/02/2017 03:00,5.5,16,,,0,,83,,150,Dry,998,0,16,,,,2.9,
Wick,05/02/2017 04:00,5.6,15,,,0,,82,,150,Dry,999,1,19,,,,2.8,
Wick,05/02/2017 05:00,5.1,14,,,0,,83,,150,Dry,1000,0,15,,,,2.6,
Wick,05/02/2017 06:00,5.5,12,3.9,,0,0,81,,160,Dry,1000,1,21,,,,2.6,
Wick,05/02/2017 07:00,5.6,12,,,0,,79,,150,Dry,1001,2,24,,,,2.4,
Wick,05/02/2017 08:00,5.4,8,,,0,,81,,150,Dry,1002,0,21,,,,2.5,
Wick,05/02/2017 09:00,5.7,9,,,0,,82,,150,Dry,1003,3,27,,,,2.9,
Wick,05/02/2017 10:00,6.5,13,,,0,,79,,130,Dry,1003,2,23,,,,3.2,
Wick,05/02/2017 11:00,6.9,13,,,0,,75,,140,Dry,1004,0,29,,,,2.8,
Wick,05/02/2017 12:00,7.1,13,,,0,0,76,,140,Dry,1004,0,25,,,,3.2,
Wick,05/02/2017 13:00,7.1,12,,,0,,73,,130,Dry,1005,0,27,,,,2.7,
Wick,05/02/2017 14:00,7.2,12,,,0,,76,,130,Dry,1005,4,30,,,,3.3,
Wick,05/02/2017 15:00,7.1,12,,,0,,77,,130,Dry,1006,3,30,,,,3.5,
Wick,05/02/2017 16:00,5.8,17,,,0,,82,,140,Dry,1007,3,25,,,,3.1,
Wick,05/02/2017 17:00,5.9,13,,,0,,85,,130,Rain,1007,1,30,,,,3.6,
Wick,05/02/2017 18:00,5.7,20,,7.5,0,0,86,,120,Dry,1008,7,23,,,,3.6,
Wick,05/02/2017 19:00,4.9,10,,,0,,86,,160,Light shower,1008,1,28,,,,2.8,
Wick,05/02/2017 20:00,5.6,15,,,0.2,,88,,120,Rain,1009,2,40,,,,3.8,
Wick,05/02/2017 21:00,5.9,16,,,0,,82,,140,Dry,1009,1,27,,,,3.2,
Wick,05/02/2017 22:00,5.5,15,,,0,,81,,160,Dry,1010,2,30,,,,2.6,
Wick,05/02/2017 23:00,5.2,12,,,0,,84,,170,Dry,1011,2,30,,,,2.8,
Wick,06/02/2017 00:00,4.3,7,,,0,0.2,89,,180,Dry,1011,1,45,,,,2.7,
Wick,06/02/2017 01:00,4,6,,,0,,89,,180,Dry,1012,2,40,,,,2.5,
Wick,06/02/2017 02:00,4.7,10,,,0,,84,,160,Dry,1013,2,35,,,,2.3,
Wick,06/02/2017 03:00,4.7,7,,,0,,84,,170,Dry,1013,5,50,,,,2.3,
Wick,06/02/2017 04:00,4.5,9,,,0,,82,,170,Dry,1014,3,40,,,,1.7,
Wick,06/02/2017 05:00,4.5,8,,,0,,81,,160,Dry,1014,0,50,,,,1.6,
Wick,06/02/2017 06:00,4.6,0,3.9,,0,0,78,,0,Dry,1014,0,50,,,,1.1,
Wick,06/02/2017 07:00,4.7,0,,,0,,78,,0,Dry,1014,1,45,,,,1.2,
Wick,06/02/2017 08:00,4.5,0,,,0,,76,,0,Dry,1014,1,40,,,,0.7,
Wick,06/02/2017 09:00,5,0,,,0,,78,,0,Dry,1014,1,24,,,,1.5,
Wick,06/02/2017 10:00,5.7,21,,,0,,82,32,150,Dry,1014,1,19,,,,2.9,
Wick,06/02/2017 11:00,6.2,21,,,0,,76,33,150,Dry,1014,4,26,,,,2.3,
Wick,06/02/2017 12:00,6.4,24,,,0,0,76,39,150,Dry,1013,5,19,,,,2.5,
Wick,06/02/2017 13:00,6,24,,,0,,78,36,150,Dry,1012,6,19,,,,2.6,
Wick,06/02/2017 14:00,6.4,22,,,0,,80,39,150,Dry,1011,6,23,,,,3.3,
Wick,06/02/2017 15:00,6.4,25,,,0,,73,45,150,Dry,1010,7,16,,,,2.1,
Wick,06/02/2017 16:00,6.6,32,,,0,,75,53,140,Dry,1009,1,16,,,,2.5,
Wick,06/02/2017 17:00,6.5,35,,,0,,79,54,140,Dry,1008,3,13,,,,3.2,
Wick,06/02/2017 18:00,6.6,35,,6.9,0,0,79,55,140,Dry,1008,2,12,,,,3.4,
Wick,06/02/2017 19:00,6.5,31,,,0,,80,52,140,Dry,1007,2,12,,,,3.4,
Wick,06/02/2017 20:00,6.7,32,,,0,,76,51,150,Dry,1007,3,12,,,,2.8,
Wick,06/02/2017 21:00,6,30,,,0,,79,53,150,Drizzly rain,1008,2,11,,,,2.8,
Wick,06/02/2017 22:00,6.4,31,,,0.2,,83,47,150,Light shower,1008,5,8,,,,3.8,
Wick,06/02/2017 23:00,5.8,30,,,0.2,,87,45,150,Rain,1008,4,5,,,,3.9,
Wick,07/02/2017 00:00,5.8,25,,,0,0.4,83,41,150,Rain,1008,1,11,,,,3.3,
Wick,07/02/2017 01:00,5.8,25,,,0,,82,38,150,Rain,1008,3,12,,,,3.1,
Wick,07/02/2017 02:00,5.9,29,,,0,,84,48,150,Haze,1007,1,9,,,,3.5,
Wick,07/02/2017 03:00,6,23,,,0,,85,43,150,Haze,1008,2,10,,,,3.8,
Wick,07/02/2017 04:00,5.6,23,,,0.4,,88,37,150,Light shower,1008,3,9,,,,3.9,
Wick,07/02/2017 05:00,5.8,23,,,0.8,,86,37,150,Rain,1008,5,10,,,,3.8,
Wick,07/02/2017 06:00,5.9,17,5.5,,0,1.6,88,38,150,Dry,1009,4,15,,,,4.2,
Wick,07/02/2017 07:00,5.8,22,,,0,,89,35,140,Light drizzle,1009,6,11,,,,4.2,
Wick,07/02/2017 08:00,5.6,20,,,1,,92,35,150,Light rain,1010,6,5,,,,4.5,
Wick,07/02/2017 09:00,5.7,22,,,1.6,,93,33,140,Light rain,1010,2,6,,,,4.8,
Wick,07/02/2017 10:00,5.7,20,,,2,,94,35,140,Moderate rain,1010,3,7,,,,4.9,
Wick,07/02/2017 11:00,5.9,25,,,1.6,,93,41,130,Light rain,1011,5,5,,,,5,
Wick,07/02/2017 12:00,5.6,30,,,2.2,8,93,45,130,Moderate rain,1012,7,5,,,,4.6,
Wick,07/02/2017 13:00,5.6,29,,,2,,91,43,130,Light rain,1012,3,7,,,,4.4,
Wick,07/02/2017 14:00,5.5,20,,,0.8,,94,41,140,Light rain,1013,4,4,,,,4.7,
Wick,07/02/2017 15:00,5,15,,,0.4,,92,33,150,Light shower,1014,1,4,,,,3.9,
Wick,07/02/2017 16:00,4.9,6,,,3,,95,,170,Light rain,1015,6,6,,,,4.2,
Wick,07/02/2017 17:00,5.2,22,,,1.6,,93,39,140,Light rain,1016,5,6,,,,4.3,
Wick,07/02/2017 18:00,5.2,25,,6.1,0.6,9,93,38,140,Moderate shower,1018,7,9,,,,4.2,
Wick,07/02/2017 19:00,5,22,,,0.2,,93,36,150,Moderate shower,1019,4,5,,,,4,
Wick,07/02/2017 20:00,5,23,,,0,,90,36,140,Rain,1020,7,11,,,,3.5,
Wick,07/02/2017 21:00,5,24,,,0,,89,37,140,Haze,1021,8,9,,,,3.4,
Wick,07/02/2017 22:00,4.8,24,,,0.2,,91,39,140,Rain,1022,8,8,,,,3.5,
Wick,07/02/2017 23:00,4.7,21,,,0.2,,90,37,150,Light drizzle,1023,5,9,,,,3.3,
Wick,08/02/2017 00:00,4.7,22,,,0,0.6,91,33,140,Rain,1024,7,11,,,,3.4,
Wick,08/02/2017 01:00,4.7,22,,,0.2,,89,36,140,Dry,1025,8,14,,,,3.2,
Wick,08/02/2017 02:00,4.6,20,,,0.2,,89,35,140,Light drizzle,1025,7,12,,,,3,
Wick,08/02/2017 03:00,4.8,22,,,0.2,,86,38,140,Rain,1026,6,14,,,,2.8,
Wick,08/02/2017 04:00,4.7,23,,,0.2,,86,36,140,Light shower,1026,4,10,,,,2.6,
Wick,08/02/2017 05:00,4.6,23,,,0.4,,88,35,150,Light drizzle,1026,5,9,,,,2.9,
Wick,08/02/2017 06:00,4.4,23,4.2,,0.2,1.4,89,35,140,Rain,1027,2,10,,,,2.8,
Wick,08/02/2017 07:00,4.1,22,,,0.2,,91,33,140,Rain,1028,7,8,,,,2.9,
Wick,08/02/2017 08:00,4.3,21,,,0.2,,90,37,140,Rain,1028,5,7,,,,2.9,
Wick,08/02/2017 09:00,4.2,23,,,0.4,,89,35,150,Light drizzle,1029,5,10,,,,2.6,
Wick,08/02/2017 10:00,4.2,23,,,0,,84,37,150,Light shower,1029,7,13,,,,1.9,
Wick,08/02/2017 11:00,4.8,0,,,,,80,34,0,Rain,1029,,12,,,,1.8,
Wick,08/02/2017 12:00,4.9,0,,,,1,77,,0,Dry,1029,,12,,,,1.3,
Wick,08/02/2017 13:00,4.8,0,,,,,76,,0,Dry,1030,,12,,,,1.1,
Wick,08/02/2017 14:00,4.8,0,,,,,76,,0,Dry,1030,,15,,,,1,
Wick,08/02/2017 15:00,4.7,0,,,0,,74,,0,Dry,1030,3,19,,,,0.6,
Wick,08/02/2017 16:00,4.7,0,,,0,,74,,0,Dry,1030,3,18,,,,0.6,
Wick,08/02/2017 17:00,4.6,0,,,0,,72,35,0,Dry,1030,3,24,,,,0,
Wick,08/02/2017 18:00,4.4,0,,5.1,0,0,79,,0,Dry,1030,2,27,,,,1.1,
Wick,08/02/2017 19:00,4.1,0,,,0,,81,,0,Dry,1031,3,22,,,,1.2,
Wick,08/02/2017 20:00,4.1,0,,,0,,80,,0,Dry,1031,6,30,,,,1.1,
Wick,08/02/2017 21:00,4.1,0,,,0,,80,,0,Dry,1032,4,16,,,,1,
Wick,08/02/2017 22:00,4.1,0,,,0,,81,37,0,Dry,1031,2,27,,,,1.3,
Wick,08/02/2017 23:00,4.2,26,,,0,,77,35,140,Dry,1031,3,26,,,,0.7,
Wick,09/02/2017 00:00,4,21,,,0,0,80,37,140,Dry,1032,5,27,,,,0.9,
Wick,09/02/2017 01:00,4.2,23,,,0,,73,38,150,Dry,1032,1,20,,,,-0.2,
Wick,09/02/2017 02:00,4.1,21,,,0,,72,35,150,Dry,1032,2,19,,,,-0.4,
Wick,09/02/2017 03:00,4.1,20,,,0,,72,31,150,Dry,1032,1,16,,,,-0.4,
Wick,09/02/2017 04:00,3.9,20,,,0,,72,31,150,Dry,1032,8,24,,,,-0.5,
Wick,09/02/2017 05:00,4,18,,,0,,72,30,140,Dry,1032,8,30,,,,-0.4,
Wick,09/02/2017 06:00,3.9,17,3.6,,0,0,72,29,150,Dry,1032,8,27,,,,-0.5,
Wick,09/02/2017 07:00,3.8,20,,,0,,70,30,140,Dry,1032,1,50,,,,-1.1,
Wick,09/02/2017 08:00,3.9,20,,,0,,66,29,140,Dry,1032,7,40,,,,-1.8,
Wick,09/02/2017 09:00,3.9,20,,,0,,68,30,140,Dry,1032,7,30,,,,-1.3,
Wick,09/02/2017 10:00,4.2,16,,,0,,63,31,140,Dry,1032,8,35,,,,-2.2,
Wick,09/02/2017 11:00,4.7,21,,,0,,67,31,130,Dry,1032,1,35,,,,-0.8,
Wick,09/02/2017 12:00,4.2,17,,,0,0,66,,150,Dry,1032,1,35,,,,-1.5,
Wick,09/02/2017 13:00,4.4,17,,,0,,65,,150,Dry,1032,2,29,,,,-1.5,
Wick,09/02/2017 14:00,4,15,,,0,,65,30,140,Dry,1032,1,35,,,,-1.9,
Wick,09/02/2017 15:00,4,20,,,0,,76,29,130,Dry,1032,2,30,,,,0.3,
Wick,09/02/2017 16:00,3.7,20,,,0,,81,31,130,Dry,1032,1,35,,,,0.8,
Wick,09/02/2017 17:00,3.6,15,,,0,,69,,140,Dry,1032,8,40,,,,-1.5,
Wick,09/02/2017 18:00,2.4,21,,4.9,0,0,87,30,120,Dry,1033,1,26,,,,0.5,
Wick,09/02/2017 19:00,2.6,20,,,0.2,,86,29,120,Precipitation,1033,4,9,,,,0.6,
Wick,09/02/2017 20:00,3,14,,,0.2,,83,,150,Dry,1033,1,30,,,,0.4,
Wick,09/02/2017 21:00,3.2,13,,,0,,77,,140,Dry,1033,1,35,,,,-0.3,
Wick,09/02/2017 22:00,2.8,7,,,0,,81,,160,Dry,1033,7,27,,,,-0.1,
Wick,09/02/2017 23:00,3.2,8,,,0,,80,,140,Dry,1033,1,40,,,,0.1,
Wick,10/02/2017 00:00,3.4,9,,,0,0.4,63,,130,Dry,1033,7,50,,,,-2.8,
Wick,10/02/2017 01:00,2.3,14,,,0,,84,,100,Rain,1033,6,40,,,,-0.1,
Wick,10/02/2017 02:00,2.8,0,,,0,,75,,0,Dry,1033,4,35,,,,-1.1,
Wick,10/02/2017 03:00,2.6,0,,,0,,76,,0,Dry,1033,5,50,,,,-1.1,
Wick,10/02/2017 04:00,2,0,,,0,,81,,0,Dry,1033,2,35,,,,-0.8,
Wick,10/02/2017 05:00,2.7,0,,,0,,72,,0,Dry,1033,7,50,,,,-1.8,
Wick,10/02/2017 06:00,1.8,0,1.8,,0,0,69,,0,Dry,1033,5,50,,,,-3.1,
Wick,10/02/2017 07:00,-0.3,0,,,0,,77,,0,Dry,1033,3,45,,,,-3.8,
Wick,10/02/2017 08:00,-1.6,0,,,0,,95,,0,Dry,1033,1,40,,,,-2.2,
Wick,10/02/2017 09:00,-1.6,0,,,0,,96,,0,Dry,1033,1,40,,,,-2.1,
Wick,10/02/2017 10:00,-0.5,0,,,0,,97,,0,Dry,1033,1,40,,,,-0.9,
Wick,10/02/2017 11:00,1.8,0,,,0,,90,,0,Dry,1034,6,40,,,,0.4,
Wick,10/02/2017 12:00,1,0,,,0,0,89,,0,Dry,1034,4,35,,,,-0.5,
Wick,10/02/2017 13:00,0.7,0,,,0,,92,,0,Snow grains,1034,4,2,,,,-0.4,
Wick,10/02/2017 14:00,0.5,0,,,0.4,,97,,0,Snow,1033,3,45,,,,0.1,
Wick,10/02/2017 15:00,0.6,0,,,0.4,,97,,0,Dry,1033,1,13,,,,0.2,
Wick,10/02/2017 16:00,1.2,0,,,0.2,,95,,0,Dry,1034,1,15,,,,0.5,
Wick,10/02/2017 17:00,-0.4,6,,,0.2,,95,,260,Dry,1034,1,50,,,,-1,
Wick,10/02/2017 18:00,-0.7,3,,2.7,0,1,97,,260,Dry,1034,2,45,,,,-1.1,
Wick,10/02/2017 19:00,1,3,,,0,,93,,190,Dry,1035,1,30,,,,0.1,
Wick,10/02/2017 20:00,-1.1,6,,,0,,95,,270,Dry,1035,1,45,,,,-1.7,
Wick,10/02/2017 21:00,-1.3,3,,,0,,97,,270,Dry,1036,1,30,,,,-1.7,
Wick,10/02/2017 22:00,-2.7,6,,,0,,97,,270,Dry,1036,0,35,,,,-3.1,
Wick,10/02/2017 23:00,-3,5,,,0,,97,,260,Dry,1036,1,40,,,,-3.4,
Wick,11/02/2017 00:00,-3.2,6,,,0,0,97,,260,Dry,1036,1,45,,,,-3.5,
Wick,11/02/2017 01:00,-3.3,3,,,0,,97,,260,Dry,1037,5,40,,,,-3.7,
Wick,11/02/2017 02:00,-3,5,,,0,,97,,270,Dry,1037,0,35,,,,-3.3,
Wick,11/02/2017 03:00,-2.8,3,,,0,,97,,260,Dry,1037,3,30,,,,-3.1,
Wick,11/02/2017 04:00,-1.3,5,,,0,,96,,240,Moderate precip.,1037,6,25,,,,-1.8,
Wick,11/02/2017 05:00,1.5,10,,,0,,77,,50,Precipitation,1037,2,50,,,,-2,
Wick,11/02/2017 06:00,1.3,8,-3.8,,0,0,76,,20,Dry,1038,5,50,,,,-2.4,
Wick,11/02/2017 07:00,2.1,10,,,0,,86,,350,Dry,1038,3,45,,,,0.1,
Wick,11/02/2017 08:00,2.2,13,,,0,,88,,350,Dry,1039,7,35,,,,0.5,
Wick,11/02/2017 09:00,2.2,12,,,0.4,,85,,350,Dry,1039,5,35,,,,0.1,
Wick,11/02/2017 10:00,3.8,10,,,0,,70,,30,Dry,1039,5,27,,,,-1,
Wick,11/02/2017 11:00,4.2,13,,,0,,70,,40,Dry,1040,2,30,,,,-0.7,
Wick,11/02/2017 12:00,4.7,13,,,0,0.4,67,,40,Dry,1039,1,45,,,,-0.8,
Wick,11/02/2017 13:00,5.3,12,,,0,,67,,40,Dry,1039,3,28,,,,-0.2,
Wick,11/02/2017 14:00,4.3,10,,,0,,67,,40,Rain,1039,1,30,,,,-1.1,
Wick,11/02/2017 15:00,4.1,10,,,0,,69,,40,Dry,1039,2,45,,,,-0.9,
Wick,11/02/2017 16:00,4.2,12,,,0,,65,,40,Dry,1039,6,45,,,,-1.7,
Wick,11/02/2017 17:00,3.2,13,,,0,,69,,40,Dry,1040,1,50,,,,-1.8,
Wick,11/02/2017 18:00,2.9,10,,5.6,0,0,76,,40,Dry,1040,5,45,,,,-0.9,
Wick,11/02/2017 19:00,3.3,12,,,0,,72,,60,Dry,1040,6,30,,,,-1.1,
Wick,11/02/2017 20:00,3.4,12,,,0,,72,,60,Dry,1040,6,50,,,,-1.1,
Wick,11/02/2017 21:00,2.1,9,,,0,,73,,60,Dry,1040,2,30,,,,-2.1,
Wick,11/02/2017 22:00,2.9,8,,,0,,73,,50,Dry,1040,7,35,,,,-1.3,
Wick,11/02/2017 23:00,0.7,5,,,0,,77,,50,Dry,1040,1,40,,,,-2.8,
Wick,12/02/2017 00:00,-0.4,7,,,0,0,87,,260,Dry,1040,7,50,,,,-2.2,
Wick,12/02/2017 01:00,3.2,7,,,0,,78,,40,Dry,1040,7,35,,,,-0.2,
Wick,12/02/2017 02:00,3.8,7,,,0,,75,,60,Dry,1040,7,50,,,,-0.1,
Wick,12/02/2017 03:00,3.5,1,,,0,,78,,120,Dry,1040,2,40,,,,0.1,
Wick,12/02/2017 04:00,-0.8,3,,,0,,78,,230,Dry,1040,4,45,,,,-4,
Wick,12/02/2017 05:00,-0.7,5,,,0,,88,,240,Dry,1040,1,45,,,,-2.3,
Wick,12/02/2017 06:00,-0.2,3,-1.1,,0,0,90,,270,Dry,1040,1,50,,,,-1.6,
Wick,12/02/2017 07:00,-0.1,3,,,0,,90,,280,Dry,1040,7,45,,,,-1.4,
Wick,12/02/2017 08:00,0.2,3,,,0,,91,,280,Dry,1040,7,40,,,,-1,
Wick,12/02/2017 09:00,0.1,3,,,0,,94,,230,Dry,1040,8,35,,,,-0.7,
Wick,12/02/2017 10:00,1.5,2,,,0,,93,,240,Dry,1040,8,45,,,,0.6,
Wick,12/02/2017 11:00,5.2,10,,,0,,67,,90,Dry,1040,8,45,,,,-0.3,
Wick,12/02/2017 12:00,5.5,9,,,0,0,67,,100,Dry,1040,7,40,,,,-0.1,
Wick,12/02/2017 13:00,5.4,9,,,0,,70,,120,Dry,1039,8,45,,,,0.5,
Wick,12/02/2017 14:00,5.3,10,,,0,,70,,130,Dry,1039,8,35,,,,0.3,
Wick,12/02/2017 15:00,5.1,12,,,0,,66,,110,Dry,1039,8,40,,,,-0.7,
Wick,12/02/2017 16:00,4.8,13,,,0,,68,,100,Dry,1038,8,40,,,,-0.5,
Wick,12/02/2017 17:00,4.3,15,,,0,,67,,100,Dry,1039,8,40,,,,-1.1,
Wick,12/02/2017 18:00,4.1,17,,6.3,0,0,69,,100,Dry,1039,8,35,,,,-0.9,
Wick,12/02/2017 19:00,4.1,17,,,0,,70,,100,Dry,1038,8,30,,,,-0.8,
Wick,12/02/2017 20:00,4.3,21,,,0,,68,,100,Dry,1038,8,35,,,,-0.9,
Wick,12/02/2017 21:00,4.5,20,,,0,,65,31,100,Dry,1038,7,35,,,,-1.3,
Wick,12/02/2017 22:00,4,16,,,0,,74,30,120,Dry,1038,6,40,,,,-0.1,
Wick,12/02/2017 23:00,3.9,15,,,0,,82,,130,Dry,1037,4,24,,,,1.2,
Wick,13/02/2017 00:00,4.1,17,,,0,0,78,,130,Rain,1037,2,23,,,,0.7,
Wick,13/02/2017 01:00,4.2,18,,,0,,77,30,130,Dry,1037,7,24,,,,0.6,
Wick,13/02/2017 02:00,4,16,,,0,,85,30,130,Dry,1037,6,13,,,,1.8,
Wick,13/02/2017 03:00,4.4,17,,,0,,81,30,130,Dry,1036,7,21,,,,1.6,
Wick,13/02/2017 04:00,4.7,17,,,0,,83,32,130,Dry,1036,8,17,,,,2.2,
Wick,13/02/2017 05:00,4.8,18,,,0,,81,29,130,Dry,1036,7,23,,,,1.9,
Wick,13/02/2017 06:00,4.8,18,3.5,,0,0,80,31,140,Dry,1035,8,25,,,,1.8,
Wick,13/02/2017 07:00,4.7,20,,,0,,80,,120,Dry,1035,8,20,,,,1.6,
Wick,13/02/2017 08:00,4.8,16,,,0,,83,29,130,Dry,1035,8,22,,,,2.3,
Wick,13/02/2017 09:00,4.8,18,,,0,,80,30,130,Dry,1035,8,29,,,,1.7,
Wick,13/02/2017 10:00,5.2,17,,,0,,82,29,130,Dry,1035,8,19,,,,2.5,
Wick,13/02/2017 11:00,5.2,17,,,0,,82,,130,Dry,1035,8,29,,,,2.5,
Wick,13/02/2017 12:00,5.4,16,,,0,0,80,29,130,Dry,1035,8,18,,,,2.4,
Wick,13/02/2017 13:00,5.4,18,,,0,,80,29,140,Dry,1035,8,18,,,,2.4,
Wick,13/02/2017 14:00,5.5,22,,,0,,79,31,140,Dry,1034,8,20,,,,2.2,
Wick,13/02/2017 15:00,5.5,23,,,0,,82,35,130,Dry,1033,8,19,,,,2.7,
Wick,13/02/2017 16:00,5.4,22,,,0,,83,32,140,Dry,1033,8,17,,,,2.9,
Wick,13/02/2017 17:00,5.4,18,,,0,,83,31,130,Dry,1033,8,17,,,,2.8,
Wick,13/02/2017 18:00,5.4,20,,5.6,0,0,83,30,130,Dry,1033,8,17,,,,2.8,
Wick,13/02/2017 19:00,5.4,20,,,0,,85,29,140,Dry,1033,8,13,,,,3.1,
Wick,13/02/2017 20:00,5.4,17,,,0,,85,32,130,Dry,1033,8,14,,,,3.1,
Wick,13/02/2017 21:00,5.7,21,,,0,,84,36,130,Dry,1032,8,15,,,,3.3,
Wick,13/02/2017 22:00,5.6,18,,,0,,83,32,130,Dry,1032,8,13,,,,3.1,
Wick,13/02/2017 23:00,5.5,20,,,0,,85,,130,Dry,1032,8,19,,,,3.2,
Wick,14/02/2017 00:00,5.6,14,,,0,0,84,29,150,Dry,1032,8,14,,,,3.2,
Wick,14/02/2017 01:00,5.7,13,,,0,,86,,150,Dry,1032,8,12,,,,3.6,
Wick,14/02/2017 02:00,5.6,20,,,0,,84,,130,Dry,1031,8,17,,,,3.2,
Wick,14/02/2017 03:00,5.6,22,,,0,,85,33,130,Dry,1030,7,17,,,,3.4,
Wick,14/02/2017 04:00,5.8,18,,,0,,83,30,130,Dry,1030,7,16,,,,3.3,
Wick,14/02/2017 05:00,6,16,,,0,,83,29,130,Dry,1030,8,15,,,,3.4,
Wick,14/02/2017 06:00,6.1,16,5.1,,0,0,83,,130,Dry,1029,8,14,,,,3.6,
Wick,14/02/2017 07:00,6.1,16,,,0,,83,,130,Dry,1029,8,14,,,,3.6,
Wick,14/02/2017 08:00,6.2,17,,,0,,82,,130,Dry,1029,8,14,,,,3.5,
Wick,14/02/2017 09:00,6.4,18,,,0,,83,29,130,Dry,1028,7,13,,,,3.8,
Wick,14/02/2017 10:00,6.3,22,,,0,,84,32,120,Dry,1028,3,12,,,,3.8,
Wick,14/02/2017 11:00,6.8,18,,,0,,82,,130,Dry,1028,4,12,,,,4.1,
Wick,14/02/2017 12:00,6.8,18,,,0,0,81,29,140,Dry,1027,7,11,,,,3.8,
Wick,14/02/2017 13:00,6.9,22,,,0,,78,31,140,Dry,1026,7,10,,,,3.4,
Wick,14/02/2017 14:00,6.9,25,,,0,,74,37,130,Dry,1026,1,12,,,,2.7,
Wick,14/02/2017 15:00,7,20,,,0,,77,31,140,Haze,1025,6,10,,,,3.3,
Wick,14/02/2017 16:00,6.4,22,,,0,,77,33,130,Dry,1024,7,9,,,,2.7,
Wick,14/02/2017 17:00,6,20,,,0,,79,33,150,Haze,1025,7,10,,,,2.7,
Wick,14/02/2017 18:00,5.9,20,,7.2,0,0,82,29,150,Haze,1024,8,10,,,,3.1,
Wick,14/02/2017 19:00,5.6,18,,,0,,81,31,140,Dry,1024,7,10,,,,2.7,
Wick,14/02/2017 20:00,5.6,21,,,0,,81,30,150,Dry,1023,8,11,,,,2.7,
Wick,14/02/2017 21:00,5.8,21,,,0,,82,31,150,Dry,1023,8,10,,,,3,
Wick,14/02/2017 22:00,5.7,21,,,0,,83,31,150,Haze,1023,7,9,,,,3.2,
Wick,14/02/2017 23:00,5.6,17,,,0,,85,,150,Haze,1022,2,9,,,,3.3,
Wick,15/02/2017 00:00,5.6,16,,,0,0,86,,150,Haze,1022,1,8,,,,3.5,
Wick,15/02/2017 01:00,5.7,14,,,0,,86,,160,Haze,1022,1,8,,,,3.7,
Wick,15/02/2017 02:00,6,10,,,0,,86,,170,Haze,1022,7,8,,,,4,
Wick,15/02/2017 03:00,6.1,10,,,0,,83,,170,Dry,1022,8,11,,,,3.6,
Wick,15/02/2017 04:00,6.1,9,,,0,,86,,160,Dry,1022,7,10,,,,4.1,
Wick,15/02/2017 05:00,6.2,9,,,0,,82,,180,Dry,1022,1,12,,,,3.5,
Wick,15/02/2017 06:00,5.9,8,5.4,,0,0,86,,180,Dry,1022,0,11,,,,3.9,
Wick,15/02/2017 07:00,5.4,8,,,0,,89,,190,Dry,1022,1,10,,,,3.8,
Wick,15/02/2017 08:00,5.1,5,,,0,,89,,180,Dry,1022,1,12,,,,3.5,
Wick,15/02/2017 09:00,5.7,3,,,0,,91,,150,Haze,1022,2,9,,,,4.4,
Wick,15/02/2017 10:00,6.8,8,,,0,,82,,190,Dry,1022,3,16,,,,4.1,
Wick,15/02/2017 11:00,8.1,6,,,0,,75,,180,Dry,1022,1,16,,,,4,
Wick,15/02/2017 12:00,8.7,5,,,0,0,77,,160,Dry,1022,1,11,,,,5,
Wick,15/02/2017 13:00,9.5,8,,,0,,74,,170,Dry,1021,0,15,,,,5.2,
Wick,15/02/2017 14:00,9.1,9,,,0,,74,,180,Dry,1021,0,10,,,,4.9,
Wick,15/02/2017 15:00,7.8,9,,,0,,81,,160,Dry,1020,0,13,,,,4.9,
Wick,15/02/2017 16:00,6.8,7,,,0,,88,,140,Dry,1020,0,12,,,,5,
Wick,15/02/2017 17:00,7.1,6,,,0,,90,,140,Dry,1019,,11,,,,5.7,
Wick,15/02/2017 18:00,6.9,8,,10.5,0,0,93,,120,Haze,1018,0,10,,,,5.9,
Wick,15/02/2017 19:00,7.3,7,,,0,,89,,170,Dry,1018,0,16,,,,5.7,
Wick,15/02/2017 20:00,7.7,12,,,0,,83,,180,Dry,1018,0,20,,,,5.1,
Wick,15/02/2017 21:00,7.7,12,,,0,,82,,170,Dry,1017,8,28,,,,4.9,
Wick,15/02/2017 22:00,7.2,14,,,0,,88,,160,Dry,1016,0,11,,,,5.4,
Wick,15/02/2017 23:00,7.1,13,,,0,,90,,160,Haze,1015,0,8,,,,5.7,
Wick,16/02/2017 00:00,7.1,14,,,0,0,92,,160,Haze,1015,6,8,,,,5.9,
Wick,16/02/2017 01:00,7.4,9,,,0,,88,,170,Light shower,1014,2,9,,,,5.7,
Wick,16/02/2017 02:00,7.1,12,,,0,,90,,170,Rain,1014,8,11,,,,5.6,
Wick,16/02/2017 03:00,6.8,10,,,0,,90,,180,Dry,1013,0,18,,,,5.4,
Wick,16/02/2017 04:00,6.3,8,,,0,,90,,200,Dry,1013,0,35,,,,4.9,
Wick,16/02/2017 05:00,6,6,,,0,,91,,170,Dry,1012,0,35,,,,4.8,
Wick,16/02/2017 06:00,6.5,7,4.6,,0,0,92,,180,Dry,1012,7,40,,,,5.4,
Wick,16/02/2017 07:00,6.7,15,,,0,,92,,190,Dry,1011,2,45,,,,5.5,
Wick,16/02/2017 08:00,6.8,14,,,0,,92,,190,Dry,1011,5,45,,,,5.6,
Wick,16/02/2017 09:00,7.2,13,,,0,,93,,190,Rain,1011,7,40,,,,6.2,
Wick,16/02/2017 10:00,7,15,,,1,,95,,200,Rain,1011,1,12,,,,6.3,
Wick,16/02/2017 11:00,8.1,16,,,0,,97,,260,Rain,1011,5,35,,,,7.8,
Wick,16/02/2017 12:00,9.2,17,,,0.2,1,94,,280,Rain,1012,2,40,,,,8.3,
Wick,16/02/2017 13:00,8.6,16,,,0,,92,,280,Haze,1012,2,4,,,,7.5,
Wick,16/02/2017 14:00,8.8,16,,,0,,95,,300,Dry,1012,3,26,,,,8.1,
Wick,16/02/2017 15:00,8.5,18,,,0,,92,,300,Dry,1013,1,27,,,,7.4,
Wick,16/02/2017 16:00,8,18,,,0,,95,29,290,Dry,1014,4,19,,,,7.3,
Wick,16/02/2017 17:00,7.6,17,,,0.2,,97,,300,Drizzle,1015,3,3,,,,7.2,
Wick,16/02/2017 18:00,7.7,15,,9.9,0.2,1,97,30,310,Drizzle,1017,3,21,,,,7.4,
Wick,16/02/2017 19:00,7.3,16,,,0.2,,98,,310,Rain,1018,5,5,,,,7.1,
Wick,16/02/2017 20:00,7.3,12,,,0.2,,97,,310,Rain,1019,1,18,,,,7,
Wick,16/02/2017 21:00,7.5,10,,,0,,98,,300,Misty,1020,3,9,,,,7.3,
Wick,16/02/2017 22:00,7.1,9,,,0,,99,,310,Misty,1021,1,7,,,,7,
Wick,16/02/2017 23:00,6.4,8,,,0,,100,,320,Misty,1021,2,9,,,,6.4,
Wick,17/02/2017 00:00,4.2,7,,,0,0.4,98,,260,Thickening fog,1022,5,0,,,,4,
Wick,17/02/2017 01:00,5.5,10,,,0,,100,,270,Fog,1022,7,10,,,,5.5,
Wick,17/02/2017 02:00,5.6,7,,,0,,100,,260,Misty,1023,7,7,,,,5.6,
Wick,17/02/2017 03:00,5.7,8,,,0,,100,,260,Misty,1023,8,9,,,,5.7,
Wick,17/02/2017 04:00,5.9,2,,,0,,98,,260,Dry,1023,8,11,,,,5.7,
Wick,17/02/2017 05:00,5.9,3,,,0,,96,,220,Dry,1022,4,15,,,,5.4,
Wick,17/02/2017 06:00,4.7,2,3.2,,0,0,99,,260,Fog,1023,1,10,,,,4.6,
Wick,17/02/2017 07:00,4.4,5,,,0,,86,,200,Dry,1023,1,50,,,,2.3,
Wick,17/02/2017 08:00,4.4,2,,,0,,86,,220,Dry,1023,0,35,,,,2.4,
Wick,17/02/2017 09:00,6,6,,,0,,81,,180,Dry,1023,0,27,,,,3,
Wick,17/02/2017 10:00,7.4,6,,,0,,81,,160,Dry,1023,0,21,,,,4.5,
Wick,17/02/2017 11:00,7.4,6,,,0,,87,,150,Dry,1023,0,17,,,,5.4,
Wick,17/02/2017 12:00,8,8,,,0,0,83,,170,Dry,1023,0,23,,,,5.4,
Wick,17/02/2017 13:00,8.2,8,,,0,,74,,170,Dry,1022,0,45,,,,3.9,
Wick,17/02/2017 14:00,7.4,8,,,0,,85,,150,Dry,1021,1,40,,,,5.2,
Wick,17/02/2017 15:00,7.4,8,,,0,,81,,170,Dry,1021,1,40,,,,4.4,
Wick,17/02/2017 16:00,6.8,7,,,0,,80,,170,Dry,1020,1,45,,,,3.6,
Wick,17/02/2017 17:00,6.6,8,,,0,,84,,160,Dry,1020,1,45,,,,4.1,
Wick,17/02/2017 18:00,6.4,6,,8.7,0,0,85,,150,Dry,1020,1,45,,,,4.1,
Wick,17/02/2017 19:00,6.6,5,,,0,,83,,170,Dry,1019,1,40,,,,4,
Wick,17/02/2017 20:00,6.4,3,,,0,,89,,140,Dry,1019,1,45,,,,4.8,
Wick,17/02/2017 21:00,7.2,7,,,0,,89,,160,Dry,1018,0,50,,,,5.6,
Wick,17/02/2017 22:00,7.2,7,,,0,,87,,160,Dry,1018,0,50,,,,5.3,
Wick,17/02/2017 23:00,7.6,8,,,0,,84,,170,Dry,1017,4,50,,,,5.1,
Wick,18/02/2017 00:00,7.6,13,,,0,0,83,,170,Dry,1016,3,40,,,,5,
Wick,18/02/2017 01:00,7.2,9,,,0,,86,,170,Dry,1016,1,50,,,,5.1,
Wick,18/02/2017 02:00,7.6,15,,,0,,86,,180,Dry,1015,0,50,,,,5.5,
Wick,18/02/2017 03:00,7.5,8,,,0,,88,,180,Dry,1014,1,45,,,,5.7,
Wick,18/02/2017 04:00,7.7,15,,,0,,90,,180,Dry,1013,2,45,,,,6.2,
Wick,18/02/2017 05:00,8.6,15,,,0,,86,,190,Dry,1013,0,45,,,,6.5,
Wick,18/02/2017 06:00,7.5,5,6.2,,0,0,92,,140,Dry,1012,7,35,,,,6.4,
Wick,18/02/2017 07:00,8.4,10,,,0,,89,,190,Rain,1011,7,50,,,,6.8,
Wick,18/02/2017 08:00,8.8,15,,,0,,87,,190,Rain,1010,8,35,,,,6.8,
Wick,18/02/2017 09:00,8.5,15,,,0.2,,89,,190,Rain,1010,5,50,,,,6.9,
Wick,18/02/2017 10:00,9.1,18,,,0,,89,,210,Dry,1010,1,50,,,,7.4,
Wick,18/02/2017 11:00,10.4,14,,,0,,84,,210,Dry,1010,5,35,,,,7.9,
Wick,18/02/2017 12:00,11.8,14,,,0,0.2,83,,230,Dry,1010,4,45,,,,9.1,
Wick,18/02/2017 13:00,11.6,22,,,0,,79,30,250,Dry,1009,6,18,,,,8.2,
Wick,18/02/2017 14:00,10.7,17,,,0,,77,29,240,Dry,1009,1,40,,,,7,
Wick,18/02/2017 15:00,10.2,14,,,0,,78,,240,Dry,1008,0,45,,,,6.7,
Wick,18/02/2017 16:00,10.4,12,,,0,,78,,230,Dry,1008,5,35,,,,6.9,
Wick,18/02/2017 17:00,8.3,8,,,0,,89,,290,Rain,1008,7,40,,,,6.7,
Wick,18/02/2017 18:00,8.5,9,,12.5,0.6,0.6,92,,210,Moderate shower,1008,1,8,,,,7.3,
Wick,18/02/2017 19:00,8.1,13,,,0.2,,90,,230,Rain,1008,3,35,,,,6.6,
Wick,18/02/2017 20:00,7.6,8,,,0,,90,,210,Dry,1008,7,50,,,,6.2,
Wick,18/02/2017 21:00,7.3,10,,,0,,90,,220,Dry,1007,7,50,,,,5.8,
Wick,18/02/2017 22:00,6.2,9,,,0,,92,,240,Light shower,1007,2,30,,,,5.1,
Wick,18/02/2017 23:00,6.7,13,,,0,,93,,260,Rain,1008,2,50,,,,5.8,
Wick,19/02/2017 00:00,6.7,14,,,0,0.2,93,,260,Dry,1008,3,50,,,,5.8,
Wick,19/02/2017 01:00,7,16,,,0,,94,,270,Dry,1008,8,50,,,,6.2,
Wick,19/02/2017 02:00,6.7,12,,,0,,95,,260,Dry,1009,7,40,,,,6.1,
Wick,19/02/2017 03:00,6.7,15,,,0,,95,,260,Dry,1009,6,50,,,,6,
Wick,19/02/2017 04:00,6.6,15,,,0,,95,,260,Dry,1010,2,28,,,,6,
Wick,19/02/2017 05:00,6.8,16,,,0,,97,,270,Dry,1010,7,10,,,,6.4,
Wick,19/02/2017 06:00,6.8,15,6.1,,0,0,96,,290,Dry,1011,3,50,,,,6.3,
Wick,19/02/2017 07:00,6.7,16,,,0,,97,29,270,Misty,1011,7,19,,,,6.4,
Wick,19/02/2017 08:00,6.8,13,,,0,,98,,280,Dry,1012,7,45,,,,6.6,
Wick,19/02/2017 09:00,7.5,15,,,0,,92,,280,Dry,1012,7,30,,,,6.4,
Wick,19/02/2017 10:00,7.9,12,,,0,,88,,240,Dry,1012,0,50,,,,6.2,
Wick,19/02/2017 11:00,8.5,12,,,0,,84,,240,Dry,1012,0,50,,,,6,
Wick,19/02/2017 12:00,9.8,10,,,0,0,78,,230,Dry,1012,0,50,,,,6.2,
Wick,19/02/2017 13:00,10.3,13,,,0,,77,,240,Dry,1011,2,40,,,,6.5,
Wick,19/02/2017 14:00,11.1,17,,,0,,77,,230,Dry,1010,2,50,,,,7.3,
Wick,19/02/2017 15:00,10.8,15,,,0,,76,,230,Dry,1009,4,45,,,,6.9,
Wick,19/02/2017 16:00,10.1,10,,,0,,77,,190,Dry,1008,5,50,,,,6.4,
Wick,19/02/2017 17:00,10.3,9,,,0,,79,,200,Dry,1007,6,50,,,,7,
Wick,19/02/2017 18:00,11,24,,11.2,0,0,85,31,240,Dry,1006,6,50,,,,8.6,
Wick,19/02/2017 19:00,11,15,,,0,,87,33,230,Dry,1006,7,50,,,,9,
Wick,19/02/2017 20:00,11.7,20,,,0,,85,,230,Dry,1004,2,50,,,,9.3,
Wick,19/02/2017 21:00,12,18,,,0,,86,,250,Dry,1004,4,40,,,,9.9,
Wick,19/02/2017 22:00,11.3,14,,,0,,88,,260,Dry,1005,7,30,,,,9.5,
Wick,19/02/2017 23:00,10.7,23,,,0,,89,29,260,Dry,1005,8,50,,,,9.1,
Wick,20/02/2017 00:00,10.1,21,,,0,0,91,36,260,Dry,1005,7,35,,,,8.7,
Wick,20/02/2017 01:00,9.9,17,,,0,,89,37,260,Dry,1004,7,50,,,,8.2,
Wick,20/02/2017 02:00,9,13,,,0,,90,,260,Dry,1004,3,50,,,,7.6,
Wick,20/02/2017 03:00,9.2,12,,,0,,91,,230,Dry,1003,0,50,,,,7.9,
Wick,20/02/2017 04:00,9.5,8,,,0,,87,,170,Dry,1002,1,50,,,,7.5,
Wick,20/02/2017 05:00,9.9,18,,,0,,88,,220,Light shower,1000,7,15,,,,8.1,
Wick,20/02/2017 06:00,10.8,17,8.7,,0.4,0.4,92,,240,Light shower,1000,2,16,,,,9.7,
Wick,20/02/2017 07:00,10.5,18,,,0.2,,91,,260,Rain,999,3,50,,,,9.2,
Wick,20/02/2017 08:00,10.6,26,,,0,,89,35,260,Dry,999,5,50,,,,8.9,
Wick,20/02/2017 09:00,10,28,,,0,,90,40,270,Dry,999,7,50,,,,8.6,
Wick,20/02/2017 10:00,9.5,33,,,0,,92,46,280,Dry,1000,5,12,,,,8.4,
Wick,20/02/2017 11:00,8.8,31,,,0.2,,92,43,280,Dry,1001,5,26,,,,7.6,
Wick,20/02/2017 12:00,8.8,31,,,0,0.4,88,45,280,Dry,1002,6,21,,,,7,
Wick,20/02/2017 13:00,9.1,29,,,0,,86,45,280,Dry,1002,2,28,,,,7,
Wick,20/02/2017 14:00,9.2,29,,,0,,79,43,270,Dry,1002,3,25,,,,5.8,
Wick,20/02/2017 15:00,8.1,29,,,0,,83,51,270,Dry,1002,3,28,,,,5.4,
Wick,20/02/2017 16:00,7.1,33,,,0,,76,49,280,Dry,1003,1,19,,,,3.3,
Wick,20/02/2017 17:00,6.5,29,,,0,,81,49,280,Dry,1003,1,14,,,,3.5,
Wick,20/02/2017 18:00,5.9,24,,10.8,0,0,79,40,270,Dry,1004,1,15,,,,2.7,
Wick,20/02/2017 19:00,5.7,23,,,0,,81,32,270,Dry,1004,3,20,,,,2.8,
Wick,20/02/2017 20:00,5.4,18,,,0,,84,39,270,Dry,1005,1,23,,,,3,
Wick,20/02/2017 21:00,4.6,22,,,0,,83,32,260,Dry,1004,1,30,,,,2.1,
Wick,20/02/2017 22:00,5.1,17,,,0,,87,,260,Dry,1004,1,21,,,,3.2,
Wick,20/02/2017 23:00,4.1,20,,,0.2,,92,37,260,Rain,1005,1,25,,,,3,
Wick,21/02/2017 00:00,4.5,20,,,0,0.2,86,,260,Dry,1005,1,30,,,,2.4,
Wick,21/02/2017 01:00,4.5,21,,,0,,88,30,260,Dry,1005,1,27,,,,2.8,
Wick,21/02/2017 02:00,4.5,17,,,0,,90,32,260,Rain,1005,1,27,,,,3.1,
Wick,21/02/2017 03:00,4.7,9,,,0,,89,29,230,Rain,1006,1,19,,,,3.1,
Wick,21/02/2017 04:00,4.1,14,,,0,,88,,260,Rain,1006,3,30,,,,2.4,
Wick,21/02/2017 05:00,4.3,13,,,0.2,,90,,240,Light shower,1006,1,15,,,,2.9,
Wick,21/02/2017 06:00,4.7,17,3.6,,0,0.2,87,,260,Rain,1005,1,35,,,,2.8,
Wick,21/02/2017 07:00,4.5,8,,,0,,87,,220,Dry,1005,4,35,,,,2.6,
Wick,21/02/2017 08:00,4.6,8,,,0,,86,,190,Dry,1004,1,35,,,,2.5,
Wick,21/02/2017 09:00,5.4,7,,,0,,83,,170,Dry,1003,4,17,,,,2.8,
Wick,21/02/2017 10:00,6.3,17,,,0,,78,,210,Dry,1002,7,24,,,,2.9,
Wick,21/02/2017 11:00,6.4,20,,,0,,80,,190,Dry,1001,8,19,,,,3.3,
Wick,21/02/2017 12:00,6.9,16,,,0,0,80,29,180,Dry,999,8,15,,,,3.7,
Wick,21/02/2017 13:00,7.5,18,,,0,,80,26,180,Dry,997,8,17,,,,4.3,
Wick,21/02/2017 14:00,7.9,24,,,0,,82,36,190,Dry,994,8,13,,,,5.1,
Wick,21/02/2017 15:00,7.6,24,,,0,,92,30,200,Haze,993,7,7,,,,6.5,
Wick,21/02/2017 16:00,8.4,17,,,0.4,,90,32,210,Rain,991,8,45,,,,6.9,
Wick,21/02/2017 17:00,7.9,15,,,0,,92,,210,Dry,989,3,40,,,,6.7,
Wick,21/02/2017 18:00,8.6,24,,8.9,0,0.4,75,35,220,Dry,987,1,50,,,,4.5,
Wick,21/02/2017 19:00,7.6,21,,,1.4,,90,32,230,Moderate shower,987,1,7,,,,6.2,
Wick,21/02/2017 20:00,5.9,25,,,2.6,,86,36,260,Light rain,987,6,22,,,,3.9,
Wick,21/02/2017 21:00,5,18,,,0,,86,31,260,Rain,988,0,15,,,,2.9,
Wick,21/02/2017 22:00,4.5,18,,,0,,83,37,250,Dry,988,4,15,,,,1.9,
Wick,21/02/2017 23:00,3.4,18,,,0,,85,39,250,Rain,988,1,23,,,,1.2,
Wick,22/02/2017 00:00,4.2,25,,,0,4,82,41,250,Rain,987,2,11,,,,1.5,
Wick,22/02/2017 01:00,3.9,26,,,0,,88,44,260,Light shower,987,1,22,,,,2.1,
Wick,22/02/2017 02:00,3.7,22,,,0.8,,90,32,260,Rain,987,1,11,,,,2.3,
Wick,22/02/2017 03:00,2.4,41,,,1.2,,94,58,270,Light shower,987,2,3,,,,1.6,
Wick,22/02/2017 04:00,4,37,,,0.4,,86,59,260,Light shower,987,1,6,,,,1.9,
Wick,22/02/2017 05:00,3.9,30,,,0,,83,51,260,Rain,986,1,19,,,,1.3,
Wick,22/02/2017 06:00,3.7,38,2.4,,0.2,3,88,53,260,Moderate shower,986,1,2,,,,2,
Wick,22/02/2017 07:00,4.1,39,,,0,,83,52,260,Rain,986,3,21,,,,1.5,
Wick,22/02/2017 08:00,4.2,37,,,0,,82,49,260,Dry,986,2,21,,,,1.5,
Wick,22/02/2017 09:00,4.6,35,,,0.2,,86,54,260,Rain,986,5,15,,,,2.6,
Wick,22/02/2017 10:00,5.7,36,,,0.2,,78,63,270,Dry,987,2,16,,,,2.2,
Wick,22/02/2017 11:00,6.5,37,,,0,,77,52,270,Dry,987,1,15,,,,2.8,
Wick,22/02/2017 12:00,5.1,40,,,0,0.4,90,59,280,Haze,988,4,14,,,,3.6,
Wick,22/02/2017 13:00,5.7,38,,,0.2,,84,51,280,Rain,989,1,3,,,,3.3,
Wick,22/02/2017 14:00,5.4,37,,,0.2,,85,48,280,Rain,990,3,28,,,,3.2,
Wick,22/02/2017 15:00,4.9,31,,,0,,91,44,280,Rain,991,2,11,,,,3.6,
Wick,22/02/2017 16:00,4.7,24,,,0,,90,39,280,Dry,993,6,19,,,,3.3,
Wick,22/02/2017 17:00,4.8,23,,,0,,85,33,300,Dry,994,5,20,,,,2.5,
Wick,22/02/2017 18:00,4.1,20,,7.6,0.2,0.6,84,33,300,Rain,994,3,23,,,,1.8,
Wick,22/02/2017 19:00,2.7,6,,,0,,88,,300,Dry,996,2,29,,,,1,
Wick,22/02/2017 20:00,3,6,,,0,,87,,200,Dry,996,1,24,,,,1.2,
Wick,22/02/2017 21:00,1.6,9,,,0,,94,,270,Dry,996,1,21,,,,0.8,
Wick,22/02/2017 22:00,0.7,10,,,0,,96,,270,Dry,996,0,27,,,,0.2,
Wick,22/02/2017 23:00,1.1,7,,,0,,96,,240,Dry,996,4,30,,,,0.6,
Wick,23/02/2017 00:00,0.7,5,,,0,0,96,,280,Dry,995,0,40,,,,0.2,
Wick,23/02/2017 01:00,1.2,6,,,0,,97,,220,Dry,995,1,40,,,,0.8,
Wick,23/02/2017 02:00,0.5,3,,,0,,97,,310,Dry,994,3,19,,,,0.2,
Wick,23/02/2017 03:00,2.2,9,,,0,,95,,50,Light drizzle,993,1,8,,,,1.6,
Wick,23/02/2017 04:00,3.6,16,,,0.6,,92,,70,Rain,992,4,28,,,,2.5,
Wick,23/02/2017 05:00,3.4,16,,,0.2,,89,,80,Dry,991,3,13,,,,1.8,
Wick,23/02/2017 06:00,4.3,20,-0.5,,0,0.8,82,,70,Rain,990,2,26,,,,1.6,
Wick,23/02/2017 07:00,4.4,23,,,0,,77,30,70,Dry,990,2,20,,,,0.8,
Wick,23/02/2017 08:00,4.2,21,,,0,,73,30,60,Dry,990,4,29,,,,-0.2,
Wick,23/02/2017 09:00,4.4,22,,,0,,71,30,60,Dry,990,7,29,,,,-0.3,
Wick,23/02/2017 10:00,4.4,20,,,0,,73,,50,Dry,991,8,19,,,,0,
Wick,23/02/2017 11:00,4.1,16,,,0,,65,,30,Dry,992,1,45,,,,-1.7,
Wick,23/02/2017 12:00,4.4,18,,,0,0,71,,20,Dry,992,3,30,,,,-0.2,
Wick,23/02/2017 13:00,4.5,16,,,0,,73,,30,Dry,993,3,30,,,,0.2,
Wick,23/02/2017 14:00,4.2,16,,,0,,67,,10,Dry,994,1,30,,,,-1.3,
Wick,23/02/2017 15:00,4.3,15,,,0,,64,,360,Dry,995,1,40,,,,-1.8,
Wick,23/02/2017 16:00,3.4,15,,,0,,63,,360,Dry,996,1,40,,,,-2.9,
Wick,23/02/2017 17:00,3.2,14,,,0,,67,,360,Dry,997,4,40,,,,-2.2,
Wick,23/02/2017 18:00,2.1,10,,4.8,0,0,69,,350,Dry,998,1,40,,,,-2.8,
Wick,23/02/2017 19:00,1.3,9,,,0,,75,,360,Dry,999,1,45,,,,-2.5,
Wick,23/02/2017 20:00,-0.8,8,,,0,,84,,300,Dry,1000,1,45,,,,-3.1,
Wick,23/02/2017 21:00,-1,6,,,0,,90,,280,Dry,1001,0,40,,,,-2.3,
Wick,23/02/2017 22:00,-1.1,6,,,0,,90,,270,Dry,1001,0,45,,,,-2.4,
Wick,23/02/2017 23:00,-1.4,5,,,0,,90,,270,Dry,1002,0,29,,,,-2.8,
Wick,24/02/2017 00:00,-1.5,6,,,0,0,90,,260,Dry,1004,0,35,,,,-2.9,
Wick,24/02/2017 01:00,-1.7,6,,,0,,89,,260,Dry,1004,0,29,,,,-3.2,
Wick,24/02/2017 02:00,-1.9,6,,,0,,92,,250,Dry,1005,5,35,,,,-3,
Wick,24/02/2017 03:00,-0.4,9,,,0,,91,,270,Dry,1006,7,45,,,,-1.6,
Wick,24/02/2017 04:00,-0.2,6,,,0,,96,,240,Snow,1007,6,40,,,,-0.7,
Wick,24/02/2017 05:00,0.2,5,,,0,,96,,240,Dry,1008,5,40,,,,-0.3,
Wick,24/02/2017 06:00,-0.6,6,-2.2,,0,0,95,,260,Dry,1009,7,45,,,,-1.2,
Wick,24/02/2017 07:00,-0.4,9,,,0,,93,,260,Dry,1009,8,45,,,,-1.3,
Wick,24/02/2017 08:00,-1,5,,,0,,92,,250,Dry,1010,1,45,,,,-2.1,
Wick,24/02/2017 09:00,0.1,3,,,0,,88,,260,Dry,1010,0,30,,,,-1.5,
Wick,24/02/2017 10:00,2.5,2,,,0,,85,,240,Dry,1011,1,30,,,,0.3,
Wick,24/02/2017 11:00,4.6,6,,,0,,62,,190,Dry,1011,1,30,,,,-1.9,
Wick,24/02/2017 12:00,5,8,,,0,0,59,,190,Dry,1011,1,50,,,,-2.3,
Wick,24/02/2017 13:00,5,10,,,0,,69,,190,Dry,1011,1,40,,,,-0.2,
Wick,24/02/2017 14:00,4.6,6,,,0,,73,,160,Dry,1010,1,30,,,,0.3,
Wick,24/02/2017 15:00,4.4,13,,,0,,72,,160,Dry,1010,1,35,,,,-0.1,
Wick,24/02/2017 16:00,4.6,13,,,0,,75,,160,Dry,1009,1,35,,,,0.7,
Wick,24/02/2017 17:00,4.4,13,,,0,,80,,170,Dry,1007,1,50,,,,1.3,
Wick,24/02/2017 18:00,5,16,,5.3,0,0,78,,170,Dry,1006,1,21,,,,1.5,
Wick,24/02/2017 19:00,3.7,18,,,0.2,,80,,170,Light shower,1006,3,7,,,,0.7,
Wick,24/02/2017 20:00,3.1,24,,,2.8,,92,35,160,Moderate rain,1004,7,5,,,,2,
Wick,24/02/2017 21:00,3.3,22,,,2.6,,95,36,150,Light rain,1002,5,7,,,,2.6,
Wick,24/02/2017 22:00,4.2,24,,,0.8,,91,38,160,Light shower,999,1,6,,,,3,
Wick,24/02/2017 23:00,4.9,24,,,0.8,,90,38,160,Rain,998,4,20,,,,3.4,
Wick,25/02/2017 00:00,6,21,,,0,7,81,32,170,Dry,997,2,30,,,,3,
Wick,25/02/2017 01:00,6.3,18,,,0,,82,31,170,Dry,996,1,30,,,,3.5,
Wick,25/02/2017 02:00,6.9,22,,,0,,81,35,180,Dry,994,7,29,,,,4,
Wick,25/02/2017 03:00,6.9,23,,,0,,82,39,160,Dry,992,5,27,,,,4.2,
Wick,25/02/2017 04:00,7.3,20,,,0,,84,31,170,Dry,991,5,23,,,,4.9,
Wick,25/02/2017 05:00,7.6,16,,,0,,85,32,150,Dry,989,4,17,,,,5.3,
Wick,25/02/2017 06:00,7.2,18,2.9,,0,0,85,32,160,Dry,988,4,17,,,,5,
Wick,25/02/2017 07:00,8.6,20,,,0,,85,29,180,Dry,987,2,28,,,,6.3,
Wick,25/02/2017 08:00,8.6,23,,,0,,84,33,190,Dry,987,1,15,,,,6.2,
Wick,25/02/2017 09:00,8.8,30,,,0,,83,41,200,Dry,986,0,35,,,,6.2,
Wick,25/02/2017 10:00,9.7,25,,,0,,84,31,210,Dry,987,7,17,,,,7.2,
Wick,25/02/2017 11:00,9.1,20,,,0,,85,35,280,Rain,988,2,17,,,,6.8,
Wick,25/02/2017 12:00,8.8,20,,,0,0,87,41,270,Dry,990,1,24,,,,6.9,
Wick,25/02/2017 13:00,9.9,20,,,0,,72,31,280,Dry,991,1,20,,,,5.1,
Wick,25/02/2017 14:00,8.3,21,,,0,,70,33,280,Dry,992,1,16,,,,3.3,
Wick,25/02/2017 15:00,6.6,22,,,0.2,,85,33,280,Light shower,993,2,18,,,,4.3,
Wick,25/02/2017 16:00,7.2,12,,,0,,81,37,260,Rain,994,6,29,,,,4.3,
Wick,25/02/2017 17:00,6.6,12,,,0,,79,,270,Dry,995,5,26,,,,3.4,
Wick,25/02/2017 18:00,4.9,5,,10.3,0,0.2,83,,230,Dry,996,1,30,,,,2.3,
Wick,25/02/2017 19:00,5,5,,,0,,84,,240,Dry,996,6,30,,,,2.6,
Wick,25/02/2017 20:00,5,7,,,0,,83,,220,Dry,997,7,35,,,,2.4,
Wick,25/02/2017 21:00,5.2,10,,,0,,80,,220,Dry,997,8,30,,,,2.2,
Wick,25/02/2017 22:00,5.5,7,,,0,,77,,200,Dry,997,8,45,,,,1.8,
Wick,25/02/2017 23:00,5.3,9,,,0,,82,,190,Dry,996,5,35,,,,2.6,
Wick,26/02/2017 00:00,5.3,7,,,0,0,83,,190,Dry,996,8,30,,,,2.7,
Wick,26/02/2017 01:00,5.7,13,,,0,,88,,190,Dry,996,1,35,,,,4,
Wick,26/02/2017 02:00,5.5,13,,,0,,87,,200,Dry,995,0,40,,,,3.6,
Wick,26/02/2017 03:00,5.3,13,,,0,,89,,190,Dry,994,0,30,,,,3.7,
Wick,26/02/2017 04:00,4.9,14,,,0,,86,,190,Dry,993,1,30,,,,2.8,
Wick,26/02/2017 05:00,5.4,14,,,0,,85,,180,Dry,992,0,40,,,,3.1,
Wick,26/02/2017 06:00,5.8,12,4.5,,0,0,80,,170,Dry,991,0,35,,,,2.7,
Wick,26/02/2017 07:00,6,13,,,0,,79,,170,Dry,990,0,45,,,,2.7,
Wick,26/02/2017 08:00,6.4,15,,,0,,78,,170,Light shower,989,7,35,,,,2.9,
Wick,26/02/2017 09:00,6.4,20,,,0,,75,30,160,Rain,988,8,30,,,,2.4,
Wick,26/02/2017 10:00,5.8,17,,,0.8,,87,30,160,Light shower,988,2,12,,,,3.9,
Wick,26/02/2017 11:00,6.8,10,,,0,,80,,180,Rain,988,7,35,,,,3.6,
Wick,26/02/2017 12:00,7.8,17,,,0,0.8,77,,190,Dry,987,7,45,,,,4.2,
Wick,26/02/2017 13:00,6.7,16,,,0,,81,,190,Dry,986,6,45,,,,3.8,
Wick,26/02/2017 14:00,6.5,10,,,0,,83,,170,Dry,985,1,45,,,,3.9,
Wick,26/02/2017 15:00,6.5,8,,,0,,85,,150,Dry,984,1,29,,,,4.3,
Wick,26/02/2017 16:00,6.2,6,,,0.2,,90,,120,Light shower,982,7,15,,,,4.8,
Wick,26/02/2017 17:00,6.2,10,,,1.8,,93,,100,Light rain,980,7,9,,,,5.3,
Wick,26/02/2017 18:00,6.5,9,,8.1,3.6,5.2,96,,140,Moderate rain,978,3,6,,,,6,
Wick,26/02/2017 19:00,6.2,8,,,1,,93,,190,Rain,977,2,27,,,,5.3,
Wick,26/02/2017 20:00,4.4,17,,,0,,93,,250,Dry,978,4,50,,,,3.5,
Wick,26/02/2017 21:00,3.5,16,,,0,,88,,250,Dry,979,0,50,,,,1.8,
Wick,26/02/2017 22:00,4.1,22,,,0,,81,29,220,Dry,979,0,50,,,,1.2,
Wick,26/02/2017 23:00,3.5,18,,,0,,83,,220,Dry,980,0,50,,,,0.9,
Wick,27/02/2017 00:00,2.7,8,,,0,1,83,,210,Dry,980,0,45,,,,0.2,
Wick,27/02/2017 01:00,2.8,21,,,0,,78,31,220,Dry,981,0,50,,,,-0.5,
Wick,27/02/2017 02:00,2.6,22,,,0,,75,,210,Dry,982,0,45,,,,-1.2,
Wick,27/02/2017 03:00,1.7,20,,,0,,82,,230,Dry,982,0,50,,,,-1,
Wick,27/02/2017 04:00,2.3,17,,,0,,83,,210,Dry,982,0,50,,,,-0.2,
Wick,27/02/2017 05:00,2.1,17,,,0,,86,,210,Dry,982,0,50,,,,0.1,
Wick,27/02/2017 06:00,0.6,8,0.3,,0,0,86,,260,Dry,982,0,50,,,,-1.4,
Wick,27/02/2017 07:00,1.4,13,,,0,,85,,190,Dry,982,1,40,,,,-0.7,
Wick,27/02/2017 08:00,1,5,,,0,,85,,200,Dry,982,1,50,,,,-1.2,
Wick,27/02/2017 09:00,2.4,9,,,0,,82,,200,Dry,982,1,40,,,,-0.2,
Wick,27/02/2017 10:00,3.5,8,,,0,,75,,190,Dry,982,1,50,,,,-0.4,
Wick,27/02/2017 11:00,4.2,13,,,0,,72,,190,Dry,982,1,40,,,,-0.3,
Wick,27/02/2017 12:00,4.6,16,,,0,0,72,29,190,Dry,982,1,40,,,,0.1,
Wick,27/02/2017 13:00,5,16,,,0,,69,,200,Dry,982,1,30,,,,-0.1,
Wick,27/02/2017 14:00,5.1,13,,,0,,67,,200,Dry,982,1,40,,,,-0.5,
Wick,27/02/2017 15:00,5.6,10,,,0,,67,,210,Dry,981,1,35,,,,0,
Wick,27/02/2017 16:00,5.6,7,,,0,,65,,210,Dry,980,1,50,,,,-0.3,
Wick,27/02/2017 17:00,4.6,9,,,0,,69,,180,Dry,980,1,45,,,,-0.4,
Wick,27/02/2017 18:00,3,6,,5.7,0,0,77,,190,Dry,980,1,50,,,,-0.6,
Wick,27/02/2017 19:00,2.2,6,,,0,,80,,210,Dry,980,1,40,,,,-0.8,
Wick,27/02/2017 20:00,0.8,2,,,0,,87,,210,Dry,980,1,50,,,,-1.1,
Wick,27/02/2017 21:00,0.2,5,,,0,,85,,260,Dry,980,0,45,,,,-2,
Wick,27/02/2017 22:00,0.5,2,,,0,,80,,220,Dry,980,0,50,,,,-2.4,
Wick,27/02/2017 23:00,-1.4,3,,,0,,87,,240,Dry,979,0,50,,,,-3.2,
Wick,28/02/2017 00:00,-1.5,5,,,0,0,87,,260,Dry,979,0,50,,,,-3.3,
Wick,28/02/2017 01:00,-2.7,6,,,0,,90,,260,Dry,978,0,50,,,,-4,
Wick,28/02/2017 02:00,-1.6,5,,,0,,88,,270,Dry,978,,45,,,,-3.2,
Wick,28/02/2017 03:00,-2.3,5,,,0,,90,,270,Dry,978,0,50,,,,-3.6,
Wick,28/02/2017 04:00,-2.9,6,,,0,,92,,270,Dry,978,1,50,,,,-4,
Wick,28/02/2017 05:00,-3,7,,,0,,93,,260,Dry,978,0,50,,,,-3.9,
Wick,28/02/2017 06:00,-2.4,5,-3.3,,0,0,92,,290,Dry,979,1,50,,,,-3.4,
Wick,28/02/2017 07:00,-2.9,9,,,0,,94,,310,Dry,979,1,45,,,,-3.7,
Wick,28/02/2017 08:00,-1.7,8,,,0,,94,,290,Dry,980,1,30,,,,-2.5,
Wick,28/02/2017 09:00,1.2,10,,,0,,92,,320,Dry,980,1,40,,,,0.1,
Wick,28/02/2017 10:00,4.5,13,,,0.2,,83,,320,Dry,981,1,24,,,,2,
Wick,28/02/2017 11:00,6.2,18,,,0,,73,,340,Dry,981,1,35,,,,1.8,
Wick,28/02/2017 12:00,6.6,20,,,0,0.2,75,29,340,Dry,982,2,35,,,,2.6,
Wick,28/02/2017 13:00,7.1,21,,,0,,69,,350,Dry,982,3,18,,,,1.9,
Wick,28/02/2017 14:00,6.3,18,,,0,,69,29,340,Dry,982,2,22,,,,1.2,
Wick,28/02/2017 15:00,6,24,,,0,,70,33,320,Dry,983,1,26,,,,1,
Wick,28/02/2017 16:00,5.2,13,,,0,,83,31,310,Rain,983,2,28,,,,2.7,
Wick,28/02/2017 17:00,3.8,12,,,0,,88,,300,Dry,984,1,35,,,,2.1,
Wick,28/02/2017 18:00,3.7,13,,7.5,0,0,88,,300,Dry,985,1,40,,,,1.9,
Wick,28/02/2017 19:00,3,15,,,0,,89,,310,Rain,986,1,45,,,,1.4,
Wick,28/02/2017 20:00,3.3,17,,,0,,89,,350,Dry,986,1,40,,,,1.7,
Wick,28/02/2017 21:00,1.8,9,,,0,,91,,310,Dry,987,1,35,,,,0.6,
Wick,28/02/2017 22:00,1.9,10,,,0.2,,96,,280,Moderate precip.,988,1,4,,,,1.4,
Wick,28/02/2017 23:00,1.4,7,,,0,,94,,270,Rain,988,7,17,,,,0.6,
Wick,01/03/2017 00:00,2,12,,,0,0.2,86,,310,Precipitation,988,3,25,,,,0,
Wick,01/03/2017 01:00,0.5,7,,,0,,88,,300,Dry,989,1,19,,,,-1.1,
Wick,01/03/2017 02:00,1.7,7,,,0,,93,,310,Dry,990,3,24,,,,0.7,
Wick,01/03/2017 03:00,1.3,10,,,0,,93,,340,Freezing precip,990,1,5,,,,0.3,
Wick,01/03/2017 04:00,0.8,10,,,0,,95,,270,Light shower,990,1,8,,,,0.1,
Wick,01/03/2017 05:00,0.1,6,,,0,,95,,260,Rain,990,0,30,,,,-0.6,
Wick,01/03/2017 06:00,0.1,6,-1.2,,0,0,95,,320,Drizzle,990,1,29,,,,-0.5,
Wick,01/03/2017 07:00,-1.3,7,,,0,,97,,260,Dry,990,0,19,,,,-1.7,
Wick,01/03/2017 08:00,-0.6,7,,,0,,97,,230,Dry,990,1,35,,,,-0.9,
Wick,01/03/2017 09:00,0.8,8,,,0,,97,,260,Dry,990,1,35,,,,0.4,
Wick,01/03/2017 10:00,2.5,12,,,0.6,,87,,240,Dry,990,1,30,,,,0.6,
Wick,01/03/2017 11:00,1.9,9,,,0,,96,,260,Rain,990,1,35,,,,1.4,
Wick,01/03/2017 12:00,4.7,18,,,0.2,0.8,79,,260,Dry,990,1,30,,,,1.4,
Wick,01/03/2017 13:00,4.7,18,,,0,,88,,260,Dry,990,1,22,,,,3,
Wick,01/03/2017 14:00,4.1,21,,,0,,84,33,250,Dry,989,1,26,,,,1.8,
Wick,01/03/2017 15:00,4.3,18,,,0,,76,31,270,Dry,988,1,28,,,,0.6,
Wick,01/03/2017 16:00,4.7,21,,,0,,74,,260,Dry,988,1,35,,,,0.5,
Wick,01/03/2017 17:00,3.7,20,,,0,,78,,250,Dry,987,1,45,,,,0.3,
Wick,01/03/2017 18:00,3.1,18,,5.4,0,0,83,,240,Dry,987,2,45,,,,0.6,
Wick,01/03/2017 19:00,3.2,20,,,0,,81,29,250,Precipitation,987,3,35,,,,0.4,
Wick,01/03/2017 20:00,2.4,16,,,0,,92,29,250,Rain,987,4,18,,,,1.3,
Wick,01/03/2017 21:00,1.8,20,,,0.4,,95,,260,Rain,987,2,45,,,,1.1,
Wick,01/03/2017 22:00,2,16,,,0,,95,,250,Rain,987,1,40,,,,1.4,
Wick,01/03/2017 23:00,2.1,0,,,0,,93,,0,Rain,987,3,22,,,,1.2,
Wick,02/03/2017 00:00,2,0,,,0.2,0.6,95,,0,Rain,987,1,40,,,,1.3,
Wick,02/03/2017 01:00,2,0,,,0,,95,,0,Precipitation,987,1,30,,,,1.4,
Wick,02/03/2017 02:00,2.3,0,,,1.6,,96,,0,Moderate shower,987,4,16,,,,1.8,
Wick,02/03/2017 03:00,1.7,0,,,0.2,,97,,0,Rain,987,3,30,,,,1.3,
Wick,02/03/2017 04:00,2.4,0,,,0.2,,95,,0,Rain,988,5,45,,,,1.8,
Wick,02/03/2017 05:00,2.4,0,,,0.2,,95,,0,Rain,988,4,30,,,,1.7,
Wick,02/03/2017 06:00,2.9,0,1.5,,1,3.4,95,,0,Moderate shower,988,5,30,,,,2.2,
Wick,02/03/2017 07:00,2.8,0,,,0,,95,,0,Rain,989,1,24,,,,2.1,
Wick,02/03/2017 08:00,2.4,0,,,1,,96,,0,Light shower,990,5,30,,,,1.9,
Wick,02/03/2017 09:00,3.3,0,,,0.4,,94,,0,Rain,990,3,35,,,,2.5,
Wick,02/03/2017 10:00,3.8,0,,,0,,90,,0,Precipitation,991,1,45,,,,2.4,
Wick,02/03/2017 11:00,4.2,23,,,0.4,,90,33,270,Moderate shower,992,1,10,,,,2.8,
Wick,02/03/2017 12:00,5.3,25,,,0,2,85,45,260,Rain,992,2,45,,,,3.1,
Wick,02/03/2017 13:00,6.5,31,,,0,,79,44,260,Dry,992,1,18,,,,3.3,
Wick,02/03/2017 14:00,6.1,28,,,0,,76,45,270,Dry,993,2,9,,,,2.3,
Wick,02/03/2017 15:00,6.1,30,,,0.2,,78,46,260,Rain,993,1,28,,,,2.7,
Wick,02/03/2017 16:00,5.2,29,,,0.2,,83,43,260,Rain,994,1,50,,,,2.6,
Wick,02/03/2017 17:00,4.7,24,,,0,,84,40,260,Rain,994,1,23,,,,2.3,
Wick,02/03/2017 18:00,4,15,,7.3,0,0,81,,250,Rain,995,5,50,,,,1.2,
Wick,02/03/2017 19:00,3.2,16,,,0,,81,,260,Dry,996,1,35,,,,0.3,
Wick,02/03/2017 20:00,3.5,15,,,0,,79,,260,Dry,996,1,40,,,,0.3,
Wick,02/03/2017 21:00,3.5,16,,,0,,81,,250,Dry,996,0,45,,,,0.6,
Wick,02/03/2017 22:00,3.6,18,,,0,,80,,260,Dry,997,0,40,,,,0.6,
Wick,02/03/2017 23:00,3.5,14,,,0,,83,,260,Light shower,997,5,35,,,,0.9,
Wick,03/03/2017 00:00,3.1,13,,,0.4,0.4,93,,270,Light rain,998,6,14,,,,2.1,
Wick,03/03/2017 01:00,3.2,16,,,0,,95,,280,Light shower,998,2,14,,,,2.6,
Wick,03/03/2017 02:00,2.7,14,,,0.2,,95,,250,Rain,997,0,50,,,,2,
Wick,03/03/2017 03:00,2.8,16,,,0,,93,,260,Dry,998,1,50,,,,1.9,
Wick,03/03/2017 04:00,2.9,12,,,0,,94,,260,Dry,998,2,45,,,,2.1,
Wick,03/03/2017 05:00,2,12,,,0,,96,,270,Dry,998,2,45,,,,1.5,
Wick,03/03/2017 06:00,2,12,1.9,,0,0.2,96,,260,Dry,998,0,50,,,,1.5,
Wick,03/03/2017 07:00,2.5,12,,,0,,97,,280,Dry,998,5,50,,,,2.1,
Wick,03/03/2017 08:00,2.7,9,,,0,,97,,260,Dry,999,7,50,,,,2.4,
Wick,03/03/2017 09:00,4.2,7,,,0,,98,,290,Dry,999,7,35,,,,4,
Wick,03/03/2017 10:00,5.1,6,,,0,,95,,290,Dry,999,1,30,,,,4.5,
Wick,03/03/2017 11:00,6.2,3,,,0,,89,,260,Dry,999,7,30,,,,4.6,
Wick,03/03/2017 12:00,6.9,1,,,0,0,77,,30,Dry,999,7,24,,,,3.3,
Wick,03/03/2017 13:00,6.4,8,,,0,,81,,30,Dry,999,4,35,,,,3.4,
Wick,03/03/2017 14:00,7.6,8,,,0,,73,,40,Dry,998,5,30,,,,3.1,
Wick,03/03/2017 15:00,7.1,6,,,0,,74,,60,Dry,998,7,45,,,,2.9,
Wick,03/03/2017 16:00,6.5,6,,,0,,73,,80,Dry,998,7,40,,,,2.2,
Wick,03/03/2017 17:00,6.1,9,,,0,,76,,60,Dry,998,7,30,,,,2.3,
Wick,03/03/2017 18:00,5.3,9,,8,0,0,79,,60,Dry,998,1,40,,,,2.1,
Wick,03/03/2017 19:00,4.2,10,,,0,,81,,50,Dry,998,1,45,,,,1.3,
Wick,03/03/2017 20:00,4.5,12,,,0,,82,,60,Dry,998,3,45,,,,1.8,
Wick,03/03/2017 21:00,4.8,13,,,0,,84,,70,Dry,998,2,45,,,,2.4,
Wick,03/03/2017 22:00,4.7,13,,,0,,72,,80,Dry,998,1,50,,,,0.2,
Wick,03/03/2017 23:00,4.7,13,,,0,,79,,70,Dry,997,2,50,,,,1.5,
Wick,04/03/2017 00:00,5.4,15,,,0,0,74,,80,Dry,997,2,50,,,,1.3,
Wick,04/03/2017 01:00,5.3,15,,,0,,81,,80,Dry,996,7,35,,,,2.4,
Wick,04/03/2017 02:00,4.8,16,,,0.4,,83,,70,Rain,996,1,45,,,,2.2,
Wick,04/03/2017 03:00,4.8,17,,,0.2,,89,,70,Light shower,996,1,40,,,,3.3,
Wick,04/03/2017 04:00,4.7,21,,,0.2,,88,29,80,Light shower,995,3,11,,,,2.9,
Wick,04/03/2017 05:00,5.1,18,,,0.6,,90,29,80,Light shower,995,6,20,,,,3.6,
Wick,04/03/2017 06:00,5.5,22,4,,0,1,84,,70,Rain,995,4,40,,,,3.1,
Wick,04/03/2017 07:00,5.2,20,,,0.2,,83,33,80,Rain,994,1,30,,,,2.7,
Wick,04/03/2017 08:00,5.1,0,,,0,,85,30,0,Rain,994,2,35,,,,2.8,
Wick,04/03/2017 09:00,5.5,0,,,0,,83,,0,Dry,994,1,30,,,,3,
Wick,04/03/2017 10:00,5.8,0,,,0,,83,,0,Dry,994,1,27,,,,3.3,
Wick,04/03/2017 11:00,5.5,0,,,0,,82,,0,Dry,993,2,16,,,,2.8,
Wick,04/03/2017 12:00,5,0,,,0.2,0.4,88,,0,Light shower,993,5,9,,,,3.3,
Wick,04/03/2017 13:00,5.1,0,,,0.6,,89,,0,Light drizzle,992,4,10,,,,3.5,
Wick,04/03/2017 14:00,4.9,0,,,0.8,,91,,0,Light rain,991,5,7,,,,3.7,
Wick,04/03/2017 15:00,5.2,0,,,1,,91,,0,Light rain,990,7,7,,,,4,
Wick,04/03/2017 16:00,5.2,0,,,1.4,,93,,0,Light rain,990,3,6,,,,4.2,
Wick,04/03/2017 17:00,5.6,0,,,1.6,,93,,0,Light rain,989,3,7,,,,4.6,
Wick,04/03/2017 18:00,5.3,0,,6.1,2,7.6,93,,0,Light rain,988,8,6,,,,4.3,
Wick,04/03/2017 19:00,5.7,0,,,2.2,,95,,0,Moderate rain,987,3,5,,,,5,
Wick,04/03/2017 20:00,6.2,0,,,3,,95,,0,Moderate rain,986,3,5,,,,5.6,
Wick,04/03/2017 21:00,6.4,22,,,2.2,,97,,100,Moderate rain,985,3,5,,,,6,
Wick,04/03/2017 22:00,6.2,24,,,1,,95,,100,Light rain,984,1,8,,,,5.5,
Wick,04/03/2017 23:00,6.5,20,,,0.6,,98,,110,Rain,984,7,9,,,,6.3,
Wick,05/03/2017 00:00,6.6,14,,,0.2,9,98,,140,Misty,983,6,11,,,,6.4,
Wick,05/03/2017 01:00,6.6,13,,,0,,95,,140,Dry,984,1,16,,,,6,
Wick,05/03/2017 02:00,6.4,13,,,0,,92,,140,Dry,984,7,23,,,,5.3,
Wick,05/03/2017 03:00,6.5,12,,,0,,94,,150,Dry,984,8,10,,,,5.7,
Wick,05/03/2017 04:00,5.9,14,,,0,,92,,150,Dry,984,8,12,,,,4.8,
Wick,05/03/2017 05:00,5.7,15,,,0,,92,,130,Dry,984,5,25,,,,4.6,
Wick,05/03/2017 06:00,6.4,14,5.2,,0,0,92,,130,Dry,985,7,17,,,,5.3,
Wick,05/03/2017 07:00,6.5,14,,,0,,93,,120,Haze,985,5,9,,,,5.5,
Wick,05/03/2017 08:00,6.7,14,,,0,,95,,120,Misty,985,7,7,,,,6,
Wick,05/03/2017 09:00,7.1,20,,,0,,93,29,110,Dry,985,5,11,,,,6.1,
Wick,05/03/2017 10:00,7.2,20,,,0.6,,93,30,120,Light shower,986,5,10,,,,6.2,
Wick,05/03/2017 11:00,7.3,18,,,0,,90,31,120,Rain,986,2,11,,,,5.9,
Wick,05/03/2017 12:00,7.5,18,,,0,0.6,89,,130,Dry,987,2,18,,,,5.9,
Wick,05/03/2017 13:00,8,17,,,0,,86,29,130,Dry,988,1,16,,,,5.9,
Wick,05/03/2017 14:00,7.5,20,,,0,,85,29,130,Dry,988,1,17,,,,5.3,
Wick,05/03/2017 15:00,7.1,17,,,0,,87,,120,Dry,989,1,19,,,,5.2,
Wick,05/03/2017 16:00,7.1,15,,,0,,83,,130,Dry,990,5,19,,,,4.5,
Wick,05/03/2017 17:00,6.8,15,,,0,,85,,140,Dry,991,2,19,,,,4.6,
Wick,05/03/2017 18:00,6.8,13,,8.9,0,0,85,,140,Dry,992,7,30,,,,4.6,
Wick,05/03/2017 19:00,6.7,13,,,0,,90,,140,Dry,993,5,17,,,,5.2,
Wick,05/03/2017 20:00,6.8,12,,,0,,89,,150,Dry,993,4,14,,,,5.2,
Wick,05/03/2017 21:00,6.8,10,,,0,,89,,150,Dry,994,6,10,,,,5.2,
Wick,05/03/2017 22:00,6.7,10,,,0,,88,,140,Dry,994,1,11,,,,5,
Wick,05/03/2017 23:00,6.6,9,,,0,,90,,150,Haze,995,5,10,,,,5.1,
Wick,06/03/2017 00:00,6.6,9,,,0,0,90,,150,Haze,995,5,9,,,,5.1,
Wick,06/03/2017 01:00,6.2,9,,,0,,90,,150,Dry,996,8,11,,,,4.8,
Wick,06/03/2017 02:00,5.8,10,,,0,,90,,150,Dry,996,1,13,,,,4.4,
Wick,06/03/2017 03:00,5.4,8,,,0,,91,,160,Haze,996,0,9,,,,4.1,
Wick,06/03/2017 04:00,5.1,6,,,0,,93,,140,Haze,996,1,9,,,,4.1,
Wick,06/03/2017 05:00,4.9,6,,,0,,92,,150,Haze,997,1,10,,,,3.8,
Wick,06/03/2017 06:00,5,7,4.6,,0,0,90,,140,Haze,997,1,8,,,,3.5,
Wick,06/03/2017 07:00,5.5,10,,,0,,85,,150,Dry,998,1,16,,,,3.3,
Wick,06/03/2017 08:00,5.8,14,,,0,,87,,150,Dry,999,1,12,,,,3.9,
Wick,06/03/2017 09:00,6.2,17,,,0,,86,29,150,Dry,1000,4,18,,,,4.1,
Wick,06/03/2017 10:00,6.6,17,,,0,,85,,160,Dry,1000,3,17,,,,4.4,
Wick,06/03/2017 11:00,6.6,15,,,0,,87,,150,Dry,1002,4,15,,,,4.6,
Wick,06/03/2017 12:00,7.1,16,,,0,0,84,,150,Dry,1002,4,19,,,,4.7,
Wick,06/03/2017 13:00,7.3,17,,,0,,87,,130,Dry,1003,5,15,,,,5.3,
Wick,06/03/2017 14:00,7.4,17,,,0,,87,,140,Dry,1003,5,12,,,,5.4,
Wick,06/03/2017 15:00,7.2,17,,,0,,85,,140,Dry,1004,2,23,,,,4.9,
Wick,06/03/2017 16:00,7.4,14,,,0,,85,,140,Dry,1005,5,18,,,,5.1,
Wick,06/03/2017 17:00,6.6,17,,,0,,87,,130,Dry,1005,1,25,,,,4.7,
Wick,06/03/2017 18:00,6.4,17,,7.6,0,0,87,,140,Dry,1006,1,17,,,,4.4,
Wick,06/03/2017 19:00,6.5,13,,,0,,91,,150,Haze,1007,2,12,,,,5.2,
Wick,06/03/2017 20:00,6.3,15,,,0,,90,,150,Rain,1008,1,16,,,,4.9,
Wick,06/03/2017 21:00,5.6,13,,,0,,90,,180,Light drizzle,1009,1,14,,,,4.1,
Wick,06/03/2017 22:00,4.7,10,,,3,,93,,120,Light rain,1009,2,9,,,,3.8,
Wick,06/03/2017 23:00,6,9,,,0.8,,94,,140,Rain,1009,1,15,,,,5.2,
Wick,07/03/2017 00:00,6,12,,,0,4,95,,150,Dry,1010,1,14,,,,5.3,
Wick,07/03/2017 01:00,6.1,12,,,0,,93,,160,Dry,1010,4,11,,,,5.2,
Wick,07/03/2017 02:00,5.6,13,,,0,,90,,160,Dry,1010,6,18,,,,4.2,
Wick,07/03/2017 03:00,5.6,12,,,0,,90,,160,Dry,1010,7,15,,,,4.1,
Wick,07/03/2017 04:00,5.5,12,,,0,,91,,160,Dry,1010,7,14,,,,4.2,
Wick,07/03/2017 05:00,5.4,10,,,0,,86,,160,Dry,1010,7,19,,,,3.4,
Wick,07/03/2017 06:00,5.4,10,4.6,,0,0,88,,150,Dry,1010,6,17,,,,3.7,
Wick,07/03/2017 07:00,4.6,8,,,0,,88,,170,Dry,1010,4,27,,,,2.8,
Wick,07/03/2017 08:00,5.2,9,,,0,,86,,170,Dry,1010,3,17,,,,3.1,
Wick,07/03/2017 09:00,5.9,8,,,0,,81,,160,Dry,1010,5,29,,,,2.9,
Wick,07/03/2017 10:00,6.2,13,,,0,,86,,160,Dry,1010,1,21,,,,4.1,
Wick,07/03/2017 11:00,6.8,14,,,0,,86,,170,Dry,1010,1,17,,,,4.7,
Wick,07/03/2017 12:00,6.5,13,,,0,0,87,,160,Dry,1010,1,23,,,,4.5,
Wick,07/03/2017 13:00,6.7,12,,,0,,74,,160,Dry,1010,1,29,,,,2.5,
Wick,07/03/2017 14:00,7,13,,,0,,75,,180,Dry,1009,1,35,,,,3,
Wick,07/03/2017 15:00,6.5,10,,,0,,82,,160,Dry,1009,1,25,,,,3.7,
Wick,07/03/2017 16:00,6.8,10,,,0,,80,,160,Dry,1008,7,23,,,,3.7,
Wick,07/03/2017 17:00,6.8,9,,,0,,82,,150,Dry,1008,1,19,,,,4.1,
Wick,07/03/2017 18:00,6.7,9,,7.4,0,0,81,,150,Dry,1007,1,19,,,,3.8,
Wick,07/03/2017 19:00,6.6,10,,,0,,84,,150,Dry,1007,1,21,,,,4.2,
Wick,07/03/2017 20:00,6.5,15,,,0,,78,,160,Dry,1005,1,26,,,,3.1,
Wick,07/03/2017 21:00,5.8,16,,,0,,77,,160,Dry,1004,1,29,,,,2.2,
Wick,07/03/2017 22:00,5.6,22,,,0,,83,32,150,Dry,1003,1,23,,,,3,
Wick,07/03/2017 23:00,5.4,24,,,0,,85,36,160,Light shower,1002,6,25,,,,3.1,
Wick,08/03/2017 00:00,5.3,24,,,0.6,0.6,88,36,160,Light shower,1000,2,12,,,,3.6,
Wick,08/03/2017 01:00,5.7,21,,,0.2,,88,38,160,Light shower,999,7,8,,,,3.9,
Wick,08/03/2017 02:00,5.3,18,,,2,,90,31,190,Moderate rain,999,2,8,,,,3.9,
Wick,08/03/2017 03:00,5.5,16,,,1,,92,,180,Rain,998,5,50,,,,4.4,
Wick,08/03/2017 04:00,5.4,15,,,0,,90,,190,Dry,997,7,45,,,,4,
Wick,08/03/2017 05:00,5.3,14,,,0,,92,,190,Dry,997,8,50,,,,4.2,
Wick,08/03/2017 06:00,5.1,14,5.1,,0,3.4,81,,210,Rain,997,0,29,,,,2.2,
Wick,08/03/2017 07:00,4.7,15,,,0,,78,,230,Dry,997,0,21,,,,1.3,
Wick,08/03/2017 08:00,5.2,15,,,0,,82,,190,Dry,997,0,15,,,,2.5,
Wick,08/03/2017 09:00,5.4,15,,,0,,78,29,210,Dry,996,1,45,,,,1.9,
Wick,08/03/2017 10:00,6.2,23,,,0,,78,31,210,Dry,996,1,50,,,,2.7,
Wick,08/03/2017 11:00,6.5,23,,,0,,76,31,200,Dry,996,1,40,,,,2.7,
Wick,08/03/2017 12:00,7,25,,,0,0,78,36,200,Dry,996,1,14,,,,3.5,
Wick,08/03/2017 13:00,6.9,24,,,0,,77,37,190,Dry,995,1,27,,,,3.3,
Wick,08/03/2017 14:00,6.6,24,,,0,,81,35,200,Rain,994,1,25,,,,3.7,
Wick,08/03/2017 15:00,6.5,23,,,0,,86,35,220,Dry,994,4,14,,,,4.4,
Wick,08/03/2017 16:00,6.8,22,,,0.2,,87,36,250,Rain,995,2,45,,,,4.8,
Wick,08/03/2017 17:00,6.9,24,,,0,,85,32,250,Rain,996,3,35,,,,4.7,
Wick,08/03/2017 18:00,6.1,25,,7.5,0.2,0.4,87,43,260,Rain,997,1,40,,,,4.2,
Wick,08/03/2017 19:00,5.4,18,,,0,,85,45,250,Dry,998,1,30,,,,3.2,
Wick,08/03/2017 20:00,5,24,,,0,,82,35,260,Dry,999,1,29,,,,2.2,
Wick,08/03/2017 21:00,5.2,25,,,0,,79,33,260,Dry,1000,0,29,,,,2,
Wick,08/03/2017 22:00,4.7,22,,,0,,80,36,250,Dry,1001,0,27,,,,1.6,
Wick,08/03/2017 23:00,4.1,16,,,0,,81,37,250,Dry,1002,0,35,,,,1.2,
Wick,09/03/2017 00:00,4,15,,,0,0,81,,220,Dry,1002,5,35,,,,1.2,
Wick,09/03/2017 01:00,3.4,14,,,0,,84,,230,Dry,1002,1,30,,,,1,
Wick,09/03/2017 02:00,3.4,8,,,0,,83,,230,Dry,1002,0,29,,,,0.8,
Wick,09/03/2017 03:00,4.6,13,,,0,,81,,260,Dry,1002,0,23,,,,1.7,
Wick,09/03/2017 04:00,5,13,,,0,,82,,260,Dry,1003,0,25,,,,2.2,
Wick,09/03/2017 05:00,4.4,13,,,0,,87,,270,Dry,1004,8,28,,,,2.5,
Wick,09/03/2017 06:00,4,13,3.2,,0,0,91,,260,Dry,1005,1,30,,,,2.7,
Wick,09/03/2017 07:00,4.2,14,,,0.4,,92,,280,Light drizzle,1007,3,4,,,,3.1,
Wick,09/03/2017 08:00,4.6,0,,,0.2,,92,,0,Rain,1007,1,22,,,,3.5,
Wick,09/03/2017 09:00,5.4,0,,,0,,84,,0,Light shower,1009,2,12,,,,3,
Wick,09/03/2017 10:00,7.1,0,,,0,,80,,0,Rain,1010,1,17,,,,3.9,
Wick,09/03/2017 11:00,7.6,0,,,0,,76,,0,Dry,1012,1,24,,,,3.7,
Wick,09/03/2017 12:00,8.6,0,,,0,0.6,70,,0,Dry,1013,1,24,,,,3.6,
Wick,09/03/2017 13:00,6.4,0,,,0,,82,,0,Light shower,1014,1,13,,,,3.7,
Wick,09/03/2017 14:00,8.3,0,,,0,,73,,0,Rain,1015,1,12,,,,3.9,
Wick,09/03/2017 15:00,8.5,0,,,0,,72,36,0,Dry,1016,3,22,,,,3.9,
Wick,09/03/2017 16:00,7.9,0,,,0,,72,,0,Dry,1017,2,24,,,,3.2,
Wick,09/03/2017 17:00,7.5,0,,,0,,74,,0,Dry,1018,6,22,,,,3.3,
Wick,09/03/2017 18:00,6.4,0,,8.8,0,0,78,,0,Dry,1019,1,28,,,,2.9,
Wick,09/03/2017 19:00,4.5,0,,,0,,83,,0,Dry,1020,1,23,,,,2,
Wick,09/03/2017 20:00,4.8,0,,,0,,80,,0,Dry,1021,1,29,,,,1.7,
Wick,09/03/2017 21:00,3.8,10,,,0,,86,,260,Dry,1021,0,29,,,,1.7,
Wick,09/03/2017 22:00,4.5,10,,,0,,84,,240,Dry,1022,3,35,,,,2.1,
Wick,09/03/2017 23:00,3.2,12,,,0,,85,,270,Dry,1022,0,45,,,,1,
Wick,10/03/2017 00:00,2.8,7,,,0,0,87,,250,Dry,1022,0,35,,,,0.9,
Wick,10/03/2017 01:00,3.3,7,,,0,,80,,230,Dry,1023,1,35,,,,0.3,
Wick,10/03/2017 02:00,3.5,5,,,0,,82,,210,Dry,1022,0,40,,,,0.8,
Wick,10/03/2017 03:00,4.2,6,,,0,,76,,240,Dry,1022,0,50,,,,0.5,
Wick,10/03/2017 04:00,4.4,3,,,0,,75,,220,Dry,1022,0,50,,,,0.5,
Wick,10/03/2017 05:00,4.6,3,,,0,,75,,200,Dry,1022,0,29,,,,0.7,
Wick,10/03/2017 06:00,4.7,5,1.9,,0,0,77,,170,Dry,1022,0,45,,,,1.1,
Wick,10/03/2017 07:00,5.1,3,,,0,,89,,160,Dry,1021,0,20,,,,3.5,
Wick,10/03/2017 08:00,6.1,9,,,0,,88,,140,Dry,1021,1,30,,,,4.4,
Wick,10/03/2017 09:00,6.8,13,,,0,,76,,130,Dry,1020,0,30,,,,3,
Wick,10/03/2017 10:00,7.2,13,,,0,,72,,130,Dry,1020,8,35,,,,2.6,
Wick,10/03/2017 11:00,7.1,14,,,0,,75,,160,Dry,1019,8,23,,,,3,
Wick,10/03/2017 12:00,6.9,13,,,0,0,81,,150,Dry,1018,8,30,,,,4,
Wick,10/03/2017 13:00,7,15,,,0,,81,,160,Dry,1018,8,15,,,,4.1,
Wick,10/03/2017 14:00,7.1,14,,,0,,84,,160,Rain,1018,8,9,,,,4.6,
Wick,10/03/2017 15:00,7.1,12,,,0.4,,88,,150,Rain,1017,7,12,,,,5.4,
Wick,10/03/2017 16:00,7.3,9,,,0,,90,,140,Dry,1016,5,13,,,,5.8,
Wick,10/03/2017 17:00,7.2,14,,,0.2,,89,,150,Dry,1015,1,21,,,,5.6,
Wick,10/03/2017 18:00,7.2,7,,7.4,0,0.6,90,,150,Dry,1016,4,21,,,,5.7,
Wick,10/03/2017 19:00,7.1,8,,,0,,93,,160,Haze,1016,3,8,,,,6.1,
Wick,10/03/2017 20:00,7.2,7,,,0,,94,,150,Dry,1015,2,14,,,,6.4,
Wick,10/03/2017 21:00,7.5,8,,,0,,92,,150,Dry,1015,7,17,,,,6.4,
Wick,10/03/2017 22:00,7.4,6,,,0,,93,,150,Dry,1014,4,21,,,,6.4,
Wick,10/03/2017 23:00,7.1,7,,,0,,95,,140,Dry,1014,3,45,,,,6.4,
Wick,11/03/2017 00:00,7.3,8,,,0,0,95,,150,Dry,1014,4,30,,,,6.6,
Wick,11/03/2017 01:00,7.5,10,,,0,,90,,160,Dry,1013,1,50,,,,6,
Wick,11/03/2017 02:00,7,8,,,0,,93,,130,Dry,1012,0,35,,,,6.1,
Wick,11/03/2017 03:00,7,8,,,0,,95,,150,Dry,1011,0,30,,,,6.3,
Wick,11/03/2017 04:00,7.2,6,,,0,,93,,160,Dry,1011,0,26,,,,6.2,
Wick,11/03/2017 05:00,7.5,9,,,0.2,,93,,180,Light shower,1010,8,11,,,,6.5,
Wick,11/03/2017 06:00,7.3,8,6.9,,1.6,2,95,,170,Light rain,1011,3,10,,,,6.6,
Wick,11/03/2017 07:00,7.4,10,,,1.6,,96,,160,Light rain,1011,8,12,,,,6.9,
Wick,11/03/2017 08:00,7.7,8,,,0,,94,,170,Rain,1011,1,35,,,,6.9,
Wick,11/03/2017 09:00,8.6,13,,,0,,90,,190,Rain,1011,8,45,,,,7.1,
Wick,11/03/2017 10:00,9.1,10,,,0,,88,,190,Dry,1011,3,45,,,,7.3,
Wick,11/03/2017 11:00,9.9,12,,,0,,87,,200,Dry,1012,8,35,,,,8,
Wick,11/03/2017 12:00,10.7,10,,,0,2,85,,190,Dry,1012,8,35,,,,8.4,
Wick,11/03/2017 13:00,11.2,8,,,0,,83,,190,Dry,1012,2,40,,,,8.5,
Wick,11/03/2017 14:00,12.6,10,,,0,,73,,180,Dry,1012,1,23,,,,7.9,
Wick,11/03/2017 15:00,12.8,8,,,0,,75,,180,Dry,1012,3,35,,,,8.5,
Wick,11/03/2017 16:00,11.2,7,,,0,,75,,200,Dry,1012,1,45,,,,7.1,
Wick,11/03/2017 17:00,11.1,2,,,0,,78,,30,Dry,1012,1,40,,,,7.6,
Wick,11/03/2017 18:00,9.6,1,,13,0,0,82,,60,Dry,1012,0,50,,,,6.8,
Wick,11/03/2017 19:00,7.8,7,,,0,,90,,150,Dry,1013,0,40,,,,6.4,
Wick,11/03/2017 20:00,7.3,6,,,0,,94,,150,Dry,1013,0,35,,,,6.4,
Wick,11/03/2017 21:00,7.1,6,,,0,,95,,140,Dry,1013,0,35,,,,6.5,
Wick,11/03/2017 22:00,7,7,,,0,,97,,150,Dry,1013,0,45,,,,6.6,
Wick,11/03/2017 23:00,7.1,7,,,0,,96,,140,Dry,1012,0,45,,,,6.6,
Wick,12/03/2017 00:00,6.7,3,,,0,0,98,,120,Misty,1012,0,7,,,,6.5,
Wick,12/03/2017 01:00,6.6,6,,,0.2,,100,,110,Fog,1012,2,1,,,,6.6,
Wick,12/03/2017 02:00,6.4,7,,,0,,100,,100,Fog,1011,3,1,,,,6.4,
Wick,12/03/2017 03:00,7.3,8,,,0,,100,,120,Fog,1010,3,6,,,,7.3,
Wick,12/03/2017 04:00,6.9,9,,,0,,100,,130,Thickening fog,1010,7,1,,,,6.9,
Wick,12/03/2017 05:00,7.1,8,,,0,,100,,110,Fog,1009,8,4,,,,7.1,
Wick,12/03/2017 06:00,7.2,12,6,,0,0.2,100,,130,Misty,1009,5,4,,,,7.2,
Wick,12/03/2017 07:00,7.2,8,,,0,,100,,160,Misty,1009,8,3,,,,7.2,
Wick,12/03/2017 08:00,7.2,8,,,0,,100,,150,Misty,1009,8,3,,,,7.2,
Wick,12/03/2017 09:00,7.5,9,,,0,,100,,150,Misty,1009,8,2,,,,7.5,
Wick,12/03/2017 10:00,7.9,7,,,0,,100,,150,Misty,1009,7,4,,,,7.9,
Wick,12/03/2017 11:00,8.3,8,,,0,,100,,150,Misty,1009,3,5,,,,8.3,
Wick,12/03/2017 12:00,8.6,8,,,0,0,97,,150,Misty,1009,6,12,,,,8.2,
Wick,12/03/2017 13:00,9.2,7,,,0,,90,,140,Dry,1009,1,13,,,,7.8,
Wick,12/03/2017 14:00,9.8,7,,,0,,86,,140,Dry,1009,0,11,,,,7.6,
Wick,12/03/2017 15:00,10.9,10,,,0,,76,,210,Dry,1010,7,50,,,,7,
Wick,12/03/2017 16:00,10,13,,,0,,87,,270,Dry,1011,1,40,,,,8,
Wick,12/03/2017 17:00,9.3,14,,,0,,86,,260,Rain,1011,7,35,,,,7.1,
Wick,12/03/2017 18:00,8.7,12,,11.6,0,0,87,,270,Dry,1012,1,45,,,,6.8,
Wick,12/03/2017 19:00,8.4,9,,,0,,83,,230,Dry,1013,0,40,,,,5.8,
Wick,12/03/2017 20:00,7,10,,,0,,83,,220,Dry,1014,0,28,,,,4.4,
Wick,12/03/2017 21:00,6.2,5,,,0,,86,,240,Dry,1015,1,40,,,,4.2,
Wick,12/03/2017 22:00,6.2,7,,,0,,85,,170,Dry,1015,1,35,,,,4,
Wick,12/03/2017 23:00,6.5,12,,,0,,75,,200,Dry,1015,0,30,,,,2.4,
Wick,13/03/2017 00:00,5.7,10,,,0,0,79,,210,Dry,1015,0,30,,,,2.4,
Wick,13/03/2017 01:00,6.2,10,,,0,,85,,200,Dry,1015,0,19,,,,3.9,
Wick,13/03/2017 02:00,6.3,9,,,0,,77,,200,Dry,1015,0,25,,,,2.7,
Wick,13/03/2017 03:00,6,12,,,0,,84,,170,Dry,1014,7,22,,,,3.6,
Wick,13/03/2017 04:00,6.1,14,,,0,,80,,200,Dry,1014,7,19,,,,3,
Wick,13/03/2017 05:00,6.2,21,,,0,,76,,210,Rain,1014,7,30,,,,2.3,
Wick,13/03/2017 06:00,6.5,18,5,,0.2,0.2,85,30,210,Rain,1014,4,35,,,,4.2,
Wick,13/03/2017 07:00,6.6,15,,,0,,81,,260,Dry,1015,3,10,,,,3.7,
Wick,13/03/2017 08:00,7,15,,,0,,78,,260,Dry,1017,1,11,,,,3.6,
Wick,13/03/2017 09:00,7.4,15,,,0,,76,,250,Dry,1018,1,14,,,,3.5,
Wick,13/03/2017 10:00,8.7,21,,,0,,68,,260,Dry,1018,1,13,,,,3.2,
Wick,13/03/2017 11:00,9.2,15,,,0,,63,30,250,Dry,1018,5,17,,,,2.6,
Wick,13/03/2017 12:00,9.7,20,,,0,0,61,29,250,Dry,1019,4,16,,,,2.6,
Wick,13/03/2017 13:00,10.1,21,,,0,,61,,250,Dry,1019,4,19,,,,3,
Wick,13/03/2017 14:00,10,20,,,0,,58,30,240,Dry,1019,1,16,,,,2.3,
Wick,13/03/2017 15:00,10.3,18,,,0,,60,,230,Dry,1019,1,15,,,,3,
Wick,13/03/2017 16:00,9.8,10,,,0,,62,35,170,Dry,1019,7,16,,,,3,
Wick,13/03/2017 17:00,9.2,13,,,0,,73,,180,Rain,1018,8,12,,,,4.7,
Wick,13/03/2017 18:00,9.2,9,,10.9,0,0,72,,170,Rain,1017,3,13,,,,4.6,
Wick,13/03/2017 19:00,8.7,13,,,0,,78,30,170,Haze,1017,7,9,,,,5.1,
Wick,13/03/2017 20:00,8.7,25,,,0,,80,40,200,Haze,1016,5,9,,,,5.5,
Wick,13/03/2017 21:00,8.7,21,,,0,,83,32,190,Dry,1015,7,11,,,,6.1,
Wick,13/03/2017 22:00,9,20,,,0,,86,31,190,Dry,1014,8,17,,,,6.9,
Wick,13/03/2017 23:00,9.6,20,,,0,,86,,200,Dry,1013,8,40,,,,7.5,
Wick,14/03/2017 00:00,10.2,22,,,0,0,85,31,190,Dry,1012,8,35,,,,7.8,
Wick,14/03/2017 01:00,10.3,17,,,0,,85,31,190,Dry,1012,8,35,,,,8,
Wick,14/03/2017 02:00,10.6,16,,,0,,87,,210,Dry,1011,7,29,,,,8.6,
Wick,14/03/2017 03:00,11.4,22,,,0,,82,33,230,Dry,1011,1,50,,,,8.6,
Wick,14/03/2017 04:00,9.4,33,,,0.6,,81,44,260,Rain,1011,2,45,,,,6.4,
Wick,14/03/2017 05:00,9,28,,,0,,73,37,240,Dry,1011,2,16,,,,4.6,
Wick,14/03/2017 06:00,8.2,22,7.9,,0,0.6,70,38,240,Dry,1012,1,18,,,,3.1,
Wick,14/03/2017 07:00,7,15,,,0,,69,36,220,Dry,1012,5,19,,,,1.8,
Wick,14/03/2017 08:00,7,29,,,0,,71,41,240,Dry,1012,1,19,,,,2.2,
Wick,14/03/2017 09:00,7.7,32,,,0,,70,44,240,Dry,1012,2,15,,,,2.7,
Wick,14/03/2017 10:00,9.4,37,,,0,,59,45,240,Dry,1012,2,12,,,,1.9,
Wick,14/03/2017 11:00,9.9,35,,,0,,58,48,250,Dry,1012,5,15,,,,2.2,
Wick,14/03/2017 12:00,6.3,32,,,0.8,0.8,86,58,240,Rain,1013,1,10,,,,4.2,
Wick,14/03/2017 13:00,7.1,29,,,0.6,,84,58,240,Rain,1013,1,20,,,,4.7,
Wick,14/03/2017 14:00,8.2,35,,,0.6,,75,45,250,Rain,1013,1,45,,,,4.2,
Wick,14/03/2017 15:00,6.5,31,,,0.6,,89,56,250,Rain,1014,1,27,,,,4.9,
Wick,14/03/2017 16:00,6.8,28,,,0.2,,80,38,260,Rain,1014,2,21,,,,3.6,
Wick,14/03/2017 17:00,5.2,36,,,0,,86,53,280,Light shower,1016,1,4,,,,3.2,
Wick,14/03/2017 18:00,5.9,24,,10.1,0,2.2,76,49,260,Rain,1017,1,12,,,,2,
Wick,14/03/2017 19:00,5.6,24,,,0,,72,39,260,Rain,1018,7,17,,,,1.1,
Wick,14/03/2017 20:00,5.7,25,,,0,,73,35,260,Dry,1018,1,16,,,,1.4,
Wick,14/03/2017 21:00,5.6,24,,,0,,77,35,250,Dry,1019,0,20,,,,1.9,
Wick,14/03/2017 22:00,5.5,22,,,0,,74,37,250,Dry,1020,0,15,,,,1.4,
Wick,14/03/2017 23:00,5.1,20,,,0,,85,33,260,Light shower,1021,2,6,,,,2.9,
Wick,15/03/2017 00:00,5.2,24,,,0,0,78,32,240,Rain,1021,0,21,,,,1.8,
Wick,15/03/2017 01:00,4.7,16,,,0,,79,29,250,Dry,1021,3,18,,,,1.5,
Wick,15/03/2017 02:00,4.6,16,,,0,,83,,240,Dry,1021,1,20,,,,2,
Wick,15/03/2017 03:00,4.2,20,,,0,,83,,260,Dry,1021,0,30,,,,1.7,
Wick,15/03/2017 04:00,3.8,21,,,0,,86,,270,Dry,1021,0,21,,,,1.7,
Wick,15/03/2017 05:00,4.8,18,,,0,,81,29,250,Dry,1022,0,30,,,,1.9,
Wick,15/03/2017 06:00,4,13,3.7,,0,0,86,,230,Dry,1022,1,21,,,,1.9,
Wick,15/03/2017 07:00,3.9,14,,,0,,82,,240,Dry,1022,1,25,,,,1.2,
Wick,15/03/2017 08:00,5.3,9,,,0,,82,,220,Dry,1023,1,24,,,,2.6,
Wick,15/03/2017 09:00,7.1,13,,,0,,77,,230,Dry,1023,1,30,,,,3.4,
Wick,15/03/2017 10:00,7.7,16,,,0,,68,,240,Dry,1023,1,30,,,,2.3,
Wick,15/03/2017 11:00,8.7,17,,,0,,70,,240,Dry,1023,1,15,,,,3.7,
Wick,15/03/2017 12:00,9.4,20,,,0,0,62,29,230,Dry,1023,1,16,,,,2.7,
Wick,15/03/2017 13:00,9.1,16,,,0,,70,,230,Dry,1022,2,13,,,,4.1,
Wick,15/03/2017 14:00,8,7,,,0.2,,83,,180,Light rain,1022,6,11,,,,5.4,
Wick,15/03/2017 15:00,8,10,,,0.2,,88,,190,Rain,1021,5,11,,,,6.2,
Wick,15/03/2017 16:00,8,10,,,0.2,,89,,180,Light shower,1020,7,12,,,,6.4,
Wick,15/03/2017 17:00,8.6,17,,,0,,91,,200,Rain,1019,7,35,,,,7.3,
Wick,15/03/2017 18:00,8.8,17,,9.5,0,0.6,91,,200,Dry,1018,3,30,,,,7.5,
Wick,15/03/2017 19:00,10.1,16,,,0,,92,,210,Dry,1018,7,45,,,,9,
Wick,15/03/2017 20:00,10.2,23,,,0,,85,30,230,Dry,1018,5,20,,,,7.9,
Wick,15/03/2017 21:00,10.3,21,,,0,,80,31,240,Dry,1017,5,23,,,,7.1,
Wick,15/03/2017 22:00,9.1,13,,,0,,87,31,200,Dry,1017,5,19,,,,7.2,
Wick,15/03/2017 23:00,8.9,6,,,0,,88,,170,Dry,1016,4,19,,,,7.1,
Wick,16/03/2017 00:00,8.2,9,,,0,0,83,,190,Dry,1016,3,29,,,,5.5,
Wick,16/03/2017 01:00,7.7,9,,,0,,80,,160,Dry,1014,0,30,,,,4.5,
Wick,16/03/2017 02:00,8.3,6,,,0,,78,,180,Dry,1013,0,28,,,,4.7,
Wick,16/03/2017 03:00,8.8,20,,,0,,77,31,210,Dry,1012,0,30,,,,5,
Wick,16/03/2017 04:00,8.4,8,,,0,,81,,190,Dry,1011,0,26,,,,5.5,
Wick,16/03/2017 05:00,8.2,10,,,0,,85,,210,Dry,1009,0,30,,,,6,
Wick,16/03/2017 06:00,7.8,14,7.7,,0,0,88,,190,Dry,1008,1,29,,,,6.1,
Wick,16/03/2017 07:00,7.8,16,,,0,,88,,190,Dry,1006,3,26,,,,6.1,
Wick,16/03/2017 08:00,8.3,18,,,0,,86,29,190,Dry,1006,7,30,,,,6.2,
Wick,16/03/2017 09:00,9.4,21,,,0,,83,30,210,Dry,1004,3,30,,,,6.7,
Wick,16/03/2017 10:00,11.3,25,,,0,,65,37,230,Dry,1004,6,45,,,,5,
Wick,16/03/2017 11:00,10.2,36,,,0,,68,48,260,Dry,1004,4,22,,,,4.6,
Wick,16/03/2017 12:00,7.7,28,,,0,0,76,51,270,Dry,1005,3,40,,,,3.8,
Wick,16/03/2017 13:00,8.1,29,,,0,,62,40,250,Dry,1005,1,21,,,,1.3,
Wick,16/03/2017 14:00,6.9,33,,,0,,60,43,250,Dry,1005,3,18,,,,-0.3,
Wick,16/03/2017 15:00,6.8,30,,,0,,61,45,250,Rain,1005,1,24,,,,-0.1,
Wick,16/03/2017 16:00,6.7,31,,,0.2,,58,53,250,Dry,1004,1,26,,,,-0.9,
Wick,16/03/2017 17:00,4.3,29,,,0,,77,46,240,Dry,1004,1,40,,,,0.7,
Wick,16/03/2017 18:00,4.1,29,,11.5,0,0.2,71,46,250,Dry,1004,1,40,,,,-0.6,
Wick,16/03/2017 19:00,2.5,17,,,0,,86,37,260,Rain,1004,1,50,,,,0.4,
Wick,16/03/2017 20:00,2.7,21,,,0,,80,36,240,Dry,1004,1,45,,,,-0.3,
Wick,16/03/2017 21:00,2.9,22,,,0,,77,33,250,Dry,1004,1,45,,,,-0.6,
Wick,16/03/2017 22:00,2,25,,,0,,89,37,240,Rain,1004,2,45,,,,0.4,
Wick,16/03/2017 23:00,1.8,24,,,0,,91,37,240,Dry,1003,0,35,,,,0.5,
Wick,17/03/2017 00:00,1.7,24,,,0,0,87,41,240,Dry,1002,0,50,,,,-0.1,
Wick,17/03/2017 01:00,2.4,25,,,0,,82,35,250,Moderate precip.,1002,1,12,,,,-0.2,
Wick,17/03/2017 02:00,1.9,22,,,0.2,,87,44,250,Moderate precip.,1002,2,35,,,,0,
Wick,17/03/2017 03:00,2.3,24,,,0,,86,35,250,Moderate precip.,1002,1,20,,,,0.3,
Wick,17/03/2017 04:00,1.6,20,,,0,,90,39,260,Rain,1002,1,30,,,,0.2,
Wick,17/03/2017 05:00,1.7,16,,,0,,91,,270,Rain,1001,1,28,,,,0.4,
Wick,17/03/2017 06:00,1.8,21,1,,0.2,0.4,91,29,260,Rain,1001,6,25,,,,0.5,
Wick,17/03/2017 07:00,1.1,9,,,0,,87,,290,Dry,1001,3,25,,,,-0.7,
Wick,17/03/2017 08:00,2.5,17,,,0,,87,,240,Dry,1001,1,45,,,,0.7,
Wick,17/03/2017 09:00,3.8,18,,,0,,86,,240,Dry,1001,1,35,,,,1.7,
Wick,17/03/2017 10:00,5.3,17,,,0,,77,,250,Dry,1001,1,30,,,,1.7,
Wick,17/03/2017 11:00,5.5,18,,,0,,81,29,250,Dry,1001,1,12,,,,2.6,
Wick,17/03/2017 12:00,5.7,14,,,0,0,75,,260,Dry,1001,1,30,,,,1.8,
Wick,17/03/2017 13:00,3.8,12,,,0.2,,90,,300,Light shower,1000,5,5,,,,2.4,
Wick,17/03/2017 14:00,5.2,5,,,0.6,,86,,260,Rain,999,2,29,,,,3.2,
Wick,17/03/2017 15:00,5.5,7,,,0,,82,,220,Dry,998,7,29,,,,2.7,
Wick,17/03/2017 16:00,5.3,2,,,0,,78,,180,Dry,997,3,45,,,,1.8,
Wick,17/03/2017 17:00,4.2,1,,,0.2,,86,,200,Rain,996,1,40,,,,2.2,
Wick,17/03/2017 18:00,4,3,,6.4,0,1,90,,290,Dry,997,2,45,,,,2.6,
Wick,17/03/2017 19:00,3.8,2,,,0,,91,,260,Light shower,996,1,14,,,,2.6,
Wick,17/03/2017 20:00,3.2,9,,,0.2,,94,,320,Rain,996,3,18,,,,2.4,
Wick,17/03/2017 21:00,3.1,8,,,0,,93,,280,Light shower,997,1,16,,,,2.2,
Wick,17/03/2017 22:00,2.5,6,,,0,,95,,280,Rain,996,7,30,,,,1.9,
Wick,17/03/2017 23:00,2.4,9,,,0,,96,,320,Dry,998,6,17,,,,1.9,
Wick,18/03/2017 00:00,1.2,7,,,0.2,0.4,97,,290,Rain,998,3,40,,,,0.8,
Wick,18/03/2017 01:00,1,7,,,0,,97,,280,Dry,998,1,40,,,,0.7,
Wick,18/03/2017 02:00,1.5,7,,,0,,99,,280,Dry,999,2,28,,,,1.4,
Wick,18/03/2017 03:00,1.2,8,,,0,,98,,270,Precipitation,1000,1,25,,,,1,
Wick,18/03/2017 04:00,0.9,7,,,0,,99,,260,Dry,1000,0,30,,,,0.8,
Wick,18/03/2017 05:00,0.8,6,,,0,,99,,250,Dry,1001,0,45,,,,0.7,
Wick,18/03/2017 06:00,0.3,6,0.3,,0,0,98,,240,Dry,1002,0,45,,,,0.1,
Wick,18/03/2017 07:00,0.2,5,,,0,,98,,260,Dry,1002,0,50,,,,0,
Wick,18/03/2017 08:00,1.1,3,,,0,,98,,230,Dry,1002,0,35,,,,0.9,
Wick,18/03/2017 09:00,3.7,2,,,0,,96,,270,Dry,1002,2,25,,,,3.2,
Wick,18/03/2017 10:00,5.8,2,,,0,,67,,160,Dry,1003,4,30,,,,0.2,
Wick,18/03/2017 11:00,6.1,9,,,0,,70,,160,Dry,1003,1,26,,,,1.1,
Wick,18/03/2017 12:00,6.9,10,,,0,0,69,,170,Dry,1002,2,23,,,,1.8,
Wick,18/03/2017 13:00,6.6,12,,,0,,72,,160,Dry,1002,1,27,,,,2.1,
Wick,18/03/2017 14:00,5.9,13,,,0,,76,,170,Dry,1001,4,50,,,,2,
Wick,18/03/2017 15:00,5.9,14,,,0,,76,,160,Light shower,1001,7,28,,,,2.1,
Wick,18/03/2017 16:00,5.8,12,,,0,,85,,170,Light shower,1001,7,15,,,,3.6,
Wick,18/03/2017 17:00,6.3,13,,,0,,83,,160,Rain,1000,1,30,,,,3.7,
Wick,18/03/2017 18:00,5.9,13,,7,0,0,84,,180,Dry,1000,1,45,,,,3.5,
Wick,18/03/2017 19:00,5.9,14,,,0,,91,,190,Dry,999,0,50,,,,4.6,
Wick,18/03/2017 20:00,6.2,12,,,0,,90,,190,Dry,998,0,50,,,,4.8,
Wick,18/03/2017 21:00,6.3,6,,,0,,90,,160,Dry,998,6,45,,,,4.9,
Wick,18/03/2017 22:00,6.9,9,,,0,,89,,180,Dry,997,8,50,,,,5.3,
Wick,18/03/2017 23:00,7,14,,,0,,90,,190,Light shower,996,1,23,,,,5.5,
Wick,19/03/2017 00:00,6.7,15,,,1,1,94,,190,Light rain,995,6,15,,,,5.9,
Wick,19/03/2017 01:00,6.6,14,,,1.2,,96,,200,Light rain,994,7,13,,,,6.1,
Wick,19/03/2017 02:00,6.3,12,,,0.4,,96,,200,Light rain,993,7,25,,,,5.8,
Wick,19/03/2017 03:00,6.5,10,,,0,,95,,180,Rain,992,6,40,,,,5.8,
Wick,19/03/2017 04:00,6.2,7,,,0,,94,,220,Dry,992,1,50,,,,5.4,
Wick,19/03/2017 05:00,5.8,7,,,0,,96,,250,Rain,992,1,18,,,,5.3,
Wick,19/03/2017 06:00,5,5,5,,0,2,97,,250,Dry,991,7,45,,,,4.6,
Wick,19/03/2017 07:00,4.5,9,,,0,,97,,230,Dry,992,2,50,,,,4.2,
Wick,19/03/2017 08:00,5.8,13,,,0,,93,,220,Dry,992,1,50,,,,4.8,
Wick,19/03/2017 09:00,7.2,13,,,0,,83,,230,Dry,991,2,50,,,,4.6,
Wick,19/03/2017 10:00,8.7,17,,,0,,82,,240,Dry,991,1,45,,,,5.9,
Wick,19/03/2017 11:00,9.1,20,,,0,,77,30,260,Dry,991,2,35,,,,5.4,
Wick,19/03/2017 12:00,8.2,17,,,0,0,83,39,260,Rain,991,4,40,,,,5.5,
Wick,19/03/2017 13:00,9.3,21,,,0,,72,31,260,Dry,992,2,21,,,,4.7,
Wick,19/03/2017 14:00,7.4,16,,,0.2,,87,29,260,Rain,992,1,20,,,,5.5,
Wick,19/03/2017 15:00,7.5,22,,,0,,74,32,270,Dry,993,1,19,,,,3.2,
Wick,19/03/2017 16:00,8.1,24,,,0,,65,31,240,Dry,993,5,24,,,,2,
Wick,19/03/2017 17:00,7.3,24,,,0,,73,33,260,Dry,993,1,17,,,,2.8,
Wick,19/03/2017 18:00,6.3,16,,9.7,0,0.2,75,33,250,Dry,993,0,40,,,,2.3,
Wick,19/03/2017 19:00,4.6,17,,,0,,82,35,250,Dry,994,1,45,,,,1.8,
Wick,19/03/2017 20:00,3.6,12,,,0,,83,,220,Dry,994,1,40,,,,1,
Wick,19/03/2017 21:00,3.9,12,,,0,,82,,210,Dry,994,3,35,,,,1.2,
Wick,19/03/2017 22:00,3.6,10,,,0,,84,,220,Dry,994,2,40,,,,1.2,
Wick,19/03/2017 23:00,3.7,13,,,0,,85,,220,Dry,994,0,40,,,,1.5,
Wick,20/03/2017 00:00,3.2,10,,,0,0,84,,220,Dry,994,0,30,,,,0.9,
Wick,20/03/2017 01:00,3.3,10,,,0,,82,,190,Dry,994,0,29,,,,0.6,
Wick,20/03/2017 02:00,4.1,9,,,0,,80,,170,Dry,992,0,28,,,,1,
Wick,20/03/2017 03:00,4.7,10,,,0,,85,,180,Dry,991,0,40,,,,2.4,
Wick,20/03/2017 04:00,5.5,13,,,0,,85,,170,Dry,990,1,30,,,,3.2,
Wick,20/03/2017 05:00,6,17,,,0,,79,,150,Dry,988,6,35,,,,2.7,
Wick,20/03/2017 06:00,5.5,20,2.4,,0.8,0.8,78,31,150,Light shower,986,7,12,,,,2,
Wick,20/03/2017 07:00,5.3,21,,,1.8,,90,31,150,Light rain,984,7,10,,,,3.8,
Wick,20/03/2017 08:00,5.6,0,,,0.2,,88,30,0,Rain,984,7,23,,,,3.8,
Wick,20/03/2017 09:00,6.4,0,,,0,,85,,0,Dry,983,1,30,,,,4.2,
Wick,20/03/2017 10:00,4.5,0,,,0.2,,82,36,0,Moderate shower,983,1,13,,,,1.7,
Wick,20/03/2017 11:00,6.6,0,,,0,,64,35,0,Rain,983,1,18,,,,0.4,
Wick,20/03/2017 12:00,5.3,0,,,0,2,74,55,0,Dry,983,1,8,,,,1.2,
Wick,20/03/2017 13:00,6.9,0,,,0,,68,,0,Dry,982,1,35,,,,1.5,
Wick,20/03/2017 14:00,6.4,0,,,0,,72,49,0,Dry,982,1,50,,,,1.9,
Wick,20/03/2017 15:00,6.2,0,,,0,,70,54,0,Dry,982,5,4,,,,1.2,
Wick,20/03/2017 16:00,6.3,0,,,0,,72,49,0,Dry,983,1,45,,,,1.7,
Wick,20/03/2017 17:00,6.1,0,,,0,,68,46,0,Dry,984,1,40,,,,0.7,
Wick,20/03/2017 18:00,5.1,0,,8.1,0,0,76,,0,Dry,985,7,50,,,,1.4,
Wick,20/03/2017 19:00,4.3,0,,,0,,82,,0,Rain,986,1,19,,,,1.6,
Wick,20/03/2017 20:00,3.9,0,,,0,,79,,0,Dry,986,3,30,,,,0.7,
Wick,20/03/2017 21:00,3.7,13,,,0,,80,,240,Dry,987,0,35,,,,0.7,
Wick,20/03/2017 22:00,3.1,9,,,0,,81,,230,Dry,987,0,45,,,,0.3,
Wick,20/03/2017 23:00,3.3,10,,,0,,82,,250,Dry,987,0,50,,,,0.6,
Wick,21/03/2017 00:00,2.9,12,,,0,0,85,,220,Dry,988,0,50,,,,0.7,
Wick,21/03/2017 01:00,2.8,15,,,0,,87,,230,Dry,988,0,45,,,,0.9,
Wick,21/03/2017 02:00,2.8,13,,,0,,86,,230,Dry,988,2,45,,,,0.7,
Wick,21/03/2017 03:00,2.4,12,,,0,,86,,230,Dry,988,0,50,,,,0.4,
Wick,21/03/2017 04:00,1.6,6,,,0,,87,,220,Dry,988,0,50,,,,-0.3,
Wick,21/03/2017 05:00,1.6,8,,,0,,87,,230,Dry,988,0,50,,,,-0.2,
Wick,21/03/2017 06:00,1.2,8,1,,0,0,89,,220,Dry,988,1,50,,,,-0.3,
Wick,21/03/2017 07:00,1,8,,,0,,88,,220,Dry,988,1,50,,,,-0.7,
Wick,21/03/2017 08:00,1.6,6,,,0,,86,,230,Dry,989,1,40,,,,-0.4,
Wick,21/03/2017 09:00,3.8,8,,,0,,80,,240,Dry,989,2,35,,,,0.8,
Wick,21/03/2017 10:00,6,14,,,0,,68,,240,Dry,990,7,50,,,,0.6,
Wick,21/03/2017 11:00,6.7,10,,,0,,65,,250,Dry,990,5,25,,,,0.7,
Wick,21/03/2017 12:00,6.1,15,,,0,0,66,,280,Dry,991,1,50,,,,0.3,
Wick,21/03/2017 13:00,5.7,12,,,0,,70,,270,Dry,992,7,45,,,,0.7,
Wick,21/03/2017 14:00,3.6,14,,,1.2,,90,,310,Rain,992,1,9,,,,2.2,
Wick,21/03/2017 15:00,4.3,10,,,0,,86,,280,Rain,993,2,35,,,,2.2,
Wick,21/03/2017 16:00,3.1,8,,,0.2,,92,,240,Rain,994,1,45,,,,2,
Wick,21/03/2017 17:00,4.6,12,,,0,,86,,260,Dry,995,2,50,,,,2.6,
Wick,21/03/2017 18:00,2.2,16,,7.6,1,2,95,,260,Moderate precip.,996,2,11,,,,1.6,
Wick,21/03/2017 19:00,2,15,,,0,,97,,260,Rain,997,3,14,,,,1.6,
Wick,21/03/2017 20:00,2.1,12,,,0.2,,97,,280,Rain,998,5,19,,,,1.8,
Wick,21/03/2017 21:00,1.4,12,,,1.6,,98,,260,Moderate shower,999,7,8,,,,1.2,
Wick,21/03/2017 22:00,1.4,8,,,0.6,,98,,270,Light drizzle,1000,3,11,,,,1.2,
Wick,21/03/2017 23:00,1.4,8,,,0,,98,,240,Light shower,1001,1,30,,,,1.2,
Wick,22/03/2017 00:00,1.4,6,,,0.2,3,98,,310,Light shower,1003,1,6,,,,1.2,
Wick,22/03/2017 01:00,1.6,9,,,0.4,,99,,310,Light drizzle,1004,4,5,,,,1.5,
Wick,22/03/2017 02:00,1.5,6,,,1,,99,,270,Light rain,1005,1,40,,,,1.4,
Wick,22/03/2017 03:00,1.5,5,,,0.4,,99,18,250,Rain,1006,1,45,,,,1.4,
Wick,22/03/2017 04:00,2.1,5,,,0.2,,92,,360,Rain,1007,3,30,,,,1,
Wick,22/03/2017 05:00,3.2,12,,,0,,74,,360,Dry,1008,7,50,,,,-0.9,
Wick,22/03/2017 06:00,3.1,12,0.6,,0,2,70,,10,Dry,1009,8,40,,,,-1.7,
Wick,22/03/2017 07:00,2.9,13,,,0,,65,,10,Dry,1010,8,50,,,,-3,
Wick,22/03/2017 08:00,3.4,12,,,0,,79,,350,Dry,1011,4,35,,,,0.2,
Wick,22/03/2017 09:00,3.1,6,,,0.2,,80,,60,Rain,1013,4,45,,,,0,
Wick,22/03/2017 10:00,4.2,12,,,0,,79,,60,Rain,1014,2,30,,,,0.9,
Wick,22/03/2017 11:00,4.6,17,,,0,,80,,10,Dry,1015,5,40,,,,1.6,
Wick,22/03/2017 12:00,5.2,14,,,0,0.2,75,,20,Dry,1016,3,26,,,,1.3,
Wick,22/03/2017 13:00,5.7,16,,,0,,60,,30,Dry,1016,7,13,,,,-1.4,
Wick,22/03/2017 14:00,5.5,14,,,0,,71,,60,Dry,1017,1,18,,,,0.7,
Wick,22/03/2017 15:00,5.8,14,,,0,,62,,40,Dry,1017,4,19,,,,-0.7,
Wick,22/03/2017 16:00,4.8,13,,,0,,62,,30,Dry,1018,5,35,,,,-1.8,
Wick,22/03/2017 17:00,4.3,13,,,0,,65,,20,Dry,1019,3,35,,,,-1.6,
Wick,22/03/2017 18:00,4,12,,6.3,0,0,68,,30,Dry,1020,5,35,,,,-1.2,
Wick,22/03/2017 19:00,3.2,12,,,0,,71,,30,Dry,1021,1,50,,,,-1.5,
Wick,22/03/2017 20:00,3,9,,,0,,71,,40,Dry,1022,1,35,,,,-1.7,
Wick,22/03/2017 21:00,0.4,6,,,0,,76,,350,Dry,1022,2,45,,,,-3.3,
Wick,22/03/2017 22:00,2,9,,,0,,87,,350,Dry,1023,4,35,,,,0.2,
Wick,22/03/2017 23:00,3.5,10,,,0,,72,,10,Dry,1023,7,50,,,,-1,
Wick,23/03/2017 00:00,3.4,10,,,0,0,66,,360,Dry,1024,7,50,,,,-2.2,
Wick,23/03/2017 01:00,2.2,10,,,0,,71,,360,Dry,1025,8,50,,,,-2.5,
Wick,23/03/2017 02:00,-0.2,9,,,0,,78,,330,Dry,1025,5,28,,,,-3.4,
Wick,23/03/2017 03:00,-1.8,7,,,0,,82,,330,Dry,1025,,45,,,,-4.4,
Wick,23/03/2017 04:00,-1.2,3,,,0,,83,,260,Dry,1026,,50,,,,-3.6,
Wick,23/03/2017 05:00,-1.7,5,,,0,,84,,280,Dry,1026,,50,,,,-4,
Wick,23/03/2017 06:00,-2.1,6,-2.1,,0,0,84,,260,Dry,1027,,50,,,,-4.3,
Wick,23/03/2017 07:00,-1.9,5,,,0,,84,,250,Dry,1027,1,50,,,,-4.1,
Wick,23/03/2017 08:00,-0.2,3,,,0,,83,,250,Dry,1028,0,27,,,,-2.6,
Wick,23/03/2017 09:00,2.9,3,,,0,,75,,260,Dry,1028,0,30,,,,-1,
Wick,23/03/2017 10:00,5.3,2,,,0,,51,,240,Dry,1028,0,35,,,,-3.9,
Wick,23/03/2017 11:00,6.1,5,,,0,,50,,120,Dry,1029,0,28,,,,-3.4,
Wick,23/03/2017 12:00,6.2,9,,,0,0,50,,140,Dry,1029,1,25,,,,-3.4,
Wick,23/03/2017 13:00,6.2,9,,,0,,50,,140,Dry,1029,1,45,,,,-3.4,
Wick,23/03/2017 14:00,6.3,9,,,0,,50,,140,Dry,1029,1,30,,,,-3.1,
Wick,23/03/2017 15:00,6.5,10,,,0,,51,,160,Dry,1029,1,29,,,,-2.8,
Wick,23/03/2017 16:00,6.5,9,,,0,,50,,170,Dry,1028,1,35,,,,-3,
Wick,23/03/2017 17:00,5.7,10,,,0,,56,,170,Dry,1028,1,35,,,,-2.3,
Wick,23/03/2017 18:00,5.5,9,,6.8,0,0,58,,170,Dry,1028,0,50,,,,-2,
Wick,23/03/2017 19:00,5.3,9,,,0,,62,,160,Dry,1029,0,45,,,,-1.2,
Wick,23/03/2017 20:00,5.4,9,,,0,,69,,170,Dry,1029,0,45,,,,0.3,
Wick,23/03/2017 21:00,5.2,8,,,0,,74,,180,Dry,1029,0,40,,,,1.1,
Wick,23/03/2017 22:00,4.8,8,,,0,,74,,200,Dry,1029,0,45,,,,0.7,
Wick,23/03/2017 23:00,4.4,7,,,0,,79,,220,Dry,1029,0,40,,,,1.2,
Wick,24/03/2017 00:00,1.7,5,,,0,0,84,,250,Dry,1029,0,35,,,,-0.7,
Wick,24/03/2017 01:00,3.7,8,,,0,,71,,210,Dry,1029,0,50,,,,-1,
Wick,24/03/2017 02:00,3.3,8,,,0,,75,,190,Dry,1029,0,50,,,,-0.7,
Wick,24/03/2017 03:00,4.2,7,,,0,,70,,180,Dry,1029,0,45,,,,-0.6,
Wick,24/03/2017 04:00,4.6,7,,,0,,73,,190,Dry,1029,0,45,,,,0.2,
Wick,24/03/2017 05:00,4.5,9,,,0,,74,,190,Dry,1029,0,40,,,,0.3,
Wick,24/03/2017 06:00,4.4,10,1.6,,0,0,77,,210,Dry,1029,7,50,,,,0.8,
Wick,24/03/2017 07:00,4.6,9,,,0,,81,,190,Dry,1029,8,45,,,,1.7,
Wick,24/03/2017 08:00,5.3,10,,,0,,82,,220,Dry,1029,8,40,,,,2.6,
Wick,24/03/2017 09:00,6.3,13,,,0,,81,,220,Dry,1030,8,40,,,,3.3,
Wick,24/03/2017 10:00,6.8,10,,,0,,81,,220,Dry,1030,8,40,,,,3.8,
Wick,24/03/2017 11:00,6.8,10,,,0,,82,,210,Dry,1030,2,30,,,,4.1,
Wick,24/03/2017 12:00,8.3,13,,,0,0,76,,220,Dry,1030,1,30,,,,4.5,
Wick,24/03/2017 13:00,9.1,13,,,0,,68,,240,Dry,1030,7,45,,,,3.7,
Wick,24/03/2017 14:00,9.8,20,,,0,,63,29,250,Dry,1030,5,30,,,,3.2,
Wick,24/03/2017 15:00,9.9,21,,,0,,66,,260,Dry,1030,1,50,,,,3.9,
Wick,24/03/2017 16:00,9.7,22,,,0,,65,,260,Dry,1030,1,50,,,,3.6,
Wick,24/03/2017 17:00,9.5,13,,,0,,65,,240,Dry,1030,5,40,,,,3.4,
Wick,24/03/2017 18:00,9.2,7,,10.2,0,0,67,,240,Dry,1031,7,45,,,,3.5,
Wick,24/03/2017 19:00,8.8,6,,,0,,69,,230,Dry,1031,7,45,,,,3.6,
Wick,24/03/2017 20:00,8.4,8,,,0,,71,,250,Dry,1032,8,45,,,,3.6,
Wick,24/03/2017 21:00,8.3,8,,,0,,69,,220,Dry,1032,7,45,,,,3.1,
Wick,24/03/2017 22:00,8.2,9,,,0,,65,,250,Dry,1032,8,45,,,,2.1,
Wick,24/03/2017 23:00,8.1,8,,,0,,67,,220,Dry,1031,8,50,,,,2.5,
Wick,25/03/2017 00:00,7.5,13,,,0,0,64,,240,Dry,1031,8,50,,,,1.2,
Wick,25/03/2017 01:00,6.2,9,,,0,,63,,230,Dry,1031,4,45,,,,-0.1,
Wick,25/03/2017 02:00,7,9,,,0,,52,,240,Dry,1031,2,50,,,,-2,
Wick,25/03/2017 03:00,6.2,9,,,0,,56,,240,Dry,1031,2,50,,,,-1.7,
Wick,25/03/2017 04:00,5.9,10,,,0,,56,,240,Dry,1031,0,45,,,,-2.1,
Wick,25/03/2017 05:00,6,13,,,0,,54,,240,Dry,1030,0,50,,,,-2.5,
Wick,25/03/2017 06:00,6.8,10,5.1,,0,0,47,,220,Dry,1030,0,45,,,,-3.5,
Wick,25/03/2017 07:00,6,14,,,0,,52,,230,Dry,1030,0,35,,,,-3,
Wick,25/03/2017 08:00,7.4,7,,,0,,52,,220,Dry,1030,0,50,,,,-1.6,
Wick,25/03/2017 09:00,10.4,13,,,0,,43,,240,Dry,1030,0,50,,,,-1.6,
Wick,25/03/2017 10:00,12.2,14,,,0,,40,,250,Dry,1030,0,30,,,,-0.9,
Wick,25/03/2017 11:00,14,14,,,0,,46,,270,Dry,1030,0,19,,,,2.7,
Wick,25/03/2017 12:00,15,9,,,0,0,48,,270,Dry,1029,0,26,,,,4.3,
Wick,25/03/2017 13:00,14.3,7,,,0,,51,,310,Dry,1029,0,40,,,,4.5,
Wick,25/03/2017 14:00,14.3,6,,,0,,56,,110,Dry,1029,0,30,,,,5.8,
Wick,25/03/2017 15:00,15.9,16,,,0,,43,,280,Dry,1028,1,35,,,,3.6,
Wick,25/03/2017 16:00,15.1,13,,,0,,44,,260,Dry,1028,0,45,,,,3,
Wick,25/03/2017 17:00,13.8,5,,,0,,54,,70,Dry,1028,0,19,,,,4.8,
Wick,25/03/2017 18:00,10.4,7,,17.1,0,0,67,,60,Dry,1029,0,30,,,,4.6,
Wick,25/03/2017 19:00,8.2,7,,,0,,76,,60,Dry,1029,0,30,,,,4.4,
Wick,25/03/2017 20:00,7.3,5,,,0,,78,,70,Dry,1030,0,22,,,,3.9,
Wick,25/03/2017 21:00,6.1,5,,,0,,82,,250,Dry,1030,0,22,,,,3.3,
Wick,25/03/2017 22:00,6.3,3,,,0,,61,,230,Dry,1030,0,45,,,,-0.5,
Wick,25/03/2017 23:00,4,6,,,0,,67,,240,Dry,1029,0,45,,,,-1.4,
Wick,26/03/2017 00:00,4.9,5,,,0,0,62,,230,Dry,1029,0,50,,,,-1.6,
Wick,26/03/2017 01:00,4.6,5,,,0,,63,,210,Dry,1029,0,50,,,,-1.7,
Wick,26/03/2017 02:00,3.4,3,,,0,,66,,260,Dry,1029,0,50,,,,-2.2,
Wick,26/03/2017 03:00,1.9,2,,,0,,75,,240,Dry,1029,0,50,,,,-1.9,
Wick,26/03/2017 04:00,1.6,5,,,0,,79,,350,Dry,1028,0,50,,,,-1.6,
Wick,26/03/2017 05:00,-0.5,5,,,0,,85,,250,Dry,1029,0,50,,,,-2.6,
Wick,26/03/2017 06:00,0.8,5,-0.6,,0,0,86,,270,Dry,1029,0,40,,,,-1.2,
Wick,26/03/2017 07:00,2.5,3,,,0,,82,,250,Dry,1029,0,50,,,,-0.2,
Wick,26/03/2017 08:00,3.2,3,,,0,,84,,260,Dry,1029,0,35,,,,0.8,
Wick,26/03/2017 09:00,4.8,2,,,0,,81,,230,Dry,1029,0,25,,,,1.9,
Wick,26/03/2017 10:00,9,5,,,0,,78,,130,Dry,1029,0,17,,,,5.4,
Wick,26/03/2017 11:00,9.1,6,,,0,,79,,100,Dry,1029,0,14,,,,5.7,
Wick,26/03/2017 12:00,9.6,10,,,0,0,77,,140,Dry,1029,0,35,,,,5.8,
Wick,26/03/2017 13:00,9.8,9,,,0,,77,,130,Dry,1029,0,27,,,,6.1,
Wick,26/03/2017 14:00,9.3,9,,,0,,74,,120,Dry,1028,0,30,,,,5.1,
Wick,26/03/2017 15:00,9.2,8,,,0,,75,,130,Dry,1028,0,30,,,,5.1,
Wick,26/03/2017 16:00,8.9,7,,,0,,77,,130,Dry,1028,,29,,,,5.1,
Wick,26/03/2017 17:00,8.3,8,,,0,,82,,130,Dry,1027,0,35,,,,5.5,
Wick,26/03/2017 18:00,8,7,,10,0,0,81,,140,Dry,1027,0,35,,,,5,
Wick,26/03/2017 19:00,7.4,2,,,0,,75,,140,Dry,1027,0,50,,,,3.3,
Wick,26/03/2017 20:00,6.4,2,,,0,,85,,140,Dry,1027,0,45,,,,4.2,
Wick,26/03/2017 21:00,6.5,5,,,0,,80,,130,Dry,1027,0,50,,,,3.4,
Wick,26/03/2017 22:00,3.8,1,,,0,,88,,140,Dry,1027,0,25,,,,2,
Wick,26/03/2017 23:00,2.9,0,,,0,,90,,0,Dry,1027,0,30,,,,1.5,
Wick,27/03/2017 00:00,1.4,3,,,0,0,92,,270,Fog,1026,5,40,,,,0.3,
Wick,27/03/2017 01:00,1.4,2,,,0,,94,,230,Fog,1026,6,22,,,,0.6,
Wick,27/03/2017 02:00,1.8,3,,,0,,96,,260,Thickening fog,1026,7,0,,,,1.3,
Wick,27/03/2017 03:00,1.5,3,,,0,,96,,250,Fog thinning,1026,6,0,,,,1,
Wick,27/03/2017 04:00,1,0,,,0,,97,,0,Thickening fog,1025,0,0,,,,0.7,
Wick,27/03/2017 05:00,1.9,0,,,0,,100,,0,Fog,1025,3,8,,,,1.9,
Wick,27/03/2017 06:00,3.2,0,0.6,,0,0,100,,0,Thickening fog,1025,2,1,,,,3.2,
Wick,27/03/2017 07:00,1.6,0,,,0,,99,,0,Fog,1025,3,4,,,,1.5,
Wick,27/03/2017 08:00,4.7,0,,,0,,100,,0,Misty,1025,0,10,,,,4.7,
Wick,27/03/2017 09:00,8.2,0,,,0,,100,,0,Misty,1025,2,11,,,,8.2,
Wick,27/03/2017 10:00,8.4,0,,,0,,96,,0,Dry,1025,6,16,,,,7.8,
Wick,27/03/2017 11:00,9.2,0,,,0,,90,,0,Dry,1025,4,30,,,,7.8,
Wick,27/03/2017 12:00,9.4,0,,,0,0,85,,0,Dry,1025,1,40,,,,7.1,
Wick,27/03/2017 13:00,9.6,0,,,0,,85,,0,-,1024,1,23,,,,7.3,
Wick,27/03/2017 14:00,9.6,0,,,0,,86,,0,Dry,1024,1,22,,,,7.5,
Wick,27/03/2017 15:00,9.2,0,,,0,,86,,0,Dry,1023,1,30,,,,7.1,
Wick,27/03/2017 16:00,9.1,0,,,0,,89,,0,Dry,1023,2,35,,,,7.5,
Wick,27/03/2017 17:00,8.4,0,,,0,,94,,0,Dry,1023,7,26,,,,7.6,
Wick,27/03/2017 18:00,6.7,0,,9.9,0,0,99,,0,Thickening fog,1023,9,0,,,,6.6,
Wick,27/03/2017 19:00,6.6,12,,,0,,100,,50,Fog thinning,1023,9,1,,,,6.6,
Wick,27/03/2017 20:00,6.4,13,,,0,,100,,70,Fog,1023,7,2,,,,6.4,
Wick,27/03/2017 21:00,6.8,14,,,0,,100,,60,Fog,1023,7,1,,,,6.8,
Wick,27/03/2017 22:00,7.1,13,,,0,,100,,70,Misty,1022,8,11,,,,7.1,
Wick,27/03/2017 23:00,6.9,14,,,0,,100,,90,Dry,1022,1,18,,,,6.9,
Wick,28/03/2017 00:00,6.8,14,,,0,0,96,,100,Dry,1022,0,26,,,,6.3,
Wick,28/03/2017 01:00,6.8,12,,,0,,97,,100,Dry,1021,4,13,,,,6.4,
Wick,28/03/2017 02:00,5.9,12,,,0,,96,,130,Dry,1021,7,11,,,,5.4,
Wick,28/03/2017 03:00,5.9,12,,,0,,91,,120,Dry,1020,8,25,,,,4.7,
Wick,28/03/2017 04:00,6,10,,,0,,90,,130,Dry,1020,8,30,,,,4.5,
Wick,28/03/2017 05:00,5.9,12,,,0,,92,,110,Dry,1020,8,45,,,,4.8,
Wick,28/03/2017 06:00,6.1,13,5.5,,0,0,92,,110,Dry,1019,8,28,,,,5,
Wick,28/03/2017 07:00,6.1,13,,,0,,94,,100,Dry,1019,8,19,,,,5.3,
Wick,28/03/2017 08:00,5.9,14,,,0,,93,,110,Dry,1019,8,24,,,,5,
Wick,28/03/2017 09:00,5.9,14,,,0,,95,,120,Dry,1019,8,10,,,,5.3,
Wick,28/03/2017 10:00,5.8,14,,,0,,94,,120,Dry,1019,8,21,,,,5,
Wick,28/03/2017 11:00,6,16,,,0,,94,,100,Misty,1018,8,11,,,,5.2,
Wick,28/03/2017 12:00,5.8,16,,,0,0,95,,110,Rain,1018,6,12,,,,5.2,
Wick,28/03/2017 13:00,6.1,17,,,0,,92,,100,Haze,1018,5,9,,,,5,
Wick,28/03/2017 14:00,6,17,,,0,,94,,100,Haze,1017,2,4,,,,5.2,
Wick,28/03/2017 15:00,5.9,13,,,0,,96,,120,Misty,1016,5,3,,,,5.4,
Wick,28/03/2017 16:00,5.9,12,,,0.2,,97,,120,Misty,1016,3,7,,,,5.6,
Wick,28/03/2017 17:00,5.8,10,,,0,,96,,120,Dry,1016,1,25,,,,5.3,
Wick,28/03/2017 18:00,5.3,9,,6.7,0,0.2,95,,110,Dry,1016,1,35,,,,4.7,
Wick,28/03/2017 19:00,5.5,8,,,0,,93,,90,Dry,1016,1,50,,,,4.5,
Wick,28/03/2017 20:00,5.6,7,,,0,,91,,100,Dry,1016,1,50,,,,4.3,
Wick,28/03/2017 21:00,5.4,6,,,0,,91,,80,Dry,1016,7,45,,,,4.2,
Wick,28/03/2017 22:00,5.4,8,,,0,,95,,50,Dry,1016,3,50,,,,4.8,
Wick,28/03/2017 23:00,5.1,13,,,0,,97,,70,Dry,1016,2,35,,,,4.8,
Wick,29/03/2017 00:00,5.2,13,,,0.4,0.4,98,,90,Drizzle,1015,3,17,,,,5,
Wick,29/03/2017 01:00,5.1,15,,,0,,94,,80,Drizzle,1015,1,4,,,,4.3,
Wick,29/03/2017 02:00,5.2,12,,,0.2,,88,,90,Dry,1015,7,23,,,,3.4,
Wick,29/03/2017 03:00,5.3,10,,,0,,84,,80,Dry,1015,7,30,,,,2.9,
Wick,29/03/2017 04:00,5.4,12,,,0,,83,,70,Dry,1015,8,25,,,,2.8,
Wick,29/03/2017 05:00,5.4,0,,,0,,80,,0,Dry,1016,7,23,,,,2.3,
Wick,29/03/2017 06:00,5.4,0,4.9,,0,0.2,82,,0,Dry,1016,1,29,,,,2.7,
Wick,29/03/2017 07:00,5.6,0,,,0,,82,,0,Dry,1016,4,25,,,,2.8,
Wick,29/03/2017 08:00,5.7,13,,,0,,84,,80,Dry,1016,1,28,,,,3.3,
Wick,29/03/2017 09:00,6.2,13,,,0,,77,,90,Dry,1016,3,21,,,,2.5,
Wick,29/03/2017 10:00,6.8,14,,,0,,73,,100,Dry,1016,3,30,,,,2.4,
Wick,29/03/2017 11:00,7.4,14,,,0,,71,,110,Dry,1017,1,30,,,,2.5,
Wick,29/03/2017 12:00,7.5,17,,,0,0,70,,110,Dry,1016,2,27,,,,2.4,
Wick,29/03/2017 13:00,7.2,17,,,0,,72,,110,Dry,1016,1,30,,,,2.5,
Wick,29/03/2017 14:00,7,17,,,0,,73,,110,Dry,1015,1,15,,,,2.6,
Wick,29/03/2017 15:00,6.9,15,,,0,,75,,120,Dry,1015,7,21,,,,2.8,
Wick,29/03/2017 16:00,6.8,17,,,0,,78,,110,Dry,1013,8,17,,,,3.3,
Wick,29/03/2017 17:00,6.6,20,,,0,,81,,120,Dry,1013,8,30,,,,3.6,
Wick,29/03/2017 18:00,6.4,18,,7.8,0.4,0.4,92,,120,Light shower,1012,8,9,,,,5.2,
Wick,29/03/2017 19:00,6.5,20,,,0,,94,30,120,Rain,1012,8,15,,,,5.7,
Wick,29/03/2017 20:00,6.8,17,,,0.2,,97,29,130,Light shower,1011,8,5,,,,6.4,
Wick,29/03/2017 21:00,7.1,16,,,0.2,,97,,130,Rain,1010,7,4,,,,6.8,
Wick,29/03/2017 22:00,7.2,8,,,0,,99,,160,Drizzle,1010,8,3,,,,7.1,
Wick,29/03/2017 23:00,7.3,7,,,0.4,,100,,160,Light shower,1010,8,2,,,,7.3,
Wick,30/03/2017 00:00,7.4,9,,,0.8,2,100,,160,Light rain,1009,3,4,,,,7.4,
Wick,30/03/2017 01:00,7.5,6,,,0.2,,100,,180,Rain,1008,7,6,,,,7.5,
Wick,30/03/2017 02:00,7.8,6,,,0,,99,,180,Dry,1008,8,11,,,,7.7,
Wick,30/03/2017 03:00,7.9,6,,,0,,98,,180,Dry,1008,7,11,,,,7.7,
Wick,30/03/2017 04:00,7.3,1,,,0,,97,,220,Dry,1007,3,15,,,,7,
Wick,30/03/2017 05:00,6.4,2,,,0,,98,,340,Fog,1007,3,4,,,,6.2,
Wick,30/03/2017 06:00,6,1,5.6,,0,0,99,,260,Misty,1007,7,1,,,,5.9,
Wick,30/03/2017 07:00,6.2,1,,,0.2,,100,,260,Rain,1008,8,5,,,,6.2,
Wick,30/03/2017 08:00,8,2,,,0,,,,10,Light shower,,8,10,,,,8,
Wick,30/03/2017 09:00,8.9,1,,,0,,,,180,Rain,1008,5,9,,,,9,
Wick,30/03/2017 10:00,9.3,5,,,0,,,,50,Dry,1008,1,11,,,,9,
Wick,30/03/2017 11:00,9.6,6,,,0,,,,110,Dry,1008,1,15,,,,9,
Wick,30/03/2017 12:00,10,9,,,0,0.2,,,130,Dry,1008,4,9,,,,9,
Wick,30/03/2017 13:00,10,10,,,0,,,,120,Dry,1007,1,35,,,,9,
Wick,30/03/2017 14:00,10.3,6,,,0,,,,140,Dry,1007,5,18,,,,8,
Wick,30/03/2017 15:00,13.6,8,,,0,,,,210,Dry,1007,3,45,,,,10,
Wick,30/03/2017 16:00,12,7,,,0,,,,150,Dry,1007,1,21,,,,9,
Wick,30/03/2017 17:00,12.5,2,,,0,,,,80,Dry,1007,2,30,,,,9,
Wick,30/03/2017 18:00,10.4,6,,,0,0,,,80,Dry,1007,3,45,,,,8,
Wick,30/03/2017 19:00,8.6,7,,,0,,,,100,Dry,1007,2,30,,,,7,
Wick,30/03/2017 20:00,8.5,6,,,0,,,,90,Dry,1007,4,29,,,,7,
Wick,30/03/2017 21:00,8.9,6,,,0,,94,,130,Dry,1007,8,29,,,,8.1,
Wick,30/03/2017 22:00,9,5,,,0,,90,,120,Dry,1007,8,40,,,,7.6,
Wick,30/03/2017 23:00,8.1,5,,,0,,91,,80,Dry,1006,5,40,,,,6.8,
Wick,31/03/2017 00:00,9.2,6,,,0,0,91,,130,Dry,1005,7,27,,,,7.9,
Wick,31/03/2017 01:00,8.8,6,,,0,,94,,130,Dry,1004,0,18,,,,8,
Wick,31/03/2017 02:00,8.5,7,,,0,,96,,140,Dry,1003,0,14,,,,8,
Wick,31/03/2017 03:00,8.2,7,,,0,,97,,140,Misty,1002,0,6,,,,7.9,
Wick,31/03/2017 04:00,8.2,7,,,0,,99,,140,Misty,1002,0,7,,,,8.1,
Wick,31/03/2017 05:00,9,7,,,0,,97,,160,Dry,1001,0,13,,,,8.7,
Wick,31/03/2017 06:00,9,9,8,,0,0,98,,160,Dry,1000,3,17,,,,8.8,
Wick,31/03/2017 07:00,8.6,7,,,0,,98,,140,Dry,999,1,9,,,,8.4,
Wick,31/03/2017 08:00,9.1,9,,,0,,99,,140,Dry,999,1,13,,,,9,
Wick,31/03/2017 09:00,9.7,6,,,0,,97,,140,Dry,998,1,22,,,,9.3,
Wick,31/03/2017 10:00,9.8,8,,,0,,96,,140,Dry,998,1,20,,,,9.2,
Wick,31/03/2017 11:00,10.5,13,,,0,,90,,160,Dry,997,1,12,,,,9,
Wick,31/03/2017 12:00,10.2,14,,,0,0,92,,150,Haze,996,1,9,,,,9.1,
Wick,31/03/2017 13:00,9.6,14,,,0.2,,98,,140,Light shower,995,7,4,,,,9.4,
Wick,31/03/2017 14:00,9.4,10,,,0.6,,99,,140,Light rain,994,2,3,,,,9.3,
Wick,31/03/2017 15:00,9.6,13,,,0.4,,99,,140,Rain,993,4,4,,,,9.5,
Wick,31/03/2017 16:00,9.8,10,,,0.2,,96,,150,Rain,992,3,8,,,,9.3,
Wick,31/03/2017 17:00,10.4,16,,,0.2,,95,,210,Drizzly rain,993,7,7,,,,9.7,
Wick,31/03/2017 18:00,10.5,20,,11.2,0.4,2,89,31,230,Rain,994,8,45,,,,8.8,
Wick,31/03/2017 19:00,10.1,18,,,0,,87,,220,Dry,995,2,50,,,,8.2,
Wick,31/03/2017 20:00,9.8,23,,,0,,87,35,230,Rain,996,6,50,,,,7.9,
Wick,31/03/2017 21:00,9.4,20,,,0,,89,30,230,Dry,997,1,50,,,,7.7,
Wick,31/03/2017 22:00,8.8,13,,,0,,89,,240,Dry,998,4,50,,,,7.1,
Wick,31/03/2017 23:00,9,12,,,0,,91,,220,Dry,999,5,45,,,,7.7,
Wick,01/04/2017 00:00,8.8,10,,,0,0,90,,230,Dry,999,2,50,,,,7.3,
Wick,01/04/2017 01:00,8.6,13,,,0,,89,,250,Dry,1000,2,50,,,,6.9,
Wick,01/04/2017 02:00,7.5,10,,,0,,94,,260,Dry,1000,4,50,,,,6.6,
Wick,01/04/2017 03:00,7.7,9,,,0,,92,,260,Dry,1000,5,50,,,,6.6,
Wick,01/04/2017 04:00,7.2,5,,,0,,95,,190,Dry,1001,5,45,,,,6.5,
Wick,01/04/2017 05:00,6.9,2,,,0,,95,,230,Dry,1001,1,50,,,,6.2,
Wick,01/04/2017 06:00,7.1,8,6.4,,0,0,93,,230,Dry,1002,2,50,,,,6.2,
Wick,01/04/2017 07:00,7.8,6,,,0,,93,,270,Dry,1002,7,50,,,,6.8,
Wick,01/04/2017 08:00,9.1,5,,,0,,86,,200,Dry,1003,7,35,,,,7,
Wick,01/04/2017 09:00,10,6,,,0,,82,,190,Dry,1004,7,40,,,,7.1,
Wick,01/04/2017 10:00,11.5,6,,,0,,68,,260,Dry,1004,6,45,,,,6,
Wick,01/04/2017 11:00,11.5,5,,,0,,71,,250,Dry,1004,7,35,,,,6.5,
Wick,01/04/2017 12:00,11.5,10,,,0,0,71,,180,Dry,1004,1,29,,,,6.6,
Wick,01/04/2017 13:00,12.3,12,,,0,,70,,190,Dry,1004,7,24,,,,7.1,
Wick,01/04/2017 14:00,11.7,16,,,0,,71,,190,Dry,1005,6,27,,,,6.7,
Wick,01/04/2017 15:00,10.1,13,,,0.6,,94,,310,Rain,1005,1,45,,,,9.2,
Wick,01/04/2017 16:00,9.5,20,,,0.2,,91,,290,Rain,1006,1,30,,,,8.2,
Wick,01/04/2017 17:00,8.9,16,,,0,,94,,300,Dry,1007,7,27,,,,8,
Wick,01/04/2017 18:00,8,15,,13.3,0,0.8,90,,290,Dry,1008,1,45,,,,6.5,
Wick,01/04/2017 19:00,7.3,13,,,0,,95,,280,Dry,1009,2,27,,,,6.7,
Wick,01/04/2017 20:00,7,10,,,0,,95,,290,Dry,1010,6,22,,,,6.4,
Wick,01/04/2017 21:00,6.4,8,,,0,,93,,270,Dry,1010,7,25,,,,5.5,
Wick,01/04/2017 22:00,5.9,10,,,0,,94,,250,Dry,1011,1,24,,,,5.1,
Wick,01/04/2017 23:00,5,10,,,0,,92,,260,Dry,1012,1,30,,,,3.9,
Wick,02/04/2017 00:00,5.2,13,,,0,0,96,,270,Dry,1012,4,26,,,,4.7,
Wick,02/04/2017 01:00,4.3,14,,,0,,96,,270,Dry,1013,0,35,,,,3.8,
Wick,02/04/2017 02:00,4,10,,,0,,97,,270,Dry,1013,2,45,,,,3.6,
Wick,02/04/2017 03:00,4.8,10,,,0,,97,,250,Dry,1014,2,50,,,,4.5,
Wick,02/04/2017 04:00,4,8,,,0,,97,,260,Drizzle,1014,1,50,,,,3.7,
Wick,02/04/2017 05:00,5,9,,,0.2,,97,,250,Rain,1015,1,5,,,,4.7,
Wick,02/04/2017 06:00,4.3,6,3.7,,0.2,0.4,95,,250,Dry,1016,2,45,,,,3.6,
Wick,02/04/2017 07:00,5.2,6,,,0,,94,,220,Rain,1017,1,35,,,,4.4,
Wick,02/04/2017 08:00,6.1,7,,,0.2,,92,,240,Rain,1018,1,30,,,,4.9,
Wick,02/04/2017 09:00,7.7,10,,,0,,81,,250,Dry,1018,5,28,,,,4.7,
Wick,02/04/2017 10:00,8.1,12,,,0,,80,,270,Dry,1018,5,27,,,,4.9,
Wick,02/04/2017 11:00,9,10,,,0,,67,,280,Dry,1019,3,29,,,,3.3,
Wick,02/04/2017 12:00,8.9,10,,,0,0.2,70,,260,Dry,1019,1,40,,,,3.9,
Wick,02/04/2017 13:00,9,9,,,0,,71,,170,Dry,1019,7,35,,,,4.1,
Wick,02/04/2017 14:00,10.5,15,,,0,,58,,190,Dry,1019,1,45,,,,2.7,
Wick,02/04/2017 15:00,10.6,15,,,0,,58,,180,Dry,1019,3,40,,,,2.9,
Wick,02/04/2017 16:00,10.8,15,,,0,,57,,190,Dry,1019,1,35,,,,2.8,
Wick,02/04/2017 17:00,8.9,10,,,0,,73,,160,Dry,1019,0,23,,,,4.4,
Wick,02/04/2017 18:00,8,14,,10.9,0,0,80,,150,Dry,1019,0,30,,,,4.9,
Wick,02/04/2017 19:00,7.8,12,,,0,,80,,150,Dry,1019,0,30,,,,4.7,
Wick,02/04/2017 20:00,7.5,10,,,0,,90,,140,Dry,1019,0,23,,,,6.1,
Wick,02/04/2017 21:00,7.9,9,,,0,,86,,150,Dry,1018,0,25,,,,5.8,
Wick,02/04/2017 22:00,8.2,13,,,0,,77,,180,Dry,1018,,35,,,,4.5,
Wick,02/04/2017 23:00,8.3,12,,,0,,76,,180,Dry,1018,0,40,,,,4.4,
Wick,03/04/2017 00:00,8.3,13,,,0,0,76,,160,Dry,1017,0,30,,,,4.4,
Wick,03/04/2017 01:00,8.3,14,,,0,,74,,170,Dry,1017,0,35,,,,4,
Wick,03/04/2017 02:00,7.9,12,,,0,,76,,180,Dry,1016,0,45,,,,4,
Wick,03/04/2017 03:00,8.1,0,,,0,,76,,0,Dry,1015,0,45,,,,4.3,
Wick,03/04/2017 04:00,8.1,0,,,0,,76,,0,Dry,1015,0,40,,,,4.3,
Wick,03/04/2017 05:00,7.8,0,,,0,,81,,0,Dry,1014,0,40,,,,4.9,
Wick,03/04/2017 06:00,7.8,0,7.4,,0,0,79,,0,Dry,1014,1,35,,,,4.5,
Wick,03/04/2017 07:00,8.5,0,,,0,,73,,0,Dry,1013,1,28,,,,4.1,
Wick,03/04/2017 08:00,9,21,,,0,,74,,170,Dry,1013,0,26,,,,4.7,
Wick,03/04/2017 09:00,10,21,,,0,,63,33,170,Dry,1013,0,30,,,,3.5,
Wick,03/04/2017 10:00,9.5,15,,,0,,65,,180,Dry,1012,0,30,,,,3.4,
Wick,03/04/2017 11:00,9.4,14,,,0,,72,,180,Dry,1012,0,30,,,,4.7,
Wick,03/04/2017 12:00,8.7,18,,,0,0,80,,150,Dry,1012,0,19,,,,5.6,
Wick,03/04/2017 13:00,8.9,15,,,0,,81,,150,Dry,1012,0,14,,,,5.9,
Wick,03/04/2017 14:00,9.4,12,,,0,,78,,160,Dry,1011,1,26,,,,5.9,
Wick,03/04/2017 15:00,11.2,16,,,0,,67,,180,Dry,1011,1,17,,,,5.5,
Wick,03/04/2017 16:00,11.2,17,,,0,,66,,180,Dry,1010,1,27,,,,5.2,
Wick,03/04/2017 17:00,11.1,18,,,0,,71,,180,Dry,1010,1,24,,,,6.1,
Wick,03/04/2017 18:00,10.8,21,,11.6,0,0,75,,180,Dry,1009,1,18,,,,6.6,
Wick,03/04/2017 19:00,10.5,20,,,0,,75,,190,Dry,1010,1,24,,,,6.3,
Wick,03/04/2017 20:00,10.4,14,,,0,,75,,180,Dry,1010,0,30,,,,6.3,
Wick,03/04/2017 21:00,9.8,16,,,0,,80,,180,Dry,1010,0,29,,,,6.6,
Wick,03/04/2017 22:00,10,18,,,0,,79,,180,Dry,1010,0,35,,,,6.7,
Wick,03/04/2017 23:00,10.3,20,,,0,,79,,210,Dry,1010,0,50,,,,6.9,
Wick,04/04/2017 00:00,7.8,23,,,0.2,0.2,94,31,280,Light shower,1012,1,5,,,,7,
Wick,04/04/2017 01:00,6.9,24,,,0,,93,36,280,Rain,1013,3,11,,,,6,
Wick,04/04/2017 02:00,6.1,17,,,0,,88,36,270,Dry,1014,1,17,,,,4.4,
Wick,04/04/2017 03:00,5.9,18,,,0,,79,,250,Dry,1015,2,18,,,,2.6,
Wick,04/04/2017 04:00,5.3,14,,,0,,80,,250,Dry,1017,5,21,,,,2.2,
Wick,04/04/2017 05:00,6.1,12,,,0,,68,,180,Dry,1018,5,18,,,,0.7,
Wick,04/04/2017 06:00,5.3,14,5,,0,0,72,,210,Dry,1018,4,27,,,,0.7,
Wick,04/04/2017 07:00,5.9,14,,,0,,71,,220,Dry,1018,5,22,,,,1.2,
Wick,04/04/2017 08:00,6.6,16,,,0,,77,,220,Dry,1019,1,30,,,,2.9,
Wick,04/04/2017 09:00,8.6,20,,,0,,64,,240,Dry,1019,1,35,,,,2.3,
Wick,04/04/2017 10:00,8.4,29,,,0,,64,39,260,Dry,1019,4,28,,,,2.1,
Wick,04/04/2017 11:00,10.1,28,,,0,,57,37,250,Dry,1019,1,12,,,,2.1,
Wick,04/04/2017 12:00,10.7,30,,,0,0,47,44,250,Dry,1020,6,19,,,,0,
Wick,04/04/2017 13:00,10.1,29,,,0,,53,37,240,Dry,1020,7,25,,,,1.1,
Wick,04/04/2017 14:00,9.3,28,,,0,,59,45,250,Haze,1020,7,8,,,,1.8,
Wick,04/04/2017 15:00,10.5,29,,,0,,53,46,250,Dry,1020,5,24,,,,1.5,
Wick,04/04/2017 16:00,9,23,,,0,,64,52,260,Dry,1020,2,19,,,,2.6,
Wick,04/04/2017 17:00,9,24,,,0,,61,38,250,Dry,1020,7,26,,,,2,
Wick,04/04/2017 18:00,8.1,25,,11.1,0,0,69,40,250,Rain,1020,3,21,,,,2.9,
Wick,04/04/2017 19:00,7.4,23,,,0,,72,53,250,Rain,1020,6,13,,,,2.8,
Wick,04/04/2017 20:00,7.1,21,,,0,,74,33,250,Rain,1020,2,20,,,,2.8,
Wick,04/04/2017 21:00,6.2,36,,,0,,77,52,260,Light shower,1020,6,30,,,,2.6,
Wick,04/04/2017 22:00,6.3,31,,,0,,77,47,270,Rain,1020,1,15,,,,2.6,
Wick,04/04/2017 23:00,5.7,26,,,0.2,,84,45,270,Light shower,1020,5,5,,,,3.3,
Wick,05/04/2017 00:00,5.4,31,,,0,0.2,82,47,270,Rain,1020,2,19,,,,2.7,
Wick,05/04/2017 01:00,5.3,25,,,0,,85,40,270,Light shower,1021,5,5,,,,3,
Wick,05/04/2017 02:00,5.5,23,,,0.2,,81,41,270,Rain,1021,6,12,,,,2.6,
Wick,05/04/2017 03:00,5.5,24,,,0,,86,40,270,Rain,1021,1,11,,,,3.4,
Wick,05/04/2017 04:00,5.9,24,,,0,,83,36,270,Dry,1021,7,9,,,,3.4,
Wick,05/04/2017 05:00,5.3,30,,,0,,82,49,280,Light shower,1021,1,16,,,,2.5,
Wick,05/04/2017 06:00,5.6,25,4.8,,0,0.2,88,37,290,Rain,1022,4,10,,,,3.8,
Wick,05/04/2017 07:00,6.1,32,,,0,,85,46,290,Light shower,1022,7,5,,,,3.8,
Wick,05/04/2017 08:00,7,29,,,0,,80,41,280,Rain,1023,2,12,,,,3.8,
Wick,05/04/2017 09:00,8,31,,,0,,72,40,280,Haze,1024,1,10,,,,3.4,
Wick,05/04/2017 10:00,8.4,29,,,0,,75,46,300,Rain,1025,3,8,,,,4.4,
Wick,05/04/2017 11:00,8.1,33,,,0,,70,45,290,Haze,1025,5,10,,,,3,
Wick,05/04/2017 12:00,7.9,30,,,0,0,76,43,300,Drizzly rain,1026,4,11,,,,4,
Wick,05/04/2017 13:00,9.6,32,,,0,,59,43,300,Rain,1026,2,11,,,,2.1,
Wick,05/04/2017 14:00,10.3,29,,,0,,62,40,300,Dry,1027,3,15,,,,3.5,
Wick,05/04/2017 15:00,9.2,28,,,0,,62,39,300,Dry,1027,2,16,,,,2.5,
Wick,05/04/2017 16:00,8.9,26,,,0,,65,38,300,Haze,1028,7,11,,,,2.8,
Wick,05/04/2017 17:00,8.7,20,,,0,,74,33,300,Haze,1028,7,9,,,,4.4,
Wick,05/04/2017 18:00,8.2,18,,10.6,0,0,78,31,290,Haze,1028,1,10,,,,4.6,
Wick,05/04/2017 19:00,7.1,16,,,0,,81,,290,Dry,1028,5,10,,,,4.2,
Wick,05/04/2017 20:00,6.7,16,,,0,,86,,290,Dry,1028,2,10,,,,4.6,
Wick,05/04/2017 21:00,6,10,,,0,,89,,290,Dry,1028,0,10,,,,4.4,
Wick,05/04/2017 22:00,5.2,7,,,0,,90,,230,Dry,1029,0,13,,,,3.7,
Wick,05/04/2017 23:00,5,8,,,0,,89,,220,Dry,1028,0,22,,,,3.4,
Wick,06/04/2017 00:00,5.4,10,,,0,0,87,,250,Dry,1028,0,50,,,,3.5,
Wick,06/04/2017 01:00,4.8,13,,,0,,89,,260,Dry,1027,3,45,,,,3.2,
Wick,06/04/2017 02:00,6.3,13,,,0,,85,,250,Dry,1026,1,45,,,,4,
Wick,06/04/2017 03:00,6.4,10,,,0,,86,,230,Dry,1026,0,50,,,,4.3,
Wick,06/04/2017 04:00,7.2,9,,,0,,85,,210,Dry,1025,7,50,,,,4.9,
Wick,06/04/2017 05:00,7.9,15,,,0,,85,,240,Dry,1025,7,50,,,,5.7,
Wick,06/04/2017 06:00,8.7,12,4.5,,0,0,84,,240,Dry,1024,7,50,,,,6.2,
Wick,06/04/2017 07:00,9.1,16,,,0,,82,,240,Dry,1025,8,40,,,,6.2,
Wick,06/04/2017 08:00,9.5,13,,,0,,79,,230,Dry,1025,8,45,,,,6.2,
Wick,06/04/2017 09:00,9.8,14,,,0,,78,,250,Dry,1024,8,50,,,,6.3,
Wick,06/04/2017 10:00,11,15,,,0,,75,,250,Dry,1024,8,40,,,,6.9,
Wick,06/04/2017 11:00,12.1,18,,,0,,73,29,240,Dry,1024,8,40,,,,7.5,
Wick,06/04/2017 12:00,13,25,,,0,0,68,31,260,Dry,1023,1,30,,,,7.4,
Wick,06/04/2017 13:00,13,21,,,0,,68,33,250,Dry,1023,2,50,,,,7.4,
Wick,06/04/2017 14:00,14.7,25,,,0,,66,33,270,Dry,1022,7,50,,,,8.5,
Wick,06/04/2017 15:00,13.8,25,,,0,,65,36,260,Dry,1022,1,28,,,,7.4,
Wick,06/04/2017 16:00,14.4,30,,,0,,66,40,260,Dry,1021,1,30,,,,8.2,
Wick,06/04/2017 17:00,13,24,,,0,,72,38,270,Dry,1021,1,28,,,,8.1,
Wick,06/04/2017 18:00,12.3,23,,14.7,0,0,77,32,260,Dry,1021,2,45,,,,8.4,
Wick,06/04/2017 19:00,11.5,23,,,0,,82,33,260,Dry,1022,1,40,,,,8.6,
Wick,06/04/2017 20:00,10.3,25,,,0,,90,36,270,Haze,1022,7,3,,,,8.8,
Wick,06/04/2017 21:00,10.4,26,,,0,,87,36,290,Dry,1022,4,50,,,,8.5,
Wick,06/04/2017 22:00,9.5,24,,,0,,90,35,280,Dry,1022,1,40,,,,8,
Wick,06/04/2017 23:00,9.3,21,,,0,,90,30,270,Dry,1022,5,35,,,,7.8,
Wick,07/04/2017 00:00,8.8,20,,,0,0,90,29,270,Dry,1022,3,40,,,,7.4,
Wick,07/04/2017 01:00,8.4,20,,,0,,89,,270,Dry,1022,3,45,,,,6.8,
Wick,07/04/2017 02:00,7.5,15,,,0,,90,,270,Dry,1022,0,50,,,,6,
Wick,07/04/2017 03:00,7,12,,,0,,93,,270,Dry,1022,0,35,,,,6.1,
Wick,07/04/2017 04:00,8.3,9,,,0,,92,,240,Dry,1022,2,45,,,,7.1,
Wick,07/04/2017 05:00,8.1,12,,,0,,93,,260,Dry,1022,3,35,,,,7.1,
Wick,07/04/2017 06:00,7.7,13,6.9,,0,0,91,,260,Dry,1022,6,40,,,,6.4,
Wick,07/04/2017 07:00,8.5,9,,,0,,89,,250,Dry,1022,1,50,,,,6.9,
Wick,07/04/2017 08:00,9.5,14,,,0,,83,,270,Dry,1022,6,40,,,,6.8,
Wick,07/04/2017 09:00,9.7,14,,,0,,79,,270,Dry,1022,7,40,,,,6.3,
Wick,07/04/2017 10:00,10.1,14,,,0,,85,,290,Dry,1022,2,50,,,,7.7,
Wick,07/04/2017 11:00,10.7,13,,,0,,73,,280,Dry,1022,7,35,,,,6.2,
Wick,07/04/2017 12:00,10.8,12,,,0,0,69,,280,Dry,1022,8,45,,,,5.5,
Wick,07/04/2017 13:00,11.3,9,,,0,,68,,280,Dry,1022,8,35,,,,5.8,
Wick,07/04/2017 14:00,11.7,7,,,0,,64,,280,Rain,1022,1,35,,,,5.3,
Wick,07/04/2017 15:00,11.4,3,,,0,,69,,310,Dry,1022,8,45,,,,6.1,
Wick,07/04/2017 16:00,10.7,7,,,0,,75,,70,Dry,1021,7,28,,,,6.5,
Wick,07/04/2017 17:00,10.4,3,,,0,,76,,40,Dry,1021,1,30,,,,6.5,
Wick,07/04/2017 18:00,9.9,3,,12.3,0,0,79,,120,Dry,1021,3,24,,,,6.6,
Wick,07/04/2017 19:00,9.1,7,,,0,,83,,140,Dry,1021,7,30,,,,6.4,
Wick,07/04/2017 20:00,8.7,7,,,0,,81,,270,Dry,1021,8,50,,,,5.7,
Wick,07/04/2017 21:00,8.8,8,,,0,,73,,240,Dry,1021,8,50,,,,4.4,
Wick,07/04/2017 22:00,8.8,17,,,0,,67,,260,Dry,1021,8,50,,,,3.1,
Wick,07/04/2017 23:00,8.8,9,,,0,,65,,230,Dry,1021,8,50,,,,2.7,
Wick,08/04/2017 00:00,8.2,8,,,0,0,75,,210,Dry,1021,8,50,,,,4.2,
Wick,08/04/2017 01:00,8.1,9,,,0,,75,,220,Dry,1020,8,40,,,,4.1,
Wick,08/04/2017 02:00,8,8,,,0,,77,,200,Dry,1020,8,45,,,,4.3,
Wick,08/04/2017 03:00,7.8,13,,,0,,79,,200,Dry,1019,8,40,,,,4.5,
Wick,08/04/2017 04:00,7.6,12,,,0,,81,,200,Dry,1019,8,45,,,,4.6,
Wick,08/04/2017 05:00,7.5,14,,,0,,79,,200,Dry,1018,8,45,,,,4.2,
Wick,08/04/2017 06:00,7.4,12,7.4,,0,0,79,,200,Dry,1018,8,35,,,,4.1,
Wick,08/04/2017 07:00,7.8,15,,,0,,77,,200,Dry,1018,8,30,,,,4.2,
Wick,08/04/2017 08:00,8.2,10,,,0,,79,30,200,Dry,1018,8,27,,,,4.8,
Wick,08/04/2017 09:00,8.9,16,,,0,,72,30,190,Dry,1018,8,27,,,,4.2,
Wick,08/04/2017 10:00,8.8,14,,,0,,70,29,190,Dry,1018,8,28,,,,3.8,
Wick,08/04/2017 11:00,10.2,18,,,0,,69,31,200,Dry,1018,4,23,,,,4.9,
Wick,08/04/2017 12:00,9.7,15,,,0,0,68,,180,Dry,1018,7,35,,,,4.2,
Wick,08/04/2017 13:00,10.4,15,,,0,,63,,180,Dry,1018,8,30,,,,3.7,
Wick,08/04/2017 14:00,10.7,13,,,0,,65,,180,Dry,1017,8,40,,,,4.4,
Wick,08/04/2017 15:00,12.3,18,,,0,,58,,200,Dry,1016,2,26,,,,4.5,
Wick,08/04/2017 16:00,12.7,13,,,0,,54,,180,Dry,1016,3,50,,,,3.9,
Wick,08/04/2017 17:00,10.4,12,,,0,,64,,160,Dry,1016,0,15,,,,4.1,
Wick,08/04/2017 18:00,10.1,13,,13.3,0,0,68,,160,Dry,1015,0,30,,,,4.5,
Wick,08/04/2017 19:00,9.3,10,,,0,,80,,160,Dry,1015,0,14,,,,6.2,
Wick,08/04/2017 20:00,8,3,,,0,,89,,190,Dry,1016,0,14,,,,6.4,
Wick,08/04/2017 21:00,6.6,3,,,0,,92,,220,Dry,1015,0,11,,,,5.4,
Wick,08/04/2017 22:00,5.6,2,,,0,,92,,280,Dry,1015,0,11,,,,4.5,
Wick,08/04/2017 23:00,4.8,5,,,0,,90,,230,Dry,1015,0,16,,,,3.4,
Wick,09/04/2017 00:00,4.5,6,,,0,0,91,,260,Dry,1015,0,30,,,,3.3,
Wick,09/04/2017 01:00,4.8,6,,,0,,90,,250,Dry,1014,0,35,,,,3.4,
Wick,09/04/2017 02:00,6.9,6,,,0,,82,,190,Dry,1014,0,26,,,,4.2,
Wick,09/04/2017 03:00,7.7,5,,,0,,75,,190,Dry,1013,0,29,,,,3.6,
Wick,09/04/2017 04:00,6.7,7,,,0,,85,,220,Dry,1013,0,24,,,,4.5,
Wick,09/04/2017 05:00,6.9,7,,,0,,85,,230,Dry,1013,1,20,,,,4.7,
Wick,09/04/2017 06:00,7.4,5,3.7,,0,0,80,,210,Dry,1013,1,35,,,,4.2,
Wick,09/04/2017 07:00,7.9,6,,,0,,80,,210,Dry,1012,1,27,,,,4.8,
Wick,09/04/2017 08:00,9.3,8,,,0,,77,,200,Dry,1012,0,21,,,,5.5,
Wick,09/04/2017 09:00,11.1,10,,,0,,68,,220,Dry,1012,0,25,,,,5.5,
Wick,09/04/2017 10:00,11.8,12,,,0,,69,,230,Dry,1012,6,27,,,,6.5,
Wick,09/04/2017 11:00,12.2,12,,,0,,66,,210,Dry,1011,0,16,,,,6.2,
Wick,09/04/2017 12:00,12.9,13,,,0,0,62,,210,Dry,1010,1,16,,,,5.9,
Wick,09/04/2017 13:00,10.5,7,,,0,,73,,320,Dry,1010,7,23,,,,5.9,
Wick,09/04/2017 14:00,9.6,16,,,0,,82,,280,Drizzly rain,1010,7,7,,,,6.8,
Wick,09/04/2017 15:00,7,22,,,0.4,,93,31,300,Light drizzle,1011,3,24,,,,6.1,
Wick,09/04/2017 16:00,6.5,18,,,0.2,,93,,290,Light rain,1011,1,30,,,,5.6,
Wick,09/04/2017 17:00,6.3,16,,,0,,89,29,280,Rain,1011,1,30,,,,4.7,
Wick,09/04/2017 18:00,6.6,13,,13.1,0,0.6,89,,260,Dry,1011,1,45,,,,5,
Wick,09/04/2017 19:00,6.3,17,,,0,,83,,270,Dry,1011,1,30,,,,3.7,
Wick,09/04/2017 20:00,5.5,13,,,0,,90,,270,Dry,1012,1,35,,,,4,
Wick,09/04/2017 21:00,5.3,18,,,0,,89,,260,Rain,1012,2,24,,,,3.7,
Wick,09/04/2017 22:00,5.4,20,,,0,,88,,260,Dry,1012,2,26,,,,3.6,
Wick,09/04/2017 23:00,6.1,22,,,0.2,,92,35,270,Rain,1012,2,9,,,,5,
Wick,10/04/2017 00:00,5.2,17,,,0,0.2,84,32,280,Dry,1013,3,29,,,,2.8,
Wick,10/04/2017 01:00,5.2,22,,,0,,90,30,300,Rain,1014,1,21,,,,3.7,
Wick,10/04/2017 02:00,5.2,20,,,0,,88,30,290,Rain,1015,5,5,,,,3.4,
Wick,10/04/2017 03:00,5,18,,,0.2,,90,35,300,Rain,1016,1,19,,,,3.6,
Wick,10/04/2017 04:00,4.7,22,,,0,,83,32,300,Rain,1016,2,25,,,,2.1,
Wick,10/04/2017 05:00,4.6,21,,,0,,80,33,300,Dry,1017,1,27,,,,1.5,
Wick,10/04/2017 06:00,4.4,23,4.3,,0,0.2,80,36,300,Dry,1018,6,26,,,,1.4,
Wick,10/04/2017 07:00,5.3,23,,,0,,74,35,310,Dry,1019,4,26,,,,1.1,
Wick,10/04/2017 08:00,6.4,21,,,0,,71,30,310,Dry,1020,4,21,,,,1.7,
Wick,10/04/2017 09:00,7.2,21,,,0,,66,32,300,Dry,1020,7,28,,,,1.3,
Wick,10/04/2017 10:00,4.6,16,,,0.8,,90,29,280,Moderate shower,1021,3,8,,,,3.2,
Wick,10/04/2017 11:00,6.9,16,,,0.6,,85,,270,Rain,1020,5,24,,,,4.7,
Wick,10/04/2017 12:00,6.3,23,,,0,1,81,35,300,Rain,1021,1,9,,,,3.3,
Wick,10/04/2017 13:00,6.9,18,,,0.2,,87,47,290,Rain,1021,1,28,,,,4.9,
Wick,10/04/2017 14:00,7.8,22,,,0,,73,36,290,Dry,1021,1,28,,,,3.3,
Wick,10/04/2017 15:00,6.6,24,,,0,,75,33,300,Rain,1022,1,24,,,,2.6,
Wick,10/04/2017 16:00,6.3,25,,,0,,79,38,300,Rain,1022,2,20,,,,3,
Wick,10/04/2017 17:00,6.7,21,,,0.2,,80,38,310,Rain,1022,4,24,,,,3.5,
Wick,10/04/2017 18:00,6.4,20,,8.3,0,1,76,32,300,Dry,1022,1,16,,,,2.6,
Wick,10/04/2017 19:00,5.3,9,,,0,,88,,280,Rain,1022,1,35,,,,3.5,
Wick,10/04/2017 20:00,4.9,13,,,0.4,,93,,270,Light shower,1022,5,8,,,,3.9,
Wick,10/04/2017 21:00,4.4,6,,,0,,95,,230,Rain,1022,1,17,,,,3.8,
Wick,10/04/2017 22:00,4.5,8,,,0,,93,,220,Rain,1021,7,22,,,,3.6,
Wick,10/04/2017 23:00,4.8,10,,,0,,93,,230,Rain,1020,2,50,,,,3.8,
Wick,11/04/2017 00:00,5.2,10,,,0.2,0.6,90,,200,Light shower,1019,4,35,,,,3.7,
Wick,11/04/2017 01:00,5.3,15,,,0,,91,,190,Light rain,1018,5,30,,,,4.1,
Wick,11/04/2017 02:00,5.4,16,,,0.2,,94,,200,Drizzly rain,1017,5,19,,,,4.6,
Wick,11/04/2017 03:00,5.8,15,,,0.2,,96,,200,Light rain,1016,1,11,,,,5.3,
Wick,11/04/2017 04:00,6.5,10,,,0.4,,98,,200,Drizzly rain,1015,5,21,,,,6.3,
Wick,11/04/2017 05:00,8.1,13,,,1.2,,97,,240,Moderate rain,1015,6,14,,,,7.7,
Wick,11/04/2017 06:00,8.5,13,4.4,,1,3.4,96,,250,Light rain,1014,7,13,,,,7.9,
Wick,11/04/2017 07:00,9,14,,,0,,94,,260,Drizzly rain,1014,6,27,,,,8.2,
Wick,11/04/2017 08:00,9.1,15,,,0,,94,,260,Drizzly rain,1014,5,10,,,,8.2,
Wick,11/04/2017 09:00,8.9,18,,,0.2,,95,,270,Rain,1014,7,14,,,,8.2,
Wick,11/04/2017 10:00,8.7,20,,,0.4,,90,,250,Light shower,1014,2,12,,,,7.3,
Wick,11/04/2017 11:00,8.8,18,,,0.4,,90,30,250,Light rain,1013,7,15,,,,7.3,
Wick,11/04/2017 12:00,9.5,21,,,0,1,88,29,250,Rain,1012,4,45,,,,7.7,
Wick,11/04/2017 13:00,10.2,24,,,0,,83,35,250,Dry,1012,1,40,,,,7.6,
Wick,11/04/2017 14:00,9.7,18,,,0.2,,89,30,240,Light shower,1012,7,20,,,,8,
Wick,11/04/2017 15:00,10.5,23,,,0,,83,35,250,Rain,1011,1,45,,,,7.9,
Wick,11/04/2017 16:00,10.5,23,,,0,,81,35,250,Dry,1010,1,45,,,,7.4,
Wick,11/04/2017 17:00,9.9,21,,,0,,87,33,240,Light shower,1010,4,17,,,,8,
Wick,11/04/2017 18:00,9.5,16,,10.8,0.2,0,90,,250,Rain,1009,4,50,,,,8.1,
Wick,11/04/2017 19:00,8.8,20,,,0,,91,31,270,Rain,1009,1,26,,,,7.5,
Wick,11/04/2017 20:00,8.3,17,,,0,,93,30,260,Dry,1009,7,9,,,,7.3,
Wick,11/04/2017 21:00,7.9,18,,,0,,90,30,260,Drizzle,1008,1,20,,,,6.5,
Wick,11/04/2017 22:00,6.3,15,,,0,,90,,270,Dry,1008,0,14,,,,4.9,
Wick,11/04/2017 23:00,7.2,20,,,0.2,,88,31,260,Light shower,1007,2,7,,,,5.4,
Wick,12/04/2017 00:00,6.9,17,,,0,0.2,87,36,260,Rain,1007,1,17,,,,4.9,
Wick,12/04/2017 01:00,6.6,23,,,0,,88,38,260,Light shower,1007,1,14,,,,4.9,
Wick,12/04/2017 02:00,5.5,20,,,0,,85,33,270,Rain,1006,1,17,,,,3.3,
Wick,12/04/2017 03:00,5.6,20,,,0,,83,,260,Dry,1006,4,21,,,,3,
Wick,12/04/2017 04:00,6,24,,,0,,88,35,260,Rain,1006,5,20,,,,4.2,
Wick,12/04/2017 05:00,5.6,22,,,0,,88,36,260,Rain,1005,4,30,,,,3.9,
Wick,12/04/2017 06:00,5.8,23,5.1,,0,0,90,32,260,Rain,1005,1,22,,,,4.4,
Wick,12/04/2017 07:00,6.2,23,,,0.6,,91,35,270,Rain,1005,6,24,,,,4.9,
Wick,12/04/2017 08:00,7.1,24,,,0,,85,37,270,Dry,1005,1,14,,,,4.9,
Wick,12/04/2017 09:00,7.7,26,,,0,,86,40,280,Light shower,1005,5,22,,,,5.6,
Wick,12/04/2017 10:00,7.4,31,,,0,,86,46,280,Moderate shower,1005,2,13,,,,5.3,
Wick,12/04/2017 11:00,8.3,31,,,0.2,,82,45,280,Rain,1006,1,19,,,,5.5,
Wick,12/04/2017 12:00,8.6,35,,,0,0.8,75,45,280,Dry,1006,3,24,,,,4.6,
Wick,12/04/2017 13:00,7.5,33,,,0.2,,89,45,280,Light shower,1006,5,10,,,,5.9,
Wick,12/04/2017 14:00,8.7,33,,,0,,79,47,280,Rain,1006,2,18,,,,5.3,
Wick,12/04/2017 15:00,8.4,31,,,0,,80,47,280,Rain,1006,1,15,,,,5.2,
Wick,12/04/2017 16:00,7.1,30,,,0.2,,84,48,280,Rain,1006,5,10,,,,4.7,
Wick,12/04/2017 17:00,6.5,25,,,0.2,,91,44,280,Rain,1007,2,22,,,,5.2,
Wick,12/04/2017 18:00,6.8,25,,9.6,0,0.2,84,39,280,Rain,1007,1,17,,,,4.4,
Wick,12/04/2017 19:00,6.7,24,,,0,,78,39,290,Dry,1008,1,14,,,,3.2,
Wick,12/04/2017 20:00,5.9,23,,,0,,81,39,290,Rain,1008,5,25,,,,2.9,
Wick,12/04/2017 21:00,5.8,23,,,0,,78,40,290,Rain,1009,1,26,,,,2.4,
Wick,12/04/2017 22:00,6.1,18,,,0,,81,37,290,Rain,1009,6,21,,,,3.2,
Wick,12/04/2017 23:00,5.6,20,,,0,,77,31,290,Rain,1009,1,21,,,,2,
Wick,13/04/2017 00:00,5.1,18,,,0,0,79,,290,Dry,1009,2,19,,,,1.8,
Wick,13/04/2017 01:00,5.3,17,,,0,,80,,290,Dry,1009,5,21,,,,2.3,
Wick,13/04/2017 02:00,4.9,18,,,0,,86,,280,Light shower,1010,1,13,,,,2.8,
Wick,13/04/2017 03:00,4.5,14,,,0,,89,,270,Rain,1010,2,25,,,,3,
Wick,13/04/2017 04:00,4.5,18,,,0.2,,93,,280,Moderate shower,1010,3,12,,,,3.5,
Wick,13/04/2017 05:00,3.8,10,,,0,,91,,250,Rain,1010,4,25,,,,2.6,
Wick,13/04/2017 06:00,4.4,14,3.3,,0,0.2,93,,270,Dry,1010,2,28,,,,3.5,
Wick,13/04/2017 07:00,4.9,9,,,0.2,,91,,250,Rain,1010,1,22,,,,3.7,
Wick,13/04/2017 08:00,6.3,14,,,0.4,,87,,260,Rain,1010,,15,,,,4.3,
Wick,13/04/2017 09:00,7.7,22,,,0,,72,29,280,Dry,1010,1,19,,,,3.1,
Wick,13/04/2017 10:00,8.7,24,,,0,,67,32,280,Dry,1010,1,27,,,,3,
Wick,13/04/2017 11:00,7.9,21,,,0,,64,31,280,Dry,1010,1,27,,,,1.7,
Wick,13/04/2017 12:00,8.3,22,,,0,0.6,62,29,290,Dry,1010,7,27,,,,1.5,
Wick,13/04/2017 13:00,8.3,21,,,0,,64,,270,Dry,1010,1,20,,,,2,
Wick,13/04/2017 14:00,8.5,22,,,0,,70,,290,Dry,1010,1,30,,,,3.4,
Wick,13/04/2017 15:00,9,17,,,0,,74,,280,Dry,1009,1,35,,,,4.8,
Wick,13/04/2017 16:00,8.2,14,,,0,,82,,280,Rain,1009,4,30,,,,5.4,
Wick,13/04/2017 17:00,7.8,13,,,0,,85,,280,Rain,1009,2,40,,,,5.6,
Wick,13/04/2017 18:00,7.9,13,,10.1,0,0,84,,260,Rain,1008,3,50,,,,5.4,
Wick,13/04/2017 19:00,7.1,9,,,0.2,,89,,250,Rain,1008,3,35,,,,5.5,
Wick,13/04/2017 20:00,6.7,12,,,0,,89,,240,Rain,1008,1,45,,,,5.1,
Wick,13/04/2017 21:00,5.6,12,,,0,,93,,240,Rain,1008,5,50,,,,4.6,
Wick,13/04/2017 22:00,6.3,10,,,0,,93,,250,Drizzly rain,1008,1,19,,,,5.3,
Wick,13/04/2017 23:00,6,13,,,0,,89,,250,Rain,1008,7,45,,,,4.4,
Wick,14/04/2017 00:00,5.8,12,,,0,0.2,89,,250,Rain,1008,5,50,,,,4.2,
Wick,14/04/2017 01:00,5.2,14,,,0,,89,,250,Rain,1008,4,50,,,,3.6,
Wick,14/04/2017 02:00,4.9,7,,,0,,89,,230,Rain,1008,6,35,,,,3.3,
Wick,14/04/2017 03:00,4.5,8,,,0.2,,93,,270,Rain,1008,1,35,,,,3.5,
Wick,14/04/2017 04:00,4.6,15,,,0,,89,,260,Dry,1008,1,35,,,,3,
Wick,14/04/2017 05:00,3.9,10,,,0,,91,,240,Rain,1008,4,35,,,,2.7,
Wick,14/04/2017 06:00,3.9,9,3.8,,0,0.2,89,,250,Rain,1008,4,35,,,,2.4,
Wick,14/04/2017 07:00,5.6,12,,,0,,83,,250,Dry,1008,2,35,,,,3.1,
Wick,14/04/2017 08:00,7,14,,,0,,77,,250,Dry,1008,1,26,,,,3.3,
Wick,14/04/2017 09:00,7.6,14,,,0,,73,,260,Dry,1008,2,40,,,,3.2,
Wick,14/04/2017 10:00,8.1,14,,,0,,70,,260,Dry,1008,1,23,,,,3.1,
Wick,14/04/2017 11:00,8.6,17,,,0,,67,,260,Dry,1007,1,24,,,,2.9,
Wick,14/04/2017 12:00,9.4,13,,,0,0,65,,270,Dry,1007,1,35,,,,3.3,
Wick,14/04/2017 13:00,9.2,18,,,0,,63,,250,Dry,1007,7,30,,,,2.7,
Wick,14/04/2017 14:00,10.1,14,,,0,,61,,260,Dry,1007,2,40,,,,3.1,
Wick,14/04/2017 15:00,8.8,16,,,0,,63,29,250,Rain,1006,5,50,,,,2.2,
Wick,14/04/2017 16:00,9.2,14,,,0,,74,,270,Dry,1006,7,35,,,,4.9,
Wick,14/04/2017 17:00,7.9,13,,,0,,83,,270,Light shower,1005,6,30,,,,5.3,
Wick,14/04/2017 18:00,6.6,15,,10.5,0,0,72,,270,Rain,1005,1,35,,,,2.1,
Wick,14/04/2017 19:00,5.8,12,,,0,,76,,260,Dry,1005,5,40,,,,2,
Wick,14/04/2017 20:00,4.3,17,,,0,,84,,270,Dry,1006,2,45,,,,2,
Wick,14/04/2017 21:00,3.5,13,,,0,,89,,230,Rain,1005,7,50,,,,1.9,
Wick,14/04/2017 22:00,3.8,14,,,0,,86,,250,Dry,1005,0,50,,,,1.8,
Wick,14/04/2017 23:00,2.6,12,,,0,,87,,240,Dry,1004,0,45,,,,0.8,
Wick,15/04/2017 00:00,2.5,8,,,0,0,90,,230,Dry,1005,1,45,,,,1.1,
Wick,15/04/2017 01:00,2.6,10,,,0,,89,,240,Dry,1004,2,45,,,,1,
Wick,15/04/2017 02:00,3.9,18,,,0,,84,,250,Dry,1004,1,28,,,,1.6,
Wick,15/04/2017 03:00,3.9,22,,,0,,87,32,270,Light shower,1004,3,6,,,,2,
Wick,15/04/2017 04:00,3.3,25,,,0.2,,88,39,260,Rain,1003,0,35,,,,1.6,
Wick,15/04/2017 05:00,2.9,32,,,0.8,,91,41,290,Moderate shower,1004,4,5,,,,1.7,
Wick,15/04/2017 06:00,4.3,24,2,,0.2,1,84,45,280,Rain,1004,1,30,,,,1.9,
Wick,15/04/2017 07:00,5.4,21,,,0,,86,33,280,Rain,1005,2,19,,,,3.3,
Wick,15/04/2017 08:00,6.3,24,,,0,,78,32,300,Dry,1006,1,30,,,,2.8,
Wick,15/04/2017 09:00,7,23,,,0,,76,36,300,Dry,1007,1,35,,,,3.1,
Wick,15/04/2017 10:00,8,24,,,0,,72,33,300,Dry,1008,2,20,,,,3.4,
Wick,15/04/2017 11:00,8.4,22,,,0,,67,33,300,Dry,1008,4,35,,,,2.7,
Wick,15/04/2017 12:00,8.2,25,,,0,0,66,33,310,Dry,1009,4,23,,,,2.4,
Wick,15/04/2017 13:00,7.4,21,,,0,,84,35,280,Dry,1010,2,30,,,,5,
Wick,15/04/2017 14:00,7.7,22,,,0,,77,32,300,Rain,1010,2,35,,,,4,
Wick,15/04/2017 15:00,6.3,22,,,0.2,,80,33,290,Rain,1011,1,45,,,,3.2,
Wick,15/04/2017 16:00,8.9,24,,,0,,67,35,300,Dry,1011,3,35,,,,3.3,
Wick,15/04/2017 17:00,8.5,22,,,0,,75,30,290,Dry,1011,4,19,,,,4.4,
Wick,15/04/2017 18:00,7.8,20,,9.5,0,0.2,75,30,290,Dry,1012,1,35,,,,3.7,
Wick,15/04/2017 19:00,6,15,,,0.2,,86,31,300,Rain,1012,1,40,,,,3.9,
Wick,15/04/2017 20:00,4.7,13,,,0.2,,87,,290,Rain,1013,2,45,,,,2.8,
Wick,15/04/2017 21:00,3.1,9,,,0,,93,,270,Dry,1014,1,35,,,,2.2,
Wick,15/04/2017 22:00,2.8,7,,,0,,93,,280,Rain,1014,1,50,,,,1.9,
Wick,15/04/2017 23:00,4.4,10,,,0,,96,,320,Dry,1015,1,26,,,,3.9,
Wick,16/04/2017 00:00,3,8,,,0,0.4,97,,280,Dry,1015,1,28,,,,2.6,
Wick,16/04/2017 01:00,3.3,6,,,0,,97,,260,Dry,1016,5,45,,,,2.9,
Wick,16/04/2017 02:00,3.5,8,,,0,,96,,260,Rain,1016,1,40,,,,3,
Wick,16/04/2017 03:00,3.8,6,,,0,,97,,290,Dry,1016,7,35,,,,3.4,
Wick,16/04/2017 04:00,4.2,8,,,0,,88,,330,Dry,1016,8,35,,,,2.5,
Wick,16/04/2017 05:00,3.8,7,,,0,,88,,340,Dry,1017,8,27,,,,2,
Wick,16/04/2017 06:00,2.5,6,2,,0,0,84,,320,Dry,1017,4,35,,,,0.1,
Wick,16/04/2017 07:00,4.6,5,,,0,,82,,310,Dry,1017,0,35,,,,1.8,
Wick,16/04/2017 08:00,6.5,0,,,0,,72,,0,Dry,1018,0,40,,,,1.9,
Wick,16/04/2017 09:00,7.2,0,,,0,,70,,0,Dry,1018,0,50,,,,2.3,
Wick,16/04/2017 10:00,7.8,0,,,0,,63,,0,Dry,1018,3,30,,,,1.3,
Wick,16/04/2017 11:00,8.5,0,,,0,,71,,0,Dry,1018,5,18,,,,3.6,
Wick,16/04/2017 12:00,7.9,0,,,0,0,63,,0,Dry,1019,7,22,,,,1.4,
Wick,16/04/2017 13:00,8.1,0,,,0,,63,,0,Dry,1019,6,26,,,,1.5,
Wick,16/04/2017 14:00,8,0,,,0,,56,,0,Dry,1019,5,30,,,,-0.1,
Wick,16/04/2017 15:00,8.4,0,,,0,,53,,0,Dry,1020,2,16,,,,-0.6,
Wick,16/04/2017 16:00,7.1,0,,,0,,61,,0,Dry,1020,3,40,,,,0.2,
Wick,16/04/2017 17:00,7.2,0,,,0,,61,,0,Dry,1020,5,40,,,,0.2,
Wick,16/04/2017 18:00,7,0,,8.9,0,0,61,,0,Dry,1021,5,35,,,,0.1,
Wick,16/04/2017 19:00,5.5,0,,,0,,62,,0,Dry,1021,0,35,,,,-1,
Wick,16/04/2017 20:00,4.8,0,,,0,,69,,0,Dry,1022,0,45,,,,-0.3,
Wick,16/04/2017 21:00,3.8,0,,,0,,70,,0,Dry,1022,0,40,,,,-1.1,
Wick,16/04/2017 22:00,0.8,7,,,0,,76,,320,Dry,1023,0,35,,,,-2.9,
Wick,16/04/2017 23:00,0.2,6,,,0,,83,,300,Dry,1023,0,45,,,,-2.3,
Wick,17/04/2017 00:00,-0.9,7,,,0,0,86,,250,Dry,1023,0,40,,,,-2.8,
Wick,17/04/2017 01:00,-1,6,,,0,,87,,260,Dry,1023,0,45,,,,-2.8,
Wick,17/04/2017 02:00,-1,5,,,0,,87,,260,Dry,1024,0,50,,,,-2.8,
Wick,17/04/2017 03:00,-1.2,6,,,0,,88,,260,Dry,1023,0,40,,,,-2.9,
Wick,17/04/2017 04:00,-1.4,7,,,0,,90,,250,Dry,1024,0,50,,,,-2.8,
Wick,17/04/2017 05:00,-1.5,5,,,0,,88,,290,Dry,1024,1,40,,,,-3.1,
Wick,17/04/2017 06:00,0.2,6,-1.9,,0,0,89,,270,Dry,1024,2,35,,,,-1.3,
Wick,17/04/2017 07:00,1.2,0,,,0,,88,,0,Dry,1024,4,50,,,,-0.5,
Wick,17/04/2017 08:00,4.4,0,,,0,,84,,0,Dry,1024,7,27,,,,2.1,
Wick,17/04/2017 09:00,3.5,0,,,0.2,,89,,0,Moderate shower,1024,5,5,,,,1.9,
Wick,17/04/2017 10:00,2.4,5,,,1.8,,97,,300,Light shower,1024,2,35,,,,2,
Wick,17/04/2017 11:00,3.5,18,,,0.4,,92,,360,Moderate shower,1025,6,15,,,,2.4,
Wick,17/04/2017 12:00,4.4,20,,,0.2,3,87,,350,Rain,1025,3,50,,,,2.5,
Wick,17/04/2017 13:00,6,21,,,0,,67,,340,Dry,1026,1,23,,,,0.4,
Wick,17/04/2017 14:00,6.2,20,,,0,,53,31,340,Dry,1026,2,50,,,,-2.6,
Wick,17/04/2017 15:00,6.5,20,,,0,,54,,330,Dry,1027,6,30,,,,-1.9,
Wick,17/04/2017 16:00,5.6,16,,,0,,60,,350,Dry,1027,1,30,,,,-1.4,
Wick,17/04/2017 17:00,6.1,14,,,0,,63,,350,Rain,1028,2,45,,,,-0.4,
Wick,17/04/2017 18:00,5.9,17,,7.5,0,0,60,,330,Dry,1028,2,50,,,,-1.1,
Wick,17/04/2017 19:00,3.6,12,,,0,,74,,320,Dry,1029,1,45,,,,-0.5,
Wick,17/04/2017 20:00,1.1,8,,,0,,87,,320,Dry,1030,1,45,,,,-0.7,
Wick,17/04/2017 21:00,0.9,8,,,0,,85,,320,Dry,1030,2,40,,,,-1.2,
Wick,17/04/2017 22:00,0.7,6,,,0,,90,,320,Dry,1030,0,35,,,,-0.6,
Wick,17/04/2017 23:00,0.9,3,,,0,,92,,270,Dry,1030,0,40,,,,-0.2,
Wick,18/04/2017 00:00,-0.6,6,,,0,0,91,,260,Dry,1031,0,35,,,,-1.8,
Wick,18/04/2017 01:00,-0.4,6,,,0,,92,,260,Dry,1031,0,30,,,,-1.5,
Wick,18/04/2017 02:00,-0.4,7,,,0,,92,,250,Dry,1031,0,45,,,,-1.5,
Wick,18/04/2017 03:00,-0.4,6,,,0,,91,,260,Dry,1032,0,45,,,,-1.6,
Wick,18/04/2017 04:00,-0.8,6,,,0,,92,,260,Dry,1032,0,45,,,,-1.9,
Wick,18/04/2017 05:00,-0.7,6,,,0,,91,,260,Dry,1032,0,35,,,,-1.9,
Wick,18/04/2017 06:00,-0.1,5,-1.2,,0,0,89,,250,Dry,1032,1,40,,,,-1.6,
Wick,18/04/2017 07:00,1.2,2,,,0,,90,,230,Dry,1032,1,20,,,,-0.2,
Wick,18/04/2017 08:00,5.4,3,,,0,,75,,130,Dry,1032,1,35,,,,1.4,
Wick,18/04/2017 09:00,6,9,,,0,,78,,200,Dry,1033,1,45,,,,2.6,
Wick,18/04/2017 10:00,7.2,12,,,0,,67,,190,Dry,1033,1,24,,,,1.6,
Wick,18/04/2017 11:00,7.1,13,,,0,,65,,190,Dry,1033,1,30,,,,1.1,
Wick,18/04/2017 12:00,7,14,,,-0.2,,,,170,-,,1,10,,,,1,
Wick,18/04/2017 13:00,8,14,,,-0.2,,,,160,Dry,,1,40,,,,1,
Wick,18/04/2017 14:00,8,15,,,-0.2,,,,170,Dry,,1,30,,,,1,
Wick,18/04/2017 15:00,8,13,,,-0.2,,,,160,Dry,,1,29,,,,2,
Wick,18/04/2017 16:00,8.1,13,,,-0.2,,68,,160,Dry,1032,1,21,,,,2.6,
Wick,18/04/2017 17:00,7.7,10,,,0,,61,,170,Dry,1031,1,30,,,,0.7,
Wick,18/04/2017 18:00,7.4,8,,,0,,53,,160,Dry,1031,1,50,,,,-1.3,
Wick,18/04/2017 19:00,7.4,8,,,0,,59,,160,Dry,1031,8,50,,,,0.1,
Wick,18/04/2017 20:00,7.5,8,,,0,,58,,160,Dry,1031,8,50,,,,0,
Wick,18/04/2017 21:00,7.6,6,,,0,,61,,170,Dry,1031,7,45,,,,0.6,
Wick,18/04/2017 22:00,7.4,7,,,0,,67,,160,Light shower,1031,1,35,,,,1.7,
Wick,18/04/2017 23:00,7.8,7,,,0,,75,,180,Rain,1031,7,45,,,,3.7,
Wick,19/04/2017 00:00,7.5,6,,,0,0,83,,190,Dry,1031,8,30,,,,4.9,
Wick,19/04/2017 01:00,6.9,6,,,0,,84,,230,Rain,1031,7,50,,,,4.4,
Wick,19/04/2017 02:00,6.8,6,,,0,,85,,180,Rain,1031,7,50,,,,4.6,
Wick,19/04/2017 03:00,7.1,7,,,0,,84,,170,Dry,1030,8,45,,,,4.7,
Wick,19/04/2017 04:00,7,6,,,0,,85,,210,Dry,1030,8,50,,,,4.7,
Wick,19/04/2017 05:00,6.7,5,,,0,,87,,240,Dry,1030,6,50,,,,4.8,
Wick,19/04/2017 06:00,7,5,6.4,,0,0,92,,240,Dry,1030,7,35,,,,5.8,
Wick,19/04/2017 07:00,7.4,7,,,0,,91,,230,Dry,1030,1,30,,,,6.1,
Wick,19/04/2017 08:00,8,7,,,0,,85,,240,Fog,1031,7,26,,,,5.8,
Wick,19/04/2017 09:00,8.8,8,,,0,,80,,260,Dry,1031,6,13,,,,5.7,
Wick,19/04/2017 10:00,9.2,8,,,0,,74,,260,Dry,1031,7,16,,,,4.9,
Wick,19/04/2017 11:00,9.4,8,,,0,,70,,290,Dry,1031,7,23,,,,4.4,
Wick,19/04/2017 12:00,9.9,6,,,0,0,71,,280,Dry,1031,5,23,,,,4.9,
Wick,19/04/2017 13:00,10.8,2,,,0,,66,,240,Dry,1030,1,20,,,,4.8,
Wick,19/04/2017 14:00,9.8,9,,,0,,79,,140,Dry,1030,1,35,,,,6.4,
Wick,19/04/2017 15:00,9.5,7,,,0,,85,,130,Dry,1030,7,35,,,,7.2,
Wick,19/04/2017 16:00,9.4,8,,,0,,82,,130,Dry,1030,1,50,,,,6.5,
Wick,19/04/2017 17:00,9.1,8,,,0,,85,,130,Dry,1029,7,45,,,,6.8,
Wick,19/04/2017 18:00,8.7,8,,11.3,0,0,91,,160,Dry,1029,3,50,,,,7.4,
Wick,19/04/2017 19:00,10.3,9,,,0,,75,,220,Dry,1029,6,45,,,,6.2,
Wick,19/04/2017 20:00,10.3,8,,,0,,76,,220,Dry,1029,7,45,,,,6.4,
Wick,19/04/2017 21:00,10.2,5,,,0,,80,,210,Dry,1029,7,45,,,,7,
Wick,19/04/2017 22:00,10,12,,,0,,85,,220,Dry,1028,2,50,,,,7.7,
Wick,19/04/2017 23:00,9.9,12,,,0,,88,,230,Dry,1028,7,50,,,,8.1,
Wick,20/04/2017 00:00,9.1,9,,,0,0,90,,230,Dry,1028,3,50,,,,7.6,
Wick,20/04/2017 01:00,9.5,7,,,0,,90,,220,Dry,1028,7,50,,,,8.1,
Wick,20/04/2017 02:00,9.9,15,,,0,,86,,240,Dry,1028,2,50,,,,7.7,
Wick,20/04/2017 03:00,9.4,18,,,0,,83,,260,Dry,1027,8,50,,,,6.7,
Wick,20/04/2017 04:00,9.5,13,,,0,,78,,250,Dry,1027,1,40,,,,6,
Wick,20/04/2017 05:00,9.6,18,,,0,,80,,260,Dry,1027,8,50,,,,6.4,
Wick,20/04/2017 06:00,10,18,8.6,,0,0,82,,250,Dry,1027,6,45,,,,7.2,
Wick,20/04/2017 07:00,10.7,15,,,0,,77,,240,Dry,1027,7,45,,,,7,
Wick,20/04/2017 08:00,11,17,,,0,,78,30,260,Dry,1027,4,35,,,,7.5,
Wick,20/04/2017 09:00,11.9,24,,,0,,77,31,260,Dry,1027,7,40,,,,8.1,
Wick,20/04/2017 10:00,11.4,20,,,0,,80,31,250,Dry,1027,1,30,,,,8.1,
Wick,20/04/2017 11:00,11.9,24,,,0,,78,31,260,Dry,1027,6,50,,,,8.2,
Wick,20/04/2017 12:00,12,17,,,0,0,78,30,250,Dry,1027,8,50,,,,8.3,
Wick,20/04/2017 13:00,12.3,12,,,0,,77,,260,Dry,1027,8,45,,,,8.5,
Wick,20/04/2017 14:00,12.9,23,,,0,,75,30,260,Dry,1026,7,40,,,,8.6,
Wick,20/04/2017 15:00,12.8,23,,,0,,76,38,270,Dry,1026,6,35,,,,8.7,
Wick,20/04/2017 16:00,11.6,20,,,0,,85,31,270,Rain,1026,5,20,,,,9.2,
Wick,20/04/2017 17:00,11.6,24,,,0,,82,31,270,Dry,1026,7,45,,,,8.8,
Wick,20/04/2017 18:00,10.2,22,,13.4,0,0,90,32,290,Haze,1026,2,4,,,,8.7,
Wick,20/04/2017 19:00,9,21,,,0,,94,30,300,Dry,1026,5,10,,,,8.2,
Wick,20/04/2017 20:00,8.3,16,,,0,,97,,280,Light shower,1026,1,16,,,,8,
Wick,20/04/2017 21:00,8.5,13,,,0.2,,98,,280,Rain,1026,1,26,,,,8.3,
Wick,20/04/2017 22:00,8.1,14,,,0,,99,,290,Light drizzle,1026,7,2,,,,8,
Wick,20/04/2017 23:00,7.8,18,,,0.4,,97,29,280,Light drizzle,1025,1,6,,,,7.5,
Wick,21/04/2017 00:00,7.6,16,,,0.2,0.8,97,,280,Drizzly rain,1025,6,6,,,,7.2,
Wick,21/04/2017 01:00,6.7,16,,,0.2,,92,,290,Rain,1025,1,9,,,,5.5,
Wick,21/04/2017 02:00,6.4,15,,,0.2,,95,,280,Light drizzle,1024,1,9,,,,5.7,
Wick,21/04/2017 03:00,6.3,18,,,0.2,,93,,280,Light drizzle,1024,1,8,,,,5.3,
Wick,21/04/2017 04:00,6.3,14,,,0,,94,,280,Light rain,1023,7,8,,,,5.5,
Wick,21/04/2017 05:00,6.2,13,,,0.2,,95,,300,Light drizzle,1023,2,11,,,,5.6,
Wick,21/04/2017 06:00,6,17,6,,0.2,1.2,93,,300,Light drizzle,1023,1,14,,,,5.1,
Wick,21/04/2017 07:00,6.4,16,,,0.2,,92,,280,Light rain,1023,1,12,,,,5.2,
Wick,21/04/2017 08:00,7.4,17,,,0.2,,94,,290,Rain,1023,1,17,,,,6.5,
Wick,21/04/2017 09:00,7.8,22,,,0,,80,31,290,Dry,1024,1,14,,,,4.6,
Wick,21/04/2017 10:00,7.2,24,,,0.2,,82,48,300,Rain,1024,1,29,,,,4.4,
Wick,21/04/2017 11:00,7.7,31,,,0,,74,41,290,Dry,1024,1,20,,,,3.4,
Wick,21/04/2017 12:00,8.6,28,,,0,0.6,68,38,300,Dry,1025,1,22,,,,3.2,
Wick,21/04/2017 13:00,7.6,28,,,0,,73,40,320,Dry,1025,1,11,,,,3.2,
Wick,21/04/2017 14:00,8.5,30,,,0,,62,40,310,Dry,1026,1,20,,,,1.7,
Wick,21/04/2017 15:00,7.7,28,,,0,,61,39,310,Dry,1026,4,35,,,,0.8,
Wick,21/04/2017 16:00,6.9,25,,,0,,61,36,310,Dry,1027,3,21,,,,0,
Wick,21/04/2017 17:00,6.8,24,,,0,,70,37,310,Dry,1027,2,27,,,,1.8,
Wick,21/04/2017 18:00,6.8,24,,9.5,0,0,55,33,300,Dry,1027,2,27,,,,-1.6,
Wick,21/04/2017 19:00,5.5,20,,,0,,69,32,310,Dry,1027,2,30,,,,0.3,
Wick,21/04/2017 20:00,5.2,14,,,0,,73,,310,Rain,1028,1,30,,,,0.8,
Wick,21/04/2017 21:00,3.6,15,,,0.2,,82,35,310,Rain,1028,3,22,,,,0.9,
Wick,21/04/2017 22:00,3.8,14,,,0,,80,,300,Dry,1028,5,29,,,,0.8,
Wick,21/04/2017 23:00,4.6,18,,,0,,68,,310,Dry,1028,7,30,,,,-0.6,
Wick,22/04/2017 00:00,4,18,,,0,0.2,83,29,330,Dry,1028,7,21,,,,1.4,
Wick,22/04/2017 01:00,3.3,16,,,0,,71,,320,Rain,1028,1,35,,,,-1.4,
Wick,22/04/2017 02:00,2.7,15,,,0,,68,,310,Dry,1028,1,45,,,,-2.6,
Wick,22/04/2017 03:00,1.9,10,,,0,,81,,320,Dry,1028,2,20,,,,-1,
Wick,22/04/2017 04:00,3.7,14,,,0,,68,,320,Dry,1028,1,30,,,,-1.5,
Wick,22/04/2017 05:00,4,15,,,0,,65,,310,Dry,1028,4,30,,,,-1.9,
Wick,22/04/2017 06:00,4.1,16,1.6,,0,0,73,,320,Dry,1028,7,30,,,,-0.2,
Wick,22/04/2017 07:00,4.5,12,,,0,,63,,320,Dry,1028,1,45,,,,-1.8,
Wick,22/04/2017 08:00,5.3,18,,,0,,60,,320,Dry,1028,1,24,,,,-1.8,
Wick,22/04/2017 09:00,6.1,17,,,0,,54,,310,Dry,1028,8,29,,,,-2.3,
Wick,22/04/2017 10:00,7.3,18,,,0,,54,,320,Dry,1028,5,40,,,,-1.3,
Wick,22/04/2017 11:00,7.5,20,,,0,,50,,300,Dry,1028,1,50,,,,-2,
Wick,22/04/2017 12:00,7.3,20,,,0,0,53,,310,Dry,1028,7,50,,,,-1.4,
Wick,22/04/2017 13:00,7.8,20,,,0,,58,29,310,Dry,1028,7,29,,,,0.1,
Wick,22/04/2017 14:00,6.7,17,,,0.4,,79,33,280,Rain,1028,1,45,,,,3.4,
Wick,22/04/2017 15:00,5.1,13,,,0.4,,91,,280,Rain,1028,1,30,,,,3.8,
Wick,22/04/2017 16:00,5.6,17,,,0,,82,,300,Dry,1028,7,19,,,,2.9,
Wick,22/04/2017 17:00,5.6,13,,,0.4,,78,,320,Rain,1028,7,45,,,,2.2,
Wick,22/04/2017 18:00,4.3,18,,8.7,0,1,89,,290,Dry,1028,1,45,,,,2.7,
Wick,22/04/2017 19:00,4.6,12,,,0,,86,,300,Dry,1028,1,45,,,,2.6,
Wick,22/04/2017 20:00,3.5,9,,,0,,91,,330,Rain,1028,1,30,,,,2.2,
Wick,22/04/2017 21:00,3.1,5,,,0.2,,95,,250,Rain,1027,2,45,,,,2.5,
Wick,22/04/2017 22:00,3.3,6,,,0.4,,95,,260,Rain,1027,3,29,,,,2.7,
Wick,22/04/2017 23:00,3,7,,,0,,95,,240,Rain,1027,1,50,,,,2.3,
Wick,23/04/2017 00:00,3.4,8,,,0.2,0.8,94,,230,Light shower,1026,1,40,,,,2.6,
Wick,23/04/2017 01:00,3,9,,,0.4,,95,,240,Moderate shower,1026,2,3,,,,2.4,
Wick,23/04/2017 02:00,2.6,8,,,1,,95,,240,Rain,1025,1,35,,,,1.9,
Wick,23/04/2017 03:00,3.8,9,,,0.4,,95,,260,Moderate shower,1024,3,7,,,,3.1,
Wick,23/04/2017 04:00,4,13,,,0,,92,,250,Rain,1024,0,45,,,,2.9,
Wick,23/04/2017 05:00,4,14,,,0,,91,,260,Dry,1023,0,45,,,,2.8,
Wick,23/04/2017 06:00,4.6,14,2.6,,0.2,2.2,93,,250,Light shower,1023,1,10,,,,3.7,
Wick,23/04/2017 07:00,5.3,13,,,0.4,,94,,260,Rain,1022,7,25,,,,4.5,
Wick,23/04/2017 08:00,6.4,15,,,0,,92,,260,Rain,1022,3,35,,,,5.3,
Wick,23/04/2017 09:00,7.1,18,,,0.2,,86,,270,Rain,1021,1,15,,,,5,
Wick,23/04/2017 10:00,7.3,15,,,0.2,,88,,260,Rain,1021,1,30,,,,5.6,
Wick,23/04/2017 11:00,7.8,17,,,0,,83,,250,Light shower,1020,1,40,,,,5.2,
Wick,23/04/2017 12:00,8.6,22,,,0,0.8,77,35,250,Rain,1019,3,35,,,,4.9,
Wick,23/04/2017 13:00,8.7,26,,,0,,71,36,250,Dry,1017,6,25,,,,3.9,
Wick,23/04/2017 14:00,8.8,28,,,0,,68,38,250,Dry,1016,1,50,,,,3.3,
Wick,23/04/2017 15:00,9.5,31,,,0,,70,41,260,Dry,1015,1,45,,,,4.4,
Wick,23/04/2017 16:00,9.5,28,,,0,,73,44,250,Dry,1014,3,40,,,,5,
Wick,23/04/2017 17:00,9.5,28,,,0,,74,44,250,Dry,1012,1,40,,,,5.2,
Wick,23/04/2017 18:00,8.2,28,,9.8,0,0,87,40,250,Light shower,1012,6,6,,,,6.3,
Wick,23/04/2017 19:00,8.3,23,,,0.2,,86,36,240,Light shower,1010,6,17,,,,6.2,
Wick,23/04/2017 20:00,7.7,26,,,0.2,,90,33,260,Rain,1010,5,30,,,,6.3,
Wick,23/04/2017 21:00,6.5,28,,,0,,89,40,270,Dry,1009,2,14,,,,4.9,
Wick,23/04/2017 22:00,6.1,30,,,0,,88,49,280,Dry,1008,1,19,,,,4.4,
Wick,23/04/2017 23:00,4.4,29,,,0,,91,39,330,Rain,1011,1,7,,,,3.2,
Wick,24/04/2017 00:00,3.3,18,,,0,0.4,87,36,320,Dry,1012,3,26,,,,1.5,
Wick,24/04/2017 01:00,2.6,13,,,0,,91,,330,Precipitation,1013,3,29,,,,1.3,
Wick,24/04/2017 02:00,1.3,9,,,0,,93,,320,Dry,1013,1,45,,,,0.4,
Wick,24/04/2017 03:00,1.1,6,,,0,,95,,270,Dry,1013,3,40,,,,0.4,
Wick,24/04/2017 04:00,1.8,3,,,0,,94,,300,Rain,1012,7,40,,,,1,
Wick,24/04/2017 05:00,1.8,6,,,0,,95,,240,Dry,1012,8,40,,,,1.2,
Wick,24/04/2017 06:00,1.6,13,0.9,,0.2,0.2,96,,270,Light shower,1011,1,10,,,,1.1,
Wick,24/04/2017 07:00,0.5,5,,,0.6,,98,,250,Light snow,1011,3,6,,,,0.3,
Wick,24/04/2017 08:00,1,1,,,0.6,,99,,240,Light sleet,1010,7,3,,,,0.9,
Wick,24/04/2017 09:00,2.2,6,,,0.4,,98,,20,Snow,1010,6,17,,,,2,
Wick,24/04/2017 10:00,0.4,13,,,0.6,,99,,30,Light snow,1011,2,2,,,,0.3,
Wick,24/04/2017 11:00,1.1,15,,,1.2,,100,,20,Moderate snow,1011,6,7,,,,1.1,
Wick,24/04/2017 12:00,1,26,,,2.2,6,97,33,360,Moderate snow,1012,7,4,,,,0.7,
Wick,24/04/2017 13:00,2.6,21,,,2.4,,86,33,340,Snow,1012,2,20,,,,0.6,
Wick,24/04/2017 14:00,4.4,15,,,0,,83,,320,Dry,1012,1,35,,,,1.9,
Wick,24/04/2017 15:00,4.8,17,,,0,,60,,330,Dry,1012,3,23,,,,-2.3,
Wick,24/04/2017 16:00,3.8,16,,,0,,72,29,280,Dry,1011,3,30,,,,-0.6,
Wick,24/04/2017 17:00,1.7,10,,,0,,90,,250,Moderate shower,1011,2,12,,,,0.3,
Wick,24/04/2017 18:00,0.8,5,,5.5,0,2,97,,340,Moderate shower,1012,1,40,,,,0.4,
Wick,24/04/2017 19:00,2.5,12,,,0.4,,79,,340,Rain,1012,1,50,,,,-0.6,
Wick,24/04/2017 20:00,1.9,22,,,0,,78,30,350,Dry,1013,1,50,,,,-1.4,
Wick,24/04/2017 21:00,0.8,12,,,0,,86,,310,Dry,1013,0,40,,,,-1.2,
Wick,24/04/2017 22:00,1.5,21,,,0.4,,95,31,330,Moderate shower,1013,5,5,,,,0.8,
Wick,24/04/2017 23:00,2,23,,,0.8,,96,33,340,Moderate shower,1013,3,13,,,,1.5,
Wick,25/04/2017 00:00,2.7,15,,,0,2,92,,320,Rain,1013,2,18,,,,1.6,
Wick,25/04/2017 01:00,3.4,29,,,0,,84,44,340,Heavy shower,1013,1,11,,,,1.1,
Wick,25/04/2017 02:00,1.8,37,,,0.2,,93,48,340,Moderate drizzle,1013,1,3,,,,0.8,
Wick,25/04/2017 03:00,2.7,32,,,0.2,,91,45,350,Light shower,1013,2,21,,,,1.4,
Wick,25/04/2017 04:00,3.2,30,,,0,,88,43,340,Rain,1013,1,19,,,,1.5,
Wick,25/04/2017 05:00,3.7,28,,,0.2,,87,38,340,Rain,1013,2,12,,,,1.8,
Wick,25/04/2017 06:00,4,33,0.4,,0.2,0,84,48,350,Light shower,1014,1,13,,,,1.6,
Wick,25/04/2017 07:00,2.8,32,,,0.2,,93,45,10,Moderate shower,1015,3,12,,,,1.9,
Wick,25/04/2017 08:00,4.7,24,,,0.2,,90,46,350,Rain,1015,1,14,,,,3.3,
Wick,25/04/2017 09:00,5.5,35,,,0,,76,45,350,Dry,1016,3,21,,,,1.7,
Wick,25/04/2017 10:00,5.6,32,,,0,,82,48,340,Rain,1016,1,20,,,,2.9,
Wick,25/04/2017 11:00,4.1,29,,,1,,95,44,350,Light sleet,1017,4,13,,,,3.5,
Wick,25/04/2017 12:00,6.3,30,,,0.2,2,74,43,350,Rain,1017,2,17,,,,2.1,
Wick,25/04/2017 13:00,6.7,30,,,0,,67,43,350,Dry,1018,3,27,,,,1.1,
Wick,25/04/2017 14:00,6.2,29,,,0,,64,41,350,Dry,1018,3,18,,,,0.1,
Wick,25/04/2017 15:00,6.7,29,,,0,,64,39,340,Dry,1019,7,17,,,,0.4,
Wick,25/04/2017 16:00,7,26,,,0,,66,40,340,Rain,1019,1,19,,,,1.1,
Wick,25/04/2017 17:00,5.4,26,,,0,,63,39,350,Dry,1020,3,23,,,,-1,
Wick,25/04/2017 18:00,4.6,22,,8.1,0,0,66,37,340,Rain,1020,2,15,,,,-1.1,
Wick,25/04/2017 19:00,3.9,25,,,0,,70,36,340,Dry,1020,7,21,,,,-1,
Wick,25/04/2017 20:00,2.8,16,,,0,,78,30,320,Rain,1021,7,17,,,,-0.6,
Wick,25/04/2017 21:00,3.7,20,,,0,,75,29,340,Dry,1021,7,26,,,,-0.3,
Wick,25/04/2017 22:00,3.4,16,,,0,,77,31,330,Dry,1021,7,25,,,,-0.2,
Wick,25/04/2017 23:00,3.5,18,,,0,,77,,350,Rain,1021,7,29,,,,-0.1,
Wick,26/04/2017 00:00,2.9,16,,,0,0,80,,330,Dry,1021,8,28,,,,-0.2,
Wick,26/04/2017 01:00,3,13,,,0,,77,,320,Dry,1020,8,26,,,,-0.5,
Wick,26/04/2017 02:00,3.2,14,,,0,,78,,330,Dry,1021,7,30,,,,-0.1,
Wick,26/04/2017 03:00,2.7,13,,,0,,85,30,330,Light shower,1020,1,26,,,,0.5,
Wick,26/04/2017 04:00,2.4,9,,,0,,80,,310,Rain,1020,1,35,,,,-0.6,
Wick,26/04/2017 05:00,0.8,8,,,0,,80,,310,Dry,1020,2,40,,,,-2.1,
Wick,26/04/2017 06:00,2.7,9,0.8,,0,0,78,,310,Dry,1020,7,40,,,,-0.6,
Wick,26/04/2017 07:00,2.5,13,,,0,,89,,310,Precipitation,1020,1,5,,,,0.9,
Wick,26/04/2017 08:00,3.9,8,,,0,,84,,310,Dry,1020,7,30,,,,1.5,
Wick,26/04/2017 09:00,4.6,10,,,0.4,,79,,330,Rain,1020,2,40,,,,1.4,
Wick,26/04/2017 10:00,4,13,,,0,,81,,320,Light shower,1020,1,14,,,,1.2,
Wick,26/04/2017 11:00,6.6,14,,,0.2,,69,,310,Rain,1020,6,45,,,,1.5,
Wick,26/04/2017 12:00,7,14,,,0,0.6,65,,310,Dry,1020,7,40,,,,0.9,
Wick,26/04/2017 13:00,7.2,17,,,0,,70,,280,Dry,1020,3,20,,,,2.2,
Wick,26/04/2017 14:00,7.7,16,,,0,,74,,310,Dry,1019,2,23,,,,3.4,
Wick,26/04/2017 15:00,8.3,14,,,0,,64,,290,Dry,1019,3,35,,,,1.9,
Wick,26/04/2017 16:00,7.8,17,,,0,,69,,290,Dry,1019,1,30,,,,2.6,
Wick,26/04/2017 17:00,7.2,16,,,0,,78,,290,Rain,1018,1,30,,,,3.8,
Wick,26/04/2017 18:00,6.5,16,,9.1,0,0,93,,290,Light drizzle,1018,5,10,,,,5.6,
Wick,26/04/2017 19:00,6.3,15,,,0.2,,93,,270,Rain,1017,1,10,,,,5.4,
Wick,26/04/2017 20:00,6.4,17,,,0,,97,,270,Light drizzle,1016,4,10,,,,6,
Wick,26/04/2017 21:00,7.2,21,,,0.2,,94,31,290,Rain,1016,3,8,,,,6.4,
Wick,26/04/2017 22:00,6.7,23,,,0.2,,93,32,290,Light shower,1016,2,7,,,,5.8,
Wick,26/04/2017 23:00,6.3,23,,,0.2,,93,33,290,Rain,1015,6,24,,,,5.4,
Wick,27/04/2017 00:00,6.6,18,,,0,0.8,93,29,290,Dry,1015,6,17,,,,5.6,
Wick,27/04/2017 01:00,6.7,20,,,0,,92,,290,Rain,1014,1,12,,,,5.6,
Wick,27/04/2017 02:00,6.8,20,,,0,,93,31,290,Rain,1014,1,12,,,,5.8,
Wick,27/04/2017 03:00,6.8,22,,,0,,94,30,290,Light shower,1014,1,12,,,,6,
Wick,27/04/2017 04:00,7,21,,,0,,93,31,290,Light drizzle,1013,1,8,,,,6.1,
Wick,27/04/2017 05:00,7.4,21,,,0,,92,,300,Drizzle,1013,3,10,,,,6.3,
Wick,27/04/2017 06:00,7.7,22,6.2,,0,0,94,29,300,Drizzle,1013,2,6,,,,6.9,
Wick,27/04/2017 07:00,7.9,23,,,0.2,,90,32,320,Drizzle,1013,3,14,,,,6.5,
Wick,27/04/2017 08:00,7.4,22,,,0,,87,32,340,Dry,1014,7,17,,,,5.5,
Wick,27/04/2017 09:00,6.5,29,,,0,,81,39,330,Dry,1014,4,25,,,,3.6,
Wick,27/04/2017 10:00,6.9,21,,,0,,83,32,340,Dry,1015,1,40,,,,4.3,
Wick,27/04/2017 11:00,6.7,23,,,0,,84,31,320,Rain,1015,5,22,,,,4.2,
Wick,27/04/2017 12:00,6.7,22,,,0,0.2,75,30,340,Rain,1016,7,17,,,,2.6,
Wick,27/04/2017 13:00,6.7,17,,,0,,75,29,320,Dry,1016,7,30,,,,2.6,
Wick,27/04/2017 14:00,6.8,18,,,0,,75,,330,Dry,1016,7,26,,,,2.8,
Wick,27/04/2017 15:00,7.3,17,,,0,,74,,310,Dry,1016,7,27,,,,3.1,
Wick,27/04/2017 16:00,7.5,17,,,0,,74,,310,Dry,1016,7,25,,,,3.3,
Wick,27/04/2017 17:00,7.6,18,,,0,,69,,320,Dry,1017,7,29,,,,2.4,
Wick,27/04/2017 18:00,6.6,18,,8.1,0,0,79,,320,Light shower,1017,2,11,,,,3.4,
Wick,27/04/2017 19:00,5.6,16,,,0,,89,,320,Rain,1017,2,40,,,,4,
Wick,27/04/2017 20:00,5.3,13,,,0,,91,,310,Dry,1017,4,45,,,,4.1,
Wick,27/04/2017 21:00,4.5,10,,,0,,93,,300,Dry,1018,7,50,,,,3.6,
Wick,27/04/2017 22:00,5.1,10,,,0,,94,,300,Light shower,1018,2,19,,,,4.3,
Wick,27/04/2017 23:00,4.6,7,,,0,,95,,280,Rain,1018,7,45,,,,3.9,
Wick,28/04/2017 00:00,4.1,6,,,0.2,0.2,95,,310,Rain,1018,2,45,,,,3.5,
Wick,28/04/2017 01:00,4,9,,,0.6,,95,,260,Rain,1018,2,40,,,,3.4,
Wick,28/04/2017 02:00,4.4,8,,,0,,96,,290,Light shower,1017,1,40,,,,3.9,
Wick,28/04/2017 03:00,3.7,9,,,0,,96,,270,Rain,1017,2,40,,,,3.2,
Wick,28/04/2017 04:00,3.7,5,,,0.4,,97,,280,Light shower,1017,2,19,,,,3.4,
Wick,28/04/2017 05:00,3,6,,,0,,97,,260,Rain,1017,2,35,,,,2.7,
Wick,28/04/2017 06:00,3.1,2,2.5,,0,0.8,99,,270,Dry,1017,7,40,,,,3,
Wick,28/04/2017 07:00,5.2,3,,,0,,99,,270,Dry,1017,5,30,,,,5.1,
Wick,28/04/2017 08:00,6.6,7,,,0,,78,,100,Dry,1017,6,25,,,,3.2,
Wick,28/04/2017 09:00,7.4,7,,,0,,68,,110,Dry,1016,2,30,,,,2,
Wick,28/04/2017 10:00,7.9,8,,,0,,60,,110,Dry,1016,5,26,,,,0.7,
Wick,28/04/2017 11:00,7.8,7,,,0,,60,,100,Dry,1016,8,40,,,,0.6,
Wick,28/04/2017 12:00,8.1,8,,,0,0,61,,120,Dry,1016,8,29,,,,1.2,
Wick,28/04/2017 13:00,7.8,10,,,0,,60,,100,Dry,1016,8,20,,,,0.6,
Wick,28/04/2017 14:00,8.7,10,,,0,,61,,130,Dry,1015,7,15,,,,1.7,
Wick,28/04/2017 15:00,8,12,,,0,,60,,130,Dry,1015,1,30,,,,0.8,
Wick,28/04/2017 16:00,7.7,10,,,0,,63,,120,Dry,1014,1,45,,,,1.2,
Wick,28/04/2017 17:00,7.9,12,,,0,,63,,130,Dry,1014,2,35,,,,1.3,
Wick,28/04/2017 18:00,7,10,,9,0,0,66,,130,Dry,1014,8,40,,,,1.1,
Wick,28/04/2017 19:00,6.8,13,,,0,,67,,120,Dry,1014,8,45,,,,1.2,
Wick,28/04/2017 20:00,6.7,13,,,0,,70,,130,Dry,1014,8,45,,,,1.8,
Wick,28/04/2017 21:00,6.7,14,,,0,,71,,130,Dry,1014,8,45,,,,1.9,
Wick,28/04/2017 22:00,6.5,15,,,0,,73,,140,Light shower,1013,8,40,,,,2.2,
Wick,28/04/2017 23:00,6.6,15,,,0,,72,,140,Rain,1013,8,40,,,,2,
Wick,29/04/2017 00:00,6.4,14,,,0,0,84,,140,Dry,1013,1,29,,,,3.9,
Wick,29/04/2017 01:00,6.3,17,,,0,,86,,140,Dry,1012,3,26,,,,4.2,
Wick,29/04/2017 02:00,6.5,15,,,0,,88,,140,Dry,1012,2,30,,,,4.7,
Wick,29/04/2017 03:00,6.6,14,,,0,,86,,160,Dry,1012,6,27,,,,4.5,
Wick,29/04/2017 04:00,6.7,9,,,0,,86,,160,Dry,1012,5,28,,,,4.6,
Wick,29/04/2017 05:00,6.5,12,,,0,,87,,150,Dry,1012,2,40,,,,4.6,
Wick,29/04/2017 06:00,6.8,10,6.2,,0,0,87,,160,Dry,1012,7,30,,,,4.9,
Wick,29/04/2017 07:00,7.3,14,,,0,,85,,150,Dry,1012,3,22,,,,5.1,
Wick,29/04/2017 08:00,8,15,,,0,,87,,140,Dry,1012,5,20,,,,6.1,
Wick,29/04/2017 09:00,8,17,,,0,,87,,140,Dry,1012,1,19,,,,6.1,
Wick,29/04/2017 10:00,8.4,18,,,0,,87,29,130,Dry,1012,8,22,,,,6.4,
Wick,29/04/2017 11:00,9.6,21,,,0,,82,29,130,Dry,1012,7,13,,,,6.8,
Wick,29/04/2017 12:00,9.1,21,,,0,0,84,33,130,Dry,1012,3,15,,,,6.7,
Wick,29/04/2017 13:00,9.7,20,,,0,,80,30,130,Haze,1012,2,9,,,,6.6,
Wick,29/04/2017 14:00,9,18,,,0,,82,31,130,Dry,1012,7,13,,,,6.2,
Wick,29/04/2017 15:00,8.8,20,,,0,,86,29,130,Dry,1011,8,14,,,,6.6,
Wick,29/04/2017 16:00,9.3,18,,,0,,77,30,140,Dry,1011,8,19,,,,5.6,
Wick,29/04/2017 17:00,8.9,21,,,0,,84,30,130,Dry,1011,7,18,,,,6.5,
Wick,29/04/2017 18:00,8.5,21,,10.2,0,0,86,31,140,Dry,1011,8,16,,,,6.4,
Wick,29/04/2017 19:00,8.1,18,,,0,,88,31,140,Dry,1011,8,12,,,,6.3,
Wick,29/04/2017 20:00,8,21,,,0,,88,31,140,Dry,1011,8,12,,,,6.3,
Wick,29/04/2017 21:00,7.8,18,,,0,,92,33,140,Haze,1012,1,10,,,,6.6,
Wick,29/04/2017 22:00,7.9,21,,,0,,93,,130,Misty,1012,3,8,,,,6.9,
Wick,29/04/2017 23:00,7.9,18,,,0,,92,30,130,Haze,1012,3,9,,,,6.8,
Wick,30/04/2017 00:00,7.9,18,,,0,0,91,,130,Dry,1012,7,10,,,,6.6,
Wick,30/04/2017 01:00,7.8,17,,,0,,91,29,130,Dry,1012,1,11,,,,6.5,
Wick,30/04/2017 02:00,7.8,16,,,0,,94,,130,Misty,1011,7,8,,,,6.9,
Wick,30/04/2017 03:00,8,14,,,0,,94,,130,Haze,1011,4,8,,,,7.1,
Wick,30/04/2017 04:00,8,20,,,0,,94,,130,Misty,1011,2,7,,,,7.1,
Wick,30/04/2017 05:00,8,18,,,0,,94,29,130,Misty,1011,1,8,,,,7.1,
Wick,30/04/2017 06:00,7.9,21,7.6,,0,0,94,29,120,Misty,1011,4,8,,,,7.1,
Wick,30/04/2017 07:00,7.9,21,,,0,,93,31,130,Haze,1011,8,9,,,,6.9,
Wick,30/04/2017 08:00,7.8,20,,,0,,91,32,130,Haze,1011,8,10,,,,6.5,
Wick,30/04/2017 09:00,8.1,21,,,0,,89,30,130,Haze,1011,8,10,,,,6.4,
Wick,30/04/2017 10:00,8.7,20,,,0,,88,31,130,Haze,1011,8,10,,,,6.9,
Wick,30/04/2017 11:00,9.1,18,,,0,,84,31,130,Dry,1011,1,10,,,,6.7,
Wick,30/04/2017 12:00,9.5,18,,,0,0,82,,130,Dry,1011,7,12,,,,6.7,
Wick,30/04/2017 13:00,8.8,21,,,0,,83,29,120,Dry,1011,1,11,,,,6.2,
Wick,30/04/2017 14:00,9.3,20,,,0,,78,29,120,Dry,1011,1,12,,,,5.8,
Wick,30/04/2017 15:00,9.5,20,,,0,,75,30,120,Dry,1011,7,19,,,,5.4,
Wick,30/04/2017 16:00,8.7,21,,,0,,74,32,130,Dry,1010,3,25,,,,4.5,
Wick,30/04/2017 17:00,8.2,25,,,0,,80,33,130,Dry,1010,1,19,,,,5,
Wick,30/04/2017 18:00,8.1,17,,10,0,0,86,32,120,Dry,1010,2,14,,,,6,
Wick,30/04/2017 19:00,7.9,17,,,0,,85,,110,Dry,1010,0,12,,,,5.6,
Wick,30/04/2017 20:00,7.6,20,,,0,,85,32,120,Dry,1011,0,13,,,,5.4,
Wick,30/04/2017 21:00,7.8,22,,,0,,83,31,120,Dry,1011,6,13,,,,5.2,
Wick,30/04/2017 22:00,7.8,21,,,0,,85,33,130,Dry,1011,8,11,,,,5.6,
Wick,30/04/2017 23:00,7.7,22,,,0,,85,33,120,Dry,1011,7,11,,,,5.5,
Wick,01/05/2017 00:00,7.8,21,,,0,0,87,31,120,Dry,1012,8,10,,,,5.9,
Wick,01/05/2017 01:00,7.9,20,,,0,,88,29,120,Dry,1012,8,11,,,,6.1,
Wick,01/05/2017 02:00,7.7,17,,,0,,89,,120,Dry,1012,7,10,,,,6.1,
Wick,01/05/2017 03:00,7.8,17,,,0,,90,,120,Dry,1012,8,10,,,,6.3,
Wick,01/05/2017 04:00,7.6,14,,,0,,92,,120,Haze,1012,7,8,,,,6.4,
Wick,01/05/2017 05:00,7.7,13,,,0,,92,,120,Haze,1012,8,9,,,,6.5,
Wick,01/05/2017 06:00,8.1,16,7.5,,0,0,89,,120,Haze,1013,7,9,,,,6.5,
Wick,01/05/2017 07:00,8.8,14,,,0,,86,,110,Haze,1013,7,10,,,,6.7,
Wick,01/05/2017 08:00,9.4,16,,,0,,84,,130,Haze,1014,8,10,,,,6.9,
Wick,01/05/2017 09:00,8.8,15,,,0,,86,,130,Dry,1015,8,10,,,,6.6,
Wick,01/05/2017 10:00,9,18,,,0,,84,,120,Haze,1015,8,11,,,,6.6,
Wick,01/05/2017 11:00,9.2,20,,,0,,84,30,120,Haze,1015,8,10,,,,6.8,
Wick,01/05/2017 12:00,10,22,,,0,0,79,31,120,Haze,1015,8,10,,,,6.7,
Wick,01/05/2017 13:00,9.8,23,,,0,,80,32,110,Haze,1016,6,8,,,,6.6,
Wick,01/05/2017 14:00,9.9,20,,,0,,81,30,120,Haze,1016,8,7,,,,6.9,
Wick,01/05/2017 15:00,9.1,17,,,0,,80,,130,Dry,1017,8,10,,,,6,
Wick,01/05/2017 16:00,8.7,15,,,0,,83,,130,Haze,1018,8,7,,,,6,
Wick,01/05/2017 17:00,8.8,15,,,0,,83,,120,Haze,1018,8,12,,,,6.2,
Wick,01/05/2017 18:00,8.4,20,,10.6,0,0,82,,120,Dry,1018,8,10,,,,5.6,
Wick,01/05/2017 19:00,8,20,,,0,,84,,130,Dry,1018,8,12,,,,5.5,
Wick,01/05/2017 20:00,7.9,17,,,0,,84,29,130,Dry,1019,8,13,,,,5.5,
Wick,01/05/2017 21:00,7.9,16,,,0,,85,,130,Dry,1020,8,10,,,,5.6,
Wick,01/05/2017 22:00,8.1,13,,,0,,85,,140,Dry,1020,8,10,,,,5.8,
Wick,01/05/2017 23:00,8.1,15,,,0,,84,,130,Dry,1021,8,12,,,,5.6,
Wick,02/05/2017 00:00,8,14,,,0,0,84,,140,Dry,1021,8,10,,,,5.6,
Wick,02/05/2017 01:00,8,10,,,0,,87,,150,Haze,1022,8,9,,,,6,
Wick,02/05/2017 02:00,7.6,10,,,0,,93,,130,Haze,1022,3,8,,,,6.6,
Wick,02/05/2017 03:00,7.7,13,,,0,,94,,130,Misty,1022,8,9,,,,6.8,
Wick,02/05/2017 04:00,7.9,13,,,0,,92,,120,Haze,1023,8,9,,,,6.8,
Wick,02/05/2017 05:00,8,14,,,0,,93,,130,Haze,1023,8,9,,,,7,
Wick,02/05/2017 06:00,8,12,7.5,,0,0,94,,130,Misty,1024,2,10,,,,7.2,
Wick,02/05/2017 07:00,8.7,12,,,0,,92,,130,Haze,1025,2,9,,,,7.5,
Wick,02/05/2017 08:00,9,12,,,0,,89,,120,Haze,1026,8,9,,,,7.4,
Wick,02/05/2017 09:00,9.3,13,,,0,,87,,120,Dry,1026,8,10,,,,7.4,
Wick,02/05/2017 10:00,9.8,13,,,0,,84,,120,Dry,1027,8,13,,,,7.4,
Wick,02/05/2017 11:00,10.2,14,,,0,,82,,120,Dry,1027,1,11,,,,7.4,
Wick,02/05/2017 12:00,10.2,15,,,0,0,81,,110,Haze,1028,1,10,,,,7.2,
Wick,02/05/2017 13:00,10.8,15,,,0,,80,,110,Haze,1028,1,20,,,,7.6,
Wick,02/05/2017 14:00,10.2,15,,,0,,82,,110,Dry,1028,1,22,,,,7.3,
Wick,02/05/2017 15:00,10.4,16,,,0,,81,,110,Dry,1028,1,19,,,,7.4,
Wick,02/05/2017 16:00,10.4,15,,,0,,82,,110,Dry,1029,1,11,,,,7.6,
Wick,02/05/2017 17:00,9.9,14,,,0,,85,,110,Dry,1029,1,11,,,,7.5,
Wick,02/05/2017 18:00,9.2,12,,11,0,0,86,,110,Dry,1030,1,14,,,,7.1,
Wick,02/05/2017 19:00,8.7,9,,,0,,87,,110,Dry,1030,5,10,,,,6.8,
Wick,02/05/2017 20:00,8.2,9,,,0,,91,,120,Dry,1031,7,10,,,,6.9,
Wick,02/05/2017 21:00,8.2,9,,,0,,92,,120,Dry,1031,7,12,,,,7,
Wick,02/05/2017 22:00,8,9,,,0,,91,,130,Dry,1032,8,11,,,,6.7,
Wick,02/05/2017 23:00,7.8,9,,,0,,93,,130,Dry,1032,5,12,,,,6.8,
Wick,03/05/2017 00:00,7.4,6,,,0,0,94,,130,Dry,1032,7,10,,,,6.6,
Wick,03/05/2017 01:00,7.6,9,,,0,,94,,120,Dry,1033,8,11,,,,6.8,
Wick,03/05/2017 02:00,7.1,10,,,0,,92,,120,Dry,1033,7,12,,,,6,
Wick,03/05/2017 03:00,6.9,8,,,0,,93,,120,Dry,1033,7,13,,,,5.9,
Wick,03/05/2017 04:00,6.9,7,,,0,,93,,120,Dry,1033,7,15,,,,5.9,
Wick,03/05/2017 05:00,6.3,5,,,0,,94,,110,Dry,1034,2,12,,,,5.5,
Wick,03/05/2017 06:00,6.8,3,6,,0,0,92,,90,Dry,1034,0,12,,,,5.7,
Wick,03/05/2017 07:00,8.6,5,,,0,,84,,80,Dry,1034,0,28,,,,6.1,
Wick,03/05/2017 08:00,9.2,7,,,0,,82,,60,Dry,1035,1,22,,,,6.3,
Wick,03/05/2017 09:00,10.3,9,,,0,,73,,50,Dry,1035,0,23,,,,5.7,
Wick,03/05/2017 10:00,11,8,,,0,,56,,70,Dry,1035,0,50,,,,2.6,
Wick,03/05/2017 11:00,10.4,9,,,0,,71,,80,Dry,1036,0,40,,,,5.5,
Wick,03/05/2017 12:00,11.1,8,,,0,0,62,,80,Dry,1036,0,30,,,,4.3,
Wick,03/05/2017 13:00,11.1,8,,,0,,60,,60,Dry,1036,0,40,,,,3.7,
Wick,03/05/2017 14:00,12.1,8,,,0,,57,,60,Dry,1036,0,30,,,,4,
Wick,03/05/2017 15:00,11.8,8,,,0,,60,,30,Dry,1036,0,50,,,,4.5,
Wick,03/05/2017 16:00,10.3,12,,,0,,76,,40,Dry,1035,0,45,,,,6.3,
Wick,03/05/2017 17:00,10.2,10,,,0,,76,,30,Dry,1035,0,22,,,,6.3,
Wick,03/05/2017 18:00,9.2,9,,12.2,0,0,87,,40,Dry,1036,0,26,,,,7.3,
Wick,03/05/2017 19:00,8.7,10,,,0,,89,,50,Dry,1035,0,19,,,,7.1,
Wick,03/05/2017 20:00,8.2,8,,,0,,92,,40,Dry,1035,0,14,,,,7,
Wick,03/05/2017 21:00,7.2,7,,,0,,94,,20,Dry,1036,1,12,,,,6.4,
Wick,03/05/2017 22:00,7.4,8,,,0,,94,,40,Dry,1036,7,11,,,,6.6,
Wick,03/05/2017 23:00,7.2,8,,,0,,92,,40,Dry,1036,8,13,,,,6,
Wick,04/05/2017 00:00,7,10,,,0,0,87,,30,Dry,1036,8,17,,,,5,
Wick,04/05/2017 01:00,6.6,0,,,0,,86,,0,Dry,1036,7,16,,,,4.5,
Wick,04/05/2017 02:00,7,0,,,0,,82,,0,Dry,1035,8,19,,,,4.2,
Wick,04/05/2017 03:00,7,0,,,0,,82,,0,Dry,1035,8,16,,,,4.3,
Wick,04/05/2017 04:00,6.7,0,,,0,,81,,0,Dry,1035,8,18,,,,3.8,
Wick,04/05/2017 05:00,6.9,0,,,0,,79,,0,Dry,1035,8,17,,,,3.6,
Wick,04/05/2017 06:00,7,0,6,,0,0,78,,0,Dry,1035,8,17,,,,3.6,
Wick,04/05/2017 07:00,7.3,0,,,0,,77,,0,Dry,1036,8,20,,,,3.7,
Wick,04/05/2017 08:00,7.5,0,,,0,,77,,0,Dry,1036,8,20,,,,3.8,
Wick,04/05/2017 09:00,8,0,,,0,,75,,0,Dry,1036,8,13,,,,4,
Wick,04/05/2017 10:00,7.9,0,,,0,,72,,0,Dry,1036,8,14,,,,3.3,
Wick,04/05/2017 11:00,8.4,0,,,0,,73,,0,Dry,1036,3,15,,,,3.9,
Wick,04/05/2017 12:00,8.2,0,,,0,0,74,,0,Dry,1036,1,18,,,,4,
Wick,04/05/2017 13:00,9,9,,,0,,75,,90,Dry,1036,1,17,,,,5,
Wick,04/05/2017 14:00,8.9,9,,,0,,77,,70,Dry,1036,0,13,,,,5.2,
Wick,04/05/2017 15:00,9,9,,,0,,77,,70,Dry,1036,0,17,,,,5.3,
Wick,04/05/2017 16:00,9.2,13,,,0,,78,,50,Dry,1036,0,14,,,,5.7,
Wick,04/05/2017 17:00,8.8,12,,,0,,81,,60,Dry,1036,1,18,,,,5.8,
Wick,04/05/2017 18:00,8.9,9,,9.8,0,0,84,,70,Dry,1036,1,12,,,,6.5,
Wick,04/05/2017 19:00,8.4,8,,,0,,88,,60,Dry,1036,1,14,,,,6.6,
Wick,04/05/2017 20:00,7.4,7,,,0,,93,,50,Dry,1037,2,12,,,,6.4,
Wick,04/05/2017 21:00,5.8,6,,,0,,95,,40,Misty,1037,5,9,,,,5.1,
Wick,04/05/2017 22:00,7.7,6,,,0,,95,,60,Dry,1037,8,12,,,,7.1,
Wick,04/05/2017 23:00,6.5,5,,,0,,93,,50,Dry,1036,7,12,,,,5.5,
Wick,05/05/2017 00:00,5.8,3,,,0,0,97,,20,Misty,1036,2,5,,,,5.4,
Wick,05/05/2017 01:00,3.1,5,,,0,,96,,260,Thickening fog,1036,4,0,,,,2.6,
Wick,05/05/2017 02:00,4.3,6,,,0,,99,,320,Fog,1036,7,1,,,,4.2,
Wick,05/05/2017 03:00,5.6,7,,,0,,100,,320,Fog,1035,8,2,,,,5.6,
Wick,05/05/2017 04:00,5.5,8,,,0,,100,,340,Fog,1035,7,2,,,,5.5,
Wick,05/05/2017 05:00,4.7,7,,,0,,100,,310,Thickening fog,1035,9,0,,,,4.7,
Wick,05/05/2017 06:00,5.8,7,2.9,,0,0,100,,310,Fog thinning,1035,9,0,,,,5.8,
Wick,05/05/2017 07:00,6.5,6,,,0,,100,,310,Fog,1034,8,7,,,,6.5,
Wick,05/05/2017 08:00,7.4,14,,,0,,98,,10,Dry,1034,1,21,,,,7.2,
Wick,05/05/2017 09:00,8.4,8,,,0,,92,,30,Dry,1034,4,18,,,,7.2,
Wick,05/05/2017 10:00,9.4,10,,,0,,82,,40,Dry,1034,1,30,,,,6.6,
Wick,05/05/2017 11:00,9.8,10,,,0,,79,,50,Dry,1033,1,20,,,,6.5,
Wick,05/05/2017 12:00,9.6,12,,,0,0,76,,40,Dry,1032,1,30,,,,5.6,
Wick,05/05/2017 13:00,9.6,13,,,0,,72,,40,Dry,1032,1,15,,,,5,
Wick,05/05/2017 14:00,9.6,13,,,0,,74,,40,Dry,1031,7,17,,,,5.3,
Wick,05/05/2017 15:00,9.6,13,,,0,,76,,30,Dry,1031,8,21,,,,5.7,
Wick,05/05/2017 16:00,9.2,13,,,0,,76,,50,Dry,1030,8,22,,,,5.3,
Wick,05/05/2017 17:00,8.7,10,,,0,,75,,60,Dry,1030,8,30,,,,4.7,
Wick,05/05/2017 18:00,8.2,9,,10.5,0,0,78,,90,Dry,1029,7,18,,,,4.7,
Wick,05/05/2017 19:00,7.8,8,,,0,,82,,70,Dry,1029,5,22,,,,5,
Wick,05/05/2017 20:00,6.8,9,,,0,,89,,60,Dry,1028,3,19,,,,5.2,
Wick,05/05/2017 21:00,7.4,9,,,0,,88,,80,Dry,1028,7,16,,,,5.7,
Wick,05/05/2017 22:00,7.2,6,,,0,,90,,60,Dry,1028,8,15,,,,5.8,
Wick,05/05/2017 23:00,6.9,7,,,0,,90,,50,Dry,1028,8,17,,,,5.5,
Wick,06/05/2017 00:00,6.6,7,,,0,0,92,,30,Dry,1028,8,16,,,,5.5,
Wick,06/05/2017 01:00,5.7,8,,,0,,93,,20,Dry,1027,8,14,,,,4.8,
Wick,06/05/2017 02:00,5.8,8,,,0,,96,,350,Dry,1027,8,12,,,,5.3,
Wick,06/05/2017 03:00,5.6,8,,,0,,96,,320,Dry,1026,8,12,,,,5.1,
Wick,06/05/2017 04:00,4.7,7,,,0,,95,,280,Misty,1026,8,8,,,,4.1,
Wick,06/05/2017 05:00,5.4,6,,,0,,98,,300,Misty,1025,8,8,,,,5.2,
Wick,06/05/2017 06:00,6.1,7,4.2,,0,0,97,,310,Misty,1025,2,11,,,,5.8,
Wick,06/05/2017 07:00,7,9,,,0,,96,,300,Dry,1024,2,13,,,,6.5,
Wick,06/05/2017 08:00,8.4,10,,,0,,89,,340,Dry,1024,7,15,,,,6.8,
Wick,06/05/2017 09:00,8.7,12,,,0,,87,,10,Dry,1024,8,26,,,,6.7,
Wick,06/05/2017 10:00,8.9,12,,,0,,86,,10,Dry,1024,8,19,,,,6.8,
Wick,06/05/2017 11:00,8.6,8,,,0,,94,,340,Haze,1024,7,5,,,,7.7,
Wick,06/05/2017 12:00,8.9,12,,,0,0,96,,10,Misty,1024,8,2,,,,8.4,
Wick,06/05/2017 13:00,11.6,10,,,0,,84,,10,Dry,1023,2,25,,,,9.1,
Wick,06/05/2017 14:00,12.8,15,,,0,,71,,10,Dry,1023,0,30,,,,7.8,
Wick,06/05/2017 15:00,13.4,14,,,0,,73,,10,Dry,1023,0,16,,,,8.8,
Wick,06/05/2017 16:00,13.3,13,,,0,,68,,10,Dry,1022,0,29,,,,7.6,
Wick,06/05/2017 17:00,12.6,14,,,0,,72,,20,Dry,1022,0,30,,,,7.7,
Wick,06/05/2017 18:00,10.2,15,,13.8,0,0,86,,20,Dry,1022,0,14,,,,8,
Wick,06/05/2017 19:00,8.5,14,,,0,,95,,20,Misty,1022,7,6,,,,7.8,
Wick,06/05/2017 20:00,8,13,,,0,,99,,10,Thickening fog,1023,9,1,,,,7.9,
Wick,06/05/2017 21:00,8.2,7,,,0,,100,,20,Thickening fog,1023,9,0,,,,8.2,
Wick,06/05/2017 22:00,8,12,,,0,,100,,340,Fog,1023,8,1,,,,8,
Wick,06/05/2017 23:00,7.6,13,,,0,,100,,340,Misty,1023,7,17,,,,7.6,
Wick,07/05/2017 00:00,7.4,13,,,0,0,100,,350,Misty,1023,7,10,,,,7.4,
Wick,07/05/2017 01:00,7.4,12,,,0.2,,99,,350,Dry,1023,7,45,,,,7.3,
Wick,07/05/2017 02:00,7.1,14,,,0,,98,,350,Dry,1023,6,45,,,,6.9,
Wick,07/05/2017 03:00,7.2,12,,,0,,97,,350,Dry,1023,1,30,,,,6.9,
Wick,07/05/2017 04:00,7.1,14,,,0,,99,,10,Drizzle,1024,6,8,,,,7,
Wick,07/05/2017 05:00,6.9,17,,,0,,94,,10,Dry,1024,7,11,,,,6.1,
Wick,07/05/2017 06:00,6.8,17,6.8,,0,0.2,87,,10,Dry,1025,8,26,,,,4.9,
Wick,07/05/2017 07:00,6.9,18,,,0,,85,,10,Dry,1025,8,14,,,,4.7,
Wick,07/05/2017 08:00,7.2,18,,,0,,80,,10,Dry,1026,8,16,,,,4.1,
Wick,07/05/2017 09:00,7.8,17,,,0,,81,,10,Dry,1026,8,24,,,,4.8,
Wick,07/05/2017 10:00,8.1,20,,,0,,73,,10,Dry,1027,7,23,,,,3.6,
Wick,07/05/2017 11:00,8.7,17,,,0,,74,,20,Dry,1027,8,13,,,,4.5,
Wick,07/05/2017 12:00,9.5,21,,,0,0,70,,20,Dry,1028,7,21,,,,4.4,
Wick,07/05/2017 13:00,9.3,20,,,0,,72,,20,Dry,1028,7,16,,,,4.6,
Wick,07/05/2017 14:00,9.4,18,,,0,,68,,20,Dry,1028,7,19,,,,3.9,
Wick,07/05/2017 15:00,9.6,17,,,0,,75,,10,Dry,1029,7,14,,,,5.4,
Wick,07/05/2017 16:00,9.5,16,,,0,,74,,10,Dry,1029,7,17,,,,5.2,
Wick,07/05/2017 17:00,8.9,16,,,0,,76,,360,Dry,1029,8,19,,,,5,
Wick,07/05/2017 18:00,8.5,17,,10.4,0,0,75,,360,Dry,1030,8,21,,,,4.4,
Wick,07/05/2017 19:00,8.2,18,,,0,,76,,360,Dry,1030,8,15,,,,4.3,
Wick,07/05/2017 20:00,8,17,,,0,,77,,10,Dry,1030,8,17,,,,4.3,
Wick,07/05/2017 21:00,7.8,17,,,0,,76,,10,Dry,1031,8,20,,,,3.9,
Wick,07/05/2017 22:00,7.6,16,,,0,,76,,10,Dry,1032,8,17,,,,3.8,
Wick,07/05/2017 23:00,7.4,20,,,0,,72,30,20,Dry,1032,8,24,,,,2.8,
Wick,08/05/2017 00:00,7.4,15,,,0,0,74,,10,Dry,1032,8,22,,,,3.2,
Wick,08/05/2017 01:00,7.1,15,,,0,,73,,10,Dry,1032,8,18,,,,2.7,
Wick,08/05/2017 02:00,7.1,20,,,0,,73,,10,Dry,1033,8,19,,,,2.6,
Wick,08/05/2017 03:00,7.2,16,,,0,,75,,360,Dry,1033,8,17,,,,3.1,
Wick,08/05/2017 04:00,7.1,20,,,0,,69,,20,Dry,1033,8,17,,,,2,
Wick,08/05/2017 05:00,7.2,17,,,0,,74,,10,Dry,1033,8,22,,,,2.9,
Wick,08/05/2017 06:00,7.3,17,6.9,,0,0,72,,30,Dry,1034,8,22,,,,2.6,
Wick,08/05/2017 07:00,7.3,17,,,0,,74,,10,Dry,1034,8,15,,,,3,
Wick,08/05/2017 08:00,7.8,16,,,0,,69,,30,Dry,1035,8,21,,,,2.6,
Wick,08/05/2017 09:00,7.8,15,,,0,,72,,20,Dry,1035,8,18,,,,3.1,
Wick,08/05/2017 10:00,8,16,,,0,,71,,20,Dry,1035,8,19,,,,3.1,
Wick,08/05/2017 11:00,8.3,15,,,0,,71,,10,Dry,1035,7,20,,,,3.5,
Wick,08/05/2017 12:00,8.6,14,,,0,0,68,,20,Dry,,7,30,,,,3.2,
Wick,08/05/2017 13:00,8.8,13,,,0,,65,,30,Dry,1035,7,19,,,,2.6,
Wick,08/05/2017 14:00,8.6,10,,,0,,71,,10,Dry,1035,7,18,,,,3.7,
Wick,08/05/2017 15:00,8.7,9,,,0,,67,,30,Dry,1034,7,22,,,,3,
Wick,08/05/2017 16:00,8.5,10,,,0,,64,,40,Dry,1034,7,35,,,,2.2,
Wick,08/05/2017 17:00,8.3,9,,,0,,67,,30,Dry,1034,8,23,,,,2.7,
Wick,08/05/2017 18:00,8.3,12,,9.9,0,0,69,,20,Dry,1034,8,23,,,,3.1,
Wick,08/05/2017 19:00,7.7,10,,,0,,70,,360,Dry,1034,8,35,,,,2.6,
Wick,08/05/2017 20:00,7.3,10,,,0,,72,,360,Dry,1033,8,35,,,,2.7,
Wick,08/05/2017 21:00,6.7,7,,,0,,74,,340,Dry,1033,8,40,,,,2.4,
Wick,08/05/2017 22:00,6.4,8,,,0,,71,,360,Dry,1033,8,40,,,,1.7,
Wick,08/05/2017 23:00,5.4,8,,,0,,75,,310,Dry,1032,6,30,,,,1.5,
Wick,09/05/2017 00:00,5.8,7,,,0,0,76,,290,Dry,1031,8,35,,,,2,
Wick,09/05/2017 01:00,5.8,6,,,0,,74,,300,Dry,1031,8,50,,,,1.7,
Wick,09/05/2017 02:00,5.6,5,,,0,,77,,290,Dry,1030,8,40,,,,2,
Wick,09/05/2017 03:00,5.2,5,,,0,,81,,300,Dry,1029,8,35,,,,2.3,
Wick,09/05/2017 04:00,5.3,6,,,0,,82,,270,Dry,1029,8,45,,,,2.6,
Wick,09/05/2017 05:00,5.4,5,,,0,,82,,260,Dry,1028,8,35,,,,2.6,
Wick,09/05/2017 06:00,5.9,6,4.7,,0,0,78,,260,Dry,1027,8,35,,,,2.4,
Wick,09/05/2017 07:00,6.5,7,,,0,,73,,260,Dry,1026,8,40,,,,2.2,
Wick,09/05/2017 08:00,6.9,6,,,0,,71,,290,Dry,1026,8,45,,,,2.1,
Wick,09/05/2017 09:00,7.2,9,,,0,,68,,300,Dry,1025,8,35,,,,1.8,
Wick,09/05/2017 10:00,7.8,8,,,0,,70,,280,Dry,1024,8,35,,,,2.7,
Wick,09/05/2017 11:00,8.4,8,,,0,,67,,290,Dry,1023,7,30,,,,2.8,
Wick,09/05/2017 12:00,9.1,14,,,0,0,64,,300,Dry,1022,8,23,,,,2.8,
Wick,09/05/2017 13:00,9.9,14,,,0,,63,,300,Dry,1021,6,19,,,,3.4,
Wick,09/05/2017 14:00,10,15,,,0,,65,,310,Dry,1020,7,35,,,,3.8,
Wick,09/05/2017 15:00,9.1,17,,,0,,67,,310,Dry,1019,7,35,,,,3.5,
Wick,09/05/2017 16:00,9.9,20,,,0,,67,29,300,Dry,1018,7,45,,,,4.2,
Wick,09/05/2017 17:00,9.2,17,,,0,,66,,300,Dry,1017,7,40,,,,3.3,
Wick,09/05/2017 18:00,8.5,18,,11.2,0,0,68,,290,Dry,1016,7,40,,,,3.1,
Wick,09/05/2017 19:00,7.5,17,,,0,,74,,290,Dry,1016,7,40,,,,3.3,
Wick,09/05/2017 20:00,7.2,14,,,0,,75,,280,Dry,1015,7,45,,,,3.2,
Wick,09/05/2017 21:00,6.9,12,,,0,,76,,270,Dry,1014,8,45,,,,3.1,
Wick,09/05/2017 22:00,6.7,10,,,0,,80,,270,Dry,1013,8,45,,,,3.5,
Wick,09/05/2017 23:00,6.5,9,,,0,,79,,260,Dry,1013,8,50,,,,3.2,
Wick,10/05/2017 00:00,6.5,10,,,0,0,79,,260,Dry,1012,7,30,,,,3.2,
Wick,10/05/2017 01:00,6.4,8,,,0,,80,,230,Dry,1011,1,45,,,,3.3,
Wick,10/05/2017 02:00,6.3,9,,,0,,82,,250,Dry,1010,8,17,,,,3.6,
Wick,10/05/2017 03:00,6.6,10,,,0,,79,,250,Dry,1010,8,50,,,,3.3,
Wick,10/05/2017 04:00,6.1,9,,,0,,84,,250,Dry,1009,3,40,,,,3.7,
Wick,10/05/2017 05:00,6.1,9,,,0,,86,,250,Dry,1008,1,30,,,,4.1,
Wick,10/05/2017 06:00,6.8,10,5.8,,0,0,82,,250,Dry,1008,2,50,,,,4.1,
Wick,10/05/2017 07:00,7.7,13,,,0,,79,,250,Dry,1007,1,35,,,,4.4,
Wick,10/05/2017 08:00,8.7,13,,,0,,75,,270,Dry,1007,1,30,,,,4.7,
Wick,10/05/2017 09:00,10.1,14,,,0,,72,,270,Dry,1006,3,50,,,,5.3,
Wick,10/05/2017 10:00,10.1,12,,,0,,70,,260,Dry,1006,5,30,,,,5,
Wick,10/05/2017 11:00,10.4,10,,,0,,70,,280,Dry,1006,5,45,,,,5.3,
Wick,10/05/2017 12:00,10.4,8,,,0,0,70,,280,Dry,1005,4,45,,,,5.2,
Wick,10/05/2017 13:00,9.7,10,,,0,,79,,320,Dry,1005,7,17,,,,6.3,
Wick,10/05/2017 14:00,9.6,6,,,0.2,,84,,270,Rain,1005,4,28,,,,7.1,
Wick,10/05/2017 15:00,8.6,5,,,0.8,,92,,180,Light drizzle,1005,7,2,,,,7.5,
Wick,10/05/2017 16:00,8.3,7,,,0.2,,95,,120,Rain,1004,1,10,,,,7.7,
Wick,10/05/2017 17:00,8.1,5,,,0.2,,94,,140,Light drizzle,1004,1,12,,,,7.3,
Wick,10/05/2017 18:00,8,5,,11.3,0.4,2,93,,130,Light drizzle,1004,2,9,,,,7,
Wick,10/05/2017 19:00,7.8,5,,,0.2,,94,,130,Light rain,1004,6,35,,,,7,
Wick,10/05/2017 20:00,7.7,2,,,0.4,,90,,100,Light rain,1004,3,22,,,,6.3,
Wick,10/05/2017 21:00,7.6,3,,,0,,94,,90,Rain,1003,1,40,,,,6.7,
Wick,10/05/2017 22:00,7.6,3,,,0,,95,,120,Dry,1003,7,30,,,,6.9,
Wick,10/05/2017 23:00,7.6,5,,,0,,95,,120,Dry,1003,1,35,,,,6.9,
Wick,11/05/2017 00:00,7.5,5,,,0,0.6,95,,110,Dry,1003,1,35,,,,6.9,
Wick,11/05/2017 01:00,7.6,6,,,0,,94,,120,Dry,1003,7,30,,,,6.8,
Wick,11/05/2017 02:00,7.4,8,,,0,,91,,110,Dry,1002,1,45,,,,6.1,
Wick,11/05/2017 03:00,7.5,9,,,0,,93,,110,Dry,1002,1,29,,,,6.5,
Wick,11/05/2017 04:00,7.2,9,,,0,,93,,90,Dry,1001,1,14,,,,6.3,
Wick,11/05/2017 05:00,7.5,12,,,0,,94,,100,Dry,1001,7,17,,,,6.6,
Wick,11/05/2017 06:00,7.7,14,7.2,,0,0,91,,100,Dry,1001,7,20,,,,6.4,
Wick,11/05/2017 07:00,7.7,15,,,0,,92,,110,Dry,1001,6,24,,,,6.5,
Wick,11/05/2017 08:00,8,14,,,0,,92,,120,Dry,1001,6,14,,,,6.8,
Wick,11/05/2017 09:00,8.5,15,,,0,,90,,120,Dry,1001,4,16,,,,7,
Wick,11/05/2017 10:00,9.4,16,,,0,,83,,120,Dry,1001,2,11,,,,6.7,
Wick,11/05/2017 11:00,10.3,17,,,0,,83,,120,Dry,1001,7,29,,,,7.7,
Wick,11/05/2017 12:00,9.8,18,,,0,0,82,,110,Dry,1000,1,15,,,,6.9,
Wick,11/05/2017 13:00,10.3,18,,,0,,81,,120,Dry,1000,7,16,,,,7.3,
Wick,11/05/2017 14:00,10.4,18,,,0,,78,29,120,Dry,1000,1,22,,,,6.8,
Wick,11/05/2017 15:00,9.9,20,,,0,,79,,120,Dry,1000,1,24,,,,6.6,
Wick,11/05/2017 16:00,9.2,20,,,0,,84,,120,Dry,1000,2,19,,,,6.8,
Wick,11/05/2017 17:00,9.2,18,,,0,,85,29,120,Dry,1000,4,14,,,,6.9,
Wick,11/05/2017 18:00,8.8,17,,11,0,0,89,,130,Dry,999,7,12,,,,7.1,
Wick,11/05/2017 19:00,8.7,16,,,0,,90,,130,Haze,999,8,9,,,,7.2,
Wick,11/05/2017 20:00,8.4,13,,,0,,92,,120,Haze,999,8,11,,,,7.2,
Wick,11/05/2017 21:00,8.3,15,,,0,,91,,120,Dry,1000,4,11,,,,7,
Wick,11/05/2017 22:00,8.2,18,,,0,,90,,120,Dry,1000,2,14,,,,6.7,
Wick,11/05/2017 23:00,8,18,,,0,,90,,130,Dry,1000,4,10,,,,6.6,
Wick,12/05/2017 00:00,8.1,15,,,0,0,92,,130,Haze,1000,7,7,,,,6.9,
Wick,12/05/2017 01:00,7.9,14,,,0,,94,,140,Haze,1000,4,8,,,,7,
Wick,12/05/2017 02:00,8,12,,,0,,93,,140,Haze,1000,1,10,,,,7,
Wick,12/05/2017 03:00,7.9,16,,,0,,92,,140,Dry,1000,0,10,,,,6.8,
Wick,12/05/2017 04:00,8,20,,,0,,94,,130,Haze,1000,0,10,,,,7.1,
Wick,12/05/2017 05:00,8.1,23,,,0,,95,32,130,Misty,999,1,9,,,,7.4,
Wick,12/05/2017 06:00,8.4,17,7.8,,0,0,93,30,140,Haze,1000,4,11,,,,7.4,
Wick,12/05/2017 07:00,8.5,16,,,0,,91,,140,Haze,1001,5,12,,,,7.2,
Wick,12/05/2017 08:00,8.9,18,,,0,,89,,140,Dry,1001,6,13,,,,7.3,
Wick,12/05/2017 09:00,9.2,16,,,0,,88,,130,Dry,1001,7,13,,,,7.4,
Wick,12/05/2017 10:00,10,16,,,0,,83,,120,Dry,1001,2,17,,,,7.3,
Wick,12/05/2017 11:00,10.7,17,,,0,,82,,120,Dry,1001,1,14,,,,7.8,
Wick,12/05/2017 12:00,11,17,,,0,0,83,,110,Haze,1001,1,13,,,,8.4,
Wick,12/05/2017 13:00,10.8,20,,,0,,84,,110,Dry,1001,4,15,,,,8.3,
Wick,12/05/2017 14:00,10.5,18,,,0,,82,,120,Dry,1001,7,11,,,,7.7,
Wick,12/05/2017 15:00,9.7,17,,,0,,86,,120,Haze,1001,8,9,,,,7.5,
Wick,12/05/2017 16:00,9.6,18,,,0,,87,,120,Haze,1001,8,10,,,,7.7,
Wick,12/05/2017 17:00,9.2,16,,,0,,89,,120,Haze,1001,8,9,,,,7.6,
Wick,12/05/2017 18:00,8.9,18,,11.6,0,0,92,,130,Haze,1001,8,10,,,,7.7,
Wick,12/05/2017 19:00,8.8,17,,,0,,94,,120,Haze,1001,8,6,,,,7.9,
Wick,12/05/2017 20:00,8.8,17,,,0,,94,,120,Misty,1002,8,6,,,,8,
Wick,12/05/2017 21:00,8.7,12,,,0,,98,,120,Misty,1002,8,2,,,,8.5,
Wick,12/05/2017 22:00,8.6,10,,,0,,100,,120,Misty,1002,8,2,,,,8.6,
Wick,12/05/2017 23:00,8.7,13,,,0,,100,,110,Thickening fog,1002,9,1,,,,8.7,
Wick,13/05/2017 00:00,8.7,14,,,0,0,100,,100,Thickening fog,1001,,0,,,,8.7,
Wick,13/05/2017 01:00,8.7,15,,,0,,100,,110,Light shower,1001,9,1,,,,8.7,
Wick,13/05/2017 02:00,8.7,14,,,0,,100,,100,Fog,1000,9,0,,,,8.7,
Wick,13/05/2017 03:00,8.6,14,,,0,,100,,100,Thickening fog,1000,9,0,,,,8.6,
Wick,13/05/2017 04:00,8.6,14,,,0.2,,100,,100,Thickening fog,1000,9,0,,,,8.6,
Wick,13/05/2017 05:00,8.6,15,,,0,,100,,100,Light shower,1000,9,0,,,,8.6,
Wick,13/05/2017 06:00,8.6,14,8.6,,0,0.2,100,,100,Fog,1000,9,0,,,,8.6,
Wick,13/05/2017 07:00,8.7,10,,,0,,100,,100,Fog thinning,1000,9,0,,,,8.7,
Wick,13/05/2017 08:00,8.7,10,,,0,,100,,90,Thickening fog,1000,9,0,,,,8.7,
Wick,13/05/2017 09:00,8.9,10,,,0,,100,,100,Fog,1000,9,0,,,,8.9,
Wick,13/05/2017 10:00,9,12,,,0,,100,,110,Fog,1000,9,0,,,,9,
Wick,13/05/2017 11:00,9.6,13,,,0,,100,,120,Fog,1000,8,2,,,,9.6,
Wick,13/05/2017 12:00,9.7,16,,,0,0,100,,120,Fog,1000,8,1,,,,9.7,
Wick,13/05/2017 13:00,9.5,15,,,0,,99,,120,Fog,1000,8,5,,,,9.4,
Wick,13/05/2017 14:00,9.5,12,,,0,,98,,120,Misty,1000,8,2,,,,9.3,
Wick,13/05/2017 15:00,9.5,12,,,0,,99,,120,Fog,1000,8,3,,,,9.4,
Wick,13/05/2017 16:00,9.5,9,,,0,,98,,130,Misty,1000,8,1,,,,9.3,
Wick,13/05/2017 17:00,9.8,14,,,0,,98,,110,Fog,1000,8,3,,,,9.5,
Wick,13/05/2017 18:00,9.8,12,,10,0,0,96,,130,Misty,1000,3,5,,,,9.2,
Wick,13/05/2017 19:00,9.7,6,,,0,,97,,130,Light shower,1000,8,3,,,,9.3,
Wick,13/05/2017 20:00,10.2,9,,,0.2,,98,,150,Rain,1000,1,4,,,,9.9,
Wick,13/05/2017 21:00,10.5,7,,,0.2,,98,,150,Rain,1001,8,5,,,,10.2,
Wick,13/05/2017 22:00,10.8,8,,,0,,96,,160,Misty,1001,8,5,,,,10.3,
Wick,13/05/2017 23:00,11.2,7,,,0,,96,,170,Light shower,1002,8,6,,,,10.7,
Wick,14/05/2017 00:00,11,9,,,0.2,0.6,94,,170,Light shower,1003,8,10,,,,10.1,
Wick,14/05/2017 01:00,10.6,8,,,0,,92,,180,Rain,1003,1,19,,,,9.4,
Wick,14/05/2017 02:00,10.1,6,,,0,,93,,150,Haze,1004,2,9,,,,9.1,
Wick,14/05/2017 03:00,10.1,12,,,0,,91,,160,Dry,1004,7,27,,,,8.7,
Wick,14/05/2017 04:00,10.4,13,,,0,,90,,160,Dry,1005,3,18,,,,8.9,
Wick,14/05/2017 05:00,10.1,13,,,0,,92,,150,Dry,1005,0,15,,,,8.9,
Wick,14/05/2017 06:00,10.5,17,9.6,,0,0,85,,160,Rain,1005,0,14,,,,8.2,
Wick,14/05/2017 07:00,11.1,18,,,0,,82,,160,Dry,1006,0,12,,,,8.2,
Wick,14/05/2017 08:00,10,14,,,0,,89,,160,Dry,1006,0,15,,,,8.4,
Wick,14/05/2017 09:00,10.5,13,,,0,,88,,170,Dry,1008,1,19,,,,8.7,
Wick,14/05/2017 10:00,11,16,,,0,,88,,290,Dry,1008,7,40,,,,9.2,
Wick,14/05/2017 11:00,11.2,10,,,0,,86,,320,Dry,1009,1,40,,,,9.1,
Wick,14/05/2017 12:00,11.9,6,,,0,0,83,,360,Dry,1010,2,30,,,,9.2,
Wick,14/05/2017 13:00,12,5,,,1.2,,84,,120,Rain,1011,5,20,,,,9.5,
Wick,14/05/2017 14:00,12.3,7,,,0,,84,,110,Dry,1012,3,14,,,,9.8,
Wick,14/05/2017 15:00,11.7,9,,,0.2,,85,,60,Rain,1012,7,30,,,,9.4,
Wick,14/05/2017 16:00,11.3,9,,,0,,85,,80,Dry,1013,4,27,,,,8.9,
Wick,14/05/2017 17:00,10.9,12,,,0,,86,,110,Dry,1014,0,30,,,,8.7,
Wick,14/05/2017 18:00,10.8,5,,13.4,0,1,87,,100,Dry,1015,1,30,,,,8.8,
Wick,14/05/2017 19:00,9.9,8,,,0,,89,,120,Dry,1015,3,25,,,,8.3,
Wick,14/05/2017 20:00,9.4,8,,,0,,92,,70,Dry,1016,7,35,,,,8.3,
Wick,14/05/2017 21:00,9,10,,,0,,94,,110,Dry,1016,0,45,,,,8.1,
Wick,14/05/2017 22:00,8.8,12,,,0,,96,,110,Dry,1016,5,27,,,,8.2,
Wick,14/05/2017 23:00,8.5,9,,,0,,96,,100,Dry,1017,1,19,,,,8,
Wick,15/05/2017 00:00,9.1,7,,,0,0,91,,130,Dry,1017,1,35,,,,7.8,
Wick,15/05/2017 01:00,8.8,6,,,0,,90,,160,Dry,1017,0,16,,,,7.3,
Wick,15/05/2017 02:00,9.1,7,,,0,,86,,180,Dry,1017,0,50,,,,7,
Wick,15/05/2017 03:00,9.3,5,,,0,,82,,140,Dry,1017,0,40,,,,6.4,
Wick,15/05/2017 04:00,8.8,3,,,0,,85,,150,Dry,1017,0,45,,,,6.5,
Wick,15/05/2017 05:00,9.3,8,,,0,,86,,130,Dry,1016,0,30,,,,7.2,
Wick,15/05/2017 06:00,9.6,8,8.4,,0,0,86,,160,Dry,1016,1,22,,,,7.5,
Wick,15/05/2017 07:00,9.9,12,,,0,,83,,160,Dry,1015,1,30,,,,7.3,
Wick,15/05/2017 08:00,10,15,,,0,,86,,150,Dry,1015,0,17,,,,7.9,
Wick,15/05/2017 09:00,10.7,17,,,0,,85,,140,Dry,1014,0,14,,,,8.4,
Wick,15/05/2017 10:00,10.7,21,,,0,,80,30,150,Dry,1013,0,16,,,,7.5,
Wick,15/05/2017 11:00,10.9,17,,,0,,78,33,150,Dry,1013,5,16,,,,7.4,
Wick,15/05/2017 12:00,10.2,16,,,0,0,85,29,150,Dry,1012,8,14,,,,7.9,
Wick,15/05/2017 13:00,10.2,24,,,0,,87,33,140,Dry,1011,1,10,,,,8.2,
Wick,15/05/2017 14:00,10.1,21,,,0,,89,37,140,Dry,1010,7,13,,,,8.5,
Wick,15/05/2017 15:00,10.2,17,,,0,,91,32,140,Dry,1010,6,13,,,,8.9,
Wick,15/05/2017 16:00,10,18,,,0,,96,,150,Rain,1009,1,11,,,,9.4,
Wick,15/05/2017 17:00,10.9,17,,,0,,89,29,150,Dry,1009,1,12,,,,9.2,
Wick,15/05/2017 18:00,10.6,20,,11.7,0,0,92,,160,Dry,1008,1,12,,,,9.4,
Wick,15/05/2017 19:00,10.6,16,,,0,,92,,150,Dry,1009,1,10,,,,9.5,
Wick,15/05/2017 20:00,10.4,13,,,0,,94,,140,Dry,1009,1,12,,,,9.6,
Wick,15/05/2017 21:00,10.1,14,,,0,,96,,140,Misty,1009,1,9,,,,9.5,
Wick,15/05/2017 22:00,10.1,14,,,0,,96,,130,Misty,1009,0,9,,,,9.6,
Wick,15/05/2017 23:00,10.4,6,,,0,,94,,160,Dry,1009,0,14,,,,9.6,
Wick,16/05/2017 00:00,11,7,,,0,0,92,,140,Dry,1009,4,20,,,,9.9,
Wick,16/05/2017 01:00,10.6,10,,,0,,94,,140,Dry,1008,0,18,,,,9.8,
Wick,16/05/2017 02:00,10.1,9,,,0,,96,,140,Dry,1008,0,13,,,,9.6,
Wick,16/05/2017 03:00,9.8,7,,,0,,96,,140,Dry,1007,0,18,,,,9.2,
Wick,16/05/2017 04:00,11.9,12,,,0,,93,,180,Dry,1007,0,35,,,,10.9,
Wick,16/05/2017 05:00,14.5,18,,,0,,84,30,180,Dry,1007,0,45,,,,12,
Wick,16/05/2017 06:00,15,18,9.7,,0,0,80,29,190,Dry,1007,1,30,,,,11.7,
Wick,16/05/2017 07:00,15.6,20,,,0,,78,29,170,Dry,1007,3,29,,,,11.9,
Wick,16/05/2017 08:00,15.9,18,,,0,,77,35,170,Dry,1007,0,19,,,,12,
Wick,16/05/2017 09:00,16.8,17,,,0,,72,30,180,Dry,1007,2,50,,,,11.8,
Wick,16/05/2017 10:00,17.8,17,,,0,,67,29,180,Dry,1007,3,30,,,,11.7,
Wick,16/05/2017 11:00,15.9,15,,,0,,73,,190,Dry,1007,7,50,,,,11.2,
Wick,16/05/2017 12:00,16,18,,,0,0,72,,170,Dry,1007,5,28,,,,11,
Wick,16/05/2017 13:00,15.3,20,,,0,,78,29,160,Dry,1006,1,24,,,,11.5,
Wick,16/05/2017 14:00,15.7,15,,,0,,75,,170,Dry,1007,5,18,,,,11.4,
Wick,16/05/2017 15:00,14.9,24,,,0,,84,38,240,Dry,1008,1,12,,,,12.4,
Wick,16/05/2017 16:00,15.8,31,,,0,,58,40,260,Dry,1009,7,40,,,,7.7,
Wick,16/05/2017 17:00,16.2,28,,,0,,51,39,250,Dry,1010,,45,,,,6.3,
Wick,16/05/2017 18:00,14.8,26,,18.1,0,0,47,38,250,Dry,1011,,30,,,,3.8,
Wick,16/05/2017 19:00,13.3,22,,,0,,48,36,250,Dry,1013,1,45,,,,2.8,
Wick,16/05/2017 20:00,11.9,17,,,0,,53,,250,Dry,1014,1,45,,,,2.8,
Wick,16/05/2017 21:00,9.8,13,,,0,,61,,250,Dry,1015,1,50,,,,2.8,
Wick,16/05/2017 22:00,9.2,9,,,0,,64,,230,Dry,1016,,50,,,,2.9,
Wick,16/05/2017 23:00,8.6,3,,,0,,67,,130,Dry,1016,,45,,,,2.9,
Wick,17/05/2017 00:00,8.7,7,,,0,0,70,,190,Dry,1016,0,50,,,,3.6,
Wick,17/05/2017 01:00,9.1,9,,,0,,74,,180,Dry,1016,,40,,,,4.8,
Wick,17/05/2017 02:00,8.8,9,,,0,,80,,180,Dry,1016,,30,,,,5.6,
Wick,17/05/2017 03:00,9.8,12,,,0,,73,,170,Dry,1016,,40,,,,5.2,
Wick,17/05/2017 04:00,9.3,13,,,0,,80,,160,Dry,1015,0,35,,,,6.1,
Wick,17/05/2017 05:00,9.5,14,,,0,,76,,160,Dry,1015,0,35,,,,5.6,
Wick,17/05/2017 06:00,10.1,10,7.1,,0,0,75,,170,Dry,1014,,25,,,,5.9,
Wick,17/05/2017 07:00,10.7,14,,,0,,73,,160,Dry,1014,0,21,,,,6.2,
Wick,17/05/2017 08:00,11.9,15,,,0,,69,,190,Dry,1014,1,29,,,,6.6,
Wick,17/05/2017 09:00,12.4,17,,,0,,68,,180,Dry,1014,1,25,,,,6.8,
Wick,17/05/2017 10:00,12.9,13,,,0,,68,,170,Dry,1013,1,20,,,,7.3,
Wick,17/05/2017 11:00,14,15,,,0,,60,,170,Dry,1013,1,22,,,,6.4,
Wick,17/05/2017 12:00,14.3,16,,,0,0,55,,180,Dry,1012,1,40,,,,5.6,
Wick,17/05/2017 13:00,15.8,18,,,0,,44,29,180,Dry,1012,1,50,,,,3.9,
Wick,17/05/2017 14:00,16.4,16,,,0,,42,,190,Dry,1011,1,45,,,,3.7,
Wick,17/05/2017 15:00,14.8,14,,,0,,51,,170,Dry,1010,1,22,,,,4.8,
Wick,17/05/2017 16:00,14.5,12,,,0,,59,,140,Dry,1010,1,24,,,,6.7,
Wick,17/05/2017 17:00,13.4,13,,,0,,59,,160,Dry,1010,1,29,,,,5.6,
Wick,17/05/2017 18:00,12.7,10,,17,0,0,67,,360,Dry,1010,1,40,,,,6.8,
Wick,17/05/2017 19:00,11.9,10,,,0,,75,,360,Dry,1010,1,21,,,,7.8,
Wick,17/05/2017 20:00,11.2,10,,,0,,82,,10,Dry,1010,7,27,,,,8.3,
Wick,17/05/2017 21:00,8.8,8,,,0,,89,,20,Dry,1010,1,40,,,,7.2,
Wick,17/05/2017 22:00,8.7,6,,,0,,89,,20,Dry,1010,0,26,,,,7.1,
Wick,17/05/2017 23:00,8.5,6,,,0,,92,,360,Dry,1009,5,30,,,,7.3,
Wick,18/05/2017 00:00,8.1,3,,,0,0,94,,270,Rain,1009,7,20,,,,7.2,
Wick,18/05/2017 01:00,9.2,6,,,0,,93,,50,Rain,1009,8,29,,,,8.2,
Wick,18/05/2017 02:00,8.9,1,,,0,,92,,330,Rain,1008,8,28,,,,7.7,
Wick,18/05/2017 03:00,8.5,2,,,0,,94,,20,Dry,1008,8,30,,,,7.7,
Wick,18/05/2017 04:00,7.7,3,,,0,,94,,310,Dry,1008,8,30,,,,6.8,
Wick,18/05/2017 05:00,8.3,3,,,0,,96,,300,Dry,1008,8,45,,,,7.8,
Wick,18/05/2017 06:00,8.8,5,7.6,,0,0,94,,260,Dry,1008,8,21,,,,8,
Wick,18/05/2017 07:00,10.2,2,,,0,,92,,290,Dry,1009,7,35,,,,9.1,
Wick,18/05/2017 08:00,11.3,7,,,0,,77,,60,Dry,1009,1,19,,,,7.5,
Wick,18/05/2017 09:00,11.5,8,,,0,,76,,80,Dry,1009,2,30,,,,7.6,
Wick,18/05/2017 10:00,11.9,9,,,0,,77,,110,Dry,1009,1,28,,,,8.1,
Wick,18/05/2017 11:00,11.7,10,,,0,,75,,130,Dry,1010,1,25,,,,7.6,
Wick,18/05/2017 12:00,12.1,12,,,0,0,75,,140,Dry,1010,1,22,,,,8,
Wick,18/05/2017 13:00,12.2,14,,,0,,74,,110,Dry,1010,1,22,,,,7.9,
Wick,18/05/2017 14:00,12.2,15,,,0,,71,,100,Dry,1010,1,21,,,,7.2,
Wick,18/05/2017 15:00,12.4,14,,,0,,73,,100,Dry,1010,1,17,,,,7.8,
Wick,18/05/2017 16:00,12.2,15,,,0,,76,,110,Dry,1010,1,30,,,,8.2,
Wick,18/05/2017 17:00,11.3,13,,,0,,80,,110,Dry,1010,1,23,,,,8.1,
Wick,18/05/2017 18:00,10.8,6,,13.1,0,0,85,,70,Dry,1010,4,21,,,,8.4,
Wick,18/05/2017 19:00,10.8,7,,,0,,83,,90,Dry,1010,4,26,,,,8.2,
Wick,18/05/2017 20:00,10.7,9,,,0,,80,,120,Dry,1011,8,28,,,,7.4,
Wick,18/05/2017 21:00,10.4,7,,,0,,85,,120,Dry,1011,8,30,,,,8.1,
Wick,18/05/2017 22:00,9.8,3,,,0,,89,,110,Dry,1011,0,30,,,,8.1,
Wick,18/05/2017 23:00,8.5,2,,,0,,91,,210,Dry,1011,0,27,,,,7.2,
Wick,19/05/2017 00:00,7.3,1,,,0,0,92,,260,Dry,1011,0,19,,,,6.2,
Wick,19/05/2017 01:00,7.9,1,,,0,,95,,160,Dry,1010,1,27,,,,7.3,
Wick,19/05/2017 02:00,6,3,,,0,,97,,260,Dry,1010,0,11,,,,5.6,
Wick,19/05/2017 03:00,5.4,3,,,0,,97,,300,Dry,1010,0,13,,,,5.1,
Wick,19/05/2017 04:00,4.7,3,,,0,,97,,270,Dry,1010,0,21,,,,4.4,
Wick,19/05/2017 05:00,3.9,3,,,0,,99,,250,Misty,1011,1,4,,,,3.8,
Wick,19/05/2017 06:00,5.4,5,3.2,,0,0,100,,240,Fog,1011,7,20,,,,5.4,
Wick,19/05/2017 07:00,8,1,,,0,,100,,260,Dry,1011,1,18,,,,8,
Wick,19/05/2017 08:00,11,3,,,0,,93,,100,Dry,1011,1,35,,,,10,
Wick,19/05/2017 09:00,10.8,6,,,0,,89,,80,Dry,1012,1,30,,,,9.2,
Wick,19/05/2017 10:00,11.4,7,,,0,,84,,90,Dry,1012,1,29,,,,8.9,
Wick,19/05/2017 11:00,12,10,,,0,,83,,110,Dry,1012,1,29,,,,9.3,
Wick,19/05/2017 12:00,11.5,15,,,0,0,87,,110,Dry,1012,1,15,,,,9.5,
Wick,19/05/2017 13:00,11.2,12,,,0,,85,,110,Dry,1012,1,25,,,,8.9,
Wick,19/05/2017 14:00,11.7,10,,,0,,83,,110,Dry,1013,1,35,,,,9,
Wick,19/05/2017 15:00,11.3,14,,,0,,86,,90,Dry,1013,1,16,,,,9.2,
Wick,19/05/2017 16:00,10.7,17,,,0,,91,,100,Dry,1013,1,24,,,,9.3,
Wick,19/05/2017 17:00,10.6,13,,,0,,92,,110,Dry,1013,7,22,,,,9.4,
Wick,19/05/2017 18:00,10,8,,12.1,0.2,0.2,91,,100,Light shower,1014,8,14,,,,8.7,
Wick,19/05/2017 19:00,9.9,3,,,0.2,,90,,110,Drizzly rain,1014,8,35,,,,8.5,
Wick,19/05/2017 20:00,9.5,8,,,0,,97,,30,Light rain,1014,8,10,,,,9.1,
Wick,19/05/2017 21:00,9,8,,,0,,99,,20,Light rain,1014,3,6,,,,8.9,
Wick,19/05/2017 22:00,8.9,7,,,0,,99,,10,Rain,1014,1,6,,,,8.8,
Wick,19/05/2017 23:00,8.9,9,,,0,,99,,40,Drizzly rain,1014,7,12,,,,8.8,
Wick,20/05/2017 00:00,8.7,12,,,0,0.2,97,,20,Rain,1013,8,16,,,,8.3,
Wick,20/05/2017 01:00,8.8,15,,,0,,97,,10,Dry,1012,7,12,,,,8.4,
Wick,20/05/2017 02:00,8.9,13,,,0,,96,,360,Dry,1012,8,16,,,,8.3,
Wick,20/05/2017 03:00,8.9,12,,,0,,95,,360,Dry,1011,8,12,,,,8.2,
Wick,20/05/2017 04:00,8.9,10,,,0,,96,,10,Light drizzle,1010,8,10,,,,8.3,
Wick,20/05/2017 05:00,8.8,12,,,0.8,,98,,350,Light rain,1010,7,6,,,,8.6,
Wick,20/05/2017 06:00,8.9,10,8.6,,0.2,0.8,99,,360,Rain,1009,8,8,,,,8.8,
Wick,20/05/2017 07:00,9,12,,,0,,99,,360,Rain,1009,4,8,,,,8.9,
Wick,20/05/2017 08:00,8.7,12,,,0.2,,99,,340,Misty,1008,6,4,,,,8.6,
Wick,20/05/2017 09:00,9.2,12,,,0,,100,,360,Misty,1008,8,3,,,,9.2,
Wick,20/05/2017 10:00,9.3,12,,,0,,100,,20,Misty,1008,7,9,,,,9.3,
Wick,20/05/2017 11:00,9.7,10,,,0.2,,100,,50,Misty,1007,8,2,,,,9.7,
Wick,20/05/2017 12:00,9.8,9,,,0.4,0.8,100,,60,Drizzly rain,1006,8,2,,,,9.8,
Wick,20/05/2017 13:00,9.7,8,,,0.2,,100,,70,Rain,1006,8,1,,,,9.7,
Wick,20/05/2017 14:00,9.7,8,,,0.2,,100,,60,Fog,1005,8,1,,,,9.7,
Wick,20/05/2017 15:00,9.6,7,,,0.8,,100,,100,Misty,1005,8,3,,,,9.6,
Wick,20/05/2017 16:00,9.9,9,,,0.8,,100,,170,Misty,1005,7,6,,,,9.9,
Wick,20/05/2017 17:00,9.3,24,,,0.4,,93,28,220,Rain,1006,1,22,,,,8.3,
Wick,20/05/2017 18:00,9,17,,10.3,0.4,3.2,91,30,200,Light shower,1008,1,17,,,,7.7,
Wick,20/05/2017 19:00,8.8,13,,,0.2,,94,,190,Light shower,1009,7,13,,,,8,
Wick,20/05/2017 20:00,9.1,13,,,0,,92,,170,Rain,1010,0,28,,,,7.9,
Wick,20/05/2017 21:00,9.3,12,,,0,,90,,160,Dry,1011,2,40,,,,7.8,
Wick,20/05/2017 22:00,9.6,12,,,0,,93,,160,Dry,1012,1,30,,,,8.6,
Wick,20/05/2017 23:00,9.2,6,,,0,,94,,170,Dry,1012,0,24,,,,8.3,
Wick,21/05/2017 00:00,8.6,7,,,0,0.2,91,,170,Dry,1013,0,45,,,,7.3,
Wick,21/05/2017 01:00,8.3,6,,,0,,89,,170,Dry,1014,0,40,,,,6.7,
Wick,21/05/2017 02:00,8.3,6,,,0,,90,,180,Dry,1014,0,45,,,,6.9,
Wick,21/05/2017 03:00,8.1,6,,,0,,91,,200,Dry,1015,0,45,,,,6.8,
Wick,21/05/2017 04:00,7.7,7,,,0,,93,,170,Dry,1015,0,50,,,,6.7,
Wick,21/05/2017 05:00,7.9,5,,,0,,93,,180,Dry,1015,0,40,,,,6.9,
Wick,21/05/2017 06:00,9,6,7.3,,0,0,90,,180,Dry,1016,0,26,,,,7.6,
Wick,21/05/2017 07:00,10.3,8,,,0,,83,,190,Dry,1016,0,35,,,,7.7,
Wick,21/05/2017 08:00,11.5,12,,,0,,75,,200,Dry,1017,0,35,,,,7.4,
Wick,21/05/2017 09:00,12.3,12,,,0,,73,,170,Dry,1017,0,30,,,,7.8,
Wick,21/05/2017 10:00,11.1,12,,,0,,75,,150,Dry,1018,0,29,,,,7,
Wick,21/05/2017 11:00,11.9,9,,,0,,69,,170,Dry,1018,0,35,,,,6.6,
Wick,21/05/2017 12:00,11.3,9,,,0,0,75,,130,Dry,1018,0,35,,,,7.2,
Wick,21/05/2017 13:00,12.5,10,,,0,,69,,130,Dry,1018,0,30,,,,7.1,
Wick,21/05/2017 14:00,12.8,12,,,0,,74,,130,Dry,1018,1,30,,,,8.4,
Wick,21/05/2017 15:00,12.7,12,,,0,,79,,130,Dry,1018,1,19,,,,9.3,
Wick,21/05/2017 16:00,12.4,13,,,0,,78,,160,Dry,1018,1,40,,,,8.7,
Wick,21/05/2017 17:00,13.2,9,,,0,,62,,160,Dry,1017,1,30,,,,6.2,
Wick,21/05/2017 18:00,12.8,9,,13.8,0,0,67,,140,Dry,1017,7,23,,,,7,
Wick,21/05/2017 19:00,11.9,10,,,0,,84,,140,Dry,1017,0,28,,,,9.3,
Wick,21/05/2017 20:00,11.5,12,,,0,,86,,130,Dry,1017,0,18,,,,9.4,
Wick,21/05/2017 21:00,11.2,9,,,0,,89,,150,Dry,1017,0,28,,,,9.5,
Wick,21/05/2017 22:00,11.6,12,,,0,,88,,160,Dry,1017,3,30,,,,9.7,
Wick,21/05/2017 23:00,11.8,12,,,0,,85,,170,Dry,1017,0,45,,,,9.5,
Wick,22/05/2017 00:00,11.7,9,,,0,0,86,,170,Dry,1016,0,35,,,,9.5,
Wick,22/05/2017 01:00,11.1,10,,,0,,88,,170,Dry,1016,0,30,,,,9.2,
Wick,22/05/2017 02:00,10.3,8,,,0,,89,,170,Dry,1016,0,30,,,,8.7,
Wick,22/05/2017 03:00,10.2,12,,,0,,87,,170,Dry,1015,0,35,,,,8.3,
Wick,22/05/2017 04:00,10.7,13,,,0,,84,,160,Dry,1015,0,35,,,,8.2,
Wick,22/05/2017 05:00,11.6,14,,,0,,78,,160,Dry,1015,0,35,,,,7.9,
Wick,22/05/2017 06:00,11.4,9,10,,0,0,81,,150,Dry,1014,0,35,,,,8.3,
Wick,22/05/2017 07:00,11.4,10,,,0,,88,,140,Dry,1014,0,21,,,,9.5,
Wick,22/05/2017 08:00,11.7,12,,,0,,87,,140,Dry,1014,0,24,,,,9.7,
Wick,22/05/2017 09:00,12,14,,,0,,86,,140,Dry,1013,1,11,,,,9.8,
Wick,22/05/2017 10:00,12.1,13,,,0,,84,,140,Dry,1013,1,13,,,,9.5,
Wick,22/05/2017 11:00,12.2,14,,,0,,84,,140,Dry,1013,1,15,,,,9.6,
Wick,22/05/2017 12:00,12.3,13,,,0,0,86,,140,Dry,1012,1,12,,,,10.2,
Wick,22/05/2017 13:00,11.8,13,,,0,,87,,150,Dry,1012,1,14,,,,9.8,
Wick,22/05/2017 14:00,11.4,13,,,0,,91,,140,Dry,1011,1,10,,,,10.1,
Wick,22/05/2017 15:00,11.2,14,,,0,,92,,140,Haze,1010,1,10,,,,10,
Wick,22/05/2017 16:00,11.5,15,,,0,,89,,130,Dry,1009,1,10,,,,9.9,
Wick,22/05/2017 17:00,11.1,13,,,0,,92,,130,Rain,1009,1,10,,,,9.9,
Wick,22/05/2017 18:00,11.3,14,,13.4,0,0,89,,140,Rain,1008,7,15,,,,9.6,
Wick,22/05/2017 19:00,11.7,13,,,0,,88,,130,Rain,1008,7,11,,,,9.9,
Wick,22/05/2017 20:00,10.8,13,,,0,,94,,120,Misty,1007,7,9,,,,9.9,
Wick,22/05/2017 21:00,11.1,5,,,2.4,,96,,220,Heavy shower,1008,4,4,,,,10.5,
Wick,22/05/2017 22:00,9.6,13,,,0.6,,98,,300,Light shower,1008,1,11,,,,9.3,
Wick,22/05/2017 23:00,9.4,7,,,0.8,,99,,280,Light rain,1009,7,24,,,,9.3,
Wick,23/05/2017 00:00,9,6,,,0.2,4,99,,270,Rain,1009,2,30,,,,8.9,
Wick,23/05/2017 01:00,8.6,6,,,0,,100,,270,Dry,1010,7,19,,,,8.6,
Wick,23/05/2017 02:00,8.6,6,,,0,,98,,230,Dry,1010,1,40,,,,8.4,
Wick,23/05/2017 03:00,6.5,8,,,0,,97,,270,Dry,1010,0,20,,,,6.2,
Wick,23/05/2017 04:00,6.2,10,,,0,,97,,260,Dry,1010,0,25,,,,5.8,
Wick,23/05/2017 05:00,7.1,7,,,0,,95,,240,Dry,1011,0,25,,,,6.5,
Wick,23/05/2017 06:00,9.6,10,6,,0,0,89,,250,Dry,1012,0,23,,,,7.9,
Wick,23/05/2017 07:00,11.3,12,,,0,,80,,260,Dry,1012,0,30,,,,8.1,
Wick,23/05/2017 08:00,12,12,,,0,,78,,270,Dry,1013,1,27,,,,8.4,
Wick,23/05/2017 09:00,12.9,7,,,0,,78,,280,Dry,1013,7,18,,,,9.3,
Wick,23/05/2017 10:00,13.2,12,,,0.2,,74,,300,Dry,1014,1,30,,,,8.7,
Wick,23/05/2017 11:00,14,9,,,0,,65,,290,Dry,1014,7,30,,,,7.7,
Wick,23/05/2017 12:00,16,15,,,0,0.2,65,,290,Dry,1014,3,30,,,,9.5,
Wick,23/05/2017 13:00,14.5,10,,,0,,66,,290,Dry,1015,7,29,,,,8.4,
Wick,23/05/2017 14:00,15.4,10,,,0,,61,,270,Dry,1015,2,50,,,,8,
Wick,23/05/2017 15:00,14,5,,,0,,68,,100,Dry,1015,4,22,,,,8.2,
Wick,23/05/2017 16:00,13.1,7,,,0,,72,,40,Dry,1016,6,35,,,,8.2,
Wick,23/05/2017 17:00,13.3,6,,,0,,74,,290,Dry,1016,2,23,,,,8.9,
Wick,23/05/2017 18:00,12.8,5,,16.7,0,0,77,,330,Light shower,1016,1,24,,,,9,
Wick,23/05/2017 19:00,11.6,3,,,0,,82,,40,Rain,1016,7,18,,,,8.7,
Wick,23/05/2017 20:00,10.8,5,,,0,,89,,80,Dry,1017,8,30,,,,9.2,
Wick,23/05/2017 21:00,10.8,6,,,0,,92,,120,Rain,1017,7,15,,,,9.6,
Wick,23/05/2017 22:00,10.6,7,,,0,,94,,130,Rain,1017,8,17,,,,9.7,
Wick,23/05/2017 23:00,10.5,2,,,0,,95,,150,Rain,1017,8,22,,,,9.8,
Wick,24/05/2017 00:00,10.7,2,,,0,0,91,,190,Haze,1018,5,7,,,,9.4,
Wick,24/05/2017 01:00,10.1,3,,,0.4,,96,,140,Rain,1017,7,27,,,,9.6,
Wick,24/05/2017 02:00,10.7,6,,,0,,95,,190,Dry,1018,7,35,,,,10,
Wick,24/05/2017 03:00,11.5,7,,,0,,94,,240,Dry,1018,7,45,,,,10.6,
Wick,24/05/2017 04:00,11.6,9,,,0,,92,,260,Dry,1018,7,35,,,,10.5,
Wick,24/05/2017 05:00,11.9,8,,,0,,92,,250,Dry,1019,8,45,,,,10.7,
Wick,24/05/2017 06:00,12.2,12,10,,0,0.4,90,,260,Dry,1019,8,30,,,,10.7,
Wick,24/05/2017 07:00,12.6,10,,,0,,89,,250,Dry,1020,8,30,,,,10.9,
Wick,24/05/2017 08:00,13.8,9,,,0,,85,,270,Dry,1020,5,26,,,,11.4,
Wick,24/05/2017 09:00,14.7,10,,,0,,83,,280,Dry,1020,1,30,,,,12,
Wick,24/05/2017 10:00,13.4,5,,,0,,85,,40,Dry,1021,2,16,,,,11,
Wick,24/05/2017 11:00,13.7,7,,,0,,83,,90,Dry,1021,7,30,,,,11,
Wick,24/05/2017 12:00,13.2,6,,,0,0,82,,90,Dry,1021,7,35,,,,10.3,
Wick,24/05/2017 13:00,14.2,2,,,0,,91,,90,Dry,1021,8,35,,,,12.8,
Wick,24/05/2017 14:00,14.8,5,,,0,,76,,180,Dry,1021,7,25,,,,10.8,
Wick,24/05/2017 15:00,16,7,,,0,,78,,90,Dry,1021,2,25,,,,12.2,
Wick,24/05/2017 16:00,16.4,2,,,0,,80,,70,Dry,1021,1,45,,,,13,
Wick,24/05/2017 17:00,15.1,3,,,0,,86,,360,Dry,1021,1,45,,,,12.8,
Wick,24/05/2017 18:00,14.8,5,,18.7,0,0,88,,350,Dry,1021,6,50,,,,12.9,
Wick,24/05/2017 19:00,16.9,8,,,0,,77,,250,Dry,1021,8,40,,,,13,
Wick,24/05/2017 20:00,16.7,14,,,0,,77,,240,Dry,1021,7,45,,,,12.8,
Wick,24/05/2017 21:00,15.4,9,,,0,,83,,230,Dry,1022,8,35,,,,12.6,
Wick,24/05/2017 22:00,14.4,8,,,0,,85,,240,Dry,1022,1,50,,,,12,
Wick,24/05/2017 23:00,13.4,8,,,0,,89,,240,Dry,1022,0,40,,,,11.7,
Wick,25/05/2017 00:00,13.8,9,,,0,0,89,,240,Dry,1023,7,45,,,,12.1,
Wick,25/05/2017 01:00,12.3,3,,,0,,93,,270,Dry,1023,2,40,,,,11.3,
Wick,25/05/2017 02:00,11.9,3,,,0,,95,,190,Dry,1022,0,30,,,,11.2,
Wick,25/05/2017 03:00,10.8,3,,,0,,95,,230,Dry,1022,1,15,,,,10.1,
Wick,25/05/2017 04:00,8.8,1,,,0,,97,,280,Thickening fog,1022,1,0,,,,8.5,
Wick,25/05/2017 05:00,10.9,2,,,0,,100,,40,Fog,1022,0,8,,,,10.9,
Wick,25/05/2017 06:00,11.5,5,8.4,,0,0,100,,70,Misty,1023,5,4,,,,11.5,
Wick,25/05/2017 07:00,11.4,6,,,0,,95,,100,Fog,1023,1,9,,,,10.7,
Wick,25/05/2017 08:00,11.4,8,,,0,,94,,110,Dry,1023,1,15,,,,10.5,
Wick,25/05/2017 09:00,12.9,8,,,0,,88,,80,Dry,1023,1,35,,,,11.1,
Wick,25/05/2017 10:00,13,7,,,0,,88,,70,Dry,1023,1,12,,,,11.2,
Wick,25/05/2017 11:00,12.7,9,,,0,,92,,40,Haze,1023,7,10,,,,11.5,
Wick,25/05/2017 12:00,14.1,9,,,0,0,91,,50,Dry,1023,3,16,,,,12.7,
Wick,25/05/2017 13:00,13.8,13,,,0,,88,,50,Dry,1023,5,28,,,,11.9,
Wick,25/05/2017 14:00,13.7,12,,,0,,87,,80,Dry,1023,2,20,,,,11.7,
Wick,25/05/2017 15:00,13.6,8,,,0,,85,,60,Dry,1022,1,30,,,,11.2,
Wick,25/05/2017 16:00,13.9,9,,,0,,86,,70,Dry,1022,1,30,,,,11.6,
Wick,25/05/2017 17:00,13.9,12,,,0,,87,,70,Dry,1021,1,26,,,,11.8,
Wick,25/05/2017 18:00,12.9,9,,14.4,0,0,88,,70,Dry,1021,1,18,,,,11,
Wick,25/05/2017 19:00,12.6,10,,,0,,91,,70,Dry,1020,1,29,,,,11.2,
Wick,25/05/2017 20:00,11.5,9,,,0,,93,,70,Dry,1020,1,13,,,,10.5,
Wick,25/05/2017 21:00,10.7,8,,,0,,96,,70,Dry,1020,0,13,,,,10.2,
Wick,25/05/2017 22:00,10.3,7,,,0,,98,,50,Misty,1020,0,8,,,,10.1,
Wick,25/05/2017 23:00,10,7,,,0,,98,,50,Misty,1020,0,6,,,,9.8,
Wick,26/05/2017 00:00,10.1,3,,,0,0,99,,80,Misty,1019,0,6,,,,10,
Wick,26/05/2017 01:00,8.2,2,,,0,,97,,30,Thickening fog,1019,2,0,,,,7.9,
Wick,26/05/2017 02:00,9.5,2,,,0,,100,,170,Fog,1018,4,4,,,,9.5,
Wick,26/05/2017 03:00,10.3,5,,,0,,100,,160,Fog,1018,1,6,,,,10.3,
Wick,26/05/2017 04:00,11.6,5,,,0,,99,,180,Misty,1018,0,8,,,,11.5,
Wick,26/05/2017 05:00,15.1,8,,,0,,95,,170,Dry,1018,0,18,,,,14.4,
Wick,26/05/2017 06:00,17.3,8,7.9,,0,0,83,,180,Dry,1017,0,30,,,,14.5,
Wick,26/05/2017 07:00,19,8,,,0,,78,,170,Dry,1018,0,27,,,,15.1,
Wick,26/05/2017 08:00,20.3,10,,,0,,72,,180,Dry,1018,0,30,,,,15.1,
Wick,26/05/2017 09:00,18.4,7,,,0,,75,,140,Dry,1017,0,22,,,,13.9,
Wick,26/05/2017 10:00,16.5,10,,,0,,81,,130,Dry,1017,1,14,,,,13.3,
Wick,26/05/2017 11:00,15.3,13,,,0,,81,,140,Dry,1017,1,18,,,,12.1,
Wick,26/05/2017 12:00,16.4,10,,,0,0,81,,140,Haze,1016,1,11,,,,13.2,
Wick,26/05/2017 13:00,16.5,13,,,0,,81,,130,Dry,1016,1,11,,,,13.4,
Wick,26/05/2017 14:00,16,12,,,0,,81,,130,Haze,1016,0,12,,,,12.9,
Wick,26/05/2017 15:00,17.3,14,,,0,,78,,130,Dry,1015,0,10,,,,13.6,
Wick,26/05/2017 16:00,18.8,14,,,0,,75,,140,Dry,1014,0,14,,,,14.3,
Wick,26/05/2017 17:00,17.3,15,,,0,,74,,140,Dry,1013,1,13,,,,12.8,
Wick,26/05/2017 18:00,18.6,14,,21.4,0,0,71,,150,Dry,1013,0,15,,,,13.4,
Wick,26/05/2017 19:00,18.7,13,,,0,,69,,180,Dry,1013,1,21,,,,13.1,
Wick,26/05/2017 20:00,18.7,13,,,0,,68,,170,Dry,1013,0,35,,,,12.8,
Wick,26/05/2017 21:00,18,13,,,0,,70,,170,Dry,1012,0,25,,,,12.5,
Wick,26/05/2017 22:00,17.5,10,,,0,,73,,170,Dry,1013,0,30,,,,12.8,
Wick,26/05/2017 23:00,16.5,12,,,0,,75,,160,Dry,1012,0,27,,,,12.2,
Wick,27/05/2017 00:00,13.5,8,,,0,0,82,,130,Dry,1012,0,21,,,,10.6,
Wick,27/05/2017 01:00,13.1,12,,,0,,86,,140,Dry,1012,0,21,,,,10.9,
Wick,27/05/2017 02:00,13.2,9,,,0,,87,,150,Dry,1012,0,17,,,,11.2,
Wick,27/05/2017 03:00,12.5,9,,,0,,91,,140,Dry,1012,0,13,,,,11.1,
Wick,27/05/2017 04:00,11.6,12,,,0,,95,,140,Misty,1012,0,10,,,,10.9,
Wick,27/05/2017 05:00,12.1,10,,,0,,95,,140,Dry,1011,0,11,,,,11.4,
Wick,27/05/2017 06:00,12.7,12,11.5,,0,0,92,,150,Dry,1011,0,15,,,,11.5,
Wick,27/05/2017 07:00,14,8,,,0,,88,,150,Dry,1011,0,15,,,,12.1,
Wick,27/05/2017 08:00,14.3,12,,,0,,85,,150,Dry,1011,0,25,,,,11.9,
Wick,27/05/2017 09:00,15.5,8,,,0,,83,,120,Dry,1011,0,14,,,,12.7,
Wick,27/05/2017 10:00,14.1,10,,,0,,86,,150,Haze,1010,0,13,,,,11.9,
Wick,27/05/2017 11:00,15.8,12,,,0,,79,,150,Dry,1010,0,21,,,,12.3,
Wick,27/05/2017 12:00,15.7,13,,,0,0,81,,140,Dry,1009,0,13,,,,12.5,
Wick,27/05/2017 13:00,16,13,,,0,,81,,140,Dry,1009,0,14,,,,12.8,
Wick,27/05/2017 14:00,16.1,14,,,0,,79,,140,Dry,1009,0,11,,,,12.5,
Wick,27/05/2017 15:00,15.4,14,,,0,,80,,140,Dry,1008,0,14,,,,12,
Wick,27/05/2017 16:00,15.4,12,,,0,,82,,120,Dry,1008,0,13,,,,12.5,
Wick,27/05/2017 17:00,14.4,5,,,0,,82,,140,Dry,1008,0,11,,,,11.5,
Wick,27/05/2017 18:00,15,6,,16.5,0,0,82,,90,Dry,1008,0,13,,,,12.1,
Wick,27/05/2017 19:00,13.3,3,,,0,,90,,40,Haze,1008,0,9,,,,11.7,
Wick,27/05/2017 20:00,13.2,3,,,0,,91,,320,Haze,1008,0,11,,,,11.8,
Wick,27/05/2017 21:00,10.7,6,,,0,,96,,340,Misty,1008,1,6,,,,10.1,
Wick,27/05/2017 22:00,12.5,10,,,0,,98,,310,Misty,1008,3,10,,,,12.3,
Wick,27/05/2017 23:00,12.6,10,,,0,,96,,290,Dry,1008,6,9,,,,12.1,
Wick,28/05/2017 00:00,12.8,14,,,0,0,97,,280,Misty,1008,5,9,,,,12.4,
Wick,28/05/2017 01:00,12.8,16,,,0,,97,,290,Misty,1008,2,9,,,,12.4,
Wick,28/05/2017 02:00,12.6,15,,,0,,97,,290,Misty,1008,4,10,,,,12.2,
Wick,28/05/2017 03:00,12.1,18,,,0,,98,,290,Rain,1008,8,9,,,,11.9,
Wick,28/05/2017 04:00,12,18,,,0,,100,,280,Rain,1009,7,5,,,,12,
Wick,28/05/2017 05:00,11.7,20,,,0.2,,100,,290,Drizzly rain,1009,5,4,,,,11.7,
Wick,28/05/2017 06:00,11.6,21,10.5,,0,0.2,100,,300,Rain,1010,7,7,,,,11.6,
Wick,28/05/2017 07:00,11.2,26,,,0,,100,35,300,Misty,1011,8,5,,,,11.2,
Wick,28/05/2017 08:00,10.9,21,,,0,,99,31,310,Misty,1012,8,4,,,,10.8,
Wick,28/05/2017 09:00,11.1,22,,,0,,97,29,310,Rain,1013,7,13,,,,10.7,
Wick,28/05/2017 10:00,11.4,22,,,0,,94,30,300,Dry,1014,7,12,,,,10.6,
Wick,28/05/2017 11:00,11.7,25,,,0,,90,33,300,Dry,1015,8,15,,,,10.2,
Wick,28/05/2017 12:00,11.9,23,,,0,0,85,32,300,Dry,1016,8,30,,,,9.6,
Wick,28/05/2017 13:00,12.6,21,,,0,,80,30,300,Dry,1017,8,35,,,,9.4,
Wick,28/05/2017 14:00,13.6,25,,,0,,75,32,310,Dry,1017,7,40,,,,9.4,
Wick,28/05/2017 15:00,12.4,18,,,0,,78,31,310,Dry,1018,7,29,,,,8.8,
Wick,28/05/2017 16:00,12.2,20,,,0,,77,,310,Dry,1019,7,40,,,,8.4,
Wick,28/05/2017 17:00,11.2,17,,,0,,82,,300,Dry,1019,8,22,,,,8.3,
Wick,28/05/2017 18:00,10.7,17,,14,0,0,78,,310,Dry,1019,8,40,,,,7.2,
Wick,28/05/2017 19:00,10.2,13,,,0,,83,,310,Dry,1019,8,30,,,,7.5,
Wick,28/05/2017 20:00,9.5,9,,,0,,86,,320,Dry,1020,1,45,,,,7.3,
Wick,28/05/2017 21:00,7.7,6,,,0,,93,,290,Dry,1020,1,29,,,,6.7,
Wick,28/05/2017 22:00,6.2,8,,,0,,97,,290,Dry,1020,0,17,,,,5.8,
Wick,28/05/2017 23:00,6.2,5,,,0,,98,,270,Dry,1020,0,10,,,,6,
Wick,29/05/2017 00:00,5.9,6,,,0,0,99,,270,Misty,1020,0,9,,,,5.8,
Wick,29/05/2017 01:00,6.3,3,,,0,,100,,280,Misty,1019,1,8,,,,6.3,
Wick,29/05/2017 02:00,6.4,5,,,0,,100,,260,Dry,1019,6,16,,,,6.4,
Wick,29/05/2017 03:00,6.2,3,,,0,,99,,250,Dry,1018,2,12,,,,6.1,
Wick,29/05/2017 04:00,6.6,3,,,0,,100,,260,Dry,1018,6,21,,,,6.6,
Wick,29/05/2017 05:00,7.4,2,,,0,,100,,220,Dry,1018,8,29,,,,7.4,
Wick,29/05/2017 06:00,9,0,5.5,,0,0,98,,0,Dry,1018,8,24,,,,8.8,
Wick,29/05/2017 07:00,10,5,,,0,,84,,130,Dry,1017,8,40,,,,7.5,
Wick,29/05/2017 08:00,10.4,7,,,0,,79,,140,Dry,1017,6,35,,,,7.1,
Wick,29/05/2017 09:00,10.4,8,,,0,,77,,130,Dry,1016,3,30,,,,6.6,
Wick,29/05/2017 10:00,10.1,7,,,0,,84,,140,Dry,1016,1,24,,,,7.6,
Wick,29/05/2017 11:00,11.4,8,,,0,,79,,120,Dry,1016,1,21,,,,8,
Wick,29/05/2017 12:00,11.3,8,,,0,0,68,,130,Dry,1016,1,45,,,,5.7,
Wick,29/05/2017 13:00,11.5,9,,,0,,75,,100,Dry,1016,1,23,,,,7.4,
Wick,29/05/2017 14:00,11.4,10,,,0,,72,,100,Dry,1015,4,50,,,,6.7,
Wick,29/05/2017 15:00,11.7,10,,,0,,78,,110,Dry,1014,5,30,,,,8,
Wick,29/05/2017 16:00,11.4,12,,,0,,77,,110,Dry,1014,3,30,,,,7.7,
Wick,29/05/2017 17:00,11.1,13,,,0,,80,,110,Dry,1013,2,27,,,,7.8,
Wick,29/05/2017 18:00,10.5,12,,12.1,0,0,81,,110,Dry,1013,5,30,,,,7.5,
Wick,29/05/2017 19:00,10.2,12,,,0,,82,,110,Dry,1013,8,35,,,,7.4,
Wick,29/05/2017 20:00,10.2,12,,,0,,85,,110,Dry,1012,8,45,,,,7.9,
Wick,29/05/2017 21:00,9.9,9,,,0,,86,,120,Dry,1012,1,29,,,,7.8,
Wick,29/05/2017 22:00,9.8,12,,,0,,87,,120,Dry,1011,0,30,,,,7.9,
Wick,29/05/2017 23:00,9.7,9,,,0,,90,,120,Dry,1011,2,25,,,,8.2,
Wick,30/05/2017 00:00,9.7,9,,,0,0,92,,120,Dry,1010,5,23,,,,8.5,
Wick,30/05/2017 01:00,9.7,8,,,0,,94,,110,Dry,1009,7,20,,,,8.8,
Wick,30/05/2017 02:00,9.8,8,,,0,,95,,110,Dry,1009,7,14,,,,9.1,
Wick,30/05/2017 03:00,9.9,7,,,0,,96,,110,Dry,1008,8,12,,,,9.4,
Wick,30/05/2017 04:00,10.1,7,,,0,,96,,130,Dry,1007,5,17,,,,9.6,
Wick,30/05/2017 05:00,10.2,7,,,0,,96,,140,Dry,1007,2,17,,,,9.7,
Wick,30/05/2017 06:00,10.2,9,9.7,,0,0,94,,150,Dry,1007,7,18,,,,9.4,
Wick,30/05/2017 07:00,10.6,9,,,0,,94,,150,Dry,1007,5,21,,,,9.7,
Wick,30/05/2017 08:00,11.3,7,,,0,,92,,140,Dry,1006,7,21,,,,10.2,
Wick,30/05/2017 09:00,12.9,8,,,0,,89,,190,Dry,1006,2,14,,,,11.3,
Wick,30/05/2017 10:00,12.3,8,,,0,,92,,140,Dry,1006,4,12,,,,11.1,
Wick,30/05/2017 11:00,13.5,8,,,0,,87,,180,Dry,1006,5,16,,,,11.4,
Wick,30/05/2017 12:00,15,6,,,0,0,82,,340,Dry,1006,5,45,,,,12,
Wick,30/05/2017 13:00,13.2,5,,,0.4,,90,,130,Moderate shower,1006,5,4,,,,11.7,
Wick,30/05/2017 14:00,12.2,10,,,6.4,,96,29,330,Moderate rain,1006,4,7,,,,11.7,
Wick,30/05/2017 15:00,12.4,6,,,0.8,,94,,340,Rain,1006,7,30,,,,11.6,
Wick,30/05/2017 16:00,12.7,5,,,1.2,,97,,330,Light drizzle,1006,2,11,,,,12.3,
Wick,30/05/2017 17:00,11,17,,,1.2,,95,,270,Moderate shower,1008,6,5,,,,10.3,
Wick,30/05/2017 18:00,10.5,28,,15.3,1,11,89,38,280,Rain,1008,3,27,,,,8.9,
Wick,30/05/2017 19:00,10.8,21,,,0,,83,39,280,Dry,1009,7,35,,,,8.2,
Wick,30/05/2017 20:00,10.1,22,,,0,,90,35,270,Dry,1010,1,35,,,,8.6,
Wick,30/05/2017 21:00,9.7,20,,,0,,88,31,270,Dry,1012,1,22,,,,7.9,
Wick,30/05/2017 22:00,9.7,22,,,0,,86,32,270,Dry,1012,4,17,,,,7.5,
Wick,30/05/2017 23:00,9.1,10,,,0,,79,31,250,Dry,1013,7,30,,,,5.7,
Wick,31/05/2017 00:00,7.8,17,,,0,0,85,,280,Dry,1014,0,25,,,,5.6,
Wick,31/05/2017 01:00,7.6,16,,,0,,90,,270,Dry,1014,1,21,,,,6.1,
Wick,31/05/2017 02:00,8.5,15,,,0,,89,,260,Dry,1015,1,23,,,,6.8,
Wick,31/05/2017 03:00,7.9,12,,,0,,86,30,240,Dry,1016,0,21,,,,5.8,
Wick,31/05/2017 04:00,7.7,8,,,0,,87,,240,Dry,1016,0,26,,,,5.8,
Wick,31/05/2017 05:00,8.3,12,,,0,,83,,270,Dry,1017,3,30,,,,5.6,
Wick,31/05/2017 06:00,10.4,17,7.4,,0,0,79,,270,Dry,1018,4,30,,,,7,
Wick,31/05/2017 07:00,10.7,15,,,0,,76,,270,Dry,1018,1,18,,,,6.7,
Wick,31/05/2017 08:00,11.9,22,,,0,,70,29,280,Dry,1019,1,28,,,,6.7,
Wick,31/05/2017 09:00,12.8,17,,,0,,66,29,280,Dry,1019,3,28,,,,6.8,
Wick,31/05/2017 10:00,13.3,16,,,0,,64,,300,Dry,1019,6,30,,,,6.8,
Wick,31/05/2017 11:00,15.7,14,,,0,,54,,300,Haze,1020,5,26,,,,6.5,
Wick,31/05/2017 12:00,13.6,13,,,0,0,56,,280,Fog,1020,7,35,,,,5.2,
Wick,31/05/2017 13:00,13.9,12,,,0,,55,,300,Dry,1020,1,25,,,,5.2,
Wick,31/05/2017 14:00,12.2,9,,,0,,74,,120,Dry,1021,7,28,,,,7.9,
Wick,31/05/2017 15:00,11.7,9,,,0,,75,,110,Dry,1021,8,30,,,,7.6,
Wick,31/05/2017 16:00,12.3,12,,,0,,72,,100,Dry,1021,4,35,,,,7.5,
Wick,31/05/2017 17:00,12.2,13,,,0,,68,,100,Dry,1020,1,30,,,,6.5,
Wick,31/05/2017 18:00,11.7,13,,,0,0,76,,110,Dry,1020,1,30,,,,7.8,
Wick,31/05/2017 19:00,11.5,10,,,0,,79,,110,Dry,1020,1,30,,,,8.1,
Wick,31/05/2017 20:00,10.9,13,,,0,,77,,110,Dry,1020,0,30,,,,7.1,
Wick,31/05/2017 21:00,10.6,13,,,0,,79,,110,Dry,1019,0,29,,,,7.2,
Wick,31/05/2017 22:00,10.4,16,,,0,,82,,120,Dry,1019,0,19,,,,7.6,
Wick,31/05/2017 23:00,10.2,15,,,0,,87,,120,Dry,1018,0,15,,,,8.2,
Wick,01/06/2017 00:00,10.1,14,,,0,0,86,,140,Dry,1018,0,15,,,,7.9,
Wick,01/06/2017 01:00,10.2,14,,,0,,86,,150,Dry,1018,0,12,,,,8.1,
Wick,01/06/2017 02:00,10.3,15,,,0,,86,,150,Dry,1017,0,13,,,,8.2,
Wick,01/06/2017 03:00,10.2,13,,,0,,88,,150,Dry,1016,2,13,,,,8.4,
Wick,01/06/2017 04:00,10.3,14,,,0,,92,,150,Dry,1016,7,12,,,,9.2,
Wick,01/06/2017 05:00,10.5,10,,,0,,92,,150,Dry,1015,1,11,,,,9.4,
Wick,01/06/2017 06:00,11,9,10,,0,0,91,,200,Dry,1015,5,10,,,,9.7,
Wick,01/06/2017 07:00,11.2,12,,,0,,91,,150,Dry,1015,1,12,,,,9.8,
Wick,01/06/2017 08:00,11.6,14,,,0,,90,,170,Dry,1014,1,14,,,,10.1,
Wick,01/06/2017 09:00,11.7,13,,,0,,89,,160,Dry,1014,1,12,,,,10.1,
Wick,01/06/2017 10:00,12.8,13,,,0,,87,,150,Dry,1014,1,14,,,,10.7,
Wick,01/06/2017 11:00,12.8,6,,,0,,87,,140,Dry,1014,1,15,,,,10.8,
Wick,01/06/2017 12:00,13.9,7,,,0,0,83,,140,Drizzly rain,1014,1,17,,,,11.1,
Wick,01/06/2017 13:00,15.2,7,,,0,,72,,160,Rain,1013,8,30,,,,10.3,
Wick,01/06/2017 14:00,14.3,9,,,0,,72,,160,Light shower,1013,7,25,,,,9.4,
Wick,01/06/2017 15:00,14.6,9,,,0,,73,,160,Light shower,1013,7,17,,,,9.9,
Wick,01/06/2017 16:00,13.6,6,,,0,,83,,150,Light rain,1013,8,29,,,,10.8,
Wick,01/06/2017 17:00,13.2,6,,,0,,83,,140,Rain,1013,8,27,,,,10.4,
Wick,01/06/2017 18:00,13.2,5,,15.6,0,0,84,,170,Dry,1012,8,20,,,,10.7,
Wick,01/06/2017 19:00,14.1,6,,,0,,82,,170,Light shower,1012,8,24,,,,11.1,
Wick,01/06/2017 20:00,13.7,5,,,0,,85,,200,Rain,1012,3,16,,,,11.4,
Wick,01/06/2017 21:00,12,8,,,0,,92,,310,Rain,1012,2,15,,,,10.9,
Wick,01/06/2017 22:00,11.4,6,,,0,,95,,280,Dry,1012,6,18,,,,10.7,
Wick,01/06/2017 23:00,11.3,5,,,0,,95,,320,Dry,1012,8,11,,,,10.6,
Wick,02/06/2017 00:00,11.1,6,,,0.2,0.2,98,,330,Light drizzle,1012,1,8,,,,10.9,
Wick,02/06/2017 01:00,11.2,6,,,0.4,,100,,340,Light drizzle,1012,5,5,,,,11.2,
Wick,02/06/2017 02:00,11,3,,,0.2,,100,,30,Light rain,1012,5,7,,,,11,
Wick,02/06/2017 03:00,10.7,2,,,0.4,,100,,10,Light rain,1012,7,9,,,,10.7,
Wick,02/06/2017 04:00,10.9,2,,,0,,100,,250,Rain,1012,4,9,,,,10.9,
Wick,02/06/2017 05:00,11.5,5,,,0,,100,,160,Dry,1011,1,21,,,,11.5,
Wick,02/06/2017 06:00,11.5,5,10.7,,0,0.8,100,,200,Dry,1012,7,12,,,,11.5,
Wick,02/06/2017 07:00,12.3,0,,,0,,97,,0,Dry,1012,1,16,,,,11.9,
Wick,02/06/2017 08:00,13.7,10,,,0,,88,,250,Dry,1012,3,35,,,,11.9,
Wick,02/06/2017 09:00,13.3,9,,,0,,92,,340,Dry,1012,1,30,,,,12.1,
Wick,02/06/2017 10:00,13.8,7,,,0,,90,,40,Dry,1013,4,25,,,,12.2,
Wick,02/06/2017 11:00,11.9,8,,,0.2,,93,,110,Moderate shower,1013,3,7,,,,10.9,
Wick,02/06/2017 12:00,12.2,9,,,0.2,0.4,91,,100,Rain,1013,1,14,,,,10.8,
Wick,02/06/2017 13:00,12.5,8,,,0,,88,,70,Dry,1013,1,6,,,,10.7,
Wick,02/06/2017 14:00,11.4,6,,,1,,92,,20,Moderate shower,1014,6,6,,,,10.2,
Wick,02/06/2017 15:00,12.6,7,,,0.4,,90,,10,Light shower,1014,7,21,,,,11.1,
Wick,02/06/2017 16:00,12,5,,,0,,90,,40,Rain,1014,4,35,,,,10.5,
Wick,02/06/2017 17:00,11.9,6,,,0,,84,,30,Dry,1014,7,28,,,,9.4,
Wick,02/06/2017 18:00,11,2,,14.2,1.4,2.6,89,,20,Moderate shower,1014,2,9,,,,9.3,
Wick,02/06/2017 19:00,11.1,5,,,0.2,,91,,80,Rain,1014,6,29,,,,9.7,
Wick,02/06/2017 20:00,10.6,7,,,0,,89,,80,Dry,1014,0,30,,,,8.9,
Wick,02/06/2017 21:00,9.6,6,,,0,,92,,70,Dry,1014,0,35,,,,8.5,
Wick,02/06/2017 22:00,8.9,6,,,0,,92,,70,Dry,1014,1,30,,,,7.7,
Wick,02/06/2017 23:00,9.5,5,,,0,,89,,80,Dry,1014,0,40,,,,7.9,
Wick,03/06/2017 00:00,9.1,5,,,0,0.2,97,,120,Dry,1014,1,40,,,,8.7,
Wick,03/06/2017 01:00,10.1,3,,,0,,96,,140,Dry,1014,7,24,,,,9.6,
Wick,03/06/2017 02:00,8.9,1,,,0,,97,,190,Misty,1014,8,8,,,,8.6,
Wick,03/06/2017 03:00,8.7,2,,,0,,100,,260,Thickening fog,1014,9,0,,,,8.7,
Wick,03/06/2017 04:00,9.5,1,,,0,,100,,120,Fog thinning,1013,9,0,,,,9.5,
Wick,03/06/2017 05:00,9.9,8,,,0,,100,,130,Drizzly rain,1013,9,0,,,,9.9,
Wick,03/06/2017 06:00,10.3,7,6.8,,0,0,100,,120,Light drizzle,1013,9,0,,,,10.3,
Wick,03/06/2017 07:00,10.4,7,,,0,,100,,120,Fog thinning,1013,9,0,,,,10.4,
Wick,03/06/2017 08:00,10,6,,,0,,100,,140,Fog,1013,9,1,,,,10,
Wick,03/06/2017 09:00,10.4,8,,,0,,100,,110,Fog,1013,8,12,,,,10.4,
Wick,03/06/2017 10:00,10.4,8,,,0,,98,,130,Dry,1012,8,18,,,,10.2,
Wick,03/06/2017 11:00,11.3,7,,,0,,92,,110,Dry,1012,8,25,,,,10.1,
Wick,03/06/2017 12:00,12.1,6,,,0,0,89,,90,Dry,1011,6,19,,,,10.5,
Wick,03/06/2017 13:00,12.5,9,,,0,,85,,90,Dry,1011,6,35,,,,10.1,
Wick,03/06/2017 14:00,12.8,9,,,0,,85,,90,Dry,1010,7,25,,,,10.5,
Wick,03/06/2017 15:00,12.3,13,,,0,,88,,90,Dry,1010,7,15,,,,10.4,
Wick,03/06/2017 16:00,12.2,13,,,0,,89,,130,Dry,1010,7,16,,,,10.6,
Wick,03/06/2017 17:00,12.7,12,,,0,,88,,130,Dry,1010,2,23,,,,10.8,
Wick,03/06/2017 18:00,11.5,8,,13.8,0,0,90,,140,Dry,1010,3,45,,,,10,
Wick,03/06/2017 19:00,11.6,6,,,0,,90,,110,Dry,1010,1,50,,,,10.1,
Wick,03/06/2017 20:00,10.9,5,,,0,,93,,120,Dry,1010,1,30,,,,9.9,
Wick,03/06/2017 21:00,10.6,8,,,0,,96,,80,Dry,1009,2,35,,,,10,
Wick,03/06/2017 22:00,10.5,6,,,0,,98,,120,Dry,1009,1,13,,,,10.2,
Wick,03/06/2017 23:00,10.6,5,,,0,,98,,90,Misty,1009,1,13,,,,10.3,
Wick,04/06/2017 00:00,10.3,5,,,0,0,98,,100,Misty,1009,7,8,,,,10.1,
Wick,04/06/2017 01:00,10.1,5,,,0,,99,,120,Misty,1008,6,9,,,,10,
Wick,04/06/2017 02:00,9.5,5,,,0,,100,,140,Moderate drizzle,1008,9,0,,,,9.5,
Wick,04/06/2017 03:00,9,1,,,0,,100,,290,Thickening fog,1008,9,0,,,,9,
Wick,04/06/2017 04:00,7.6,6,,,0,,100,,300,Fog thinning,1008,9,0,,,,7.6,
Wick,04/06/2017 05:00,6.6,3,,,0,,100,,260,Fog,1008,9,0,,,,6.6,
Wick,04/06/2017 06:00,6.7,5,6.5,,0,0,100,,270,Fog,1009,2,50,,,,6.7,
Wick,04/06/2017 07:00,9,2,,,0,,100,,280,Dry,1009,3,50,,,,9,
Wick,04/06/2017 08:00,12,5,,,0,,85,,360,Dry,1008,6,13,,,,9.7,
Wick,04/06/2017 09:00,11.1,8,,,0,,83,,130,Dry,1009,5,35,,,,8.4,
Wick,04/06/2017 10:00,11.8,8,,,0,,81,,120,Rain,1009,6,30,,,,8.8,
Wick,04/06/2017 11:00,12.6,9,,,0,,72,,130,Dry,1008,1,23,,,,7.7,
Wick,04/06/2017 12:00,13,9,,,0,0,67,,120,Dry,1008,5,35,,,,7.2,
Wick,04/06/2017 13:00,13,9,,,0,,69,,140,Dry,1008,1,35,,,,7.5,
Wick,04/06/2017 14:00,12.9,10,,,0,,71,,100,Dry,1008,2,30,,,,7.8,
Wick,04/06/2017 15:00,13.7,13,,,0,,73,,110,Dry,1008,3,35,,,,9,
Wick,04/06/2017 16:00,12.4,8,,,0,,78,,140,Dry,1008,6,16,,,,8.8,
Wick,04/06/2017 17:00,11.9,7,,,0.4,,84,,120,Moderate shower,1008,7,17,,,,9.3,
Wick,04/06/2017 18:00,11.7,7,,14.4,0,0.4,86,,160,Light shower,1008,8,26,,,,9.5,
Wick,04/06/2017 19:00,11.8,5,,,0.4,,86,,210,Rain,1008,8,40,,,,9.6,
Wick,04/06/2017 20:00,11.6,5,,,0,,88,,190,Dry,1007,8,45,,,,9.7,
Wick,04/06/2017 21:00,10.7,3,,,0,,90,,170,Dry,1007,5,50,,,,9.2,
Wick,04/06/2017 22:00,10.8,3,,,0,,92,,120,Dry,1007,4,45,,,,9.7,
Wick,04/06/2017 23:00,10.5,3,,,0,,94,,140,Dry,1007,1,45,,,,9.7,
Wick,05/06/2017 00:00,8.6,1,,,0,0.4,94,,200,Dry,1006,3,10,,,,7.8,
Wick,05/06/2017 01:00,9.5,2,,,0,,92,,330,Rain,1006,7,45,,,,8.3,
Wick,05/06/2017 02:00,8.7,2,,,0,,97,,260,Dry,1005,2,30,,,,8.3,
Wick,05/06/2017 03:00,8.4,2,,,0,,96,,250,Dry,1005,3,19,,,,7.8,
Wick,05/06/2017 04:00,8,2,,,0,,99,,260,Dry,1004,6,40,,,,7.9,
Wick,05/06/2017 05:00,8.5,2,,,0,,97,,240,Dry,1004,3,45,,,,8.2,
Wick,05/06/2017 06:00,9.8,1,7.4,,0,0,98,,290,Dry,1003,7,30,,,,9.6,
Wick,05/06/2017 07:00,11.1,3,,,0,,93,,70,Rain,1003,8,35,,,,10.1,
Wick,05/06/2017 08:00,11.5,6,,,0,,92,,90,Dry,1002,7,35,,,,10.3,
Wick,05/06/2017 09:00,11.8,8,,,0,,88,,110,Drizzly rain,1002,7,40,,,,10,
Wick,05/06/2017 10:00,12,9,,,0,,89,,110,Rain,1001,7,21,,,,10.4,
Wick,05/06/2017 11:00,12.3,9,,,0,,86,,130,Dry,1000,8,40,,,,10.1,
Wick,05/06/2017 12:00,12.3,12,,,0,0,84,,120,Dry,1000,1,30,,,,9.7,
Wick,05/06/2017 13:00,11.1,12,,,0,,81,,160,Rain,1000,3,40,,,,8.1,
Wick,05/06/2017 14:00,11.5,9,,,0,,82,,110,Dry,999,7,26,,,,8.6,
Wick,05/06/2017 15:00,11.8,13,,,0,,80,,110,Dry,999,2,23,,,,8.6,
Wick,05/06/2017 16:00,11,13,,,0,,86,,100,Dry,998,2,19,,,,8.8,
Wick,05/06/2017 17:00,11,14,,,0,,85,,80,Dry,998,2,40,,,,8.6,
Wick,05/06/2017 18:00,10.5,14,,12.7,0,0,89,,70,Dry,997,6,12,,,,8.9,
Wick,05/06/2017 19:00,9.7,14,,,0.4,,99,,50,Rain,997,7,5,,,,9.6,
Wick,05/06/2017 20:00,9.9,10,,,1,,100,,50,Moderate drizzle,996,5,4,,,,9.9,
Wick,05/06/2017 21:00,10.1,12,,,0.4,,98,,50,Rain,996,6,15,,,,9.9,
Wick,05/06/2017 22:00,10.2,10,,,0,,100,,40,Misty,996,7,8,,,,10.2,
Wick,05/06/2017 23:00,10.3,10,,,0,,100,,50,Misty,995,8,8,,,,10.3,
Wick,06/06/2017 00:00,10.3,12,,,1,3,100,,50,Rain,995,8,5,,,,10.3,
Wick,06/06/2017 01:00,10.2,0,,,0,,100,,0,Misty,994,8,3,,,,10.2,
Wick,06/06/2017 02:00,10.4,0,,,0,,100,,0,Misty,994,8,3,,,,10.4,
Wick,06/06/2017 03:00,10.3,0,,,0,,100,,0,Misty,993,8,3,,,,10.3,
Wick,06/06/2017 04:00,10.5,0,,,0,,100,,0,Misty,993,8,4,,,,10.5,
Wick,06/06/2017 05:00,10.3,0,,,0,,100,,0,Rain,993,7,6,,,,10.3,
Wick,06/06/2017 06:00,10.3,0,9.6,,0.8,1,100,,0,Moderate shower,993,8,6,,,,10.3,
Wick,06/06/2017 07:00,10.7,0,,,0.2,,100,,0,Rain,993,8,9,,,,10.7,
Wick,06/06/2017 08:00,10.6,0,,,0.2,,100,,0,Drizzly rain,993,8,8,,,,10.6,
Wick,06/06/2017 09:00,10.7,0,,,0.6,,100,,0,Moderate rain,993,8,8,,,,10.7,
Wick,06/06/2017 10:00,10.7,0,,,1.2,,100,,0,Moderate rain,993,8,6,,,,10.7,
Wick,06/06/2017 11:00,10.4,0,,,2.4,,100,,0,Moderate rain,993,8,5,,,,10.4,
Wick,06/06/2017 12:00,10.6,0,,,1.6,6,100,,0,Moderate rain,993,8,5,,,,10.6,
Wick,06/06/2017 13:00,10.5,0,,,2,,100,,0,Moderate rain,993,8,5,,,,10.5,
Wick,06/06/2017 14:00,10.5,0,,,2,,100,,0,Moderate rain,993,7,6,,,,10.5,
Wick,06/06/2017 15:00,10.6,0,,,4,,100,,0,Moderate rain,993,8,5,,,,10.6,
Wick,06/06/2017 16:00,10.6,0,,,1,,100,,0,Light rain,992,8,7,,,,10.6,
Wick,06/06/2017 17:00,10.4,22,,,1.6,,100,30,360,Moderate rain,992,8,5,,,,10.4,
Wick,06/06/2017 18:00,10.5,18,,10.8,1.6,12,100,,360,Moderate rain,992,8,7,,,,10.5,
Wick,06/06/2017 19:00,10.5,22,,,1.4,,100,29,360,Moderate rain,993,8,8,,,,10.5,
Wick,06/06/2017 20:00,10.3,26,,,1.4,,100,35,350,Moderate rain,993,8,4,,,,10.3,
Wick,06/06/2017 21:00,10,25,,,1,,100,35,330,Light rain,994,8,3,,,,10,
Wick,06/06/2017 22:00,9.8,28,,,1,,99,39,330,Light rain,994,8,7,,,,9.7,
Wick,06/06/2017 23:00,9.5,25,,,3.2,,98,41,320,Moderate rain,995,8,4,,,,9.3,
Wick,07/06/2017 00:00,9.2,23,,,4.8,13,99,38,320,Moderate rain,995,8,4,,,,9.1,
Wick,07/06/2017 01:00,9.2,28,,,4.8,,99,38,320,Moderate rain,996,5,6,,,,9.1,
Wick,07/06/2017 02:00,9.1,28,,,2.4,,99,39,320,Moderate rain,996,5,4,,,,9,
Wick,07/06/2017 03:00,8.9,32,,,4.4,,99,44,310,Moderate rain,996,6,3,,,,8.8,
Wick,07/06/2017 04:00,8.8,32,,,3,,97,47,310,Light rain,996,3,6,,,,8.4,
Wick,07/06/2017 05:00,8.7,31,,,2.2,,98,44,310,Moderate rain,997,6,5,,,,8.5,
Wick,07/06/2017 06:00,8.5,29,8.5,,2.4,19,97,44,310,Moderate rain,998,4,5,,,,8.2,
Wick,07/06/2017 07:00,8.4,33,,,5.8,,98,46,300,Moderate rain,998,2,5,,,,8.2,
Wick,07/06/2017 08:00,8.3,29,,,2.8,,98,43,310,Moderate rain,999,2,6,,,,8.1,
Wick,07/06/2017 09:00,8.5,28,,,1.4,,95,40,310,Light rain,1000,7,11,,,,7.8,
Wick,07/06/2017 10:00,8.6,26,,,0,,95,43,310,Rain,1001,8,11,,,,7.9,
Wick,07/06/2017 11:00,9.1,28,,,0,,94,40,310,Dry,1001,8,15,,,,8.2,
Wick,07/06/2017 12:00,9.2,31,,,0,10,92,41,310,Dry,1001,7,14,,,,8.1,
Wick,07/06/2017 13:00,9.7,31,,,0,,86,44,310,Dry,1002,2,18,,,,7.5,
Wick,07/06/2017 14:00,10.1,30,,,0,,82,40,310,Dry,1002,5,30,,,,7.3,
Wick,07/06/2017 15:00,10.3,28,,,0,,79,37,310,Dry,1003,6,26,,,,6.9,
Wick,07/06/2017 16:00,9.2,25,,,0,,83,37,290,Dry,1003,6,21,,,,6.6,
Wick,07/06/2017 17:00,9.4,26,,,0,,80,37,300,Dry,1004,5,18,,,,6.2,
Wick,07/06/2017 18:00,9.3,24,,11.4,0,0,77,35,300,Dry,1004,7,35,,,,5.6,
Wick,07/06/2017 19:00,9.2,20,,,0,,71,30,290,Dry,1004,7,40,,,,4.4,
Wick,07/06/2017 20:00,8.4,14,,,0,,71,,280,Dry,1005,8,45,,,,3.6,
Wick,07/06/2017 21:00,7.8,13,,,0,,76,,270,Dry,1005,8,50,,,,4,
Wick,07/06/2017 22:00,7.4,12,,,0,,74,,280,Dry,1005,8,50,,,,3.1,
Wick,07/06/2017 23:00,6.9,13,,,0,,72,,310,Dry,1005,7,45,,,,2.4,
Wick,08/06/2017 00:00,4.3,8,,,0,0,83,,270,Dry,1005,3,40,,,,1.8,
Wick,08/06/2017 01:00,4.2,8,,,0,,88,,290,Dry,1005,4,50,,,,2.5,
Wick,08/06/2017 02:00,3.9,5,,,0,,90,,230,Dry,1005,4,50,,,,2.5,
Wick,08/06/2017 03:00,4.3,6,,,0,,87,,220,Dry,1005,7,45,,,,2.4,
Wick,08/06/2017 04:00,3.8,3,,,0,,89,,250,Dry,1005,3,45,,,,2.2,
Wick,08/06/2017 05:00,4.1,5,,,0,,89,,220,Dry,1005,0,50,,,,2.5,
Wick,08/06/2017 06:00,6.2,3,3.4,,0,0,86,,230,Dry,1005,1,45,,,,4.2,
Wick,08/06/2017 07:00,9.3,3,,,0,,63,,200,Dry,1005,1,35,,,,2.8,
Wick,08/06/2017 08:00,9.6,5,,,0,,62,,140,Dry,1005,1,40,,,,2.9,
Wick,08/06/2017 09:00,9.5,8,,,0,,62,,120,Dry,1005,1,45,,,,2.7,
Wick,08/06/2017 10:00,10.3,10,,,0,,64,,110,Dry,1005,1,30,,,,4,
Wick,08/06/2017 11:00,10.8,12,,,0,,65,,110,Dry,1004,1,27,,,,4.7,
Wick,08/06/2017 12:00,10.8,15,,,0,0,64,,100,Dry,1004,1,20,,,,4.3,
Wick,08/06/2017 13:00,11.3,16,,,0,,67,,100,Dry,1004,1,40,,,,5.6,
Wick,08/06/2017 14:00,10.6,16,,,0,,68,,100,Dry,1004,7,30,,,,5.1,
Wick,08/06/2017 15:00,10.7,15,,,0,,71,,100,Dry,1004,2,40,,,,5.7,
Wick,08/06/2017 16:00,10,16,,,0,,74,,100,Dry,1003,6,26,,,,5.6,
Wick,08/06/2017 17:00,10.2,17,,,0,,75,,90,Dry,1003,7,30,,,,6.1,
Wick,08/06/2017 18:00,10.3,18,,11.5,0,0,79,,90,Dry,1002,8,35,,,,6.9,
Wick,08/06/2017 19:00,10.1,18,,,0,,80,,90,Dry,1002,2,27,,,,6.9,
Wick,08/06/2017 20:00,10,17,,,0,,82,,80,Dry,1002,2,30,,,,7.1,
Wick,08/06/2017 21:00,9.7,17,,,0,,87,,70,Dry,1001,1,18,,,,7.7,
Wick,08/06/2017 22:00,9.6,17,,,0,,90,,60,Dry,1001,3,16,,,,8.1,
Wick,08/06/2017 23:00,9.5,17,,,0.2,,93,,50,Drizzly rain,1000,6,14,,,,8.5,
Wick,09/06/2017 00:00,9.4,20,,,0.2,0.4,96,,40,Light drizzle,1000,7,12,,,,8.8,
Wick,09/06/2017 01:00,9.1,21,,,0.6,,96,,30,Light shower,999,8,10,,,,8.6,
Wick,09/06/2017 02:00,8.9,23,,,0.8,,97,30,30,Moderate rain,998,5,5,,,,8.5,
Wick,09/06/2017 03:00,8.7,24,,,2,,99,31,20,Moderate rain,998,7,4,,,,8.6,
Wick,09/06/2017 04:00,8.9,26,,,2.4,,99,36,10,Moderate rain,998,8,5,,,,8.8,
Wick,09/06/2017 05:00,9.1,25,,,0.6,,100,35,10,Moderate rain,998,8,3,,,,9.1,
Wick,09/06/2017 06:00,9.2,25,8.7,,1,7.6,100,37,360,Light rain,997,8,3,,,,9.2,
Wick,09/06/2017 07:00,9.4,26,,,0.6,,100,36,360,Light rain,998,8,3,,,,9.4,
Wick,09/06/2017 08:00,9.7,23,,,0.2,,100,37,360,Light rain,998,8,2,,,,9.7,
Wick,09/06/2017 09:00,10.1,22,,,0.4,,100,31,360,Rain,999,8,2,,,,10.1,
Wick,09/06/2017 10:00,10.4,18,,,0,,100,,10,Misty,999,8,2,,,,10.4,
Wick,09/06/2017 11:00,10.7,17,,,0,,100,,360,Misty,1000,7,2,,,,10.7,
Wick,09/06/2017 12:00,10.9,15,,,0,1,100,,350,Misty,1001,8,3,,,,10.9,
Wick,09/06/2017 13:00,11.2,12,,,0,,100,,340,Misty,1002,3,5,,,,11.2,
Wick,09/06/2017 14:00,10.9,20,,,0,,100,,330,Misty,1003,8,6,,,,10.9,
Wick,09/06/2017 15:00,10.9,20,,,0,,99,,330,Dry,1004,8,15,,,,10.8,
Wick,09/06/2017 16:00,10.7,16,,,0,,98,,320,Dry,1005,8,13,,,,10.5,
Wick,09/06/2017 17:00,10.4,18,,,0,,99,,320,Misty,1006,8,9,,,,10.3,
Wick,09/06/2017 18:00,10.2,16,,11.9,0,0,100,,310,Misty,1006,8,6,,,,10.2,
Wick,09/06/2017 19:00,10,17,,,,,100,,320,Misty,1007,5,8,,,,10,
Wick,09/06/2017 20:00,10,15,,,,,99,,320,Dry,1008,5,14,,,,9.9,
Wick,09/06/2017 21:00,9.8,12,,,,,100,,310,Misty,1008,8,3,,,,9.8,
Wick,09/06/2017 22:00,9.7,8,,,,,100,,290,Misty,1009,8,5,,,,9.7,
Wick,09/06/2017 23:00,9.7,9,,,,,100,,280,Misty,1009,8,4,,,,9.7,
Wick,10/06/2017 00:00,9.7,8,,,0,0,100,,290,Misty,1009,8,1,,,,9.7,
Wick,10/06/2017 01:00,9.7,6,,,0,,100,,290,Thickening fog,1009,8,1,,,,9.7,
Wick,10/06/2017 02:00,9.6,6,,,0,,100,,270,Fog,1009,8,4,,,,9.6,
Wick,10/06/2017 03:00,9.4,6,,,0,,100,,290,Misty,1009,8,5,,,,9.4,
Wick,10/06/2017 04:00,9.2,2,,,0,,100,,320,Dry,1008,8,16,,,,9.2,
Wick,10/06/2017 05:00,9.3,3,,,0,,100,,100,Dry,1008,8,23,,,,9.3,
Wick,10/06/2017 06:00,9.5,7,9.2,,0,0,100,,100,Dry,1008,8,6,,,,9.5,
Wick,10/06/2017 07:00,9.7,9,,,0,,100,,130,Misty,1008,8,4,,,,9.7,
Wick,10/06/2017 08:00,10.1,12,,,0,,100,,130,Fog,1008,9,2,,,,10.1,
Wick,10/06/2017 09:00,10.1,14,,,0,,99,,130,Fog,1007,8,13,,,,10,
Wick,10/06/2017 10:00,10.7,13,,,0,,97,,120,Light shower,1006,7,11,,,,10.3,
Wick,10/06/2017 11:00,11.2,14,,,0.4,,98,,130,Rain,1006,1,14,,,,10.9,
Wick,10/06/2017 12:00,12.1,14,,,0,0.4,94,,150,Rain,1005,6,15,,,,11.2,
Wick,10/06/2017 13:00,13,16,,,0,,87,,130,Dry,1004,3,16,,,,10.9,
Wick,10/06/2017 14:00,12.8,13,,,0,,86,,130,Dry,1004,7,16,,,,10.6,
Wick,10/06/2017 15:00,12.7,17,,,0,,88,30,150,Dry,1003,2,14,,,,10.9,
Wick,10/06/2017 16:00,13.4,17,,,0,,89,,140,Dry,1003,5,17,,,,11.7,
Wick,10/06/2017 17:00,13.7,17,,,0,,87,30,160,Dry,1002,5,19,,,,11.7,
Wick,10/06/2017 18:00,12.6,14,,14,0,0,90,,150,Dry,1002,6,15,,,,11.1,
Wick,10/06/2017 19:00,14.1,12,,,0,,87,,160,Dry,1002,8,18,,,,12.1,
Wick,10/06/2017 20:00,13.7,9,,,0,,88,,160,Dry,1002,8,30,,,,11.9,
Wick,10/06/2017 21:00,13.2,6,,,0,,90,,220,Dry,1002,6,23,,,,11.7,
Wick,10/06/2017 22:00,13.5,5,,,0,,90,,190,Dry,1002,7,19,,,,12,
Wick,10/06/2017 23:00,13.2,3,,,0,,94,,190,Rain,1002,1,22,,,,12.3,
Wick,11/06/2017 00:00,13.9,7,,,0,0,89,,160,Dry,1001,7,16,,,,12.2,
Wick,11/06/2017 01:00,13.8,7,,,0.2,,92,,190,Light rain,1001,8,18,,,,12.6,
Wick,11/06/2017 02:00,13.6,9,,,0,,93,,200,Rain,1001,8,40,,,,12.6,
Wick,11/06/2017 03:00,13.4,7,,,0,,93,,200,Dry,1001,7,40,,,,12.4,
Wick,11/06/2017 04:00,13.5,7,,,0,,86,,230,Rain,1001,8,40,,,,11.3,
Wick,11/06/2017 05:00,12.6,5,,,0,,83,,210,Dry,1001,8,30,,,,9.9,
Wick,11/06/2017 06:00,13.7,6,12.4,,0,0.2,83,,190,Dry,1001,1,20,,,,11,
Wick,11/06/2017 07:00,14.2,13,,,0,,77,,210,Dry,1001,0,24,,,,10.4,
Wick,11/06/2017 08:00,14.8,14,,,0,,71,,200,Dry,1001,0,30,,,,9.7,
Wick,11/06/2017 09:00,15.7,14,,,0,,67,,190,Dry,1000,0,30,,,,9.7,
Wick,11/06/2017 10:00,13.7,10,,,0,,78,,150,Dry,1000,0,20,,,,10,
Wick,11/06/2017 11:00,14.5,10,,,0,,75,,150,Dry,999,0,13,,,,10.2,
Wick,11/06/2017 12:00,15.8,12,,,0,0,71,,160,Dry,999,2,12,,,,10.7,
Wick,11/06/2017 13:00,15.2,9,,,0,,75,,150,Dry,998,1,35,,,,11,
Wick,11/06/2017 14:00,14.6,10,,,0,,82,,140,Dry,998,7,22,,,,11.6,
Wick,11/06/2017 15:00,14.6,12,,,0,,79,,140,Dry,997,4,40,,,,11.1,
Wick,11/06/2017 16:00,13.1,8,,,0,,83,,140,Dry,997,1,30,,,,10.3,
Wick,11/06/2017 17:00,13.8,6,,,0,,81,,110,Dry,996,8,35,,,,10.7,
Wick,11/06/2017 18:00,13.3,9,,16.4,0,0,78,,270,Rain,996,2,27,,,,9.6,
Wick,11/06/2017 19:00,13.4,2,,,0.2,,75,,140,Rain,996,6,40,,,,9.2,
Wick,11/06/2017 20:00,12.7,6,,,1.2,,84,,180,Moderate shower,996,1,9,,,,10.2,
Wick,11/06/2017 21:00,12,6,,,0.6,,93,,250,Rain,996,6,50,,,,11,
Wick,11/06/2017 22:00,11.5,5,,,0,,91,,240,Rain,996,6,45,,,,10.2,
Wick,11/06/2017 23:00,11.6,3,,,0,,89,,230,Dry,997,6,40,,,,10,
Wick,12/06/2017 00:00,11.5,5,,,0,2,88,,200,Light shower,997,8,17,,,,9.6,
Wick,12/06/2017 01:00,11.5,3,,,0.2,,92,,170,Drizzly rain,997,8,21,,,,10.3,
Wick,12/06/2017 02:00,11.3,5,,,0.2,,96,,180,Light shower,997,7,16,,,,10.7,
Wick,12/06/2017 03:00,11.2,3,,,2,,96,,230,Moderate rain,997,1,10,,,,10.7,
Wick,12/06/2017 04:00,11.4,2,,,0.4,,96,,190,Drizzly rain,997,2,30,,,,10.8,
Wick,12/06/2017 05:00,11.6,6,,,0,,96,,200,Rain,997,6,24,,,,11.1,
Wick,12/06/2017 06:00,11.9,5,11.1,,0,3,94,,200,Light shower,997,3,30,,,,11,
Wick,12/06/2017 07:00,12.4,6,,,0,,92,,230,Rain,998,2,35,,,,11.2,
Wick,12/06/2017 08:00,13.6,12,,,0,,88,,260,Dry,998,5,50,,,,11.8,
Wick,12/06/2017 09:00,14.7,12,,,0,,86,,290,Dry,999,3,40,,,,12.4,
Wick,12/06/2017 10:00,14.2,13,,,3.6,,92,,290,Rain,1000,4,50,,,,13,
Wick,12/06/2017 11:00,13.8,17,,,0,,90,,290,Dry,1002,2,25,,,,12.3,
Wick,12/06/2017 12:00,15.4,22,,,0,4,82,30,280,Dry,1003,1,30,,,,12.4,
Wick,12/06/2017 13:00,14.1,22,,,0,,86,31,290,Dry,1004,7,18,,,,11.8,
Wick,12/06/2017 14:00,14.5,23,,,0,,81,29,290,Dry,1005,4,25,,,,11.4,
Wick,12/06/2017 15:00,16.1,22,,,0,,77,30,290,Dry,1006,2,22,,,,12.2,
Wick,12/06/2017 16:00,15.9,21,,,0,,75,29,290,Dry,1006,1,30,,,,11.6,
Wick,12/06/2017 17:00,15,20,,,0,,78,29,290,Dry,1007,2,19,,,,11.3,
Wick,12/06/2017 18:00,13.9,18,,16.7,0,0,82,,280,Dry,1008,7,30,,,,10.9,
Wick,12/06/2017 19:00,13.3,18,,,0,,84,,290,Dry,1008,4,27,,,,10.8,
Wick,12/06/2017 20:00,12.9,16,,,0,,85,,280,Dry,1009,1,30,,,,10.6,
Wick,12/06/2017 21:00,12.3,10,,,0,,88,,270,Dry,1010,7,30,,,,10.4,
Wick,12/06/2017 22:00,12.1,8,,,0,,84,,250,Dry,1010,8,30,,,,9.6,
Wick,12/06/2017 23:00,11.8,5,,,0,,88,,240,Dry,1010,2,21,,,,10,
Wick,13/06/2017 00:00,12.2,7,,,0,0,84,,220,Dry,1010,2,30,,,,9.7,
Wick,13/06/2017 01:00,10.9,14,,,0,,94,,250,Rain,1011,3,12,,,,10.1,
Wick,13/06/2017 02:00,10,12,,,0,,93,,270,Dry,1011,1,45,,,,9,
Wick,13/06/2017 03:00,9.3,3,,,0,,94,,,Dry,1011,1,45,,,,8.4,
Wick,13/06/2017 04:00,9.9,5,,,0,,89,,170,Dry,1011,0,35,,,,8.2,
Wick,13/06/2017 05:00,10.6,5,,,0,,84,,190,Dry,1012,7,50,,,,8.1,
Wick,13/06/2017 06:00,10.8,3,8.9,,0,0,85,,170,Drizzly rain,1011,8,45,,,,8.5,
Wick,13/06/2017 07:00,12,7,,,0,,85,,170,Rain,1012,3,45,,,,9.7,
Wick,13/06/2017 08:00,11.8,8,,,0,,83,,190,Rain,1012,5,45,,,,9.1,
Wick,13/06/2017 09:00,13.2,10,,,0,,82,,190,Dry,1012,7,35,,,,10.2,
Wick,13/06/2017 10:00,13.7,9,,,0,,84,,160,Dry,1012,4,20,,,,11.1,
Wick,13/06/2017 11:00,13.3,13,,,0,,85,,170,Dry,1012,7,27,,,,10.9,
Wick,13/06/2017 12:00,14.8,12,,,0,0,80,,170,Dry,1012,5,40,,,,11.4,
Wick,13/06/2017 13:00,13.8,3,,,2.2,,94,,50,Violent shower,1012,1,4,,,,13,
Wick,13/06/2017 14:00,14.3,3,,,3.2,,98,,170,Rain,1012,1,40,,,,14,
Wick,13/06/2017 15:00,13.3,9,,,4.8,,96,,320,Rain,1013,5,27,,,,12.7,
Wick,13/06/2017 16:00,13,9,,,0,,96,,60,Dry,1013,4,30,,,,12.5,
Wick,13/06/2017 17:00,12.6,8,,,0,,96,,100,Dry,1013,1,23,,,,12,
Wick,13/06/2017 18:00,12.7,8,,15.7,0,10,97,,100,Rain,1013,1,26,,,,12.3,
Wick,13/06/2017 19:00,12.2,6,,,0,,97,,120,Dry,1014,1,26,,,,11.8,
Wick,13/06/2017 20:00,11.8,6,,,0.2,,98,,110,Rain,1013,3,18,,,,11.6,
Wick,13/06/2017 21:00,11.5,7,,,0,,98,,130,Dry,1013,0,25,,,,11.2,
Wick,13/06/2017 22:00,11.5,6,,,0,,98,,140,Dry,1014,4,30,,,,11.2,
Wick,13/06/2017 23:00,11.6,7,,,0,,96,,130,Rain,1013,0,35,,,,11,
Wick,14/06/2017 00:00,12.2,7,,,0,0.2,93,,170,Rain,1013,2,40,,,,11.2,
Wick,14/06/2017 01:00,12.2,2,,,0,,94,,180,Rain,1013,8,35,,,,11.3,
Wick,14/06/2017 02:00,12.4,7,,,0,,93,,180,Dry,1013,1,40,,,,11.4,
Wick,14/06/2017 03:00,12.5,6,,,0,,93,,230,Dry,1013,1,45,,,,11.5,
Wick,14/06/2017 04:00,12.3,7,,,0,,94,,210,Dry,1013,3,45,,,,11.5,
Wick,14/06/2017 05:00,12.9,8,,,0,,93,,200,Dry,1013,7,45,,,,11.8,
Wick,14/06/2017 06:00,14,8,11.3,,0,0,87,,210,Dry,1013,8,30,,,,11.9,
Wick,14/06/2017 07:00,14.6,7,,,0,,86,,170,Dry,1013,3,40,,,,12.3,
Wick,14/06/2017 08:00,15.1,10,,,0,,83,,180,Dry,1013,3,22,,,,12.4,
Wick,14/06/2017 09:00,14.5,10,,,0,,82,,170,Dry,1012,1,40,,,,11.6,
Wick,14/06/2017 10:00,16.3,13,,,0,,73,,180,Dry,1012,1,24,,,,11.6,
Wick,14/06/2017 11:00,16.2,13,,,0,,73,,170,Dry,1012,1,30,,,,11.5,
Wick,14/06/2017 12:00,17.9,9,,,0,0,74,,150,Dry,1012,1,19,,,,13.4,
Wick,14/06/2017 13:00,16.1,10,,,0,,76,,150,Dry,1012,1,40,,,,12,
Wick,14/06/2017 14:00,15.7,10,,,0,,80,,160,Dry,1012,7,26,,,,12.3,
Wick,14/06/2017 15:00,15.9,7,,,0,,82,,170,Light shower,1011,8,30,,,,13,
Wick,14/06/2017 16:00,15,6,,,0,,84,,130,Rain,1011,8,25,,,,12.5,
Wick,14/06/2017 17:00,14.7,9,,,0,,82,,140,Light rain,1010,0,28,,,,11.8,
Wick,14/06/2017 18:00,15.2,10,,18,0,0,78,,150,Rain,1010,1,50,,,,11.4,
Wick,14/06/2017 19:00,14.1,13,,,0,,88,,160,Dry,1010,1,27,,,,12.3,
Wick,14/06/2017 20:00,13.8,16,,,0,,87,,150,Dry,1009,0,21,,,,11.8,
Wick,14/06/2017 21:00,13.7,13,,,0,,87,,170,Dry,1009,1,23,,,,11.7,
Wick,14/06/2017 22:00,13.8,13,,,0,,86,,150,Rain,1008,0,29,,,,11.6,
Wick,14/06/2017 23:00,13.6,15,,,0,,87,,150,Dry,1007,0,19,,,,11.6,
Wick,15/06/2017 00:00,13.5,15,,,0,0,88,,150,Dry,1006,0,17,,,,11.7,
Wick,15/06/2017 01:00,13.4,14,,,0,,90,,140,Dry,1005,0,14,,,,11.8,
Wick,15/06/2017 02:00,12.8,15,,,0,,93,,150,Dry,1005,0,12,,,,11.7,
Wick,15/06/2017 03:00,12.4,15,,,0,,94,,150,Misty,1004,0,9,,,,11.5,
Wick,15/06/2017 04:00,12.7,13,,,0,,91,,160,Rain,1003,0,13,,,,11.4,
Wick,15/06/2017 05:00,13.5,8,,,0,,83,,180,Dry,1002,0,23,,,,10.7,
Wick,15/06/2017 06:00,13.9,14,12.3,,0,0,77,,180,Dry,1002,0,27,,,,10.1,
Wick,15/06/2017 07:00,14.9,15,,,0,,75,29,200,Dry,1002,0,25,,,,10.6,
Wick,15/06/2017 08:00,15.2,15,,,0,,77,,190,Dry,1002,1,30,,,,11.3,
Wick,15/06/2017 09:00,16.1,12,,,0,,73,,180,Dry,1002,7,30,,,,11.4,
Wick,15/06/2017 10:00,16.7,15,,,0,,69,,180,Dry,1003,6,20,,,,11.2,
Wick,15/06/2017 11:00,16.6,17,,,0,,70,,210,Dry,1003,6,45,,,,11.3,
Wick,15/06/2017 12:00,14.3,14,,,0,0,83,,290,Rain,1003,8,20,,,,11.5,
Wick,15/06/2017 13:00,15.4,8,,,0,,78,,360,Rain,1003,6,29,,,,11.7,
Wick,15/06/2017 14:00,14.2,7,,,0.8,,89,,110,Rain,1004,1,22,,,,12.5,
Wick,15/06/2017 15:00,14.7,10,,,1.8,,93,,20,Rain,1004,6,9,,,,13.7,
Wick,15/06/2017 16:00,13.3,7,,,0,,90,,70,Dry,1004,2,22,,,,11.7,
Wick,15/06/2017 17:00,13.3,7,,,0.2,,88,,60,Rain,1005,1,25,,,,11.4,
Wick,15/06/2017 18:00,12.1,3,,17.3,1.4,4,93,,110,Moderate shower,1005,2,11,,,,11.1,
Wick,15/06/2017 19:00,12.5,3,,,3.4,,94,,110,Rain,1005,5,13,,,,11.7,
Wick,15/06/2017 20:00,12,3,,,0,,94,,120,Dry,1006,2,23,,,,11.2,
Wick,15/06/2017 21:00,11.8,3,,,0,,94,,80,Rain,1007,4,26,,,,11,
Wick,15/06/2017 22:00,11.3,1,,,0,,96,,70,Dry,1007,3,29,,,,10.7,
Wick,15/06/2017 23:00,11.5,3,,,0,,97,,190,Light shower,1008,1,16,,,,11.1,
Wick,16/06/2017 00:00,11.2,2,,,0,3,97,,40,Rain,1008,6,19,,,,10.8,
Wick,16/06/2017 01:00,10.9,5,,,0.4,,97,,250,Rain,1009,1,40,,,,10.5,
Wick,16/06/2017 02:00,10.6,5,,,0,,98,,240,Dry,1010,1,50,,,,10.4,
Wick,16/06/2017 03:00,11.2,10,,,0,,97,,270,Dry,1010,1,25,,,,10.8,
Wick,16/06/2017 04:00,10.5,6,,,0,,98,,250,Dry,1010,7,26,,,,10.2,
Wick,16/06/2017 05:00,11.3,8,,,0,,97,,280,Dry,1011,1,40,,,,10.9,
Wick,16/06/2017 06:00,13,8,10,,0,1,90,,260,Dry,1012,0,17,,,,11.5,
Wick,16/06/2017 07:00,13.4,8,,,0,,88,,270,Dry,1013,1,30,,,,11.5,
Wick,16/06/2017 08:00,13.8,12,,,0,,81,,280,Dry,1013,6,40,,,,10.7,
Wick,16/06/2017 09:00,14.4,8,,,0,,77,,290,Dry,1014,2,23,,,,10.6,
Wick,16/06/2017 10:00,15.1,14,,,0,,71,,250,Dry,1014,1,35,,,,10,
Wick,16/06/2017 11:00,15.2,12,,,0,,73,,250,Dry,1015,4,30,,,,10.4,
Wick,16/06/2017 12:00,15.1,10,,,0,0,72,,250,Dry,1016,8,40,,,,10.1,
Wick,16/06/2017 13:00,16.5,12,,,0,,68,,240,Dry,1015,5,27,,,,10.6,
Wick,16/06/2017 14:00,14.7,9,,,0,,75,,150,Dry,1015,6,29,,,,10.4,
Wick,16/06/2017 15:00,14.8,12,,,0,,77,,190,Light shower,1016,5,17,,,,11,
Wick,16/06/2017 16:00,13.9,13,,,0.2,,88,,200,Light rain,1016,7,16,,,,12.1,
Wick,16/06/2017 17:00,13.1,12,,,0.4,,94,,200,Moderate rain,1016,2,6,,,,12.2,
Wick,16/06/2017 18:00,13.2,8,,17.3,0.6,1,95,,190,Rain,1015,7,30,,,,12.5,
Wick,16/06/2017 19:00,13,10,,,0,,96,,180,Dry,1016,8,35,,,,12.4,
Wick,16/06/2017 20:00,13,7,,,0,,96,,170,Dry,1016,1,40,,,,12.5,
Wick,16/06/2017 21:00,14.4,7,,,0,,92,,200,Dry,1016,5,50,,,,13.2,
Wick,16/06/2017 22:00,14.8,9,,,0,,92,,220,Dry,1016,7,30,,,,13.6,
Wick,16/06/2017 23:00,14.7,9,,,0,,93,,230,Light shower,1016,6,30,,,,13.7,
Wick,17/06/2017 00:00,14.3,8,,,0,0,93,,200,Rain,1016,7,50,,,,13.2,
Wick,17/06/2017 01:00,14.4,6,,,0,,92,,210,Dry,1016,1,50,,,,13.2,
Wick,17/06/2017 02:00,13.7,5,,,0,,93,,160,Dry,1016,1,35,,,,12.6,
Wick,17/06/2017 03:00,14.3,7,,,0,,90,,170,Dry,1016,3,45,,,,12.7,
Wick,17/06/2017 04:00,13,8,,,0,,94,,140,Dry,1016,3,22,,,,12.1,
Wick,17/06/2017 05:00,13.4,7,,,0,,93,,120,Dry,1016,1,21,,,,12.3,
Wick,17/06/2017 06:00,16,12,12.8,,0,0,87,,230,Dry,1016,0,50,,,,14,
Wick,17/06/2017 07:00,16.7,15,,,0,,83,,220,Dry,1017,1,40,,,,13.9,
Wick,17/06/2017 08:00,14.9,14,,,0,,86,,180,Dry,1017,6,35,,,,12.7,
Wick,17/06/2017 09:00,15,12,,,0,,87,,180,Dry,1017,1,45,,,,13,
Wick,17/06/2017 10:00,15.4,13,,,0,,86,,180,Dry,1017,2,30,,,,13.2,
Wick,17/06/2017 11:00,16.1,16,,,0,,84,,200,Dry,1017,5,22,,,,13.5,
Wick,17/06/2017 12:00,16.8,13,,,0,0,82,,180,Dry,1017,6,29,,,,13.8,
Wick,17/06/2017 13:00,16.8,3,,,0,,88,,130,Rain,1017,1,30,,,,14.9,
Wick,17/06/2017 14:00,21.5,12,,,0,,71,,220,Dry,1017,2,29,,,,16.2,
Wick,17/06/2017 15:00,20.6,23,,,0,,71,31,240,Dry,1017,0,29,,,,15.3,
Wick,17/06/2017 16:00,19,18,,,0,,76,32,250,Dry,1018,5,30,,,,14.8,
Wick,17/06/2017 17:00,17.2,15,,,0,,85,,260,Dry,1018,3,25,,,,14.8,
Wick,17/06/2017 18:00,16.5,16,,21.9,0,0,82,,240,Dry,1018,2,40,,,,13.6,
Wick,17/06/2017 19:00,16.5,14,,,0,,80,,240,Dry,1018,7,50,,,,13.2,
Wick,17/06/2017 20:00,15.7,13,,,0,,82,,240,Dry,1018,8,50,,,,12.7,
Wick,17/06/2017 21:00,15.2,10,,,0,,86,,240,Dry,1018,7,40,,,,12.9,
Wick,17/06/2017 22:00,14.9,12,,,0,,88,,250,Dry,1019,1,50,,,,13,
Wick,17/06/2017 23:00,14.7,10,,,0,,87,,230,Dry,1018,7,50,,,,12.6,
Wick,18/06/2017 00:00,14.3,5,,,0,0,89,,200,Dry,1018,1,50,,,,12.6,
Wick,18/06/2017 01:00,14,6,,,0,,92,,240,Dry,1018,5,50,,,,12.8,
Wick,18/06/2017 02:00,14,6,,,0,,91,,200,Dry,1018,1,50,,,,12.7,
Wick,18/06/2017 03:00,13.6,7,,,0,,94,,270,Dry,1018,5,50,,,,12.7,
Wick,18/06/2017 04:00,12.9,13,,,0,,88,,260,Dry,1018,1,40,,,,11.1,
Wick,18/06/2017 05:00,12,10,,,0,,91,,260,Dry,1018,0,30,,,,10.6,
Wick,18/06/2017 06:00,12.7,6,11.8,,0,0,89,,280,Dry,1019,0,35,,,,11,
Wick,18/06/2017 07:00,13.5,1,,,0,,83,,150,Dry,1019,0,30,,,,10.8,
Wick,18/06/2017 08:00,14,10,,,0,,83,,270,Dry,1019,0,50,,,,11.2,
Wick,18/06/2017 09:00,14.2,8,,,0,,77,,260,Dry,1019,0,30,,,,10.4,
Wick,18/06/2017 10:00,15.3,10,,,0,,72,,260,Dry,1019,0,45,,,,10.3,
Wick,18/06/2017 11:00,16.2,15,,,0,,64,,250,Dry,1019,1,23,,,,9.5,
Wick,18/06/2017 12:00,16.4,12,,,0,0,61,,250,Dry,1019,7,28,,,,9,
Wick,18/06/2017 13:00,16,12,,,0,,70,,270,Rain,1019,8,30,,,,10.6,
Wick,18/06/2017 14:00,17.3,14,,,0,,62,,270,Dry,1019,8,23,,,,10.1,
Wick,18/06/2017 15:00,16.1,14,,,0,,68,,270,Dry,1020,1,45,,,,10.3,
Wick,18/06/2017 16:00,15.7,13,,,0,,71,,270,Dry,1020,8,35,,,,10.5,
Wick,18/06/2017 17:00,14.9,12,,,0,,73,,280,Rain,1020,7,40,,,,10.2,
Wick,18/06/2017 18:00,14.9,15,,18.2,0,0,74,,270,Dry,1020,8,30,,,,10.5,
Wick,18/06/2017 19:00,14.5,12,,,0,,72,,260,Dry,1020,1,45,,,,9.7,
Wick,18/06/2017 20:00,13.1,7,,,0,,82,,280,Dry,1021,1,45,,,,10.2,
Wick,18/06/2017 21:00,13.7,7,,,0,,77,,250,Dry,1021,0,45,,,,9.8,
Wick,18/06/2017 22:00,12.4,7,,,0,,84,,260,Dry,1021,3,45,,,,9.9,
Wick,18/06/2017 23:00,12.8,3,,,0,,82,,140,Rain,1021,3,50,,,,9.9,
Wick,19/06/2017 00:00,12.3,3,,,0,0,85,,120,Rain,1021,1,30,,,,9.9,
Wick,19/06/2017 01:00,12.1,3,,,0,,88,,140,Rain,1020,0,27,,,,10.2,
Wick,19/06/2017 02:00,11.9,3,,,0,,88,,260,Dry,1020,2,45,,,,10.1,
Wick,19/06/2017 03:00,11.6,0,,,0,,90,,0,Dry,1020,7,45,,,,10.1,
Wick,19/06/2017 04:00,11.4,0,,,0,,92,,0,Rain,1020,1,35,,,,10.3,
Wick,19/06/2017 05:00,11.5,0,,,0,,92,,0,Dry,1019,3,45,,,,10.4,
Wick,19/06/2017 06:00,11.8,0,11.3,,0,0,89,,0,Dry,1019,7,26,,,,10.2,
Wick,19/06/2017 07:00,11.4,0,,,0.6,,94,,0,Light shower,1019,3,5,,,,10.6,
Wick,19/06/2017 08:00,10.5,0,,,2,,98,,0,Light rain,1019,1,6,,,,10.2,
Wick,19/06/2017 09:00,11,0,,,0.8,,98,,0,Light rain,1019,1,10,,,,10.8,
Wick,19/06/2017 10:00,11.6,0,,,0.6,,95,,0,Moderate rain,1019,1,20,,,,10.9,
Wick,19/06/2017 11:00,12.7,5,,,0.2,,88,,270,Rain,1019,3,40,,,,10.8,
Wick,19/06/2017 12:00,13.9,8,,,0,4,79,,240,Dry,1019,2,45,,,,10.5,
Wick,19/06/2017 13:00,12.7,5,,,0,,91,,10,Light shower,1019,1,30,,,,11.4,
Wick,19/06/2017 14:00,13.3,9,,,0.2,,87,,300,Rain,1019,1,30,,,,11.3,
Wick,19/06/2017 15:00,14.3,18,,,0,,73,,280,Dry,1019,7,23,,,,9.6,
Wick,19/06/2017 16:00,13.7,20,,,0,,73,,290,Dry,1019,7,30,,,,9,
Wick,19/06/2017 17:00,13.7,17,,,0,,73,,300,Dry,1019,2,21,,,,9,
Wick,19/06/2017 18:00,13.1,20,,16.3,0,0,75,,290,Dry,1019,1,35,,,,8.8,
Wick,19/06/2017 19:00,12.6,20,,,0,,67,31,290,Dry,1020,1,30,,,,6.8,
Wick,19/06/2017 20:00,11.2,14,,,0,,75,,290,Dry,1020,6,35,,,,7.1,
Wick,19/06/2017 21:00,9.8,12,,,0,,82,,280,Dry,1020,1,40,,,,7,
Wick,19/06/2017 22:00,9,6,,,0,,83,,220,Dry,1020,1,50,,,,6.4,
Wick,19/06/2017 23:00,10.2,17,,,0,,75,,270,Dry,1021,6,50,,,,6.1,
Wick,20/06/2017 00:00,8,6,,,0,0,85,,240,Dry,1021,7,40,,,,5.7,
Wick,20/06/2017 01:00,8.7,3,,,0,,83,,210,Dry,1021,5,30,,,,6.1,
Wick,20/06/2017 02:00,9.2,6,,,0,,83,,200,Dry,1021,7,50,,,,6.6,
Wick,20/06/2017 03:00,8.9,6,,,0,,86,,220,Dry,1021,1,45,,,,6.8,
Wick,20/06/2017 04:00,8.9,6,,,0,,86,,200,Dry,1021,3,35,,,,6.7,
Wick,20/06/2017 05:00,9.7,8,,,0,,87,,270,Dry,1021,7,35,,,,7.8,
Wick,20/06/2017 06:00,11.3,10,8,,0,0,87,,260,Dry,1021,4,35,,,,9.3,
Wick,20/06/2017 07:00,11.7,15,,,0,,79,,270,Dry,1021,6,45,,,,8.3,
Wick,20/06/2017 08:00,12.4,15,,,0,,72,,290,Dry,1022,7,45,,,,7.7,
Wick,20/06/2017 09:00,11.8,13,,,0,,76,,300,Dry,1022,3,30,,,,7.9,
Wick,20/06/2017 10:00,12.2,17,,,0,,74,,280,Dry,1022,1,30,,,,7.8,
Wick,20/06/2017 11:00,14,14,,,0,,67,,290,Dry,1022,1,30,,,,8.1,
Wick,20/06/2017 12:00,13.8,14,,,0,0,66,,300,Dry,1022,1,35,,,,7.7,
Wick,20/06/2017 13:00,15.2,14,,,0,,63,,300,Dry,1022,2,28,,,,8.3,
Wick,20/06/2017 14:00,14.3,12,,,0,,69,,320,Dry,1022,5,45,,,,8.7,
Wick,20/06/2017 15:00,14.9,14,,,0,,61,,310,Dry,1022,2,45,,,,7.6,
Wick,20/06/2017 16:00,14.4,8,,,0,,60,,310,Dry,1022,3,35,,,,6.9,
Wick,20/06/2017 17:00,12.5,7,,,0,,73,,120,Dry,1022,7,35,,,,7.8,
Wick,20/06/2017 18:00,12.6,7,,15.5,0,0,73,,90,Dry,1022,8,35,,,,8,
Wick,20/06/2017 19:00,12.4,7,,,0,,73,,60,Dry,1022,6,40,,,,7.8,
Wick,20/06/2017 20:00,12.3,8,,,0,,73,,120,Dry,1022,7,27,,,,7.7,
Wick,20/06/2017 21:00,11.8,6,,,0,,81,,140,Dry,1022,8,50,,,,8.8,
Wick,20/06/2017 22:00,11.3,7,,,0,,88,,130,Dry,1021,7,40,,,,9.4,
Wick,20/06/2017 23:00,11,8,,,0,,89,,130,Dry,1020,1,40,,,,9.3,
Wick,21/06/2017 00:00,11.2,10,,,0,0,82,,120,Dry,1020,0,45,,,,8.4,
Wick,21/06/2017 01:00,10.9,10,,,0,,86,,110,Dry,1019,0,35,,,,8.8,
Wick,21/06/2017 02:00,10.8,12,,,0,,92,,120,Dry,1018,2,30,,,,9.7,
Wick,21/06/2017 03:00,11.2,13,,,0,,92,,130,Dry,1017,6,23,,,,10.1,
Wick,21/06/2017 04:00,11.3,15,,,0,,94,,130,Dry,1017,4,19,,,,10.4,
Wick,21/06/2017 05:00,11.7,10,,,0,,96,,140,Dry,1016,6,17,,,,11.1,
Wick,21/06/2017 06:00,12.1,12,10.8,,0,0,94,,130,Dry,1015,1,16,,,,11.3,
Wick,21/06/2017 07:00,12.4,13,,,0,,94,,130,Dry,1014,1,12,,,,11.6,
Wick,21/06/2017 08:00,12.3,12,,,0,,95,,140,Dry,1014,1,12,,,,11.6,
Wick,21/06/2017 09:00,13,10,,,0,,91,,130,Dry,1013,1,16,,,,11.7,
Wick,21/06/2017 10:00,14.2,13,,,0,,87,,150,Haze,1012,1,16,,,,12.1,
Wick,21/06/2017 11:00,14,15,,,0,,86,,140,Dry,1011,1,13,,,,11.8,
Wick,21/06/2017 12:00,13.7,13,,,0,0,86,,140,Rain,1011,1,11,,,,11.5,
Wick,21/06/2017 13:00,14.1,16,,,0,,84,,150,Dry,1010,1,17,,,,11.6,
Wick,21/06/2017 14:00,14.6,14,,,0,,84,,150,Dry,1009,3,15,,,,12.1,
Wick,21/06/2017 15:00,15.5,15,,,0,,81,,140,Haze,1008,1,20,,,,12.3,
Wick,21/06/2017 16:00,15.8,14,,,0,,80,,170,Dry,1007,4,15,,,,12.5,
Wick,21/06/2017 17:00,15.7,13,,,0,,83,,170,Moderate shower,1007,7,7,,,,13,
Wick,21/06/2017 18:00,17.6,12,,17.6,0,0,78,,160,Rain,1007,7,16,,,,13.9,
Wick,21/06/2017 19:00,17.8,12,,,0,,78,,180,Dry,1006,4,26,,,,14.1,
Wick,21/06/2017 20:00,15.7,8,,,0,,85,,360,Dry,1007,1,15,,,,13.3,
Wick,21/06/2017 21:00,14.8,6,,,0,,92,,30,Dry,1007,1,10,,,,13.6,
Wick,21/06/2017 22:00,12.6,2,,,0,,93,,40,Haze,1007,2,8,,,,11.5,
Wick,21/06/2017 23:00,13.4,5,,,0,,97,,250,Dry,1007,2,12,,,,13,
Wick,22/06/2017 00:00,13.8,2,,,0,0,91,,210,Dry,1007,3,16,,,,12.5,
Wick,22/06/2017 01:00,13.1,5,,,0,,94,,10,Dry,1007,7,15,,,,12.2,
Wick,22/06/2017 02:00,13,5,,,0,,96,,310,Dry,1007,6,17,,,,12.4,
Wick,22/06/2017 03:00,12.4,12,,,0,,98,,300,Dry,1007,5,23,,,,12.2,
Wick,22/06/2017 04:00,11.9,8,,,0,,98,,300,Dry,1008,1,16,,,,11.7,
Wick,22/06/2017 05:00,11.4,13,,,0,,98,,300,Dry,1008,5,16,,,,11.2,
Wick,22/06/2017 06:00,12.1,13,11.2,,0,0,92,,290,Dry,1008,4,14,,,,10.9,
Wick,22/06/2017 07:00,13.5,13,,,0,,83,,300,Dry,1008,2,25,,,,10.8,
Wick,22/06/2017 08:00,14.9,13,,,0,,77,,280,Dry,1008,1,50,,,,11,
Wick,22/06/2017 09:00,14,14,,,0,,80,,280,Dry,1008,7,24,,,,10.7,
Wick,22/06/2017 10:00,14.5,10,,,0,,71,,290,Dry,1008,1,35,,,,9.5,
Wick,22/06/2017 11:00,14.2,10,,,0,,70,,280,Dry,1008,7,45,,,,8.9,
Wick,22/06/2017 12:00,15.1,5,,,0,0,67,,260,Dry,1008,1,35,,,,9.2,
Wick,22/06/2017 13:00,14,5,,,0,,74,,310,Dry,1008,3,40,,,,9.5,
Wick,22/06/2017 14:00,12.9,10,,,0,,88,,140,Dry,1008,1,26,,,,11.1,
Wick,22/06/2017 15:00,13.3,10,,,0,,87,,140,Dry,1008,7,29,,,,11.2,
Wick,22/06/2017 16:00,14.1,9,,,0,,86,,130,Dry,1007,6,22,,,,11.9,
Wick,22/06/2017 17:00,13,9,,,0,,89,,110,Dry,1008,1,19,,,,11.3,
Wick,22/06/2017 18:00,12.9,12,,15.5,0,0,89,,130,Dry,1007,1,22,,,,11.3,
Wick,22/06/2017 19:00,12.5,10,,,0,,86,,140,Dry,1007,2,30,,,,10.3,
Wick,22/06/2017 20:00,12.3,10,,,0,,87,,140,Dry,1006,3,27,,,,10.3,
Wick,22/06/2017 21:00,12.3,12,,,0,,93,,140,Dry,1005,7,16,,,,11.3,
Wick,22/06/2017 22:00,12.5,9,,,0.4,,96,,170,Light rain,1004,7,16,,,,12,
Wick,22/06/2017 23:00,12.6,15,,,0,,89,,200,Drizzly rain,1004,8,45,,,,11,
Wick,23/06/2017 00:00,12.1,16,,,0.4,0.8,93,,180,Rain,1003,8,27,,,,11.1,
Wick,23/06/2017 01:00,11.9,14,,,1,,95,,170,Moderate rain,1002,8,10,,,,11.2,
Wick,23/06/2017 02:00,12.1,14,,,0.2,,92,,170,Rain,1001,8,35,,,,11,
Wick,23/06/2017 03:00,12.1,12,,,0,,92,,150,Dry,1000,5,22,,,,10.9,
Wick,23/06/2017 04:00,12.5,15,,,0,,89,,160,Dry,999,7,35,,,,10.9,
Wick,23/06/2017 05:00,12.9,12,,,0,,87,,170,Dry,998,1,30,,,,10.8,
Wick,23/06/2017 06:00,13.5,17,11.8,,0,1.2,85,,180,Dry,997,1,30,,,,11.2,
Wick,23/06/2017 07:00,13.8,20,,,0,,87,32,200,Dry,997,6,30,,,,11.7,
Wick,23/06/2017 08:00,15.6,17,,,0,,82,32,230,Dry,998,4,35,,,,12.6,
Wick,23/06/2017 09:00,15.7,28,,,0,,69,45,240,Dry,998,3,30,,,,10.2,
Wick,23/06/2017 10:00,16,28,,,0,,67,38,250,Dry,999,1,15,,,,10.1,
Wick,23/06/2017 11:00,15.1,25,,,0,,69,36,260,Dry,1000,3,17,,,,9.5,
Wick,23/06/2017 12:00,15.8,24,,,0,0,59,38,260,Dry,1001,2,35,,,,8,
Wick,23/06/2017 13:00,16.6,24,,,0,,52,33,260,Dry,1001,1,14,,,,6.9,
Wick,23/06/2017 14:00,15.1,24,,,0,,51,37,260,Dry,1002,5,28,,,,5.3,
Wick,23/06/2017 15:00,16.4,24,,,0,,53,36,250,Dry,1002,6,30,,,,7,
Wick,23/06/2017 16:00,15.8,25,,,0,,52,37,250,Dry,1002,4,17,,,,6.1,
Wick,23/06/2017 17:00,14.5,21,,,0,,56,35,250,Dry,1003,7,50,,,,6,
Wick,23/06/2017 18:00,14.5,20,,17.4,0,0,55,33,260,Dry,1003,7,22,,,,5.7,
Wick,23/06/2017 19:00,13.9,14,,,0,,63,29,230,Dry,1003,8,30,,,,7,
Wick,23/06/2017 20:00,12.4,17,,,0,,63,,240,Dry,1003,5,45,,,,5.7,
Wick,23/06/2017 21:00,12.5,23,,,0,,61,31,240,Dry,1003,7,40,,,,5.4,
Wick,23/06/2017 22:00,11.9,9,,,0,,66,32,220,Dry,1003,1,45,,,,5.8,
Wick,23/06/2017 23:00,11.7,23,,,0,,67,31,230,Rain,1002,7,35,,,,5.8,
Wick,24/06/2017 00:00,10.6,15,,,0,0,71,29,230,Dry,1002,2,40,,,,5.6,
Wick,24/06/2017 01:00,10.8,15,,,0,,70,,220,Dry,1002,4,45,,,,5.7,
Wick,24/06/2017 02:00,9.3,12,,,0,,79,,240,Dry,1001,3,45,,,,5.9,
Wick,24/06/2017 03:00,10.3,17,,,0,,73,,250,Dry,1001,6,40,,,,5.7,
Wick,24/06/2017 04:00,8.6,12,,,0,,82,29,220,Dry,1001,0,35,,,,5.8,
Wick,24/06/2017 05:00,9.3,14,,,0,,80,,240,Dry,1000,0,35,,,,6.1,
Wick,24/06/2017 06:00,11,21,8.5,,0,0,69,30,230,Dry,1000,0,20,,,,5.7,
Wick,24/06/2017 07:00,12.4,21,,,0,,67,32,230,Dry,1000,2,30,,,,6.5,
Wick,24/06/2017 08:00,10.8,15,,,0.2,,88,33,230,Rain,1000,6,27,,,,9,
Wick,24/06/2017 09:00,12.1,18,,,0,,72,31,220,Rain,999,2,20,,,,7.4,
Wick,24/06/2017 10:00,11.6,17,,,0.2,,82,33,240,Rain,999,3,29,,,,8.8,
Wick,24/06/2017 11:00,14.1,25,,,0,,68,31,230,Dry,998,1,45,,,,8.4,
Wick,24/06/2017 12:00,13.2,25,,,0,0.4,66,37,240,Rain,998,7,15,,,,7.1,
Wick,24/06/2017 13:00,12.9,25,,,0,,77,43,260,Rain,998,7,30,,,,9.1,
Wick,24/06/2017 14:00,14.2,0,,,0,,54,44,0,Dry,997,1,27,,,,5.1,
Wick,24/06/2017 15:00,14.4,0,,,0,,53,40,0,Dry,997,7,30,,,,5.2,
Wick,24/06/2017 16:00,14,0,,,0,,53,41,0,Dry,996,7,23,,,,4.7,
Wick,24/06/2017 17:00,13.4,0,,,0,,58,,0,Dry,996,1,27,,,,5.4,
Wick,24/06/2017 18:00,11.9,0,,15.4,0,0,69,,0,Dry,996,1,40,,,,6.6,
Wick,24/06/2017 19:00,11.5,0,,,0,,73,,0,Dry,996,5,24,,,,6.9,
Wick,24/06/2017 20:00,10.1,0,,,0.2,,89,,0,Rain,996,3,29,,,,8.4,
Wick,24/06/2017 21:00,10.4,0,,,0,,85,,0,Dry,996,7,40,,,,8.1,
Wick,24/06/2017 22:00,9.7,0,,,0.4,,87,,0,Rain,997,1,29,,,,7.8,
Wick,24/06/2017 23:00,9.3,0,,,0,,89,,0,Dry,997,2,17,,,,7.6,
Wick,25/06/2017 00:00,9.4,0,,,0,0.6,84,,0,Dry,997,1,16,,,,7,
Wick,25/06/2017 01:00,9.6,0,,,0,,86,36,0,Haze,997,1,6,,,,7.5,
Wick,25/06/2017 02:00,10,23,,,,,,,270,-,,3,10,,,,8,
Wick,25/06/2017 03:00,9.7,25,,,0,,91,39,280,Dry,998,1,15,,,,8.4,
Wick,25/06/2017 04:00,9.9,26,,,0,,89,,280,Rain,998,7,12,,,,8.3,
Wick,25/06/2017 05:00,9.9,25,,,0,,83,,270,Dry,999,7,16,,,,7.2,
Wick,25/06/2017 06:00,10.5,22,9,,0,0.2,82,33,280,Dry,1000,3,15,,,,7.6,
Wick,25/06/2017 07:00,10.2,22,,,0,,85,35,280,Rain,1000,2,13,,,,7.9,
Wick,25/06/2017 08:00,11.6,21,,,0,,85,37,280,Dry,1001,1,15,,,,9.2,
Wick,25/06/2017 09:00,11.8,24,,,0,,81,36,290,Dry,1001,1,20,,,,8.8,
Wick,25/06/2017 10:00,10.7,25,,,0,,79,37,280,Haze,1002,1,6,,,,7.3,
Wick,25/06/2017 11:00,11.5,24,,,0,,73,33,300,Dry,1002,2,28,,,,7,
Wick,25/06/2017 12:00,12.2,25,,,0,0,71,36,300,Dry,1003,4,16,,,,7.3,
Wick,25/06/2017 13:00,12.5,23,,,0,,70,33,300,Dry,1004,4,18,,,,7.2,
Wick,25/06/2017 14:00,13.4,24,,,0,,70,32,290,Dry,1004,7,30,,,,8.2,
Wick,25/06/2017 15:00,13.2,24,,,0,,73,32,290,Dry,1005,3,40,,,,8.6,
Wick,25/06/2017 16:00,12.5,24,,,0,,74,31,300,Dry,1006,3,12,,,,8.1,
Wick,25/06/2017 17:00,12.3,22,,,0,,76,31,300,Dry,1006,1,17,,,,8.3,
Wick,25/06/2017 18:00,12.8,20,,14.1,0,0,74,31,300,Dry,1007,3,15,,,,8.4,
Wick,25/06/2017 19:00,11.7,22,,,0,,79,,310,Rain,1007,1,15,,,,8.2,
Wick,25/06/2017 20:00,10.8,14,,,0,,85,,300,Dry,1008,1,16,,,,8.5,
Wick,25/06/2017 21:00,10.3,16,,,0,,87,,290,Dry,1009,7,23,,,,8.4,
Wick,25/06/2017 22:00,9.4,12,,,0,,94,,290,Dry,1009,8,18,,,,8.5,
Wick,25/06/2017 23:00,10,13,,,0,,93,,300,Dry,1010,7,21,,,,9,
Wick,26/06/2017 00:00,9.9,10,,,0,0,94,,290,Dry,1010,1,16,,,,9.1,
Wick,26/06/2017 01:00,9.5,10,,,0,,96,,290,Rain,1010,7,15,,,,9,
Wick,26/06/2017 02:00,9.5,9,,,0,,96,,290,Dry,1011,8,24,,,,8.9,
Wick,26/06/2017 03:00,9.1,8,,,0,,94,,320,Dry,1011,1,26,,,,8.3,
Wick,26/06/2017 04:00,8.4,3,,,0,,96,,290,Dry,1012,1,19,,,,7.9,
Wick,26/06/2017 05:00,8.7,6,,,0,,97,,280,Dry,1012,7,17,,,,8.3,
Wick,26/06/2017 06:00,9.5,5,8,,0.2,0.2,95,,320,Rain,1012,1,18,,,,8.8,
Wick,26/06/2017 07:00,10.6,8,,,0,,80,,340,Dry,1012,7,20,,,,7.3,
Wick,26/06/2017 08:00,11.2,8,,,0,,77,,330,Dry,1013,2,26,,,,7.5,
Wick,26/06/2017 09:00,12.1,12,,,0,,64,,330,Dry,1013,7,30,,,,5.6,
Wick,26/06/2017 10:00,12.9,12,,,0,,63,,320,Dry,1014,7,40,,,,6.2,
Wick,26/06/2017 11:00,13.1,12,,,0,,59,,320,Dry,1014,8,28,,,,5.5,
Wick,26/06/2017 12:00,14,12,,,0,0,55,,310,Dry,1014,4,24,,,,5.3,
Wick,26/06/2017 13:00,12.8,9,,,0,,64,,30,Dry,1015,3,35,,,,6.3,
Wick,26/06/2017 14:00,12,7,,,0,,67,,50,Dry,1015,7,30,,,,6.1,
Wick,26/06/2017 15:00,11.8,8,,,0,,72,,80,Dry,1015,4,18,,,,7.1,
Wick,26/06/2017 16:00,12,8,,,0,,77,,90,Dry,1015,3,24,,,,8.1,
Wick,26/06/2017 17:00,11.6,6,,,0,,71,,110,Dry,1015,4,25,,,,6.6,
Wick,26/06/2017 18:00,11.7,6,,14.5,0,0,68,,100,Dry,1015,6,35,,,,6.1,
Wick,26/06/2017 19:00,11,6,,,0,,71,,100,Dry,1015,5,35,,,,6,
Wick,26/06/2017 20:00,10.9,6,,,0,,74,,80,Dry,1015,7,35,,,,6.6,
Wick,26/06/2017 21:00,10.3,7,,,0,,79,,80,Dry,1015,8,24,,,,7,
Wick,26/06/2017 22:00,9.8,7,,,0,,79,,90,Dry,1015,7,30,,,,6.4,
Wick,26/06/2017 23:00,9.7,7,,,0,,79,,100,Dry,1015,8,29,,,,6.3,
Wick,27/06/2017 00:00,9.8,8,,,0,0,79,,100,Dry,1015,8,30,,,,6.4,
Wick,27/06/2017 01:00,9.4,7,,,0,,83,,100,Dry,1015,8,30,,,,6.7,
Wick,27/06/2017 02:00,8.9,7,,,0,,84,,100,Dry,1014,1,30,,,,6.4,
Wick,27/06/2017 03:00,9.4,8,,,0,,85,,100,Dry,1014,0,27,,,,7.1,
Wick,27/06/2017 04:00,9.5,10,,,0,,84,,100,Dry,1014,1,26,,,,7,
Wick,27/06/2017 05:00,9.8,12,,,0,,82,,100,Dry,1013,7,22,,,,7,
Wick,27/06/2017 06:00,10.2,14,8.9,,0,0,79,,100,Dry,1013,1,30,,,,6.9,
Wick,27/06/2017 07:00,10.4,14,,,0,,79,,100,Dry,1013,1,21,,,,7.1,
Wick,27/06/2017 08:00,10.8,14,,,0,,79,,110,Dry,1013,1,25,,,,7.4,
Wick,27/06/2017 09:00,11,15,,,0,,78,,100,Dry,1013,8,30,,,,7.5,
Wick,27/06/2017 10:00,11.8,16,,,0,,76,,110,Dry,1012,3,16,,,,7.8,
Wick,27/06/2017 11:00,11.7,14,,,0,,78,,120,Dry,1012,7,17,,,,8.1,
Wick,27/06/2017 12:00,12.1,17,,,0,0,74,,120,Dry,1012,6,28,,,,7.8,
Wick,27/06/2017 13:00,12.3,16,,,0,,77,,120,Dry,1012,3,28,,,,8.4,
Wick,27/06/2017 14:00,12,14,,,0,,80,,120,Dry,1011,8,19,,,,8.8,
Wick,27/06/2017 15:00,11.2,13,,,0,,89,,110,Light shower,1011,8,23,,,,9.5,
Wick,27/06/2017 16:00,11,13,,,0.2,,88,,110,Light rain,1011,7,16,,,,9.2,
Wick,27/06/2017 17:00,11,13,,,0.2,,90,,120,Light shower,1011,1,14,,,,9.5,
Wick,27/06/2017 18:00,10.6,15,,13.3,0,0.4,89,,120,Rain,1010,2,13,,,,9,
Wick,27/06/2017 19:00,10.8,13,,,0,,87,,110,Rain,1010,7,30,,,,8.8,
Wick,27/06/2017 20:00,10.8,15,,,0,,83,,120,Dry,1010,8,28,,,,8.1,
Wick,27/06/2017 21:00,10.8,14,,,0,,84,,110,Dry,1010,8,35,,,,8.3,
Wick,27/06/2017 22:00,10.8,13,,,0,,81,,110,Dry,1010,6,35,,,,7.8,
Wick,27/06/2017 23:00,10.7,13,,,0,,82,,100,Dry,1010,7,28,,,,7.9,
Wick,28/06/2017 00:00,10.7,14,,,0,0,85,,100,Dry,1010,8,35,,,,8.3,
Wick,28/06/2017 01:00,10.7,14,,,0,,82,,100,Dry,1010,8,30,,,,7.9,
Wick,28/06/2017 02:00,10.7,13,,,0,,85,,100,Dry,1010,8,23,,,,8.3,
Wick,28/06/2017 03:00,10.7,12,,,0,,86,,90,Dry,1009,8,30,,,,8.5,
Wick,28/06/2017 04:00,10.7,13,,,0,,88,,90,Dry,1009,8,27,,,,8.8,
Wick,28/06/2017 05:00,10.8,14,,,0,,86,,90,Dry,1009,8,26,,,,8.6,
Wick,28/06/2017 06:00,10.9,14,10.6,,0,0,84,,90,Dry,1009,4,35,,,,8.4,
Wick,28/06/2017 07:00,11,13,,,0,,82,,90,Dry,1009,7,30,,,,8.2,
Wick,28/06/2017 08:00,11.5,15,,,0,,80,,90,Dry,1010,5,35,,,,8.2,
Wick,28/06/2017 09:00,12,15,,,0,,79,,90,Dry,1010,8,45,,,,8.5,
Wick,28/06/2017 10:00,12.3,16,,,0,,74,,80,Dry,1010,8,25,,,,7.9,
Wick,28/06/2017 11:00,12.8,15,,,0,,71,,70,Dry,1010,8,30,,,,7.8,
Wick,28/06/2017 12:00,13,15,,,0,0,70,,60,Dry,1010,1,40,,,,7.8,
Wick,28/06/2017 13:00,13.6,17,,,0,,69,,60,Dry,1010,1,50,,,,8.1,
Wick,28/06/2017 14:00,13.1,17,,,0,,69,,50,Dry,1009,1,35,,,,7.6,
Wick,28/06/2017 15:00,12.9,18,,,0,,69,,50,Dry,1009,2,22,,,,7.4,
Wick,28/06/2017 16:00,12.4,16,,,0,,65,,40,Dry,1009,2,22,,,,6.1,
Wick,28/06/2017 17:00,12.4,15,,,0,,64,,40,Dry,1009,3,27,,,,6,
Wick,28/06/2017 18:00,11.8,14,,13.8,0,0,70,,30,Dry,1009,7,28,,,,6.7,
Wick,28/06/2017 19:00,10.9,15,,,0,,77,,30,Dry,1008,7,30,,,,7.1,
Wick,28/06/2017 20:00,10.7,14,,,0,,80,,20,Dry,1008,8,26,,,,7.5,
Wick,28/06/2017 21:00,10.6,14,,,0,,79,,30,Dry,1008,8,28,,,,7.2,
Wick,28/06/2017 22:00,10.6,15,,,0,,88,,30,Dry,1008,1,19,,,,8.8,
Wick,28/06/2017 23:00,10.1,15,,,0,,91,,30,Dry,1008,6,15,,,,8.8,
Wick,29/06/2017 00:00,10.4,16,,,0,0,89,,20,Dry,1008,7,17,,,,8.8,
Wick,29/06/2017 01:00,10.4,0,,,0,,89,,0,Dry,1007,4,17,,,,8.7,
Wick,29/06/2017 02:00,10.4,0,,,0,,90,,0,Dry,1007,3,14,,,,8.9,
Wick,29/06/2017 03:00,10.1,0,,,0,,89,,0,Dry,1007,5,18,,,,8.5,
Wick,29/06/2017 04:00,10.2,0,,,0,,89,,0,Dry,1006,6,15,,,,8.6,
Wick,29/06/2017 05:00,10.3,0,,,0,,88,,0,Dry,1006,7,16,,,,8.5,
Wick,29/06/2017 06:00,10.6,0,9.9,,0,0,86,,0,Dry,1006,4,17,,,,8.5,
Wick,29/06/2017 07:00,10.5,0,,,0,,87,,0,Dry,1006,7,13,,,,8.5,
Wick,29/06/2017 08:00,10.9,0,,,0,,88,,0,Dry,1006,8,19,,,,9,
Wick,29/06/2017 09:00,11.2,0,,,0,,87,,0,Dry,1006,8,11,,,,9.2,
Wick,29/06/2017 10:00,11.5,0,,,0,,86,,0,Rain,1006,8,13,,,,9.4,
Wick,29/06/2017 11:00,11.5,16,,,0,,88,,10,Dry,1006,7,11,,,,9.6,
Wick,29/06/2017 12:00,11.4,18,,,0,0,90,,360,Light drizzle,1006,6,11,,,,9.9,
Wick,29/06/2017 13:00,11.2,17,,,0.2,,95,,360,Light shower,1006,7,7,,,,10.5,
Wick,29/06/2017 14:00,11.1,18,,,0.8,,96,,360,Moderate rain,1006,7,6,,,,10.6,
Wick,29/06/2017 15:00,11.2,16,,,2,,98,,10,Moderate rain,1006,8,5,,,,11,
Wick,29/06/2017 16:00,11,18,,,1.6,,99,,10,Light rain,1006,8,5,,,,10.9,
Wick,29/06/2017 17:00,11.1,16,,,0.8,,100,,10,Light shower,1006,7,5,,,,11.1,
Wick,29/06/2017 18:00,11.1,17,,11.9,1.6,7,100,,20,Moderate rain,1006,8,3,,,,11.1,
Wick,29/06/2017 19:00,11.1,17,,,1.8,,100,,20,Light rain,1006,8,3,,,,11.1,
Wick,29/06/2017 20:00,11.1,16,,,0.6,,100,,10,Rain,1007,8,3,,,,11.1,
Wick,29/06/2017 21:00,11,17,,,0.6,,100,,20,Moderate shower,1007,8,3,,,,11,
Wick,29/06/2017 22:00,10.9,17,,,0.6,,100,,20,Rain,1007,4,8,,,,10.9,
Wick,29/06/2017 23:00,10.9,18,,,0.8,,100,,20,Light shower,1007,5,6,,,,10.9,
Wick,30/06/2017 00:00,11,16,,,0.4,5,100,,10,Light rain,1008,2,4,,,,11,
Wick,30/06/2017 01:00,10.9,14,,,0.2,,100,,360,Rain,1008,1,5,,,,10.9,
Wick,30/06/2017 02:00,11,14,,,0,,100,,360,Light drizzle,1008,6,6,,,,11,
Wick,30/06/2017 03:00,10.9,15,,,0.6,,100,,360,Light rain,1008,5,6,,,,10.9,
Wick,30/06/2017 04:00,10.8,15,,,0.4,,100,,360,Light rain,1008,5,6,,,,10.8,
Wick,30/06/2017 05:00,10.9,13,,,0.2,,100,,350,Rain,1008,7,8,,,,10.9,
Wick,30/06/2017 06:00,10.9,12,10.7,,0.2,1,100,,350,Light drizzle,1009,4,6,,,,10.9,
Wick,30/06/2017 07:00,11.1,13,,,0,,99,,360,Drizzle,1009,6,8,,,,11,
Wick,30/06/2017 08:00,11.3,12,,,0,,98,,360,Misty,1010,4,7,,,,11.1,
Wick,30/06/2017 09:00,11.5,13,,,0,,98,,360,Misty,1010,1,10,,,,11.2,
Wick,30/06/2017 10:00,11.8,10,,,0,,96,,350,Dry,1010,7,10,,,,11.3,
Wick,30/06/2017 11:00,12.1,9,,,0,,96,,360,Misty,1011,7,10,,,,11.5,
Wick,30/06/2017 12:00,11.9,10,,,0,0,94,,10,Dry,1011,7,15,,,,11,
Wick,30/06/2017 13:00,12.3,8,,,0,,93,,360,Dry,1012,2,12,,,,11.3,
Wick,30/06/2017 14:00,12.7,9,,,0,,87,,10,Dry,1012,4,23,,,,10.6,
Wick,30/06/2017 15:00,13.5,12,,,0,,88,,310,Dry,1012,1,17,,,,11.7,
Wick,30/06/2017 16:00,12.5,12,,,0,,93,,330,Rain,1012,7,11,,,,11.4,
Wick,30/06/2017 17:00,12.6,10,,,0,,88,,330,Dry,1012,1,13,,,,10.8,
Wick,30/06/2017 18:00,12.9,15,,13.8,0,0,82,,310,Dry,1013,6,26,,,,10,
Wick,30/06/2017 19:00,12.1,14,,,0,,84,,320,Dry,1013,1,23,,,,9.5,
Wick,30/06/2017 20:00,11.1,10,,,0,,90,,310,Dry,1014,0,17,,,,9.6,
Wick,30/06/2017 21:00,10.8,10,,,0,,92,,310,Dry,1014,0,14,,,,9.6,
Wick,30/06/2017 22:00,9.8,7,,,0,,94,,310,Dry,1014,0,13,,,,8.9,
Wick,30/06/2017 23:00,8.1,7,,,0,,98,,290,Misty,1014,0,9,,,,7.9,
Wick,01/07/2017 00:00,7.5,8,,,0,0,99,,290,Misty,1014,3,7,,,,7.4,
Wick,01/07/2017 01:00,6.6,7,,,0,,99,,260,Thickening fog,1014,4,1,,,,6.5,
Wick,01/07/2017 02:00,6.3,6,,,0,,100,,250,Fog,1014,2,8,,,,6.3,
Wick,01/07/2017 03:00,5.8,6,,,0,,100,,270,Fog,1013,0,8,,,,5.8,
Wick,01/07/2017 04:00,5.4,3,,,0,,100,,240,Fog,1012,1,1,,,,5.4,
Wick,01/07/2017 05:00,6.8,2,,,0,,100,,280,Fog,1012,0,13,,,,6.8,
Wick,01/07/2017 06:00,8.8,2,5.3,,0,0,100,,230,Dry,1012,5,35,,,,8.8,
Wick,01/07/2017 07:00,11.3,7,,,0,,91,,160,Dry,1011,2,29,,,,10,
Wick,01/07/2017 08:00,11.5,9,,,0,,87,,180,Dry,1010,5,27,,,,9.5,
Wick,01/07/2017 09:00,11.7,12,,,0,,87,,160,Dry,1010,5,17,,,,9.7,
Wick,01/07/2017 10:00,11.8,10,,,0,,89,,150,Dry,1009,4,19,,,,10.1,
Wick,01/07/2017 11:00,13,10,,,0,,83,,190,Dry,1008,1,22,,,,10.3,
Wick,01/07/2017 12:00,13.7,13,,,0,0,74,,200,Rain,1008,7,23,,,,9.3,
Wick,01/07/2017 13:00,13.4,13,,,0,,71,,190,Dry,1007,4,45,,,,8.4,
Wick,01/07/2017 14:00,15,16,,,0,,66,,200,Dry,1006,4,40,,,,8.9,
Wick,01/07/2017 15:00,15.2,17,,,0,,70,,200,Dry,1006,6,40,,,,9.9,
Wick,01/07/2017 16:00,15.1,18,,,0,,76,,190,Dry,1005,3,22,,,,11.1,
Wick,01/07/2017 17:00,16,23,,,0,,63,33,250,Rain,1005,1,45,,,,9.2,
Wick,01/07/2017 18:00,15,18,,16.2,0,0,70,33,230,Dry,1005,2,29,,,,9.6,
Wick,01/07/2017 19:00,14.1,16,,,0,,71,,240,Dry,1006,1,30,,,,9.1,
Wick,01/07/2017 20:00,13.1,22,,,0,,75,35,240,Dry,1006,6,45,,,,8.9,
Wick,01/07/2017 21:00,12.8,26,,,0,,75,38,250,Dry,1006,1,40,,,,8.5,
Wick,01/07/2017 22:00,11.7,20,,,0.2,,83,31,260,Rain,1006,6,20,,,,9,
Wick,01/07/2017 23:00,12,28,,,0,,78,44,270,Dry,1006,1,21,,,,8.3,
Wick,02/07/2017 00:00,11,0,,,0,0.2,84,44,0,Haze,1007,1,5,,,,8.5,
Wick,02/07/2017 01:00,11.4,0,,,0,,75,,0,Dry,1007,1,30,,,,7.3,
Wick,02/07/2017 02:00,11,0,,,0,,81,,0,Dry,1008,1,21,,,,8,
Wick,02/07/2017 03:00,9.8,0,,,0,,92,48,0,Drizzly rain,1008,6,5,,,,8.6,
Wick,02/07/2017 04:00,10.2,0,,,0.4,,91,32,0,Rain,1009,2,3,,,,8.9,
Wick,02/07/2017 05:00,10.5,0,,,0.2,,91,,0,Rain,1009,1,35,,,,9.2,
Wick,02/07/2017 06:00,10.9,0,9.8,,0,0.6,89,,0,Dry,1010,1,30,,,,9.3,
Wick,02/07/2017 07:00,10.4,0,,,0.6,,94,,0,Moderate shower,1010,2,21,,,,9.5,
Wick,02/07/2017 08:00,11.4,0,,,0,,88,,0,Rain,1011,7,24,,,,9.6,
Wick,02/07/2017 09:00,13,0,,,0,,80,,0,Dry,1012,1,27,,,,9.8,
Wick,02/07/2017 10:00,13.4,5,,,0,,75,31,290,Squally,1012,2,14,,,,9.2,
Wick,02/07/2017 11:00,12.3,17,,,0,,83,32,280,Dry,1012,1,16,,,,9.6,
Wick,02/07/2017 12:00,13.6,21,,,0,0.6,73,35,290,Dry,1012,1,24,,,,8.9,
Wick,02/07/2017 13:00,13.8,17,,,0,,72,30,290,Dry,1013,5,23,,,,9,
Wick,02/07/2017 14:00,16.6,15,,,0,,64,,260,Dry,1012,6,20,,,,10,
Wick,02/07/2017 15:00,17.3,12,,,0,,64,,280,Dry,1012,4,29,,,,10.6,
Wick,02/07/2017 16:00,14.2,7,,,0,,72,,300,Dry,1012,5,30,,,,9.4,
Wick,02/07/2017 17:00,14.4,13,,,0,,69,,250,Rain,1012,7,30,,,,8.8,
Wick,02/07/2017 18:00,14.4,13,,17.6,0,0,71,,240,Dry,1012,5,23,,,,9.3,
Wick,02/07/2017 19:00,13.7,14,,,0,,77,,220,Dry,1012,7,30,,,,9.9,
Wick,02/07/2017 20:00,13.1,13,,,0,,82,,220,Light shower,1011,8,40,,,,10.2,
Wick,02/07/2017 21:00,11.8,8,,,1,,93,,200,Light rain,1011,8,18,,,,10.8,
Wick,02/07/2017 22:00,11.6,6,,,0,,96,,190,Light shower,1011,7,40,,,,11,
Wick,02/07/2017 23:00,11.6,10,,,0.4,,94,,220,Drizzly rain,1011,7,17,,,,10.7,
Wick,03/07/2017 00:00,10.7,8,,,0.8,2,94,,200,Rain,1010,6,45,,,,9.8,
Wick,03/07/2017 01:00,10.1,8,,,0,,93,,250,Rain,1010,1,45,,,,9.1,
Wick,03/07/2017 02:00,8.8,8,,,0,,96,,230,Dry,1010,1,35,,,,8.2,
Wick,03/07/2017 03:00,9,15,,,0,,90,,260,Dry,1010,1,50,,,,7.6,
Wick,03/07/2017 04:00,8.6,16,,,0,,93,,260,Dry,1010,1,14,,,,7.6,
Wick,03/07/2017 05:00,8.3,9,,,0.4,,95,,260,Rain,1011,1,35,,,,7.7,
Wick,03/07/2017 06:00,9.9,17,7.5,,0,1,86,,250,Dry,1011,6,40,,,,7.8,
Wick,03/07/2017 07:00,11,18,,,0,,83,,270,Dry,1011,2,30,,,,8.4,
Wick,03/07/2017 08:00,11.3,18,,,0,,89,,260,Dry,1012,4,40,,,,9.7,
Wick,03/07/2017 09:00,12.1,20,,,0,,77,29,290,Dry,1012,1,35,,,,8.2,
Wick,03/07/2017 10:00,13.1,21,,,0,,76,31,290,Dry,1013,3,19,,,,9,
Wick,03/07/2017 11:00,12.2,21,,,0,,78,31,290,Dry,1013,2,30,,,,8.6,
Wick,03/07/2017 12:00,13,24,,,0,0,75,32,300,Dry,1014,1,23,,,,8.8,
Wick,03/07/2017 13:00,11.5,23,,,0,,88,35,300,Haze,1015,1,5,,,,9.6,
Wick,03/07/2017 14:00,13.7,23,,,0,,71,32,300,Rain,1015,5,30,,,,8.7,
Wick,03/07/2017 15:00,14.2,22,,,0,,71,30,300,Dry,1016,1,45,,,,9.2,
Wick,03/07/2017 16:00,12.9,17,,,0,,77,,300,Dry,1017,7,21,,,,9.1,
Wick,03/07/2017 17:00,12.9,17,,,0,,70,,310,Dry,1017,1,29,,,,7.7,
Wick,03/07/2017 18:00,13.1,14,,15,0,0,76,,310,Dry,1018,1,19,,,,9,
Wick,03/07/2017 19:00,12.3,12,,,0,,79,,310,Dry,1018,1,35,,,,8.9,
Wick,03/07/2017 20:00,11.6,8,,,0,,81,,310,Dry,1018,0,30,,,,8.6,
Wick,03/07/2017 21:00,9.5,7,,,0,,89,,300,Dry,1019,0,40,,,,7.8,
Wick,03/07/2017 22:00,7.6,6,,,0,,94,,320,Dry,1019,0,30,,,,6.8,
Wick,03/07/2017 23:00,7.6,7,,,0,,98,,240,Dry,1020,0,30,,,,7.4,
Wick,04/07/2017 00:00,6.8,6,,,0,0,97,,270,Dry,1020,0,25,,,,6.5,
Wick,04/07/2017 01:00,7.2,5,,,0,,100,,260,Dry,1020,0,27,,,,7.2,
Wick,04/07/2017 02:00,7.5,3,,,0,,99,,220,Dry,1020,0,40,,,,7.4,
Wick,04/07/2017 03:00,6.4,6,,,0,,99,,230,Dry,1020,0,30,,,,6.3,
Wick,04/07/2017 04:00,6.4,6,,,0,,100,,220,Dry,1020,0,13,,,,6.4,
Wick,04/07/2017 05:00,7.2,5,,,0,,100,,250,Dry,1020,0,25,,,,7.2,
Wick,04/07/2017 06:00,9.7,3,5.3,,0,0,99,,250,Dry,1020,1,23,,,,9.6,
Wick,04/07/2017 07:00,11.8,3,,,0,,88,,260,Dry,1020,1,30,,,,9.9,
Wick,04/07/2017 08:00,12.5,1,,,0,,75,,270,Dry,1020,1,50,,,,8.2,
Wick,04/07/2017 09:00,12.7,7,,,0,,78,,110,Dry,1020,4,30,,,,9,
Wick,04/07/2017 10:00,12.8,7,,,0,,76,,120,Dry,1020,1,40,,,,8.8,
Wick,04/07/2017 11:00,12.8,9,,,0,,79,,130,Dry,1020,8,28,,,,9.3,
Wick,04/07/2017 12:00,12.6,10,,,0,0,76,,150,Dry,1020,1,45,,,,8.5,
Wick,04/07/2017 13:00,13.1,9,,,0,,76,,140,Dry,1020,2,25,,,,9.1,
Wick,04/07/2017 14:00,14.2,9,,,0,,71,,110,Dry,1021,2,25,,,,9.2,
Wick,04/07/2017 15:00,13.5,8,,,0,,72,,140,Dry,1020,4,30,,,,8.7,
Wick,04/07/2017 16:00,13.5,7,,,0,,75,,110,Dry,1020,5,45,,,,9.3,
Wick,04/07/2017 17:00,13.3,8,,,0,,78,,100,Dry,1021,4,35,,,,9.6,
Wick,04/07/2017 18:00,13.2,9,,14.7,0,0,77,,100,Dry,1021,1,18,,,,9.3,
Wick,04/07/2017 19:00,12.9,9,,,0,,79,,100,Dry,1021,6,30,,,,9.4,
Wick,04/07/2017 20:00,12.2,5,,,0,,81,,120,Dry,1021,1,50,,,,9.1,
Wick,04/07/2017 21:00,11.8,5,,,0,,85,,130,Dry,1021,0,50,,,,9.5,
Wick,04/07/2017 22:00,11,3,,,0,,89,,140,Dry,1022,0,50,,,,9.3,
Wick,04/07/2017 23:00,8.6,1,,,0,,89,,180,Dry,1022,0,40,,,,6.9,
Wick,05/07/2017 00:00,9.5,2,,,0,0,95,,160,Dry,1022,2,30,,,,8.8,
Wick,05/07/2017 01:00,7.7,2,,,0,,97,,290,Misty,1022,3,9,,,,7.4,
Wick,05/07/2017 02:00,6.9,2,,,0,,99,,270,Fog,1022,2,7,,,,6.8,
Wick,05/07/2017 03:00,6.5,1,,,0,,98,,80,Fog,1021,0,14,,,,6.3,
Wick,05/07/2017 04:00,5.5,5,,,0,,100,,260,Thickening fog,1021,3,0,,,,5.5,
Wick,05/07/2017 05:00,5.6,2,,,0,,100,,230,Fog,1021,2,23,,,,5.6,
Wick,05/07/2017 06:00,10.7,3,4.6,,0,0,100,,110,Dry,1021,1,27,,,,10.7,
Wick,05/07/2017 07:00,12.2,8,,,0,,88,,120,Dry,1021,1,28,,,,10.3,
Wick,05/07/2017 08:00,12.3,10,,,0,,86,,140,Dry,1022,1,26,,,,10.1,
Wick,05/07/2017 09:00,12.6,10,,,0,,83,,130,Dry,1021,1,35,,,,9.8,
Wick,05/07/2017 10:00,13,10,,,0,,82,,130,Dry,1021,1,23,,,,10.1,
Wick,05/07/2017 11:00,13.4,10,,,0,,82,,140,Dry,1021,1,35,,,,10.5,
Wick,05/07/2017 12:00,13.8,12,,,0,0,77,,130,Dry,1021,1,30,,,,9.9,
Wick,05/07/2017 13:00,14.2,12,,,0,,73,,130,Dry,1021,1,30,,,,9.6,
Wick,05/07/2017 14:00,14.2,13,,,0,,70,,130,Dry,1020,1,28,,,,9,
Wick,05/07/2017 15:00,14.6,15,,,0,,74,,120,Dry,1020,1,35,,,,10.1,
Wick,05/07/2017 16:00,13.7,15,,,0,,77,,130,Dry,1020,1,20,,,,9.8,
Wick,05/07/2017 17:00,13.3,15,,,0,,79,,130,Dry,1019,1,29,,,,9.9,
Wick,05/07/2017 18:00,13.3,14,,15,0,0,80,,130,Dry,1018,1,35,,,,10,
Wick,05/07/2017 19:00,13.3,12,,,0,,84,,120,Dry,1018,0,22,,,,10.7,
Wick,05/07/2017 20:00,12.7,12,,,0,,86,,120,Dry,1018,0,26,,,,10.5,
Wick,05/07/2017 21:00,12.4,10,,,0,,87,,130,Dry,1018,0,21,,,,10.4,
Wick,05/07/2017 22:00,12.3,10,,,0,,88,,130,Dry,1018,0,22,,,,10.5,
Wick,05/07/2017 23:00,12.2,12,,,0,,88,,140,Dry,1017,0,21,,,,10.3,
Wick,06/07/2017 00:00,11.9,10,,,0,0,89,,160,Dry,1017,0,24,,,,10.3,
Wick,06/07/2017 01:00,11.7,9,,,0,,89,,160,Dry,1016,0,22,,,,10.1,
Wick,06/07/2017 02:00,11.5,8,,,0,,92,,140,Dry,1016,0,22,,,,10.4,
Wick,06/07/2017 03:00,11.7,9,,,0,,91,,150,Dry,1015,0,25,,,,10.4,
Wick,06/07/2017 04:00,11.7,10,,,0,,91,,160,Dry,1015,2,35,,,,10.4,
Wick,06/07/2017 05:00,11.8,8,,,0,,90,,140,Dry,1014,0,35,,,,10.3,
Wick,06/07/2017 06:00,12,7,11.5,,0,0,90,,150,Dry,1014,5,28,,,,10.5,
Wick,06/07/2017 07:00,12,8,,,0,,92,,160,Light shower,1014,7,24,,,,10.8,
Wick,06/07/2017 08:00,12.2,9,,,0.2,,93,,160,Light shower,1014,8,14,,,,11.2,
Wick,06/07/2017 09:00,12.7,7,,,0.2,,92,,170,Rain,1014,8,35,,,,11.5,
Wick,06/07/2017 10:00,12.7,7,,,0.4,,93,,170,Rain,1013,7,18,,,,11.6,
Wick,06/07/2017 11:00,13,8,,,0,,93,,150,Dry,1013,7,29,,,,12,
Wick,06/07/2017 12:00,13.9,12,,,0,0.8,87,,160,Dry,1012,2,26,,,,11.8,
Wick,06/07/2017 13:00,15.5,13,,,0,,80,,160,Dry,1012,1,35,,,,12.2,
Wick,06/07/2017 14:00,16,12,,,0,,80,,160,Dry,1012,1,40,,,,12.6,
Wick,06/07/2017 15:00,15.7,9,,,0,,81,,160,Dry,1011,7,35,,,,12.6,
Wick,06/07/2017 16:00,14.9,12,,,0,,84,,160,Dry,1011,6,45,,,,12.3,
Wick,06/07/2017 17:00,15.2,7,,,0,,85,,150,Dry,1010,8,30,,,,12.7,
Wick,06/07/2017 18:00,15.2,7,,16.8,0,0,86,,180,Rain,1010,7,35,,,,12.9,
Wick,06/07/2017 19:00,15.4,8,,,0,,88,,190,Rain,1010,7,45,,,,13.5,
Wick,06/07/2017 20:00,14.7,6,,,0,,90,,170,Dry,1010,2,45,,,,13.1,
Wick,06/07/2017 21:00,14.1,7,,,0,,93,,170,Dry,1010,7,30,,,,13,
Wick,06/07/2017 22:00,13.9,7,,,0,,94,,170,Dry,1010,1,26,,,,13,
Wick,06/07/2017 23:00,14,8,,,0,,96,,180,Light shower,1010,7,19,,,,13.5,
Wick,07/07/2017 00:00,14.1,7,,,0.8,0.8,97,,200,Light rain,1010,2,13,,,,13.7,
Wick,07/07/2017 01:00,14,5,,,0.4,,96,,240,Rain,1010,3,29,,,,13.5,
Wick,07/07/2017 02:00,14,7,,,0.4,,94,,250,Rain,1010,3,50,,,,13.2,
Wick,07/07/2017 03:00,14.1,7,,,0,,93,,230,Dry,1010,6,50,,,,13.1,
Wick,07/07/2017 04:00,13.6,7,,,0,,96,,290,Misty,1010,1,2,,,,13,
Wick,07/07/2017 05:00,12.6,12,,,0.2,,99,,300,Rain,1010,6,12,,,,12.5,
Wick,07/07/2017 06:00,12.7,9,12.1,,0,1.2,98,,300,Dry,1011,2,29,,,,12.5,
Wick,07/07/2017 07:00,12.6,9,,,0,,91,,290,Dry,1011,4,30,,,,11.3,
Wick,07/07/2017 08:00,13.6,16,,,0,,87,,310,Dry,1011,2,30,,,,11.5,
Wick,07/07/2017 09:00,12,14,,,0,,91,,300,Dry,1012,7,45,,,,10.6,
Wick,07/07/2017 10:00,12.7,14,,,0,,80,,300,Dry,1012,7,40,,,,9.4,
Wick,07/07/2017 11:00,13.9,14,,,0,,70,,310,Dry,1012,1,35,,,,8.7,
Wick,07/07/2017 12:00,13.8,13,,,0,0,69,,310,Dry,1013,6,45,,,,8.4,
Wick,07/07/2017 13:00,14.3,13,,,0,,66,,310,Dry,1013,5,35,,,,8.1,
Wick,07/07/2017 14:00,15.1,13,,,0,,59,,310,Dry,1013,1,27,,,,7.3,
Wick,07/07/2017 15:00,14.3,14,,,0,,64,,310,Dry,1013,1,45,,,,7.6,
Wick,07/07/2017 16:00,13.2,10,,,0,,70,,310,Dry,1013,7,40,,,,8,
Wick,07/07/2017 17:00,12.9,13,,,0,,74,,310,Dry,1014,6,28,,,,8.4,
Wick,07/07/2017 18:00,12.6,13,,16,0,0,77,,310,Dry,1014,4,50,,,,8.7,
Wick,07/07/2017 19:00,12.2,12,,,0,,77,,310,Dry,1014,7,35,,,,8.3,
Wick,07/07/2017 20:00,11.6,7,,,0,,81,,320,Dry,1014,8,50,,,,8.5,
Wick,07/07/2017 21:00,11,6,,,0,,88,,300,Dry,1015,8,50,,,,9.1,
Wick,07/07/2017 22:00,10.5,6,,,0,,91,,260,Dry,1015,8,35,,,,9.1,
Wick,07/07/2017 23:00,10,6,,,0,,92,,270,Dry,1015,8,45,,,,8.8,
Wick,08/07/2017 00:00,9.6,6,,,0,0,89,,260,Dry,1015,8,50,,,,7.9,
Wick,08/07/2017 01:00,9.1,6,,,0,,90,,270,Dry,1016,8,40,,,,7.7,
Wick,08/07/2017 02:00,9.6,5,,,0,,89,,250,Dry,1016,8,45,,,,8,
Wick,08/07/2017 03:00,10.1,6,,,0,,83,,250,Dry,1015,8,45,,,,7.5,
Wick,08/07/2017 04:00,9.9,6,,,0,,87,,250,Dry,1015,8,45,,,,7.9,
Wick,08/07/2017 05:00,10.7,5,,,0,,80,,210,Dry,1015,8,45,,,,7.5,
Wick,08/07/2017 06:00,11.5,8,9.1,,0,0,79,,240,Dry,1015,8,50,,,,8.1,
Wick,08/07/2017 07:00,12.4,12,,,0,,75,,220,Dry,1015,7,40,,,,8.1,
Wick,08/07/2017 08:00,13.3,15,,,0,,66,,210,Dry,1015,7,40,,,,7.2,
Wick,08/07/2017 09:00,14.1,15,,,0,,61,,240,Dry,1014,1,45,,,,6.9,
Wick,08/07/2017 10:00,13.8,12,,,0,,67,,200,Dry,1014,4,24,,,,8,
Wick,08/07/2017 11:00,14.6,15,,,0,,70,,200,Dry,1014,2,30,,,,9.3,
Wick,08/07/2017 12:00,13.5,16,,,0,0,66,,190,Dry,1014,7,45,,,,7.3,
Wick,08/07/2017 13:00,14,16,,,0,,66,,190,Dry,1013,7,40,,,,7.8,
Wick,08/07/2017 14:00,13.4,13,,,0,,72,,190,Light shower,1013,8,30,,,,8.6,
Wick,08/07/2017 15:00,13.2,12,,,0.2,,81,,190,Light rain,1012,1,30,,,,10.1,
Wick,08/07/2017 16:00,12.2,12,,,0.8,,85,,210,Rain,1011,8,27,,,,9.8,
Wick,08/07/2017 17:00,11.9,12,,,1,,88,,200,Moderate rain,1011,8,9,,,,10,
Wick,08/07/2017 18:00,12.5,10,,14.9,0.2,2,83,,200,Rain,1010,8,35,,,,9.8,
Wick,08/07/2017 19:00,12.3,12,,,0,,85,,200,Drizzly rain,1010,8,27,,,,10,
Wick,08/07/2017 20:00,12.4,10,,,0.2,,87,,200,Rain,1009,5,28,,,,10.3,
Wick,08/07/2017 21:00,12.7,16,,,0,,78,,200,Dry,1008,7,45,,,,9,
Wick,08/07/2017 22:00,12.3,16,,,0,,76,,200,Dry,1007,1,45,,,,8.2,
Wick,08/07/2017 23:00,12.2,14,,,0,,78,,190,Dry,1007,8,35,,,,8.6,
Wick,09/07/2017 00:00,12.2,16,,,0,0.2,82,,210,Dry,1006,6,45,,,,9.3,
Wick,09/07/2017 01:00,11.6,17,,,0,,89,29,210,Rain,1006,6,45,,,,9.9,
Wick,09/07/2017 02:00,11.3,13,,,0,,94,,230,Dry,1006,5,50,,,,10.4,
Wick,09/07/2017 03:00,11.2,6,,,0,,89,,220,Dry,1006,1,50,,,,9.6,
Wick,09/07/2017 04:00,9.6,9,,,0,,88,,260,Dry,1007,1,40,,,,7.8,
Wick,09/07/2017 05:00,11,9,,,0,,83,,220,Dry,1007,7,35,,,,8.4,
Wick,09/07/2017 06:00,11.7,9,9.5,,0,0,78,,260,Dry,1007,4,30,,,,8.1,
Wick,09/07/2017 07:00,12.4,7,,,0,,75,,250,Dry,1007,2,50,,,,8.1,
Wick,09/07/2017 08:00,13.8,15,,,0,,65,,250,Dry,1007,4,45,,,,7.5,
Wick,09/07/2017 09:00,13.4,12,,,0,,70,,260,Dry,1007,2,30,,,,8.1,
Wick,09/07/2017 10:00,13.7,13,,,0,,67,,260,Dry,1008,2,24,,,,7.9,
Wick,09/07/2017 11:00,14,12,,,0,,63,,270,Dry,1008,7,45,,,,7.3,
Wick,09/07/2017 12:00,15,10,,,0,0,62,,280,Dry,1008,7,25,,,,7.8,
Wick,09/07/2017 13:00,13.6,13,,,0,,71,,300,Dry,1008,7,40,,,,8.6,
Wick,09/07/2017 14:00,14,13,,,0,,71,,310,Dry,1008,1,30,,,,8.9,
Wick,09/07/2017 15:00,12.9,13,,,0,,73,,300,Dry,1008,7,35,,,,8.3,
Wick,09/07/2017 16:00,13.7,12,,,0,,72,,300,Dry,1008,8,35,,,,8.9,
Wick,09/07/2017 17:00,13.5,12,,,0,,70,,290,Dry,1008,8,35,,,,8.3,
Wick,09/07/2017 18:00,13.4,12,,15.6,0,0,69,,300,Dry,1008,7,35,,,,8,
Wick,09/07/2017 19:00,13.7,12,,,0,,67,,300,Dry,1009,8,25,,,,7.7,
Wick,09/07/2017 20:00,12.3,5,,,0,,78,,320,Dry,1009,6,25,,,,8.7,
Wick,09/07/2017 21:00,10.9,2,,,0,,83,,340,Dry,1009,7,35,,,,8.2,
Wick,09/07/2017 22:00,9.7,5,,,0,,89,,270,Dry,1010,1,27,,,,8.1,
Wick,09/07/2017 23:00,8.3,5,,,0,,94,,260,Dry,1010,0,20,,,,7.4,
Wick,10/07/2017 00:00,7.9,5,,,0,0,97,,270,Dry,1010,7,13,,,,7.5,
Wick,10/07/2017 01:00,7.7,3,,,0,,97,,240,Dry,1010,7,20,,,,7.4,
Wick,10/07/2017 02:00,8.3,3,,,0,,96,,230,Dry,1009,8,25,,,,7.8,
Wick,10/07/2017 03:00,7.5,3,,,0,,96,,250,Dry,1009,7,15,,,,7,
Wick,10/07/2017 04:00,8.6,3,,,0,,93,,220,Dry,1009,8,29,,,,7.6,
Wick,10/07/2017 05:00,8.8,3,,,0,,89,,240,Dry,1009,8,35,,,,7.1,
Wick,10/07/2017 06:00,10.2,3,7.3,,0,0,89,,240,Dry,1009,8,22,,,,8.5,
Wick,10/07/2017 07:00,11.7,5,,,0,,81,,260,Dry,1009,8,35,,,,8.7,
Wick,10/07/2017 08:00,12.5,3,,,0,,74,,260,Dry,1009,8,30,,,,8.1,
Wick,10/07/2017 09:00,13.1,7,,,0,,68,,300,Dry,1009,8,35,,,,7.5,
Wick,10/07/2017 10:00,13.4,5,,,0,,70,,300,Dry,1009,8,21,,,,8.1,
Wick,10/07/2017 11:00,12.4,8,,,0,,78,,150,Dry,1009,2,17,,,,8.8,
Wick,10/07/2017 12:00,12.3,8,,,0,0,71,,140,Dry,1009,3,29,,,,7.3,
Wick,10/07/2017 13:00,13.1,2,,,0,,77,,260,Rain,1009,8,40,,,,9.2,
Wick,10/07/2017 14:00,12.3,3,,,0.2,,82,,230,Rain,1009,7,10,,,,9.4,
Wick,10/07/2017 15:00,12.9,3,,,0,,73,,30,Rain,1009,8,50,,,,8.2,
Wick,10/07/2017 16:00,13.6,5,,,0,,73,,140,Dry,1008,2,25,,,,9,
Wick,10/07/2017 17:00,13.2,6,,,0,,67,,110,Dry,1008,8,45,,,,7.3,
Wick,10/07/2017 18:00,12.9,3,,13.8,0,0.2,68,,140,Dry,1008,8,35,,,,7.2,
Wick,10/07/2017 19:00,12.6,6,,,0,,72,,140,Dry,1008,1,50,,,,7.8,
Wick,10/07/2017 20:00,12.2,3,,,0,,79,,210,Rain,1008,7,35,,,,8.7,
Wick,10/07/2017 21:00,11.4,3,,,0,,87,,270,Dry,1009,8,30,,,,9.4,
Wick,10/07/2017 22:00,10.5,3,,,0,,89,,280,Dry,1009,8,30,,,,8.8,
Wick,10/07/2017 23:00,9.8,2,,,0,,92,,290,Dry,1009,8,35,,,,8.7,
Wick,11/07/2017 00:00,9.6,3,,,0,0,92,,270,Rain,1008,7,22,,,,8.4,
Wick,11/07/2017 01:00,9.2,5,,,0,,96,,250,Dry,1008,3,30,,,,8.6,
Wick,11/07/2017 02:00,6.9,7,,,0,,97,,290,Dry,1008,1,11,,,,6.5,
Wick,11/07/2017 03:00,7.3,5,,,0,,100,,270,Fog,1008,1,19,,,,7.3,
Wick,11/07/2017 04:00,7.4,3,,,0,,100,,270,Dry,1008,2,26,,,,7.4,
Wick,11/07/2017 05:00,8.8,5,,,0,,100,,260,Dry,1008,4,30,,,,8.8,
Wick,11/07/2017 06:00,11,6,6.7,,0,0,94,,280,Dry,1008,2,35,,,,10.2,
Wick,11/07/2017 07:00,12.1,5,,,0,,85,,350,Dry,1008,1,45,,,,9.7,
Wick,11/07/2017 08:00,12.3,5,,,0,,80,,10,Dry,1008,3,30,,,,9,
Wick,11/07/2017 09:00,13.6,6,,,0,,78,,30,Dry,1009,2,30,,,,9.9,
Wick,11/07/2017 10:00,13.8,7,,,0,,72,,30,Dry,1009,4,35,,,,9,
Wick,11/07/2017 11:00,13.3,9,,,0,,77,,70,Dry,1009,1,30,,,,9.4,
Wick,11/07/2017 12:00,13.5,9,,,0,0,71,,60,Dry,1009,1,40,,,,8.4,
Wick,11/07/2017 13:00,14,8,,,0,,69,,80,Dry,1010,4,20,,,,8.5,
Wick,11/07/2017 14:00,13.5,6,,,0,,69,,90,Dry,1010,5,40,,,,8,
Wick,11/07/2017 15:00,12.8,6,,,0,,69,,70,Dry,1010,3,30,,,,7.4,
Wick,11/07/2017 16:00,12.9,6,,,0,,68,,70,Dry,1011,3,35,,,,7.3,
Wick,11/07/2017 17:00,12.3,5,,,0,,76,,70,Dry,1011,7,45,,,,8.2,
Wick,11/07/2017 18:00,12.5,5,,14.3,0,0,76,,60,Dry,1011,1,25,,,,8.4,
Wick,11/07/2017 19:00,12.2,3,,,0,,79,,40,Dry,1012,7,40,,,,8.7,
Wick,11/07/2017 20:00,11.5,5,,,0,,86,,30,Dry,1012,7,35,,,,9.3,
Wick,11/07/2017 21:00,10.9,5,,,0,,88,,10,Dry,1013,4,30,,,,9,
Wick,11/07/2017 22:00,10.1,3,,,0,,91,,340,Dry,1013,1,30,,,,8.7,
Wick,11/07/2017 23:00,8.8,3,,,0,,90,,320,Dry,1014,1,35,,,,7.4,
Wick,12/07/2017 00:00,7.2,5,,,0,0,95,,270,Misty,1014,3,11,,,,6.6,
Wick,12/07/2017 01:00,6.9,5,,,0,,97,,250,Dry,1014,1,27,,,,6.5,
Wick,12/07/2017 02:00,6.1,5,,,0,,97,,270,Dry,1014,3,18,,,,5.8,
Wick,12/07/2017 03:00,5.6,6,,,0,,98,,270,Dry,1015,5,22,,,,5.4,
Wick,12/07/2017 04:00,5.2,6,,,0,,98,,250,Dry,1015,2,17,,,,5,
Wick,12/07/2017 05:00,7.4,6,,,0,,100,,250,Dry,1015,2,17,,,,7.4,
Wick,12/07/2017 06:00,9.7,0,4.9,,0,0,99,,0,Dry,1016,1,15,,,,9.6,
Wick,12/07/2017 07:00,11.5,0,,,0,,88,,0,Dry,1016,1,30,,,,9.7,
Wick,12/07/2017 08:00,11.2,0,,,0,,84,,0,Dry,1016,2,40,,,,8.7,
Wick,12/07/2017 09:00,13.9,0,,,0,,66,,0,Dry,1017,1,40,,,,7.7,
Wick,12/07/2017 10:00,14.2,0,,,0,,60,,0,Dry,1017,1,35,,,,6.6,
Wick,12/07/2017 11:00,15.1,0,,,0,,62,,0,Dry,1017,2,24,,,,7.9,
Wick,12/07/2017 12:00,15.4,0,,,0,0,58,,0,Dry,1018,1,16,,,,7.3,
Wick,12/07/2017 13:00,14,0,,,0,,65,,0,Dry,1018,3,26,,,,7.7,
Wick,12/07/2017 14:00,14.6,0,,,0,,64,,0,Dry,1018,2,28,,,,7.9,
Wick,12/07/2017 15:00,14.6,0,,,0,,64,,0,Dry,1019,7,30,,,,8.1,
Wick,12/07/2017 16:00,13.6,0,,,0,,74,,0,Dry,1019,6,30,,,,9.2,
Wick,12/07/2017 17:00,13.8,0,,,0,,74,,0,Dry,1019,3,17,,,,9.4,
Wick,12/07/2017 18:00,14,0,,16.5,0,0,70,,0,Dry,1019,1,40,,,,8.8,
Wick,12/07/2017 19:00,13.6,0,,,0,,71,,0,Dry,1019,6,45,,,,8.6,
Wick,12/07/2017 20:00,13.1,0,,,0,,72,,0,Dry,1019,5,30,,,,8.3,
Wick,12/07/2017 21:00,11.6,2,,,0,,75,,310,Dry,1020,1,45,,,,7.5,
Wick,12/07/2017 22:00,10.2,2,,,0,,82,,270,Dry,1020,2,45,,,,7.4,
Wick,12/07/2017 23:00,9.9,2,,,0,,86,,220,Dry,1020,1,50,,,,7.7,
Wick,13/07/2017 00:00,9.3,2,,,0,0,84,,260,Dry,1019,0,50,,,,6.9,
Wick,13/07/2017 01:00,8.8,2,,,0,,92,,60,Dry,1019,1,50,,,,7.6,
Wick,13/07/2017 02:00,8.2,1,,,0,,85,,120,Dry,1018,6,45,,,,6,
Wick,13/07/2017 03:00,8.8,6,,,0,,93,,50,Dry,1018,4,25,,,,7.8,
Wick,13/07/2017 04:00,7.9,1,,,0,,94,,350,Dry,1017,6,45,,,,7.1,
Wick,13/07/2017 05:00,7.8,2,,,0,,97,,40,Dry,1016,2,40,,,,7.4,
Wick,13/07/2017 06:00,9.4,2,6.6,,0,0,96,,230,Dry,1016,0,30,,,,8.8,
Wick,13/07/2017 07:00,10.7,3,,,0,,94,,220,Dry,1016,0,30,,,,9.9,
Wick,13/07/2017 08:00,13,1,,,0,,89,,210,Dry,1015,0,35,,,,11.3,
Wick,13/07/2017 09:00,13.7,6,,,0,,81,,150,Dry,1015,1,20,,,,10.6,
Wick,13/07/2017 10:00,17.2,3,,,0,,57,,290,Dry,1014,1,22,,,,8.8,
Wick,13/07/2017 11:00,17.5,8,,,0,,44,,250,Dry,1014,1,21,,,,5.2,
Wick,13/07/2017 12:00,18.7,5,,,0,0,48,,350,Dry,1014,7,30,,,,7.6,
Wick,13/07/2017 13:00,18,13,,,0,,48,,150,Dry,1013,1,35,,,,7.1,
Wick,13/07/2017 14:00,15.7,12,,,0,,59,,140,Dry,1013,1,35,,,,7.9,
Wick,13/07/2017 15:00,14.9,12,,,0,,78,,140,Dry,1012,3,23,,,,11.2,
Wick,13/07/2017 16:00,15,8,,,0,,76,,150,Dry,1012,1,35,,,,11,
Wick,13/07/2017 17:00,14.5,6,,,0,,79,,150,Dry,1012,7,45,,,,11,
Wick,13/07/2017 18:00,14.7,6,,19.9,0,0,79,,110,Dry,1011,4,45,,,,11.2,
Wick,13/07/2017 19:00,13.7,5,,,0,,87,,40,Rain,1011,8,35,,,,11.7,
Wick,13/07/2017 20:00,13,2,,,0,,92,,40,Rain,1011,8,45,,,,11.8,
Wick,13/07/2017 21:00,12.3,6,,,0.2,,96,,290,Light shower,1011,8,19,,,,11.8,
Wick,13/07/2017 22:00,11.7,7,,,1.4,,96,,250,Light rain,1011,8,35,,,,11.2,
Wick,13/07/2017 23:00,11.4,8,,,0,,94,,280,Rain,1011,7,30,,,,10.6,
Wick,14/07/2017 00:00,11,8,,,0,2,96,,270,Rain,1011,8,40,,,,10.4,
Wick,14/07/2017 01:00,11.2,10,,,0,,96,,270,Drizzly rain,1011,8,16,,,,10.7,
Wick,14/07/2017 02:00,11,12,,,0,,96,,270,Rain,1011,8,40,,,,10.5,
Wick,14/07/2017 03:00,10.9,14,,,0,,96,,270,Rain,1011,8,50,,,,10.4,
Wick,14/07/2017 04:00,11,10,,,0,,98,,280,Dry,1012,3,6,,,,10.7,
Wick,14/07/2017 05:00,11.1,12,,,0,,98,,280,Dry,1012,1,22,,,,10.8,
Wick,14/07/2017 06:00,11.9,15,10.7,,0,0,98,,290,Dry,1012,1,26,,,,11.6,
Wick,14/07/2017 07:00,13,14,,,0,,91,,300,Dry,1012,5,21,,,,11.6,
Wick,14/07/2017 08:00,13,15,,,0.4,,89,,290,Rain,1013,1,30,,,,11.3,
Wick,14/07/2017 09:00,13.4,15,,,0,,85,,300,Rain,1014,2,18,,,,11.1,
Wick,14/07/2017 10:00,13.3,17,,,0,,88,,290,Dry,1014,4,22,,,,11.4,
Wick,14/07/2017 11:00,13.3,22,,,0,,87,29,300,Rain,1015,1,40,,,,11.3,
Wick,14/07/2017 12:00,14.8,20,,,0,0.4,75,,300,Dry,1015,2,23,,,,10.6,
Wick,14/07/2017 13:00,15.7,16,,,0,,63,,290,Dry,1015,1,40,,,,8.8,
Wick,14/07/2017 14:00,15.8,15,,,0,,65,,290,Dry,1015,7,29,,,,9.3,
Wick,14/07/2017 15:00,14.9,13,,,0,,68,,280,Dry,1015,7,35,,,,9.1,
Wick,14/07/2017 16:00,14.3,12,,,0,,71,,290,Dry,1016,1,40,,,,9.3,
Wick,14/07/2017 17:00,13.9,9,,,0,,77,,320,Dry,1015,7,45,,,,10,
Wick,14/07/2017 18:00,13.2,3,,17.2,0,0,79,,10,Dry,1015,1,50,,,,9.8,
Wick,14/07/2017 19:00,13.2,2,,,0,,80,,70,Dry,1015,1,50,,,,9.9,
Wick,14/07/2017 20:00,12.8,8,,,0,,89,,130,Dry,1015,4,40,,,,11.1,
Wick,14/07/2017 21:00,12.4,9,,,0,,91,,130,Dry,1015,1,30,,,,11.1,
Wick,14/07/2017 22:00,12.8,12,,,0,,93,,130,Dry,1015,1,30,,,,11.7,
Wick,14/07/2017 23:00,12.8,8,,,0,,84,,170,Dry,1014,8,45,,,,10.3,
Wick,15/07/2017 00:00,12.5,9,,,0,0,87,,180,Dry,1013,0,45,,,,10.4,
Wick,15/07/2017 01:00,12.6,10,,,0,,87,,170,Dry,1013,8,50,,,,10.5,
Wick,15/07/2017 02:00,12.5,12,,,0,,92,,160,Dry,1012,1,35,,,,11.3,
Wick,15/07/2017 03:00,12.7,14,,,0,,91,,160,Rain,1011,0,35,,,,11.3,
Wick,15/07/2017 04:00,12.5,12,,,0.6,,89,,170,Light shower,1011,1,35,,,,10.9,
Wick,15/07/2017 05:00,12.5,10,,,0,,91,,170,Rain,1010,1,35,,,,11.2,
Wick,15/07/2017 06:00,12.7,12,12.3,,0,0.6,91,,170,Dry,1010,7,40,,,,11.3,
Wick,15/07/2017 07:00,13.4,15,,,0,,88,,170,Dry,1009,1,29,,,,11.5,
Wick,15/07/2017 08:00,13.9,13,,,0,,87,,170,Dry,1009,7,40,,,,11.9,
Wick,15/07/2017 09:00,13.7,12,,,0.6,,93,,180,Moderate shower,1009,1,17,,,,12.7,
Wick,15/07/2017 10:00,13.6,9,,,1,,94,,150,Light rain,1008,1,15,,,,12.8,
Wick,15/07/2017 11:00,13.5,15,,,1.8,,98,,160,Moderate rain,1007,8,5,,,,13.2,
Wick,15/07/2017 12:00,13.8,15,,,1.4,5,99,,160,Light rain,1006,2,7,,,,13.7,
Wick,15/07/2017 13:00,14,14,,,0.4,,100,,170,Rain,1006,4,14,,,,14,
Wick,15/07/2017 14:00,15.7,13,,,0,,98,,180,Misty,1005,3,5,,,,15.5,
Wick,15/07/2017 15:00,13.3,8,,,1,,98,,330,Light drizzle,1005,6,4,,,,13.1,
Wick,15/07/2017 16:00,14.2,10,,,0.2,,98,,330,Rain,1006,5,2,,,,14,
Wick,15/07/2017 17:00,14.2,16,,,0.8,,96,,290,Rain,1006,5,30,,,,13.7,
Wick,15/07/2017 18:00,13.6,18,,16.1,0,2,93,,280,Dry,1007,1,45,,,,12.5,
Wick,15/07/2017 19:00,13,16,,,0,,93,30,290,Dry,1008,1,30,,,,12,
Wick,15/07/2017 20:00,12.9,12,,,0,,91,,270,Dry,1009,4,45,,,,11.5,
Wick,15/07/2017 21:00,12.4,12,,,0,,89,,270,Dry,1010,5,40,,,,10.7,
Wick,15/07/2017 22:00,12.5,10,,,0,,86,,260,Dry,1011,2,45,,,,10.3,
Wick,15/07/2017 23:00,12.5,9,,,0,,87,,260,Dry,1011,6,35,,,,10.4,
Wick,16/07/2017 00:00,12.6,6,,,0,0,83,,210,Dry,1012,7,40,,,,9.8,
Wick,16/07/2017 01:00,11.9,6,,,0,,82,,150,Dry,1012,8,29,,,,9,
Wick,16/07/2017 02:00,11.4,8,,,0,,84,,180,Dry,1012,8,35,,,,8.9,
Wick,16/07/2017 03:00,12,13,,,0,,80,,240,Dry,1012,8,40,,,,8.8,
Wick,16/07/2017 04:00,10.3,16,,,0.2,,91,30,250,Rain,1013,5,35,,,,9,
Wick,16/07/2017 05:00,10.9,6,,,0,,89,,230,Dry,1013,7,30,,,,9.3,
Wick,16/07/2017 06:00,11.7,8,10.2,,0,0.2,80,,220,Dry,1013,7,35,,,,8.5,
Wick,16/07/2017 07:00,12.6,15,,,0,,75,,240,Dry,1014,6,20,,,,8.4,
Wick,16/07/2017 08:00,11.9,9,,,0,,89,,230,Rain,1014,4,35,,,,10.3,
Wick,16/07/2017 09:00,13.2,16,,,0,,71,,240,Dry,1015,2,35,,,,8.1,
Wick,16/07/2017 10:00,14.8,17,,,0,,75,29,250,Rain,1014,6,26,,,,10.5,
Wick,16/07/2017 11:00,15.6,18,,,0,,65,30,250,Dry,1014,6,35,,,,9.2,
Wick,16/07/2017 12:00,15.3,22,,,0,0,56,33,250,Dry,1015,5,24,,,,6.7,
Wick,16/07/2017 13:00,16.2,23,,,0,,58,32,250,Rain,1015,2,27,,,,8,
Wick,16/07/2017 14:00,16.1,26,,,0,,56,40,240,Dry,1015,6,27,,,,7.4,
Wick,16/07/2017 15:00,16.3,26,,,0,,58,37,240,Dry,1015,2,35,,,,8.1,
Wick,16/07/2017 16:00,16.3,29,,,0,,60,41,240,Dry,1014,1,30,,,,8.6,
Wick,16/07/2017 17:00,15.1,26,,,0,,64,40,240,Dry,1014,1,21,,,,8.4,
Wick,16/07/2017 18:00,14.2,24,,17.7,0,0,75,40,240,Dry,1014,6,20,,,,10,
Wick,16/07/2017 19:00,13.4,23,,,0,,81,39,230,Dry,1014,2,35,,,,10.3,
Wick,16/07/2017 20:00,12.1,18,,,0.4,,94,,260,Light drizzle,1014,1,6,,,,11.2,
Wick,16/07/2017 21:00,11.7,18,,,0.4,,94,,250,Drizzly rain,1014,5,27,,,,10.9,
Wick,16/07/2017 22:00,11.4,13,,,0.2,,95,,250,Drizzly rain,1015,6,5,,,,10.7,
Wick,16/07/2017 23:00,11.5,8,,,0,,94,,230,Rain,1015,6,40,,,,10.7,
Wick,17/07/2017 00:00,11.7,10,,,0,1,96,,240,Rain,1015,7,8,,,,11.2,
Wick,17/07/2017 01:00,11.9,8,,,0.2,,96,,240,Rain,1015,6,11,,,,11.4,
Wick,17/07/2017 02:00,12.2,14,,,0,,92,,250,Rain,1015,1,30,,,,11.1,
Wick,17/07/2017 03:00,11.9,12,,,0.2,,96,,260,Drizzly rain,1015,1,3,,,,11.4,
Wick,17/07/2017 04:00,11.6,9,,,0.8,,98,,260,Rain,1015,2,30,,,,11.4,
Wick,17/07/2017 05:00,11.6,14,,,0,,96,,260,Rain,1016,1,30,,,,11,
Wick,17/07/2017 06:00,11.8,9,11.4,,0,1,98,,260,Rain,1016,1,29,,,,11.5,
Wick,17/07/2017 07:00,12.4,9,,,0,,94,,270,Dry,1016,7,45,,,,11.6,
Wick,17/07/2017 08:00,12.3,7,,,0,,98,,270,Misty,1017,8,6,,,,12,
Wick,17/07/2017 09:00,13.8,17,,,0,,88,,260,Dry,1017,2,40,,,,12,
Wick,17/07/2017 10:00,15.4,25,,,0,,81,36,270,Dry,1017,7,24,,,,12.2,
Wick,17/07/2017 11:00,16.2,31,,,0,,74,40,270,Dry,1016,6,17,,,,11.7,
Wick,17/07/2017 12:00,17.6,28,,,0,0,69,41,270,Dry,1017,5,16,,,,12,
Wick,17/07/2017 13:00,17.7,21,,,0,,65,35,260,Dry,1018,7,12,,,,11.2,
Wick,17/07/2017 14:00,18.2,18,,,0,,66,,280,Dry,1018,6,19,,,,11.9,
Wick,17/07/2017 15:00,19.2,21,,,0,,63,29,290,Dry,1018,1,12,,,,12.2,
Wick,17/07/2017 16:00,18,23,,,0,,67,32,300,Dry,1018,1,10,,,,11.9,
Wick,17/07/2017 17:00,16.9,18,,,0,,73,30,290,Dry,1019,1,12,,,,12.2,
Wick,17/07/2017 18:00,15.9,20,,19.4,0,0,78,,300,Haze,1019,1,10,,,,12.1,
Wick,17/07/2017 19:00,14.9,17,,,0,,82,,290,Haze,1019,0,9,,,,12,
Wick,17/07/2017 20:00,13.6,10,,,0,,87,,280,Haze,1020,0,8,,,,11.6,
Wick,17/07/2017 21:00,11.5,3,,,0,,91,,340,Haze,1020,0,7,,,,10.1,
Wick,17/07/2017 22:00,9.6,6,,,0,,95,,320,Misty,1021,0,6,,,,8.9,
Wick,17/07/2017 23:00,10.5,1,,,0,,98,,160,Misty,1021,0,7,,,,10.3,
Wick,18/07/2017 00:00,10.8,3,,,0,0,98,,230,Fog,1021,0,7,,,,10.6,
Wick,18/07/2017 01:00,10.7,5,,,0,,88,,210,Dry,1021,0,24,,,,8.8,
Wick,18/07/2017 02:00,10.5,5,,,0,,84,,220,Dry,1021,0,20,,,,8,
Wick,18/07/2017 03:00,10.1,3,,,0,,82,,230,Dry,1021,0,22,,,,7.3,
Wick,18/07/2017 04:00,8.7,6,,,0,,89,,290,Dry,1021,0,28,,,,7.1,
Wick,18/07/2017 05:00,9.6,1,,,0,,83,,150,Dry,1021,0,23,,,,7,
Wick,18/07/2017 06:00,12.4,3,7.8,,0,0,80,,80,Dry,1021,0,22,,,,9.1,
Wick,18/07/2017 07:00,14.1,5,,,0,,72,,90,Dry,1021,0,27,,,,9.2,
Wick,18/07/2017 08:00,13.7,8,,,0,,80,,100,Dry,1021,0,11,,,,10.5,
Wick,18/07/2017 09:00,15,8,,,0,,68,,120,Dry,1021,0,22,,,,9.3,
Wick,18/07/2017 10:00,15,12,,,0,,77,,140,Dry,1020,0,30,,,,11.1,
Wick,18/07/2017 11:00,15.1,9,,,0,,80,,130,Dry,1020,0,18,,,,11.8,
Wick,18/07/2017 12:00,15.6,13,,,0,0,80,,130,Dry,1020,0,22,,,,12.3,
Wick,18/07/2017 13:00,16.1,12,,,0,,72,,130,Dry,1020,0,40,,,,11.2,
Wick,18/07/2017 14:00,17.1,14,,,0,,74,,120,Dry,1019,0,19,,,,12.5,
Wick,18/07/2017 15:00,16.5,14,,,0,,76,,110,Dry,1018,0,30,,,,12.4,
Wick,18/07/2017 16:00,17.1,13,,,0,,71,,130,Dry,1017,0,15,,,,12,
Wick,18/07/2017 17:00,16.9,15,,,0,,74,,120,Dry,1017,0,13,,,,12.3,
Wick,18/07/2017 18:00,15.7,14,,17.6,0,0,77,,120,Dry,1017,0,18,,,,11.7,
Wick,18/07/2017 19:00,15.4,14,,,0,,81,,120,Dry,1016,0,14,,,,12.2,
Wick,18/07/2017 20:00,14.8,14,,,0,,84,,130,Dry,1016,0,13,,,,12.2,
Wick,18/07/2017 21:00,14.6,15,,,0,,84,,130,Dry,1016,0,14,,,,12.1,
Wick,18/07/2017 22:00,14.1,15,,,0,,87,,120,Dry,1016,0,14,,,,12.1,
Wick,18/07/2017 23:00,13.5,13,,,0,,91,,130,Dry,1016,0,11,,,,12.2,
Wick,19/07/2017 00:00,13.2,12,,,0,0,93,,120,Dry,1016,0,12,,,,12.1,
Wick,19/07/2017 01:00,13.1,10,,,0,,94,,130,Dry,1016,0,14,,,,12.2,
Wick,19/07/2017 02:00,12.8,10,,,0,,96,,120,Misty,1015,2,9,,,,12.3,
Wick,19/07/2017 03:00,12.7,12,,,0,,97,,130,Dry,1015,6,11,,,,12.3,
Wick,19/07/2017 04:00,13,10,,,0,,98,,130,Misty,1014,8,8,,,,12.7,
Wick,19/07/2017 05:00,12.9,15,,,0,,97,,130,Misty,1014,8,8,,,,12.5,
Wick,19/07/2017 06:00,13.4,16,12.6,,0,0,92,,130,Dry,1014,1,16,,,,12.2,
Wick,19/07/2017 07:00,13.5,14,,,0,,90,,130,Dry,1014,8,15,,,,12,
Wick,19/07/2017 08:00,14.4,14,,,0,,88,,130,Dry,1013,8,11,,,,12.5,
Wick,19/07/2017 09:00,14.3,15,,,0,,88,,130,Haze,1013,8,10,,,,12.5,
Wick,19/07/2017 10:00,14.6,17,,,0,,87,,120,Dry,1012,8,12,,,,12.5,
Wick,19/07/2017 11:00,15.1,18,,,0,,86,,120,Haze,1012,8,11,,,,12.8,
Wick,19/07/2017 12:00,14.9,21,,,0,0,84,,110,Dry,1011,8,14,,,,12.4,
Wick,19/07/2017 13:00,15,22,,,0,,86,31,120,Haze,1010,8,17,,,,12.7,
Wick,19/07/2017 14:00,14.9,20,,,0,,84,30,110,Dry,1010,8,12,,,,12.4,
Wick,19/07/2017 15:00,14.7,18,,,0,,83,30,120,Dry,1010,8,12,,,,12,
Wick,19/07/2017 16:00,14.6,18,,,0,,83,30,120,Dry,1009,8,29,,,,11.9,
Wick,19/07/2017 17:00,13.9,18,,,0,,85,,110,Dry,1008,8,17,,,,11.5,
Wick,19/07/2017 18:00,13.4,18,,15.6,0,0,88,,110,Dry,1007,6,11,,,,11.5,
Wick,19/07/2017 19:00,13.3,21,,,0,,91,,100,Dry,1006,3,11,,,,11.9,
Wick,19/07/2017 20:00,13.2,22,,,0,,92,29,100,Dry,1006,5,12,,,,12,
Wick,19/07/2017 21:00,13.2,18,,,0,,94,,100,Dry,1005,7,10,,,,12.4,
Wick,19/07/2017 22:00,13.4,16,,,0,,95,,100,Misty,1004,8,8,,,,12.7,
Wick,19/07/2017 23:00,13.3,14,,,0,,98,,100,Misty,1004,8,6,,,,13.1,
Wick,20/07/2017 00:00,13.4,15,,,2,2,100,,100,Light shower,1003,8,4,,,,13.4,
Wick,20/07/2017 01:00,13.4,18,,,0.8,,100,,100,Light rain,1003,6,5,,,,13.4,
Wick,20/07/2017 02:00,13.4,17,,,2.2,,100,,90,Light shower,1002,8,3,,,,13.4,
Wick,20/07/2017 03:00,13.3,14,,,1.4,,100,,100,Light rain,1000,5,1,,,,13.3,
Wick,20/07/2017 04:00,13.2,10,,,1,,100,,100,Light drizzle,1000,9,0,,,,13.2,
Wick,20/07/2017 05:00,13.2,10,,,0.2,,100,,110,Thickening fog,1000,9,0,,,,13.2,
Wick,20/07/2017 06:00,13.3,8,13.1,,0,6,100,,150,Moderate drizzle,1000,9,0,,,,13.3,
Wick,20/07/2017 07:00,13.9,6,,,0,,100,,200,Fog thinning,1000,9,0,,,,13.9,
Wick,20/07/2017 08:00,13.9,10,,,0,,100,,290,Fog,1001,8,17,,,,13.9,
Wick,20/07/2017 09:00,14.1,15,,,0,,96,,310,Dry,1001,3,35,,,,13.6,
Wick,20/07/2017 10:00,13.4,17,,,0,,94,,310,Dry,1002,5,14,,,,12.6,
Wick,20/07/2017 11:00,12.2,14,,,7.8,,98,,300,Violent shower,1002,2,1,,,,11.9,
Wick,20/07/2017 12:00,12.6,18,,,5,13,98,,310,Drizzly rain,1002,2,17,,,,12.4,
Wick,20/07/2017 13:00,12.2,16,,,0.8,,98,,300,Light drizzle,1002,1,22,,,,11.9,
Wick,20/07/2017 14:00,12.4,17,,,0.4,,98,,300,Rain,1002,3,19,,,,12.1,
Wick,20/07/2017 15:00,12,16,,,0.2,,98,,300,Rain,1002,3,30,,,,11.7,
Wick,20/07/2017 16:00,11.9,16,,,0.2,,97,,300,Drizzly rain,1002,7,5,,,,11.5,
Wick,20/07/2017 17:00,11.8,16,,,0.4,,97,,310,Rain,1003,1,5,,,,11.4,
Wick,20/07/2017 18:00,11.4,17,,14.6,0.4,2,96,,300,Dry,1003,1,14,,,,10.9,
Wick,20/07/2017 19:00,11,14,,,0.4,,97,,290,Moderate shower,1003,1,5,,,,10.6,
Wick,20/07/2017 20:00,10.4,13,,,8.6,,100,,300,Moderate rain,1003,7,5,,,,10.4,
Wick,20/07/2017 21:00,10.2,13,,,4.4,,100,,280,Moderate rain,1003,7,6,,,,10.2,
Wick,20/07/2017 22:00,9.7,12,,,2.4,,99,,280,Moderate rain,1003,5,8,,,,9.6,
Wick,20/07/2017 23:00,9.8,7,,,1,,100,,230,Moderate drizzle,1004,1,8,,,,9.8,
Wick,21/07/2017 00:00,9.9,9,,,0.4,17,100,,270,Light shower,1004,8,16,,,,9.9,
Wick,21/07/2017 01:00,9.8,8,,,2.2,,100,,250,Light rain,1004,8,12,,,,9.8,
Wick,21/07/2017 02:00,9.6,8,,,0.4,,98,,270,Light rain,1004,7,28,,,,9.4,
Wick,21/07/2017 03:00,9,7,,,0,,96,,240,Rain,1005,5,50,,,,8.5,
Wick,21/07/2017 04:00,9.2,7,,,0,,94,,190,Dry,1005,6,40,,,,8.4,
Wick,21/07/2017 05:00,10.2,1,,,0.2,,95,,190,Dry,1006,7,35,,,,9.5,
Wick,21/07/2017 06:00,11.4,5,8.6,,0,3,91,,180,Dry,1006,3,26,,,,10.1,
Wick,21/07/2017 07:00,12.6,8,,,0,,83,,160,Dry,1007,4,35,,,,9.8,
Wick,21/07/2017 08:00,12.9,10,,,0,,88,,140,Dry,1008,1,30,,,,11,
Wick,21/07/2017 09:00,13.6,14,,,0,,85,,130,Dry,1008,5,19,,,,11.2,
Wick,21/07/2017 10:00,14.1,14,,,0,,85,,120,Dry,1008,3,17,,,,11.7,
Wick,21/07/2017 11:00,14.8,17,,,0,,87,,120,Dry,1008,1,30,,,,12.7,
Wick,21/07/2017 12:00,14.7,16,,,0,0,82,,120,Dry,1009,3,21,,,,11.8,
Wick,21/07/2017 13:00,14.3,17,,,0,,84,,110,Dry,1009,1,25,,,,11.8,
Wick,21/07/2017 14:00,14.2,18,,,0,,86,,100,Dry,1009,2,18,,,,11.9,
Wick,21/07/2017 15:00,14.4,16,,,0,,86,,110,Dry,1010,4,17,,,,12.1,
Wick,21/07/2017 16:00,14.9,16,,,0,,86,,120,Dry,1010,4,12,,,,12.6,
Wick,21/07/2017 17:00,15.3,16,,,0,,86,,110,Dry,1010,8,12,,,,13.1,
Wick,21/07/2017 18:00,14.9,13,,15.4,0,0,87,,120,Dry,1010,5,11,,,,12.8,
Wick,21/07/2017 19:00,14.4,14,,,0,,90,,120,Dry,1010,0,12,,,,12.9,
Wick,21/07/2017 20:00,13.9,13,,,0,,92,,130,Dry,1011,0,11,,,,12.7,
Wick,21/07/2017 21:00,13.6,14,,,0,,93,,120,Dry,1011,0,10,,,,12.5,
Wick,21/07/2017 22:00,13.1,12,,,0,,94,,120,Misty,1012,0,9,,,,12.3,
Wick,21/07/2017 23:00,13.1,12,,,0,,96,,110,Misty,1012,0,8,,,,12.6,
Wick,22/07/2017 00:00,13.1,12,,,0,0,97,,110,Misty,1012,0,8,,,,12.7,
Wick,22/07/2017 01:00,13,12,,,0,,98,,120,Misty,1013,1,8,,,,12.8,
Wick,22/07/2017 02:00,13.1,13,,,0,,99,,120,Misty,1013,6,6,,,,13,
Wick,22/07/2017 03:00,13,12,,,0,,100,,120,Misty,1013,8,6,,,,13,
Wick,22/07/2017 04:00,13.3,13,,,0,,100,,120,Misty,1013,8,6,,,,13.3,
Wick,22/07/2017 05:00,13.1,13,,,0,,100,,120,Misty,1013,8,8,,,,13.1,
Wick,22/07/2017 06:00,13.5,9,12.9,,0,0,98,,120,Misty,1013,8,9,,,,13.2,
Wick,22/07/2017 07:00,13.8,9,,,0,,97,,110,Misty,1014,8,9,,,,13.4,
Wick,22/07/2017 08:00,13.8,9,,,0,,97,,110,Misty,1014,7,8,,,,13.4,
Wick,22/07/2017 09:00,13.7,13,,,0,,96,,100,Misty,1014,8,8,,,,13.2,
Wick,22/07/2017 10:00,14.4,14,,,0,,95,,100,Misty,1014,8,10,,,,13.7,
Wick,22/07/2017 11:00,14.9,16,,,0,,93,,100,Dry,1015,8,16,,,,13.8,
Wick,22/07/2017 12:00,15.8,17,,,0,0,90,,90,Dry,1015,7,20,,,,14.2,
Wick,22/07/2017 13:00,15.6,0,,,0,,89,,0,Dry,1015,5,19,,,,13.9,
Wick,22/07/2017 14:00,15.1,0,,,0,,91,,0,Dry,1015,8,11,,,,13.7,
Wick,22/07/2017 15:00,15.3,0,,,0,,89,,0,Dry,1015,5,10,,,,13.6,
Wick,22/07/2017 16:00,15.2,0,,,0,,90,,0,Dry,1015,5,23,,,,13.7,
Wick,22/07/2017 17:00,14.7,0,,,0,,88,,0,Dry,1014,1,40,,,,12.9,
Wick,22/07/2017 18:00,14.3,0,,16.1,0,0,92,,0,Dry,1014,5,27,,,,13.1,
Wick,22/07/2017 19:00,13.7,0,,,0,,93,,0,Dry,1015,5,29,,,,12.6,
Wick,22/07/2017 20:00,13.2,0,,,0,,96,,0,Dry,1015,8,20,,,,12.6,
Wick,22/07/2017 21:00,12,0,,,0,,98,,0,Dry,1015,0,13,,,,11.8,
Wick,22/07/2017 22:00,11.3,0,,,0,,99,,0,Dry,1015,0,11,,,,11.2,
Wick,22/07/2017 23:00,11.8,0,,,0,,100,,0,Misty,1015,0,10,,,,11.8,
Wick,23/07/2017 00:00,12.7,0,,,0,0,100,,0,Dry,1015,1,13,,,,12.7,
Wick,23/07/2017 01:00,13,0,,,0,,98,,0,Dry,1015,8,13,,,,12.8,
Wick,23/07/2017 02:00,13.2,9,,,0,,99,,40,Dry,1015,5,11,,,,13.1,
Wick,23/07/2017 03:00,13.3,10,,,0,,99,,40,Misty,1015,8,7,,,,13.2,
Wick,23/07/2017 04:00,13.3,9,,,0,,100,,50,Rain,1014,8,1,,,,13.3,
Wick,23/07/2017 05:00,13.4,10,,,0.2,,100,,40,Rain,1015,9,1,,,,13.4,
Wick,23/07/2017 06:00,13.5,12,11.3,,0,0.2,100,,50,Light drizzle,1015,9,0,,,,13.5,
Wick,23/07/2017 07:00,13.5,12,,,0,,100,,40,Drizzle,1015,9,1,,,,13.5,
Wick,23/07/2017 08:00,14.6,10,,,0,,100,,40,Misty,1016,5,8,,,,14.6,
Wick,23/07/2017 09:00,15.9,12,,,0,,94,,40,Dry,1016,0,12,,,,15.1,
Wick,23/07/2017 10:00,16.7,12,,,0,,86,,30,Dry,1016,0,18,,,,14.5,
Wick,23/07/2017 11:00,15.6,13,,,0,,88,,30,Dry,1017,3,19,,,,13.7,
Wick,23/07/2017 12:00,15.4,17,,,0,0,90,,30,Dry,1017,5,12,,,,13.9,
Wick,23/07/2017 13:00,14.2,15,,,0,,91,,40,Dry,1017,8,13,,,,12.9,
Wick,23/07/2017 14:00,13.8,15,,,0,,96,,30,Misty,1017,5,5,,,,13.2,
Wick,23/07/2017 15:00,14,13,,,0,,95,,30,Dry,1017,5,11,,,,13.3,
Wick,23/07/2017 16:00,13.6,13,,,0,,96,,10,Misty,1018,5,6,,,,13.1,
Wick,23/07/2017 17:00,13.3,13,,,0,,98,,10,Misty,1017,8,4,,,,13.1,
Wick,23/07/2017 18:00,13.1,12,,16.8,0,0,99,,10,Misty,1018,8,4,,,,13,
Wick,23/07/2017 19:00,13,12,,,0,,98,,360,Misty,1018,5,8,,,,12.7,
Wick,23/07/2017 20:00,12.8,14,,,0,,97,,10,Dry,1018,5,10,,,,12.4,
Wick,23/07/2017 21:00,12.5,9,,,0,,97,,10,Misty,1018,5,10,,,,12.1,
Wick,23/07/2017 22:00,12.4,14,,,0,,93,,350,Dry,1018,5,17,,,,11.4,
Wick,23/07/2017 23:00,12.3,13,,,0,,93,,360,Dry,1018,5,16,,,,11.3,
Wick,24/07/2017 00:00,12.2,13,,,0,0,91,,340,Dry,1018,8,24,,,,10.8,
Wick,24/07/2017 01:00,12,14,,,0,,91,,340,Dry,1018,8,22,,,,10.6,
Wick,24/07/2017 02:00,11.8,13,,,0,,88,,340,Dry,1018,8,23,,,,10,
Wick,24/07/2017 03:00,11.5,10,,,0,,91,,320,Dry,1018,8,17,,,,10.1,
Wick,24/07/2017 04:00,11.4,10,,,0,,88,,320,Dry,1018,5,25,,,,9.6,
Wick,24/07/2017 05:00,11.7,12,,,0,,87,,330,Dry,1018,5,27,,,,9.7,
Wick,24/07/2017 06:00,11.4,14,11.4,,0,0,92,,320,Dry,1018,5,10,,,,10.2,
Wick,24/07/2017 07:00,11.7,12,,,0,,96,,320,Misty,1018,5,6,,,,11.2,
Wick,24/07/2017 08:00,11.9,12,,,0.2,,98,,340,Misty,1018,5,4,,,,11.7,
Wick,24/07/2017 09:00,12.5,14,,,0,,96,,340,Dry,1019,5,26,,,,11.9,
Wick,24/07/2017 10:00,12.7,14,,,0,,91,,340,Dry,1019,5,14,,,,11.3,
Wick,24/07/2017 11:00,12.5,13,,,0,,96,,310,Misty,1019,5,4,,,,12,
Wick,24/07/2017 12:00,12.7,13,,,0,0.2,96,,320,Misty,1019,5,8,,,,12.1,
Wick,24/07/2017 13:00,14,13,,,-0.2,,88,,330,Fog,1019,1,30,,,,12.2,
Wick,24/07/2017 14:00,13.2,13,,,0,,94,,330,Misty,1019,8,20,,,,12.3,
Wick,24/07/2017 15:00,13,13,,,0,,93,,350,Haze,1019,5,20,,,,11.9,
Wick,24/07/2017 16:00,12.9,12,,,0,,94,,340,Haze,1019,8,4,,,,12,
Wick,24/07/2017 17:00,12.9,13,,,0,,94,,320,Misty,1019,8,7,,,,12,
Wick,24/07/2017 18:00,12.5,13,,14,0,0,97,,320,Misty,1019,8,6,,,,12.1,
Wick,24/07/2017 19:00,12.1,13,,,0,,97,,310,Misty,1019,1,9,,,,11.7,
Wick,24/07/2017 20:00,12,12,,,0,,93,,320,Dry,1019,8,14,,,,11,
Wick,24/07/2017 21:00,11.6,10,,,0,,96,,330,Dry,1020,8,13,,,,11.1,
Wick,24/07/2017 22:00,11.4,0,,,0,,98,,0,Misty,1020,8,7,,,,11.1,
Wick,24/07/2017 23:00,11.2,0,,,0.2,,99,,0,Misty,1019,8,6,,,,11.1,
Wick,25/07/2017 00:00,11.1,0,,,0,0.2,98,,0,Dry,1019,8,18,,,,10.9,
Wick,25/07/2017 01:00,11,0,,,0,,98,,0,Misty,1019,8,8,,,,10.8,
Wick,25/07/2017 02:00,11,0,,,0,,99,,0,Misty,1019,8,6,,,,10.9,
Wick,25/07/2017 03:00,11,0,,,0,,100,,0,Misty,1018,8,2,,,,11,
Wick,25/07/2017 04:00,10.9,0,,,0.2,,100,,0,Rain,1018,2,3,,,,10.9,
Wick,25/07/2017 05:00,10.9,0,,,0.2,,100,,0,Misty,1018,2,4,,,,10.9,
Wick,25/07/2017 06:00,11,0,10.8,,0.2,0.6,100,,0,Rain,1017,7,4,,,,11,
Wick,25/07/2017 07:00,11.4,0,,,0,,100,,0,Dry,1017,1,23,,,,11.4,
Wick,25/07/2017 08:00,11.3,0,,,0,,99,,0,Misty,1017,5,4,,,,11.2,
Wick,25/07/2017 09:00,12,0,,,0.2,,96,,0,Dry,1017,1,30,,,,11.4,
Wick,25/07/2017 10:00,11.6,0,,,0,,98,,0,Misty,1016,3,6,,,,11.4,
Wick,25/07/2017 11:00,12.3,6,,,0,,98,,40,Misty,1016,4,10,,,,12,
Wick,25/07/2017 12:00,12.4,7,,,0,0.2,93,,50,Dry,1016,2,19,,,,11.4,
Wick,25/07/2017 13:00,12.6,6,,,0,,91,,70,Dry,1016,2,28,,,,11.3,
Wick,25/07/2017 14:00,12.3,6,,,0,,89,,80,Dry,1015,1,13,,,,10.6,
Wick,25/07/2017 15:00,12.4,6,,,0,,91,,100,Dry,1015,7,19,,,,11.1,
Wick,25/07/2017 16:00,12.2,6,,,0,,91,,110,Dry,1015,6,14,,,,10.9,
Wick,25/07/2017 17:00,12.3,5,,,0,,93,,120,Dry,1014,4,21,,,,11.3,
Wick,25/07/2017 18:00,12.6,3,,13.1,0,0,88,,90,Dry,1013,2,40,,,,10.8,
Wick,25/07/2017 19:00,12.3,6,,,0,,91,,100,Dry,1013,3,35,,,,10.9,
Wick,25/07/2017 20:00,12.1,5,,,0,,92,,90,Dry,1013,2,30,,,,10.9,
Wick,25/07/2017 21:00,12,6,,,0,,94,,90,Dry,1012,4,30,,,,11.1,
Wick,25/07/2017 22:00,11.9,6,,,0,,96,,90,Dry,1012,3,23,,,,11.3,
Wick,25/07/2017 23:00,12,8,,,0,,96,,70,Dry,1011,6,15,,,,11.5,
Wick,26/07/2017 00:00,11.8,6,,,0,0,96,,100,Dry,1010,2,28,,,,11.3,
Wick,26/07/2017 01:00,11.8,8,,,0,,98,,90,Dry,1009,7,17,,,,11.5,
Wick,26/07/2017 02:00,12,12,,,0,,96,,100,Dry,1008,1,25,,,,11.5,
Wick,26/07/2017 03:00,12.2,12,,,0,,94,,110,Dry,1007,7,35,,,,11.3,
Wick,26/07/2017 04:00,12.2,14,,,0,,94,,110,Dry,1006,8,29,,,,11.4,
Wick,26/07/2017 05:00,12.2,15,,,0,,94,,120,Dry,1005,1,23,,,,11.4,
Wick,26/07/2017 06:00,12.4,17,11.7,,0,0,92,,120,Dry,1004,5,26,,,,11.3,
Wick,26/07/2017 07:00,12.8,15,,,0,,91,,120,Dry,1003,1,24,,,,11.5,
Wick,26/07/2017 08:00,13.3,16,,,0,,88,,120,Dry,1002,8,35,,,,11.4,
Wick,26/07/2017 09:00,13.5,18,,,0,,88,,120,Dry,1001,1,21,,,,11.6,
Wick,26/07/2017 10:00,13.6,20,,,0,,92,,120,Dry,1000,7,16,,,,12.4,
Wick,26/07/2017 11:00,13.8,17,,,0,,94,29,120,Misty,998,7,9,,,,12.9,
Wick,26/07/2017 12:00,13.7,17,,,0,0,95,29,120,Misty,997,3,9,,,,13,
Wick,26/07/2017 13:00,13.4,17,,,0.6,,98,29,120,Moderate shower,996,7,5,,,,13.2,
Wick,26/07/2017 14:00,13.4,17,,,1.2,,100,29,120,Light rain,994,7,5,,,,13.4,
Wick,26/07/2017 15:00,13.2,21,,,3.2,,100,30,120,Rain,993,8,3,,,,13.2,
Wick,26/07/2017 16:00,13.7,13,,,0.2,,100,,140,Rain,991,8,6,,,,13.7,
Wick,26/07/2017 17:00,15.6,8,,,0,,94,,170,Dry,991,1,16,,,,14.8,
Wick,26/07/2017 18:00,15.7,10,,15.9,0,5,88,,170,Dry,991,1,20,,,,13.8,
Wick,26/07/2017 19:00,15.5,9,,,0,,87,,240,Dry,992,5,45,,,,13.4,
Wick,26/07/2017 20:00,14.1,5,,,0,,95,,330,Rain,992,2,18,,,,13.4,
Wick,26/07/2017 21:00,13.2,8,,,0,,85,,240,Dry,993,3,50,,,,10.9,
Wick,26/07/2017 22:00,12.4,9,,,0,,82,,230,Dry,994,1,40,,,,9.5,
Wick,26/07/2017 23:00,10.1,7,,,0,,84,,250,Dry,993,2,45,,,,7.6,
Wick,27/07/2017 00:00,10.8,5,,,0,0,82,,210,Dry,993,0,40,,,,7.9,
Wick,27/07/2017 01:00,10.9,6,,,0,,80,,200,Dry,994,0,30,,,,7.6,
Wick,27/07/2017 02:00,11,8,,,0,,81,,170,Dry,994,0,26,,,,7.9,
Wick,27/07/2017 03:00,11.2,9,,,0,,89,,180,Dry,994,0,18,,,,9.6,
Wick,27/07/2017 04:00,11,10,,,0,,91,,190,Dry,994,0,26,,,,9.6,
Wick,27/07/2017 05:00,11.7,9,,,0,,89,,190,Dry,994,0,40,,,,10,
Wick,27/07/2017 06:00,12,8,10,,0,0,88,,220,Dry,994,0,17,,,,10.2,
Wick,27/07/2017 07:00,13,12,,,0,,78,,210,Dry,994,8,30,,,,9.3,
Wick,27/07/2017 08:00,13.5,14,,,0,,74,,200,Dry,995,0,28,,,,9.1,
Wick,27/07/2017 09:00,13.9,16,,,0,,71,,180,Dry,995,1,40,,,,8.9,
Wick,27/07/2017 10:00,14,17,,,0,,73,,190,Dry,995,1,35,,,,9.4,
Wick,27/07/2017 11:00,15.2,18,,,0,,65,,180,Dry,995,1,18,,,,8.8,
Wick,27/07/2017 12:00,16.2,17,,,0,0,62,,180,Dry,995,1,21,,,,9,
Wick,27/07/2017 13:00,16.5,15,,,0,,64,,170,Dry,995,1,30,,,,9.9,
Wick,27/07/2017 14:00,15.9,13,,,0,,64,,160,Dry,995,6,24,,,,9.3,
Wick,27/07/2017 15:00,16.1,13,,,0,,62,,140,Dry,995,1,30,,,,9,
Wick,27/07/2017 16:00,16.6,13,,,0,,66,,140,Dry,996,3,40,,,,10.3,
Wick,27/07/2017 17:00,15.8,10,,,0,,66,,140,Dry,996,1,50,,,,9.5,
Wick,27/07/2017 18:00,15,8,,17.2,0,0,79,,140,Dry,996,7,30,,,,11.4,
Wick,27/07/2017 19:00,15.2,9,,,0,,70,,180,Dry,996,1,50,,,,9.9,
Wick,27/07/2017 20:00,14.5,7,,,0,,70,,170,Dry,996,0,50,,,,9.2,
Wick,27/07/2017 21:00,13.8,7,,,0,,77,,160,Dry,996,1,50,,,,9.9,
Wick,27/07/2017 22:00,12.7,5,,,0,,80,,190,Dry,996,1,50,,,,9.4,
Wick,27/07/2017 23:00,13.4,7,,,0,,85,,130,Dry,996,0,40,,,,11,
Wick,28/07/2017 00:00,12.7,6,,,0,0,89,,120,Dry,996,0,45,,,,11.1,
Wick,28/07/2017 01:00,12.5,3,,,0,,95,,150,Dry,995,0,30,,,,11.8,
Wick,28/07/2017 02:00,12.7,5,,,0,,91,,160,Dry,995,0,30,,,,11.4,
Wick,28/07/2017 03:00,12.7,6,,,0,,91,,150,Dry,995,0,40,,,,11.4,
Wick,28/07/2017 04:00,12.5,8,,,0,,91,,150,Dry,995,0,30,,,,11.2,
Wick,28/07/2017 05:00,12.8,9,,,0,,89,,160,Dry,994,0,35,,,,11.2,
Wick,28/07/2017 06:00,13.1,10,12.4,,0,0,87,,170,Dry,995,0,29,,,,11.1,
Wick,28/07/2017 07:00,13.1,7,,,0,,90,,150,Dry,995,1,26,,,,11.6,
Wick,28/07/2017 08:00,13,9,,,0,,90,,150,Dry,995,1,30,,,,11.5,
Wick,28/07/2017 09:00,13.4,10,,,0,,88,,160,Dry,995,1,30,,,,11.5,
Wick,28/07/2017 10:00,14.4,12,,,0,,84,,160,Dry,995,1,30,,,,11.8,
Wick,28/07/2017 11:00,15.4,13,,,0,,76,,150,Dry,995,3,18,,,,11.2,
Wick,28/07/2017 12:00,14.9,12,,,0,0,79,,140,Dry,996,1,28,,,,11.3,
Wick,28/07/2017 13:00,15.9,14,,,0,,80,,140,Dry,996,2,16,,,,12.6,
Wick,28/07/2017 14:00,15.1,12,,,0,,81,,150,Dry,996,2,30,,,,12,
Wick,28/07/2017 15:00,15.7,12,,,0,,79,,160,Dry,996,6,26,,,,12.1,
Wick,28/07/2017 16:00,15.7,9,,,0,,76,,150,Dry,996,1,45,,,,11.6,
Wick,28/07/2017 17:00,15.1,8,,,0,,83,,160,Dry,996,2,40,,,,12.4,
Wick,28/07/2017 18:00,13.7,12,,16.6,0,0,74,,240,Light shower,996,1,30,,,,9.3,
Wick,28/07/2017 19:00,14.5,5,,,0,,78,,180,Drizzly rain,996,8,35,,,,10.9,
Wick,28/07/2017 20:00,13.8,7,,,0,,90,,160,Rain,996,7,35,,,,12.3,
Wick,28/07/2017 21:00,13.4,8,,,0,,91,,170,Dry,996,4,40,,,,12.1,
Wick,28/07/2017 22:00,12.7,3,,,0,,94,,230,Dry,996,0,35,,,,11.8,
Wick,28/07/2017 23:00,13.1,7,,,0,,88,,180,Dry,996,4,45,,,,11.2,
Wick,29/07/2017 00:00,13.7,8,,,0,0,88,,170,Dry,996,2,40,,,,11.9,
Wick,29/07/2017 01:00,13.3,6,,,0,,92,,190,Dry,995,8,45,,,,12.1,
Wick,29/07/2017 02:00,12.7,5,,,0,,89,,190,Dry,995,7,35,,,,11.1,
Wick,29/07/2017 03:00,12.8,8,,,0,,88,,180,Dry,995,5,23,,,,11,
Wick,29/07/2017 04:00,12.1,7,,,0,,92,,170,Dry,995,4,30,,,,10.9,
Wick,29/07/2017 05:00,12.7,10,,,0,,90,,180,Dry,995,8,40,,,,11.2,
Wick,29/07/2017 06:00,13.6,10,12.1,,0,0,87,,180,Dry,995,8,26,,,,11.6,
Wick,29/07/2017 07:00,14.2,10,,,0,,81,,170,Dry,995,4,19,,,,11.1,
Wick,29/07/2017 08:00,13.7,7,,,0,,84,,180,Dry,995,8,45,,,,11.1,
Wick,29/07/2017 09:00,14.3,16,,,0,,76,,200,Dry,995,8,45,,,,10.3,
Wick,29/07/2017 10:00,14.3,15,,,0,,82,,190,Drizzly rain,996,8,21,,,,11.4,
Wick,29/07/2017 11:00,15.1,16,,,0.2,,79,,200,Rain,996,8,40,,,,11.6,
Wick,29/07/2017 12:00,17.2,13,,,0,0.2,70,,180,Dry,996,7,30,,,,11.9,
Wick,29/07/2017 13:00,16.5,14,,,0,,72,,190,Rain,996,1,21,,,,11.5,
Wick,29/07/2017 14:00,15.1,13,,,0.4,,83,,200,Moderate shower,996,7,20,,,,12.3,
Wick,29/07/2017 15:00,17.5,18,,,0,,63,,200,Rain,996,1,50,,,,10.5,
Wick,29/07/2017 16:00,17.4,18,,,0,,66,,200,Dry,996,4,30,,,,11.1,
Wick,29/07/2017 17:00,16.4,15,,,0,,69,,210,Dry,996,0,21,,,,10.9,
Wick,29/07/2017 18:00,15.7,13,,18.1,0,0.4,76,,200,Dry,997,0,40,,,,11.5,
Wick,29/07/2017 19:00,15.3,9,,,0,,77,,210,Dry,997,7,30,,,,11.3,
Wick,29/07/2017 20:00,15,13,,,0,,79,,200,Dry,997,8,35,,,,11.5,
Wick,29/07/2017 21:00,14.1,9,,,0,,87,,190,Light shower,997,8,23,,,,12,
Wick,29/07/2017 22:00,13.6,9,,,0.4,,90,,200,Light rain,998,8,12,,,,12.1,
Wick,29/07/2017 23:00,13.6,8,,,0.2,,89,,200,Rain,998,1,16,,,,11.9,
Wick,30/07/2017 00:00,13.4,8,,,0,0.6,88,,190,Dry,998,8,27,,,,11.6,
Wick,30/07/2017 01:00,13.4,9,,,0,,87,,160,Dry,998,8,45,,,,11.4,
Wick,30/07/2017 02:00,13.2,6,,,0,,89,,180,Dry,997,8,35,,,,11.5,
Wick,30/07/2017 03:00,13.1,7,,,0,,87,,160,Dry,997,5,45,,,,11,
Wick,30/07/2017 04:00,12.9,7,,,0,,87,,170,Dry,997,6,45,,,,10.8,
Wick,30/07/2017 05:00,12.9,2,,,0,,92,,150,Dry,997,4,45,,,,11.7,
Wick,30/07/2017 06:00,13.4,10,12.8,,0,0,90,,160,Dry,997,6,30,,,,11.9,
Wick,30/07/2017 07:00,13.8,10,,,0,,90,,160,Dry,997,0,35,,,,12.3,
Wick,30/07/2017 08:00,14,12,,,0,,88,,160,Dry,997,0,40,,,,12.2,
Wick,30/07/2017 09:00,16.2,10,,,0,,72,,190,Dry,997,0,35,,,,11.3,
Wick,30/07/2017 10:00,16.5,10,,,0,,73,,170,Dry,997,0,35,,,,11.8,
Wick,30/07/2017 11:00,16.4,9,,,0,,68,,150,Dry,997,0,20,,,,10.5,
Wick,30/07/2017 12:00,15.8,12,,,0,0,77,,120,Dry,998,0,28,,,,11.9,
Wick,30/07/2017 13:00,16.3,12,,,0,,78,,120,Dry,998,1,35,,,,12.6,
Wick,30/07/2017 14:00,15.9,13,,,0,,83,,120,Dry,998,1,35,,,,13.2,
Wick,30/07/2017 15:00,16.2,12,,,0,,86,,110,Dry,998,1,18,,,,13.9,
Wick,30/07/2017 16:00,15.5,12,,,0,,85,,110,Dry,998,1,22,,,,13,
Wick,30/07/2017 17:00,16.1,6,,,0,,81,,120,Dry,998,0,29,,,,13,
Wick,30/07/2017 18:00,15.2,7,,17,0,0,87,,120,Dry,998,1,35,,,,13.1,
Wick,30/07/2017 19:00,14.9,5,,,0,,90,,160,Dry,998,1,24,,,,13.3,
Wick,30/07/2017 20:00,14.8,7,,,0,,90,,130,Dry,999,8,35,,,,13.3,
Wick,30/07/2017 21:00,14.2,5,,,0,,91,,120,Dry,999,8,40,,,,12.8,
Wick,30/07/2017 22:00,13,1,,,0,,94,,150,Dry,999,2,45,,,,12.1,
Wick,30/07/2017 23:00,12.1,2,,,0,,96,,210,Fog,999,0,8,,,,11.6,
Wick,31/07/2017 00:00,11.5,0,,,0,0,98,,0,Fog,999,0,19,,,,11.2,
Wick,31/07/2017 01:00,9.7,2,,,0,,97,,270,Fog,999,1,1,,,,9.3,
Wick,31/07/2017 02:00,9.4,5,,,0,,99,,250,Fog,999,1,30,,,,9.3,
Wick,31/07/2017 03:00,9.5,5,,,0,,99,,280,Dry,999,0,17,,,,9.4,
Wick,31/07/2017 04:00,10,3,,,0,,98,,260,Dry,999,0,40,,,,9.8,
Wick,31/07/2017 05:00,10.6,2,,,0,,98,,250,Dry,999,1,40,,,,10.4,
Wick,31/07/2017 06:00,11.9,1,8.6,,0,0,99,,290,Dry,1000,1,45,,,,11.8,
Wick,31/07/2017 07:00,12.7,1,,,0,,96,,250,Dry,1000,1,35,,,,12.2,
Wick,31/07/2017 08:00,13.7,2,,,0,,89,,230,Dry,1000,1,45,,,,12,
Wick,31/07/2017 09:00,14.7,3,,,0,,89,,310,Dry,1000,1,45,,,,13,
Wick,31/07/2017 10:00,15.6,1,,,0,,86,,350,Dry,1000,3,22,,,,13.4,
Wick,31/07/2017 11:00,14.9,7,,,0,,87,,100,Dry,1001,1,27,,,,12.9,
Wick,31/07/2017 12:00,15.1,7,,,0,0,87,,130,Dry,1001,1,26,,,,13.1,
Wick,31/07/2017 13:00,16.4,9,,,0,,73,,140,Dry,1001,1,40,,,,11.6,
Wick,31/07/2017 14:00,16.5,10,,,0,,66,,150,Dry,1002,1,26,,,,10.2,
Wick,31/07/2017 15:00,15.3,13,,,0,,86,,290,Dry,1002,1,45,,,,13.1,
Wick,31/07/2017 16:00,14.2,8,,,0.2,,93,,270,Moderate shower,1002,2,10,,,,13.1,
Wick,31/07/2017 17:00,16,7,,,0.6,,82,,270,Rain,1002,1,45,,,,13,
Wick,31/07/2017 18:00,15.8,3,,17.2,0,0.8,81,,280,Dry,1003,2,45,,,,12.6,
Wick,31/07/2017 19:00,14.4,5,,,0,,88,,120,Dry,1003,5,40,,,,12.5,
Wick,31/07/2017 20:00,14,2,,,0,,83,,170,Rain,1004,3,40,,,,11.3,
Wick,31/07/2017 21:00,13.6,3,,,0,,87,,320,Dry,1004,5,50,,,,11.6,
Wick,31/07/2017 22:00,12.4,1,,,0,,92,,230,Rain,1005,0,50,,,,11.3,
Wick,31/07/2017 23:00,11.2,3,,,0,,98,,230,Dry,1005,2,29,,,,10.9,
Wick,01/08/2017 00:00,10.4,3,,,0,0,98,,230,Fog,1005,0,50,,,,10.2,
Wick,01/08/2017 01:00,9.7,3,,,0,,98,,230,Fog,1005,0,35,,,,9.4,
Wick,01/08/2017 02:00,11.1,3,,,0,,94,,200,Dry,1005,0,50,,,,10.2,
Wick,01/08/2017 03:00,8.5,3,,,0,,96,,230,Dry,1005,6,45,,,,7.9,
Wick,01/08/2017 04:00,10.9,3,,,0,,99,,190,Dry,1005,1,45,,,,10.8,
Wick,01/08/2017 05:00,10.8,5,,,0,,95,,180,Dry,1005,0,50,,,,10.1,
Wick,01/08/2017 06:00,11.3,1,7.7,,0,0,93,,250,Dry,1006,1,35,,,,10.3,
Wick,01/08/2017 07:00,13.5,3,,,0,,91,,150,Dry,1006,7,26,,,,12.1,
Wick,01/08/2017 08:00,14.7,2,,,0,,88,,100,Dry,1006,4,30,,,,12.9,
Wick,01/08/2017 09:00,14.4,7,,,0,,85,,150,Dry,1006,1,40,,,,12,
Wick,01/08/2017 10:00,15.1,9,,,0,,80,,170,Dry,1006,3,45,,,,11.7,
Wick,01/08/2017 11:00,16.2,9,,,0,,74,,170,Dry,1006,1,30,,,,11.6,
Wick,01/08/2017 12:00,15.4,9,,,0,0,76,,150,Dry,1006,1,45,,,,11.3,
Wick,01/08/2017 13:00,15,9,,,0,,81,,140,Dry,1006,1,29,,,,11.9,
Wick,01/08/2017 14:00,15.8,13,,,0,,73,,170,Dry,1006,1,40,,,,11,
Wick,01/08/2017 15:00,16.1,12,,,0,,71,,180,Dry,1006,7,45,,,,11,
Wick,01/08/2017 16:00,15.2,9,,,0,,71,,170,Dry,1006,8,40,,,,10.1,
Wick,01/08/2017 17:00,14.4,7,,,0,,82,,160,Light shower,1006,8,23,,,,11.4,
Wick,01/08/2017 18:00,13.9,8,,17.4,0,0,79,,170,Rain,1006,1,35,,,,10.4,
Wick,01/08/2017 19:00,13.7,6,,,1.2,,87,,150,Light shower,1006,8,18,,,,11.7,
Wick,01/08/2017 20:00,14.2,8,,,0,,82,,220,Rain,1006,8,40,,,,11.2,
Wick,01/08/2017 21:00,12.4,3,,,0,,91,,270,Dry,1006,1,50,,,,11,
Wick,01/08/2017 22:00,11.5,3,,,0,,93,,270,Dry,1006,7,35,,,,10.5,
Wick,01/08/2017 23:00,9.1,7,,,0,,96,,300,Dry,1006,2,30,,,,8.6,
Wick,02/08/2017 00:00,9.1,7,,,0,1,98,,260,Dry,1006,0,26,,,,8.9,
Wick,02/08/2017 01:00,8.3,8,,,0,,100,,270,Misty,1006,3,10,,,,8.3,
Wick,02/08/2017 02:00,8.8,5,,,0,,100,,270,Dry,1006,2,17,,,,8.8,
Wick,02/08/2017 03:00,9.1,2,,,0,,100,,240,Dry,1007,0,30,,,,9.1,
Wick,02/08/2017 04:00,9.9,3,,,0,,100,,230,Dry,1007,8,40,,,,9.9,
Wick,02/08/2017 05:00,10.8,5,,,0,,99,,240,Dry,1007,8,45,,,,10.7,
Wick,02/08/2017 06:00,11.7,3,7.7,,0,0,96,,250,Rain,1007,1,45,,,,11.2,
Wick,02/08/2017 07:00,12.7,3,,,0,,94,,270,Dry,1007,1,26,,,,11.9,
Wick,02/08/2017 08:00,14,5,,,0,,88,,290,Dry,1007,1,30,,,,12.1,
Wick,02/08/2017 09:00,14.8,2,,,0,,81,,200,Dry,1008,8,35,,,,11.7,
Wick,02/08/2017 10:00,14.5,8,,,0,,81,,140,Dry,1008,8,30,,,,11.4,
Wick,02/08/2017 11:00,15.5,8,,,0,,73,,140,Dry,1007,8,30,,,,10.7,
Wick,02/08/2017 12:00,15.6,10,,,0,0,77,,140,Dry,1008,8,35,,,,11.7,
Wick,02/08/2017 13:00,15.5,12,,,0,,80,,130,Dry,1007,8,50,,,,12.2,
Wick,02/08/2017 14:00,15.6,9,,,0,,79,,110,Dry,1007,1,35,,,,12.1,
Wick,02/08/2017 15:00,15.6,13,,,0,,81,,100,Dry,1006,1,50,,,,12.5,
Wick,02/08/2017 16:00,15.7,13,,,0,,82,,110,Dry,1006,1,45,,,,12.7,
Wick,02/08/2017 17:00,15.5,14,,,0,,83,,110,Dry,1005,1,35,,,,12.7,
Wick,02/08/2017 18:00,14.6,14,,16.7,0,0,83,,100,Dry,1005,1,30,,,,11.8,
Wick,02/08/2017 19:00,14.1,15,,,0,,86,,110,Dry,1004,1,28,,,,11.8,
Wick,02/08/2017 20:00,13.7,14,,,0,,91,,110,Dry,1004,1,21,,,,12.4,
Wick,02/08/2017 21:00,13.6,14,,,0,,94,,110,Dry,1003,7,18,,,,12.7,
Wick,02/08/2017 22:00,13.6,14,,,0,,96,,100,Drizzly rain,1002,2,13,,,,13,
Wick,02/08/2017 23:00,13.5,14,,,0.2,,98,,90,Light shower,1002,3,9,,,,13.2,
Wick,03/08/2017 00:00,12.5,20,,,2.8,3,98,,80,Moderate rain,1000,1,3,,,,12.3,
Wick,03/08/2017 01:00,12.8,18,,,0.8,,98,,60,Rain,999,1,4,,,,12.6,
Wick,03/08/2017 02:00,13,21,,,0.2,,100,31,70,Rain,998,7,10,,,,13,
Wick,03/08/2017 03:00,13.3,20,,,0,,99,30,80,Misty,997,7,7,,,,13.2,
Wick,03/08/2017 04:00,13.3,16,,,0.2,,100,,70,Misty,996,8,5,,,,13.3,
Wick,03/08/2017 05:00,13.7,15,,,0.4,,100,,80,Light drizzle,995,8,3,,,,13.7,
Wick,03/08/2017 06:00,13.6,7,12.3,,2,4,100,,60,Moderate shower,994,3,1,,,,13.6,
Wick,03/08/2017 07:00,14.1,5,,,0.2,,100,,110,Rain,994,7,1,,,,14.1,
Wick,03/08/2017 08:00,14.3,6,,,0,,100,,140,Fog,993,7,5,,,,14.3,
Wick,03/08/2017 09:00,14.2,6,,,0,,99,,140,Dry,994,8,21,,,,14.1,
Wick,03/08/2017 10:00,15.9,3,,,0,,89,,130,Dry,993,1,30,,,,14.2,
Wick,03/08/2017 11:00,16.2,6,,,0,,89,,80,Dry,993,4,20,,,,14.4,
Wick,03/08/2017 12:00,16.8,5,,,0,0.2,80,,110,Dry,993,2,24,,,,13.5,
Wick,03/08/2017 13:00,16.1,8,,,0,,86,,110,Dry,993,4,35,,,,13.8,
Wick,03/08/2017 14:00,15.7,6,,,0,,86,,90,Dry,993,2,45,,,,13.4,
Wick,03/08/2017 15:00,16.9,5,,,0,,81,,160,Dry,993,2,30,,,,13.8,
Wick,03/08/2017 16:00,15.7,7,,,0,,86,,80,Dry,993,7,30,,,,13.4,
Wick,03/08/2017 17:00,15.8,1,,,0,,86,,140,Dry,994,5,45,,,,13.6,
Wick,03/08/2017 18:00,15.6,7,,17.4,0.2,0.2,93,,290,Rain,994,7,40,,,,14.6,
Wick,03/08/2017 19:00,14.9,13,,,0,,95,,280,Dry,994,2,30,,,,14.2,
Wick,03/08/2017 20:00,14.4,12,,,0,,97,,280,Dry,994,7,18,,,,14,
Wick,03/08/2017 21:00,14.3,8,,,0,,99,,300,Misty,995,7,10,,,,14.2,
Wick,03/08/2017 22:00,13.9,12,,,0,,100,,340,Rain,995,8,3,,,,13.9,
Wick,03/08/2017 23:00,13.2,15,,,0.2,,100,,10,Fog,996,8,2,,,,13.2,
Wick,04/08/2017 00:00,13.2,14,,,0.2,0.4,100,,360,Rain,996,8,7,,,,13.2,
Wick,04/08/2017 01:00,13,15,,,0,,100,,360,Misty,996,8,4,,,,13,
Wick,04/08/2017 02:00,13.1,15,,,1.4,,100,,340,Moderate shower,997,7,3,,,,13.1,
Wick,04/08/2017 03:00,13.1,14,,,1.2,,100,,330,Rain,997,7,5,,,,13.1,
Wick,04/08/2017 04:00,13.1,15,,,0.2,,99,,320,Dry,997,8,11,,,,13,
Wick,04/08/2017 05:00,13,15,,,0.2,,100,,330,Light drizzle,998,6,3,,,,13,
Wick,04/08/2017 06:00,13.1,14,12.9,,0.6,3.6,99,,320,Drizzle,998,1,8,,,,13,
Wick,04/08/2017 07:00,13.5,15,,,0,,97,,320,Dry,999,5,13,,,,13.1,
Wick,04/08/2017 08:00,13.9,18,,,0,,95,,320,Dry,1000,7,16,,,,13.2,
Wick,04/08/2017 09:00,14.8,22,,,0,,91,,320,Dry,1001,7,24,,,,13.4,
Wick,04/08/2017 10:00,14.4,21,,,0,,84,,320,Dry,1002,7,21,,,,11.9,
Wick,04/08/2017 11:00,15.8,22,,,0,,77,30,320,Dry,1002,3,16,,,,11.9,
Wick,04/08/2017 12:00,15.9,23,,,0,0,77,30,320,Dry,1003,4,11,,,,11.9,
Wick,04/08/2017 13:00,15.4,22,,,0,,73,29,320,Dry,1004,2,28,,,,10.7,
Wick,04/08/2017 14:00,14.8,21,,,0,,77,31,310,Dry,1004,3,21,,,,11,
Wick,04/08/2017 15:00,14.9,22,,,0,,73,29,310,Dry,1005,2,25,,,,10.2,
Wick,04/08/2017 16:00,15,20,,,0,,79,30,300,Dry,1006,1,40,,,,11.4,
Wick,04/08/2017 17:00,14.1,18,,,0,,84,,300,Dry,1006,3,24,,,,11.5,
Wick,04/08/2017 18:00,13.9,21,,16.5,0,0,79,29,310,Dry,1006,4,40,,,,10.5,
Wick,04/08/2017 19:00,13.1,14,,,0,,85,,310,Dry,1007,2,30,,,,10.7,
Wick,04/08/2017 20:00,12.9,14,,,0,,92,,310,Drizzly rain,1008,0,21,,,,11.7,
Wick,04/08/2017 21:00,12.3,13,,,0,,94,,290,Rain,1008,0,19,,,,11.4,
Wick,04/08/2017 22:00,11.9,8,,,0,,96,,290,Dry,1008,3,19,,,,11.3,
Wick,04/08/2017 23:00,11.4,8,,,0,,96,,270,Rain,1008,1,12,,,,10.9,
Wick,05/08/2017 00:00,11.4,8,,,0,0,98,,280,Dry,1009,1,14,,,,11.1,
Wick,05/08/2017 01:00,10.4,7,,,0,,98,,260,Misty,1009,0,9,,,,10.1,
Wick,05/08/2017 02:00,10.2,8,,,0,,99,,270,Dry,1009,3,11,,,,10.1,
Wick,05/08/2017 03:00,10.8,8,,,0,,100,,280,Dry,1009,0,13,,,,10.8,
Wick,05/08/2017 04:00,11.2,9,,,0,,98,,290,Rain,1009,8,25,,,,11,
Wick,05/08/2017 05:00,10.9,7,,,0.2,,99,,260,Light drizzle,1009,1,18,,,,10.8,
Wick,05/08/2017 06:00,11.1,8,10,,0,0.2,99,,270,Rain,1009,8,13,,,,11,
Wick,05/08/2017 07:00,11.4,9,,,0,,96,,260,Rain,1010,1,40,,,,10.9,
Wick,05/08/2017 08:00,11.3,15,,,1.4,,96,,300,Moderate shower,1010,7,12,,,,10.7,
Wick,05/08/2017 09:00,12.8,16,,,0,,80,,310,Rain,1011,5,35,,,,9.5,
Wick,05/08/2017 10:00,13.1,18,,,0,,77,,310,Dry,1011,1,35,,,,9.3,
Wick,05/08/2017 11:00,14,16,,,0,,75,,300,Dry,1011,1,45,,,,9.7,
Wick,05/08/2017 12:00,14.4,15,,,0,1,70,,300,Dry,1012,1,25,,,,9.1,
Wick,05/08/2017 13:00,13.9,15,,,0,,75,,300,Dry,1012,1,19,,,,9.6,
Wick,05/08/2017 14:00,14.7,16,,,0,,72,,300,Dry,1012,2,21,,,,9.9,
Wick,05/08/2017 15:00,15.7,20,,,0,,64,,290,Dry,1012,3,40,,,,9.1,
Wick,05/08/2017 16:00,14.8,18,,,0,,65,,300,Dry,1012,1,40,,,,8.4,
Wick,05/08/2017 17:00,13.4,22,,,0,,68,32,300,Dry,1013,3,24,,,,7.7,
Wick,05/08/2017 18:00,12.5,18,,15.7,0,0,68,31,300,Dry,1013,1,45,,,,6.9,
Wick,05/08/2017 19:00,12.5,17,,,0,,76,,300,Dry,1013,1,45,,,,8.4,
Wick,05/08/2017 20:00,10.8,9,,,0,,84,,280,Dry,1014,3,45,,,,8.3,
Wick,05/08/2017 21:00,10.5,12,,,0,,88,,280,Dry,1014,1,50,,,,8.6,
Wick,05/08/2017 22:00,10.9,9,,,0,,89,,280,Dry,1014,6,45,,,,9.3,
Wick,05/08/2017 23:00,9.6,9,,,0,,90,,250,Dry,1014,3,45,,,,8.1,
Wick,06/08/2017 00:00,7.2,9,,,0,0,95,,260,Dry,1014,2,45,,,,6.6,
Wick,06/08/2017 01:00,7.7,13,,,0,,95,,270,Dry,1014,1,40,,,,7,
Wick,06/08/2017 02:00,7,13,,,0,,95,,270,Dry,1014,0,45,,,,6.4,
Wick,06/08/2017 03:00,6.3,5,,,0,,96,,260,Dry,1015,0,45,,,,5.8,
Wick,06/08/2017 04:00,6.3,5,,,0,,96,,260,Dry,1014,0,30,,,,5.8,
Wick,06/08/2017 05:00,6,9,,,0,,97,,270,Dry,1014,0,35,,,,5.6,
Wick,06/08/2017 06:00,8.4,8,5.9,,0,0,97,,270,Dry,1014,0,35,,,,8.1,
Wick,06/08/2017 07:00,11,5,,,0,,92,,260,Dry,1015,0,45,,,,9.9,
Wick,06/08/2017 08:00,13,5,,,0,,78,,280,Dry,1015,0,50,,,,9.3,
Wick,06/08/2017 09:00,14.3,3,,,0,,72,,190,Dry,1015,1,50,,,,9.5,
Wick,06/08/2017 10:00,14.4,9,,,0,,69,,140,Dry,1015,2,19,,,,8.9,
Wick,06/08/2017 11:00,13.9,12,,,0,,69,,160,Dry,1014,0,20,,,,8.5,
Wick,06/08/2017 12:00,14.8,10,,,0,0,72,,150,Dry,1014,0,27,,,,10,
Wick,06/08/2017 13:00,14.7,13,,,0,,68,,130,Dry,1014,0,30,,,,9,
Wick,06/08/2017 14:00,14.4,12,,,0,,72,,130,Dry,1014,0,35,,,,9.6,
Wick,06/08/2017 15:00,14.2,13,,,0,,73,,120,Dry,1013,0,45,,,,9.5,
Wick,06/08/2017 16:00,14.3,16,,,0,,78,,110,Dry,1013,0,35,,,,10.6,
Wick,06/08/2017 17:00,15,15,,,0,,79,,110,Dry,1012,0,30,,,,11.5,
Wick,06/08/2017 18:00,14.4,15,,15.3,0,0,85,,110,Dry,1011,0,17,,,,12,
Wick,06/08/2017 19:00,13.9,14,,,0,,88,,110,Dry,1011,3,19,,,,12,
Wick,06/08/2017 20:00,14.4,12,,,0,,81,,130,Dry,1011,5,27,,,,11.3,
Wick,06/08/2017 21:00,13.9,13,,,0,,88,,120,Dry,1010,8,23,,,,12,
Wick,06/08/2017 22:00,13.2,10,,,0.2,,87,,160,Light shower,1010,8,22,,,,11.2,
Wick,06/08/2017 23:00,13.1,9,,,0.2,,91,,140,Rain,1010,1,29,,,,11.8,
Wick,07/08/2017 00:00,13,9,,,0,0.4,93,,140,Dry,1009,1,35,,,,12,
Wick,07/08/2017 01:00,13,7,,,0,,94,,130,Dry,1009,4,35,,,,12.2,
Wick,07/08/2017 02:00,12.8,3,,,0,,94,,170,Drizzly rain,1009,7,18,,,,12,
Wick,07/08/2017 03:00,12.1,3,,,0.2,,97,,130,Rain,1008,2,29,,,,11.7,
Wick,07/08/2017 04:00,12,3,,,0,,99,,130,Dry,1008,3,23,,,,11.9,
Wick,07/08/2017 05:00,11,2,,,0,,99,,110,Fog,1008,1,3,,,,10.9,
Wick,07/08/2017 06:00,9.7,2,9.7,,0,0.2,99,,270,Fog,1008,5,1,,,,9.6,
Wick,07/08/2017 07:00,10.5,6,,,0,,100,,280,Fog,1008,4,40,,,,10.5,
Wick,07/08/2017 08:00,13.1,6,,,0,,96,,290,Dry,1008,1,23,,,,12.5,
Wick,07/08/2017 09:00,14.7,7,,,0,,84,,290,Dry,1008,2,30,,,,12.1,
Wick,07/08/2017 10:00,13.5,10,,,0,,94,,20,Rain,1009,1,19,,,,12.6,
Wick,07/08/2017 11:00,13.5,10,,,0.6,,93,,20,Moderate shower,1009,3,5,,,,12.4,
Wick,07/08/2017 12:00,13.4,8,,,0.2,0.8,90,,30,Rain,1009,1,25,,,,11.9,
Wick,07/08/2017 13:00,13.3,2,,,0.8,,88,,10,Moderate shower,1010,5,5,,,,11.5,
Wick,07/08/2017 14:00,12.6,3,,,5.2,,95,,20,Moderate rain,1010,1,6,,,,11.9,
Wick,07/08/2017 15:00,13.5,5,,,0.2,,88,,30,Rain,1010,1,19,,,,11.6,
Wick,07/08/2017 16:00,15,5,,,0,,83,,40,Dry,1010,1,35,,,,12.3,
Wick,07/08/2017 17:00,14,6,,,0,,77,,50,Dry,1010,1,35,,,,10.2,
Wick,07/08/2017 18:00,13.6,3,,15.4,0,6.2,84,,110,Dry,1011,6,35,,,,11.1,
Wick,07/08/2017 19:00,13.4,5,,,0,,86,,150,Dry,1011,6,50,,,,11.2,
Wick,07/08/2017 20:00,13.1,3,,,0,,87,,160,Dry,1012,2,45,,,,11,
Wick,07/08/2017 21:00,12.6,5,,,0,,93,,160,Dry,1012,7,21,,,,11.5,
Wick,07/08/2017 22:00,12.7,3,,,0,,88,,180,Dry,1012,3,35,,,,10.9,
Wick,07/08/2017 23:00,12.5,2,,,0,,91,,160,Rain,1012,8,30,,,,11.1,
Wick,08/08/2017 00:00,12.3,2,,,0,0,94,,130,Dry,1012,7,35,,,,11.5,
Wick,08/08/2017 01:00,12,5,,,0,,94,,130,Dry,1012,5,35,,,,11.2,
Wick,08/08/2017 02:00,11.5,6,,,0,,97,,80,Dry,1012,0,17,,,,11.1,
Wick,08/08/2017 03:00,11.3,7,,,0,,99,,90,Dry,1012,2,24,,,,11.2,
Wick,08/08/2017 04:00,11.5,7,,,0,,98,,90,Dry,1012,1,40,,,,11.2,
Wick,08/08/2017 05:00,11.9,8,,,0,,96,,90,Dry,1013,2,45,,,,11.3,
Wick,08/08/2017 06:00,11.9,8,10.3,,0,0,96,,80,Dry,1013,5,27,,,,11.4,
Wick,08/08/2017 07:00,13.7,9,,,0,,92,,90,Dry,1014,1,24,,,,12.5,
Wick,08/08/2017 08:00,13.8,10,,,0,,90,,80,Dry,1014,2,40,,,,12.2,
Wick,08/08/2017 09:00,14.1,10,,,0,,86,,80,Dry,1015,1,40,,,,11.8,
Wick,08/08/2017 10:00,14.2,9,,,0,,84,,80,Dry,1015,1,28,,,,11.7,
Wick,08/08/2017 11:00,15,9,,,0,,84,,70,Dry,1016,4,45,,,,12.4,
Wick,08/08/2017 12:00,15.2,10,,,0,0,83,,60,Dry,1016,1,35,,,,12.4,
Wick,08/08/2017 13:00,15.3,12,,,0,,83,,50,Dry,1017,4,35,,,,12.6,
Wick,08/08/2017 14:00,15.4,15,,,0,,83,,50,Dry,1017,5,35,,,,12.7,
Wick,08/08/2017 15:00,15.2,14,,,0,,85,,50,Dry,1018,3,23,,,,12.7,
Wick,08/08/2017 16:00,14.6,12,,,0,,84,,40,Dry,1018,5,40,,,,12.1,
Wick,08/08/2017 17:00,14.8,12,,,0,,83,,30,Dry,1018,2,30,,,,12,
Wick,08/08/2017 18:00,14.1,9,,16.2,0,0,84,,20,Dry,1019,1,45,,,,11.5,
Wick,08/08/2017 19:00,13,8,,,0,,85,,30,Dry,1019,1,50,,,,10.6,
Wick,08/08/2017 20:00,12.2,6,,,0,,92,,350,Dry,1020,6,45,,,,11.1,
Wick,08/08/2017 21:00,11.8,6,,,0,,95,,330,Dry,1020,2,40,,,,11.1,
Wick,08/08/2017 22:00,12.4,7,,,0,,94,,350,Dry,1020,1,45,,,,11.5,
Wick,08/08/2017 23:00,12.3,12,,,0,,94,,350,Dry,1021,1,45,,,,11.4,
Wick,09/08/2017 00:00,9.7,8,,,0,0,96,,330,Dry,1021,1,35,,,,9.2,
Wick,09/08/2017 01:00,10.3,8,,,0,,99,,320,Dry,1021,6,45,,,,10.2,
Wick,09/08/2017 02:00,8.4,8,,,0,,99,,320,Dry,1020,1,19,,,,8.3,
Wick,09/08/2017 03:00,10.7,9,,,0,,100,,320,Dry,1020,5,24,,,,10.7,
Wick,09/08/2017 04:00,11.2,8,,,0,,100,,320,Dry,1020,7,20,,,,11.2,
Wick,09/08/2017 05:00,10.8,8,,,0,,99,,310,Dry,1021,5,35,,,,10.7,
Wick,09/08/2017 06:00,12,9,8.3,,0,0,98,,320,Dry,1021,2,35,,,,11.8,
Wick,09/08/2017 07:00,12.6,10,,,0,,94,,320,Dry,1021,4,29,,,,11.8,
Wick,09/08/2017 08:00,13.4,13,,,0,,86,,320,Dry,1021,7,21,,,,11.2,
Wick,09/08/2017 09:00,12.8,14,,,0,,89,,340,Dry,1022,1,50,,,,11.1,
Wick,09/08/2017 10:00,12.2,21,,,0,,91,,310,Haze,1022,3,5,,,,10.9,
Wick,09/08/2017 11:00,15.1,18,,,0,,74,,320,Dry,1021,6,35,,,,10.6,
Wick,09/08/2017 12:00,14.9,18,,,0,0,71,,330,Dry,1022,6,40,,,,9.9,
Wick,09/08/2017 13:00,14.8,18,,,0,,75,,310,Dry,1022,1,20,,,,10.6,
Wick,09/08/2017 14:00,14.6,18,,,0,,74,,320,Dry,1022,2,30,,,,10.1,
Wick,09/08/2017 15:00,14.7,21,,,0,,74,32,310,Dry,1022,7,27,,,,10.3,
Wick,09/08/2017 16:00,15.5,20,,,0,,74,,300,Dry,1021,1,40,,,,10.9,
Wick,09/08/2017 17:00,14.8,20,,,0,,73,,300,Dry,1021,5,30,,,,10.1,
Wick,09/08/2017 18:00,13.2,18,,16.2,0,0,77,,300,Dry,1022,1,40,,,,9.3,
Wick,09/08/2017 19:00,13.4,17,,,0,,79,,290,Dry,1022,1,40,,,,10,
Wick,09/08/2017 20:00,11.9,12,,,0,,86,,280,Dry,1022,0,40,,,,9.8,
Wick,09/08/2017 21:00,11.2,10,,,0,,90,,280,Dry,1022,0,45,,,,9.7,
Wick,09/08/2017 22:00,11.7,7,,,0,,88,,240,Dry,1022,6,40,,,,9.9,
Wick,09/08/2017 23:00,11.8,9,,,0,,85,,240,Dry,1022,7,50,,,,9.4,
Wick,10/08/2017 00:00,11.7,8,,,0,0,84,,250,Dry,1022,1,50,,,,9.2,
Wick,10/08/2017 01:00,11.5,8,,,0,,84,,230,Dry,1022,6,50,,,,9,
Wick,10/08/2017 02:00,12.1,6,,,0,,86,,200,Dry,1021,1,50,,,,9.9,
Wick,10/08/2017 03:00,11.7,8,,,0,,88,,230,Dry,1021,0,50,,,,9.8,
Wick,10/08/2017 04:00,12.4,9,,,0,,85,,250,Dry,1020,0,40,,,,10,
Wick,10/08/2017 05:00,12.4,12,,,0,,85,,250,Dry,1020,1,40,,,,10,
Wick,10/08/2017 06:00,13,14,11.1,,0,0,83,,250,Dry,1020,1,40,,,,10.3,
Wick,10/08/2017 07:00,13.4,10,,,0,,82,,210,Dry,1020,2,30,,,,10.4,
Wick,10/08/2017 08:00,14,18,,,0,,73,29,260,Dry,1020,5,40,,,,9.4,
Wick,10/08/2017 09:00,14.7,15,,,0,,71,,230,Dry,1020,7,30,,,,9.7,
Wick,10/08/2017 10:00,14.5,16,,,0,,73,,230,Dry,1020,7,40,,,,9.8,
Wick,10/08/2017 11:00,14.8,20,,,0,,74,29,240,Dry,1019,8,30,,,,10.3,
Wick,10/08/2017 12:00,15.2,14,,,0,0,73,29,210,Dry,1019,7,29,,,,10.4,
Wick,10/08/2017 13:00,15.6,16,,,0,,72,,200,Dry,1018,8,30,,,,10.6,
Wick,10/08/2017 14:00,15.9,17,,,0,,69,,200,Dry,1017,5,22,,,,10.3,
Wick,10/08/2017 15:00,15.8,16,,,0,,70,,210,Dry,1017,4,35,,,,10.4,
Wick,10/08/2017 16:00,16.4,13,,,0,,66,,210,Dry,1016,1,35,,,,10.1,
Wick,10/08/2017 17:00,16.7,14,,,0,,63,,190,Dry,1015,6,45,,,,9.7,
Wick,10/08/2017 18:00,17,20,,17.2,0,0,60,,220,Dry,1015,1,45,,,,9.3,
Wick,10/08/2017 19:00,16,10,,,0,,64,,200,Dry,1014,1,45,,,,9.4,
Wick,10/08/2017 20:00,14.5,18,,,0,,64,,210,Dry,1014,0,40,,,,7.8,
Wick,10/08/2017 21:00,14.1,17,,,0,,69,,190,Dry,1013,0,45,,,,8.6,
Wick,10/08/2017 22:00,13.5,13,,,0,,74,,190,Dry,1012,2,30,,,,9,
Wick,10/08/2017 23:00,13.6,18,,,0,,73,,190,Dry,1011,1,35,,,,9,
Wick,11/08/2017 00:00,13.7,15,,,0,0,77,,190,Light shower,1010,6,19,,,,9.9,
Wick,11/08/2017 01:00,12.8,15,,,0.8,,89,,200,Moderate rain,1009,0,10,,,,11.1,
Wick,11/08/2017 02:00,12.6,20,,,1.8,,93,,190,Light rain,1008,0,9,,,,11.5,
Wick,11/08/2017 03:00,12.8,20,,,1.4,,93,30,190,Moderate rain,1007,0,8,,,,11.8,
Wick,11/08/2017 04:00,12.8,18,,,1.8,,94,,190,Moderate rain,1006,0,10,,,,11.9,
Wick,11/08/2017 05:00,13.2,17,,,1.2,,91,,180,Light rain,1005,1,12,,,,11.9,
Wick,11/08/2017 06:00,13.5,16,12.6,,0.8,8,90,,190,Light rain,1005,1,35,,,,12,
Wick,11/08/2017 07:00,14.1,17,,,0,,87,29,190,Rain,1004,1,26,,,,12,
Wick,11/08/2017 08:00,14.3,18,,,0,,86,,190,Rain,1004,7,45,,,,12.1,
Wick,11/08/2017 09:00,14.8,16,,,0,,86,,190,Dry,1003,2,45,,,,12.6,
Wick,11/08/2017 10:00,16.4,18,,,0,,80,,190,Dry,1002,7,40,,,,13,
Wick,11/08/2017 11:00,17.2,23,,,0,,79,32,210,Rain,1002,8,45,,,,13.6,
Wick,11/08/2017 12:00,18.3,22,,,0,0,80,35,220,Dry,1002,8,25,,,,14.8,
Wick,11/08/2017 13:00,17.1,17,,,0.2,,81,31,240,Rain,1003,1,30,,,,14,
Wick,11/08/2017 14:00,18.2,26,,,0,,69,36,250,Dry,1002,7,26,,,,12.5,
Wick,11/08/2017 15:00,17.2,23,,,0,,73,33,230,Dry,1002,7,35,,,,12.4,
Wick,11/08/2017 16:00,17.8,24,,,0,,68,31,240,Dry,1002,1,40,,,,12,
Wick,11/08/2017 17:00,16.6,20,,,0,,76,31,240,Dry,1003,1,30,,,,12.4,
Wick,11/08/2017 18:00,16.1,18,,18.7,0,0.2,73,32,250,Dry,1003,1,40,,,,11.4,
Wick,11/08/2017 19:00,14.2,21,,,0,,84,30,270,Dry,1004,1,10,,,,11.6,
Wick,11/08/2017 20:00,12,12,,,0,,96,,290,Dry,1005,1,22,,,,11.4,
Wick,11/08/2017 21:00,12.1,10,,,0,,95,,290,Dry,1006,2,17,,,,11.4,
Wick,11/08/2017 22:00,11.9,9,,,0,,96,,290,Dry,1006,4,15,,,,11.4,
Wick,11/08/2017 23:00,11.6,8,,,0,,96,,300,Dry,1007,7,19,,,,11.1,
Wick,12/08/2017 00:00,11.6,9,,,0.2,0.2,98,,300,Rain,1007,1,18,,,,11.4,
Wick,12/08/2017 01:00,11.4,9,,,0,,97,,290,Dry,1008,7,23,,,,11,
Wick,12/08/2017 02:00,11.3,8,,,0,,95,,280,Dry,1008,1,22,,,,10.6,
Wick,12/08/2017 03:00,11.2,7,,,0,,97,,320,Rain,1008,1,19,,,,10.8,
Wick,12/08/2017 04:00,11.1,7,,,0,,96,,290,Dry,1009,8,16,,,,10.5,
Wick,12/08/2017 05:00,11,9,,,0,,94,,300,Dry,1009,8,25,,,,10.1,
Wick,12/08/2017 06:00,11.2,8,10.9,,0,0,94,,300,Dry,1010,8,24,,,,10.3,
Wick,12/08/2017 07:00,11.9,12,,,0,,89,,300,Dry,1010,8,30,,,,10.3,
Wick,12/08/2017 08:00,12.7,8,,,0,,88,,290,Dry,1011,8,21,,,,10.8,
Wick,12/08/2017 09:00,12.6,17,,,0,,79,,310,Rain,1011,7,23,,,,9.2,
Wick,12/08/2017 10:00,12.8,14,,,0,,78,,310,Dry,1012,7,20,,,,9.1,
Wick,12/08/2017 11:00,14.6,17,,,0,,67,,320,Dry,1012,1,25,,,,8.7,
Wick,12/08/2017 12:00,15.1,15,,,0,0,66,,320,Dry,1013,5,35,,,,9,
Wick,12/08/2017 13:00,14.5,17,,,0,,60,,300,Dry,1013,2,29,,,,6.9,
Wick,12/08/2017 14:00,14.3,17,,,0,,63,,310,Dry,1014,5,50,,,,7.5,
Wick,12/08/2017 15:00,14.3,16,,,0,,65,,320,Dry,1014,1,18,,,,7.9,
Wick,12/08/2017 16:00,14.4,15,,,0,,63,,310,Dry,1014,2,26,,,,7.5,
Wick,12/08/2017 17:00,13.3,13,,,0,,71,,310,Dry,1015,4,30,,,,8.3,
Wick,12/08/2017 18:00,13.3,13,,15.7,0,0,71,,300,Dry,1015,1,35,,,,8.2,
Wick,12/08/2017 19:00,12.3,10,,,0,,74,,300,Dry,1015,0,30,,,,8,
Wick,12/08/2017 20:00,9.6,9,,,0,,86,,290,Dry,1015,0,45,,,,7.4,
Wick,12/08/2017 21:00,7.8,7,,,0,,91,,270,Dry,1015,0,40,,,,6.5,
Wick,12/08/2017 22:00,8.3,7,,,0,,93,,260,Light shower,1016,4,17,,,,7.3,
Wick,12/08/2017 23:00,8.9,7,,,0,,90,,250,Rain,1016,1,40,,,,7.4,
Wick,13/08/2017 00:00,9.3,10,,,0,0,87,,260,Dry,1015,4,50,,,,7.4,
Wick,13/08/2017 01:00,8.5,10,,,0,,90,,250,Dry,1015,0,45,,,,7,
Wick,13/08/2017 02:00,8.9,12,,,0,,91,,260,Dry,1015,5,50,,,,7.6,
Wick,13/08/2017 03:00,9,12,,,0,,90,,260,Dry,1015,4,35,,,,7.6,
Wick,13/08/2017 04:00,7.9,8,,,0,,91,,240,Dry,1016,1,35,,,,6.6,
Wick,13/08/2017 05:00,7.8,9,,,0,,90,,230,Dry,1016,0,40,,,,6.3,
Wick,13/08/2017 06:00,9.2,9,7.6,,0,0,89,,250,Dry,1016,0,45,,,,7.6,
Wick,13/08/2017 07:00,11.3,12,,,0,,79,,250,Dry,1016,0,28,,,,7.9,
Wick,13/08/2017 08:00,11.9,8,,,0,,78,,250,Dry,1017,7,30,,,,8.3,
Wick,13/08/2017 09:00,13.9,14,,,0,,67,,270,Dry,1017,5,40,,,,8,
Wick,13/08/2017 10:00,13.2,14,,,0,,68,,250,Dry,1017,7,35,,,,7.5,
Wick,13/08/2017 11:00,14.2,16,,,0,,65,,260,Dry,1017,7,29,,,,7.8,
Wick,13/08/2017 12:00,14.5,6,,,0,0,65,,250,Dry,1017,1,30,,,,8.2,
Wick,13/08/2017 13:00,13,8,,,0,,79,,300,Rain,1018,5,35,,,,9.6,
Wick,13/08/2017 14:00,13.8,5,,,0.2,,72,,280,Rain,1018,1,25,,,,9,
Wick,13/08/2017 15:00,12.4,8,,,0,,78,,160,Dry,1018,4,40,,,,8.8,
Wick,13/08/2017 16:00,11.7,3,,,1.4,,91,,170,Moderate shower,1018,4,7,,,,10.3,
Wick,13/08/2017 17:00,12.7,7,,,0.2,,83,,80,Rain,1018,6,35,,,,10,
Wick,13/08/2017 18:00,12.9,6,,14.9,0,2,79,,100,Dry,1018,2,50,,,,9.4,
Wick,13/08/2017 19:00,12.3,5,,,0,,87,,120,Dry,1018,5,45,,,,10.3,
Wick,13/08/2017 20:00,12,7,,,0,,85,,120,Drizzly rain,1018,7,50,,,,9.7,
Wick,13/08/2017 21:00,12.2,5,,,0,,87,,130,Rain,1018,2,50,,,,10.2,
Wick,13/08/2017 22:00,12.3,6,,,0,,91,,130,Light shower,1018,8,35,,,,10.9,
Wick,13/08/2017 23:00,12.6,5,,,0,,91,,140,Rain,1017,3,50,,,,11.3,
Wick,14/08/2017 00:00,12.4,5,,,0,0,88,,140,Dry,1017,0,45,,,,10.5,
Wick,14/08/2017 01:00,12.8,6,,,0,,88,,170,Dry,1017,5,50,,,,10.9,
Wick,14/08/2017 02:00,12.3,5,,,0,,94,,140,Dry,1016,2,45,,,,11.4,
Wick,14/08/2017 03:00,11.9,5,,,0,,95,,140,Dry,1016,1,35,,,,11.2,
Wick,14/08/2017 04:00,12.1,5,,,0,,94,,120,Dry,1015,3,45,,,,11.3,
Wick,14/08/2017 05:00,12.6,7,,,0,,84,,160,Dry,1015,8,50,,,,10.1,
Wick,14/08/2017 06:00,12.7,7,11.8,,0,0,89,,120,Dry,1014,8,45,,,,11.1,
Wick,14/08/2017 07:00,13.2,8,,,0,,87,,140,Dry,1014,8,25,,,,11.2,
Wick,14/08/2017 08:00,13.4,9,,,0,,91,,140,Dry,1014,2,30,,,,12.1,
Wick,14/08/2017 09:00,13.3,13,,,0,,92,,150,Rain,1013,7,27,,,,12.1,
Wick,14/08/2017 10:00,13.6,15,,,0,,85,,150,Dry,1013,1,18,,,,11.3,
Wick,14/08/2017 11:00,12.5,10,,,0.6,,94,,140,Light shower,1012,4,12,,,,11.6,
Wick,14/08/2017 12:00,12.9,15,,,0.8,1,97,,140,Light shower,1012,7,11,,,,12.5,
Wick,14/08/2017 13:00,13.2,16,,,0.6,,97,,150,Light rain,1011,7,3,,,,12.8,
Wick,14/08/2017 14:00,13.7,16,,,1,,96,,150,Light rain,1010,1,8,,,,13.2,
Wick,14/08/2017 15:00,14,16,,,0.2,,94,,150,Rain,1009,2,12,,,,13.2,
Wick,14/08/2017 16:00,14.2,18,,,0,,91,29,150,Dry,1008,1,12,,,,12.8,
Wick,14/08/2017 17:00,14,20,,,0,,93,32,150,Rain,1008,1,11,,,,12.9,
Wick,14/08/2017 18:00,14,20,,14.4,0,2,93,30,150,Dry,1008,5,9,,,,12.9,
Wick,14/08/2017 19:00,13.8,18,,,0,,94,33,150,Dry,1008,1,10,,,,13,
Wick,14/08/2017 20:00,13.8,16,,,0,,95,,150,Drizzly rain,1008,7,10,,,,13.1,
Wick,14/08/2017 21:00,13.7,14,,,0,,97,,150,Rain,1007,1,8,,,,13.3,
Wick,14/08/2017 22:00,13.9,14,,,0,,96,,160,Dry,1007,6,10,,,,13.3,
Wick,14/08/2017 23:00,14,5,,,0,,96,,170,Dry,1007,4,13,,,,13.5,
Wick,15/08/2017 00:00,14.2,5,,,0,0,94,,180,Dry,1007,7,26,,,,13.4,
Wick,15/08/2017 01:00,14,10,,,1,,96,,180,Moderate shower,1007,7,13,,,,13.4,
Wick,15/08/2017 02:00,13.9,8,,,1,,96,,170,Light rain,1006,8,13,,,,13.4,
Wick,15/08/2017 03:00,13.6,8,,,0.6,,98,,160,Light rain,1006,2,9,,,,13.4,
Wick,15/08/2017 04:00,13.5,6,,,1.2,,99,,180,Moderate rain,1006,1,8,,,,13.4,
Wick,15/08/2017 05:00,12.9,5,,,1.8,,99,,270,Light rain,1005,8,9,,,,12.8,
Wick,15/08/2017 06:00,12.6,7,12.5,,0.2,6,100,,280,Light rain,1005,8,12,,,,12.6,
Wick,15/08/2017 07:00,12.7,5,,,0.4,,100,,270,Rain,1005,8,9,,,,12.7,
Wick,15/08/2017 08:00,13.1,8,,,0,,100,,260,Dry,1005,4,45,,,,13.1,
Wick,15/08/2017 09:00,13.2,10,,,0,,97,,260,Dry,1006,5,45,,,,12.8,
Wick,15/08/2017 10:00,14.5,9,,,0,,83,,250,Dry,1006,8,30,,,,11.7,
Wick,15/08/2017 11:00,15.8,7,,,0,,74,,250,Dry,1006,1,35,,,,11.2,
Wick,15/08/2017 12:00,16.2,10,,,0,0.4,77,,200,Dry,1006,1,40,,,,12.2,
Wick,15/08/2017 13:00,14.8,8,,,2.2,,85,,190,Moderate shower,1007,1,9,,,,12.4,
Wick,15/08/2017 14:00,15.4,10,,,1.8,,83,32,190,Rain,1007,2,27,,,,12.7,
Wick,15/08/2017 15:00,15.8,7,,,1.2,,80,,230,Rain,1007,4,25,,,,12.4,
Wick,15/08/2017 16:00,16.8,7,,,0.2,,77,,180,Rain,1007,4,35,,,,12.8,
Wick,15/08/2017 17:00,14.4,12,,,0.4,,83,,200,Moderate shower,1007,1,15,,,,11.7,
Wick,15/08/2017 18:00,14,12,,,2.2,7.6,88,,250,Light shower,1008,1,26,,,,12.2,
Wick,15/08/2017 19:00,14.9,8,,,0,,80,,250,Rain,1009,8,45,,,,11.5,
Wick,15/08/2017 20:00,12.6,10,,,0,,76,,250,Dry,1010,2,40,,,,8.6,
Wick,15/08/2017 21:00,12,3,,,0,,86,,230,Dry,1010,7,50,,,,9.8,
Wick,15/08/2017 22:00,12.9,9,,,0,,80,,220,Dry,1011,7,50,,,,9.6,
Wick,15/08/2017 23:00,12.2,10,,,0,,82,,220,Dry,1011,7,45,,,,9.4,
Wick,16/08/2017 00:00,11.2,9,,,0,0,85,,220,Dry,1011,2,35,,,,8.9,
Wick,16/08/2017 01:00,10.9,8,,,0,,87,,220,Dry,1011,1,45,,,,8.9,
Wick,16/08/2017 02:00,11.4,12,,,0,,84,,220,Dry,1012,0,45,,,,8.9,
Wick,16/08/2017 03:00,10.3,6,,,0,,87,,170,Dry,1012,0,45,,,,8.4,
Wick,16/08/2017 04:00,10.9,7,,,0,,86,,160,Dry,1012,0,50,,,,8.8,
Wick,16/08/2017 05:00,11,9,,,0,,93,,190,Dry,1012,1,45,,,,10,
Wick,16/08/2017 06:00,11.6,8,9.9,,0,0,90,,180,Dry,1012,1,40,,,,10.1,
Wick,16/08/2017 07:00,12.8,9,,,0,,88,,170,Dry,1012,1,21,,,,10.9,
Wick,16/08/2017 08:00,13.7,15,,,0,,80,,180,Dry,1012,1,35,,,,10.5,
Wick,16/08/2017 09:00,14.5,15,,,0,,72,,170,Dry,1012,1,30,,,,9.7,
Wick,16/08/2017 10:00,15.1,14,,,0,,71,,170,Dry,1011,1,45,,,,10,
Wick,16/08/2017 11:00,15.2,14,,,0,,74,,160,Dry,1011,1,30,,,,10.8,
Wick,16/08/2017 12:00,15.1,14,,,0,0,78,,150,Dry,1010,1,19,,,,11.3,
Wick,16/08/2017 13:00,15.1,16,,,0,,83,,140,Rain,1009,1,16,,,,12.3,
Wick,16/08/2017 14:00,14.6,16,,,0,,91,,130,Rain,1008,8,14,,,,13.3,
Wick,16/08/2017 15:00,15.5,17,,,0,,81,,160,Dry,1007,6,23,,,,12.4,
Wick,16/08/2017 16:00,15.8,20,,,0,,73,32,160,Dry,1006,1,28,,,,11.1,
Wick,16/08/2017 17:00,15.4,21,,,0,,77,31,160,Dry,1005,1,17,,,,11.4,
Wick,16/08/2017 18:00,15.3,18,,15.9,0,0,77,33,160,Dry,1004,1,22,,,,11.4,
Wick,16/08/2017 19:00,14.7,20,,,0,,83,33,150,Dry,1003,1,14,,,,12,
Wick,16/08/2017 20:00,14.3,18,,,0.2,,88,31,150,Moderate shower,1003,0,10,,,,12.5,
Wick,16/08/2017 21:00,13.9,22,,,0.6,,93,35,160,Rain,1003,0,11,,,,12.9,
Wick,16/08/2017 22:00,14.3,16,,,0,,89,31,160,Dry,1002,0,19,,,,12.6,
Wick,16/08/2017 23:00,14.2,12,,,0,,91,31,150,Dry,1002,0,15,,,,12.8,
Wick,17/08/2017 00:00,14.4,14,,,0,0.8,91,,160,Dry,1001,1,17,,,,13,
Wick,17/08/2017 01:00,14.2,13,,,0,,93,,150,Rain,1001,0,15,,,,13.1,
Wick,17/08/2017 02:00,14.4,12,,,0,,93,,170,Dry,1001,2,20,,,,13.3,
Wick,17/08/2017 03:00,14.3,10,,,0,,94,,190,Dry,1000,2,29,,,,13.5,
Wick,17/08/2017 04:00,13.6,8,,,0,,94,,170,Dry,1001,0,45,,,,12.7,
Wick,17/08/2017 05:00,13.1,10,,,0,,97,,160,Dry,1000,0,17,,,,12.7,
Wick,17/08/2017 06:00,13.5,13,13,,0,0,89,,170,Dry,1000,0,18,,,,11.8,
Wick,17/08/2017 07:00,14.1,16,,,0,,86,,180,Dry,1000,1,12,,,,11.8,
Wick,17/08/2017 08:00,14.7,15,,,0,,80,,170,Dry,1000,1,23,,,,11.4,
Wick,17/08/2017 09:00,15.6,18,,,0,,77,,190,Dry,1000,1,35,,,,11.6,
Wick,17/08/2017 10:00,15.9,21,,,0,,72,30,190,Dry,1000,1,27,,,,10.9,
Wick,17/08/2017 11:00,17.2,16,,,0,,70,,180,Dry,1000,1,24,,,,11.7,
Wick,17/08/2017 12:00,17.6,12,,,0,0,66,,180,Dry,1000,7,29,,,,11.4,
Wick,17/08/2017 13:00,18.4,24,,,0,,57,33,200,Dry,1000,7,30,,,,9.9,
Wick,17/08/2017 14:00,17.8,20,,,0,,67,32,200,Dry,1001,7,45,,,,11.6,
Wick,17/08/2017 15:00,17.8,16,,,0,,68,29,200,Dry,1000,6,35,,,,11.9,
Wick,17/08/2017 16:00,18.3,16,,,0,,63,,190,Dry,1000,5,30,,,,11.2,
Wick,17/08/2017 17:00,17.6,15,,,0,,69,,190,Dry,1000,1,26,,,,12,
Wick,17/08/2017 18:00,17.4,13,,19.4,0,0,70,,200,Dry,1001,1,30,,,,11.9,
Wick,17/08/2017 19:00,15.4,10,,,0,,80,,170,Dry,1001,8,29,,,,12,
Wick,17/08/2017 20:00,14.5,9,,,0,,83,,170,Dry,1001,3,30,,,,11.8,
Wick,17/08/2017 21:00,14,8,,,0,,82,,190,Dry,1001,0,40,,,,11,
Wick,17/08/2017 22:00,12.5,7,,,0,,88,,220,Dry,1001,0,30,,,,10.7,
Wick,17/08/2017 23:00,12.8,3,,,0,,88,,200,Dry,1001,0,40,,,,10.9,
Wick,18/08/2017 00:00,13.2,5,,,0,0,83,,200,Dry,1001,0,30,,,,10.5,
Wick,18/08/2017 01:00,13,6,,,0,,83,,160,Dry,1000,6,40,,,,10.3,
Wick,18/08/2017 02:00,13.1,7,,,0,,85,,160,Dry,1000,6,40,,,,10.8,
Wick,18/08/2017 03:00,12.4,6,,,0,,92,,120,Dry,999,0,24,,,,11.3,
Wick,18/08/2017 04:00,11.6,1,,,0,,96,,80,Misty,998,0,12,,,,11.1,
Wick,18/08/2017 05:00,12.6,6,,,0,,100,,110,Fog,998,5,20,,,,12.6,
Wick,18/08/2017 06:00,12.1,2,10.7,,0,0,98,,170,Rain,998,0,16,,,,11.9,
Wick,18/08/2017 07:00,14.2,7,,,0.2,,96,,120,Dry,997,0,40,,,,13.6,
Wick,18/08/2017 08:00,15.1,8,,,0,,90,,120,Dry,997,4,19,,,,13.6,
Wick,18/08/2017 09:00,15,8,,,0,,94,,130,Dry,996,1,15,,,,14.1,
Wick,18/08/2017 10:00,14.4,7,,,0,,91,,120,Dry,996,3,25,,,,13.1,
Wick,18/08/2017 11:00,14.2,7,,,0,,90,,100,Dry,996,1,19,,,,12.6,
Wick,18/08/2017 12:00,15.8,2,,,0,0.2,78,,90,Dry,995,3,30,,,,12.1,
Wick,18/08/2017 13:00,14.5,5,,,0,,87,,40,Dry,995,5,22,,,,12.5,
Wick,18/08/2017 14:00,13.9,7,,,0,,93,,330,Drizzly rain,996,1,12,,,,12.9,
Wick,18/08/2017 15:00,12.8,18,,,1.2,,97,30,290,Drizzly rain,995,5,14,,,,12.4,
Wick,18/08/2017 16:00,11.7,22,,,2.8,,99,31,280,Moderate shower,996,6,5,,,,11.6,
Wick,18/08/2017 17:00,12,18,,,4.8,,100,32,280,Moderate rain,996,3,6,,,,12,
Wick,18/08/2017 18:00,12.1,20,,16,4.6,13.8,100,29,280,Moderate rain,996,6,10,,,,12.1,
Wick,18/08/2017 19:00,12.1,18,,,0.8,,98,,280,Rain,996,7,26,,,,11.8,
Wick,18/08/2017 20:00,12.2,18,,,0,,96,,280,Rain,997,3,27,,,,11.6,
Wick,18/08/2017 21:00,12.5,17,,,0,,96,29,280,Rain,997,5,20,,,,11.9,
Wick,18/08/2017 22:00,12.3,20,,,0,,94,,280,Dry,997,1,27,,,,11.5,
Wick,18/08/2017 23:00,12.4,15,,,0,,96,,280,Dry,998,7,25,,,,11.8,
Wick,19/08/2017 00:00,12,18,,,0,0.8,96,,270,Dry,998,1,30,,,,11.4,
Wick,19/08/2017 01:00,11.5,16,,,0,,96,,270,Dry,998,4,30,,,,10.9,
Wick,19/08/2017 02:00,10.6,13,,,0,,98,,250,Dry,998,4,26,,,,10.4,
Wick,19/08/2017 03:00,11.9,17,,,0.4,,99,,270,Moderate drizzle,999,5,3,,,,11.8,
Wick,19/08/2017 04:00,11.5,15,,,0.4,,97,,260,Rain,999,2,45,,,,11.1,
Wick,19/08/2017 05:00,11.1,15,,,0,,96,,260,Dry,999,4,45,,,,10.6,
Wick,19/08/2017 06:00,11.5,13,10.4,,0,1.2,94,,260,Dry,999,5,45,,,,10.6,
Wick,19/08/2017 07:00,12.8,17,,,0,,91,,260,Dry,999,1,40,,,,11.5,
Wick,19/08/2017 08:00,13.8,18,,,0,,88,,270,Dry,999,1,50,,,,12,
Wick,19/08/2017 09:00,14.6,21,,,0,,83,29,280,Dry,1000,2,27,,,,11.9,
Wick,19/08/2017 10:00,13.1,21,,,0,,95,32,280,Light drizzle,1000,1,3,,,,12.4,
Wick,19/08/2017 11:00,14.3,22,,,0,,87,30,290,Drizzle,1000,2,21,,,,12.3,
Wick,19/08/2017 12:00,14.1,21,,,0,0,82,32,290,Dry,1001,4,30,,,,11.1,
Wick,19/08/2017 13:00,14.7,24,,,0.6,,87,35,300,Rain,1002,4,25,,,,12.6,
Wick,19/08/2017 14:00,14,22,,,0,,89,36,300,Dry,1003,1,28,,,,12.3,
Wick,19/08/2017 15:00,14.4,23,,,0,,85,33,300,Dry,1004,7,30,,,,12,
Wick,19/08/2017 16:00,14.9,22,,,0,,82,32,290,Dry,1005,3,19,,,,12,
Wick,19/08/2017 17:00,13.9,23,,,0.2,,91,32,290,Moderate shower,1006,4,5,,,,12.5,
Wick,19/08/2017 18:00,13.3,18,,16,0.2,1,94,31,290,Rain,1006,6,26,,,,12.4,
Wick,19/08/2017 19:00,12.9,16,,,0,,96,,290,Rain,1007,4,9,,,,12.4,
Wick,19/08/2017 20:00,12.5,17,,,0,,94,,300,Dry,1008,5,17,,,,11.7,
Wick,19/08/2017 21:00,12.4,18,,,0.6,,94,,300,Rain,1009,2,22,,,,11.5,
Wick,19/08/2017 22:00,12,15,,,0,,95,,290,Dry,1010,2,23,,,,11.3,
Wick,19/08/2017 23:00,11.4,12,,,0,,96,,290,Dry,1010,1,14,,,,10.9,
Wick,20/08/2017 00:00,11.9,10,,,0,0.6,96,,290,Dry,1011,1,16,,,,11.4,
Wick,20/08/2017 01:00,11.9,14,,,0,,95,,290,Dry,1011,1,13,,,,11.2,
Wick,20/08/2017 02:00,11.5,13,,,0,,96,,280,Dry,1012,1,14,,,,11,
Wick,20/08/2017 03:00,12.2,16,,,0,,95,,290,Dry,1012,4,14,,,,11.5,
Wick,20/08/2017 04:00,12.2,16,,,0.2,,94,,290,Rain,1013,1,16,,,,11.4,
Wick,20/08/2017 05:00,11.9,13,,,0,,95,,290,Drizzly rain,1014,1,3,,,,11.2,
Wick,20/08/2017 06:00,11.8,16,11.2,,0.2,0.4,96,,280,Rain,1014,3,16,,,,11.3,
Wick,20/08/2017 07:00,11.9,13,,,0,,96,,280,Dry,1015,6,13,,,,11.4,
Wick,20/08/2017 08:00,13.4,16,,,0,,91,,290,Dry,1016,1,15,,,,12,
Wick,20/08/2017 09:00,13.7,20,,,0,,87,30,310,Dry,1016,3,45,,,,11.7,
Wick,20/08/2017 10:00,13.8,17,,,0,,87,30,310,Dry,1017,2,30,,,,11.7,
Wick,20/08/2017 11:00,13.4,20,,,0,,83,,300,Dry,1018,7,40,,,,10.6,
Wick,20/08/2017 12:00,14,14,,,0,0,82,,300,Dry,1019,6,30,,,,11,
Wick,20/08/2017 13:00,13.8,18,,,0,,78,,300,Dry,1019,8,40,,,,10.2,
Wick,20/08/2017 14:00,14.5,12,,,0,,72,,310,Dry,1020,6,25,,,,9.6,
Wick,20/08/2017 15:00,13.9,15,,,0,,77,,310,Dry,1020,1,45,,,,10.1,
Wick,20/08/2017 16:00,13.9,13,,,0,,74,,310,Dry,1020,7,40,,,,9.5,
Wick,20/08/2017 17:00,13.4,13,,,0,,72,,320,Dry,1021,8,40,,,,8.6,
Wick,20/08/2017 18:00,13.2,12,,14.9,0,0,72,,330,Dry,1021,4,30,,,,8.3,
Wick,20/08/2017 19:00,11.8,8,,,0,,84,,320,Dry,1021,1,45,,,,9.3,
Wick,20/08/2017 20:00,9,6,,,0,,92,,310,Dry,1022,0,26,,,,7.8,
Wick,20/08/2017 21:00,8.4,6,,,0,,96,,320,Dry,1022,0,30,,,,7.9,
Wick,20/08/2017 22:00,7.6,5,,,0,,97,,320,Misty,1022,1,11,,,,7.3,
Wick,20/08/2017 23:00,7.3,6,,,0,,99,,270,Dry,1022,0,12,,,,7.2,
Wick,21/08/2017 00:00,6.8,5,,,0,0,100,,280,Dry,1022,1,12,,,,6.8,
Wick,21/08/2017 01:00,7.1,3,,,0,,100,,240,Dry,1022,7,30,,,,7.1,
Wick,21/08/2017 02:00,8,2,,,0,,100,,300,Dry,1022,8,28,,,,8,
Wick,21/08/2017 03:00,7.8,3,,,0,,100,,290,Dry,1022,7,15,,,,7.8,
Wick,21/08/2017 04:00,8.6,3,,,0,,100,,250,Dry,1022,8,23,,,,8.6,
Wick,21/08/2017 05:00,8.6,2,,,0,,100,,260,Dry,1022,8,28,,,,8.6,
Wick,21/08/2017 06:00,9.8,3,6.6,,0,0,100,,20,Dry,1022,8,24,,,,9.8,
Wick,21/08/2017 07:00,10.5,2,,,0,,100,,60,Dry,1022,8,28,,,,10.5,
Wick,21/08/2017 08:00,12.4,7,,,0,,89,,100,Dry,1022,8,30,,,,10.8,
Wick,21/08/2017 09:00,12.7,8,,,0,,84,,100,Dry,1022,1,35,,,,10.2,
Wick,21/08/2017 10:00,13.1,12,,,0,,81,,90,Dry,1022,1,40,,,,10.1,
Wick,21/08/2017 11:00,13.8,10,,,0,,79,,110,Dry,1022,1,35,,,,10.4,
Wick,21/08/2017 12:00,14.1,13,,,0,0,79,,110,Dry,1022,5,16,,,,10.7,
Wick,21/08/2017 13:00,14.6,14,,,0,,77,,100,Dry,1022,1,30,,,,10.8,
Wick,21/08/2017 14:00,14.1,14,,,0,,75,,100,Dry,1022,6,30,,,,9.8,
Wick,21/08/2017 15:00,13.6,16,,,0,,80,,80,Dry,1022,7,35,,,,10.3,
Wick,21/08/2017 16:00,13.3,16,,,0,,80,,90,Dry,1022,4,35,,,,10,
Wick,21/08/2017 17:00,13,16,,,0,,84,,90,Dry,1021,4,28,,,,10.4,
Wick,21/08/2017 18:00,13,13,,14.6,0,0,84,,110,Dry,1021,1,28,,,,10.4,
Wick,21/08/2017 19:00,12.8,16,,,0,,87,,90,Dry,1021,6,27,,,,10.7,
Wick,21/08/2017 20:00,12.9,14,,,0,,85,,100,Dry,1022,8,26,,,,10.6,
Wick,21/08/2017 21:00,12.8,15,,,0,,87,,90,Dry,1022,6,25,,,,10.8,
Wick,21/08/2017 22:00,12.7,15,,,0,,88,,100,Dry,1022,7,20,,,,10.8,
Wick,21/08/2017 23:00,12.9,14,,,0,,88,,100,Dry,1022,7,22,,,,11.1,
Wick,22/08/2017 00:00,12.7,14,,,0,0,91,,110,Dry,1021,5,17,,,,11.3,
Wick,22/08/2017 01:00,12.6,15,,,0,,91,,110,Dry,1022,8,21,,,,11.3,
Wick,22/08/2017 02:00,12.4,13,,,0,,93,,110,Dry,1022,3,17,,,,11.4,
Wick,22/08/2017 03:00,12.6,15,,,0,,92,,110,Dry,1021,7,19,,,,11.4,
Wick,22/08/2017 04:00,12.7,15,,,0,,93,,110,Dry,1021,8,24,,,,11.6,
Wick,22/08/2017 05:00,12.7,16,,,0,,91,,110,Dry,1021,2,21,,,,11.3,
Wick,22/08/2017 06:00,12.9,17,12.3,,0,0,89,,110,Dry,1021,8,23,,,,11.2,
Wick,22/08/2017 07:00,13,16,,,0,,88,,110,Dry,1021,7,23,,,,11.2,
Wick,22/08/2017 08:00,13.1,18,,,0,,87,,110,Dry,1021,1,20,,,,11.1,
Wick,22/08/2017 09:00,14.4,16,,,0,,84,,110,Dry,1021,8,27,,,,11.9,
Wick,22/08/2017 10:00,13.5,17,,,0,,85,,110,Dry,1021,7,19,,,,11.1,
Wick,22/08/2017 11:00,13.7,17,,,0,,87,,110,Dry,1020,5,17,,,,11.6,
Wick,22/08/2017 12:00,13.7,18,,,0,0,87,,110,Dry,1020,7,16,,,,11.7,
Wick,22/08/2017 13:00,13.5,17,,,0,,93,,110,Rain,1020,7,12,,,,12.4,
Wick,22/08/2017 14:00,14.1,17,,,0,,88,,120,Dry,1020,8,16,,,,12.2,
Wick,22/08/2017 15:00,13.9,17,,,0,,88,,120,Dry,1019,8,12,,,,12.1,
Wick,22/08/2017 16:00,14.1,18,,,0,,89,,120,Dry,1018,8,13,,,,12.4,
Wick,22/08/2017 17:00,13.9,18,,,0,,90,,120,Dry,1018,8,15,,,,12.4,
Wick,22/08/2017 18:00,13.7,18,,14.5,0,0,92,29,120,Dry,1018,8,14,,,,12.5,
Wick,22/08/2017 19:00,13.7,17,,,0,,93,,120,Dry,1017,8,12,,,,12.7,
Wick,22/08/2017 20:00,13.7,20,,,0,,94,,120,Dry,1017,8,11,,,,12.9,
Wick,22/08/2017 21:00,13.7,18,,,0,,96,29,120,Dry,1017,8,10,,,,13.1,
Wick,22/08/2017 22:00,13.8,17,,,0,,96,,120,Misty,1016,5,10,,,,13.2,
Wick,22/08/2017 23:00,13.8,17,,,0,,96,,120,Misty,1016,5,9,,,,13.3,
Wick,23/08/2017 00:00,13.8,18,,,0,0,98,,120,Misty,1015,8,7,,,,13.5,
Wick,23/08/2017 01:00,13.9,18,,,0,,98,,120,Misty,1015,8,7,,,,13.7,
Wick,23/08/2017 02:00,13.9,17,,,0,,99,,120,Misty,1014,8,6,,,,13.8,
Wick,23/08/2017 03:00,14,20,,,0,,98,29,120,Misty,1014,8,7,,,,13.8,
Wick,23/08/2017 04:00,14,21,,,0,,99,29,120,Misty,1013,8,5,,,,13.9,
Wick,23/08/2017 05:00,14.1,18,,,0,,99,,120,Misty,1012,8,5,,,,14,
Wick,23/08/2017 06:00,14,17,13.6,,0,0,99,,120,Misty,1012,8,6,,,,13.9,
Wick,23/08/2017 07:00,14.1,17,,,0,,98,,110,Misty,1012,8,7,,,,13.9,
Wick,23/08/2017 08:00,14.1,14,,,0.2,,98,,120,Rain,1012,8,6,,,,13.9,
Wick,23/08/2017 09:00,14.1,16,,,0.2,,98,,120,Moderate shower,1012,7,4,,,,13.9,
Wick,23/08/2017 10:00,14.3,20,,,0,,98,,120,Rain,1011,4,7,,,,14,
Wick,23/08/2017 11:00,14,18,,,1.2,,99,,120,Rain,1011,8,6,,,,13.9,
Wick,23/08/2017 12:00,14.1,17,,,1.2,3,98,,110,Light shower,1010,8,6,,,,13.9,
Wick,23/08/2017 13:00,14.2,18,,,0,,98,,120,Rain,1010,8,6,,,,14,
Wick,23/08/2017 14:00,14.3,20,,,0,,99,,120,Misty,1010,8,5,,,,14.2,
Wick,23/08/2017 15:00,14.2,17,,,0,,99,,120,Misty,1009,8,4,,,,14.1,
Wick,23/08/2017 16:00,14.3,16,,,0,,99,,130,Misty,1009,8,4,,,,14.2,
Wick,23/08/2017 17:00,14.3,12,,,0,,100,,140,Misty,1008,8,5,,,,14.3,
Wick,23/08/2017 18:00,14.1,12,,14.7,0,0,100,,140,Fog,1008,8,1,,,,14.1,
Wick,23/08/2017 19:00,13.9,6,,,0,,100,,150,Fog,1008,9,1,,,,13.9,
Wick,23/08/2017 20:00,14.1,3,,,0,,100,,190,Fog,1008,8,3,,,,14.1,
Wick,23/08/2017 21:00,14.3,1,,,0,,100,,290,Rain,1008,7,3,,,,14.3,
Wick,23/08/2017 22:00,14,1,,,0,,100,,210,Thickening fog,1008,6,0,,,,14,
Wick,23/08/2017 23:00,13.6,7,,,0,,100,,280,Fog thinning,1008,8,0,,,,13.6,
Wick,24/08/2017 00:00,12.6,7,,,0,0,100,,280,Fog,1008,1,10,,,,12.6,
Wick,24/08/2017 01:00,12.2,8,,,0,,100,,280,Dry,1008,1,19,,,,12.2,
Wick,24/08/2017 02:00,11.6,7,,,0,,100,,270,Dry,1008,5,40,,,,11.6,
Wick,24/08/2017 03:00,11.7,8,,,0,,99,,270,Dry,1008,1,45,,,,11.6,
Wick,24/08/2017 04:00,11.9,6,,,0,,97,,270,Dry,1008,5,50,,,,11.5,
Wick,24/08/2017 05:00,11.4,5,,,0,,96,,280,Dry,1008,3,40,,,,10.8,
Wick,24/08/2017 06:00,12.3,7,11.2,,0,0,96,,250,Dry,1008,8,50,,,,11.7,
Wick,24/08/2017 07:00,12.8,7,,,0,,94,,270,Dry,1008,3,35,,,,12,
Wick,24/08/2017 08:00,14.7,8,,,0,,90,,270,Dry,1009,3,35,,,,13.1,
Wick,24/08/2017 09:00,15.9,9,,,0,,87,,310,Dry,1009,4,27,,,,13.9,
Wick,24/08/2017 10:00,16.6,10,,,0,,77,,340,Dry,1009,1,35,,,,12.7,
Wick,24/08/2017 11:00,17.4,6,,,0,,71,,300,Dry,1009,3,30,,,,12.2,
Wick,24/08/2017 12:00,15.1,6,,,0,0,86,,170,Dry,1010,5,30,,,,12.9,
Wick,24/08/2017 13:00,15.3,3,,,0.8,,85,,130,Moderate shower,1010,4,22,,,,12.9,
Wick,24/08/2017 14:00,16.1,6,,,0,,82,,170,Rain,1010,5,45,,,,13.1,
Wick,24/08/2017 15:00,16.5,3,,,0,,77,,90,Dry,1010,3,35,,,,12.5,
Wick,24/08/2017 16:00,17.1,1,,,0,,70,,90,Dry,1010,1,45,,,,11.8,
Wick,24/08/2017 17:00,15.8,5,,,0,,78,,130,Dry,1010,1,35,,,,12,
Wick,24/08/2017 18:00,15.9,3,,17.9,0,0.8,74,,200,Dry,1010,3,30,,,,11.3,
Wick,24/08/2017 19:00,14.8,2,,,0,,80,,30,Dry,1010,1,45,,,,11.4,
Wick,24/08/2017 20:00,13.3,1,,,0,,87,,340,Dry,1011,0,45,,,,11.3,
Wick,24/08/2017 21:00,12.5,2,,,0,,93,,230,Dry,1011,2,35,,,,11.5,
Wick,24/08/2017 22:00,13,3,,,0,,93,,140,Dry,1011,1,40,,,,12,
Wick,24/08/2017 23:00,12.1,3,,,0,,93,,180,Dry,1011,0,30,,,,11.1,
Wick,25/08/2017 00:00,11.1,3,,,0,0,95,,200,Dry,1011,0,30,,,,10.4,
Wick,25/08/2017 01:00,9.9,0,,,0,,98,,0,Fog,1011,0,2,,,,9.7,
Wick,25/08/2017 02:00,9.1,7,,,0,,100,,40,Fog thinning,1011,1,1,,,,9.1,
Wick,25/08/2017 03:00,11.6,7,,,0,,100,,70,Moderate drizzle,1011,9,0,,,,11.6,
Wick,25/08/2017 04:00,11.8,8,,,0.2,,100,,70,Moderate drizzle,1011,9,0,,,,11.8,
Wick,25/08/2017 05:00,11.4,9,,,0,,100,,80,Rain,1011,7,1,,,,11.4,
Wick,25/08/2017 06:00,11.6,9,8.9,,0,0.2,100,,90,Thickening fog,1012,9,0,,,,11.6,
Wick,25/08/2017 07:00,11.9,8,,,0,,100,,70,Fog,1012,8,1,,,,11.9,
Wick,25/08/2017 08:00,12,9,,,0,,100,,80,Fog,1012,8,0,,,,12,
Wick,25/08/2017 09:00,12.3,8,,,0,,100,,90,Fog,1013,8,1,,,,12.3,
Wick,25/08/2017 10:00,12.6,10,,,0,,100,,90,Fog,1013,8,35,,,,12.6,
Wick,25/08/2017 11:00,12.9,9,,,0,,98,,90,Dry,1013,8,40,,,,12.7,
Wick,25/08/2017 12:00,13,9,,,0,0,94,,90,Dry,1013,8,50,,,,12.2,
Wick,25/08/2017 13:00,13.4,10,,,0,,93,,90,Dry,1014,8,45,,,,12.4,
Wick,25/08/2017 14:00,13.7,10,,,0,,91,,80,Dry,1013,6,23,,,,12.3,
Wick,25/08/2017 15:00,14.6,13,,,0,,91,,70,Dry,1013,7,19,,,,13.2,
Wick,25/08/2017 16:00,14,12,,,0,,91,,80,Dry,1013,8,40,,,,12.6,
Wick,25/08/2017 17:00,13.9,10,,,0,,91,,80,Dry,1013,8,27,,,,12.5,
Wick,25/08/2017 18:00,13.8,8,,14.8,0,0,90,,60,Dry,1013,8,27,,,,12.3,
Wick,25/08/2017 19:00,13.5,10,,,0,,96,,60,Dry,1014,5,14,,,,12.9,
Wick,25/08/2017 20:00,13.4,10,,,0,,96,,60,Dry,1014,8,11,,,,12.9,
Wick,25/08/2017 21:00,13.3,13,,,0,,96,,60,Dry,1014,8,13,,,,12.7,
Wick,25/08/2017 22:00,13.3,13,,,0,,94,,70,Dry,1014,8,14,,,,12.5,
Wick,25/08/2017 23:00,13.1,13,,,0,,95,,60,Dry,1014,8,16,,,,12.4,
Wick,26/08/2017 00:00,12.9,13,,,0,0,95,,50,Dry,1014,7,15,,,,12.2,
Wick,26/08/2017 01:00,12.9,14,,,0,,94,,60,Dry,1013,8,16,,,,12,
Wick,26/08/2017 02:00,12.7,14,,,0,,96,,50,Dry,1013,8,16,,,,12.1,
Wick,26/08/2017 03:00,12.6,13,,,0,,97,,40,Dry,1013,8,16,,,,12.2,
Wick,26/08/2017 04:00,12.5,13,,,0,,97,,30,Dry,1013,8,20,,,,12.1,
Wick,26/08/2017 05:00,12.2,14,,,0,,98,,30,Rain,1014,8,21,,,,12,
Wick,26/08/2017 06:00,12.2,14,12.1,,0,0,96,,50,Dry,1014,8,20,,,,11.6,
Wick,26/08/2017 07:00,12.3,9,,,0,,94,,20,Dry,1014,8,21,,,,11.5,
Wick,26/08/2017 08:00,12.9,12,,,0,,92,,40,Dry,1014,1,30,,,,11.7,
Wick,26/08/2017 09:00,13.2,10,,,0,,90,,20,Dry,1014,3,30,,,,11.7,
Wick,26/08/2017 10:00,13.5,10,,,0,,93,,10,Dry,1014,4,30,,,,12.4,
Wick,26/08/2017 11:00,13.8,8,,,0,,88,,30,Dry,1015,1,25,,,,12,
Wick,26/08/2017 12:00,14,9,,,0,0,88,,40,Dry,1015,2,23,,,,12.1,
Wick,26/08/2017 13:00,14.1,9,,,0,,86,,30,Dry,1015,1,24,,,,11.9,
Wick,26/08/2017 14:00,13.8,9,,,0,,82,,20,Dry,1015,1,19,,,,10.8,
Wick,26/08/2017 15:00,13.6,6,,,0,,79,,20,Dry,1015,7,30,,,,10.2,
Wick,26/08/2017 16:00,13.5,5,,,0,,80,,350,Dry,1015,7,26,,,,10.2,
Wick,26/08/2017 17:00,13.9,7,,,0,,75,,60,Dry,1015,1,45,,,,9.7,
Wick,26/08/2017 18:00,13.6,3,,14.5,0,0,67,,80,Dry,1015,0,25,,,,7.7,
Wick,26/08/2017 19:00,12.6,2,,,0,,80,,110,Dry,1015,0,30,,,,9.4,
Wick,26/08/2017 20:00,12.7,3,,,0,,81,,120,Dry,1015,7,35,,,,9.7,
Wick,26/08/2017 21:00,12.1,3,,,0,,84,,150,Dry,1015,4,40,,,,9.6,
Wick,26/08/2017 22:00,12.1,5,,,0,,89,,130,Dry,1015,5,28,,,,10.4,
Wick,26/08/2017 23:00,11.8,2,,,0,,91,,180,Dry,1015,7,30,,,,10.4,
Wick,27/08/2017 00:00,11.5,3,,,0,0,93,,150,Dry,1015,2,22,,,,10.5,
Wick,27/08/2017 01:00,11.1,3,,,0,,96,,200,Dry,1015,5,24,,,,10.5,
Wick,27/08/2017 02:00,12.5,6,,,0,,92,,170,Dry,1015,7,30,,,,11.3,
Wick,27/08/2017 03:00,12.3,7,,,0,,93,,170,Dry,1014,7,27,,,,11.3,
Wick,27/08/2017 04:00,12.7,9,,,0,,94,,160,Dry,1014,7,22,,,,11.9,
Wick,27/08/2017 05:00,12.8,5,,,0,,94,,160,Dry,1014,4,22,,,,12,
Wick,27/08/2017 06:00,12.9,3,10,,0,0,97,,140,Dry,1014,1,23,,,,12.5,
Wick,27/08/2017 07:00,13.2,7,,,0,,96,,160,Dry,1014,1,21,,,,12.6,
Wick,27/08/2017 08:00,13.8,10,,,0,,91,,180,Dry,1014,5,30,,,,12.5,
Wick,27/08/2017 09:00,14.3,12,,,0,,90,,190,Dry,1014,1,30,,,,12.7,
Wick,27/08/2017 10:00,14.7,10,,,0,,86,,190,Dry,1014,7,35,,,,12.5,
Wick,27/08/2017 11:00,16.2,12,,,0,,79,,180,Dry,1013,2,45,,,,12.6,
Wick,27/08/2017 12:00,17.2,13,,,0,0,65,,210,Dry,1013,1,40,,,,10.7,
Wick,27/08/2017 13:00,17.5,17,,,0,,68,,190,Dry,1013,1,40,,,,11.6,
Wick,27/08/2017 14:00,17.6,15,,,0,,70,,200,Dry,1012,4,50,,,,12.1,
Wick,27/08/2017 15:00,17.4,14,,,0,,69,,190,Dry,1012,1,30,,,,11.8,
Wick,27/08/2017 16:00,16.7,13,,,0,,71,,190,Dry,1012,6,45,,,,11.5,
Wick,27/08/2017 17:00,16.7,12,,,0,,72,,200,Dry,1012,3,50,,,,11.8,
Wick,27/08/2017 18:00,15.4,8,,18.1,0,0,82,,140,Dry,1011,7,40,,,,12.4,
Wick,27/08/2017 19:00,15.6,3,,,0,,81,,160,Dry,1011,7,45,,,,12.5,
Wick,27/08/2017 20:00,15.2,6,,,0,,81,,180,Dry,1011,5,50,,,,12,
Wick,27/08/2017 21:00,14.7,6,,,0,,83,,190,Dry,1011,0,50,,,,12,
Wick,27/08/2017 22:00,14.6,12,,,0,,81,,200,Dry,1010,0,40,,,,11.5,
Wick,27/08/2017 23:00,14.3,10,,,0,,84,,200,Dry,1010,0,40,,,,11.7,
Wick,28/08/2017 00:00,13.7,15,,,0.4,0.4,93,,190,Moderate shower,1009,7,13,,,,12.7,
Wick,28/08/2017 01:00,13.5,16,,,1.4,,97,24,180,Moderate rain,1008,8,14,,,,13.1,
Wick,28/08/2017 02:00,13.8,13,,,0.2,,97,,170,Light rain,1007,8,15,,,,13.4,
Wick,28/08/2017 03:00,14.3,14,,,0.4,,94,,170,Light rain,1006,1,21,,,,13.4,
Wick,28/08/2017 04:00,14.9,17,,,0.6,,90,,160,Light rain,1005,0,15,,,,13.3,
Wick,28/08/2017 05:00,14.8,16,,,0,,91,,160,Rain,1005,8,28,,,,13.4,
Wick,28/08/2017 06:00,15.2,13,13.4,,0,2.6,90,,160,Rain,1004,4,25,,,,13.6,
Wick,28/08/2017 07:00,15.5,9,,,0,,91,,180,Rain,1004,3,25,,,,14.1,
Wick,28/08/2017 08:00,15.4,8,,,0,,93,,170,Rain,1004,8,29,,,,14.4,
Wick,28/08/2017 09:00,16.5,15,,,0,,85,,210,Dry,1004,2,45,,,,14.1,
Wick,28/08/2017 10:00,17.2,20,,,0,,80,,210,Dry,1004,1,50,,,,13.9,
Wick,28/08/2017 11:00,18.4,21,,,0,,78,30,180,Dry,1004,1,50,,,,14.5,
Wick,28/08/2017 12:00,17.6,17,,,0.2,0.2,84,29,220,Moderate shower,1004,4,5,,,,14.9,
Wick,28/08/2017 13:00,17.6,21,,,0.2,,79,29,270,Rain,1005,5,50,,,,14.1,
Wick,28/08/2017 14:00,17.3,23,,,0,,77,33,260,Dry,1005,1,35,,,,13.3,
Wick,28/08/2017 15:00,18.4,25,,,0,,72,33,260,Dry,1006,1,18,,,,13.3,
Wick,28/08/2017 16:00,17.5,22,,,0,,63,36,250,Dry,1006,3,18,,,,10.6,
Wick,28/08/2017 17:00,16.7,24,,,0,,63,35,260,Dry,1007,1,28,,,,9.8,
Wick,28/08/2017 18:00,15.2,14,,18.8,0,0.2,68,29,230,Dry,1007,1,30,,,,9.4,
Wick,28/08/2017 19:00,14.7,15,,,0,,68,,250,Dry,1008,1,22,,,,9,
Wick,28/08/2017 20:00,12.5,14,,,0,,66,,250,Dry,1008,1,25,,,,6.5,
Wick,28/08/2017 21:00,10.8,0,,,0,,74,,0,Dry,1009,0,23,,,,6.4,
Wick,28/08/2017 22:00,10.9,0,,,0,,78,,0,Dry,1009,0,20,,,,7.3,
Wick,28/08/2017 23:00,11.7,0,,,0,,74,,0,Dry,1009,3,26,,,,7.4,
Wick,29/08/2017 00:00,11,0,,,0,0,78,,0,Dry,1009,0,26,,,,7.4,
Wick,29/08/2017 01:00,10.7,0,,,0,,82,,0,Dry,1009,0,24,,,,7.8,
Wick,29/08/2017 02:00,10,0,,,0,,83,,0,Dry,1009,0,19,,,,7.4,
Wick,29/08/2017 03:00,10.1,0,,,0,,79,,0,Dry,1009,0,19,,,,6.8,
Wick,29/08/2017 04:00,10.9,0,,,0,,82,,0,Dry,1008,6,22,,,,8,
Wick,29/08/2017 05:00,10.8,10,,,0,,84,,190,Dry,1008,6,21,,,,8.3,
Wick,29/08/2017 06:00,10.5,13,9.9,,0,0,79,,200,Dry,1008,1,19,,,,7.2,
Wick,29/08/2017 07:00,11.1,13,,,0,,85,,190,Dry,1008,3,18,,,,8.7,
Wick,29/08/2017 08:00,11.9,13,,,0,,79,,200,Dry,1008,6,23,,,,8.5,
Wick,29/08/2017 09:00,13.2,16,,,0,,68,,210,Dry,1008,1,23,,,,7.5,
Wick,29/08/2017 10:00,14.1,17,,,0,,65,,210,Dry,1007,2,20,,,,7.7,
Wick,29/08/2017 11:00,14,18,,,0,,67,,210,Dry,1007,5,21,,,,8,
Wick,29/08/2017 12:00,15.6,14,,,0,0,67,,200,Dry,1007,4,27,,,,9.6,
Wick,29/08/2017 13:00,14.7,17,,,0,,65,,190,Dry,1007,1,26,,,,8.3,
Wick,29/08/2017 14:00,14.9,15,,,0,,58,32,220,Dry,1006,6,26,,,,6.9,
Wick,29/08/2017 15:00,15.8,20,,,0,,60,29,240,Dry,1006,1,30,,,,8.2,
Wick,29/08/2017 16:00,15.9,22,,,0,,52,31,250,Dry,1006,3,27,,,,6.3,
Wick,29/08/2017 17:00,13.8,16,,,0,,65,29,240,Dry,1006,7,40,,,,7.5,
Wick,29/08/2017 18:00,13.3,21,,16.3,0,0,64,29,240,Dry,1006,2,30,,,,6.8,
Wick,29/08/2017 19:00,12.3,15,,,0,,66,30,230,Dry,1006,5,45,,,,6.3,
Wick,29/08/2017 20:00,11.2,12,,,0,,75,,230,Dry,1006,1,30,,,,7,
Wick,29/08/2017 21:00,11.6,9,,,0,,75,,210,Dry,1006,0,12,,,,7.5,
Wick,29/08/2017 22:00,10.9,10,,,0,,77,,200,Dry,1006,0,35,,,,7.2,
Wick,29/08/2017 23:00,10.9,13,,,0,,77,,210,Dry,1006,0,30,,,,7.2,
Wick,30/08/2017 00:00,10.5,13,,,0,0,86,,210,Dry,1006,0,30,,,,8.3,
Wick,30/08/2017 01:00,10.4,14,,,0,,86,,200,Dry,1005,0,40,,,,8.2,
Wick,30/08/2017 02:00,10.5,13,,,0,,89,,200,Dry,1006,0,28,,,,8.8,
Wick,30/08/2017 03:00,10.5,13,,,0,,89,,200,Dry,1006,0,30,,,,8.8,
Wick,30/08/2017 04:00,10.4,14,,,0,,87,,210,Dry,1005,0,30,,,,8.4,
Wick,30/08/2017 05:00,10.6,15,,,0,,84,,210,Dry,1006,1,30,,,,8.1,
Wick,30/08/2017 06:00,10.5,15,10.1,,0,0,83,,220,Dry,1006,1,30,,,,7.9,
Wick,30/08/2017 07:00,11.8,8,,,0,,80,,210,Dry,1006,1,30,,,,8.6,
Wick,30/08/2017 08:00,13.5,17,,,0,,75,,230,Dry,1006,1,50,,,,9.2,
Wick,30/08/2017 09:00,14.7,17,,,0,,71,,230,Dry,1007,1,26,,,,9.7,
Wick,30/08/2017 10:00,15,13,,,,,,,230,-,,1,10,,,,9,
Wick,30/08/2017 11:00,15,9,,,,,,,200,-,,3,10,,,,10,
Wick,30/08/2017 12:00,16,8,,,,,,,240,-,,3,10,,,,9,
Wick,30/08/2017 13:00,16,7,,,,,,,220,-,,3,10,,,,10,
Wick,30/08/2017 14:00,15,10,,,,,,,10,-,,3,10,,,,11,
Wick,30/08/2017 15:00,13,6,,,,,,,40,-,,5,10,,,,11,
Wick,30/08/2017 16:00,14,7,,,,,,,100,-,,3,10,,,,12,
Wick,30/08/2017 17:00,14,6,,,,,,,70,-,,3,10,,,,11,
Wick,30/08/2017 18:00,13,5,,,,,,,100,-,,3,10,,,,11,
Wick,30/08/2017 19:00,12,6,,,,,,,,-,,3,10,,,,11,
Wick,30/08/2017 20:00,12,3,,,,,,,150,-,,3,10,,,,11,
Wick,30/08/2017 21:00,11,2,,,,,,,130,-,,5,10,,,,11,
Wick,30/08/2017 22:00,11,3,,,,,,,220,-,,1,10,,,,10,
Wick,30/08/2017 23:00,10,5,,,,,,,210,-,,1,10,,,,9,
Wick,31/08/2017 00:00,10,5,,,,,,,230,-,,0,10,,,,9,
