Site,Date(UTC),Air Temp,Wind Speed,Min Temp,Max Temp,1Hr Precip,6Hr Precip,Rel Humidity,Wind Gust,Wind Direction,Weather,Pressure,Total Cloud,Visibility,Solar Rad,Sunshine,Snow Depth,Dew Point,OLE Temp
Wick,01/09/2019 00:00,9.2,12,,,0,0,93,,230,Dry,1001,1,50,,,,8.2,
Wick,01/09/2019 01:00,10.1,14,,,0,,94,,240,Rain,1002,8,45,,,,9.2,
Wick,01/09/2019 02:00,10.5,13,,,0.2,,94,,250,Rain,1002,7,5,,,,9.7,
Wick,01/09/2019 03:00,10.4,10,,,0.2,,95,,250,Light shower,1003,8,6,,,,9.7,
Wick,01/09/2019 04:00,10.2,14,,,0.6,,95,,250,Rain,1003,7,45,,,,9.5,
Wick,01/09/2019 05:00,9.9,15,,,2.8,,98,,280,Moderate shower,1004,1,6,,,,9.6,
Wick,01/09/2019 06:00,9.3,9,9,,2.2,6,98,,280,Rain,1005,6,35,,,,9.1,
Wick,01/09/2019 07:00,10.4,12,,,0,,97,,290,Dry,1006,8,19,,,,10,
Wick,01/09/2019 08:00,11.6,12,,,0,,90,,310,Dry,1007,1,21,,,,10.1,
Wick,01/09/2019 09:00,12.1,15,,,0,,82,,290,Dry,1008,8,26,,,,9.2,
Wick,01/09/2019 10:00,11.6,20,,,0,,74,,300,Dry,1009,7,24,,,,7.2,
Wick,01/09/2019 11:00,12.2,21,,,0,,72,32,290,Dry,1010,6,10,,,,7.4,
Wick,01/09/2019 12:00,12.3,21,,,0,0,73,30,290,Dry,1010,3,19,,,,7.7,
Wick,01/09/2019 13:00,12.8,17,,,0,,72,30,300,Dry,1011,4,40,,,,8,
Wick,01/09/2019 14:00,11.8,16,,,0,,70,,310,Dry,1012,7,30,,,,6.6,
Wick,01/09/2019 15:00,13.5,16,,,0,,64,,310,Dry,1012,6,19,,,,7,
Wick,01/09/2019 16:00,12.1,13,,,0,,69,,300,Dry,1013,1,40,,,,6.6,
Wick,01/09/2019 17:00,12,12,,,0,,70,,300,Dry,1014,7,30,,,,6.9,
Wick,01/09/2019 18:00,10.2,7,,13.8,0,0,78,,260,Dry,1014,2,29,,,,6.6,
Wick,01/09/2019 19:00,10.3,7,,,0,,79,,260,Dry,1015,7,50,,,,6.9,
Wick,01/09/2019 20:00,8.6,3,,,0,,87,,220,Dry,1015,1,45,,,,6.7,
Wick,01/09/2019 21:00,7.2,3,,,0,,88,,240,Dry,1015,4,50,,,,5.5,
Wick,01/09/2019 22:00,7.7,5,,,0,,90,,200,Dry,1015,0,50,,,,6.2,
Wick,01/09/2019 23:00,7.9,7,,,0,,87,,200,Dry,1015,1,50,,,,6,
Wick,02/09/2019 00:00,7.8,6,,,0,0,84,,200,Dry,1015,0,50,,,,5.4,
Wick,02/09/2019 01:00,6.7,8,,,0,,89,,230,Dry,1015,0,50,,,,5.1,
Wick,02/09/2019 02:00,7.2,5,,,0,,87,,220,Dry,1015,5,50,,,,5.3,
Wick,02/09/2019 03:00,7.8,6,,,0,,89,,230,Dry,1014,0,50,,,,6.2,
Wick,02/09/2019 04:00,8.4,9,,,0,,89,,170,Dry,1014,5,50,,,,6.7,
Wick,02/09/2019 05:00,9.2,9,,,0,,89,,190,Dry,1013,8,50,,,,7.5,
Wick,02/09/2019 06:00,9.4,9,6.1,,0,0,89,,190,Dry,1013,7,50,,,,7.7,
Wick,02/09/2019 07:00,9.6,10,,,0,,89,,180,Dry,1012,8,40,,,,7.9,
Wick,02/09/2019 08:00,10.5,12,,,0,,88,,180,Dry,1012,8,23,,,,8.7,
Wick,02/09/2019 09:00,11,15,,,0,,83,,190,Dry,1011,8,40,,,,8.4,
Wick,02/09/2019 10:00,10.8,10,,,0.8,,93,,190,Light rain,1010,8,14,,,,9.8,
Wick,02/09/2019 11:00,10.8,12,,,0.6,,92,,160,Moderate shower,1009,8,5,,,,9.6,
Wick,02/09/2019 12:00,10.8,14,,,2.2,4,97,,150,Light rain,1007,8,6,,,,10.4,
Wick,02/09/2019 13:00,11.8,18,,,0.4,,93,,160,Rain,1006,8,12,,,,10.8,
Wick,02/09/2019 14:00,12.9,16,,,0,,94,,180,Light drizzle,1005,3,15,,,,12.1,
Wick,02/09/2019 15:00,13.7,14,,,0,,94,,190,Rain,1005,8,25,,,,12.9,
Wick,02/09/2019 16:00,14.9,10,,,0.4,,95,,240,Light shower,1005,7,12,,,,14.2,
Wick,02/09/2019 17:00,14.4,14,,,0.2,,95,,260,Rain,1005,8,2,,,,13.7,
Wick,02/09/2019 18:00,14.2,13,,15.4,0.2,1,96,,260,Rain,1005,6,35,,,,13.7,
Wick,02/09/2019 19:00,12.9,13,,,0.4,,98,,290,Rain,1006,8,45,,,,12.7,
Wick,02/09/2019 20:00,11.7,12,,,0,,98,,320,Misty,1007,6,11,,,,11.5,
Wick,02/09/2019 21:00,10.6,13,,,0,,96,,330,Dry,1009,8,45,,,,10.1,
Wick,02/09/2019 22:00,9.5,9,,,0,,94,,320,Dry,1010,6,50,,,,8.6,
Wick,02/09/2019 23:00,7.5,7,,,0,,97,,300,Dry,1011,2,35,,,,7.1,
Wick,03/09/2019 00:00,7.5,10,,,0,0.4,98,,300,Dry,1011,0,40,,,,7.3,
Wick,03/09/2019 01:00,7.5,9,,,0,,98,,290,Dry,1012,0,40,,,,7.3,
Wick,03/09/2019 02:00,7.3,6,,,0,,97,,210,Dry,1013,1,29,,,,7,
Wick,03/09/2019 03:00,7.8,7,,,0,,98,,250,Dry,1013,5,30,,,,7.6,
Wick,03/09/2019 04:00,7.5,6,,,0,,97,,230,Dry,1013,3,35,,,,7.2,
Wick,03/09/2019 05:00,7.6,7,,,0.2,,99,,220,Dry,1013,5,35,,,,7.5,
Wick,03/09/2019 06:00,7.8,5,6.7,,0,0.2,97,,220,Dry,1014,3,50,,,,7.5,
Wick,03/09/2019 07:00,9.8,3,,,0,,94,,220,Dry,1014,7,45,,,,9,
Wick,03/09/2019 08:00,12.1,6,,,0,,88,,190,Dry,1014,1,45,,,,10.2,
Wick,03/09/2019 09:00,12.9,6,,,0,,83,,140,Dry,1014,2,30,,,,10.2,
Wick,03/09/2019 10:00,13.4,9,,,0,,80,,180,Dry,1014,3,26,,,,10.1,
Wick,03/09/2019 11:00,13.1,9,,,0,,85,,150,Dry,1014,8,28,,,,10.8,
Wick,03/09/2019 12:00,13.1,10,,,0,0,83,,130,Dry,1013,7,40,,,,10.3,
Wick,03/09/2019 13:00,13.3,12,,,0,,86,,130,Dry,1013,8,50,,,,11.1,
Wick,03/09/2019 14:00,13.3,12,,,0,,88,,130,Dry,1012,8,35,,,,11.4,
Wick,03/09/2019 15:00,13.5,12,,,0,,90,,130,Dry,1011,8,40,,,,11.9,
Wick,03/09/2019 16:00,13.1,10,,,0,,94,,130,Light shower,1010,8,20,,,,12.2,
Wick,03/09/2019 17:00,13.1,10,,,0,,96,,130,Rain,1008,7,10,,,,12.6,
Wick,03/09/2019 18:00,13.2,10,,13.7,0.4,0.4,98,,140,Rain,1008,8,8,,,,13,
Wick,03/09/2019 19:00,13.3,8,,,0.2,,99,,150,Dry,1007,8,13,,,,13.2,
Wick,03/09/2019 20:00,13.7,7,,,0,,98,,180,Dry,1006,8,16,,,,13.5,
Wick,03/09/2019 21:00,13.8,10,,,0,,96,,210,Dry,1006,1,45,,,,13.3,
Wick,03/09/2019 22:00,13.7,13,,,0,,89,,240,Rain,1006,8,50,,,,12,
Wick,03/09/2019 23:00,11.3,12,,,0,,84,,250,Dry,1006,0,35,,,,8.8,
Wick,04/09/2019 00:00,8.5,13,,,0,0.2,94,,270,Dry,1005,0,27,,,,7.6,
Wick,04/09/2019 01:00,9.3,10,,,0,,87,,230,Dry,1006,1,24,,,,7.3,
Wick,04/09/2019 02:00,9.3,8,,,0,,90,,230,Drizzly rain,1005,5,16,,,,7.8,
Wick,04/09/2019 03:00,10.5,13,,,0,,81,,200,Rain,1004,1,35,,,,7.5,
Wick,04/09/2019 04:00,8.7,7,,,0,,87,,210,Dry,1004,0,27,,,,6.7,
Wick,04/09/2019 05:00,8.3,5,,,0,,88,,210,Dry,1004,0,23,,,,6.5,
Wick,04/09/2019 06:00,8.4,3,7.2,,0,0,94,,210,Dry,1003,0,24,,,,7.6,
Wick,04/09/2019 07:00,10.1,6,,,0.2,,86,,210,Dry,1003,,40,,,,7.9,
Wick,04/09/2019 08:00,11.5,9,,,0,,82,,220,Dry,1003,0,13,,,,8.6,
Wick,04/09/2019 09:00,13.1,8,,,0,,74,,230,Dry,1003,3,21,,,,8.7,
Wick,04/09/2019 10:00,13.9,7,,,0,,68,,230,Dry,1004,1,30,,,,8.1,
Wick,04/09/2019 11:00,14.7,8,,,0,,62,,280,Dry,1004,2,30,,,,7.6,
Wick,04/09/2019 12:00,15.7,13,,,0,0.2,68,,280,Dry,1004,7,17,,,,10,
Wick,04/09/2019 13:00,14.2,16,,,0,,70,,290,Rain,1005,7,35,,,,9,
Wick,04/09/2019 14:00,12.1,20,,,0,,91,,300,Light shower,1005,6,8,,,,10.8,
Wick,04/09/2019 15:00,10.3,32,,,0.2,,91,41,330,Rain,1007,8,8,,,,8.9,
Wick,04/09/2019 16:00,9.7,29,,,0,,91,41,320,Haze,1008,8,6,,,,8.4,
Wick,04/09/2019 17:00,9.3,29,,,0,,91,43,320,Rain,1010,8,8,,,,8,
Wick,04/09/2019 18:00,9,30,,15.7,0.2,0.4,90,43,330,Light shower,1011,8,26,,,,7.5,
Wick,04/09/2019 19:00,8.7,26,,,0,,91,38,310,Light shower,1013,7,4,,,,7.4,
Wick,04/09/2019 20:00,8.4,22,,,0.2,,87,35,310,Rain,1014,5,29,,,,6.4,
Wick,04/09/2019 21:00,8.1,24,,,0,,89,41,330,Rain,1014,6,45,,,,6.4,
Wick,04/09/2019 22:00,8.5,0,,,0,,89,,0,Dry,1015,8,17,,,,6.8,
Wick,04/09/2019 23:00,8.5,0,,,0.2,,76,,0,Rain,1015,7,25,,,,4.7,
Wick,05/09/2019 00:00,8.4,0,,,0.2,0.6,83,,0,Rain,1016,8,20,,,,5.8,
Wick,05/09/2019 01:00,7.8,0,,,0,,84,,0,Rain,1016,5,29,,,,5.4,
Wick,05/09/2019 02:00,7.4,0,,,0,,84,,0,Dry,1017,6,22,,,,5,
Wick,05/09/2019 03:00,6.8,0,,,0,,84,,0,Dry,1017,1,30,,,,4.4,
Wick,05/09/2019 04:00,7.6,0,,,0,,87,,0,Dry,1017,6,35,,,,5.7,
Wick,05/09/2019 05:00,7.4,0,,,0.2,,93,,0,Rain,1017,6,30,,,,6.4,
Wick,05/09/2019 06:00,6.3,0,6.2,,0,0.2,96,,0,Dry,1017,3,24,,,,5.8,
Wick,05/09/2019 07:00,8.3,9,,,0.2,,93,,270,Rain,1016,7,30,,,,7.3,
Wick,05/09/2019 08:00,10,10,,,0.2,,92,,270,Light shower,1016,8,9,,,,8.8,
Wick,05/09/2019 09:00,11.8,16,,,0,,84,,270,Rain,1016,1,25,,,,9.3,
Wick,05/09/2019 10:00,11.8,16,,,0,,83,,260,Dry,1016,7,30,,,,9.1,
Wick,05/09/2019 11:00,12.1,15,,,0.2,,92,,280,Dry,1016,8,30,,,,10.9,
Wick,05/09/2019 12:00,12.9,13,,,0.4,1,94,,290,Rain,1016,8,40,,,,12.1,
Wick,05/09/2019 13:00,13.7,21,,,0,,80,30,280,Dry,1016,8,35,,,,10.5,
Wick,05/09/2019 14:00,14.3,20,,,0,,78,31,280,Dry,1016,8,28,,,,10.6,
Wick,05/09/2019 15:00,13.8,13,,,0,,85,,270,Dry,1015,8,20,,,,11.5,
Wick,05/09/2019 16:00,13.9,17,,,0,,72,,260,Dry,1015,8,15,,,,9.1,
Wick,05/09/2019 17:00,12.9,12,,,0,,76,,260,Dry,1014,7,16,,,,8.8,
Wick,05/09/2019 18:00,12.6,18,,15.1,0,0,75,,250,Dry,1014,8,21,,,,8.4,
Wick,05/09/2019 19:00,12.4,15,,,0,,78,,230,Dry,1013,8,20,,,,8.7,
Wick,05/09/2019 20:00,11.3,12,,,0,,81,31,210,Light shower,1012,8,30,,,,8.2,
Wick,05/09/2019 21:00,10.2,10,,,0.6,,86,,200,Light rain,1011,1,30,,,,8,
Wick,05/09/2019 22:00,10.5,14,,,0.6,,91,,190,Moderate shower,1010,8,10,,,,9.1,
Wick,05/09/2019 23:00,10.8,18,,,0.4,,88,,190,Drizzly rain,1008,8,25,,,,9,
Wick,06/09/2019 00:00,11.3,18,,,0.2,2,86,32,190,Rain,1006,3,27,,,,9.2,
Wick,06/09/2019 01:00,10.8,17,,,0.2,,92,29,200,Rain,1005,8,19,,,,9.7,
Wick,06/09/2019 02:00,11.2,14,,,1,,93,,220,Light shower,1005,8,26,,,,10.2,
Wick,06/09/2019 03:00,11.6,14,,,0.2,,93,,250,Rain,1004,1,35,,,,10.6,
Wick,06/09/2019 04:00,11,14,,,0,,91,,250,Dry,1004,8,30,,,,9.6,
Wick,06/09/2019 05:00,10.5,10,,,0,,87,,240,Dry,1005,8,23,,,,8.5,
Wick,06/09/2019 06:00,10,9,9.9,,0,1,90,,250,Light shower,1005,8,16,,,,8.5,
Wick,06/09/2019 07:00,10.2,8,,,0,,92,,250,Rain,1006,6,17,,,,9,
Wick,06/09/2019 08:00,11.4,20,,,0,,89,,260,Rain,1006,2,30,,,,9.8,
Wick,06/09/2019 09:00,12.6,18,,,0,,87,30,260,Dry,1006,1,30,,,,10.5,
Wick,06/09/2019 10:00,13.8,22,,,0,,78,29,270,Dry,1007,7,30,,,,10.2,
Wick,06/09/2019 11:00,12.9,22,,,0,,81,30,270,Dry,1007,8,5,,,,9.9,
Wick,06/09/2019 12:00,14,20,,,0,0,88,32,270,Rain,1008,5,15,,,,12.2,
Wick,06/09/2019 13:00,13,21,,,0,,85,32,290,Dry,1008,7,35,,,,10.6,
Wick,06/09/2019 14:00,12.5,17,,,0,,89,30,280,Haze,1009,8,5,,,,10.8,
Wick,06/09/2019 15:00,13.3,21,,,0.2,,83,29,300,Dry,1010,1,20,,,,10.6,
Wick,06/09/2019 16:00,12.2,20,,,0,,89,30,300,Dry,1011,1,50,,,,10.5,
Wick,06/09/2019 17:00,11.8,18,,,0,,90,29,310,Haze,1012,5,3,,,,10.3,
Wick,06/09/2019 18:00,11.4,18,,14.9,0,0.2,89,,330,Rain,1014,8,35,,,,9.8,
Wick,06/09/2019 19:00,10.5,21,,,0,,88,29,330,Dry,1015,7,30,,,,8.6,
Wick,06/09/2019 20:00,9.9,15,,,0,,92,,320,Haze,1017,8,5,,,,8.7,
Wick,06/09/2019 21:00,10,14,,,0,,89,,320,Dry,1018,1,35,,,,8.3,
Wick,06/09/2019 22:00,9.6,16,,,0,,79,,330,Dry,1018,8,30,,,,6.3,
Wick,06/09/2019 23:00,7.2,8,,,0,,83,,300,Dry,1019,5,30,,,,4.6,
Wick,07/09/2019 00:00,7.1,8,,,0,0,93,,310,Dry,1020,5,35,,,,6.2,
Wick,07/09/2019 01:00,8.3,13,,,0,,94,,310,Dry,1020,6,30,,,,7.4,
Wick,07/09/2019 02:00,8.6,12,,,0,,89,,320,Dry,1021,6,30,,,,6.9,
Wick,07/09/2019 03:00,8.8,12,,,0,,86,,310,Dry,1021,8,35,,,,6.7,
Wick,07/09/2019 04:00,8.3,9,,,0,,81,,310,Dry,1022,7,45,,,,5.3,
Wick,07/09/2019 05:00,8.4,10,,,0,,86,,310,Dry,1023,7,35,,,,6.3,
Wick,07/09/2019 06:00,8.6,8,5.4,,0,0,84,,310,Dry,1023,8,45,,,,6.1,
Wick,07/09/2019 07:00,9.2,9,,,0,,80,,310,Dry,1024,8,45,,,,6.1,
Wick,07/09/2019 08:00,11,9,,,0,,72,,310,Dry,1025,8,28,,,,6.2,
Wick,07/09/2019 09:00,11,12,,,0,,75,,310,Dry,1025,7,40,,,,6.8,
Wick,07/09/2019 10:00,11.1,14,,,0,,72,,330,Dry,1026,8,26,,,,6.3,
Wick,07/09/2019 11:00,11.4,10,,,0,,67,,310,Dry,1026,7,45,,,,5.5,
Wick,07/09/2019 12:00,11.5,10,,,0,0,66,,330,Dry,1026,8,40,,,,5.5,
Wick,07/09/2019 13:00,11.3,14,,,0,,72,,320,Dry,1027,8,45,,,,6.5,
Wick,07/09/2019 14:00,11.7,13,,,0,,64,,310,Dry,1027,8,50,,,,5.3,
Wick,07/09/2019 15:00,11.8,12,,,0,,65,,330,Dry,1027,8,27,,,,5.6,
Wick,07/09/2019 16:00,12.4,10,,,0,,60,,320,Dry,1027,1,40,,,,5,
Wick,07/09/2019 17:00,11.7,7,,,0,,63,,350,Dry,1027,0,35,,,,5,
Wick,07/09/2019 18:00,10.4,5,,12.7,0,0,70,,360,Dry,1027,0,40,,,,5.2,
Wick,07/09/2019 19:00,8.9,3,,,0,,74,,10,Dry,1027,0,45,,,,4.6,
Wick,07/09/2019 20:00,8.3,2,,,0,,78,,210,Dry,1027,0,45,,,,4.7,
Wick,07/09/2019 21:00,7.4,2,,,0,,80,,210,Dry,1027,6,50,,,,4.2,
Wick,07/09/2019 22:00,7.8,5,,,0,,76,,200,Dry,1026,0,45,,,,4,
Wick,07/09/2019 23:00,6.3,3,,,0,,82,,210,Dry,1026,0,50,,,,3.6,
Wick,08/09/2019 00:00,7,6,,,0,0,84,,190,Dry,1026,0,50,,,,4.6,
Wick,08/09/2019 01:00,7.4,5,,,0,,85,,190,Dry,1025,0,50,,,,5.1,
Wick,08/09/2019 02:00,7.6,5,,,0,,85,,180,Dry,1025,0,45,,,,5.4,
Wick,08/09/2019 03:00,8,5,,,0,,85,,190,Dry,1024,,40,,,,5.8,
Wick,08/09/2019 04:00,8.7,6,,,0,,85,,180,Dry,1024,0,50,,,,6.4,
Wick,08/09/2019 05:00,9.2,7,,,0,,84,,150,Dry,1023,0,45,,,,6.8,
Wick,08/09/2019 06:00,8.7,6,5.6,,0,0,89,,150,Dry,1023,0,40,,,,7.1,
Wick,08/09/2019 07:00,10.6,6,,,0,,84,,160,Dry,1023,0,27,,,,8.1,
Wick,08/09/2019 08:00,11.6,9,,,0,,84,,160,Dry,1022,0,35,,,,9.1,
Wick,08/09/2019 09:00,11.6,12,,,0,,83,,160,Dry,1022,1,30,,,,8.9,
Wick,08/09/2019 10:00,11.7,12,,,0,,81,,160,Dry,1021,1,40,,,,8.6,
Wick,08/09/2019 11:00,12.6,13,,,0,,74,,170,Dry,1021,0,23,,,,8.2,
Wick,08/09/2019 12:00,12.8,13,,,0,0,73,,160,Dry,1020,,24,,,,8.2,
Wick,08/09/2019 13:00,13.1,13,,,0,,71,,160,Dry,1020,0,50,,,,8,
Wick,08/09/2019 14:00,13.1,14,,,0,,72,,140,Dry,1019,0,30,,,,8.2,
Wick,08/09/2019 15:00,13.3,12,,,0,,71,,150,Dry,1018,0,40,,,,8.2,
Wick,08/09/2019 16:00,13.9,12,,,0,,78,,140,Dry,1017,0,25,,,,10.2,
Wick,08/09/2019 17:00,13.6,10,,,0,,82,,160,Dry,1017,6,19,,,,10.6,
Wick,08/09/2019 18:00,13.1,12,,14.3,0,0,84,,130,Dry,1016,8,23,,,,10.5,
Wick,08/09/2019 19:00,12.9,12,,,0,,86,,130,Dry,1016,8,19,,,,10.7,
Wick,08/09/2019 20:00,12.7,9,,,0,,87,,130,Dry,1015,8,24,,,,10.7,
Wick,08/09/2019 21:00,12.4,10,,,0,,89,,140,Dry,1014,8,17,,,,10.8,
Wick,08/09/2019 22:00,12,10,,,0,,94,,140,Rain,1014,1,9,,,,11.1,
Wick,08/09/2019 23:00,11.9,10,,,0.8,,98,,150,Rain,1013,3,4,,,,11.7,
Wick,09/09/2019 00:00,11.8,10,,,1.4,2,99,,140,Light rain,1012,8,5,,,,11.7,
Wick,09/09/2019 01:00,12,7,,,0.8,,100,,140,Light drizzle,1012,7,5,,,,12,
Wick,09/09/2019 02:00,11.8,10,,,0.8,,100,,150,Light drizzle,1011,8,11,,,,11.8,
Wick,09/09/2019 03:00,11.5,12,,,2.6,,100,,150,Moderate rain,1010,8,6,,,,11.5,
Wick,09/09/2019 04:00,11.5,13,,,1.4,,100,,140,Light drizzle,1010,8,6,,,,11.5,
Wick,09/09/2019 05:00,11.5,8,,,0.8,,99,,150,Light drizzle,1010,8,11,,,,11.4,
Wick,09/09/2019 06:00,11.7,7,11.3,,0.2,7,97,,150,Drizzle,1010,6,20,,,,11.3,
Wick,09/09/2019 07:00,12,12,,,0,,95,,140,Dry,1009,6,14,,,,11.3,
Wick,09/09/2019 08:00,11.8,13,,,0.6,,96,,150,Light rain,1009,7,8,,,,11.2,
Wick,09/09/2019 09:00,12,12,,,1.4,,93,,140,Light rain,1010,8,13,,,,11,
Wick,09/09/2019 10:00,12.1,12,,,0.6,,92,,140,Drizzly rain,1010,8,14,,,,10.9,
Wick,09/09/2019 11:00,12.3,14,,,0.2,,91,,140,Rain,1010,6,29,,,,11,
Wick,09/09/2019 12:00,12.7,13,,,0,3,91,,140,Dry,1010,8,14,,,,11.3,
Wick,09/09/2019 13:00,13.1,13,,,0,,87,,140,Dry,1010,7,22,,,,11.1,
Wick,09/09/2019 14:00,13.5,12,,,0,,85,,140,Dry,1010,8,17,,,,11.1,
Wick,09/09/2019 15:00,13.5,12,,,0,,85,,150,Dry,1010,8,30,,,,11.1,
Wick,09/09/2019 16:00,13.4,8,,,0,,86,,130,Dry,1010,7,26,,,,11.2,
Wick,09/09/2019 17:00,13.2,8,,,0,,90,,130,Dry,1011,8,20,,,,11.7,
Wick,09/09/2019 18:00,13.2,7,,14.3,0,0,89,,130,Dry,1011,8,27,,,,11.5,
Wick,09/09/2019 19:00,13.1,10,,,0,,91,,160,Rain,1012,7,30,,,,11.7,
Wick,09/09/2019 20:00,12.7,7,,,0,,96,,170,Dry,1012,7,23,,,,12.2,
Wick,09/09/2019 21:00,12.5,6,,,0,,97,,250,Misty,1013,8,3,,,,12.1,
Wick,09/09/2019 22:00,11.2,17,,,0.4,,99,,280,Rain,1013,7,5,,,,11.1,
Wick,09/09/2019 23:00,10.5,15,,,0,,99,,290,Dry,1014,8,13,,,,10.4,
Wick,10/09/2019 00:00,10.4,14,,,0,0.4,99,,290,Dry,1014,1,35,,,,10.3,
Wick,10/09/2019 01:00,10.5,9,,,0,,98,,290,Dry,1014,8,45,,,,10.2,
Wick,10/09/2019 02:00,10.4,9,,,0,,98,,280,Dry,1015,8,30,,,,10.1,
Wick,10/09/2019 03:00,10.5,7,,,0,,96,,280,Dry,1015,8,30,,,,10,
Wick,10/09/2019 04:00,9.5,9,,,0,,96,,280,Dry,1015,6,25,,,,9,
Wick,10/09/2019 05:00,7.5,9,,,0,,97,,270,Dry,1015,1,22,,,,7.2,
Wick,10/09/2019 06:00,6.7,10,6.7,,0,0,98,,260,Dry,1015,0,22,,,,6.5,
Wick,10/09/2019 07:00,7.7,7,,,0,,98,,260,Dry,1016,0,22,,,,7.5,
Wick,10/09/2019 08:00,10.4,6,,,0,,95,,250,Dry,1016,0,35,,,,9.7,
Wick,10/09/2019 09:00,12.6,8,,,0,,79,,240,Dry,1016,0,23,,,,9.1,
Wick,10/09/2019 10:00,13.5,6,,,0,,75,,230,Dry,1015,4,30,,,,9.2,
Wick,10/09/2019 11:00,13.6,12,,,0,,71,,180,Dry,1014,1,21,,,,8.6,
Wick,10/09/2019 12:00,13.4,15,,,0,0,69,,190,Dry,1014,5,18,,,,8,
Wick,10/09/2019 13:00,13.2,14,,,0,,69,,180,Dry,1013,7,30,,,,7.8,
Wick,10/09/2019 14:00,13.5,15,,,0,,72,,170,Dry,1012,6,30,,,,8.6,
Wick,10/09/2019 15:00,13.6,14,,,0,,75,,140,Dry,1010,7,45,,,,9.4,
Wick,10/09/2019 16:00,13,13,,,0,,79,,140,Dry,1009,8,40,,,,9.6,
Wick,10/09/2019 17:00,13.3,12,,,0,,76,,150,Dry,1007,8,35,,,,9.3,
Wick,10/09/2019 18:00,13.6,18,,14.3,0,0,72,29,180,Dry,1005,8,27,,,,8.7,
Wick,10/09/2019 19:00,12.3,21,,,1,,85,32,180,Moderate shower,1004,8,7,,,,10,
Wick,10/09/2019 20:00,11.5,22,,,3,,93,35,170,Moderate rain,1002,7,8,,,,10.5,
Wick,10/09/2019 21:00,12.3,22,,,1.6,,90,38,170,Rain,1000,1,22,,,,10.8,
Wick,10/09/2019 22:00,12.4,20,,,0,,91,33,170,Dry,999,8,17,,,,11,
Wick,10/09/2019 23:00,12.8,15,,,0,,90,31,150,Dry,998,1,19,,,,11.3,
Wick,11/09/2019 00:00,13.6,25,,,0,6,87,39,190,Dry,997,0,50,,,,11.6,
Wick,11/09/2019 01:00,13.8,20,,,0,,88,30,200,Dry,997,8,40,,,,12,
Wick,11/09/2019 02:00,13.5,17,,,0,,93,29,190,Dry,997,4,30,,,,12.4,
Wick,11/09/2019 03:00,13.6,28,,,0,,90,40,240,Haze,997,6,6,,,,12.1,
Wick,11/09/2019 04:00,12.5,6,,,0,,87,29,190,Dry,998,5,45,,,,10.4,
Wick,11/09/2019 05:00,12.4,14,,,0,,85,,240,Dry,998,7,50,,,,10.1,
Wick,11/09/2019 06:00,12.2,18,11.4,,0,0,86,,220,Dry,998,6,26,,,,10,
Wick,11/09/2019 07:00,12.1,9,,,0,,87,,200,Rain,999,7,35,,,,10.1,
Wick,11/09/2019 08:00,13.4,15,,,0,,82,,220,Dry,1000,5,14,,,,10.4,
Wick,11/09/2019 09:00,12.6,15,,,0,,91,30,240,Dry,1001,5,22,,,,11.3,
Wick,11/09/2019 10:00,14.5,22,,,0.2,,75,32,240,Dry,1001,0,19,,,,10.2,
Wick,11/09/2019 11:00,15.3,22,,,0,,66,32,240,Dry,1002,1,30,,,,9,
Wick,11/09/2019 12:00,15.6,25,,,0,0.2,71,37,240,Dry,1003,1,21,,,,10.5,
Wick,11/09/2019 13:00,15.8,23,,,0,,72,36,250,Dry,1003,1,26,,,,10.9,
Wick,11/09/2019 14:00,15.4,21,,,0,,74,37,240,Dry,1004,4,29,,,,10.8,
Wick,11/09/2019 15:00,14,23,,,0,,81,33,250,Rain,1006,4,15,,,,10.8,
Wick,11/09/2019 16:00,14.1,15,,,0,,77,,250,Dry,1006,1,35,,,,10.2,
Wick,11/09/2019 17:00,14.5,22,,,0,,71,33,250,Dry,1007,7,30,,,,9.4,
Wick,11/09/2019 18:00,14.2,23,,16.2,0,0,73,31,240,Dry,1007,8,30,,,,9.6,
Wick,11/09/2019 19:00,13.3,13,,,0,,79,30,230,Dry,1009,7,45,,,,9.8,
Wick,11/09/2019 20:00,12.6,13,,,0,,83,,230,Dry,1009,8,50,,,,9.9,
Wick,11/09/2019 21:00,12.3,10,,,0,,81,,210,Dry,1010,7,40,,,,9.2,
Wick,11/09/2019 22:00,12.3,20,,,0,,79,,240,Dry,1010,7,45,,,,8.9,
Wick,11/09/2019 23:00,11.7,7,,,0,,83,,160,Dry,1011,7,45,,,,9,
Wick,12/09/2019 00:00,11.1,13,,,0,0,89,,210,Dry,1011,1,45,,,,9.4,
Wick,12/09/2019 01:00,11.5,12,,,0,,86,,230,Rain,1012,4,35,,,,9.3,
Wick,12/09/2019 02:00,11.7,12,,,0,,85,,220,Dry,1012,8,40,,,,9.3,
Wick,12/09/2019 03:00,11.6,15,,,0,,84,,220,Dry,1012,8,45,,,,9,
Wick,12/09/2019 04:00,11.2,13,,,0,,84,,220,Dry,1012,7,45,,,,8.7,
Wick,12/09/2019 05:00,11.8,14,,,0,,79,,220,Dry,1012,8,45,,,,8.4,
Wick,12/09/2019 06:00,11.2,10,10.7,,0,0,86,,210,Dry,1012,7,45,,,,9,
Wick,12/09/2019 07:00,11.6,14,,,0,,81,,220,Dry,1013,8,45,,,,8.6,
Wick,12/09/2019 08:00,12.1,13,,,0,,77,,220,Dry,1013,8,40,,,,8.3,
Wick,12/09/2019 09:00,12.6,13,,,0,,76,,220,Fog,1014,5,45,,,,8.6,
Wick,12/09/2019 10:00,12.4,16,,,0,,84,,230,Rain,1014,8,40,,,,9.9,
Wick,12/09/2019 11:00,13.4,20,,,0,,78,,220,Haze,1014,8,5,,,,9.7,
Wick,12/09/2019 12:00,13.9,17,,,0,0,75,30,250,Dry,1015,7,50,,,,9.6,
Wick,12/09/2019 13:00,13.7,20,,,0,,70,,250,Dry,1015,8,45,,,,8.4,
Wick,12/09/2019 14:00,14.5,21,,,0,,65,36,270,Dry,1016,5,40,,,,8.2,
Wick,12/09/2019 15:00,11.9,22,,,0.2,,90,30,280,Light shower,1017,7,23,,,,10.4,
Wick,12/09/2019 16:00,13.1,18,,,0.2,,78,,280,Rain,1017,2,35,,,,9.5,
Wick,12/09/2019 17:00,12.3,22,,,0,,76,32,270,Dry,1018,3,18,,,,8.3,
Wick,12/09/2019 18:00,11.6,17,,15,0,0.4,79,,270,Dry,1019,7,29,,,,8.1,
Wick,12/09/2019 19:00,10,14,,,0,,84,,270,Dry,1020,5,24,,,,7.5,
Wick,12/09/2019 20:00,9,9,,,0,,87,,250,Dry,1021,0,23,,,,7.1,
Wick,12/09/2019 21:00,7.9,9,,,0,,88,,230,Dry,1021,0,28,,,,6.1,
Wick,12/09/2019 22:00,8.9,13,,,0,,87,,250,Dry,1022,0,30,,,,6.9,
Wick,12/09/2019 23:00,9.4,15,,,0,,81,,240,Dry,1022,0,35,,,,6.4,
Wick,13/09/2019 00:00,10,16,,,0,0,81,,240,Dry,1023,3,18,,,,7,
Wick,13/09/2019 01:00,8.4,8,,,0,,88,,210,Rain,1024,1,40,,,,6.6,
Wick,13/09/2019 02:00,8.9,13,,,0,,87,,250,Dry,1024,1,40,,,,7,
Wick,13/09/2019 03:00,8,12,,,0,,88,,230,Dry,1024,1,35,,,,6.3,
Wick,13/09/2019 04:00,7.8,14,,,0,,88,,240,Dry,1024,0,30,,,,6,
Wick,13/09/2019 05:00,8.6,14,,,0,,85,,240,Dry,1025,0,30,,,,6.3,
Wick,13/09/2019 06:00,9.6,17,7.3,,0,0,79,,250,Dry,1025,0,30,,,,6.2,
Wick,13/09/2019 07:00,10.4,17,,,0,,77,,240,Dry,1026,0,30,,,,6.6,
Wick,13/09/2019 08:00,12.2,16,,,0,,72,,230,Dry,1027,5,27,,,,7.5,
Wick,13/09/2019 09:00,13.1,17,,,0,,70,29,240,Dry,1027,1,26,,,,7.9,
Wick,13/09/2019 10:00,13.7,21,,,0,,66,35,250,Dry,1028,1,18,,,,7.5,
Wick,13/09/2019 11:00,14.5,21,,,0,,68,32,260,Dry,1028,6,25,,,,8.7,
Wick,13/09/2019 12:00,11.4,20,,,1,1,86,35,250,Rain,1029,7,35,,,,9.3,
Wick,13/09/2019 13:00,14.1,21,,,0,,74,30,260,Dry,1029,5,19,,,,9.6,
Wick,13/09/2019 14:00,14.4,17,,,0.2,,70,30,270,Rain,1029,6,21,,,,9.1,
Wick,13/09/2019 15:00,14.9,21,,,0,,66,36,240,Dry,1029,1,25,,,,8.8,
Wick,13/09/2019 16:00,13.2,22,,,0,,74,35,250,Dry,1029,7,18,,,,8.8,
Wick,13/09/2019 17:00,13.3,16,,,0,,74,,260,Dry,1029,3,26,,,,8.8,
Wick,13/09/2019 18:00,12.7,16,,15.6,0,0,74,,230,Dry,1030,6,24,,,,8.3,
Wick,13/09/2019 19:00,11.4,16,,,0,,87,,230,Rain,1030,8,26,,,,9.4,
Wick,13/09/2019 20:00,10.9,8,,,0.2,,92,,230,Rain,1030,8,21,,,,9.8,
Wick,13/09/2019 21:00,11.5,13,,,0,,84,,210,Dry,1030,8,21,,,,9,
Wick,13/09/2019 22:00,11.3,14,,,0,,87,,230,Light shower,1030,7,28,,,,9.3,
Wick,13/09/2019 23:00,11.5,14,,,0,,84,,220,Rain,1029,8,21,,,,9,
Wick,14/09/2019 00:00,11.4,14,,,0,0.2,85,,220,Rain,1029,8,40,,,,9,
Wick,14/09/2019 01:00,11.6,14,,,0,,81,,210,Dry,1029,8,35,,,,8.6,
Wick,14/09/2019 02:00,11.3,13,,,0,,86,,200,Dry,1027,8,30,,,,9.2,
Wick,14/09/2019 03:00,11.4,10,,,0,,84,,210,Dry,1026,0,30,,,,8.8,
Wick,14/09/2019 04:00,11.3,10,,,0,,85,,200,Rain,1025,8,30,,,,8.9,
Wick,14/09/2019 05:00,11.5,12,,,0,,85,,200,Dry,1024,8,40,,,,9.1,
Wick,14/09/2019 06:00,11.6,15,10.9,,0.2,0.2,85,,180,Drizzly rain,1022,8,13,,,,9.2,
Wick,14/09/2019 07:00,12,14,,,0.4,,83,25,160,Light shower,1021,8,13,,,,9.3,
Wick,14/09/2019 08:00,12.2,20,,,1,,81,35,170,Rain,1019,8,18,,,,9.1,
Wick,14/09/2019 09:00,12.1,24,,,0,,83,38,190,Rain,1018,8,30,,,,9.4,
Wick,14/09/2019 10:00,13,31,,,0,,80,43,190,Dry,1016,8,35,,,,9.8,
Wick,14/09/2019 11:00,13.3,30,,,0,,83,44,190,Dry,1014,8,19,,,,10.6,
Wick,14/09/2019 12:00,13.7,25,,,0,1,85,40,200,Dry,1013,8,26,,,,11.4,
Wick,14/09/2019 13:00,14.2,24,,,0,,86,40,200,Dry,1013,7,12,,,,11.9,
Wick,14/09/2019 14:00,14.3,21,,,0,,90,35,210,Dry,1012,7,22,,,,12.8,
Wick,14/09/2019 15:00,14.9,23,,,0,,86,33,210,Dry,1010,7,22,,,,12.6,
Wick,14/09/2019 16:00,15.1,21,,,0,,88,41,210,Dry,1010,8,30,,,,13.3,
Wick,14/09/2019 17:00,15.3,29,,,0,,79,40,250,Dry,1010,7,40,,,,11.7,
Wick,14/09/2019 18:00,12.5,21,,16.1,0.2,1,89,38,260,Rain,1010,8,13,,,,10.9,
Wick,14/09/2019 19:00,13,17,,,0,,81,32,250,Dry,1010,8,22,,,,10,
Wick,14/09/2019 20:00,12.4,22,,,0,,79,33,250,Dry,1010,8,14,,,,8.9,
Wick,14/09/2019 21:00,11.6,23,,,0,,72,38,240,Dry,1010,8,14,,,,6.9,
Wick,14/09/2019 22:00,11.6,20,,,0,,72,31,240,Dry,1010,7,17,,,,6.9,
Wick,14/09/2019 23:00,10.8,20,,,0,,74,37,250,Dry,1010,3,19,,,,6.5,
Wick,15/09/2019 00:00,10.2,16,,,0,0,75,30,250,Dry,1010,4,15,,,,6,
Wick,15/09/2019 01:00,10,16,,,0,,72,30,250,Dry,1011,6,19,,,,5.2,
Wick,15/09/2019 02:00,9.9,32,,,0,,60,48,260,Dry,1010,2,15,,,,2.7,
Wick,15/09/2019 03:00,9.4,28,,,0,,65,47,270,Dry,1011,2,17,,,,3.3,
Wick,15/09/2019 04:00,9.5,29,,,0,,66,49,270,Dry,1010,7,14,,,,3.5,
Wick,15/09/2019 05:00,9.9,32,,,0,,71,47,270,Dry,1011,7,11,,,,4.9,
Wick,15/09/2019 06:00,9.8,33,9.4,,0,0,71,47,270,Dry,1011,8,11,,,,4.9,
Wick,15/09/2019 07:00,10,30,,,0,,66,48,270,Dry,1012,8,15,,,,4,
Wick,15/09/2019 08:00,10.7,26,,,0,,67,43,260,Dry,1014,8,10,,,,5,
Wick,15/09/2019 09:00,11.2,26,,,0,,68,41,280,Dry,1014,4,11,,,,5.6,
Wick,15/09/2019 10:00,11.9,30,,,0,,66,45,280,Haze,1015,8,10,,,,5.9,
Wick,15/09/2019 11:00,11.8,33,,,0,,68,52,280,Dry,1016,8,13,,,,6.2,
Wick,15/09/2019 12:00,11.9,31,,,0,0,63,46,280,Dry,1017,8,14,,,,5.1,
Wick,15/09/2019 13:00,11.9,25,,,0,,64,43,280,Dry,1018,7,12,,,,5.5,
Wick,15/09/2019 14:00,11.9,25,,,0,,60,36,280,Dry,1018,8,14,,,,4.5,
Wick,15/09/2019 15:00,12.2,25,,,0,,64,35,270,Dry,1018,7,16,,,,5.7,
Wick,15/09/2019 16:00,12,26,,,0,,61,33,280,Dry,1018,4,22,,,,4.9,
Wick,15/09/2019 17:00,10.4,16,,,0,,68,38,270,Dry,1018,3,19,,,,4.9,
Wick,15/09/2019 18:00,9.6,9,,13.5,0,0,79,,250,Dry,1018,7,15,,,,6.3,
Wick,15/09/2019 19:00,9.1,14,,,0,,84,,260,Light shower,1019,8,14,,,,6.6,
Wick,15/09/2019 20:00,8.5,13,,,0,,86,,260,Rain,1019,8,22,,,,6.3,
Wick,15/09/2019 21:00,8.2,8,,,0,,84,,200,Rain,1019,8,35,,,,5.7,
Wick,15/09/2019 22:00,7.8,9,,,0,,85,,220,Dry,1019,8,30,,,,5.6,
Wick,15/09/2019 23:00,8.2,9,,,0,,87,,240,Dry,1019,7,30,,,,6.2,
Wick,16/09/2019 00:00,7.9,7,,,0,0,88,,250,Dry,1018,5,35,,,,6.2,
Wick,16/09/2019 01:00,7.6,10,,,0,,87,,240,Dry,1018,8,30,,,,5.7,
Wick,16/09/2019 02:00,7.6,8,,,0,,83,,250,Dry,1018,6,45,,,,5,
Wick,16/09/2019 03:00,7.5,9,,,0,,87,,220,Dry,1018,7,40,,,,5.6,
Wick,16/09/2019 04:00,8.2,9,,,0,,84,,210,Dry,1017,7,35,,,,5.8,
Wick,16/09/2019 05:00,8.8,13,,,0,,83,,240,Dry,1017,8,45,,,,6.1,
Wick,16/09/2019 06:00,8.8,14,6.8,,0,0,84,,250,Dry,1016,7,40,,,,6.3,
Wick,16/09/2019 07:00,9,17,,,0,,86,,260,Dry,1017,6,45,,,,6.9,
Wick,16/09/2019 08:00,10.4,15,,,0,,86,,260,Dry,1017,6,35,,,,8.3,
Wick,16/09/2019 09:00,10.6,17,,,0,,86,30,250,Dry,1017,1,26,,,,8.4,
Wick,16/09/2019 10:00,12.1,25,,,0,,73,35,260,Dry,1016,5,29,,,,7.6,
Wick,16/09/2019 11:00,12.4,20,,,0,,71,30,270,Rain,1017,7,28,,,,7.4,
Wick,16/09/2019 12:00,11.4,16,,,0.8,0.8,94,37,270,Rain,1017,7,18,,,,10.6,
Wick,16/09/2019 13:00,11.9,20,,,0,,82,35,280,Dry,1017,8,17,,,,9,
Wick,16/09/2019 14:00,11.4,20,,,0,,77,29,280,Dry,1017,7,27,,,,7.7,
Wick,16/09/2019 15:00,11.5,23,,,0,,72,38,280,Dry,1017,3,29,,,,6.8,
Wick,16/09/2019 16:00,11.1,23,,,0,,69,35,280,Dry,1017,1,20,,,,5.8,
Wick,16/09/2019 17:00,8.7,14,,,0,,87,35,280,Rain,1018,5,27,,,,6.7,
Wick,16/09/2019 18:00,8.8,16,,13.1,0.2,0.2,78,,280,Dry,1018,0,17,,,,5.2,
Wick,16/09/2019 19:00,7.3,13,,,0,,81,,260,Dry,1018,2,40,,,,4.3,
Wick,16/09/2019 20:00,7.2,8,,,0,,84,,230,Dry,1018,1,19,,,,4.8,
Wick,16/09/2019 21:00,6.5,9,,,0,,81,,250,Dry,1018,0,18,,,,3.5,
Wick,16/09/2019 22:00,7,13,,,0,,82,28,250,Rain,1018,5,24,,,,4.2,
Wick,16/09/2019 23:00,7.3,20,,,0,,88,35,280,Moderate shower,1018,7,7,,,,5.6,
Wick,17/09/2019 00:00,7.7,21,,,0.2,0.2,90,31,290,Rain,1018,7,17,,,,6.3,
Wick,17/09/2019 01:00,7.7,15,,,0,,88,35,290,Rain,1018,8,21,,,,5.9,
Wick,17/09/2019 02:00,7.7,21,,,0.2,,85,33,290,Rain,1018,5,29,,,,5.4,
Wick,17/09/2019 03:00,7.7,22,,,0,,86,39,290,Rain,1019,7,25,,,,5.6,
Wick,17/09/2019 04:00,7.6,20,,,0,,77,31,300,Dry,1019,4,21,,,,3.9,
Wick,17/09/2019 05:00,8.3,21,,,0,,83,31,290,Light shower,1019,6,15,,,,5.7,
Wick,17/09/2019 06:00,8.2,17,5.8,,0,0.2,80,30,300,Rain,1020,7,22,,,,5,
Wick,17/09/2019 07:00,9.1,17,,,0,,79,,300,Dry,1021,7,17,,,,5.7,
Wick,17/09/2019 08:00,9.6,20,,,0,,72,29,310,Dry,1022,4,27,,,,5,
Wick,17/09/2019 09:00,10.8,21,,,0,,72,31,310,Dry,1023,5,13,,,,6,
Wick,17/09/2019 10:00,10.9,23,,,0,,70,31,310,Dry,1024,6,21,,,,5.7,
Wick,17/09/2019 11:00,11.9,24,,,0,,63,31,310,Dry,1024,3,17,,,,5.3,
Wick,17/09/2019 12:00,11.1,21,,,0,0,65,33,300,Dry,1025,6,17,,,,4.9,
Wick,17/09/2019 13:00,12.2,21,,,0,,61,31,310,Dry,1025,2,25,,,,5,
Wick,17/09/2019 14:00,10.9,18,,,0,,71,,310,Dry,1026,1,30,,,,6,
Wick,17/09/2019 15:00,12.1,18,,,0,,68,,300,Dry,1026,8,50,,,,6.4,
Wick,17/09/2019 16:00,10.5,17,,,0,,68,,310,Dry,1026,1,30,,,,5,
Wick,17/09/2019 17:00,10,12,,,0,,73,,300,Dry,1026,1,24,,,,5.4,
Wick,17/09/2019 18:00,9.2,8,,12.4,0,0,79,,300,Dry,1026,8,28,,,,5.8,
Wick,17/09/2019 19:00,8.1,6,,,0,,85,,290,Dry,1027,8,30,,,,5.9,
Wick,17/09/2019 20:00,7.5,6,,,0,,87,,270,Dry,1027,8,35,,,,5.5,
Wick,17/09/2019 21:00,7.5,6,,,0,,88,,240,Dry,1028,8,30,,,,5.7,
Wick,17/09/2019 22:00,7.2,5,,,0,,90,,250,Dry,1028,8,35,,,,5.8,
Wick,17/09/2019 23:00,7.4,6,,,0,,92,,250,Dry,1028,8,35,,,,6.2,
Wick,18/09/2019 00:00,7.6,3,,,0,0,91,,230,Dry,1027,0,30,,,,6.3,
Wick,18/09/2019 01:00,7.5,2,,,0,,90,,240,Dry,1027,7,40,,,,6.1,
Wick,18/09/2019 02:00,7.3,2,,,0,,92,,240,Dry,1027,7,40,,,,6.1,
Wick,18/09/2019 03:00,7.6,3,,,0,,90,,220,Dry,1027,8,50,,,,6.2,
Wick,18/09/2019 04:00,7.9,3,,,0,,82,,220,Dry,1027,8,35,,,,5.1,
Wick,18/09/2019 05:00,7.3,2,,,0,,86,,290,Light shower,1027,8,35,,,,5.2,
Wick,18/09/2019 06:00,6.8,3,6.8,,0.2,0.2,91,,340,Light rain,1027,8,30,,,,5.5,
Wick,18/09/2019 07:00,7.7,2,,,0.2,,87,,180,Light rain,1027,8,16,,,,5.8,
Wick,18/09/2019 08:00,8.5,2,,,0.2,,90,,140,Rain,1028,8,28,,,,7.1,
Wick,18/09/2019 09:00,9.3,7,,,0,,85,,130,Dry,1028,5,35,,,,7,
Wick,18/09/2019 10:00,10.2,8,,,0,,87,,120,Dry,1028,8,27,,,,8.2,
Wick,18/09/2019 11:00,9.8,8,,,0,,90,,130,Dry,1028,8,26,,,,8.3,
Wick,18/09/2019 12:00,10.3,9,,,0,0.4,86,,120,Dry,1028,8,30,,,,8.1,
Wick,18/09/2019 13:00,11.2,10,,,0,,81,,110,Dry,1028,8,40,,,,8.2,
Wick,18/09/2019 14:00,11,10,,,0,,81,,110,Dry,1028,8,29,,,,7.9,
Wick,18/09/2019 15:00,10.9,9,,,0,,80,,120,Dry,1028,8,24,,,,7.7,
Wick,18/09/2019 16:00,10.9,8,,,0,,82,,120,Dry,1028,8,35,,,,8.1,
Wick,18/09/2019 17:00,10.3,8,,,0,,85,,140,Haze,1028,8,14,,,,8,
Wick,18/09/2019 18:00,10.1,7,,11.5,0,0,89,,130,Haze,1028,8,6,,,,8.5,
Wick,18/09/2019 19:00,9.9,6,,,0,,94,,150,Dry,1028,8,35,,,,9.1,
Wick,18/09/2019 20:00,9.9,9,,,0,,98,,130,Misty,1029,7,5,,,,9.6,
Wick,18/09/2019 21:00,10.2,8,,,0,,98,,130,Misty,1029,8,4,,,,9.9,
Wick,18/09/2019 22:00,10.3,10,,,0.2,,99,,130,Misty,1029,8,5,,,,10.2,
Wick,18/09/2019 23:00,10.6,9,,,0.4,,99,,140,Misty,1028,8,6,,,,10.5,
Wick,19/09/2019 00:00,10.9,9,,,0,0.6,100,,150,Misty,1028,8,6,,,,10.9,
Wick,19/09/2019 01:00,10.9,7,,,0.2,,100,,170,Dry,1028,8,25,,,,10.9,
Wick,19/09/2019 02:00,10.9,7,,,0,,99,,190,Misty,1028,8,5,,,,10.8,
Wick,19/09/2019 03:00,11.4,5,,,0,,99,,220,Misty,1027,6,2,,,,11.3,
Wick,19/09/2019 04:00,11.6,3,,,0.2,,99,,210,Misty,1027,7,3,,,,11.5,
Wick,19/09/2019 05:00,11.7,3,,,0,,99,,220,Dry,1027,7,50,,,,11.6,
Wick,19/09/2019 06:00,11.8,6,9.8,,0.2,0.4,100,,260,Dry,1027,7,50,,,,11.8,
Wick,19/09/2019 07:00,12.3,5,,,0,,99,,250,Dry,1028,8,45,,,,12.2,
Wick,19/09/2019 08:00,13.2,6,,,0,,96,,220,Dry,1028,8,50,,,,12.6,
Wick,19/09/2019 09:00,14.3,12,,,0,,87,,230,Dry,1028,7,45,,,,12.3,
Wick,19/09/2019 10:00,14.8,10,,,0,,85,,230,Dry,1028,8,50,,,,12.4,
Wick,19/09/2019 11:00,15,7,,,0,,84,,240,Dry,1028,8,50,,,,12.5,
Wick,19/09/2019 12:00,15.2,10,,,0,0,83,,260,Dry,1027,8,45,,,,12.5,
Wick,19/09/2019 13:00,16,10,,,0,,80,,260,Dry,1027,8,29,,,,12.7,
Wick,19/09/2019 14:00,14.7,7,,,0,,90,,360,Dry,1027,8,45,,,,13.2,
Wick,19/09/2019 15:00,14.2,5,,,0,,89,,10,Dry,1027,8,27,,,,12.5,
Wick,19/09/2019 16:00,14.8,10,,,0,,83,,290,Dry,1027,8,30,,,,12,
Wick,19/09/2019 17:00,14.2,10,,,0,,82,,290,Dry,1027,8,35,,,,11.2,
Wick,19/09/2019 18:00,13.7,9,,16.2,0,0,82,,300,Dry,1027,8,35,,,,10.8,
Wick,19/09/2019 19:00,10.9,7,,,0,,89,,280,Dry,1027,3,28,,,,9.2,
Wick,19/09/2019 20:00,10.2,5,,,0,,94,,290,Dry,1027,1,30,,,,9.4,
Wick,19/09/2019 21:00,9.4,3,,,0,,94,,250,Dry,1027,0,35,,,,8.6,
Wick,19/09/2019 22:00,10.4,5,,,0,,96,,190,Dry,1027,0,22,,,,9.9,
Wick,19/09/2019 23:00,11.6,7,,,0,,98,,150,Dry,1027,0,25,,,,11.4,
Wick,20/09/2019 00:00,11.7,6,,,0,0,98,,140,Dry,1026,0,25,,,,11.4,
Wick,20/09/2019 01:00,11.3,2,,,0,,98,,180,Dry,1026,0,11,,,,11,
Wick,20/09/2019 02:00,9,3,,,0,,96,,190,Thickening fog,1026,2,0,,,,8.5,
Wick,20/09/2019 03:00,7.8,2,,,0,,99,,230,Fog,1025,1,1,,,,7.7,
Wick,20/09/2019 04:00,9.2,5,,,0,,97,,160,Dry,1025,0,45,,,,8.9,
Wick,20/09/2019 05:00,8.7,6,,,0,,94,,150,Dry,1025,0,45,,,,7.8,
Wick,20/09/2019 06:00,10,7,6.1,,0,0,87,,170,Dry,1024,0,50,,,,8,
Wick,20/09/2019 07:00,10.2,6,,,0,,71,,190,Dry,1024,0,30,,,,5.2,
Wick,20/09/2019 08:00,12.9,3,,,0,,71,,180,Dry,1024,0,30,,,,7.8,
Wick,20/09/2019 09:00,14.2,7,,,0,,70,,160,Dry,1024,0,45,,,,9,
Wick,20/09/2019 10:00,14.3,6,,,0,,79,,140,Dry,1024,0,18,,,,10.8,
Wick,20/09/2019 11:00,16,6,,,0,,70,,170,Dry,1024,0,27,,,,10.6,
Wick,20/09/2019 12:00,14.7,10,,,0,0,69,,140,Dry,1023,0,30,,,,9.2,
Wick,20/09/2019 13:00,15.5,9,,,0,,64,,150,Dry,1023,0,45,,,,8.9,
Wick,20/09/2019 14:00,15.8,9,,,0,,52,,160,Dry,1022,0,20,,,,6.2,
Wick,20/09/2019 15:00,14.5,10,,,0,,61,,150,Dry,1021,0,45,,,,7.3,
Wick,20/09/2019 16:00,14.3,6,,,0,,75,,120,Dry,1020,0,45,,,,10.1,
Wick,20/09/2019 17:00,13.6,7,,,0,,91,,110,Dry,1020,0,10,,,,12.3,
Wick,20/09/2019 18:00,12.9,3,,17.7,0,0,94,,110,Misty,1020,0,10,,,,12,
Wick,20/09/2019 19:00,12.2,5,,,0,,96,,100,Misty,1020,0,8,,,,11.7,
Wick,20/09/2019 20:00,12,5,,,0,,98,,100,Dry,1019,0,15,,,,11.8,
Wick,20/09/2019 21:00,12.2,7,,,0,,98,,150,Fog,1019,0,26,,,,11.9,
Wick,20/09/2019 22:00,13,7,,,0,,88,,130,Dry,1018,0,35,,,,11.1,
Wick,20/09/2019 23:00,13.4,8,,,0,,84,,150,Dry,1018,0,35,,,,10.8,
Wick,21/09/2019 00:00,13,8,,,0,0,86,,140,Dry,1017,0,30,,,,10.8,
Wick,21/09/2019 01:00,14.2,7,,,0,,79,,160,Dry,1017,0,30,,,,10.7,
Wick,21/09/2019 02:00,13.9,10,,,0,,80,,150,Dry,1017,0,30,,,,10.6,
Wick,21/09/2019 03:00,13.6,14,,,0,,85,,140,Dry,1016,0,14,,,,11.3,
Wick,21/09/2019 04:00,13.5,13,,,0,,85,,140,Dry,1015,0,14,,,,11.1,
Wick,21/09/2019 05:00,13.1,9,,,0,,88,,130,Dry,1015,0,13,,,,11.3,
Wick,21/09/2019 06:00,12.9,12,9.2,,0,0,89,,140,Dry,1015,0,17,,,,11.3,
Wick,21/09/2019 07:00,12.8,13,,,0,,90,,140,Dry,1014,0,19,,,,11.3,
Wick,21/09/2019 08:00,13.2,10,,,0,,90,,140,Dry,1015,0,19,,,,11.7,
Wick,21/09/2019 09:00,13.6,14,,,0,,86,,140,Dry,1014,0,15,,,,11.4,
Wick,21/09/2019 10:00,14.1,14,,,0,,84,,130,Dry,1014,0,16,,,,11.6,
Wick,21/09/2019 11:00,14.5,13,,,0,,83,,140,Dry,1014,0,15,,,,11.8,
Wick,21/09/2019 12:00,14.8,14,,,0,0,82,,140,Dry,1013,0,9,,,,11.8,
Wick,21/09/2019 13:00,15.1,14,,,0,,80,30,130,Dry,1012,0,11,,,,11.7,
Wick,21/09/2019 14:00,14.9,17,,,0,,81,32,140,Haze,1012,0,13,,,,11.8,
Wick,21/09/2019 15:00,15,15,,,0,,80,29,130,Dry,1011,0,13,,,,11.7,
Wick,21/09/2019 16:00,14.7,13,,,0,,82,,140,Dry,1011,0,10,,,,11.8,
Wick,21/09/2019 17:00,13.8,17,,,0,,88,,130,Dry,1011,0,11,,,,12,
Wick,21/09/2019 18:00,13.2,15,,15.5,0,0,92,,130,Haze,1010,3,10,,,,12,
Wick,21/09/2019 19:00,12.9,20,,,0,,94,,130,Misty,1010,0,9,,,,12.1,
Wick,21/09/2019 20:00,12.8,21,,,0,,94,30,130,Misty,1010,0,9,,,,12,
Wick,21/09/2019 21:00,12.8,14,,,0,,91,,140,Haze,1010,0,10,,,,11.5,
Wick,21/09/2019 22:00,12.8,13,,,0,,91,,150,Dry,1009,1,10,,,,11.5,
Wick,21/09/2019 23:00,12.7,6,,,0,,92,,160,Dry,1009,3,12,,,,11.5,
Wick,22/09/2019 00:00,12.6,8,,,0,0,93,,130,Dry,1009,1,11,,,,11.5,
Wick,22/09/2019 01:00,12.5,15,,,0,,94,,130,Dry,1008,2,11,,,,11.6,
Wick,22/09/2019 02:00,12.5,16,,,0,,95,,130,Dry,1007,5,10,,,,11.8,
Wick,22/09/2019 03:00,12.5,18,,,0,,94,,130,Dry,1007,7,11,,,,11.7,
Wick,22/09/2019 04:00,12.8,21,,,0,,93,,120,Dry,1006,8,9,,,,11.7,
Wick,22/09/2019 05:00,12.9,22,,,0,,93,31,120,Dry,1005,8,10,,,,11.9,
Wick,22/09/2019 06:00,12.7,21,12.4,,0,0,96,32,130,Misty,1005,5,9,,,,12.1,
Wick,22/09/2019 07:00,12.9,18,,,0,,95,30,130,Misty,1005,7,8,,,,12.2,
Wick,22/09/2019 08:00,12.9,16,,,0,,96,,130,Misty,1006,8,7,,,,12.4,
Wick,22/09/2019 09:00,12.9,17,,,0,,98,,130,Misty,1005,8,5,,,,12.6,
Wick,22/09/2019 10:00,13.1,18,,,0,,99,,130,Misty,1005,8,5,,,,13,
Wick,22/09/2019 11:00,13.4,15,,,0,,97,,130,Misty,1005,8,5,,,,13,
Wick,22/09/2019 12:00,14.7,12,,,0,0,92,,120,Haze,1005,7,9,,,,13.5,
Wick,22/09/2019 13:00,14.9,12,,,0,,90,,120,Haze,1005,6,10,,,,13.3,
Wick,22/09/2019 14:00,14.9,14,,,0,,88,,120,Dry,1004,5,11,,,,13.1,
Wick,22/09/2019 15:00,14.1,15,,,0,,91,,130,Haze,1004,3,9,,,,12.7,
Wick,22/09/2019 16:00,14.5,14,,,0,,91,,110,Haze,1004,4,7,,,,13.1,
Wick,22/09/2019 17:00,13.7,17,,,0,,94,,110,Misty,1004,7,8,,,,12.8,
Wick,22/09/2019 18:00,13.3,17,,15.3,0,0,96,,110,Misty,1004,8,7,,,,12.7,
Wick,22/09/2019 19:00,13,14,,,0,,97,,110,Misty,1004,8,6,,,,12.6,
Wick,22/09/2019 20:00,12.9,13,,,0,,98,,110,Misty,1004,7,6,,,,12.6,
Wick,22/09/2019 21:00,13,15,,,0,,98,,120,Misty,1004,8,7,,,,12.7,
Wick,22/09/2019 22:00,12.9,12,,,0,,98,,110,Misty,1005,8,7,,,,12.6,
Wick,22/09/2019 23:00,13,13,,,0,,98,,120,Misty,1005,7,8,,,,12.8,
Wick,23/09/2019 00:00,13.1,12,,,0,0,97,,120,Misty,1004,8,7,,,,12.7,
Wick,23/09/2019 01:00,13.1,13,,,0,,98,,120,Misty,1004,8,7,,,,12.8,
Wick,23/09/2019 02:00,13.1,14,,,0,,98,,120,Misty,1004,8,7,,,,12.8,
Wick,23/09/2019 03:00,12.9,15,,,0,,99,,120,Thickening fog,1004,8,1,,,,12.8,
Wick,23/09/2019 04:00,12.8,14,,,0,,100,,110,Fog,1004,8,4,,,,12.8,
Wick,23/09/2019 05:00,12.9,14,,,0,,100,,110,Misty,1004,8,5,,,,12.9,
Wick,23/09/2019 06:00,12.9,13,12.8,,0,0,99,,110,Misty,1003,8,5,,,,12.8,
Wick,23/09/2019 07:00,13,16,,,0,,98,,110,Misty,1003,8,4,,,,12.8,
Wick,23/09/2019 08:00,12.9,15,,,0,,100,,120,Thickening fog,1003,8,1,,,,12.9,
Wick,23/09/2019 09:00,12.9,13,,,0,,100,,120,Light rain,1003,9,0,,,,12.9,
Wick,23/09/2019 10:00,13.2,12,,,0.2,,100,,120,Fog,1003,9,0,,,,13.2,
Wick,23/09/2019 11:00,13.2,14,,,0,,100,,120,Fog thinning,1003,9,0,,,,13.2,
Wick,23/09/2019 12:00,13.5,10,,,0,0.2,100,,130,Fog thinning,1003,9,1,,,,13.5,
Wick,23/09/2019 13:00,13.9,9,,,0,,100,,140,Fog,1003,8,6,,,,13.9,
Wick,23/09/2019 14:00,15,14,,,0,,97,,130,Misty,1003,8,13,,,,14.6,
Wick,23/09/2019 15:00,14.8,12,,,0,,92,,130,Haze,1003,4,10,,,,13.6,
Wick,23/09/2019 16:00,14.4,15,,,0,,91,,130,Dry,1003,0,12,,,,13,
Wick,23/09/2019 17:00,14,14,,,0,,91,,130,Dry,1003,0,15,,,,12.6,
Wick,23/09/2019 18:00,13.7,13,,15.5,0,0,91,,130,Dry,1004,0,15,,,,12.4,
Wick,23/09/2019 19:00,13.5,14,,,0,,90,,130,Dry,1004,0,17,,,,12,
Wick,23/09/2019 20:00,13.1,12,,,0,,92,,130,Dry,1004,0,15,,,,11.9,
Wick,23/09/2019 21:00,13,15,,,0,,94,,130,Dry,1004,0,11,,,,12.1,
Wick,23/09/2019 22:00,12.1,16,,,0,,100,,120,Thickening fog,1004,5,1,,,,12.1,
Wick,23/09/2019 23:00,12.1,14,,,0,,100,,130,Fog,1004,8,4,,,,12.1,
Wick,24/09/2019 00:00,12.2,17,,,0,0,99,,120,Misty,1003,8,4,,,,12.1,
Wick,24/09/2019 01:00,12.3,16,,,0,,98,,120,Misty,1003,2,9,,,,12.1,
Wick,24/09/2019 02:00,12.7,16,,,0,,95,,120,Dry,1002,6,12,,,,12,
Wick,24/09/2019 03:00,12.7,13,,,0,,96,,110,Misty,1002,7,9,,,,12.1,
Wick,24/09/2019 04:00,12.9,14,,,0,,96,,110,Misty,1001,8,8,,,,12.3,
Wick,24/09/2019 05:00,13.1,16,,,0,,96,,120,Misty,1001,4,8,,,,12.6,
Wick,24/09/2019 06:00,13.1,14,11.9,,0,0,97,,110,Rain,1000,8,7,,,,12.7,
Wick,24/09/2019 07:00,13.2,17,,,0,,98,,120,Misty,1000,8,6,,,,13,
Wick,24/09/2019 08:00,13.1,18,,,0,,100,,120,Misty,1000,8,3,,,,13.1,
Wick,24/09/2019 09:00,13.2,16,,,0,,100,,120,Rain,1000,8,4,,,,13.2,
Wick,24/09/2019 10:00,13.2,15,,,0,,100,,120,Misty,1000,8,1,,,,13.2,
Wick,24/09/2019 11:00,13.3,18,,,0,,100,,120,Rain,1000,9,1,,,,13.3,
Wick,24/09/2019 12:00,13.4,12,,,0,0,100,,120,Fog,1000,8,4,,,,13.4,
Wick,24/09/2019 13:00,13.5,14,,,0,,100,,130,Misty,1000,8,2,,,,13.5,
Wick,24/09/2019 14:00,13.3,15,,,0,,100,,120,Thickening fog,999,8,1,,,,13.3,
Wick,24/09/2019 15:00,13.3,14,,,0,,100,,120,Thickening fog,1000,9,1,,,,13.3,
Wick,24/09/2019 16:00,13.2,13,,,0,,100,,120,Thickening fog,1000,9,0,,,,13.2,
Wick,24/09/2019 17:00,13.2,14,,,0,,100,,120,Patchy fog,1000,9,1,,,,13.2,
Wick,24/09/2019 18:00,13.1,9,,13.6,0,0,100,,110,Thickening fog,1000,9,0,,,,13.1,
Wick,24/09/2019 19:00,13,10,,,0,,100,,110,Thickening fog,1000,9,0,,,,13,
Wick,24/09/2019 20:00,13.1,12,,,0,,99,,100,Thickening fog,1000,9,0,,,,13,
Wick,24/09/2019 21:00,13.2,13,,,0,,100,,100,Fog thinning,1000,8,1,,,,13.2,
Wick,24/09/2019 22:00,13.1,16,,,0,,100,,100,Rain,1000,8,2,,,,13.1,
Wick,24/09/2019 23:00,13,14,,,0,,100,,100,Fog,1000,8,2,,,,13,
Wick,25/09/2019 00:00,13,16,,,0,0,100,,90,Misty,1000,8,2,,,,13,
Wick,25/09/2019 01:00,13,20,,,0,,100,,90,Moderate shower,999,8,2,,,,13,
Wick,25/09/2019 02:00,13,20,,,0.2,,100,,100,Rain,999,8,2,,,,13,
Wick,25/09/2019 03:00,13,20,,,0,,100,,100,Rain,999,8,3,,,,13,
Wick,25/09/2019 04:00,13,21,,,0,,100,29,90,Light shower,999,8,2,,,,13,
Wick,25/09/2019 05:00,13,20,,,0.2,,99,,90,Light rain,999,8,4,,,,12.9,
Wick,25/09/2019 06:00,12.9,20,12.9,,0,0.4,100,29,90,Rain,999,8,2,,,,12.9,
Wick,25/09/2019 07:00,13,18,,,0,,100,29,100,Thickening fog,999,9,1,,,,13,
Wick,25/09/2019 08:00,13,18,,,0,,100,30,100,Fog,999,8,4,,,,13,
Wick,25/09/2019 09:00,13.1,18,,,0,,100,,100,Fog,999,8,4,,,,13.1,
Wick,25/09/2019 10:00,13.4,18,,,0,,100,,100,Misty,999,8,2,,,,13.4,
Wick,25/09/2019 11:00,13.3,16,,,0,,100,,110,Fog,999,8,7,,,,13.3,
Wick,25/09/2019 12:00,13.4,18,,,0,0,100,,100,Misty,999,8,8,,,,13.4,
Wick,25/09/2019 13:00,13.9,17,,,0,,98,,120,Fog,999,8,8,,,,13.6,
Wick,25/09/2019 14:00,13.9,20,,,0,,95,29,120,Misty,999,8,7,,,,13.2,
Wick,25/09/2019 15:00,13.7,18,,,0,,96,29,120,Misty,998,8,8,,,,13.2,
Wick,25/09/2019 16:00,13.3,18,,,0,,98,,120,Misty,998,8,3,,,,13.1,
Wick,25/09/2019 17:00,13.3,17,,,0,,99,,120,Misty,998,8,4,,,,13.2,
Wick,25/09/2019 18:00,13.3,18,,14.1,0,0,99,,120,Misty,998,8,5,,,,13.2,
Wick,25/09/2019 19:00,13.3,18,,,0,,99,,120,Misty,998,8,5,,,,13.2,
Wick,25/09/2019 20:00,13.2,20,,,0,,99,,120,Light shower,998,8,6,,,,13.1,
Wick,25/09/2019 21:00,13.2,17,,,0.2,,99,,120,Rain,998,8,8,,,,13.1,
Wick,25/09/2019 22:00,13.2,20,,,0,,98,,120,Misty,997,3,8,,,,13,
Wick,25/09/2019 23:00,13.2,20,,,0,,100,29,120,Fog,997,8,1,,,,13.2,
Wick,26/09/2019 00:00,13.1,20,,,0,0.2,100,30,120,Misty,997,8,6,,,,13.1,
Wick,26/09/2019 01:00,13.2,17,,,0,,99,,120,Misty,996,8,9,,,,13.1,
Wick,26/09/2019 02:00,13.2,18,,,0,,98,29,120,Dry,995,8,10,,,,13,
Wick,26/09/2019 03:00,13.2,22,,,0,,99,31,120,Rain,994,8,3,,,,13.1,
Wick,26/09/2019 04:00,13.2,22,,,0,,100,30,120,Light shower,994,8,4,,,,13.2,
Wick,26/09/2019 05:00,13.2,21,,,0.2,,100,30,120,Rain,993,8,4,,,,13.2,
Wick,26/09/2019 06:00,13.3,21,13.1,,0,0.2,99,32,120,Drizzly rain,992,8,5,,,,13.2,
Wick,26/09/2019 07:00,13.2,20,,,0.8,,100,32,110,Moderate shower,992,8,2,,,,13.2,
Wick,26/09/2019 08:00,13.2,15,,,0.6,,100,,130,Light rain,991,8,6,,,,13.2,
Wick,26/09/2019 09:00,13,15,,,0.4,,100,,120,Light shower,990,8,5,,,,13,
Wick,26/09/2019 10:00,13,16,,,1.6,,100,,120,Moderate rain,990,8,5,,,,13,
Wick,26/09/2019 11:00,13.2,18,,,0.6,,100,,120,Light shower,990,8,7,,,,13.2,
Wick,26/09/2019 12:00,13.5,14,,,0,4,100,,130,Moderate shower,990,8,5,,,,13.5,
Wick,26/09/2019 13:00,14.6,13,,,0,,92,,150,Rain,990,4,10,,,,13.4,
Wick,26/09/2019 14:00,14.4,12,,,0,,83,,160,Dry,990,7,15,,,,11.7,
Wick,26/09/2019 15:00,13.9,12,,,0,,83,,160,Dry,990,8,35,,,,11.2,
Wick,26/09/2019 16:00,14.2,10,,,0,,86,,160,Dry,990,7,14,,,,11.9,
Wick,26/09/2019 17:00,13.7,5,,,0,,86,,180,Dry,991,1,21,,,,11.5,
Wick,26/09/2019 18:00,12.8,0,,14.8,0,0,90,,0,Dry,991,7,15,,,,11.3,
Wick,26/09/2019 19:00,12.7,12,,,0,,88,,180,Drizzly rain,991,1,21,,,,10.8,
Wick,26/09/2019 20:00,11.8,6,,,0,,89,,190,Rain,991,5,30,,,,10.1,
Wick,26/09/2019 21:00,11.8,5,,,0,,86,,170,Dry,992,4,50,,,,9.6,
Wick,26/09/2019 22:00,12,6,,,0,,93,,140,Haze,992,7,5,,,,11,
Wick,26/09/2019 23:00,12.1,6,,,0,,94,,140,Dry,992,8,15,,,,11.3,
Wick,27/09/2019 00:00,11.5,1,,,0,0,94,,180,Misty,992,0,8,,,,10.7,
Wick,27/09/2019 01:00,10.6,5,,,0,,96,,190,Dry,992,3,26,,,,10,
Wick,27/09/2019 02:00,10.4,5,,,0,,95,,170,Dry,992,0,45,,,,9.7,
Wick,27/09/2019 03:00,11.3,5,,,0,,97,,140,Misty,992,7,6,,,,10.9,
Wick,27/09/2019 04:00,10.8,5,,,0,,97,,160,Dry,992,1,15,,,,10.4,
Wick,27/09/2019 05:00,8.9,2,,,0,,97,,60,Fog,992,6,2,,,,8.5,
Wick,27/09/2019 06:00,9.8,2,8.1,,0,0,100,,130,Fog,992,7,7,,,,9.8,
Wick,27/09/2019 07:00,8.4,2,,,0,,99,,260,Misty,992,8,8,,,,8.3,
Wick,27/09/2019 08:00,9.1,2,,,0,,100,,230,Rain,992,1,6,,,,9.1,
Wick,27/09/2019 09:00,11.7,2,,,0,,100,,220,Misty,992,7,9,,,,11.7,
Wick,27/09/2019 10:00,12.9,3,,,0,,95,,140,Dry,992,8,10,,,,12.2,
Wick,27/09/2019 11:00,13.5,6,,,0,,87,,140,Dry,992,7,16,,,,11.5,
Wick,27/09/2019 12:00,14.4,9,,,0,0,76,,140,Dry,993,4,11,,,,10.4,
Wick,27/09/2019 13:00,14.8,12,,,0,,79,,180,Dry,993,1,20,,,,11.2,
Wick,27/09/2019 14:00,13.2,10,,,0,,82,,160,Dry,993,2,25,,,,10.3,
Wick,27/09/2019 15:00,13.5,9,,,0,,83,,160,Dry,993,6,28,,,,10.7,
Wick,27/09/2019 16:00,12.6,8,,,0,,87,,160,Dry,993,2,40,,,,10.5,
Wick,27/09/2019 17:00,12.5,7,,,0,,88,,170,Dry,994,4,40,,,,10.7,
Wick,27/09/2019 18:00,10.8,3,,14.9,0,0,90,,240,Dry,994,4,27,,,,9.3,
Wick,27/09/2019 19:00,10.1,3,,,0,,94,,250,Dry,994,7,21,,,,9.3,
Wick,27/09/2019 20:00,9.2,5,,,0,,97,,270,Fog,995,0,18,,,,8.8,
Wick,27/09/2019 21:00,9,1,,,0,,99,,290,Fog,995,8,1,,,,8.9,
Wick,27/09/2019 22:00,8.8,3,,,0,,100,,290,Fog,995,8,1,,,,8.8,
Wick,27/09/2019 23:00,8.9,5,,,0,,99,,280,Drizzly rain,996,8,13,,,,8.8,
Wick,28/09/2019 00:00,9,3,,,0.8,0.8,100,,280,Light rain,996,7,9,,,,9,
Wick,28/09/2019 01:00,9.3,3,,,0.4,,100,,280,Light rain,996,8,6,,,,9.3,
Wick,28/09/2019 02:00,9.5,6,,,0.6,,100,,280,Light rain,996,7,8,,,,9.5,
Wick,28/09/2019 03:00,9.7,6,,,1,,100,,300,Drizzly rain,996,8,8,,,,9.7,
Wick,28/09/2019 04:00,10.1,7,,,1.2,,100,,300,Light drizzle,996,8,10,,,,10.1,
Wick,28/09/2019 05:00,10.3,7,,,0.6,,100,,300,Light rain,996,7,8,,,,10.3,
Wick,28/09/2019 06:00,10.8,9,8.4,,0.6,4.2,100,,310,Light rain,996,5,8,,,,10.8,
Wick,28/09/2019 07:00,11.1,9,,,1.8,,100,,320,Light rain,996,1,5,,,,11.1,
Wick,28/09/2019 08:00,11.6,8,,,0.4,,99,,330,Light drizzle,997,8,2,,,,11.5,
Wick,28/09/2019 09:00,11.8,10,,,1,,100,,320,Light rain,998,6,9,,,,11.8,
Wick,28/09/2019 10:00,12.1,13,,,0,,99,,320,Rain,998,8,5,,,,12,
Wick,28/09/2019 11:00,12,12,,,1.2,,100,,350,Drizzly rain,999,8,6,,,,12,
Wick,28/09/2019 12:00,12.1,13,,,0,4,99,,360,Rain,999,8,10,,,,12,
Wick,28/09/2019 13:00,12.4,10,,,0,,98,,330,Dry,1000,8,21,,,,12.2,
Wick,28/09/2019 14:00,12.8,10,,,0,,94,,10,Drizzly rain,1000,8,9,,,,12,
Wick,28/09/2019 15:00,13.4,9,,,0,,91,,350,Rain,1000,8,14,,,,12.1,
Wick,28/09/2019 16:00,12.5,9,,,0,,95,,360,Dry,1001,8,12,,,,11.8,
Wick,28/09/2019 17:00,12.3,6,,,0,,98,,340,Misty,1001,8,6,,,,12,
Wick,28/09/2019 18:00,11.8,7,,13.5,0,0,98,,10,Dry,1001,8,10,,,,11.6,
Wick,28/09/2019 19:00,11.1,6,,,0,,99,,360,Misty,1002,8,8,,,,11,
Wick,28/09/2019 20:00,10.6,7,,,0,,100,,280,Fog,1002,7,5,,,,10.6,
Wick,28/09/2019 21:00,11.1,6,,,0,,100,,310,Misty,1002,8,4,,,,11.1,
Wick,28/09/2019 22:00,10.9,5,,,0,,99,,310,Misty,1002,8,4,,,,10.8,
Wick,28/09/2019 23:00,11,3,,,0,,100,,320,Misty,1002,8,8,,,,11,
Wick,29/09/2019 00:00,11.3,5,,,0,0,100,,330,Misty,1002,2,6,,,,11.3,
Wick,29/09/2019 01:00,11.7,6,,,0,,100,,20,Dry,1001,5,12,,,,11.7,
Wick,29/09/2019 02:00,11.4,6,,,0,,99,,20,Dry,1001,8,15,,,,11.3,
Wick,29/09/2019 03:00,11.2,7,,,0,,100,,30,Dry,1000,8,25,,,,11.2,
Wick,29/09/2019 04:00,11,6,,,0,,99,,20,Dry,1000,8,30,,,,10.9,
Wick,29/09/2019 05:00,11.3,8,,,0,,98,,20,Dry,1000,8,30,,,,11.1,
Wick,29/09/2019 06:00,11.5,12,9.9,,0,0,96,,10,Dry,1000,8,28,,,,10.9,
Wick,29/09/2019 07:00,11.5,10,,,0,,95,,10,Dry,1000,7,30,,,,10.8,
Wick,29/09/2019 08:00,12,13,,,0,,95,,20,Dry,1000,8,24,,,,11.3,
Wick,29/09/2019 09:00,12.2,12,,,0,,94,,20,Dry,1000,1,21,,,,11.4,
Wick,29/09/2019 10:00,12.6,14,,,0,,92,,20,Dry,1000,8,30,,,,11.4,
Wick,29/09/2019 11:00,12.7,14,,,0,,93,,10,Dry,1001,8,30,,,,11.6,
Wick,29/09/2019 12:00,12.6,13,,,0,0,90,,20,Dry,1001,8,35,,,,11.1,
Wick,29/09/2019 13:00,13.1,12,,,0,,87,,10,Dry,1001,8,30,,,,11.1,
Wick,29/09/2019 14:00,13,10,,,0,,85,,360,Dry,1001,1,25,,,,10.6,
Wick,29/09/2019 15:00,12.9,13,,,0,,86,,360,Dry,1001,8,30,,,,10.7,
Wick,29/09/2019 16:00,12.4,12,,,0,,85,,350,Dry,1002,8,30,,,,10,
Wick,29/09/2019 17:00,11.9,13,,,0,,87,,340,Dry,1002,8,28,,,,9.9,
Wick,29/09/2019 18:00,11.1,14,,13.8,0,0,89,,310,Dry,1002,8,45,,,,9.4,
Wick,29/09/2019 19:00,10.7,13,,,0,,88,,310,Dry,1002,8,30,,,,8.9,
Wick,29/09/2019 20:00,10.5,9,,,0,,92,,280,Dry,1003,8,35,,,,9.3,
Wick,29/09/2019 21:00,10.6,10,,,0.2,,97,,300,Rain,1003,1,25,,,,10.2,
Wick,29/09/2019 22:00,10.6,13,,,0,,97,,310,Misty,1003,8,28,,,,10.2,
Wick,29/09/2019 23:00,10.4,16,,,0.6,,96,,350,Rain,1004,8,15,,,,9.9,
Wick,30/09/2019 00:00,10,14,,,0,0.8,90,,340,Dry,1004,5,30,,,,8.5,
Wick,30/09/2019 01:00,9.8,14,,,0,,91,,330,Dry,1005,8,35,,,,8.5,
Wick,30/09/2019 02:00,9.1,15,,,0.2,,96,,340,Rain,1005,8,5,,,,8.5,
Wick,30/09/2019 03:00,8.6,13,,,0,,94,,330,Rain,1006,8,30,,,,7.7,
Wick,30/09/2019 04:00,8.2,12,,,0,,90,,310,Dry,1006,7,25,,,,6.7,
Wick,30/09/2019 05:00,8.1,15,,,0,,90,,330,Dry,1006,7,28,,,,6.7,
Wick,30/09/2019 06:00,6.3,8,6.2,,0,0.2,93,,320,Dry,1007,4,35,,,,5.4,
Wick,30/09/2019 07:00,7,7,,,0,,96,,300,Dry,1007,1,50,,,,6.5,
Wick,30/09/2019 08:00,8.2,13,,,0,,94,,330,Dry,1008,7,35,,,,7.3,
Wick,30/09/2019 09:00,9.7,10,,,0,,89,,300,Dry,1008,1,28,,,,8.1,
Wick,30/09/2019 10:00,9.3,15,,,0.2,,82,,310,Rain,1008,7,40,,,,6.5,
Wick,30/09/2019 11:00,9.2,10,,,0,,86,,310,Rain,1009,8,50,,,,7.1,
Wick,30/09/2019 12:00,9.7,14,,,0,0.2,82,,350,Dry,1009,5,30,,,,6.9,
Wick,30/09/2019 13:00,9.6,13,,,0.2,,74,,10,Dry,1009,5,19,,,,5.3,
Wick,30/09/2019 14:00,9.3,15,,,0,,78,,350,Rain,1009,8,35,,,,5.7,
Wick,30/09/2019 15:00,9.6,13,,,0,,70,,10,Dry,1009,8,45,,,,4.5,
Wick,30/09/2019 16:00,9,12,,,0,,66,,10,Dry,1008,7,28,,,,3.2,
Wick,30/09/2019 17:00,8.2,13,,,0,,73,,360,Dry,1008,7,30,,,,3.7,
Wick,30/09/2019 18:00,7.8,12,,10.8,0,0.2,72,,360,Dry,1008,6,50,,,,3.1,
Wick,30/09/2019 19:00,6.7,8,,,0,,76,,360,Dry,1009,3,40,,,,2.9,
Wick,30/09/2019 20:00,6.2,8,,,0,,74,,350,Dry,1009,3,50,,,,2.1,
Wick,30/09/2019 21:00,3.7,9,,,0,,88,,310,Dry,1008,5,35,,,,1.9,
Wick,30/09/2019 22:00,2.8,9,,,0,,88,,320,Dry,1008,4,30,,,,1.1,
Wick,30/09/2019 23:00,3.5,10,,,0,,91,,320,Dry,1008,5,30,,,,2.2,
Wick,01/10/2019 00:00,3,9,,,0,0,87,,320,Dry,1008,3,40,,,,1.2,
Wick,01/10/2019 01:00,5.6,6,,,0,,91,,340,Dry,1008,3,40,,,,4.4,
Wick,01/10/2019 02:00,2.7,5,,,0,,87,,270,Dry,1007,2,35,,,,0.8,
Wick,01/10/2019 03:00,1.4,6,,,0,,93,,260,Dry,1007,0,30,,,,0.5,
Wick,01/10/2019 04:00,2.6,9,,,0,,94,,320,Dry,1006,1,35,,,,1.8,
Wick,01/10/2019 05:00,2,8,,,0,,94,,290,Dry,1006,5,30,,,,1.2,
Wick,01/10/2019 06:00,2.7,6,1.3,,0,0,93,,290,Dry,1006,7,50,,,,1.8,
Wick,01/10/2019 07:00,2,5,,,0,,95,,280,Dry,1006,0,35,,,,1.4,
Wick,01/10/2019 08:00,3.7,6,,,0,,97,,270,Dry,1006,4,30,,,,3.3,
Wick,01/10/2019 09:00,7.8,8,,,0,,92,,290,Dry,1006,1,20,,,,6.6,
Wick,01/10/2019 10:00,8.2,13,,,0,,79,,330,Dry,1007,7,30,,,,4.9,
Wick,01/10/2019 11:00,9.2,21,,,0,,74,,350,Dry,1007,3,45,,,,4.9,
Wick,01/10/2019 12:00,9,20,,,0,0,75,,340,Dry,1007,5,27,,,,5,
Wick,01/10/2019 13:00,9.6,18,,,0.4,,74,36,330,Rain,1008,1,30,,,,5.2,
Wick,01/10/2019 14:00,9.4,20,,,0,,66,32,320,Dry,1008,4,30,,,,3.5,
Wick,01/10/2019 15:00,8.3,12,,,0.2,,84,31,320,Rain,1008,1,27,,,,5.8,
Wick,01/10/2019 16:00,7.8,13,,,0.6,,83,35,320,Rain,1009,4,30,,,,5.1,
Wick,01/10/2019 17:00,5.4,13,,,1.2,,86,30,330,Rain,1009,5,35,,,,3.4,
Wick,01/10/2019 18:00,6.2,17,,10.4,0.2,3,83,,330,Light shower,1010,4,26,,,,3.6,
Wick,01/10/2019 19:00,5.2,14,,,0.6,,85,,320,Rain,1010,2,35,,,,3,
Wick,01/10/2019 20:00,4.4,13,,,0,,84,,310,Dry,1010,2,45,,,,2.1,
Wick,01/10/2019 21:00,5.3,12,,,0,,86,,300,Dry,1011,3,28,,,,3.3,
Wick,01/10/2019 22:00,6,17,,,0,,86,,300,Dry,1011,4,27,,,,3.9,
Wick,01/10/2019 23:00,6.3,17,,,0,,88,,300,Rain,1011,0,26,,,,4.6,
Wick,02/10/2019 00:00,7.1,17,,,0,0.6,85,,310,Rain,1011,1,19,,,,4.9,
Wick,02/10/2019 01:00,7.3,20,,,0.2,,85,36,310,Haze,1012,2,3,,,,5,
Wick,02/10/2019 02:00,7,17,,,0,,85,,300,Rain,1011,1,19,,,,4.8,
Wick,02/10/2019 03:00,7.6,20,,,0.2,,84,29,310,Rain,1011,4,20,,,,5.1,
Wick,02/10/2019 04:00,7.8,23,,,0.2,,87,35,310,Light shower,1011,7,16,,,,5.9,
Wick,02/10/2019 05:00,8.1,23,,,0.2,,92,33,320,Rain,1011,8,4,,,,7,
Wick,02/10/2019 06:00,8,26,4.4,,0.2,1.4,93,36,320,Rain,1012,7,17,,,,7,
Wick,02/10/2019 07:00,8.7,22,,,0,,88,32,310,Dry,1013,7,18,,,,6.9,
Wick,02/10/2019 08:00,9.2,18,,,0.2,,94,,310,Rain,1014,8,15,,,,8.3,
Wick,02/10/2019 09:00,9.7,20,,,0.2,,92,29,320,Light shower,1015,7,8,,,,8.5,
Wick,02/10/2019 10:00,10.6,20,,,0.2,,89,29,310,Rain,1015,5,21,,,,9,
Wick,02/10/2019 11:00,10.3,21,,,0,,89,29,310,Dry,1016,5,16,,,,8.6,
Wick,02/10/2019 12:00,11.1,22,,,0,0.6,80,29,310,Dry,1017,3,28,,,,7.9,
Wick,02/10/2019 13:00,11.3,24,,,0,,82,31,310,Rain,1017,3,15,,,,8.4,
Wick,02/10/2019 14:00,11.2,21,,,0,,83,33,320,Dry,1017,4,40,,,,8.5,
Wick,02/10/2019 15:00,9.8,21,,,0.6,,92,30,320,Rain,1018,1,7,,,,8.7,
Wick,02/10/2019 16:00,9.2,15,,,0,,91,,310,Dry,1018,1,17,,,,7.9,
Wick,02/10/2019 17:00,9.3,15,,,0,,89,,310,Dry,1019,1,24,,,,7.7,
Wick,02/10/2019 18:00,8.1,13,,12.2,0,0.4,92,,300,Dry,1019,1,19,,,,7,
Wick,02/10/2019 19:00,7.9,12,,,0,,94,,300,Dry,1019,2,15,,,,7.1,
Wick,02/10/2019 20:00,7,9,,,0,,94,,300,Dry,1020,4,23,,,,6.2,
Wick,02/10/2019 21:00,7.3,10,,,0,,96,,310,Dry,1020,5,22,,,,6.8,
Wick,02/10/2019 22:00,7.6,13,,,0,,97,,320,Dry,1020,5,30,,,,7.2,
Wick,02/10/2019 23:00,5.7,9,,,0,,97,,270,Dry,1020,0,19,,,,5.4,
Wick,03/10/2019 00:00,6.1,8,,,0,0,99,,280,Dry,1020,0,16,,,,6,
Wick,03/10/2019 01:00,5.4,8,,,0,,100,,290,Dry,1020,2,23,,,,5.4,
Wick,03/10/2019 02:00,4.8,7,,,0,,100,,290,Dry,1020,6,15,,,,4.8,
Wick,03/10/2019 03:00,4.8,5,,,0,,100,,310,Misty,1019,1,11,,,,4.8,
Wick,03/10/2019 04:00,4.5,6,,,0,,100,,260,Dry,1019,2,16,,,,4.5,
Wick,03/10/2019 05:00,4.9,6,,,0,,100,,250,Dry,1019,7,19,,,,4.9,
Wick,03/10/2019 06:00,6.6,2,4.2,,0,0,100,,340,Dry,1018,8,21,,,,6.6,
Wick,03/10/2019 07:00,6.8,3,,,0,,99,,210,Dry,1018,8,19,,,,6.7,
Wick,03/10/2019 08:00,10,10,,,0,,86,,90,Dry,1018,8,30,,,,7.8,
Wick,03/10/2019 09:00,10.7,16,,,0,,80,,80,Dry,1017,8,30,,,,7.5,
Wick,03/10/2019 10:00,10.4,14,,,0,,76,,70,Dry,1017,8,40,,,,6.4,
Wick,03/10/2019 11:00,10.8,15,,,0,,75,,90,Dry,1016,8,40,,,,6.6,
Wick,03/10/2019 12:00,10.8,14,,,0,0,72,,100,Dry,1016,7,35,,,,6.1,
Wick,03/10/2019 13:00,11.5,16,,,0,,69,,90,Dry,1015,7,22,,,,6.1,
Wick,03/10/2019 14:00,11.2,18,,,0,,66,,80,Dry,1014,3,30,,,,5.2,
Wick,03/10/2019 15:00,10.5,18,,,0,,74,,100,Dry,1013,1,50,,,,6.2,
Wick,03/10/2019 16:00,10.4,20,,,0,,78,,100,Dry,1011,1,50,,,,6.9,
Wick,03/10/2019 17:00,10.3,21,,,0,,78,29,100,Dry,1010,3,35,,,,6.7,
Wick,03/10/2019 18:00,10.3,23,,12,0,0,78,32,100,Dry,1009,8,30,,,,6.7,
Wick,03/10/2019 19:00,10.4,25,,,0,,81,32,100,Haze,1009,8,9,,,,7.4,
Wick,03/10/2019 20:00,10.6,22,,,0,,82,35,100,Rain,1008,8,27,,,,7.7,
Wick,03/10/2019 21:00,10.5,23,,,0,,84,32,100,Haze,1008,8,5,,,,8,
Wick,03/10/2019 22:00,9.6,20,,,0.2,,94,33,110,Light shower,1007,8,4,,,,8.7,
Wick,03/10/2019 23:00,9.7,18,,,0.4,,95,36,110,Moderate shower,1007,8,15,,,,9,
Wick,04/10/2019 00:00,9.4,20,,,0.2,0.8,91,32,110,Rain,1007,1,6,,,,8.1,
Wick,04/10/2019 01:00,9.4,16,,,0,,94,30,110,Rain,1006,1,4,,,,8.5,
Wick,04/10/2019 02:00,9.8,25,,,0.6,,87,33,80,Moderate shower,1006,8,15,,,,7.8,
Wick,04/10/2019 03:00,9.4,22,,,0.2,,90,36,80,Moderate shower,1006,7,13,,,,8,
Wick,04/10/2019 04:00,9.7,24,,,0,,78,32,80,Rain,1006,6,22,,,,6.1,
Wick,04/10/2019 05:00,9.7,21,,,0,,78,31,80,Dry,1007,5,24,,,,6.1,
Wick,04/10/2019 06:00,9.7,20,9.1,,0,1.2,75,29,80,Dry,1007,7,29,,,,5.6,
Wick,04/10/2019 07:00,9.3,21,,,0,,78,29,70,Dry,1008,8,24,,,,5.7,
Wick,04/10/2019 08:00,9.8,20,,,0,,76,,70,Dry,1008,7,26,,,,5.8,
Wick,04/10/2019 09:00,10.2,20,,,0,,73,,70,Dry,1009,5,28,,,,5.7,
Wick,04/10/2019 10:00,10.6,16,,,0,,70,,60,Dry,1010,1,30,,,,5.5,
Wick,04/10/2019 11:00,10.3,16,,,0,,68,,70,Dry,1010,2,35,,,,4.8,
Wick,04/10/2019 12:00,11.2,14,,,0,0,66,,70,Dry,1011,4,26,,,,5.1,
Wick,04/10/2019 13:00,10.7,14,,,0,,67,,60,Dry,1011,6,35,,,,5,
Wick,04/10/2019 14:00,11.2,15,,,0,,66,,70,Dry,1012,5,45,,,,5.3,
Wick,04/10/2019 15:00,10.2,10,,,0,,70,,60,Dry,1012,5,30,,,,5.1,
Wick,04/10/2019 16:00,10.3,10,,,0,,70,,60,Dry,1012,0,35,,,,5.2,
Wick,04/10/2019 17:00,9.4,8,,,0,,73,,80,Dry,1013,2,50,,,,5,
Wick,04/10/2019 18:00,9,9,,11.8,0,0,73,,80,Dry,1014,2,45,,,,4.5,
Wick,04/10/2019 19:00,8.6,13,,,0,,72,,70,Dry,1014,1,45,,,,4,
Wick,04/10/2019 20:00,8.2,10,,,0,,78,,70,Dry,1014,3,35,,,,4.6,
Wick,04/10/2019 21:00,9.2,7,,,0,,77,,70,Dry,1015,2,45,,,,5.5,
Wick,04/10/2019 22:00,9.4,6,,,0,,79,,80,Dry,1015,7,40,,,,6.1,
Wick,04/10/2019 23:00,8.9,7,,,0,,89,,100,Dry,1015,5,40,,,,7.3,
Wick,05/10/2019 00:00,9.1,6,,,0,0,85,,110,Dry,1015,6,45,,,,6.8,
Wick,05/10/2019 01:00,9.7,8,,,0,,87,,110,Dry,1015,6,50,,,,7.8,
Wick,05/10/2019 02:00,9.8,10,,,0,,85,,120,Dry,1015,1,40,,,,7.5,
Wick,05/10/2019 03:00,9.9,8,,,0,,83,,140,Dry,1015,0,45,,,,7.2,
Wick,05/10/2019 04:00,10.1,8,,,0,,85,,140,Dry,1015,3,40,,,,7.7,
Wick,05/10/2019 05:00,10.5,10,,,0,,85,,130,Dry,1015,3,30,,,,8.2,
Wick,05/10/2019 06:00,10.5,16,5,,0,0,87,,120,Dry,1015,8,16,,,,8.5,
Wick,05/10/2019 07:00,10.6,18,,,0,,86,30,120,Dry,1015,8,16,,,,8.4,
Wick,05/10/2019 08:00,10.7,17,,,0.6,,89,31,130,Moderate shower,1016,8,10,,,,9,
Wick,05/10/2019 09:00,10.4,21,,,0.2,,87,32,120,Rain,1016,8,7,,,,8.5,
Wick,05/10/2019 10:00,10.8,22,,,1.6,,93,32,120,Moderate shower,1016,8,4,,,,9.8,
Wick,05/10/2019 11:00,11.4,22,,,0.2,,81,38,120,Rain,1016,8,13,,,,8.3,
Wick,05/10/2019 12:00,11.6,24,,,0,3,82,38,120,Dry,1015,8,15,,,,8.8,
Wick,05/10/2019 13:00,11.6,26,,,0,,83,38,120,Dry,1015,8,14,,,,8.9,
Wick,05/10/2019 14:00,11.7,24,,,0,,83,37,120,Dry,1015,8,11,,,,9,
Wick,05/10/2019 15:00,11.7,26,,,0,,83,39,120,Dry,1014,7,12,,,,9,
Wick,05/10/2019 16:00,11.7,26,,,0,,81,44,120,Dry,1014,5,14,,,,8.7,
Wick,05/10/2019 17:00,11.6,25,,,0,,84,39,120,Dry,1014,8,12,,,,9,
Wick,05/10/2019 18:00,11.5,25,,11.8,0,0,85,38,120,Dry,1014,8,14,,,,9.1,
Wick,05/10/2019 19:00,11.6,26,,,0,,86,37,120,Dry,1014,8,13,,,,9.4,
Wick,05/10/2019 20:00,11.6,22,,,0,,88,38,110,Dry,1013,8,12,,,,9.8,
Wick,05/10/2019 21:00,11.7,22,,,0,,90,37,120,Dry,1013,8,11,,,,10.2,
Wick,05/10/2019 22:00,11.9,22,,,0,,89,32,120,Dry,1012,2,13,,,,10.2,
Wick,05/10/2019 23:00,11.9,22,,,0,,89,32,120,Dry,1012,8,13,,,,10.3,
Wick,06/10/2019 00:00,11.7,21,,,4.4,4,94,33,130,Light shower,1012,3,11,,,,10.8,
Wick,06/10/2019 01:00,11.6,22,,,0.2,,92,32,120,Light drizzle,1011,7,10,,,,10.5,
Wick,06/10/2019 02:00,11.7,22,,,0,,89,31,120,Rain,1010,8,18,,,,10,
Wick,06/10/2019 03:00,11.8,21,,,0.2,,89,32,130,Rain,1010,7,19,,,,10.1,
Wick,06/10/2019 04:00,11.8,22,,,0,,88,35,130,Dry,1010,8,15,,,,10,
Wick,06/10/2019 05:00,11.5,21,,,0,,89,35,130,Drizzly rain,1011,8,14,,,,9.9,
Wick,06/10/2019 06:00,11.4,21,11.1,,0.2,1,86,33,130,Light shower,1011,8,12,,,,9.3,
Wick,06/10/2019 07:00,11.3,22,,,0,,87,31,120,Rain,1012,8,15,,,,9.3,
Wick,06/10/2019 08:00,11,18,,,0.2,,88,30,130,Rain,1012,7,14,,,,9.1,
Wick,06/10/2019 09:00,11.8,24,,,0.2,,86,38,120,Rain,1013,8,17,,,,9.6,
Wick,06/10/2019 10:00,11.9,22,,,0,,91,36,120,Haze,1014,8,8,,,,10.6,
Wick,06/10/2019 11:00,11.6,20,,,0,,89,32,120,Haze,1014,8,11,,,,10,
Wick,06/10/2019 12:00,12.1,22,,,0,0.4,84,31,130,Dry,1015,8,17,,,,9.6,
Wick,06/10/2019 13:00,11.6,17,,,0,,89,31,120,Dry,1015,8,14,,,,9.9,
Wick,06/10/2019 14:00,11.2,17,,,0.4,,92,30,140,Moderate shower,1015,8,10,,,,10.1,
Wick,06/10/2019 15:00,12.2,22,,,0,,89,37,120,Rain,1016,7,8,,,,10.5,
Wick,06/10/2019 16:00,12,20,,,0,,84,35,120,Dry,1016,1,13,,,,9.4,
Wick,06/10/2019 17:00,11.6,21,,,0,,87,31,130,Dry,1017,3,12,,,,9.6,
Wick,06/10/2019 18:00,11.5,17,,12.7,0,0.4,88,,130,Dry,1017,1,13,,,,9.6,
Wick,06/10/2019 19:00,11.4,18,,,0,,89,29,130,Dry,1017,3,13,,,,9.8,
Wick,06/10/2019 20:00,11.5,21,,,0,,88,31,130,Dry,1016,1,15,,,,9.6,
Wick,06/10/2019 21:00,11.7,21,,,0,,90,31,130,Dry,1016,6,11,,,,10.2,
Wick,06/10/2019 22:00,11.6,24,,,0,,88,32,130,Dry,1015,4,13,,,,9.7,
Wick,06/10/2019 23:00,11.7,23,,,0,,87,40,140,Dry,1015,6,12,,,,9.7,
Wick,07/10/2019 00:00,11.6,24,,,0,0,83,37,140,Dry,1014,6,15,,,,8.9,
Wick,07/10/2019 01:00,11.7,22,,,0,,84,37,140,Dry,1013,8,13,,,,9.1,
Wick,07/10/2019 02:00,11.7,22,,,0,,83,40,140,Dry,1012,8,11,,,,9,
Wick,07/10/2019 03:00,11.7,26,,,0,,81,39,140,Dry,1011,8,11,,,,8.7,
Wick,07/10/2019 04:00,11.7,28,,,0,,80,41,140,Dry,1008,8,11,,,,8.4,
Wick,07/10/2019 05:00,11.7,31,,,0,,81,47,140,Dry,1006,8,10,,,,8.6,
Wick,07/10/2019 06:00,11.9,30,11.4,,0,0,80,53,140,Haze,1005,8,9,,,,8.7,
Wick,07/10/2019 07:00,12,30,,,0,,80,48,150,Haze,1004,7,8,,,,8.7,
Wick,07/10/2019 08:00,12,28,,,0,,81,46,150,Rain,1003,8,11,,,,8.9,
Wick,07/10/2019 09:00,11.2,25,,,0.6,,89,43,140,Light shower,1003,6,6,,,,9.6,
Wick,07/10/2019 10:00,11.1,23,,,1.2,,92,40,150,Light rain,1002,8,6,,,,9.9,
Wick,07/10/2019 11:00,11.3,22,,,1.2,,91,39,150,Light rain,1000,8,8,,,,9.9,
Wick,07/10/2019 12:00,11.6,23,,,0,3,88,37,160,Rain,999,8,13,,,,9.7,
Wick,07/10/2019 13:00,11.8,22,,,0,,85,38,160,Dry,999,8,17,,,,9.5,
Wick,07/10/2019 14:00,12.3,20,,,0.4,,86,33,170,Rain,998,1,15,,,,10.1,
Wick,07/10/2019 15:00,13.2,16,,,0,,78,,180,Dry,997,5,14,,,,9.6,
Wick,07/10/2019 16:00,13,12,,,0,,83,,160,Dry,997,7,10,,,,10.3,
Wick,07/10/2019 17:00,12.6,9,,,0,,83,,170,Dry,997,6,12,,,,9.8,
Wick,07/10/2019 18:00,10.7,13,,13.3,0,0,83,,190,Dry,996,1,19,,,,8.1,
Wick,07/10/2019 19:00,11,12,,,0,,81,,190,Dry,996,1,16,,,,8,
Wick,07/10/2019 20:00,11.2,15,,,0,,83,,180,Dry,996,6,15,,,,8.5,
Wick,07/10/2019 21:00,11.2,17,,,0,,81,,190,Dry,995,8,19,,,,8.1,
Wick,07/10/2019 22:00,10.6,13,,,0,,81,,180,Rain,995,8,22,,,,7.6,
Wick,07/10/2019 23:00,10.1,16,,,0,,81,,180,Dry,994,1,35,,,,7.1,
Wick,08/10/2019 00:00,10.1,13,,,0,0,84,,170,Dry,994,0,30,,,,7.6,
Wick,08/10/2019 01:00,10.3,15,,,0,,85,,180,Dry,993,1,35,,,,8,
Wick,08/10/2019 02:00,10.3,15,,,0,,87,,190,Dry,993,2,23,,,,8.3,
Wick,08/10/2019 03:00,10.2,13,,,0,,87,,180,Dry,992,1,30,,,,8.3,
Wick,08/10/2019 04:00,10.3,15,,,0,,83,,180,Dry,991,3,40,,,,7.6,
Wick,08/10/2019 05:00,10.9,15,,,0,,81,,180,Drizzly rain,990,7,24,,,,7.9,
Wick,08/10/2019 06:00,10.3,16,9.8,,0,0,83,,180,Rain,990,0,50,,,,7.6,
Wick,08/10/2019 07:00,10.4,16,,,0,,82,30,190,Rain,990,8,30,,,,7.5,
Wick,08/10/2019 08:00,10.5,17,,,0,,76,,190,Dry,989,6,19,,,,6.6,
Wick,08/10/2019 09:00,11,16,,,0,,76,,180,Dry,988,0,25,,,,7,
Wick,08/10/2019 10:00,11.5,23,,,0,,71,32,180,Dry,988,5,21,,,,6.5,
Wick,08/10/2019 11:00,10.9,20,,,0,,76,31,190,Drizzly rain,987,8,12,,,,6.9,
Wick,08/10/2019 12:00,11.1,18,,,0,0,77,30,180,Light shower,986,8,25,,,,7.4,
Wick,08/10/2019 13:00,12.2,18,,,0,,76,33,190,Rain,986,8,18,,,,8.2,
Wick,08/10/2019 14:00,12.5,21,,,0,,77,31,190,Dry,985,5,23,,,,8.7,
Wick,08/10/2019 15:00,12.1,16,,,0,,82,32,190,Dry,985,7,29,,,,9.3,
Wick,08/10/2019 16:00,11.9,16,,,0,,84,,200,Dry,985,8,35,,,,9.3,
Wick,08/10/2019 17:00,11.4,13,,,0,,86,,200,Dry,985,8,40,,,,9.2,
Wick,08/10/2019 18:00,11,10,,12.6,0,0,88,,210,Rain,985,8,35,,,,9.2,
Wick,08/10/2019 19:00,10.7,13,,,0,,90,,200,Dry,985,7,50,,,,9.2,
Wick,08/10/2019 20:00,10.2,10,,,0,,90,,190,Dry,985,7,35,,,,8.7,
Wick,08/10/2019 21:00,10.5,13,,,0,,88,,190,Dry,985,0,35,,,,8.7,
Wick,08/10/2019 22:00,10.3,13,,,0,,89,,190,Dry,985,7,35,,,,8.6,
Wick,08/10/2019 23:00,10.3,13,,,0,,88,,190,Dry,985,8,35,,,,8.5,
Wick,09/10/2019 00:00,10.4,14,,,0,0,88,,190,Dry,985,7,25,,,,8.6,
Wick,09/10/2019 01:00,10.1,13,,,0.4,,91,,190,Light rain,985,8,20,,,,8.7,
Wick,09/10/2019 02:00,10.1,13,,,0,,86,,200,Rain,986,8,30,,,,7.9,
Wick,09/10/2019 03:00,10.3,14,,,0,,89,,180,Dry,985,8,35,,,,8.7,
Wick,09/10/2019 04:00,10.2,12,,,0,,87,,180,Dry,985,8,23,,,,8.3,
Wick,09/10/2019 05:00,10.2,14,,,0,,87,,190,Dry,985,8,25,,,,8.2,
Wick,09/10/2019 06:00,10.1,15,10,,0,0.4,86,,200,Dry,985,1,35,,,,8,
Wick,09/10/2019 07:00,10.1,17,,,0,,85,,200,Dry,985,8,35,,,,7.8,
Wick,09/10/2019 08:00,10.4,15,,,0,,84,,200,Dry,985,8,27,,,,7.9,
Wick,09/10/2019 09:00,10.6,18,,,0,,84,,200,Dry,985,1,28,,,,8.1,
Wick,09/10/2019 10:00,10.8,20,,,0,,83,31,200,Dry,985,8,27,,,,8.2,
Wick,09/10/2019 11:00,11.2,18,,,0,,83,30,200,Dry,985,8,30,,,,8.5,
Wick,09/10/2019 12:00,12,16,,,0,0,80,29,200,Dry,985,7,22,,,,8.8,
Wick,09/10/2019 13:00,12.8,18,,,0,,75,,190,Dry,985,8,30,,,,8.5,
Wick,09/10/2019 14:00,12.2,16,,,0,,81,,200,Dry,985,8,30,,,,9.1,
Wick,09/10/2019 15:00,12.1,15,,,0,,79,29,200,Dry,985,3,35,,,,8.7,
Wick,09/10/2019 16:00,11.8,16,,,0,,80,23,200,Dry,986,2,35,,,,8.6,
Wick,09/10/2019 17:00,11.6,17,,,0,,81,32,190,Dry,985,6,45,,,,8.5,
Wick,09/10/2019 18:00,11.2,17,,13.1,0,0,84,,200,Dry,985,3,30,,,,8.7,
Wick,09/10/2019 19:00,11,18,,,0,,86,30,200,Rain,985,8,35,,,,8.9,
Wick,09/10/2019 20:00,10.9,18,,,0,,86,31,200,Rain,985,8,45,,,,8.8,
Wick,09/10/2019 21:00,10.9,21,,,0,,87,,210,Dry,985,8,50,,,,8.9,
Wick,09/10/2019 22:00,10.7,16,,,0,,89,29,220,Rain,986,8,45,,,,9,
Wick,09/10/2019 23:00,10.5,15,,,0,,87,,220,Dry,986,8,50,,,,8.5,
Wick,10/10/2019 00:00,9.7,14,,,0,0,91,,230,Dry,987,1,50,,,,8.4,
Wick,10/10/2019 01:00,9.6,12,,,0,,89,,230,Dry,987,6,45,,,,8,
Wick,10/10/2019 02:00,9.5,14,,,0,,88,,230,Dry,988,7,40,,,,7.7,
Wick,10/10/2019 03:00,9.3,17,,,0,,88,29,250,Dry,988,6,40,,,,7.5,
Wick,10/10/2019 04:00,9,23,,,0,,89,31,270,Dry,989,0,35,,,,7.4,
Wick,10/10/2019 05:00,8.9,23,,,0,,90,35,270,Dry,990,3,35,,,,7.4,
Wick,10/10/2019 06:00,8.4,21,8.4,,0.2,0.2,93,35,260,Dry,991,6,28,,,,7.4,
Wick,10/10/2019 07:00,8.5,21,,,0,,92,30,260,Rain,992,7,6,,,,7.4,
Wick,10/10/2019 08:00,8.8,17,,,0,,86,29,250,Dry,993,6,30,,,,6.6,
Wick,10/10/2019 09:00,9.3,17,,,0,,84,,260,Dry,994,7,35,,,,6.8,
Wick,10/10/2019 10:00,10.9,18,,,0,,76,,250,Dry,995,8,29,,,,7,
Wick,10/10/2019 11:00,10.4,16,,,0,,70,30,250,Dry,995,4,29,,,,5.2,
Wick,10/10/2019 12:00,11.9,18,,,0,0,65,,240,Dry,995,7,27,,,,5.6,
Wick,10/10/2019 13:00,11,9,,,0,,73,,270,Dry,996,7,26,,,,6.5,
Wick,10/10/2019 14:00,11.5,14,,,0,,65,,250,Dry,995,6,28,,,,5.3,
Wick,10/10/2019 15:00,11.8,9,,,0,,64,,240,Dry,995,7,40,,,,5.3,
Wick,10/10/2019 16:00,11.5,6,,,0,,68,,220,Dry,995,8,40,,,,6,
Wick,10/10/2019 17:00,11.2,3,,,0,,71,,180,Dry,994,8,45,,,,6.2,
Wick,10/10/2019 18:00,11.1,7,,12.8,0,0,78,,160,Dry,993,8,40,,,,7.5,
Wick,10/10/2019 19:00,11.1,8,,,0,,86,,160,Dry,992,8,40,,,,8.9,
Wick,10/10/2019 20:00,10.2,8,,,0,,87,,190,Light shower,992,8,25,,,,8.2,
Wick,10/10/2019 21:00,10.4,12,,,0.2,,87,,160,Drizzly rain,991,8,15,,,,8.4,
Wick,10/10/2019 22:00,10.1,14,,,0.2,,91,,160,Light rain,990,8,28,,,,8.7,
Wick,10/10/2019 23:00,10.3,15,,,0.6,,93,,160,Light drizzle,989,8,14,,,,9.3,
Wick,11/10/2019 00:00,10.3,13,,,0.2,1,94,,190,Light drizzle,988,1,14,,,,9.5,
Wick,11/10/2019 01:00,10.2,12,,,0.2,,94,,190,Rain,988,8,40,,,,9.3,
Wick,11/10/2019 02:00,10.1,13,,,0,,90,,210,Dry,988,8,50,,,,8.6,
Wick,11/10/2019 03:00,9.2,9,,,0,,89,,190,Dry,988,5,45,,,,7.6,
Wick,11/10/2019 04:00,9,6,,,0,,92,,210,Dry,988,4,45,,,,7.8,
Wick,11/10/2019 05:00,9.6,9,,,0,,91,,190,Dry,987,7,40,,,,8.3,
Wick,11/10/2019 06:00,9.8,10,8.9,,0,0,92,,190,Dry,987,8,19,,,,8.6,
Wick,11/10/2019 07:00,9.6,12,,,0,,92,,190,Dry,987,1,29,,,,8.4,
Wick,11/10/2019 08:00,10.1,12,,,0,,89,,200,Dry,986,7,25,,,,8.5,
Wick,11/10/2019 09:00,11.1,13,,,0,,83,,200,Dry,987,1,30,,,,8.5,
Wick,11/10/2019 10:00,11.8,15,,,0,,85,,200,Dry,987,8,29,,,,9.5,
Wick,11/10/2019 11:00,12.5,17,,,0,,78,,200,Dry,987,4,45,,,,8.9,
Wick,11/10/2019 12:00,13.2,16,,,0,0,75,,210,Dry,986,2,45,,,,9,
Wick,11/10/2019 13:00,12.8,20,,,0,,75,,200,Dry,986,5,35,,,,8.5,
Wick,11/10/2019 14:00,12.3,20,,,0,,76,,200,Dry,986,6,35,,,,8.2,
Wick,11/10/2019 15:00,12.1,13,,,0,,81,,210,Dry,986,7,30,,,,9.1,
Wick,11/10/2019 16:00,11.5,14,,,0,,84,,230,Dry,986,8,50,,,,8.9,
Wick,11/10/2019 17:00,9.3,10,,,0,,92,,270,Dry,987,8,50,,,,8.1,
Wick,11/10/2019 18:00,9.7,12,,13.5,0,0,93,,260,Dry,988,8,45,,,,8.7,
Wick,11/10/2019 19:00,9.3,10,,,0.2,,96,,250,Rain,988,8,45,,,,8.7,
Wick,11/10/2019 20:00,9,8,,,0.6,,97,,240,Light shower,989,8,30,,,,8.7,
Wick,11/10/2019 21:00,8.8,12,,,0.2,,98,,270,Drizzly rain,990,1,7,,,,8.6,
Wick,11/10/2019 22:00,8.4,12,,,0,,97,,310,Rain,990,6,35,,,,8.1,
Wick,11/10/2019 23:00,8.6,9,,,0,,98,,280,Dry,992,6,19,,,,8.4,
Wick,12/10/2019 00:00,8.6,10,,,0,1,96,,270,Dry,992,7,40,,,,8.1,
Wick,12/10/2019 01:00,6.9,9,,,0,,95,,260,Dry,993,0,45,,,,6.2,
Wick,12/10/2019 02:00,7.6,9,,,0,,94,,240,Dry,993,8,45,,,,6.7,
Wick,12/10/2019 03:00,7.6,9,,,0,,89,,220,Dry,993,8,50,,,,6,
Wick,12/10/2019 04:00,7.6,10,,,0,,93,,240,Dry,994,8,40,,,,6.6,
Wick,12/10/2019 05:00,7.8,8,,,0,,89,,240,Dry,994,8,50,,,,6.2,
Wick,12/10/2019 06:00,7.6,6,6.7,,0,0,88,,230,Dry,994,8,50,,,,5.8,
Wick,12/10/2019 07:00,7.5,8,,,0,,87,,240,Dry,995,8,50,,,,5.6,
Wick,12/10/2019 08:00,7.2,5,,,0,,89,,230,Dry,995,7,35,,,,5.6,
Wick,12/10/2019 09:00,8.7,7,,,0,,87,,190,Dry,996,4,45,,,,6.8,
Wick,12/10/2019 10:00,10,7,,,0,,82,,200,Dry,996,7,45,,,,7.1,
Wick,12/10/2019 11:00,10.7,12,,,0,,78,,220,Dry,997,8,30,,,,7.2,
Wick,12/10/2019 12:00,11.9,13,,,0,0,75,,230,Dry,997,7,45,,,,7.8,
Wick,12/10/2019 13:00,11.9,12,,,0,,73,,230,Dry,997,8,35,,,,7.4,
Wick,12/10/2019 14:00,11.4,10,,,0,,74,,240,Dry,998,8,50,,,,7.1,
Wick,12/10/2019 15:00,9.2,9,,,0.8,,94,,310,Light shower,998,8,17,,,,8.3,
Wick,12/10/2019 16:00,9.6,5,,,0,,89,,230,Rain,998,8,30,,,,8,
Wick,12/10/2019 17:00,9.3,5,,,0,,90,,260,Dry,998,8,50,,,,7.8,
Wick,12/10/2019 18:00,8.3,3,,12.2,0,0.8,92,,260,Dry,999,8,45,,,,7.1,
Wick,12/10/2019 19:00,8.6,5,,,0,,93,,170,Dry,1000,8,45,,,,7.6,
Wick,12/10/2019 20:00,7.9,9,,,0,,90,,230,Rain,1000,7,50,,,,6.4,
Wick,12/10/2019 21:00,7.9,7,,,0,,90,,220,Dry,1000,7,50,,,,6.5,
Wick,12/10/2019 22:00,7.1,7,,,0,,92,,230,Dry,1001,8,50,,,,6,
Wick,12/10/2019 23:00,6,8,,,0,,93,,250,Dry,1001,1,50,,,,5,
Wick,13/10/2019 00:00,5.8,7,,,0,0,93,,260,Dry,1001,5,50,,,,4.8,
Wick,13/10/2019 01:00,4.9,5,,,0,,95,,230,Dry,1001,0,50,,,,4.2,
Wick,13/10/2019 02:00,4.4,6,,,0,,95,,250,Dry,1002,0,50,,,,3.8,
Wick,13/10/2019 03:00,3.9,6,,,0,,96,,250,Dry,1002,0,50,,,,3.4,
Wick,13/10/2019 04:00,3.8,7,,,0,,97,,260,Dry,1002,0,50,,,,3.5,
Wick,13/10/2019 05:00,3.7,5,,,0,,97,,250,Dry,1002,0,50,,,,3.4,
Wick,13/10/2019 06:00,3.4,6,3.3,,0,0,99,,240,Dry,1002,0,45,,,,3.3,
Wick,13/10/2019 07:00,2.9,5,,,0,,99,,250,Dry,1002,0,50,,,,2.8,
Wick,13/10/2019 08:00,3.8,5,,,0,,100,,250,Dry,1003,0,40,,,,3.8,
Wick,13/10/2019 09:00,6.1,3,,,0,,100,,240,Dry,1003,0,50,,,,6.1,
Wick,13/10/2019 10:00,9,2,,,0,,97,,260,Dry,1003,0,40,,,,8.7,
Wick,13/10/2019 11:00,10.8,5,,,0,,83,,90,Dry,1003,2,40,,,,8.1,
Wick,13/10/2019 12:00,10.9,6,,,0,0,80,,110,Dry,1003,0,30,,,,7.6,
Wick,13/10/2019 13:00,11.1,6,,,0,,78,,100,Dry,1002,0,35,,,,7.5,
Wick,13/10/2019 14:00,10.7,7,,,0,,82,,90,Dry,1002,2,40,,,,7.8,
Wick,13/10/2019 15:00,10.7,6,,,0,,80,,80,Dry,1002,2,29,,,,7.5,
Wick,13/10/2019 16:00,10.3,6,,,0,,85,,70,Dry,1002,4,50,,,,7.9,
Wick,13/10/2019 17:00,7.4,7,,,0,,88,,50,Dry,1002,2,45,,,,5.7,
Wick,13/10/2019 18:00,8.2,5,,11.7,0,0,90,,70,Dry,1002,6,50,,,,6.7,
Wick,13/10/2019 19:00,7.8,5,,,0,,93,,30,Dry,1002,7,50,,,,6.8,
Wick,13/10/2019 20:00,5.2,5,,,0,,95,,260,Dry,1003,8,30,,,,4.6,
Wick,13/10/2019 21:00,4.7,6,,,0,,97,,250,Dry,1003,0,24,,,,4.4,
Wick,13/10/2019 22:00,4.7,5,,,0,,98,,260,Dry,1003,7,30,,,,4.5,
Wick,13/10/2019 23:00,4.2,6,,,0,,98,,260,Dry,1004,8,45,,,,4,
Wick,14/10/2019 00:00,4,5,,,0,0,99,,250,Dry,1004,0,27,,,,3.9,
Wick,14/10/2019 01:00,3.5,5,,,0,,100,,260,Dry,1005,4,26,,,,3.5,
Wick,14/10/2019 02:00,3.7,6,,,0,,100,,260,Dry,1005,3,22,,,,3.7,
Wick,14/10/2019 03:00,3,6,,,0,,100,,250,Dry,1005,0,40,,,,3,
Wick,14/10/2019 04:00,3.2,5,,,0,,100,,260,Dry,1006,7,35,,,,3.2,
Wick,14/10/2019 05:00,2.9,5,,,0,,100,,250,Dry,1006,8,40,,,,2.9,
Wick,14/10/2019 06:00,3.8,1,2.2,,0,0,100,,240,Rain,1006,8,26,,,,3.8,
Wick,14/10/2019 07:00,3.9,1,,,0.2,,99,,180,Rain,1006,8,50,,,,3.8,
Wick,14/10/2019 08:00,4.9,1,,,0,,100,,310,Dry,1007,8,40,,,,4.9,
Wick,14/10/2019 09:00,6.1,1,,,0,,100,,260,Dry,1007,8,50,,,,6.1,
Wick,14/10/2019 10:00,9.9,3,,,0,,100,,170,Dry,1007,8,23,,,,9.9,
Wick,14/10/2019 11:00,11.4,6,,,0,,88,,170,Dry,1007,6,45,,,,9.5,
Wick,14/10/2019 12:00,11.7,12,,,0,0.2,79,,170,Dry,1008,7,30,,,,8.3,
Wick,14/10/2019 13:00,11.8,12,,,0,,78,,150,Dry,1007,5,35,,,,8.2,
Wick,14/10/2019 14:00,11.7,10,,,0,,74,,160,Dry,1007,1,45,,,,7.4,
Wick,14/10/2019 15:00,11.3,8,,,0,,75,,150,Dry,1007,7,50,,,,7.1,
Wick,14/10/2019 16:00,11,6,,,0,,78,,150,Dry,1007,8,40,,,,7.5,
Wick,14/10/2019 17:00,10.7,6,,,0,,82,,150,Dry,1008,8,50,,,,7.8,
Wick,14/10/2019 18:00,10.5,3,,12.5,0,0,82,,140,Dry,1008,8,35,,,,7.6,
Wick,14/10/2019 19:00,10.8,7,,,0,,83,,120,Dry,1008,8,50,,,,8.1,
Wick,14/10/2019 20:00,10.7,6,,,0,,83,,120,Dry,1007,8,50,,,,8.1,
Wick,14/10/2019 21:00,10.8,5,,,0,,87,,120,Dry,1007,8,40,,,,8.8,
Wick,14/10/2019 22:00,10.7,6,,,0,,86,,110,Dry,1007,8,40,,,,8.5,
Wick,14/10/2019 23:00,10.5,5,,,0,,92,,100,Dry,1007,8,27,,,,9.3,
Wick,15/10/2019 00:00,10,5,,,0,0,92,,100,Dry,1006,1,23,,,,8.9,
Wick,15/10/2019 01:00,10.1,8,,,0,,91,,120,Dry,1006,8,40,,,,8.7,
Wick,15/10/2019 02:00,10.2,8,,,0,,87,,120,Dry,1005,2,30,,,,8.2,
Wick,15/10/2019 03:00,10.1,12,,,0,,88,,130,Dry,1005,5,50,,,,8.3,
Wick,15/10/2019 04:00,10.4,9,,,0,,89,,140,Dry,1004,6,35,,,,8.7,
Wick,15/10/2019 05:00,10.5,9,,,0,,89,,130,Dry,1004,5,40,,,,8.8,
Wick,15/10/2019 06:00,10.8,13,9.7,,0,0,86,,120,Dry,1004,7,45,,,,8.7,
Wick,15/10/2019 07:00,10.7,14,,,0,,88,,120,Dry,1004,7,35,,,,8.8,
Wick,15/10/2019 08:00,10.7,14,,,0,,84,,120,Dry,1004,4,35,,,,8.2,
Wick,15/10/2019 09:00,11.5,10,,,0,,83,,120,Dry,1004,4,28,,,,8.8,
Wick,15/10/2019 10:00,11.7,13,,,0,,80,,120,Dry,1003,3,30,,,,8.5,
Wick,15/10/2019 11:00,12,13,,,0,,84,,110,Dry,1003,4,22,,,,9.4,
Wick,15/10/2019 12:00,11.8,13,,,0,0,82,,120,Dry,1002,7,45,,,,9,
Wick,15/10/2019 13:00,12.2,15,,,0,,80,,110,Dry,1002,6,18,,,,8.9,
Wick,15/10/2019 14:00,11.7,15,,,0,,78,,90,Dry,1002,2,35,,,,8,
Wick,15/10/2019 15:00,11.3,14,,,0,,81,,100,Dry,1001,3,30,,,,8.2,
Wick,15/10/2019 16:00,10.5,9,,,0,,92,,100,Dry,1001,7,30,,,,9.3,
Wick,15/10/2019 17:00,9.8,14,,,0.2,,96,,100,Light shower,1001,8,6,,,,9.2,
Wick,15/10/2019 18:00,10.1,15,,12.5,0,0.2,94,,90,Rain,1001,8,17,,,,9.3,
Wick,15/10/2019 19:00,10,13,,,0.2,,97,,80,Rain,1001,8,21,,,,9.6,
Wick,15/10/2019 20:00,9.9,10,,,0,,97,,90,Dry,1000,8,17,,,,9.5,
Wick,15/10/2019 21:00,9.8,14,,,0,,96,,80,Dry,1000,7,22,,,,9.3,
Wick,15/10/2019 22:00,9.9,9,,,0,,96,,80,Dry,999,8,29,,,,9.3,
Wick,15/10/2019 23:00,9.9,10,,,0,,96,,80,Misty,999,8,14,,,,9.4,
Wick,16/10/2019 00:00,9.9,5,,,0,0.2,97,,120,Misty,998,1,5,,,,9.5,
Wick,16/10/2019 01:00,9.4,6,,,0,,97,,110,Dry,998,8,17,,,,9.1,
Wick,16/10/2019 02:00,9.4,3,,,0,,97,,160,Dry,997,6,16,,,,9.1,
Wick,16/10/2019 03:00,8.9,3,,,0,,97,,150,Dry,996,2,12,,,,8.6,
Wick,16/10/2019 04:00,9.1,6,,,0,,97,,150,Dry,996,7,15,,,,8.8,
Wick,16/10/2019 05:00,9.5,7,,,0,,95,,170,Dry,996,8,20,,,,8.8,
Wick,16/10/2019 06:00,9.3,7,8.4,,0,0,94,,140,Dry,995,8,19,,,,8.5,
Wick,16/10/2019 07:00,10.1,9,,,0,,88,,150,Dry,995,7,40,,,,8.3,
Wick,16/10/2019 08:00,10.8,9,,,0,,88,,140,Dry,995,7,19,,,,8.9,
Wick,16/10/2019 09:00,11.3,13,,,0,,86,,140,Dry,995,0,30,,,,9.2,
Wick,16/10/2019 10:00,12,16,,,0,,86,30,140,Dry,995,2,13,,,,9.9,
Wick,16/10/2019 11:00,11.5,18,,,0,,89,30,140,Dry,995,4,15,,,,9.9,
Wick,16/10/2019 12:00,12,20,,,0,0,84,,160,Dry,995,8,24,,,,9.5,
Wick,16/10/2019 13:00,11.2,13,,,0,,93,,170,Haze,996,8,8,,,,10.2,
Wick,16/10/2019 14:00,11.4,9,,,0,,93,,180,Dry,996,8,19,,,,10.4,
Wick,16/10/2019 15:00,10.9,6,,,1.2,,96,,210,Rain,996,8,6,,,,10.4,
Wick,16/10/2019 16:00,9.8,10,,,1,,98,,270,Light shower,996,8,5,,,,9.5,
Wick,16/10/2019 17:00,9.6,8,,,0.2,,98,,290,Rain,996,5,19,,,,9.4,
Wick,16/10/2019 18:00,9.4,6,,12.8,0,2,98,,280,Rain,997,8,30,,,,9.2,
Wick,16/10/2019 19:00,8.8,3,,,0,,98,,270,Dry,997,8,11,,,,8.6,
Wick,16/10/2019 20:00,8.2,6,,,0,,98,,240,Thickening fog,998,4,0,,,,8,
Wick,16/10/2019 21:00,6.7,8,,,0,,99,,260,Fog,998,0,40,,,,6.6,
Wick,16/10/2019 22:00,5.1,8,,,0,,98,,250,Dry,998,0,40,,,,4.9,
Wick,16/10/2019 23:00,4.3,5,,,0,,97,,260,Dry,999,0,35,,,,4,
Wick,17/10/2019 00:00,4.2,7,,,0,0,96,,250,Dry,999,0,40,,,,3.7,
Wick,17/10/2019 01:00,4.2,6,,,0,,96,,250,Dry,999,4,40,,,,3.7,
Wick,17/10/2019 02:00,4.7,5,,,0.2,,94,,250,Dry,999,1,40,,,,3.9,
Wick,17/10/2019 03:00,5.2,3,,,0,,94,,220,Dry,999,0,35,,,,4.4,
Wick,17/10/2019 04:00,2.9,3,,,0,,93,,230,Dry,999,0,35,,,,2,
Wick,17/10/2019 05:00,4.3,5,,,0,,95,,200,Dry,999,0,45,,,,3.6,
Wick,17/10/2019 06:00,5.8,5,2.5,,0,0.2,90,,200,Dry,999,0,40,,,,4.3,
Wick,17/10/2019 07:00,5.9,5,,,0,,91,,200,Dry,1000,0,35,,,,4.6,
Wick,17/10/2019 08:00,6.7,6,,,0,,91,,170,Dry,1000,0,35,,,,5.4,
Wick,17/10/2019 09:00,8,3,,,0,,92,,200,Dry,1000,0,24,,,,6.8,
Wick,17/10/2019 10:00,10.7,6,,,0,,85,,170,Dry,1000,0,35,,,,8.4,
Wick,17/10/2019 11:00,11,7,,,0,,76,,160,Dry,1000,0,16,,,,7.1,
Wick,17/10/2019 12:00,11.3,9,,,0,0,72,,160,Dry,1000,0,45,,,,6.5,
Wick,17/10/2019 13:00,11.6,8,,,0,,73,,120,Dry,1000,0,45,,,,7,
Wick,17/10/2019 14:00,11.4,8,,,0,,74,,100,Dry,999,0,30,,,,7.1,
Wick,17/10/2019 15:00,11.3,9,,,0,,76,,160,Dry,999,0,35,,,,7.3,
Wick,17/10/2019 16:00,11,8,,,0,,76,,130,Dry,999,0,35,,,,7.1,
Wick,17/10/2019 17:00,10.5,7,,,0,,83,,120,Dry,999,0,30,,,,7.8,
Wick,17/10/2019 18:00,10.8,8,,11.9,0,0,87,,140,Dry,999,0,25,,,,8.8,
Wick,17/10/2019 19:00,10.7,9,,,0,,88,,140,Dry,999,2,29,,,,8.9,
Wick,17/10/2019 20:00,10.7,13,,,0,,88,,150,Dry,999,0,22,,,,8.9,
Wick,17/10/2019 21:00,10.6,9,,,0,,89,,150,Dry,998,1,22,,,,8.9,
Wick,17/10/2019 22:00,10.8,10,,,0,,88,,150,Dry,998,2,19,,,,8.9,
Wick,17/10/2019 23:00,10.3,8,,,0,,89,,140,Dry,998,0,14,,,,8.6,
Wick,18/10/2019 00:00,10.4,7,,,0,0,91,,130,Dry,998,5,16,,,,9.1,
Wick,18/10/2019 01:00,10.4,7,,,0,,92,,130,Dry,998,1,16,,,,9.2,
Wick,18/10/2019 02:00,10.6,9,,,0,,89,,130,Dry,998,8,20,,,,9,
Wick,18/10/2019 03:00,10.6,12,,,0,,89,,120,Dry,997,6,15,,,,8.9,
Wick,18/10/2019 04:00,10.7,13,,,0,,88,,120,Dry,997,8,19,,,,8.9,
Wick,18/10/2019 05:00,10.6,13,,,0,,89,,110,Dry,997,3,17,,,,9,
Wick,18/10/2019 06:00,10.8,14,10.2,,0,0,88,,100,Dry,997,8,18,,,,9,
Wick,18/10/2019 07:00,9.5,9,,,1.6,,93,,110,Light shower,997,7,14,,,,8.5,
Wick,18/10/2019 08:00,10,10,,,1,,92,,70,Light rain,997,8,12,,,,8.8,
Wick,18/10/2019 09:00,10.4,16,,,0,,89,,80,Rain,997,3,35,,,,8.7,
Wick,18/10/2019 10:00,10.5,14,,,0,,88,,80,Dry,997,8,30,,,,8.7,
Wick,18/10/2019 11:00,10.6,13,,,0,,89,,70,Dry,997,6,35,,,,9,
Wick,18/10/2019 12:00,9.8,9,,,2.6,5,95,,50,Moderate shower,997,8,4,,,,9.1,
Wick,18/10/2019 13:00,9,6,,,12.6,,96,,100,Moderate rain,997,8,4,,,,8.5,
Wick,18/10/2019 14:00,10.8,18,,,0.8,,94,,70,Rain,997,8,13,,,,10,
Wick,18/10/2019 15:00,10.9,17,,,0,,92,,60,Dry,997,8,17,,,,9.7,
Wick,18/10/2019 16:00,10.7,17,,,0,,91,,60,Dry,997,7,18,,,,9.4,
Wick,18/10/2019 17:00,10.8,18,,,0,,92,,50,Dry,997,8,16,,,,9.6,
Wick,18/10/2019 18:00,10.7,20,,11,0,14,93,,40,Moderate shower,998,8,14,,,,9.7,
Wick,18/10/2019 19:00,10.6,21,,,0,,91,,40,Rain,998,1,16,,,,9.3,
Wick,18/10/2019 20:00,10.6,23,,,0.2,,92,30,40,Rain,998,8,15,,,,9.5,
Wick,18/10/2019 21:00,10.6,24,,,0.2,,91,31,30,Dry,998,2,24,,,,9.3,
Wick,18/10/2019 22:00,10.1,22,,,1.8,,97,33,40,Light shower,999,8,6,,,,9.7,
Wick,18/10/2019 23:00,10.3,22,,,0.2,,90,32,30,Rain,999,8,17,,,,8.8,
Wick,19/10/2019 00:00,10.3,22,,,0,2,87,29,30,Dry,1000,1,19,,,,8.4,
Wick,19/10/2019 01:00,9.9,22,,,0,,85,29,20,Dry,1000,8,19,,,,7.6,
Wick,19/10/2019 02:00,9.9,22,,,0,,82,31,20,Dry,1000,8,29,,,,7,
Wick,19/10/2019 03:00,9.3,22,,,0,,82,29,20,Dry,1000,3,26,,,,6.4,
Wick,19/10/2019 04:00,9.3,18,,,0,,80,,20,Dry,1001,5,35,,,,6.2,
Wick,19/10/2019 05:00,9.3,15,,,0,,82,,10,Dry,1001,5,30,,,,6.4,
Wick,19/10/2019 06:00,9.4,15,9.1,,0,0,86,,360,Dry,1001,2,27,,,,7.3,
Wick,19/10/2019 07:00,8.9,17,,,0,,90,,350,Dry,1002,5,23,,,,7.4,
Wick,19/10/2019 08:00,9,16,,,0,,87,,350,Dry,1002,4,27,,,,7,
Wick,19/10/2019 09:00,9,12,,,0,,85,,350,Dry,1002,4,40,,,,6.7,
Wick,19/10/2019 10:00,9.6,16,,,0,,84,,360,Dry,1002,7,45,,,,7.1,
Wick,19/10/2019 11:00,11,17,,,0,,80,,20,Dry,1003,5,28,,,,7.7,
Wick,19/10/2019 12:00,9.4,21,,,0.4,0.4,93,30,10,Light shower,1003,7,7,,,,8.4,
Wick,19/10/2019 13:00,10.6,21,,,0.4,,85,30,10,Rain,1003,6,28,,,,8.3,
Wick,19/10/2019 14:00,10.2,20,,,0,,85,,10,Dry,1004,6,30,,,,7.8,
Wick,19/10/2019 15:00,10.1,20,,,0,,81,,20,Dry,1004,1,28,,,,7,
Wick,19/10/2019 16:00,9.3,20,,,0.2,,86,32,10,Rain,1005,7,19,,,,7.2,
Wick,19/10/2019 17:00,9.4,26,,,0,,82,36,20,Rain,1005,7,15,,,,6.6,
Wick,19/10/2019 18:00,9.1,29,,11.4,0.2,0.6,85,39,10,Rain,1006,8,15,,,,6.8,
Wick,19/10/2019 19:00,8.7,26,,,0.2,,84,41,10,Rain,1007,1,14,,,,6.3,
Wick,19/10/2019 20:00,8.4,28,,,0,,75,39,360,Dry,1008,7,16,,,,4.3,
Wick,19/10/2019 21:00,7.9,25,,,0,,76,38,350,Dry,1008,1,17,,,,4.1,
Wick,19/10/2019 22:00,7.6,24,,,0,,83,33,350,Dry,1009,6,27,,,,5,
Wick,19/10/2019 23:00,7.4,17,,,0,,85,30,330,Dry,1009,7,14,,,,5.2,
Wick,20/10/2019 00:00,7.2,18,,,0,0.2,85,,330,Dry,1010,1,25,,,,4.9,
Wick,20/10/2019 01:00,7.4,23,,,0,,87,31,340,Dry,1010,7,26,,,,5.4,
Wick,20/10/2019 02:00,7.5,23,,,0,,80,33,340,Dry,1010,7,35,,,,4.4,
Wick,20/10/2019 03:00,7.4,22,,,0,,86,30,340,Dry,1011,7,25,,,,5.3,
Wick,20/10/2019 04:00,7.4,22,,,0,,85,30,340,Dry,1012,1,20,,,,5.1,
Wick,20/10/2019 05:00,7.5,24,,,0,,79,33,350,Dry,1013,7,30,,,,4.2,
Wick,20/10/2019 06:00,7.5,23,6.9,,0,0,78,32,350,Dry,1014,7,40,,,,4,
Wick,20/10/2019 07:00,7,22,,,0,,84,30,350,Dry,1014,8,35,,,,4.5,
Wick,20/10/2019 08:00,6.9,22,,,0.8,,92,31,350,Light shower,1015,7,12,,,,5.7,
Wick,20/10/2019 09:00,7.9,21,,,0,,84,32,350,Rain,1016,8,35,,,,5.5,
Wick,20/10/2019 10:00,8,21,,,0,,85,29,340,Dry,1017,4,21,,,,5.8,
Wick,20/10/2019 11:00,7.8,22,,,0,,80,30,350,Drizzly rain,1018,1,7,,,,4.7,
Wick,20/10/2019 12:00,8,16,,,0.2,1,87,29,330,Rain,1018,8,12,,,,6,
Wick,20/10/2019 13:00,7.8,18,,,0,,84,,340,Haze,1019,6,6,,,,5.4,
Wick,20/10/2019 14:00,7.8,22,,,0,,79,29,350,Rain,1020,8,40,,,,4.4,
Wick,20/10/2019 15:00,8.3,17,,,0,,77,,330,Dry,1020,8,40,,,,4.6,
Wick,20/10/2019 16:00,7.7,15,,,0,,79,,320,Dry,1020,7,23,,,,4.3,
Wick,20/10/2019 17:00,6.7,9,,,0,,85,,320,Dry,1021,8,45,,,,4.4,
Wick,20/10/2019 18:00,6.3,10,,9.3,0,0,84,,320,Dry,1022,8,45,,,,3.8,
Wick,20/10/2019 19:00,6.9,9,,,0,,78,,320,Dry,1022,8,30,,,,3.4,
Wick,20/10/2019 20:00,6.9,9,,,0,,74,,320,Dry,1022,8,25,,,,2.7,
Wick,20/10/2019 21:00,6.8,9,,,0,,75,,320,Dry,1023,8,35,,,,2.8,
Wick,20/10/2019 22:00,6.5,7,,,0,,79,,300,Dry,1023,8,30,,,,3.2,
Wick,20/10/2019 23:00,6.1,5,,,0,,82,,250,Dry,1023,8,50,,,,3.4,
Wick,21/10/2019 00:00,6.1,5,,,0,0,84,,230,Dry,1023,8,45,,,,3.7,
Wick,21/10/2019 01:00,5.8,5,,,0,,87,,290,Dry,1023,8,45,,,,3.9,
Wick,21/10/2019 02:00,6,5,,,0,,83,,230,Dry,1023,8,45,,,,3.5,
Wick,21/10/2019 03:00,5.8,6,,,0,,86,,240,Dry,1023,8,50,,,,3.7,
Wick,21/10/2019 04:00,6,6,,,0,,83,,220,Dry,1023,8,50,,,,3.5,
Wick,21/10/2019 05:00,6.3,7,,,0,,76,,230,Dry,1023,8,45,,,,2.4,
Wick,21/10/2019 06:00,5.7,7,5.6,,0,0,81,,220,Dry,1022,8,50,,,,2.8,
Wick,21/10/2019 07:00,5.8,12,,,0,,75,,210,Dry,1022,8,50,,,,1.9,
Wick,21/10/2019 08:00,5.2,8,,,0,,74,,210,Dry,1022,5,45,,,,1.1,
Wick,21/10/2019 09:00,5.5,9,,,0,,77,,200,Dry,1022,1,50,,,,1.8,
Wick,21/10/2019 10:00,7,13,,,0,,69,,190,Dry,1022,8,45,,,,1.9,
Wick,21/10/2019 11:00,7,16,,,0,,71,,190,Dry,1021,8,50,,,,2.3,
Wick,21/10/2019 12:00,7.5,15,,,0,0,72,,190,Dry,1020,8,45,,,,2.9,
Wick,21/10/2019 13:00,7.8,15,,,0,,73,,200,Dry,1019,8,26,,,,3.4,
Wick,21/10/2019 14:00,8.1,15,,,0,,72,,190,Dry,1018,8,30,,,,3.5,
Wick,21/10/2019 15:00,8.2,15,,,0,,74,,190,Dry,1017,7,45,,,,4,
Wick,21/10/2019 16:00,8.2,14,,,0,,76,,200,Dry,1016,1,45,,,,4.3,
Wick,21/10/2019 17:00,8.5,14,,,0,,73,,200,Dry,1016,7,45,,,,4.1,
Wick,21/10/2019 18:00,8.5,12,,8.7,0,0,73,,190,Dry,1015,8,45,,,,4,
Wick,21/10/2019 19:00,8.8,15,,,0,,74,,200,Dry,1014,1,45,,,,4.6,
Wick,21/10/2019 20:00,9,13,,,0,,73,,200,Dry,1013,8,50,,,,4.5,
Wick,21/10/2019 21:00,9.1,9,,,0,,77,,200,Dry,1013,8,30,,,,5.4,
Wick,21/10/2019 22:00,9.4,12,,,0,,73,,220,Rain,1012,8,50,,,,4.9,
Wick,21/10/2019 23:00,9.3,14,,,0,,73,,220,Dry,1011,8,45,,,,4.9,
Wick,22/10/2019 00:00,9.8,18,,,0,0,72,,230,Dry,1011,0,50,,,,5.1,
Wick,22/10/2019 01:00,10.2,20,,,0,,76,,230,Dry,1010,8,40,,,,6.2,
Wick,22/10/2019 02:00,9.6,18,,,0.4,,84,29,210,Light shower,1010,8,11,,,,7.2,
Wick,22/10/2019 03:00,9.1,14,,,1.2,,89,,190,Light rain,1009,8,30,,,,7.5,
Wick,22/10/2019 04:00,9.4,14,,,0.4,,89,,210,Light rain,1009,8,18,,,,7.7,
Wick,22/10/2019 05:00,9.9,15,,,0.6,,87,,210,Light rain,1009,8,30,,,,8,
Wick,22/10/2019 06:00,10.2,16,8.4,,0,3,85,,190,Rain,1008,8,40,,,,7.9,
Wick,22/10/2019 07:00,10.5,13,,,0,,85,,180,Drizzly rain,1009,8,28,,,,8.2,
Wick,22/10/2019 08:00,10.9,15,,,0.2,,82,,190,Rain,1009,8,35,,,,8,
Wick,22/10/2019 09:00,11.2,12,,,0,,82,,180,Rain,1009,7,35,,,,8.4,
Wick,22/10/2019 10:00,11.7,14,,,0,,83,,180,Dry,1009,8,35,,,,9,
Wick,22/10/2019 11:00,12,10,,,0,,81,,200,Dry,1009,8,40,,,,9,
Wick,22/10/2019 12:00,11,7,,,-0.2,,,,210,Rain,,8,10,,,,10,
Wick,22/10/2019 13:00,11,12,,,-0.2,,,,220,Drizzly rain,,8,18,,,,10,
Wick,22/10/2019 14:00,12,10,,,-0.2,,,,220,Rain,,8,24,,,,10,
Wick,22/10/2019 15:00,12,7,,,-0.2,,,,210,-,,8,10,,,,10,
Wick,22/10/2019 16:00,12,7,,,-0.2,,,,210,Drizzly rain,,8,29,,,,10,
Wick,22/10/2019 17:00,11.3,12,,,-0.2,,92,,190,Rain,1008,8,35,,,,10.1,
Wick,22/10/2019 18:00,11.2,13,,,0,,88,,190,Dry,1008,7,26,,,,9.4,
Wick,22/10/2019 19:00,11.2,17,,,0,,87,,200,Dry,1008,7,27,,,,9.2,
Wick,22/10/2019 20:00,11.1,16,,,0,,86,,180,Dry,1008,4,30,,,,8.9,
Wick,22/10/2019 21:00,11.1,20,,,0,,86,29,190,Dry,1007,1,23,,,,8.9,
Wick,22/10/2019 22:00,11.1,21,,,0,,82,31,200,Dry,1007,8,28,,,,8.3,
Wick,22/10/2019 23:00,10.8,17,,,0,,82,29,200,Dry,1007,8,40,,,,8,
Wick,23/10/2019 00:00,10.4,17,,,0.2,0.2,87,,190,Moderate shower,1007,8,14,,,,8.5,
Wick,23/10/2019 01:00,10.3,10,,,1.4,,90,,190,Light rain,1007,8,24,,,,8.8,
Wick,23/10/2019 02:00,10.4,10,,,0,,88,,190,Rain,1006,8,35,,,,8.6,
Wick,23/10/2019 03:00,10.6,17,,,0,,86,,190,Dry,1005,0,45,,,,8.5,
Wick,23/10/2019 04:00,10.7,17,,,0,,85,,200,Dry,1005,8,45,,,,8.3,
Wick,23/10/2019 05:00,10.7,17,,,0,,85,,190,Dry,1005,0,45,,,,8.4,
Wick,23/10/2019 06:00,10.3,15,10.2,,0.4,1.8,89,,190,Moderate shower,1005,8,12,,,,8.6,
Wick,23/10/2019 07:00,10.2,17,,,1,,89,,180,Moderate rain,1004,8,12,,,,8.6,
Wick,23/10/2019 08:00,10.2,15,,,1.2,,90,,180,Moderate rain,1004,7,11,,,,8.7,
Wick,23/10/2019 09:00,10.7,14,,,0.2,,88,,170,Rain,1004,3,40,,,,8.9,
Wick,23/10/2019 10:00,10.6,14,,,0,,86,,190,Rain,1004,7,35,,,,8.5,
Wick,23/10/2019 11:00,11.6,20,,,0,,79,31,170,Dry,1002,8,30,,,,8.2,
Wick,23/10/2019 12:00,11.8,21,,,0,2,76,31,180,Dry,1002,8,30,,,,7.9,
Wick,23/10/2019 13:00,11.3,22,,,0,,80,32,200,Moderate shower,1001,8,11,,,,8,
Wick,23/10/2019 14:00,11.5,16,,,0.6,,77,33,170,Light rain,1000,8,14,,,,7.8,
Wick,23/10/2019 15:00,11.6,15,,,0.2,,79,,180,Light rain,999,8,15,,,,8.2,
Wick,23/10/2019 16:00,11.6,15,,,0.2,,79,,170,Moderate rain,998,8,15,,,,8.1,
Wick,23/10/2019 17:00,12.1,17,,,0.4,,75,29,170,Light rain,998,8,20,,,,8,
Wick,23/10/2019 18:00,12.1,18,,12.2,0,2,74,30,170,Drizzly rain,997,8,17,,,,7.8,
Wick,23/10/2019 19:00,11.7,16,,,0,,78,29,170,Light rain,997,8,13,,,,8.1,
Wick,23/10/2019 20:00,12.1,22,,,0.2,,75,35,170,Rain,996,8,19,,,,7.9,
Wick,23/10/2019 21:00,12.1,22,,,0,,77,32,160,Rain,995,8,20,,,,8.2,
Wick,23/10/2019 22:00,12,15,,,0,,78,,150,Dry,995,8,17,,,,8.4,
Wick,23/10/2019 23:00,11.9,18,,,0,,80,32,170,Rain,994,8,15,,,,8.6,
Wick,24/10/2019 00:00,11.8,20,,,0,0.2,77,35,190,Dry,994,1,23,,,,8,
Wick,24/10/2019 01:00,11.4,17,,,0,,80,30,180,Dry,994,0,30,,,,8.1,
Wick,24/10/2019 02:00,11.2,18,,,0,,82,,180,Dry,994,1,26,,,,8.3,
Wick,24/10/2019 03:00,11.4,15,,,0,,84,,190,Dry,994,7,35,,,,8.8,
Wick,24/10/2019 04:00,11.4,14,,,0,,83,,180,Dry,994,8,35,,,,8.7,
Wick,24/10/2019 05:00,11.4,16,,,0,,80,,180,Dry,994,8,40,,,,8.1,
Wick,24/10/2019 06:00,10.4,13,10.4,,0,0,85,,190,Dry,994,4,29,,,,8.1,
Wick,24/10/2019 07:00,10.5,18,,,0,,82,29,190,Dry,993,1,35,,,,7.7,
Wick,24/10/2019 08:00,10.6,16,,,0,,81,,190,Dry,993,0,30,,,,7.6,
Wick,24/10/2019 09:00,11.4,3,,,0,,75,,160,Dry,993,1,24,,,,7.3,
Wick,24/10/2019 10:00,11.9,17,,,0,,70,29,190,Dry,993,0,35,,,,6.8,
Wick,24/10/2019 11:00,12,22,,,0,,69,33,190,Dry,993,0,26,,,,6.6,
Wick,24/10/2019 12:00,12.1,21,,,0,0,73,31,200,Dry,993,4,5,,,,7.6,
Wick,24/10/2019 13:00,10.6,21,,,0.2,,67,33,250,Rain,994,4,35,,,,4.8,
Wick,24/10/2019 14:00,9.4,24,,,0,,66,36,260,Dry,995,1,27,,,,3.4,
Wick,24/10/2019 15:00,8.2,25,,,0,,71,36,280,Dry,996,1,35,,,,3.3,
Wick,24/10/2019 16:00,6.5,18,,,0,,75,31,270,Dry,997,1,40,,,,2.4,
Wick,24/10/2019 17:00,5,16,,,0,,79,,250,Dry,997,0,35,,,,1.7,
Wick,24/10/2019 18:00,3.8,10,,12.6,0,0.2,84,,250,Dry,998,0,45,,,,1.4,
Wick,24/10/2019 19:00,3,12,,,0,,83,,250,Dry,998,0,45,,,,0.4,
Wick,24/10/2019 20:00,2.5,12,,,0,,85,,240,Dry,999,0,35,,,,0.3,
Wick,24/10/2019 21:00,3.7,14,,,0,,81,,240,Dry,999,0,30,,,,0.9,
Wick,24/10/2019 22:00,2.9,14,,,0,,81,,220,Dry,1000,2,45,,,,0,
Wick,24/10/2019 23:00,2.8,15,,,0,,82,,210,Dry,1000,1,45,,,,0.1,
Wick,25/10/2019 00:00,2.7,20,,,0,0,79,,210,Dry,1000,0,45,,,,-0.5,
Wick,25/10/2019 01:00,2.3,16,,,0,,75,30,220,Dry,1000,0,40,,,,-1.6,
Wick,25/10/2019 02:00,2,17,,,0,,82,33,200,Dry,1000,0,45,,,,-0.7,
Wick,25/10/2019 03:00,2.8,29,,,0,,79,38,210,Dry,999,1,40,,,,-0.4,
Wick,25/10/2019 04:00,2.4,21,,,0,,75,32,210,Dry,999,0,50,,,,-1.5,
Wick,25/10/2019 05:00,2.7,18,,,0,,76,,210,Dry,999,0,50,,,,-1.1,
Wick,25/10/2019 06:00,3.2,21,1.9,,0,0,74,32,200,Dry,999,0,50,,,,-0.8,
Wick,25/10/2019 07:00,3.5,22,,,0,,76,32,200,Dry,999,0,50,,,,-0.2,
Wick,25/10/2019 08:00,4.1,23,,,0,,65,35,200,Dry,998,0,45,,,,-1.7,
Wick,25/10/2019 09:00,4.8,21,,,0,,60,36,210,Dry,999,0,40,,,,-2.2,
Wick,25/10/2019 10:00,6.1,26,,,0,,58,38,220,Dry,998,0,27,,,,-1.5,
Wick,25/10/2019 11:00,7.2,33,,,0,,57,45,220,Dry,998,0,19,,,,-0.7,
Wick,25/10/2019 12:00,8,32,,,0,0,51,53,220,Dry,998,0,35,,,,-1.3,
Wick,25/10/2019 13:00,8.1,33,,,0,,52,51,230,Dry,998,1,23,,,,-1.1,
Wick,25/10/2019 14:00,8.2,24,,,0,,53,46,230,Dry,999,0,28,,,,-0.7,
Wick,25/10/2019 15:00,7.7,24,,,0,,56,38,230,Dry,999,1,35,,,,-0.3,
Wick,25/10/2019 16:00,6.8,25,,,0,,57,37,220,Dry,998,0,30,,,,-0.9,
Wick,25/10/2019 17:00,5.6,17,,,0,,63,31,220,Dry,998,0,40,,,,-0.8,
Wick,25/10/2019 18:00,5.1,15,,8.4,0,0,66,,220,Dry,999,1,45,,,,-0.6,
Wick,25/10/2019 19:00,4.8,13,,,0,,64,,210,Dry,998,1,40,,,,-1.4,
Wick,25/10/2019 20:00,4.8,15,,,0,,61,,200,Dry,998,0,50,,,,-1.9,
Wick,25/10/2019 21:00,4.7,16,,,0,,67,,210,Dry,998,0,40,,,,-0.8,
Wick,25/10/2019 22:00,4.3,15,,,0,,67,,210,Dry,998,0,40,,,,-1.1,
Wick,25/10/2019 23:00,4.2,16,,,0,,68,,210,Dry,997,0,45,,,,-1,
Wick,26/10/2019 00:00,4.2,21,,,0,0,70,,210,Dry,997,0,50,,,,-0.6,
Wick,26/10/2019 01:00,4.8,22,,,0,,68,30,210,Dry,996,1,40,,,,-0.4,
Wick,26/10/2019 02:00,4.4,17,,,0,,72,31,200,Dry,996,0,40,,,,-0.1,
Wick,26/10/2019 03:00,4.7,17,,,0,,72,30,200,Dry,996,1,35,,,,0.2,
Wick,26/10/2019 04:00,5.2,20,,,0,,71,,210,Dry,996,2,40,,,,0.5,
Wick,26/10/2019 05:00,5.4,25,,,0,,76,36,220,Dry,996,4,50,,,,1.6,
Wick,26/10/2019 06:00,5.3,22,3.7,,0,0,79,32,220,Dry,996,1,50,,,,2.1,
Wick,26/10/2019 07:00,5.1,17,,,0,,80,29,220,Dry,997,1,45,,,,2,
Wick,26/10/2019 08:00,5.1,16,,,0,,82,,220,Dry,997,0,45,,,,2.3,
Wick,26/10/2019 09:00,5.8,21,,,0,,79,30,220,Dry,997,0,50,,,,2.5,
Wick,26/10/2019 10:00,7,21,,,0,,78,29,230,Dry,997,0,40,,,,3.5,
Wick,26/10/2019 11:00,7.3,22,,,0,,78,29,240,Haze,998,3,5,,,,3.9,
Wick,26/10/2019 12:00,8.1,21,,,0,0,72,,230,Dry,997,1,40,,,,3.5,
Wick,26/10/2019 13:00,8.5,23,,,0,,66,31,240,Dry,997,1,40,,,,2.6,
Wick,26/10/2019 14:00,7.7,12,,,0,,73,30,250,Dry,997,5,50,,,,3.2,
Wick,26/10/2019 15:00,7.7,12,,,0,,73,,220,Dry,997,0,50,,,,3.2,
Wick,26/10/2019 16:00,6.9,15,,,0,,76,,220,Dry,997,6,45,,,,3.1,
Wick,26/10/2019 17:00,5.5,16,,,0,,81,,210,Dry,997,1,50,,,,2.6,
Wick,26/10/2019 18:00,5.3,16,,8.7,0,0,80,,210,Dry,997,1,50,,,,2.2,
Wick,26/10/2019 19:00,5.2,18,,,0,,83,,230,Dry,997,6,50,,,,2.7,
Wick,26/10/2019 20:00,5.4,18,,,0,,87,,230,Rain,997,8,50,,,,3.5,
Wick,26/10/2019 21:00,6,18,,,0,,88,,250,Rain,998,1,40,,,,4.3,
Wick,26/10/2019 22:00,6.2,20,,,0.4,,90,30,250,Rain,998,7,40,,,,4.7,
Wick,26/10/2019 23:00,6.3,24,,,0,,90,33,250,Light drizzle,999,1,4,,,,4.9,
Wick,27/10/2019 00:00,6.7,22,,,0.4,0.8,90,32,260,Moderate rain,999,2,20,,,,5.2,
Wick,27/10/2019 01:00,6.4,23,,,0.8,,91,41,250,Moderate shower,1000,8,10,,,,5.1,
Wick,27/10/2019 02:00,5.9,23,,,0.6,,90,39,250,Light rain,1000,8,50,,,,4.4,
Wick,27/10/2019 03:00,6.2,22,,,0.4,,93,33,260,Light shower,1001,8,25,,,,5.2,
Wick,27/10/2019 04:00,7.2,24,,,0.2,,89,41,270,Rain,1001,7,14,,,,5.6,
Wick,27/10/2019 05:00,6.3,30,,,0.6,,90,46,290,Moderate shower,1003,8,13,,,,4.9,
Wick,27/10/2019 06:00,7.4,23,5.2,,0.4,3.2,89,39,300,Rain,1004,8,17,,,,5.8,
Wick,27/10/2019 07:00,7.8,21,,,0,,87,32,300,Rain,1006,6,6,,,,5.9,
Wick,27/10/2019 08:00,7.8,20,,,0.2,,85,32,310,Rain,1008,3,27,,,,5.5,
Wick,27/10/2019 09:00,8.2,18,,,0,,85,,310,Dry,1010,1,25,,,,6,
Wick,27/10/2019 10:00,8.9,22,,,0,,84,33,320,Dry,1011,6,17,,,,6.5,
Wick,27/10/2019 11:00,8.4,20,,,1.2,,87,39,320,Rain,1013,4,22,,,,6.5,
Wick,27/10/2019 12:00,8.8,20,,,0.6,2,81,35,310,Rain,1015,2,26,,,,5.9,
Wick,27/10/2019 13:00,8.8,21,,,0,,80,35,310,Dry,1016,7,9,,,,5.7,
Wick,27/10/2019 14:00,8.4,22,,,0,,74,30,310,Dry,1017,2,19,,,,4.1,
Wick,27/10/2019 15:00,7.4,16,,,0,,78,,300,Dry,1018,5,17,,,,3.9,
Wick,27/10/2019 16:00,5.5,16,,,0.6,,86,33,310,Rain,1019,4,35,,,,3.5,
Wick,27/10/2019 17:00,5.4,13,,,0,,88,,310,Rain,1020,5,24,,,,3.6,
Wick,27/10/2019 18:00,4.8,9,,9.4,0,1,89,,290,Dry,1021,8,35,,,,3.3,
Wick,27/10/2019 19:00,5.8,10,,,0,,86,,330,Dry,1022,8,30,,,,3.7,
Wick,27/10/2019 20:00,4.4,10,,,0.2,,88,,310,Rain,1022,5,45,,,,2.6,
Wick,27/10/2019 21:00,4.9,10,,,0.4,,89,,320,Rain,1023,6,24,,,,3.3,
Wick,27/10/2019 22:00,4.5,12,,,0,,89,,310,Rain,1024,7,45,,,,3,
Wick,27/10/2019 23:00,4.3,9,,,0.6,,91,,300,Rain,1024,8,35,,,,3.1,
Wick,28/10/2019 00:00,4.3,12,,,0.2,1,91,,270,Light shower,1024,2,26,,,,3,
Wick,28/10/2019 01:00,3.8,9,,,0,,88,,280,Rain,1024,7,30,,,,2.1,
Wick,28/10/2019 02:00,4.4,10,,,0,,86,,280,Rain,1024,7,30,,,,2.3,
Wick,28/10/2019 03:00,4.6,10,,,0.4,,88,,300,Rain,1024,8,30,,,,2.9,
Wick,28/10/2019 04:00,3.5,8,,,0,,92,20,280,Rain,1025,6,35,,,,2.4,
Wick,28/10/2019 05:00,4.7,9,,,0.2,,91,,290,Rain,1025,8,30,,,,3.4,
Wick,28/10/2019 06:00,5.2,18,2.9,,0.4,1,88,29,310,Moderate shower,1025,7,7,,,,3.4,
Wick,28/10/2019 07:00,3.8,9,,,0.2,,92,,280,Rain,1025,7,25,,,,2.7,
Wick,28/10/2019 08:00,5,12,,,0,,89,,310,Rain,1026,8,40,,,,3.4,
Wick,28/10/2019 09:00,6.1,9,,,0.2,,87,,320,Rain,1026,3,21,,,,4.2,
Wick,28/10/2019 10:00,6.4,10,,,0,,84,,320,Light shower,1027,5,30,,,,4,
Wick,28/10/2019 11:00,7,13,,,0,,81,,320,Rain,1027,6,30,,,,4.1,
Wick,28/10/2019 12:00,7.9,16,,,0,0.4,73,,340,Dry,1028,1,25,,,,3.5,
Wick,28/10/2019 13:00,8.6,14,,,0,,73,,340,Dry,1028,1,35,,,,4.2,
Wick,28/10/2019 14:00,6.8,14,,,0.2,,78,,350,Rain,1028,6,30,,,,3.3,
Wick,28/10/2019 15:00,7.6,15,,,0,,74,,350,Dry,1028,3,20,,,,3.4,
Wick,28/10/2019 16:00,6.6,15,,,0.2,,79,,350,Rain,1029,4,35,,,,3.3,
Wick,28/10/2019 17:00,6.1,13,,,0,,82,,340,Dry,1029,4,40,,,,3.4,
Wick,28/10/2019 18:00,4.3,10,,8.9,0,0.4,87,,310,Dry,1030,5,30,,,,2.4,
Wick,28/10/2019 19:00,5.1,10,,,0,,93,,330,Dry,1030,4,27,,,,4.1,
Wick,28/10/2019 20:00,2.9,9,,,0,,90,,320,Dry,1030,2,18,,,,1.5,
Wick,28/10/2019 21:00,5.9,8,,,0,,85,,340,Dry,1030,2,40,,,,3.6,
Wick,28/10/2019 22:00,3,9,,,0,,93,,310,Dry,1031,5,30,,,,2,
Wick,28/10/2019 23:00,6,13,,,0,,76,,10,Dry,1031,4,45,,,,2.2,
Wick,29/10/2019 00:00,3.9,10,,,0,0,88,,320,Dry,1031,1,30,,,,2.1,
Wick,29/10/2019 01:00,1.9,8,,,0,,91,,300,Dry,1032,4,35,,,,0.6,
Wick,29/10/2019 02:00,3,3,,,0.4,,97,,350,Moderate shower,1032,7,8,,,,2.7,
Wick,29/10/2019 03:00,1.4,7,,,0,,95,,270,Rain,1032,4,28,,,,0.7,
Wick,29/10/2019 04:00,1.3,5,,,0,,95,,290,Dry,1032,0,35,,,,0.7,
Wick,29/10/2019 05:00,1.4,6,,,0,,96,,300,Dry,1032,3,45,,,,0.9,
Wick,29/10/2019 06:00,1.2,7,0.8,,0,0.4,95,,270,Dry,1032,2,45,,,,0.5,
Wick,29/10/2019 07:00,1.3,5,,,0,,95,,290,Dry,1032,0,35,,,,0.7,
Wick,29/10/2019 08:00,0.7,7,,,0.2,,95,,270,Dry,1033,6,30,,,,0.1,
Wick,29/10/2019 09:00,0.8,5,,,0,,95,,260,Dry,1033,1,30,,,,0.2,
Wick,29/10/2019 10:00,3.8,6,,,0,,96,,260,Dry,1033,7,27,,,,3.3,
Wick,29/10/2019 11:00,6.2,5,,,0,,92,,290,Dry,1033,7,40,,,,5.1,
Wick,29/10/2019 12:00,8.7,6,,,0,0.2,78,,340,Dry,1033,1,35,,,,5.2,
Wick,29/10/2019 13:00,9.1,3,,,0,,68,,350,Dry,1033,1,17,,,,3.7,
Wick,29/10/2019 14:00,8.5,5,,,0,,70,,350,Dry,1033,2,45,,,,3.4,
Wick,29/10/2019 15:00,8.3,5,,,0,,73,,10,Dry,1033,7,30,,,,3.9,
Wick,29/10/2019 16:00,7.4,5,,,0,,78,,310,Dry,1033,8,40,,,,3.9,
Wick,29/10/2019 17:00,6.3,7,,,0,,84,,320,Dry,1033,7,50,,,,3.8,
Wick,29/10/2019 18:00,5.1,5,,9.4,0,0,87,,300,Dry,1033,8,45,,,,3.2,
Wick,29/10/2019 19:00,4.2,5,,,0,,88,,240,Dry,1033,2,45,,,,2.5,
Wick,29/10/2019 20:00,3.3,5,,,0,,93,,230,Dry,1033,0,35,,,,2.3,
Wick,29/10/2019 21:00,1.6,5,,,0,,94,,260,Dry,1033,0,35,,,,0.8,
Wick,29/10/2019 22:00,1.5,6,,,0,,95,,240,Dry,1033,5,35,,,,0.9,
Wick,29/10/2019 23:00,1.3,5,,,0,,95,,230,Dry,1033,8,45,,,,0.7,
Wick,30/10/2019 00:00,1.4,6,,,0,0,94,,270,Dry,1032,7,35,,,,0.6,
Wick,30/10/2019 01:00,0.7,5,,,0,,93,,250,Dry,1032,1,40,,,,-0.2,
Wick,30/10/2019 02:00,0.7,5,,,0,,95,,250,Dry,1032,4,45,,,,0,
Wick,30/10/2019 03:00,0.3,3,,,0,,97,,250,Dry,1032,3,45,,,,-0.1,
Wick,30/10/2019 04:00,1.7,1,,,0,,97,,330,Dry,1031,8,45,,,,1.3,
Wick,30/10/2019 05:00,2.1,2,,,0,,95,,190,Dry,1031,8,45,,,,1.4,
Wick,30/10/2019 06:00,2.1,3,-0.6,,0,0,92,,240,Dry,1031,8,50,,,,1,
Wick,30/10/2019 07:00,2.7,3,,,0,,91,,240,Dry,1031,8,50,,,,1.4,
Wick,30/10/2019 08:00,3,3,,,0,,91,,270,Dry,1031,8,45,,,,1.7,
Wick,30/10/2019 09:00,2.8,5,,,0,,91,,270,Dry,1031,6,50,,,,1.6,
Wick,30/10/2019 10:00,4.2,3,,,0,,89,,200,Dry,1031,5,35,,,,2.7,
Wick,30/10/2019 11:00,6.4,3,,,0,,87,,190,Dry,1030,7,45,,,,4.4,
Wick,30/10/2019 12:00,9.1,2,,,0,0,65,,180,Dry,1030,4,40,,,,2.9,
Wick,30/10/2019 13:00,8.6,7,,,0,,69,,170,Dry,1030,0,25,,,,3.3,
Wick,30/10/2019 14:00,8.3,6,,,0,,68,,180,Dry,1029,0,50,,,,2.8,
Wick,30/10/2019 15:00,8.2,6,,,0,,63,,190,Dry,1029,1,35,,,,1.7,
Wick,30/10/2019 16:00,7.3,5,,,0,,65,,180,Dry,1028,1,40,,,,1.3,
Wick,30/10/2019 17:00,6,3,,,0,,67,,180,Dry,1028,1,50,,,,0.5,
Wick,30/10/2019 18:00,5.4,2,,9.2,0,0,73,,180,Dry,1028,5,50,,,,1.1,
Wick,30/10/2019 19:00,5.5,2,,,0,,74,,210,Dry,1028,8,50,,,,1.4,
Wick,30/10/2019 20:00,6.6,5,,,0,,70,,170,Dry,1028,8,45,,,,1.7,
Wick,30/10/2019 21:00,8.1,8,,,0,,60,,170,Dry,1027,8,50,,,,0.9,
Wick,30/10/2019 22:00,8.2,10,,,0,,60,,160,Dry,1027,8,45,,,,1.1,
Wick,30/10/2019 23:00,8,12,,,0,,58,,170,Dry,1026,8,50,,,,0.3,
Wick,31/10/2019 00:00,8,8,,,0,0,64,,170,Dry,1026,8,50,,,,1.7,
