Site,Date(UTC),Air Temp,Wind Speed,Min Temp,Max Temp,1Hr Precip,6Hr Precip,Rel Humidity,Wind Gust,Wind Direction,Weather,Pressure,Total Cloud,Visibility,Solar Rad,Sunshine,Snow Depth,Dew Point,OLE Temp
Wick,01/09/2018 00:00,13.8,13,,,0,0,81,,170,Dry,1016,5,18,,,,10.6,
Wick,01/09/2018 01:00,13.9,7,,,0,,79,,160,Dry,1016,8,20,,,,10.5,
Wick,01/09/2018 02:00,13.9,8,,,0,,77,,200,Drizzly rain,1016,1,23,,,,10.1,
Wick,01/09/2018 03:00,14,9,,,0,,77,,180,Rain,1016,5,35,,,,10.2,
Wick,01/09/2018 04:00,14,13,,,0,,77,,180,Dry,1016,2,30,,,,10.1,
Wick,01/09/2018 05:00,14.7,15,,,0,,72,,210,Dry,1016,6,50,,,,9.9,
Wick,01/09/2018 06:00,14.8,16,13.2,,0,0,74,,180,Dry,1016,7,45,,,,10.3,
Wick,01/09/2018 07:00,14.5,12,,,0,,79,,190,Dry,1017,8,40,,,,11,
Wick,01/09/2018 08:00,14.5,12,,,0,,81,,190,Dry,1017,5,35,,,,11.4,
Wick,01/09/2018 09:00,14.8,9,,,0,,82,,180,Dry,1018,1,35,,,,11.9,
Wick,01/09/2018 10:00,15.6,7,,,0,,82,,160,Dry,1018,7,35,,,,12.6,
Wick,01/09/2018 11:00,16.6,3,,,0,,81,,170,Dry,1018,3,27,,,,13.5,
Wick,01/09/2018 12:00,16.5,6,,,0,0,84,,360,Dry,1018,1,40,,,,13.8,
Wick,01/09/2018 13:00,14.9,8,,,0,,90,,30,Dry,1019,4,40,,,,13.3,
Wick,01/09/2018 14:00,14.9,7,,,0,,90,,10,Dry,1019,7,45,,,,13.3,
Wick,01/09/2018 15:00,14.2,7,,,0,,94,,50,Drizzly rain,1019,7,12,,,,13.4,
Wick,01/09/2018 16:00,15,7,,,0,,91,,20,Rain,1019,3,35,,,,13.6,
Wick,01/09/2018 17:00,15,7,,,0,,88,,20,Dry,1020,1,40,,,,13.2,
Wick,01/09/2018 18:00,14.3,6,,18,0,0,90,,30,Dry,1020,4,30,,,,12.7,
Wick,01/09/2018 19:00,13.7,5,,,0,,91,,40,Dry,1020,3,45,,,,12.4,
Wick,01/09/2018 20:00,12.4,5,,,0,,95,,40,Dry,1020,1,17,,,,11.7,
Wick,01/09/2018 21:00,12.9,2,,,0,,98,,70,Dry,1020,7,24,,,,12.7,
Wick,01/09/2018 22:00,11.9,2,,,0,,96,,240,Misty,1020,4,7,,,,11.4,
Wick,01/09/2018 23:00,11.7,3,,,0,,98,,230,Fog,1020,1,5,,,,11.5,
Wick,02/09/2018 00:00,12.3,3,,,0,0,99,,130,Fog,1019,0,7,,,,12.2,
Wick,02/09/2018 01:00,12.4,7,,,0,,100,,160,Misty,1019,5,4,,,,12.4,
Wick,02/09/2018 02:00,12.5,3,,,0,,100,,180,Dry,1019,0,30,,,,12.5,
Wick,02/09/2018 03:00,13,9,,,0,,96,,160,Dry,1018,0,45,,,,12.5,
Wick,02/09/2018 04:00,13.4,10,,,0,,90,,150,Dry,1018,0,45,,,,11.9,
Wick,02/09/2018 05:00,14.1,15,,,0,,86,,160,Dry,1017,0,45,,,,11.8,
Wick,02/09/2018 06:00,14.3,10,11.5,,0,0,87,,150,Dry,1017,1,40,,,,12.2,
Wick,02/09/2018 07:00,14.9,10,,,0,,84,,160,Dry,1016,5,40,,,,12.4,
Wick,02/09/2018 08:00,15.3,8,,,0,,85,,160,Dry,1016,5,45,,,,12.8,
Wick,02/09/2018 09:00,16.1,8,,,0,,80,,120,Dry,1016,0,25,,,,12.8,
Wick,02/09/2018 10:00,17.3,12,,,0,,74,,170,Dry,1016,0,50,,,,12.8,
Wick,02/09/2018 11:00,17.5,13,,,0,,75,,130,Dry,1015,0,22,,,,13.2,
Wick,02/09/2018 12:00,17.6,13,,,0,0,76,,140,Dry,1014,0,30,,,,13.4,
Wick,02/09/2018 13:00,19.9,21,,,0,,66,32,160,Dry,1013,0,26,,,,13.5,
Wick,02/09/2018 14:00,20.4,14,,,0,,66,30,170,Dry,1014,1,19,,,,14,
Wick,02/09/2018 15:00,20.4,16,,,0,,65,29,160,Dry,1014,0,22,,,,13.7,
Wick,02/09/2018 16:00,22.2,22,,,0,,57,31,200,Dry,1014,0,30,,,,13.5,
Wick,02/09/2018 17:00,21.2,20,,,0,,59,31,200,Dry,1014,2,21,,,,12.9,
Wick,02/09/2018 18:00,19.8,13,,22.3,0,0,66,,200,Dry,1015,7,23,,,,13.3,
Wick,02/09/2018 19:00,18.9,16,,,0,,69,,220,Dry,1016,6,45,,,,13.3,
Wick,02/09/2018 20:00,12.8,15,,,0,,96,31,290,Drizzly rain,1018,5,5,,,,12.2,
Wick,02/09/2018 21:00,12.1,13,,,0.2,,96,,290,Rain,1019,1,11,,,,11.6,
Wick,02/09/2018 22:00,12,15,,,0,,96,,290,Dry,1019,5,24,,,,11.4,
Wick,02/09/2018 23:00,11.4,13,,,0,,94,,290,Dry,1020,4,40,,,,10.6,
Wick,03/09/2018 00:00,11.5,8,,,0,0.2,94,,290,Dry,1021,8,23,,,,10.7,
Wick,03/09/2018 01:00,10.9,8,,,0,,92,,290,Rain,1022,8,6,,,,9.7,
Wick,03/09/2018 02:00,10.6,6,,,0.2,,95,,290,Drizzly rain,1022,4,13,,,,9.9,
Wick,03/09/2018 03:00,10.5,7,,,0,,93,,280,Rain,1022,7,22,,,,9.5,
Wick,03/09/2018 04:00,10.1,7,,,0,,94,,270,Dry,1022,3,28,,,,9.2,
Wick,03/09/2018 05:00,8.4,8,,,0,,93,,260,Dry,1023,0,30,,,,7.4,
Wick,03/09/2018 06:00,8.3,6,8.1,,0,0.2,89,,260,Dry,1024,7,30,,,,6.7,
Wick,03/09/2018 07:00,7.9,6,,,0,,92,,250,Dry,1024,1,40,,,,6.7,
Wick,03/09/2018 08:00,10.7,6,,,0,,86,,250,Dry,1025,0,29,,,,8.5,
Wick,03/09/2018 09:00,12.9,10,,,0,,75,,280,Dry,1025,1,30,,,,8.6,
Wick,03/09/2018 10:00,12.8,9,,,0,,71,,300,Dry,1025,1,35,,,,7.8,
Wick,03/09/2018 11:00,14.2,8,,,0,,61,,300,Dry,1025,2,27,,,,7,
Wick,03/09/2018 12:00,14.5,8,,,0,0,60,,320,Dry,1025,3,26,,,,7,
Wick,03/09/2018 13:00,14.9,7,,,0,,58,,350,Dry,1025,5,19,,,,6.8,
Wick,03/09/2018 14:00,15,8,,,0,,58,,290,Fog,1025,1,35,,,,7,
Wick,03/09/2018 15:00,14.2,10,,,0,,67,,340,Dry,1025,1,25,,,,8.2,
Wick,03/09/2018 16:00,14.2,9,,,0,,58,,340,Dry,1025,8,30,,,,6.2,
Wick,03/09/2018 17:00,13.5,7,,,0,,69,,340,Dry,1025,8,25,,,,8.1,
Wick,03/09/2018 18:00,12.7,7,,15.6,0,0,71,,350,Dry,1026,8,23,,,,7.7,
Wick,03/09/2018 19:00,11.4,7,,,0,,82,,10,Dry,1026,1,19,,,,8.6,
Wick,03/09/2018 20:00,11,3,,,0,,83,,20,Dry,1026,8,21,,,,8.4,
Wick,03/09/2018 21:00,9.1,6,,,0,,90,,330,Dry,1026,4,18,,,,7.6,
Wick,03/09/2018 22:00,10.2,5,,,0,,94,,10,Dry,1026,1,19,,,,9.3,
Wick,03/09/2018 23:00,7.8,3,,,0,,95,,270,Dry,1026,1,19,,,,7.1,
Wick,04/09/2018 00:00,6.8,5,,,0,0,95,,260,Dry,1026,0,19,,,,6.2,
Wick,04/09/2018 01:00,6.3,3,,,0,,97,,240,Dry,1026,0,15,,,,5.9,
Wick,04/09/2018 02:00,4.1,7,,,0,,97,,250,Misty,1026,0,11,,,,3.7,
Wick,04/09/2018 03:00,4.8,5,,,0,,99,,250,Dry,1026,0,11,,,,4.7,
Wick,04/09/2018 04:00,4.8,5,,,0,,100,,260,Dry,1026,0,14,,,,4.8,
Wick,04/09/2018 05:00,3,6,,,0,,99,,260,Fog,1025,2,2,,,,2.9,
Wick,04/09/2018 06:00,3.8,6,2.3,,0,0,100,,260,Fog,1025,3,6,,,,3.8,
Wick,04/09/2018 07:00,6.1,2,,,0,,100,,250,Dry,1025,0,25,,,,6.1,
Wick,04/09/2018 08:00,9.9,1,,,0,,100,,220,Dry,1025,1,29,,,,9.9,
Wick,04/09/2018 09:00,12.5,5,,,0,,80,,130,Dry,1025,1,19,,,,9.2,
Wick,04/09/2018 10:00,12.9,6,,,0,,74,,150,Dry,1025,1,50,,,,8.4,
Wick,04/09/2018 11:00,13.4,9,,,0,,74,,130,Dry,1025,1,26,,,,9,
Wick,04/09/2018 12:00,13.9,10,,,0,0,76,,130,Dry,1024,1,16,,,,9.8,
Wick,04/09/2018 13:00,14.2,12,,,0,,75,,140,Dry,1024,1,27,,,,9.9,
Wick,04/09/2018 14:00,13.5,13,,,0,,75,,140,Dry,1024,6,45,,,,9.2,
Wick,04/09/2018 15:00,13.4,10,,,0,,74,,140,Dry,1024,4,30,,,,9,
Wick,04/09/2018 16:00,13.3,10,,,0,,73,,140,Dry,1024,8,21,,,,8.6,
Wick,04/09/2018 17:00,13,10,,,0,,73,,140,Dry,1023,6,40,,,,8.3,
Wick,04/09/2018 18:00,12.8,9,,14.4,0,0,73,,140,Dry,1023,5,35,,,,8.2,
Wick,04/09/2018 19:00,12.5,8,,,0,,78,,150,Dry,1023,5,30,,,,8.9,
Wick,04/09/2018 20:00,12.5,8,,,0,,79,,160,Dry,1024,7,35,,,,9,
Wick,04/09/2018 21:00,12.6,8,,,0,,79,,160,Dry,1024,8,29,,,,9.1,
Wick,04/09/2018 22:00,12.5,7,,,0,,84,,170,Dry,1024,8,24,,,,9.9,
Wick,04/09/2018 23:00,12.7,7,,,0,,88,,160,Dry,1024,8,24,,,,10.8,
Wick,05/09/2018 00:00,12.7,7,,,0,0,88,,160,Dry,1023,8,21,,,,10.9,
Wick,05/09/2018 01:00,11.7,3,,,0,,90,,230,Dry,1023,1,26,,,,10.2,
Wick,05/09/2018 02:00,11.4,3,,,0,,94,,180,Dry,1023,6,23,,,,10.6,
Wick,05/09/2018 03:00,12.1,5,,,0,,93,,170,Dry,1022,8,23,,,,11.1,
Wick,05/09/2018 04:00,11.3,6,,,0,,92,,210,Dry,1022,3,18,,,,10.2,
Wick,05/09/2018 05:00,9.1,5,,,0,,94,,230,Fog,1022,1,5,,,,8.3,
Wick,05/09/2018 06:00,10.6,5,7.6,,0,0,93,,180,Fog,1022,7,30,,,,9.6,
Wick,05/09/2018 07:00,11.9,8,,,0,,84,,190,Dry,1022,8,25,,,,9.4,
Wick,05/09/2018 08:00,13,10,,,0,,84,,190,Dry,1022,8,40,,,,10.5,
Wick,05/09/2018 09:00,13.7,12,,,0,,73,,190,Dry,1022,8,35,,,,9,
Wick,05/09/2018 10:00,14.3,13,,,0,,69,,190,Dry,1021,6,30,,,,8.9,
Wick,05/09/2018 11:00,15,13,,,0,,74,,170,Dry,1021,1,22,,,,10.6,
Wick,05/09/2018 12:00,13.9,14,,,0,0,76,,160,Dry,1020,3,22,,,,9.8,
Wick,05/09/2018 13:00,14.2,14,,,0,,75,,160,Dry,1020,1,23,,,,9.9,
Wick,05/09/2018 14:00,14.6,13,,,0,,75,,140,Dry,1019,1,28,,,,10.3,
Wick,05/09/2018 15:00,14.5,12,,,0,,82,,130,Dry,1018,7,23,,,,11.6,
Wick,05/09/2018 16:00,14.3,13,,,0,,83,,140,Dry,1017,2,29,,,,11.5,
Wick,05/09/2018 17:00,14.5,13,,,0,,82,,150,Dry,1017,1,17,,,,11.6,
Wick,05/09/2018 18:00,14.5,15,,15.6,0,0,79,,150,Dry,1016,8,20,,,,11,
Wick,05/09/2018 19:00,11.7,15,,,1.6,,92,,250,Violent shower,1017,2,4,,,,10.6,
Wick,05/09/2018 20:00,10.9,6,,,2.4,,98,,310,Moderate rain,1017,7,7,,,,10.7,
Wick,05/09/2018 21:00,10.3,6,,,1.2,,96,,300,Rain,1017,8,45,,,,9.8,
Wick,05/09/2018 22:00,10.5,6,,,0,,99,,240,Dry,1017,5,12,,,,10.4,
Wick,05/09/2018 23:00,10.1,8,,,0,,95,,260,Rain,1016,4,40,,,,9.4,
Wick,06/09/2018 00:00,6.7,9,,,0,5,92,,260,Dry,1016,0,35,,,,5.6,
Wick,06/09/2018 01:00,6.9,10,,,0,,95,,260,Dry,1016,3,50,,,,6.3,
Wick,06/09/2018 02:00,7.7,15,,,0,,97,,270,Dry,1016,2,45,,,,7.3,
Wick,06/09/2018 03:00,6.4,12,,,0.2,,97,,260,Rain,1016,1,40,,,,6.1,
Wick,06/09/2018 04:00,7.2,8,,,0,,98,,260,Dry,1015,1,45,,,,7,
Wick,06/09/2018 05:00,6,8,,,0,,98,,260,Dry,1015,5,40,,,,5.8,
Wick,06/09/2018 06:00,5.8,6,5.7,,0,0,99,,260,Dry,1015,1,35,,,,5.7,
Wick,06/09/2018 07:00,6.8,8,,,0,,99,,270,Dry,1015,1,35,,,,6.7,
Wick,06/09/2018 08:00,9.4,9,,,0,,96,,280,Dry,1015,1,50,,,,8.8,
Wick,06/09/2018 09:00,11.3,12,,,0,,87,,290,Dry,1015,1,30,,,,9.3,
Wick,06/09/2018 10:00,10.7,8,,,0.2,,89,,320,Drizzly rain,1015,2,21,,,,9.1,
Wick,06/09/2018 11:00,11.5,12,,,0,,79,,320,Rain,1015,2,45,,,,8.1,
Wick,06/09/2018 12:00,13,13,,,0,0.2,72,,320,Dry,1015,2,35,,,,8.2,
Wick,06/09/2018 13:00,12.3,16,,,0,,71,,330,Dry,1015,2,30,,,,7.4,
Wick,06/09/2018 14:00,12.5,17,,,0,,72,,330,Dry,1014,2,30,,,,7.7,
Wick,06/09/2018 15:00,12.7,18,,,0,,65,,320,Dry,1014,2,30,,,,6.5,
Wick,06/09/2018 16:00,12.2,17,,,0,,72,,320,Dry,1014,7,45,,,,7.5,
Wick,06/09/2018 17:00,11.5,20,,,0,,74,,310,Rain,1014,5,35,,,,7.1,
Wick,06/09/2018 18:00,11.4,20,,14.3,0,0,81,,310,Dry,1013,2,40,,,,8.4,
Wick,06/09/2018 19:00,10.6,15,,,0.2,,96,,280,Rain,1013,1,14,,,,10.1,
Wick,06/09/2018 20:00,12.4,23,,,0.8,,96,30,30,Rain,1013,3,12,,,,11.9,
Wick,06/09/2018 21:00,11.8,22,,,1.2,,98,32,20,Drizzly rain,1013,6,8,,,,11.6,
Wick,06/09/2018 22:00,11.7,16,,,1.6,,99,,20,Light rain,1013,7,4,,,,11.6,
Wick,06/09/2018 23:00,12,18,,,0,,92,,10,Rain,1013,7,26,,,,10.9,
Wick,07/09/2018 00:00,11.8,14,,,0,4,92,,360,Dry,1013,2,27,,,,10.6,
Wick,07/09/2018 01:00,10.3,10,,,0,,94,,320,Dry,1012,1,14,,,,9.5,
Wick,07/09/2018 02:00,9.5,8,,,0,,97,,320,Dry,1013,6,16,,,,9.2,
Wick,07/09/2018 03:00,10.1,8,,,0,,96,,320,Dry,1012,7,21,,,,9.5,
Wick,07/09/2018 04:00,8.4,9,,,0,,97,,320,Dry,1012,1,10,,,,8.1,
Wick,07/09/2018 05:00,9.5,8,,,0,,99,,310,Misty,1011,6,11,,,,9.4,
Wick,07/09/2018 06:00,10,9,8.3,,0,0,99,,310,Dry,1011,7,19,,,,9.9,
Wick,07/09/2018 07:00,10.8,9,,,0,,98,,290,Rain,1010,7,20,,,,10.5,
Wick,07/09/2018 08:00,11.2,13,,,0.2,,95,,290,Light drizzle,1010,7,14,,,,10.5,
Wick,07/09/2018 09:00,12,12,,,0.4,,99,,280,Rain,1010,7,6,,,,11.9,
Wick,07/09/2018 10:00,13.4,16,,,0.2,,98,,300,Rain,1009,6,9,,,,13.1,
Wick,07/09/2018 11:00,13.4,18,,,0.2,,96,,310,Dry,1009,7,35,,,,12.9,
Wick,07/09/2018 12:00,13.3,18,,,0,1,96,,300,Misty,1009,7,3,,,,12.8,
Wick,07/09/2018 13:00,13,15,,,0.2,,99,,300,Misty,1009,4,7,,,,12.9,
Wick,07/09/2018 14:00,13.2,15,,,0,,99,,300,Misty,1009,7,4,,,,13.1,
Wick,07/09/2018 15:00,13.2,15,,,0,,98,,300,Dry,1009,8,22,,,,12.9,
Wick,07/09/2018 16:00,13.5,14,,,0,,97,,290,Dry,1009,4,45,,,,13.1,
Wick,07/09/2018 17:00,13.5,13,,,0,,95,,280,Dry,1010,2,40,,,,12.8,
Wick,07/09/2018 18:00,13.2,10,,14.1,0,0,97,,290,Dry,1010,2,35,,,,12.8,
Wick,07/09/2018 19:00,12.7,13,,,0,,99,,280,Dry,1010,4,14,,,,12.6,
Wick,07/09/2018 20:00,12.4,18,,,0,,99,,280,Rain,1010,7,18,,,,12.3,
Wick,07/09/2018 21:00,12.2,20,,,0.2,,99,,290,Light drizzle,1010,8,7,,,,12.1,
Wick,07/09/2018 22:00,12.2,18,,,0.8,,100,,290,Light rain,1009,7,5,,,,12.2,
Wick,07/09/2018 23:00,12.2,18,,,0.8,,99,,290,Light drizzle,1010,7,5,,,,12.1,
Wick,08/09/2018 00:00,11.9,17,,,0.2,2,99,,290,Rain,1009,6,23,,,,11.8,
Wick,08/09/2018 01:00,11.7,18,,,0,,98,,290,Dry,1009,2,25,,,,11.5,
Wick,08/09/2018 02:00,11.5,16,,,0,,98,,280,Misty,1009,7,9,,,,11.3,
Wick,08/09/2018 03:00,11.2,18,,,0,,98,,290,Misty,1009,8,7,,,,10.9,
Wick,08/09/2018 04:00,10.9,18,,,0,,98,,280,Dry,1009,7,12,,,,10.6,
Wick,08/09/2018 05:00,10.6,18,,,0,,97,,280,Misty,1008,1,6,,,,10.2,
Wick,08/09/2018 06:00,10.7,18,10.6,,0,0,97,,290,Dry,1009,1,11,,,,10.3,
Wick,08/09/2018 07:00,10.8,21,,,0,,98,,290,Misty,1008,7,4,,,,10.5,
Wick,08/09/2018 08:00,11.3,18,,,0,,98,,280,Dry,1009,2,14,,,,11,
Wick,08/09/2018 09:00,11.3,18,,,0,,98,,280,Misty,1009,3,5,,,,11.1,
Wick,08/09/2018 10:00,11.5,20,,,0,,98,,280,Misty,1009,6,8,,,,11.2,
Wick,08/09/2018 11:00,12.1,17,,,0,,93,,290,Dry,1008,8,21,,,,11.1,
Wick,08/09/2018 12:00,12.4,18,,,0,0,93,,290,Dry,1009,8,13,,,,11.4,
Wick,08/09/2018 13:00,13.1,18,,,0,,88,,290,Dry,1009,8,21,,,,11.3,
Wick,08/09/2018 14:00,14,18,,,0,,79,,290,Dry,1008,1,17,,,,10.5,
Wick,08/09/2018 15:00,15.3,18,,,0,,70,,310,Dry,1008,1,30,,,,10,
Wick,08/09/2018 16:00,13.9,18,,,0,,78,,290,Dry,1008,0,25,,,,10.2,
Wick,08/09/2018 17:00,12.9,16,,,0,,81,,300,Dry,1008,0,30,,,,9.9,
Wick,08/09/2018 18:00,12.2,12,,15.8,0,0,85,,300,Dry,1008,8,30,,,,9.9,
Wick,08/09/2018 19:00,11.7,9,,,0,,89,,290,Drizzly rain,1009,1,30,,,,10,
Wick,08/09/2018 20:00,10.9,7,,,0.4,,95,,290,Light rain,1009,1,18,,,,10.2,
Wick,08/09/2018 21:00,10.9,7,,,0,,96,,260,Rain,1008,3,30,,,,10.3,
Wick,08/09/2018 22:00,9.3,8,,,0,,96,,250,Dry,1008,1,30,,,,8.8,
Wick,08/09/2018 23:00,8.7,5,,,0,,97,,240,Dry,1008,0,24,,,,8.3,
Wick,09/09/2018 00:00,8.3,7,,,0,0.4,97,,250,Dry,1008,0,27,,,,8,
Wick,09/09/2018 01:00,8.9,5,,,0,,97,,230,Dry,1007,1,35,,,,8.5,
Wick,09/09/2018 02:00,9,2,,,0,,96,,180,Dry,1007,0,30,,,,8.4,
Wick,09/09/2018 03:00,9.9,3,,,0,,97,,120,Dry,1006,0,30,,,,9.5,
Wick,09/09/2018 04:00,11.6,7,,,0,,96,,130,Dry,1005,5,30,,,,11,
Wick,09/09/2018 05:00,12.4,7,,,0,,96,,140,Dry,1005,8,27,,,,11.9,
Wick,09/09/2018 06:00,12.3,8,7.7,,0.6,0.6,97,,160,Light shower,1004,1,14,,,,11.9,
Wick,09/09/2018 07:00,11.9,3,,,0.6,,93,,150,Light rain,1004,8,23,,,,10.9,
Wick,09/09/2018 08:00,12,10,,,0,,91,,160,Rain,1003,1,35,,,,10.7,
Wick,09/09/2018 09:00,12.4,9,,,0,,96,,160,Rain,1002,5,28,,,,11.8,
Wick,09/09/2018 10:00,12.9,10,,,0,,96,,190,Dry,1002,8,35,,,,12.4,
Wick,09/09/2018 11:00,13.6,8,,,0,,91,,210,Dry,1002,4,30,,,,12.3,
Wick,09/09/2018 12:00,15.5,14,,,0,0.6,79,,250,Dry,1002,3,50,,,,11.9,
Wick,09/09/2018 13:00,15.6,12,,,0.2,,82,,270,Moderate shower,1002,1,9,,,,12.6,
Wick,09/09/2018 14:00,14.8,10,,,0,,77,,230,Rain,1003,1,40,,,,10.9,
Wick,09/09/2018 15:00,15.2,13,,,0.2,,80,,240,Rain,1003,2,50,,,,11.9,
Wick,09/09/2018 16:00,15.7,17,,,0,,63,,250,Dry,1003,6,28,,,,8.8,
Wick,09/09/2018 17:00,14.2,21,,,0,,60,30,250,Dry,1003,0,35,,,,6.6,
Wick,09/09/2018 18:00,13.4,10,,16.7,0,0.4,66,,220,Dry,1003,0,40,,,,7.3,
Wick,09/09/2018 19:00,11.8,5,,,0,,78,,200,Dry,1004,2,40,,,,8.1,
Wick,09/09/2018 20:00,11.4,14,,,0,,73,,210,Dry,1003,0,40,,,,6.8,
Wick,09/09/2018 21:00,11.5,14,,,0,,78,,190,Dry,1003,0,30,,,,7.9,
Wick,09/09/2018 22:00,11.1,14,,,0.2,,82,,190,Rain,1003,7,40,,,,8.3,
Wick,09/09/2018 23:00,11.6,17,,,0,,81,,190,Dry,1002,6,30,,,,8.6,
Wick,10/09/2018 00:00,11.8,20,,,0,0.2,81,30,190,Dry,1002,7,28,,,,8.8,
Wick,10/09/2018 01:00,11.6,18,,,0,,87,,190,Rain,1002,6,27,,,,9.6,
Wick,10/09/2018 02:00,11.5,17,,,0.2,,91,,200,Light shower,1002,1,11,,,,10.1,
Wick,10/09/2018 03:00,11.3,17,,,0.4,,90,29,200,Light shower,1001,7,15,,,,9.8,
Wick,10/09/2018 04:00,11.2,16,,,0,,89,,220,Rain,1002,7,26,,,,9.5,
Wick,10/09/2018 05:00,11,12,,,0.2,,90,,220,Rain,1002,4,40,,,,9.5,
Wick,10/09/2018 06:00,10.7,15,10.4,,0,0.8,89,,240,Dry,1003,1,45,,,,9.1,
Wick,10/09/2018 07:00,11,15,,,0,,86,,240,Dry,1004,1,35,,,,8.9,
Wick,10/09/2018 08:00,12.3,16,,,0,,82,,240,Dry,1004,1,26,,,,9.4,
Wick,10/09/2018 09:00,13.4,20,,,0,,76,,240,Dry,1005,6,40,,,,9.4,
Wick,10/09/2018 10:00,13.9,25,,,0,,72,32,260,Dry,1005,3,24,,,,9,
Wick,10/09/2018 11:00,13.7,13,,,0,,78,25,250,Dry,1006,3,30,,,,10,
Wick,10/09/2018 12:00,13.6,17,,,0,0,74,29,230,Dry,1006,7,35,,,,9.1,
Wick,10/09/2018 13:00,13.6,16,,,0,,82,,240,Haze,1006,7,6,,,,10.6,
Wick,10/09/2018 14:00,13.6,21,,,0.2,,78,,250,Rain,1007,7,40,,,,10,
Wick,10/09/2018 15:00,13.5,16,,,0,,84,31,240,Dry,1007,4,50,,,,10.9,
Wick,10/09/2018 16:00,13.4,12,,,0,,75,,230,Dry,1007,1,50,,,,9.1,
Wick,10/09/2018 17:00,12,13,,,0.2,,82,,210,Drizzly rain,1007,8,8,,,,9.2,
Wick,10/09/2018 18:00,11.2,8,,14.6,0.6,1,89,,200,Rain,1006,1,23,,,,9.5,
Wick,10/09/2018 19:00,11.4,6,,,0,,86,,180,Light shower,1006,4,22,,,,9.3,
Wick,10/09/2018 20:00,11.4,9,,,0.2,,91,,180,Moderate rain,1005,8,12,,,,10,
Wick,10/09/2018 21:00,11.5,9,,,1.2,,94,,170,Moderate rain,1004,8,9,,,,10.7,
Wick,10/09/2018 22:00,11.7,12,,,1,,92,,160,Light rain,1003,3,15,,,,10.6,
Wick,10/09/2018 23:00,11.8,15,,,0.6,,93,,150,Rain,1002,1,25,,,,10.8,
Wick,11/09/2018 00:00,12,13,,,0,3,92,,150,Rain,1000,1,30,,,,10.8,
Wick,11/09/2018 01:00,12.6,17,,,0,,89,,160,Dry,999,2,30,,,,10.9,
Wick,11/09/2018 02:00,12.9,13,,,0,,88,,170,Dry,998,3,45,,,,11.1,
Wick,11/09/2018 03:00,13.2,18,,,0,,87,,200,Dry,998,7,22,,,,11.2,
Wick,11/09/2018 04:00,12.7,10,,,0,,87,,190,Dry,997,6,35,,,,10.6,
Wick,11/09/2018 05:00,12.8,16,,,0,,86,,200,Dry,997,2,17,,,,10.6,
Wick,11/09/2018 06:00,12.9,17,11.3,,0,0,85,,220,Dry,998,6,12,,,,10.6,
Wick,11/09/2018 07:00,11.5,28,,,0,,95,45,280,Misty,1000,5,12,,,,10.8,
Wick,11/09/2018 08:00,12,21,,,0,,88,38,270,Dry,1001,1,40,,,,10.2,
Wick,11/09/2018 09:00,12.2,25,,,0,,86,37,260,Dry,1002,1,45,,,,10,
Wick,11/09/2018 10:00,13.2,25,,,0,,70,37,260,Dry,1003,3,30,,,,8,
Wick,11/09/2018 11:00,14,28,,,0,,61,40,250,Dry,1003,2,24,,,,6.7,
Wick,11/09/2018 12:00,15.1,26,,,0,0,56,44,250,Dry,1004,3,30,,,,6.6,
Wick,11/09/2018 13:00,15.3,32,,,0,,56,40,240,Dry,1003,1,35,,,,6.7,
Wick,11/09/2018 14:00,15.4,26,,,0,,52,38,250,Dry,1003,1,28,,,,5.8,
Wick,11/09/2018 15:00,15.9,24,,,0,,48,36,230,Dry,1003,5,30,,,,5,
Wick,11/09/2018 16:00,14.1,23,,,0,,58,40,250,Dry,1003,5,50,,,,6,
Wick,11/09/2018 17:00,14,23,,,0,,59,35,240,Dry,1003,1,35,,,,6.3,
Wick,11/09/2018 18:00,12.1,31,,16.3,0,0,66,43,240,Rain,1003,1,26,,,,6,
Wick,11/09/2018 19:00,11,25,,,0,,69,40,230,Dry,1003,1,28,,,,5.7,
Wick,11/09/2018 20:00,10.3,26,,,0,,76,38,240,Dry,1004,1,30,,,,6.3,
Wick,11/09/2018 21:00,9.6,26,,,0,,77,39,250,Dry,1005,0,40,,,,5.8,
Wick,11/09/2018 22:00,9.2,22,,,0,,79,35,250,Dry,1005,0,45,,,,5.8,
Wick,11/09/2018 23:00,9.1,20,,,0,,79,29,250,Dry,1006,0,35,,,,5.7,
Wick,12/09/2018 00:00,8.9,20,,,0,0,79,29,250,Dry,1006,0,40,,,,5.6,
Wick,12/09/2018 01:00,9.2,21,,,0,,79,30,250,Dry,1006,0,40,,,,5.8,
Wick,12/09/2018 02:00,8.7,15,,,0,,83,,250,Dry,1007,0,35,,,,6.1,
Wick,12/09/2018 03:00,8.6,14,,,0,,80,,240,Dry,1007,0,35,,,,5.5,
Wick,12/09/2018 04:00,8.4,13,,,0,,81,,220,Dry,1008,0,35,,,,5.4,
Wick,12/09/2018 05:00,9.3,18,,,0,,83,,240,Dry,1008,1,30,,,,6.6,
Wick,12/09/2018 06:00,9.5,20,8,,0,0,84,,260,Dry,1008,1,28,,,,7,
Wick,12/09/2018 07:00,10.2,16,,,0,,79,,260,Dry,1009,5,30,,,,6.8,
Wick,12/09/2018 08:00,11.4,23,,,0,,75,32,260,Dry,1010,1,26,,,,7.2,
Wick,12/09/2018 09:00,12.6,17,,,0,,71,30,260,Dry,1011,7,27,,,,7.6,
Wick,12/09/2018 10:00,13.1,25,,,0,,72,36,260,Rain,1012,4,30,,,,8.2,
Wick,12/09/2018 11:00,13.5,24,,,0,,62,37,260,Dry,1013,1,21,,,,6.5,
Wick,12/09/2018 12:00,13.8,22,,,0,0,71,39,280,Dry,1013,3,18,,,,8.7,
Wick,12/09/2018 13:00,14,20,,,0,,59,,260,Dry,1014,1,35,,,,6.2,
Wick,12/09/2018 14:00,14.9,25,,,0,,52,32,260,Dry,1014,1,28,,,,5.3,
Wick,12/09/2018 15:00,11.5,17,,,0.2,,84,30,280,Moderate shower,1014,4,30,,,,8.9,
Wick,12/09/2018 16:00,12.2,16,,,0,,71,31,260,Rain,1014,1,45,,,,7.3,
Wick,12/09/2018 17:00,12.6,14,,,0,,62,,250,Dry,1014,1,30,,,,5.7,
Wick,12/09/2018 18:00,11.9,10,,15.3,0,0.2,65,,220,Dry,1014,1,30,,,,5.7,
Wick,12/09/2018 19:00,11.3,12,,,0,,68,,220,Dry,1014,1,35,,,,5.7,
Wick,12/09/2018 20:00,10.7,12,,,0,,71,,210,Dry,1014,0,30,,,,5.8,
Wick,12/09/2018 21:00,10.7,15,,,0,,72,,200,Dry,1013,0,45,,,,5.9,
Wick,12/09/2018 22:00,10.8,14,,,0,,76,,200,Dry,1013,0,35,,,,6.8,
Wick,12/09/2018 23:00,10.9,16,,,0,,75,,200,Dry,1012,0,35,,,,6.7,
Wick,13/09/2018 00:00,11,17,,,0,0,76,,200,Dry,1011,3,40,,,,7.1,
Wick,13/09/2018 01:00,11,18,,,0,,76,,200,Dry,1011,7,30,,,,7,
Wick,13/09/2018 02:00,10.7,16,,,0,,80,,200,Dry,1010,1,28,,,,7.5,
Wick,13/09/2018 03:00,10.8,17,,,0,,82,,200,Drizzly rain,1009,7,23,,,,7.9,
Wick,13/09/2018 04:00,10,18,,,0.2,,90,31,200,Light rain,1009,7,29,,,,8.5,
Wick,13/09/2018 05:00,9.6,10,,,0.4,,94,,230,Light drizzle,1009,3,5,,,,8.7,
Wick,13/09/2018 06:00,9.4,13,9.4,,0.2,0.8,89,,210,Drizzle,1009,7,35,,,,7.7,
Wick,13/09/2018 07:00,9.5,13,,,0,,87,29,210,Dry,1009,7,16,,,,7.5,
Wick,13/09/2018 08:00,10.4,17,,,0,,78,,220,Rain,1009,0,18,,,,6.9,
Wick,13/09/2018 09:00,11.5,15,,,0,,74,,220,Dry,1009,1,19,,,,7.2,
Wick,13/09/2018 10:00,12.6,23,,,0,,67,31,230,Dry,1009,2,29,,,,6.7,
Wick,13/09/2018 11:00,12.6,22,,,0,,66,30,230,Dry,1009,6,20,,,,6.5,
Wick,13/09/2018 12:00,13.5,24,,,0,0,63,37,240,Dry,1009,1,20,,,,6.7,
Wick,13/09/2018 13:00,13.7,23,,,0,,59,31,240,Dry,1009,4,35,,,,6,
Wick,13/09/2018 14:00,12.4,13,,,0,,72,32,250,Rain,1010,6,45,,,,7.5,
Wick,13/09/2018 15:00,13.3,21,,,0,,61,31,230,Dry,1009,1,30,,,,6.1,
Wick,13/09/2018 16:00,11.6,21,,,0,,70,29,250,Rain,1009,3,45,,,,6.5,
Wick,13/09/2018 17:00,11.1,18,,,0,,71,,240,Rain,1009,6,40,,,,6.2,
Wick,13/09/2018 18:00,10.8,14,,14.6,0,0,72,,230,Dry,1009,1,45,,,,6.1,
Wick,13/09/2018 19:00,10.3,16,,,0,,76,,240,Dry,1009,1,35,,,,6.4,
Wick,13/09/2018 20:00,9.6,14,,,0,,77,,230,Dry,1010,0,45,,,,5.8,
Wick,13/09/2018 21:00,9.7,16,,,0,,79,,230,Dry,1009,0,35,,,,6.3,
Wick,13/09/2018 22:00,9.9,14,,,0,,76,,210,Dry,1009,0,40,,,,6,
Wick,13/09/2018 23:00,10.3,18,,,0,,72,,220,Dry,1009,0,35,,,,5.5,
Wick,14/09/2018 00:00,9.8,12,,,0,0,78,,200,Dry,1008,0,50,,,,6.2,
Wick,14/09/2018 01:00,10.1,9,,,0,,83,,190,Rain,1008,8,45,,,,7.5,
Wick,14/09/2018 02:00,10.7,9,,,0,,81,,190,Dry,1007,2,35,,,,7.6,
Wick,14/09/2018 03:00,11.2,15,,,0,,83,,190,Dry,1006,7,30,,,,8.5,
Wick,14/09/2018 04:00,10.8,18,,,0,,89,,210,Light shower,1005,1,13,,,,9.2,
Wick,14/09/2018 05:00,9.9,17,,,0.8,,87,,230,Moderate rain,1005,8,13,,,,8,
Wick,14/09/2018 06:00,9.5,12,9.4,,0.2,1,87,,230,Rain,1004,8,50,,,,7.6,
Wick,14/09/2018 07:00,9.7,13,,,0,,90,,250,Rain,1005,7,45,,,,8.2,
Wick,14/09/2018 08:00,10,14,,,0,,84,,250,Dry,1005,2,45,,,,7.5,
Wick,14/09/2018 09:00,10.4,15,,,0,,85,,250,Dry,1006,4,40,,,,8,
Wick,14/09/2018 10:00,10.9,20,,,0,,74,,270,Dry,1006,1,45,,,,6.5,
Wick,14/09/2018 11:00,10.7,13,,,0,,78,,240,Dry,1007,1,50,,,,7.1,
Wick,14/09/2018 12:00,9.6,21,,,0,0,77,33,270,Light shower,1007,2,24,,,,5.9,
Wick,14/09/2018 13:00,11.9,18,,,0,,69,,250,Rain,1007,4,30,,,,6.6,
Wick,14/09/2018 14:00,13.4,18,,,0,,63,32,260,Dry,1008,3,35,,,,6.7,
Wick,14/09/2018 15:00,9.9,22,,,1,,90,38,270,Moderate shower,1008,1,4,,,,8.4,
Wick,14/09/2018 16:00,12.5,16,,,0,,73,,240,Rain,1008,2,40,,,,7.9,
Wick,14/09/2018 17:00,11.4,21,,,0,,71,,270,Dry,1009,1,35,,,,6.5,
Wick,14/09/2018 18:00,9.5,12,,14.1,0,1,85,,260,Dry,1010,1,45,,,,7.2,
Wick,14/09/2018 19:00,8.6,10,,,0,,85,,250,Dry,1010,1,45,,,,6.3,
Wick,14/09/2018 20:00,7.6,12,,,0,,88,,260,Dry,1011,1,50,,,,5.9,
Wick,14/09/2018 21:00,7.7,10,,,0,,87,,240,Dry,1012,1,50,,,,5.8,
Wick,14/09/2018 22:00,7.6,12,,,0,,87,,230,Dry,1012,2,50,,,,5.7,
Wick,14/09/2018 23:00,7.1,8,,,0,,86,,220,Dry,1012,1,45,,,,5,
Wick,15/09/2018 00:00,6.6,7,,,0,0,88,,230,Dry,1012,0,50,,,,4.9,
Wick,15/09/2018 01:00,6.5,9,,,0,,89,,240,Dry,1013,0,50,,,,4.9,
Wick,15/09/2018 02:00,5.7,9,,,0,,92,,250,Dry,1013,1,45,,,,4.6,
Wick,15/09/2018 03:00,6.5,8,,,0,,92,,230,Dry,1013,1,50,,,,5.3,
Wick,15/09/2018 04:00,5.8,8,,,0,,93,,230,Dry,1014,0,45,,,,4.8,
Wick,15/09/2018 05:00,6,8,,,0,,88,,230,Dry,1014,0,45,,,,4.3,
Wick,15/09/2018 06:00,7.5,10,5.3,,0,0,87,,220,Dry,1014,1,40,,,,5.5,
Wick,15/09/2018 07:00,7.4,8,,,0,,86,,230,Dry,1014,0,45,,,,5.3,
Wick,15/09/2018 08:00,9.4,13,,,0,,79,,220,Dry,1015,0,40,,,,6,
Wick,15/09/2018 09:00,11.1,15,,,0,,75,,240,Dry,1015,0,40,,,,7,
Wick,15/09/2018 10:00,12.4,16,,,0,,64,,240,Dry,1015,0,35,,,,5.8,
Wick,15/09/2018 11:00,13,12,,,0,,66,,260,Dry,1015,1,50,,,,7,
Wick,15/09/2018 12:00,14.2,15,,,0,0,55,,230,Dry,1015,1,35,,,,5.3,
Wick,15/09/2018 13:00,12.7,9,,,0.8,,71,,220,Rain,1016,6,24,,,,7.6,
Wick,15/09/2018 14:00,12.5,16,,,0.2,,72,,200,Rain,1016,7,30,,,,7.7,
Wick,15/09/2018 15:00,12.7,14,,,0,,69,,200,Dry,1015,8,50,,,,7.2,
Wick,15/09/2018 16:00,13.1,12,,,0,,67,,190,Dry,1015,7,50,,,,7.2,
Wick,15/09/2018 17:00,12.5,8,,,0,,68,,190,Dry,1014,8,45,,,,6.8,
Wick,15/09/2018 18:00,12.1,7,,14.4,0,1,72,,190,Dry,1014,8,45,,,,7.4,
Wick,15/09/2018 19:00,12.4,7,,,0,,76,,170,Dry,1014,8,50,,,,8.3,
Wick,15/09/2018 20:00,12.2,9,,,0,,73,,150,Dry,1013,1,40,,,,7.7,
Wick,15/09/2018 21:00,12.5,9,,,0,,74,,150,Dry,1012,7,45,,,,8.1,
Wick,15/09/2018 22:00,11.8,10,,,0,,80,,180,Light shower,1011,8,30,,,,8.6,
Wick,15/09/2018 23:00,11.8,14,,,0,,87,,160,Drizzly rain,1010,8,20,,,,9.8,
Wick,16/09/2018 00:00,11.8,15,,,0,0,91,,160,Drizzly rain,1008,7,13,,,,10.4,
Wick,16/09/2018 01:00,12,16,,,0.8,,92,,150,Moderate rain,1007,2,7,,,,10.9,
Wick,16/09/2018 02:00,11.8,17,,,3.6,,96,31,150,Moderate rain,1005,1,4,,,,11.2,
Wick,16/09/2018 03:00,11.7,23,,,4.8,,97,33,130,Moderate rain,1002,2,5,,,,11.3,
Wick,16/09/2018 04:00,11.9,24,,,1,,98,40,140,Light drizzle,1000,6,6,,,,11.6,
Wick,16/09/2018 05:00,12.3,23,,,0.2,,93,43,150,Drizzle,998,5,11,,,,11.3,
Wick,16/09/2018 06:00,12.6,20,11.6,,0,10,92,37,150,Dry,997,4,12,,,,11.4,
Wick,16/09/2018 07:00,13.4,23,,,0,,88,38,170,Dry,996,5,20,,,,11.6,
Wick,16/09/2018 08:00,14.2,18,,,0,,90,31,190,Dry,997,1,23,,,,12.7,
Wick,16/09/2018 09:00,13.5,24,,,0,,80,40,220,Dry,998,4,27,,,,10.3,
Wick,16/09/2018 10:00,14.1,23,,,0,,77,33,240,Dry,999,0,50,,,,10.3,
Wick,16/09/2018 11:00,13.9,18,,,0,,79,43,260,Dry,1000,4,40,,,,10.5,
Wick,16/09/2018 12:00,14.7,28,,,0,0,71,41,250,Dry,1001,1,21,,,,9.6,
Wick,16/09/2018 13:00,11.9,24,,,0,,82,36,270,Rain,1003,2,50,,,,9.1,
Wick,16/09/2018 14:00,12.3,28,,,0,,67,40,250,Dry,1003,4,26,,,,6.4,
Wick,16/09/2018 15:00,12.6,21,,,0,,59,35,260,Dry,1004,1,20,,,,4.9,
Wick,16/09/2018 16:00,12.5,23,,,0,,59,30,260,Dry,1005,1,30,,,,4.8,
Wick,16/09/2018 17:00,11.8,18,,,0,,63,26,240,Dry,1005,5,40,,,,5,
Wick,16/09/2018 18:00,10.8,10,,15.1,0,0,72,29,240,Dry,1006,4,45,,,,6,
Wick,16/09/2018 19:00,10.6,9,,,0,,74,,230,Dry,1007,2,35,,,,6.3,
Wick,16/09/2018 20:00,10.8,13,,,0,,71,,220,Dry,1007,0,26,,,,5.9,
Wick,16/09/2018 21:00,9.9,7,,,0,,74,,210,Dry,1008,1,45,,,,5.6,
Wick,16/09/2018 22:00,10.2,10,,,0,,75,,200,Dry,1007,0,45,,,,6.1,
Wick,16/09/2018 23:00,9.9,14,,,0,,77,,200,Dry,1007,0,45,,,,6.1,
Wick,17/09/2018 00:00,10.6,14,,,0,0,81,,190,Dry,1007,2,45,,,,7.6,
Wick,17/09/2018 01:00,10.8,14,,,0,,81,,200,Rain,1007,8,40,,,,7.8,
Wick,17/09/2018 02:00,11.1,17,,,0,,85,,190,Drizzly rain,1007,8,12,,,,8.8,
Wick,17/09/2018 03:00,10.7,13,,,0,,88,,200,Rain,1007,3,35,,,,8.9,
Wick,17/09/2018 04:00,10,12,,,0,,87,,200,Dry,1007,0,45,,,,8.1,
Wick,17/09/2018 05:00,10.8,12,,,0,,87,,200,Dry,1007,2,45,,,,8.8,
Wick,17/09/2018 06:00,10.4,5,9.5,,0,0,89,,170,Dry,1007,1,45,,,,8.8,
Wick,17/09/2018 07:00,11.2,7,,,0,,87,,180,Dry,1007,1,45,,,,9.2,
Wick,17/09/2018 08:00,12.1,7,,,0,,84,,180,Dry,1007,8,22,,,,9.6,
Wick,17/09/2018 09:00,12.4,13,,,0,,87,,180,Dry,1006,1,21,,,,10.4,
Wick,17/09/2018 10:00,12.6,12,,,0,,87,,190,Dry,1006,7,24,,,,10.5,
Wick,17/09/2018 11:00,12.2,12,,,0.2,,91,,170,Light shower,1006,7,14,,,,10.9,
Wick,17/09/2018 12:00,12.1,7,,,1,1,94,,170,Moderate rain,1005,8,7,,,,11.3,
Wick,17/09/2018 13:00,12.5,12,,,0.4,,93,,160,Drizzly rain,1004,8,17,,,,11.5,
Wick,17/09/2018 14:00,12.5,13,,,0.4,,94,,150,Light rain,1004,1,18,,,,11.7,
Wick,17/09/2018 15:00,12.6,12,,,0.8,,93,,160,Moderate rain,1002,7,9,,,,11.6,
Wick,17/09/2018 16:00,12.3,12,,,1.4,,94,,160,Moderate rain,1001,8,8,,,,11.5,
Wick,17/09/2018 17:00,12.3,10,,,1.2,,94,,140,Moderate rain,999,8,9,,,,11.5,
Wick,17/09/2018 18:00,12.7,16,,12.7,0.2,5,91,,140,Rain,998,8,20,,,,11.3,
Wick,17/09/2018 19:00,13.2,18,,,0,,88,29,150,Dry,997,3,14,,,,11.4,
Wick,17/09/2018 20:00,13.1,20,,,0,,91,31,150,Drizzly rain,995,8,13,,,,11.7,
Wick,17/09/2018 21:00,13.5,23,,,0.2,,92,33,150,Rain,994,3,11,,,,12.3,
Wick,17/09/2018 22:00,14,23,,,0,,91,33,160,Dry,993,6,14,,,,12.7,
Wick,17/09/2018 23:00,14.6,18,,,0,,91,33,160,Rain,993,5,12,,,,13.3,
Wick,18/09/2018 00:00,14.8,15,,,0,0.2,93,,170,Dry,993,4,16,,,,13.7,
Wick,18/09/2018 01:00,15,18,,,0,,92,,180,Dry,993,2,30,,,,13.8,
Wick,18/09/2018 02:00,14.8,14,,,0,,92,,180,Dry,993,1,35,,,,13.6,
Wick,18/09/2018 03:00,15.1,16,,,0,,90,,180,Dry,993,1,45,,,,13.6,
Wick,18/09/2018 04:00,16,13,,,0,,87,,210,Dry,993,6,50,,,,14,
Wick,18/09/2018 05:00,13.9,12,,,0,,93,,300,Dry,994,1,24,,,,12.9,
Wick,18/09/2018 06:00,12.4,10,12.4,,0.4,0.4,98,,300,Moderate shower,994,6,7,,,,12.1,
Wick,18/09/2018 07:00,12.2,7,,,1.2,,99,,310,Light rain,994,7,12,,,,12.1,
Wick,18/09/2018 08:00,12,8,,,0.2,,99,,310,Light rain,994,4,14,,,,11.9,
Wick,18/09/2018 09:00,12.4,7,,,0.2,,99,,320,Drizzly rain,994,5,5,,,,12.3,
Wick,18/09/2018 10:00,12.8,7,,,0.4,,98,,350,Rain,993,5,12,,,,12.6,
Wick,18/09/2018 11:00,13.2,7,,,0,,97,,360,Dry,992,4,30,,,,12.8,
Wick,18/09/2018 12:00,13.5,7,,,0,2,94,,20,Dry,992,1,35,,,,12.7,
Wick,18/09/2018 13:00,13.2,6,,,0,,93,,30,Dry,991,1,30,,,,12.2,
Wick,18/09/2018 14:00,12.8,3,,,0.2,,96,,30,Drizzly rain,992,3,4,,,,12.3,
Wick,18/09/2018 15:00,12.9,5,,,1.8,,98,,40,Rain,991,6,14,,,,12.6,
Wick,18/09/2018 16:00,12.8,3,,,0.4,,98,,100,Rain,991,5,15,,,,12.5,
Wick,18/09/2018 17:00,12.6,6,,,0.2,,98,,140,Light drizzle,992,6,2,,,,12.3,
Wick,18/09/2018 18:00,12.6,8,,14.1,0,3,98,,190,Rain,992,7,40,,,,12.4,
Wick,18/09/2018 19:00,12.6,9,,,0,,97,,200,Dry,993,1,22,,,,12.2,
Wick,18/09/2018 20:00,12,10,,,0,,92,,240,Dry,993,1,50,,,,10.9,
Wick,18/09/2018 21:00,11.8,5,,,0,,87,,160,Dry,993,0,50,,,,9.8,
Wick,18/09/2018 22:00,12.5,14,,,0,,91,,190,Dry,993,1,50,,,,11.1,
Wick,18/09/2018 23:00,12.5,14,,,0.2,,91,,190,Rain,993,7,40,,,,11.2,
Wick,19/09/2018 00:00,12,12,,,0,0.2,91,,170,Dry,993,3,40,,,,10.7,
Wick,19/09/2018 01:00,12,12,,,0,,86,,180,Dry,992,1,30,,,,9.8,
Wick,19/09/2018 02:00,11.3,29,,,0,,77,43,180,Moderate shower,992,6,12,,,,7.5,
Wick,19/09/2018 03:00,10.1,16,,,0,,79,43,220,Rain,992,7,45,,,,6.7,
Wick,19/09/2018 04:00,9.4,16,,,0,,80,,200,Dry,993,0,50,,,,6.2,
Wick,19/09/2018 05:00,9.1,10,,,0,,84,,200,Dry,993,0,35,,,,6.7,
Wick,19/09/2018 06:00,9.3,7,8.6,,0,0,87,,200,Dry,994,1,30,,,,7.3,
Wick,19/09/2018 07:00,10.5,12,,,0,,82,,180,Dry,993,1,30,,,,7.6,
Wick,19/09/2018 08:00,11.5,9,,,0,,79,,140,Dry,992,2,25,,,,8,
Wick,19/09/2018 09:00,11.8,15,,,0,,74,,150,Dry,990,1,30,,,,7.4,
Wick,19/09/2018 10:00,11.4,15,,,0.6,,80,29,150,Moderate shower,989,7,8,,,,8.1,
Wick,19/09/2018 11:00,10.5,23,,,3,,91,37,130,Moderate rain,985,1,6,,,,9.1,
Wick,19/09/2018 12:00,12.1,25,,,0.8,4,92,37,120,Light shower,980,6,4,,,,10.9,
Wick,19/09/2018 13:00,13.4,29,,,1.4,,85,59,150,Light shower,975,1,4,,,,11.1,
Wick,19/09/2018 14:00,13,33,,,0.8,,77,40,210,Rain,977,1,29,,,,9.1,
Wick,19/09/2018 15:00,12.7,25,,,0,,79,43,210,Dry,978,4,35,,,,9.2,
Wick,19/09/2018 16:00,12,25,,,0.2,,82,38,230,Rain,980,3,45,,,,9.1,
Wick,19/09/2018 17:00,10.2,25,,,0,,79,64,250,Rain,984,1,40,,,,6.9,
Wick,19/09/2018 18:00,10.5,31,,13.7,0,3,78,43,230,Dry,986,1,30,,,,6.9,
Wick,19/09/2018 19:00,10.1,31,,,0,,72,48,230,Dry,988,1,35,,,,5.4,
Wick,19/09/2018 20:00,10,21,,,0,,72,40,210,Dry,990,0,40,,,,5.3,
Wick,19/09/2018 21:00,9.1,18,,,0,,75,,210,Dry,990,0,45,,,,5,
Wick,19/09/2018 22:00,9.4,24,,,0,,75,35,210,Dry,991,0,30,,,,5.3,
Wick,19/09/2018 23:00,9.6,24,,,0,,78,38,210,Dry,991,0,35,,,,6,
Wick,20/09/2018 00:00,9.5,28,,,0,0,78,30,210,Dry,992,0,30,,,,5.9,
Wick,20/09/2018 01:00,9.4,24,,,0,,79,38,210,Dry,992,0,40,,,,6,
Wick,20/09/2018 02:00,9.7,28,,,0,,78,31,210,Dry,992,0,35,,,,6.2,
Wick,20/09/2018 03:00,9.5,26,,,0,,80,38,210,Dry,993,0,35,,,,6.4,
Wick,20/09/2018 04:00,9.6,22,,,0,,79,33,210,Dry,993,1,30,,,,6.2,
Wick,20/09/2018 05:00,9.7,24,,,0,,74,33,210,Dry,993,0,35,,,,5.3,
Wick,20/09/2018 06:00,9.3,25,9,,0,0,74,36,210,Dry,993,1,30,,,,5.1,
Wick,20/09/2018 07:00,9.5,24,,,0,,68,36,210,Dry,994,1,35,,,,4.1,
Wick,20/09/2018 08:00,10.7,29,,,0,,69,30,210,Dry,994,1,29,,,,5.3,
Wick,20/09/2018 09:00,11.7,25,,,0,,65,31,210,Dry,994,2,28,,,,5.4,
Wick,20/09/2018 10:00,11.5,24,,,0,,63,37,220,Dry,995,6,21,,,,4.9,
Wick,20/09/2018 11:00,13,33,,,0,,63,47,240,Dry,995,3,30,,,,6.3,
Wick,20/09/2018 12:00,13.4,36,,,0,0,65,53,240,Dry,996,1,35,,,,7,
Wick,20/09/2018 13:00,14.1,28,,,0,,67,36,240,Dry,997,1,35,,,,8.2,
Wick,20/09/2018 14:00,14.2,25,,,0,,64,35,240,Dry,997,2,40,,,,7.5,
Wick,20/09/2018 15:00,13.6,23,,,0,,63,33,250,Dry,997,1,35,,,,6.8,
Wick,20/09/2018 16:00,13.2,17,,,0,,66,30,250,Dry,998,4,29,,,,7.2,
Wick,20/09/2018 17:00,12.4,16,,,0,,69,,240,Dry,998,2,40,,,,7,
Wick,20/09/2018 18:00,11.7,9,,14.8,0,0,72,,230,Dry,998,7,45,,,,6.9,
Wick,20/09/2018 19:00,10.6,5,,,0,,79,,240,Dry,998,1,35,,,,7.2,
Wick,20/09/2018 20:00,10,5,,,0,,82,,230,Dry,997,8,40,,,,7.1,
Wick,20/09/2018 21:00,9.5,5,,,0,,82,,210,Dry,996,6,45,,,,6.7,
Wick,20/09/2018 22:00,9.6,3,,,0,,83,,200,Dry,996,5,45,,,,6.9,
Wick,20/09/2018 23:00,8.1,6,,,0,,89,,290,Dry,995,4,35,,,,6.4,
Wick,21/09/2018 00:00,7.8,7,,,0,0,92,,270,Dry,994,5,40,,,,6.7,
Wick,21/09/2018 01:00,7.9,3,,,0,,92,,250,Light shower,993,4,35,,,,6.8,
Wick,21/09/2018 02:00,8,5,,,0,,93,,230,Rain,992,6,19,,,,7,
Wick,21/09/2018 03:00,7.8,7,,,0,,96,,260,Light shower,991,3,30,,,,7.3,
Wick,21/09/2018 04:00,7.7,8,,,0.2,,97,,270,Light drizzle,990,4,23,,,,7.4,
Wick,21/09/2018 05:00,8.1,12,,,0.6,,99,,280,Moderate shower,990,1,9,,,,8,
Wick,21/09/2018 06:00,8.8,17,7.5,,3.4,4,99,,10,Moderate rain,989,6,12,,,,8.7,
Wick,21/09/2018 07:00,9,23,,,0.4,,91,31,350,Drizzly rain,989,2,15,,,,7.7,
Wick,21/09/2018 08:00,8.8,22,,,0,,85,33,330,Rain,990,2,18,,,,6.5,
Wick,21/09/2018 09:00,9,23,,,0,,78,30,330,Dry,991,3,35,,,,5.4,
Wick,21/09/2018 10:00,9.1,22,,,0,,76,32,320,Dry,992,7,26,,,,5.2,
Wick,21/09/2018 11:00,9.6,24,,,0,,71,36,320,Dry,993,1,30,,,,4.7,
Wick,21/09/2018 12:00,9.3,28,,,0,0.4,76,37,310,Dry,994,7,19,,,,5.3,
Wick,21/09/2018 13:00,9.5,23,,,0,,74,38,320,Dry,995,1,28,,,,5.2,
Wick,21/09/2018 14:00,10.8,30,,,0,,65,40,310,Dry,996,1,29,,,,4.5,
Wick,21/09/2018 15:00,10,24,,,0,,74,41,300,Dry,998,2,30,,,,5.7,
Wick,21/09/2018 16:00,11,29,,,0,,63,37,290,Dry,998,3,40,,,,4.3,
Wick,21/09/2018 17:00,9.4,16,,,0,,73,38,280,Dry,999,1,35,,,,4.9,
Wick,21/09/2018 18:00,8.5,22,,11.4,0,0,81,32,270,Dry,1000,1,40,,,,5.5,
Wick,21/09/2018 19:00,7.3,13,,,0,,87,32,260,Dry,1000,4,18,,,,5.4,
Wick,21/09/2018 20:00,7,16,,,0,,87,,250,Rain,1000,0,45,,,,5,
Wick,21/09/2018 21:00,6.8,16,,,0,,86,,250,Dry,1001,0,50,,,,4.7,
Wick,21/09/2018 22:00,6.7,20,,,0,,83,33,260,Rain,1001,2,40,,,,4.1,
Wick,21/09/2018 23:00,6.7,18,,,0,,84,,250,Dry,1001,1,40,,,,4.2,
Wick,22/09/2018 00:00,7,21,,,0,0,83,,250,Rain,1001,1,45,,,,4.4,
Wick,22/09/2018 01:00,7.4,23,,,0,,81,31,250,Dry,1002,2,45,,,,4.4,
Wick,22/09/2018 02:00,7.3,21,,,0,,83,29,250,Rain,1002,1,22,,,,4.7,
Wick,22/09/2018 03:00,7.4,21,,,0.2,,84,35,240,Rain,1002,1,12,,,,4.9,
Wick,22/09/2018 04:00,7.1,20,,,0,,88,35,240,Light shower,1001,2,7,,,,5.3,
Wick,22/09/2018 05:00,7.7,23,,,0.4,,95,33,260,Light drizzle,1001,2,7,,,,7,
Wick,22/09/2018 06:00,8.7,23,6.2,,0.8,1,96,35,270,Rain,1002,1,4,,,,8.2,
Wick,22/09/2018 07:00,8.8,23,,,0.4,,92,31,280,Rain,1003,1,19,,,,7.7,
Wick,22/09/2018 08:00,9,22,,,0,,86,33,280,Rain,1004,4,22,,,,6.8,
Wick,22/09/2018 09:00,9.1,22,,,0.2,,88,40,280,Rain,1006,1,30,,,,7.3,
Wick,22/09/2018 10:00,10.2,24,,,0.2,,85,36,280,Rain,1006,2,25,,,,7.8,
Wick,22/09/2018 11:00,11.5,21,,,0,,85,32,270,Dry,1007,3,18,,,,9.1,
Wick,22/09/2018 12:00,11.3,22,,,0,0.8,79,33,280,Rain,1008,3,21,,,,7.8,
Wick,22/09/2018 13:00,10.7,23,,,0.2,,82,37,290,Rain,1009,2,25,,,,7.8,
Wick,22/09/2018 14:00,11.6,23,,,0,,68,35,290,Dry,1010,1,28,,,,6,
Wick,22/09/2018 15:00,10.6,21,,,0,,75,35,310,Dry,1010,1,30,,,,6.5,
Wick,22/09/2018 16:00,9.6,20,,,0,,76,30,290,Dry,1010,3,30,,,,5.7,
Wick,22/09/2018 17:00,9.6,17,,,0,,72,30,290,Dry,1011,2,23,,,,4.9,
Wick,22/09/2018 18:00,8.3,14,,12.1,0,0.2,79,,300,Dry,1011,1,22,,,,4.9,
Wick,22/09/2018 19:00,7,14,,,0,,78,,300,Dry,1012,0,24,,,,3.5,
Wick,22/09/2018 20:00,5.2,8,,,0,,88,,270,Dry,1013,0,20,,,,3.4,
Wick,22/09/2018 21:00,4.8,9,,,0,,89,,270,Dry,1013,3,28,,,,3.3,
Wick,22/09/2018 22:00,4.4,10,,,0,,92,,270,Dry,1013,2,24,,,,3.3,
Wick,22/09/2018 23:00,5.4,10,,,0,,91,,280,Light shower,1014,2,18,,,,4.1,
Wick,23/09/2018 00:00,4.2,12,,,0,0,91,,260,Rain,1014,2,27,,,,3,
Wick,23/09/2018 01:00,4.6,12,,,0,,93,,270,Dry,1014,1,25,,,,3.7,
Wick,23/09/2018 02:00,4.2,12,,,0,,95,,270,Rain,1014,3,28,,,,3.5,
Wick,23/09/2018 03:00,4.2,13,,,0,,93,,270,Dry,1014,0,35,,,,3.2,
Wick,23/09/2018 04:00,3.1,10,,,0,,93,,270,Rain,1014,0,30,,,,2.1,
Wick,23/09/2018 05:00,4.6,9,,,0.2,,89,,270,Rain,1015,1,50,,,,3,
Wick,23/09/2018 06:00,3.4,10,3.1,,0,0.2,95,,260,Dry,1015,0,35,,,,2.7,
Wick,23/09/2018 07:00,5.8,14,,,0.2,,96,,280,Light shower,1016,2,5,,,,5.3,
Wick,23/09/2018 08:00,6.9,14,,,0.2,,91,,250,Rain,1016,1,21,,,,5.6,
Wick,23/09/2018 09:00,7.5,12,,,0.2,,87,,290,Drizzly rain,1017,5,19,,,,5.5,
Wick,23/09/2018 10:00,7.6,14,,,0,,86,,270,Moderate shower,1018,2,40,,,,5.5,
Wick,23/09/2018 11:00,8.9,14,,,0.2,,88,,260,Rain,1018,1,30,,,,7.1,
Wick,23/09/2018 12:00,9.9,8,,,0,0.8,70,,300,Dry,1019,2,29,,,,4.7,
Wick,23/09/2018 13:00,10.6,20,,,0,,62,,310,Dry,1020,2,35,,,,3.8,
Wick,23/09/2018 14:00,10.8,17,,,0,,67,,280,Dry,1020,1,45,,,,5.1,
Wick,23/09/2018 15:00,9.8,17,,,0,,75,,300,Dry,1021,1,21,,,,5.6,
Wick,23/09/2018 16:00,9.1,12,,,0,,74,,310,Dry,1022,1,26,,,,4.9,
Wick,23/09/2018 17:00,6.8,10,,,0.8,,91,,310,Moderate shower,1022,5,5,,,,5.5,
Wick,23/09/2018 18:00,6.9,14,,11.2,0,1.2,87,,290,Rain,1023,1,45,,,,4.9,
Wick,23/09/2018 19:00,6.6,18,,,0.2,,85,37,300,Rain,1024,1,35,,,,4.3,
Wick,23/09/2018 20:00,5.9,12,,,0,,88,,280,Rain,1024,1,26,,,,4.1,
Wick,23/09/2018 21:00,5.2,13,,,0,,91,,270,Light shower,1025,1,24,,,,4,
Wick,23/09/2018 22:00,5.6,14,,,0.2,,90,,260,Rain,1025,0,30,,,,4.1,
Wick,23/09/2018 23:00,6.3,16,,,0,,91,,260,Light shower,1026,1,14,,,,5,
Wick,24/09/2018 00:00,6.4,18,,,1.8,2,89,33,290,Moderate rain,1027,4,40,,,,4.8,
Wick,24/09/2018 01:00,5.1,9,,,0,,93,,260,Rain,1027,5,29,,,,4.2,
Wick,24/09/2018 02:00,5.5,7,,,0,,93,,270,Dry,1028,4,40,,,,4.6,
Wick,24/09/2018 03:00,5.9,9,,,0.4,,91,,290,Moderate shower,1029,2,27,,,,4.7,
Wick,24/09/2018 04:00,4.4,6,,,0,,93,,230,Rain,1029,0,35,,,,3.4,
Wick,24/09/2018 05:00,4.8,9,,,0.2,,93,,250,Rain,1029,1,45,,,,3.8,
Wick,24/09/2018 06:00,4.8,8,3.9,,0.2,1,92,,260,Rain,1029,2,40,,,,3.7,
Wick,24/09/2018 07:00,5.7,13,,,0,,91,,260,Rain,1030,3,35,,,,4.4,
Wick,24/09/2018 08:00,7.5,15,,,0,,90,,270,Light shower,1030,6,40,,,,6.1,
Wick,24/09/2018 09:00,8.9,18,,,0,,87,,260,Rain,1031,2,30,,,,6.9,
Wick,24/09/2018 10:00,9.1,12,,,0.2,,86,,260,Rain,1031,1,30,,,,6.9,
Wick,24/09/2018 11:00,10.9,17,,,0,,76,,260,Dry,1032,1,29,,,,7,
Wick,24/09/2018 12:00,11.3,14,,,0.2,0.4,75,,260,Rain,1032,1,24,,,,7.2,
Wick,24/09/2018 13:00,9.7,17,,,0,,80,,280,Rain,1032,1,30,,,,6.5,
Wick,24/09/2018 14:00,11.2,15,,,0.2,,81,,280,Rain,1032,1,40,,,,8.1,
Wick,24/09/2018 15:00,11.3,16,,,0,,68,,280,Dry,1032,3,45,,,,5.7,
Wick,24/09/2018 16:00,10.8,10,,,0,,72,,280,Dry,1032,2,40,,,,6.1,
Wick,24/09/2018 17:00,10.4,8,,,0,,77,,290,Dry,1032,1,30,,,,6.7,
Wick,24/09/2018 18:00,9.7,6,,12.3,0,0.2,80,,250,Dry,1032,1,45,,,,6.6,
Wick,24/09/2018 19:00,9.2,9,,,0,,82,,240,Dry,1031,1,45,,,,6.4,
Wick,24/09/2018 20:00,9.4,9,,,0,,77,,220,Dry,1031,0,45,,,,5.6,
Wick,24/09/2018 21:00,9.5,9,,,0,,80,,210,Dry,1031,0,50,,,,6.4,
Wick,24/09/2018 22:00,9.8,12,,,0,,82,,220,Dry,1031,8,50,,,,7,
Wick,24/09/2018 23:00,9.6,13,,,0,,86,,240,Dry,1031,7,45,,,,7.4,
Wick,25/09/2018 00:00,9.9,10,,,0,0,83,,210,Dry,1031,5,50,,,,7.2,
Wick,25/09/2018 01:00,9.6,9,,,0,,83,,210,Dry,1030,1,50,,,,7,
Wick,25/09/2018 02:00,8.6,9,,,0,,84,,230,Dry,1030,0,45,,,,6.1,
Wick,25/09/2018 03:00,9.2,10,,,0,,81,,210,Dry,1029,0,45,,,,6.2,
Wick,25/09/2018 04:00,8.5,7,,,0,,84,,220,Dry,1029,0,45,,,,6,
Wick,25/09/2018 05:00,9.3,9,,,0,,76,,200,Dry,1029,0,30,,,,5.3,
Wick,25/09/2018 06:00,8.8,7,8.3,,0,0,77,,210,Dry,1028,0,45,,,,5,
Wick,25/09/2018 07:00,10.1,14,,,0,,81,,190,Dry,1027,0,40,,,,7.1,
Wick,25/09/2018 08:00,10.5,18,,,0,,78,,190,Dry,1026,1,35,,,,7,
Wick,25/09/2018 09:00,11.6,17,,,0,,72,,190,Dry,1026,2,18,,,,6.8,
Wick,25/09/2018 10:00,11.5,25,,,0,,65,33,190,Dry,1024,1,30,,,,5.3,
Wick,25/09/2018 11:00,11.7,24,,,0,,64,29,190,Dry,1023,1,30,,,,5.2,
Wick,25/09/2018 12:00,11.2,20,,,0.4,0.4,69,30,180,Rain,1021,8,40,,,,5.9,
Wick,25/09/2018 13:00,11.8,26,,,0,,63,35,190,Dry,1020,7,35,,,,5.1,
Wick,25/09/2018 14:00,11.7,25,,,0,,70,36,180,Dry,1018,5,21,,,,6.6,
Wick,25/09/2018 15:00,11.7,26,,,0,,76,40,200,Dry,1017,7,24,,,,7.8,
Wick,25/09/2018 16:00,11.9,25,,,0,,75,31,200,Dry,1016,3,40,,,,7.8,
Wick,25/09/2018 17:00,12.2,23,,,0,,76,30,210,Dry,1015,5,50,,,,8.2,
Wick,25/09/2018 18:00,12.3,28,,12.3,0,0,79,39,200,Dry,1014,1,40,,,,8.9,
Wick,25/09/2018 19:00,12.4,28,,,0,,83,41,200,Dry,1013,1,29,,,,9.7,
Wick,25/09/2018 20:00,12.5,24,,,0,,86,30,200,Dry,1013,2,20,,,,10.3,
Wick,25/09/2018 21:00,13.3,17,,,0,,84,36,210,Dry,1012,4,45,,,,10.7,
Wick,25/09/2018 22:00,14,23,,,0,,83,31,210,Dry,1012,4,50,,,,11.2,
Wick,25/09/2018 23:00,13.7,24,,,0,,86,37,210,Dry,1012,7,40,,,,11.5,
Wick,26/09/2018 00:00,14.1,23,,,0,0,86,33,210,Dry,1011,5,40,,,,11.9,
Wick,26/09/2018 01:00,13.9,14,,,0,,89,29,210,Light shower,1011,6,15,,,,12.2,
Wick,26/09/2018 02:00,15.3,25,,,0,,85,32,240,Rain,1010,7,50,,,,12.8,
Wick,26/09/2018 03:00,15.2,20,,,0,,85,31,240,Rain,1010,2,50,,,,12.7,
Wick,26/09/2018 04:00,14.8,16,,,0,,86,,250,Haze,1011,5,6,,,,12.6,
Wick,26/09/2018 05:00,14,20,,,0,,88,,270,Dry,1012,4,14,,,,12.1,
Wick,26/09/2018 06:00,13.2,17,12.2,,0,0,90,,280,Dry,1013,1,50,,,,11.6,
Wick,26/09/2018 07:00,12.9,15,,,0,,90,,270,Dry,1014,2,45,,,,11.4,
Wick,26/09/2018 08:00,12.4,17,,,0.2,,92,,270,Haze,1015,6,40,,,,11.2,
Wick,26/09/2018 09:00,12.6,10,,,0,,89,,270,Dry,1016,3,30,,,,11,
Wick,26/09/2018 10:00,13.2,12,,,0,,89,,270,Dry,1017,6,30,,,,11.5,
Wick,26/09/2018 11:00,13.8,18,,,0,,81,,270,Dry,1018,2,40,,,,10.6,
Wick,26/09/2018 12:00,13.4,15,,,0,0.2,82,,260,Dry,1018,1,50,,,,10.5,
Wick,26/09/2018 13:00,11.9,17,,,0,,92,29,300,Haze,1019,1,9,,,,10.7,
Wick,26/09/2018 14:00,12.7,17,,,0,,87,,280,Dry,1019,8,26,,,,10.6,
Wick,26/09/2018 15:00,13.1,17,,,0,,84,,290,Dry,1020,8,35,,,,10.6,
Wick,26/09/2018 16:00,12.1,14,,,0,,82,,270,Dry,1020,8,30,,,,9.3,
Wick,26/09/2018 17:00,11.9,9,,,0,,82,,260,Dry,1020,8,30,,,,9,
Wick,26/09/2018 18:00,11.3,8,,14.1,0,0,84,,280,Dry,1020,7,30,,,,8.8,
Wick,26/09/2018 19:00,10.6,14,,,0,,89,,300,Haze,1020,7,6,,,,8.9,
Wick,26/09/2018 20:00,9.4,8,,,0,,95,,300,Drizzly rain,1020,7,4,,,,8.7,
Wick,26/09/2018 21:00,9.1,3,,,0.6,,97,,300,Moderate drizzle,1020,6,3,,,,8.7,
Wick,26/09/2018 22:00,8.8,1,,,1.2,,98,,360,Moderate drizzle,1019,8,3,,,,8.6,
Wick,26/09/2018 23:00,8.9,5,,,1,,99,,360,Light drizzle,1018,8,8,,,,8.8,
Wick,27/09/2018 00:00,9.2,5,,,0.2,3,100,,60,Rain,1017,6,6,,,,9.2,
Wick,27/09/2018 01:00,9.8,6,,,0.2,,100,,100,Rain,1015,8,4,,,,9.8,
Wick,27/09/2018 02:00,10.2,3,,,2,,100,,70,Light drizzle,1014,8,3,,,,10.2,
Wick,27/09/2018 03:00,10.4,3,,,1.2,,100,,70,Light drizzle,1013,8,2,,,,10.4,
Wick,27/09/2018 04:00,10.8,2,,,0.8,,100,,20,Light drizzle,1012,8,5,,,,10.8,
Wick,27/09/2018 05:00,10.5,5,,,0.8,,100,,250,Moderate rain,1011,1,2,,,,10.5,
Wick,27/09/2018 06:00,10.3,13,8.8,,0.8,6,100,,270,Rain,1011,8,12,,,,10.3,
Wick,27/09/2018 07:00,9.2,17,,,0.6,,100,31,310,Light drizzle,1013,8,9,,,,9.2,
Wick,27/09/2018 08:00,8.1,24,,,0.6,,95,36,310,Light rain,1014,8,9,,,,7.5,
Wick,27/09/2018 09:00,8,17,,,1.4,,94,32,290,Light rain,1016,7,14,,,,7.2,
Wick,27/09/2018 10:00,8.2,18,,,0.2,,94,,280,Drizzly rain,1017,7,12,,,,7.3,
Wick,27/09/2018 11:00,7.9,18,,,0.6,,95,,300,Moderate shower,1018,8,5,,,,7.2,
Wick,27/09/2018 12:00,8.9,18,,,0.4,4,91,,300,Rain,1019,7,40,,,,7.6,
Wick,27/09/2018 13:00,10.5,21,,,0,,80,37,280,Rain,1019,2,24,,,,7.3,
Wick,27/09/2018 14:00,11.1,23,,,0,,76,35,280,Dry,1020,2,35,,,,7.1,
Wick,27/09/2018 15:00,11.2,24,,,0,,76,33,280,Dry,1020,3,40,,,,7.3,
Wick,27/09/2018 16:00,8.5,23,,,1,,87,33,280,Light shower,1021,5,28,,,,6.6,
Wick,27/09/2018 17:00,9.3,20,,,0,,78,29,290,Rain,1022,2,30,,,,5.8,
Wick,27/09/2018 18:00,7.5,13,,11.4,0,1,88,,280,Rain,1023,2,25,,,,5.7,
Wick,27/09/2018 19:00,7.4,14,,,0,,85,,280,Rain,1024,3,27,,,,5.1,
Wick,27/09/2018 20:00,5.8,8,,,0,,91,,270,Dry,1025,2,35,,,,4.5,
Wick,27/09/2018 21:00,5.7,10,,,0.4,,91,,260,Rain,1025,3,22,,,,4.5,
Wick,27/09/2018 22:00,5.4,12,,,0.2,,93,,270,Rain,1026,1,30,,,,4.4,
Wick,27/09/2018 23:00,5.9,9,,,0,,93,,260,Rain,1026,1,30,,,,4.9,
Wick,28/09/2018 00:00,5.3,10,,,0,0.6,95,,270,Dry,1027,1,40,,,,4.6,
Wick,28/09/2018 01:00,5.2,9,,,0.2,,91,,250,Rain,1027,1,45,,,,4,
Wick,28/09/2018 02:00,5.8,13,,,0.2,,94,,280,Light shower,1028,2,8,,,,5,
Wick,28/09/2018 03:00,5.8,14,,,0,,92,,260,Light shower,1027,4,23,,,,4.7,
Wick,28/09/2018 04:00,5.2,9,,,0.2,,91,,250,Rain,1028,2,30,,,,3.9,
Wick,28/09/2018 05:00,6.4,10,,,0,,93,,260,Light shower,1028,7,11,,,,5.5,
Wick,28/09/2018 06:00,5.7,10,4.3,,0.4,1.4,93,,250,Rain,1028,2,26,,,,4.7,
Wick,28/09/2018 07:00,6.3,10,,,0,,95,,250,Rain,1029,1,30,,,,5.7,
Wick,28/09/2018 08:00,7.9,12,,,0,,92,,250,Dry,1030,3,15,,,,6.8,
Wick,28/09/2018 09:00,8.8,14,,,0,,86,,270,Dry,1030,1,26,,,,6.6,
Wick,28/09/2018 10:00,10.3,12,,,0,,76,,280,Dry,1030,3,35,,,,6.4,
Wick,28/09/2018 11:00,10.3,18,,,0,,71,,280,Dry,1030,7,35,,,,5.3,
Wick,28/09/2018 12:00,10.2,18,,,0,0,75,,260,Dry,1030,7,9,,,,6,
Wick,28/09/2018 13:00,10.5,18,,,0,,69,,270,Dry,1030,8,35,,,,5.2,
Wick,28/09/2018 14:00,10.7,21,,,0,,71,29,260,Dry,1030,7,35,,,,5.7,
Wick,28/09/2018 15:00,11.3,17,,,0,,65,,260,Dry,1029,3,35,,,,5.1,
Wick,28/09/2018 16:00,10.2,18,,,0,,73,,250,Dry,1028,2,35,,,,5.7,
Wick,28/09/2018 17:00,9.7,8,,,0,,79,,240,Dry,1028,8,50,,,,6.4,
Wick,28/09/2018 18:00,9.3,13,,11.7,0,0,77,,250,Dry,1027,4,50,,,,5.6,
Wick,28/09/2018 19:00,8.9,9,,,0,,82,,250,Dry,1027,8,45,,,,6,
Wick,28/09/2018 20:00,9.1,12,,,0,,79,,230,Dry,1027,6,50,,,,5.8,
Wick,28/09/2018 21:00,9.3,13,,,0,,76,,220,Dry,1027,1,50,,,,5.4,
Wick,28/09/2018 22:00,8.7,10,,,0,,81,,190,Dry,1026,2,50,,,,5.8,
Wick,28/09/2018 23:00,8.8,10,,,0,,82,,200,Dry,1025,8,50,,,,6,
Wick,29/09/2018 00:00,8.9,16,,,0,0,82,,220,Dry,1024,7,50,,,,6.1,
Wick,29/09/2018 01:00,8.8,21,,,0,,80,29,230,Dry,1022,6,50,,,,5.6,
Wick,29/09/2018 02:00,8.7,15,,,0,,75,37,210,Dry,1022,7,50,,,,4.6,
Wick,29/09/2018 03:00,9.2,14,,,0,,72,,230,Dry,1021,8,30,,,,4.6,
Wick,29/09/2018 04:00,9.3,21,,,0,,74,,230,Dry,1020,8,50,,,,5.1,
Wick,29/09/2018 05:00,9.3,17,,,0,,72,,230,Dry,1019,8,40,,,,4.7,
Wick,29/09/2018 06:00,9.5,26,8.5,,0,0,76,33,230,Dry,1018,1,50,,,,5.5,
Wick,29/09/2018 07:00,9.4,17,,,0,,78,35,230,Dry,1018,8,45,,,,5.9,
Wick,29/09/2018 08:00,9.8,26,,,0,,79,35,230,Dry,1016,8,45,,,,6.5,
Wick,29/09/2018 09:00,10.3,24,,,0,,77,37,240,Dry,1016,2,50,,,,6.5,
Wick,29/09/2018 10:00,10.7,23,,,0,,75,37,240,Dry,1015,7,50,,,,6.5,
Wick,29/09/2018 11:00,10.8,29,,,0,,77,37,240,Dry,1014,7,45,,,,7,
Wick,29/09/2018 12:00,11.4,29,,,0,0,76,33,230,Dry,1014,8,40,,,,7.4,
Wick,29/09/2018 13:00,12.9,26,,,0,,70,35,230,Dry,1013,5,35,,,,7.6,
Wick,29/09/2018 14:00,13,24,,,0,,73,28,230,Dry,1012,8,35,,,,8.3,
Wick,29/09/2018 15:00,12.9,25,,,0,,73,33,230,Dry,1011,8,50,,,,8.3,
Wick,29/09/2018 16:00,12.4,25,,,0,,79,38,240,Dry,1010,8,17,,,,8.9,
Wick,29/09/2018 17:00,9.4,16,,,1,,95,35,270,Moderate shower,1010,8,5,,,,8.7,
Wick,29/09/2018 18:00,9.2,9,,13.4,0.2,1,93,,240,Rain,1010,8,22,,,,8.2,
Wick,29/09/2018 19:00,9.4,10,,,0,,85,,230,Dry,1010,8,16,,,,7.1,
Wick,29/09/2018 20:00,8.4,9,,,0,,87,,250,Dry,1011,2,12,,,,6.4,
Wick,29/09/2018 21:00,8.4,14,,,0,,83,,260,Rain,1010,6,24,,,,5.7,
Wick,29/09/2018 22:00,7.8,14,,,0,,82,,250,Dry,1009,2,35,,,,5,
Wick,29/09/2018 23:00,7.2,16,,,0,,84,,240,Dry,1009,0,35,,,,4.7,
Wick,30/09/2018 00:00,7.5,14,,,0.2,0.2,87,,240,Light shower,1009,7,30,,,,5.5,
Wick,30/09/2018 01:00,6,10,,,0.2,,89,,240,Rain,1009,4,20,,,,4.4,
Wick,30/09/2018 02:00,7.6,23,,,0,,80,36,260,Rain,1009,4,16,,,,4.5,
Wick,30/09/2018 03:00,6.8,10,,,0,,88,30,250,Dry,1009,8,13,,,,5,
Wick,30/09/2018 04:00,6.2,10,,,0,,88,,250,Dry,1008,4,16,,,,4.5,
Wick,30/09/2018 05:00,6.9,22,,,0,,84,32,250,Rain,1008,3,25,,,,4.4,
Wick,30/09/2018 06:00,5.8,13,5.8,,0.2,0.4,90,32,240,Rain,1008,4,18,,,,4.3,
Wick,30/09/2018 07:00,6.5,15,,,0,,87,30,250,Drizzly rain,1008,7,15,,,,4.5,
Wick,30/09/2018 08:00,6.8,13,,,0,,83,,240,Rain,1008,6,20,,,,4.2,
Wick,30/09/2018 09:00,8.7,21,,,0.2,,81,30,250,Rain,1009,4,14,,,,5.7,
Wick,30/09/2018 10:00,8,20,,,0,,85,33,260,Rain,1009,5,30,,,,5.8,
Wick,30/09/2018 11:00,9.9,23,,,0.8,,85,35,270,Rain,1009,2,20,,,,7.6,
Wick,30/09/2018 12:00,8.9,22,,,0.2,1,86,33,270,Moderate shower,1010,6,5,,,,6.7,
Wick,30/09/2018 13:00,9.1,16,,,2.2,,89,31,280,Rain,1010,7,9,,,,7.5,
Wick,30/09/2018 14:00,9.8,21,,,0,,79,31,310,Dry,1011,5,27,,,,6.4,
Wick,30/09/2018 15:00,8.7,17,,,0.6,,87,30,310,Rain,1013,7,22,,,,6.7,
Wick,30/09/2018 16:00,8.4,20,,,0,,87,33,330,Rain,1014,7,24,,,,6.5,
Wick,30/09/2018 17:00,7.5,24,,,0.2,,87,36,320,Light shower,1015,7,6,,,,5.6,
Wick,30/09/2018 18:00,7.3,20,,10.5,0,3,75,29,320,Rain,1016,1,19,,,,3.3,
Wick,30/09/2018 19:00,6.9,22,,,0,,74,29,320,Dry,1018,3,22,,,,2.7,
Wick,30/09/2018 20:00,6.3,29,,,0,,65,39,310,Rain,1019,3,28,,,,0.4,
Wick,30/09/2018 21:00,6.2,25,,,0,,61,43,310,Dry,1020,7,28,,,,-0.6,
Wick,30/09/2018 22:00,6,25,,,0,,58,41,310,Dry,1020,7,30,,,,-1.6,
Wick,30/09/2018 23:00,6.3,21,,,0,,66,37,310,Dry,1021,7,24,,,,0.6,
Wick,01/10/2018 00:00,5.9,20,,,0,0,70,35,310,Rain,1021,7,29,,,,1,
Wick,01/10/2018 01:00,4.5,16,,,0.2,,77,40,320,Rain,1022,6,25,,,,1,
Wick,01/10/2018 02:00,5.4,20,,,0,,64,,310,Dry,1022,7,30,,,,-0.8,
Wick,01/10/2018 03:00,5.8,16,,,0,,62,31,290,Dry,1022,8,40,,,,-0.7,
Wick,01/10/2018 04:00,6,18,,,0,,72,,330,Light shower,1022,7,21,,,,1.4,
Wick,01/10/2018 05:00,6.5,18,,,0,,57,,310,Rain,1022,8,40,,,,-1.3,
Wick,01/10/2018 06:00,6.2,14,4.5,,0,0.2,67,,310,Dry,1022,8,22,,,,0.7,
Wick,01/10/2018 07:00,6.4,15,,,0,,64,,310,Dry,1022,8,30,,,,0.1,
Wick,01/10/2018 08:00,6.4,10,,,0,,72,,290,Dry,1023,7,28,,,,1.9,
Wick,01/10/2018 09:00,7.2,12,,,0,,73,,310,Dry,1022,8,20,,,,2.7,
Wick,01/10/2018 10:00,7.8,12,,,0,,71,,290,Dry,1022,7,30,,,,2.9,
Wick,01/10/2018 11:00,8.7,13,,,0,,56,,300,Dry,1022,8,29,,,,0.5,
Wick,01/10/2018 12:00,8.7,12,,,0,0,60,,270,Dry,1021,1,24,,,,1.5,
Wick,01/10/2018 13:00,7.7,8,,,0,,71,,250,Moderate shower,1020,5,18,,,,2.8,
Wick,01/10/2018 14:00,6.2,9,,,0.2,,84,,220,Light rain,1020,1,17,,,,3.8,
Wick,01/10/2018 15:00,6.1,7,,,0.2,,86,,190,Light rain,1018,7,15,,,,4,
Wick,01/10/2018 16:00,6.6,10,,,0.2,,87,,180,Light shower,1016,7,15,,,,4.6,
Wick,01/10/2018 17:00,6.6,14,,,0.4,,88,,190,Light rain,1014,8,18,,,,4.9,
Wick,01/10/2018 18:00,7.1,18,,9.4,1,2,91,29,160,Light rain,1011,8,8,,,,5.8,
Wick,01/10/2018 19:00,7.5,21,,,0.4,,95,35,170,Light rain,1008,7,5,,,,6.8,
Wick,01/10/2018 20:00,8.1,20,,,0.4,,95,38,170,Rain,1006,6,6,,,,7.5,
Wick,01/10/2018 21:00,9.2,17,,,0.2,,97,29,190,Drizzle,1004,8,7,,,,8.9,
Wick,01/10/2018 22:00,10.9,20,,,0.2,,99,,270,Misty,1004,7,9,,,,10.8,
Wick,01/10/2018 23:00,11.3,31,,,0,,96,44,280,Misty,1003,7,12,,,,10.7,
Wick,02/10/2018 00:00,10.7,29,,,0.2,1,95,46,280,Misty,1004,8,14,,,,10,
Wick,02/10/2018 01:00,9.6,33,,,0,,86,55,280,Rain,1004,4,12,,,,7.4,
Wick,02/10/2018 02:00,9.3,31,,,0,,75,47,290,Dry,1005,7,16,,,,5.2,
Wick,02/10/2018 03:00,9.1,33,,,0,,73,51,280,Dry,1005,7,14,,,,4.7,
Wick,02/10/2018 04:00,9,32,,,0,,69,44,280,Dry,1006,5,18,,,,3.8,
Wick,02/10/2018 05:00,8.3,25,,,0,,78,39,270,Dry,1006,1,15,,,,4.7,
Wick,02/10/2018 06:00,7.6,33,6.8,,0,0,84,48,280,Haze,1007,6,10,,,,5.2,
Wick,02/10/2018 07:00,7.5,23,,,0,,80,33,260,Dry,1006,1,14,,,,4.3,
Wick,02/10/2018 08:00,8.1,26,,,0,,80,43,270,Dry,1006,5,16,,,,4.9,
Wick,02/10/2018 09:00,8.8,32,,,0,,81,49,270,Rain,1007,2,16,,,,5.8,
Wick,02/10/2018 10:00,10.5,37,,,0,,66,60,280,Dry,1007,5,22,,,,4.6,
Wick,02/10/2018 11:00,9,37,,,0,,79,53,290,Rain,1007,6,16,,,,5.6,
Wick,02/10/2018 12:00,9.7,38,,,0,0,77,55,280,Rain,1008,1,12,,,,6,
Wick,02/10/2018 13:00,10.5,38,,,0,,72,59,280,Dry,1008,6,10,,,,5.7,
Wick,02/10/2018 14:00,9.5,43,,,0,,72,60,290,Haze,1009,6,10,,,,4.9,
Wick,02/10/2018 15:00,10.3,43,,,0,,65,62,280,Dry,1010,1,11,,,,4.2,
Wick,02/10/2018 16:00,9.2,39,,,0,,73,54,290,Dry,1010,4,11,,,,4.8,
Wick,02/10/2018 17:00,9.1,35,,,0,,71,49,290,Dry,1011,4,22,,,,4.3,
Wick,02/10/2018 18:00,7.8,35,,11.5,0,0,83,47,290,Rain,1012,7,26,,,,5.1,
Wick,02/10/2018 19:00,7.8,26,,,0,,88,44,290,Rain,1013,5,9,,,,6,
Wick,02/10/2018 20:00,7.5,26,,,0.2,,90,39,290,Light shower,1014,7,13,,,,6,
Wick,02/10/2018 21:00,7.8,20,,,0,,87,32,290,Rain,1015,7,25,,,,5.9,
Wick,02/10/2018 22:00,7.7,16,,,0.2,,88,31,290,Light shower,1016,8,8,,,,6,
Wick,02/10/2018 23:00,7.4,12,,,0,,88,,280,Rain,1017,8,18,,,,5.6,
Wick,03/10/2018 00:00,6.9,8,,,0,0.4,87,,270,Dry,1017,7,19,,,,4.9,
Wick,03/10/2018 01:00,6.5,10,,,0,,79,,250,Dry,1018,7,27,,,,3.2,
Wick,03/10/2018 02:00,6.7,10,,,0,,81,,260,Dry,1018,8,24,,,,3.7,
Wick,03/10/2018 03:00,6.5,13,,,0,,81,,260,Dry,1018,7,25,,,,3.6,
Wick,03/10/2018 04:00,6.6,8,,,0,,81,,240,Dry,1019,1,26,,,,3.6,
Wick,03/10/2018 05:00,6.4,8,,,0,,82,,240,Dry,1018,1,25,,,,3.7,
Wick,03/10/2018 06:00,6.8,8,6.1,,0,0,81,,250,Dry,1019,8,25,,,,3.8,
Wick,03/10/2018 07:00,7.3,7,,,0,,77,,220,Dry,1018,8,23,,,,3.7,
Wick,03/10/2018 08:00,7.8,5,,,0,,77,,220,Dry,1019,3,25,,,,4.1,
Wick,03/10/2018 09:00,8.5,6,,,0,,77,,190,Dry,1018,1,25,,,,4.8,
Wick,03/10/2018 10:00,9.1,8,,,0,,77,,190,Dry,1018,8,24,,,,5.3,
Wick,03/10/2018 11:00,8,15,,,0.2,,88,,190,Rain,1018,7,4,,,,6.2,
Wick,03/10/2018 12:00,7.5,12,,,0.8,1,95,,170,Light drizzle,1018,8,3,,,,6.8,
Wick,03/10/2018 13:00,7.8,13,,,0.8,,97,,150,Light shower,1017,8,5,,,,7.4,
Wick,03/10/2018 14:00,8.4,14,,,1,,98,,150,Light shower,1016,7,5,,,,8.2,
Wick,03/10/2018 15:00,9.3,12,,,0.4,,97,,160,Rain,1015,8,5,,,,9,
Wick,03/10/2018 16:00,10,9,,,0.2,,98,,200,Rain,1015,8,16,,,,9.7,
Wick,03/10/2018 17:00,10.6,8,,,0.2,,96,,200,Drizzly rain,1015,7,26,,,,10.1,
Wick,03/10/2018 18:00,11.1,8,,11.1,0.4,3,97,,190,Light shower,1015,4,5,,,,10.7,
Wick,03/10/2018 19:00,12.2,13,,,0.6,,94,,210,Rain,1014,7,30,,,,11.4,
Wick,03/10/2018 20:00,12.8,15,,,0,,89,,220,Dry,1014,8,29,,,,11.1,
Wick,03/10/2018 21:00,12.6,14,,,0,,93,,230,Rain,1014,8,45,,,,11.6,
Wick,03/10/2018 22:00,13,18,,,0,,88,,220,Dry,1014,8,35,,,,11.1,
Wick,03/10/2018 23:00,12.9,23,,,0,,88,30,230,Dry,1013,3,50,,,,11.1,
Wick,04/10/2018 00:00,13.5,20,,,0,0.6,83,33,230,Dry,1013,4,40,,,,10.7,
Wick,04/10/2018 01:00,12.5,8,,,0,,88,30,190,Dry,1013,7,35,,,,10.7,
Wick,04/10/2018 02:00,13.3,17,,,0,,90,,220,Dry,1013,8,50,,,,11.8,
Wick,04/10/2018 03:00,12.7,10,,,0.2,,92,,190,Rain,1012,2,35,,,,11.5,
Wick,04/10/2018 04:00,13,18,,,0,,88,,210,Dry,1012,7,28,,,,11.2,
Wick,04/10/2018 05:00,12.8,15,,,0,,89,,210,Dry,1011,4,45,,,,11.1,
Wick,04/10/2018 06:00,12.4,15,11.1,,0,0.2,89,,200,Dry,1010,1,40,,,,10.7,
Wick,04/10/2018 07:00,12.6,20,,,0,,87,31,200,Dry,1010,2,30,,,,10.6,
Wick,04/10/2018 08:00,12.6,15,,,0,,89,29,210,Dry,1010,6,30,,,,10.9,
Wick,04/10/2018 09:00,12.7,13,,,0,,91,,200,Dry,1009,5,35,,,,11.4,
Wick,04/10/2018 10:00,13.5,18,,,0,,86,,200,Dry,1009,8,35,,,,11.3,
Wick,04/10/2018 11:00,13.9,25,,,0,,84,36,200,Dry,1008,2,25,,,,11.3,
Wick,04/10/2018 12:00,11.1,18,,,0.4,0.4,87,37,260,Light drizzle,1008,2,2,,,,9.1,
Wick,04/10/2018 13:00,10.4,20,,,1.4,,97,,290,Rain,1008,8,4,,,,10,
Wick,04/10/2018 14:00,10.3,20,,,0,,89,31,280,Dry,1008,7,45,,,,8.6,
Wick,04/10/2018 15:00,9.1,22,,,0,,89,33,270,Rain,1009,8,28,,,,7.5,
Wick,04/10/2018 16:00,8.9,17,,,0,,83,30,250,Dry,1009,8,45,,,,6.2,
Wick,04/10/2018 17:00,8.4,15,,,0,,87,,260,Moderate shower,1010,8,13,,,,6.4,
Wick,04/10/2018 18:00,7.5,13,,14.4,0.2,1.6,90,,230,Rain,1010,8,35,,,,6,
Wick,04/10/2018 19:00,6.9,12,,,0,,88,,230,Dry,1010,4,35,,,,5.1,
Wick,04/10/2018 20:00,6.5,9,,,0,,85,,220,Dry,1011,0,40,,,,4.3,
Wick,04/10/2018 21:00,6.6,13,,,0,,82,,210,Dry,1011,0,30,,,,3.8,
Wick,04/10/2018 22:00,6.1,13,,,0,,80,,230,Dry,1011,0,30,,,,3,
Wick,04/10/2018 23:00,6.1,10,,,0,,80,,230,Dry,1012,0,29,,,,3,
Wick,05/10/2018 00:00,5.4,7,,,0,0,81,,200,Dry,1012,0,22,,,,2.5,
Wick,05/10/2018 01:00,6.1,14,,,0,,82,,210,Dry,1012,6,30,,,,3.3,
Wick,05/10/2018 02:00,6,12,,,0,,83,,200,Dry,1012,7,40,,,,3.5,
Wick,05/10/2018 03:00,5.9,10,,,0,,85,,200,Dry,1012,0,35,,,,3.6,
Wick,05/10/2018 04:00,5.5,12,,,0,,85,,200,Dry,1012,0,35,,,,3.2,
Wick,05/10/2018 05:00,6.2,16,,,0,,81,,220,Dry,1012,0,29,,,,3.2,
Wick,05/10/2018 06:00,5.7,13,5,,0,0,80,,220,Dry,1011,0,30,,,,2.6,
Wick,05/10/2018 07:00,5.6,6,,,0,,84,,220,Dry,1012,0,35,,,,3.2,
Wick,05/10/2018 08:00,6.8,10,,,0,,78,,230,Dry,1012,1,19,,,,3.4,
Wick,05/10/2018 09:00,7.6,12,,,0,,77,,230,Dry,1012,1,23,,,,4,
Wick,05/10/2018 10:00,8.9,13,,,0,,73,,230,Dry,1012,0,30,,,,4.4,
Wick,05/10/2018 11:00,10.4,,,,0,,66,,,Dry,1012,4,30,,,,4.4,
Wick,05/10/2018 12:00,10,15,,,0,0,62,,270,Dry,1012,7,45,,,,3.1,
Wick,05/10/2018 13:00,10.6,15,,,0,,59,,270,Dry,1012,2,26,,,,3.1,
Wick,05/10/2018 14:00,10.8,15,,,0,,59,,270,Dry,1012,3,30,,,,3.2,
Wick,05/10/2018 15:00,10.4,13,,,0,,61,,260,Dry,1012,1,35,,,,3.3,
Wick,05/10/2018 16:00,9.7,14,,,0,,61,,270,Dry,1012,1,30,,,,2.6,
Wick,05/10/2018 17:00,8.4,7,,,0,,68,,250,Dry,1012,1,45,,,,2.9,
Wick,05/10/2018 18:00,7.4,6,,11.4,0,0,71,,230,Dry,1012,6,40,,,,2.6,
Wick,05/10/2018 19:00,6.1,10,,,0,,76,,250,Dry,1012,0,45,,,,2.3,
Wick,05/10/2018 20:00,5.7,9,,,0,,79,,260,Dry,1012,8,45,,,,2.5,
Wick,05/10/2018 21:00,5.6,5,,,0,,78,,220,Dry,1012,0,35,,,,2.2,
Wick,05/10/2018 22:00,5.7,6,,,0,,75,,220,Dry,1012,5,24,,,,1.8,
Wick,05/10/2018 23:00,4.3,7,,,0,,83,,260,Dry,1013,6,35,,,,1.8,
Wick,06/10/2018 00:00,4.2,7,,,0,0,82,,250,Dry,1013,0,30,,,,1.5,
Wick,06/10/2018 01:00,4.2,5,,,0,,85,,250,Dry,1013,1,30,,,,2,
Wick,06/10/2018 02:00,4.3,5,,,0,,86,,210,Rain,1012,1,35,,,,2.2,
Wick,06/10/2018 03:00,4.8,8,,,0,,87,,270,Dry,1012,8,50,,,,2.9,
Wick,06/10/2018 04:00,3.8,8,,,0,,90,,270,Dry,1012,4,50,,,,2.4,
Wick,06/10/2018 05:00,2.9,10,,,0,,94,,280,Dry,1012,1,50,,,,2.1,
Wick,06/10/2018 06:00,2.4,12,2.3,,0,0,95,,280,Dry,1013,1,45,,,,1.7,
Wick,06/10/2018 07:00,3.8,5,,,0,,97,,300,Rain,1014,2,30,,,,3.4,
Wick,06/10/2018 08:00,5.5,6,,,0,,96,,280,Rain,1014,8,35,,,,5,
Wick,06/10/2018 09:00,6.6,7,,,0,,95,,300,Light shower,1014,8,35,,,,5.9,
Wick,06/10/2018 10:00,8.1,6,,,0,,94,,310,Rain,1015,6,35,,,,7.2,
Wick,06/10/2018 11:00,8.4,5,,,0,,83,,20,Dry,1015,3,27,,,,5.7,
Wick,06/10/2018 12:00,8.6,3,,,0,0,68,,30,Dry,1016,4,30,,,,3.2,
Wick,06/10/2018 13:00,9.8,8,,,0,,63,,330,Dry,1016,2,29,,,,3.2,
Wick,06/10/2018 14:00,9.9,7,,,0,,64,,340,Dry,1016,5,27,,,,3.5,
Wick,06/10/2018 15:00,9.9,6,,,0,,63,,360,Dry,1016,0,22,,,,3.3,
Wick,06/10/2018 16:00,9.4,6,,,0,,66,,350,Dry,1016,0,40,,,,3.5,
Wick,06/10/2018 17:00,8.4,0,,,0,,65,,0,Dry,1016,1,35,,,,2.4,
Wick,06/10/2018 18:00,7.8,2,,10.5,0,0,75,,230,Dry,1017,4,29,,,,3.7,
Wick,06/10/2018 19:00,7.1,3,,,0,,79,,210,Dry,1017,0,40,,,,3.8,
Wick,06/10/2018 20:00,6.2,3,,,0,,83,,220,Dry,1017,0,40,,,,3.6,
Wick,06/10/2018 21:00,6.5,5,,,0,,84,,210,Dry,1017,1,45,,,,4,
Wick,06/10/2018 22:00,6.8,6,,,0,,84,,210,Dry,1017,2,45,,,,4.3,
Wick,06/10/2018 23:00,6.7,5,,,0,,85,,240,Dry,1017,7,50,,,,4.5,
Wick,07/10/2018 00:00,6.4,6,,,0,0,82,,240,Dry,1016,0,50,,,,3.7,
Wick,07/10/2018 01:00,7.1,7,,,0,,78,,230,Dry,1016,8,50,,,,3.6,
Wick,07/10/2018 02:00,7,7,,,0,,83,,210,Dry,1015,8,45,,,,4.4,
Wick,07/10/2018 03:00,7.4,6,,,0,,82,,230,Dry,1015,8,50,,,,4.6,
Wick,07/10/2018 04:00,7.6,9,,,0,,82,,220,Dry,1014,0,50,,,,4.9,
Wick,07/10/2018 05:00,7.5,10,,,0,,81,,220,Light shower,1013,7,12,,,,4.6,
Wick,07/10/2018 06:00,8.1,13,5.6,,0.2,0.2,77,,210,Light rain,1012,8,22,,,,4.5,
Wick,07/10/2018 07:00,8,16,,,0.2,,82,,200,Light rain,1011,8,30,,,,5.2,
Wick,07/10/2018 08:00,8,15,,,0.8,,85,,200,Moderate rain,1010,8,10,,,,5.8,
Wick,07/10/2018 09:00,8,20,,,1.4,,87,32,200,Moderate rain,1009,8,8,,,,6,
Wick,07/10/2018 10:00,8,17,,,1.8,,89,,200,Light rain,1008,7,9,,,,6.4,
Wick,07/10/2018 11:00,9,18,,,0.8,,83,30,200,Rain,1007,8,40,,,,6.4,
Wick,07/10/2018 12:00,9.7,21,,,0.2,5,78,,200,Drizzly rain,1006,8,30,,,,6.2,
Wick,07/10/2018 13:00,10.5,18,,,0,,78,31,200,Rain,1004,8,40,,,,6.9,
Wick,07/10/2018 14:00,11.1,18,,,0,,76,,200,Dry,1002,8,30,,,,7.2,
Wick,07/10/2018 15:00,11.3,20,,,0,,80,32,190,Dry,1001,8,25,,,,8.1,
Wick,07/10/2018 16:00,11.6,22,,,0,,84,36,210,Dry,999,7,30,,,,9,
Wick,07/10/2018 17:00,11.6,17,,,0,,86,29,210,Dry,998,3,30,,,,9.5,
Wick,07/10/2018 18:00,11.8,16,,11.9,0,0,88,,210,Dry,999,8,50,,,,10,
Wick,07/10/2018 19:00,11.7,12,,,0,,92,,210,Dry,998,0,30,,,,10.5,
Wick,07/10/2018 20:00,12.9,10,,,0,,89,,240,Dry,998,8,45,,,,11.2,
Wick,07/10/2018 21:00,13.7,20,,,0,,87,,260,Drizzly rain,999,2,30,,,,11.6,
Wick,07/10/2018 22:00,10.5,17,,,0.2,,92,,300,Rain,1001,1,50,,,,9.3,
Wick,07/10/2018 23:00,9.3,15,,,0,,94,,290,Dry,1002,8,22,,,,8.4,
Wick,08/10/2018 00:00,8.6,8,,,0,0.2,92,,280,Dry,1002,7,40,,,,7.5,
Wick,08/10/2018 01:00,8.5,10,,,0,,86,,280,Dry,1003,4,45,,,,6.3,
Wick,08/10/2018 02:00,7.9,6,,,0,,85,,250,Dry,1004,7,45,,,,5.6,
Wick,08/10/2018 03:00,7.8,5,,,0,,88,,230,Rain,1004,1,40,,,,6,
Wick,08/10/2018 04:00,7.9,7,,,0,,89,,250,Dry,1004,6,25,,,,6.3,
Wick,08/10/2018 05:00,7.9,10,,,0,,85,,240,Dry,1004,1,21,,,,5.6,
Wick,08/10/2018 06:00,7.9,9,7.3,,0,0,84,,240,Dry,1005,5,26,,,,5.4,
Wick,08/10/2018 07:00,7.9,6,,,0,,87,,250,Dry,1006,5,35,,,,5.9,
Wick,08/10/2018 08:00,8.6,12,,,0,,84,,260,Dry,1006,7,35,,,,6.2,
Wick,08/10/2018 09:00,9.6,9,,,0,,80,,230,Dry,1006,1,40,,,,6.5,
Wick,08/10/2018 10:00,9.8,9,,,0,,78,,250,Dry,1006,1,35,,,,6.2,
Wick,08/10/2018 11:00,10.1,7,,,0,,76,,220,Dry,1006,8,26,,,,6.1,
Wick,08/10/2018 12:00,10.8,6,,,0,0,71,,200,Dry,1006,8,25,,,,5.9,
Wick,08/10/2018 13:00,10.9,7,,,0,,76,,210,Dry,1006,8,17,,,,6.9,
Wick,08/10/2018 14:00,10.6,8,,,0,,75,,190,Dry,1004,8,21,,,,6.4,
Wick,08/10/2018 15:00,9.4,10,,,0,,89,,180,Light shower,1004,6,8,,,,7.7,
Wick,08/10/2018 16:00,9.2,8,,,0.8,,97,,150,Light drizzle,1002,7,5,,,,8.9,
Wick,08/10/2018 17:00,9.7,12,,,1.6,,99,,140,Moderate rain,1001,8,5,,,,9.6,
Wick,08/10/2018 18:00,11.3,8,,11.3,0.2,3,100,,170,Rain,1000,8,14,,,,11.3,
Wick,08/10/2018 19:00,11.7,8,,,0,,97,,220,Dry,1000,8,40,,,,11.3,
Wick,08/10/2018 20:00,10.8,3,,,0.2,,98,,260,Light shower,1000,7,13,,,,10.5,
Wick,08/10/2018 21:00,11.6,5,,,1.4,,97,,230,Light rain,1001,7,17,,,,11.2,
Wick,08/10/2018 22:00,11.5,7,,,1.2,,96,,190,Moderate rain,1000,8,15,,,,11,
Wick,08/10/2018 23:00,11.5,3,,,0.4,,96,,,Moderate shower,1000,8,8,,,,10.9,
Wick,09/10/2018 00:00,11.4,7,,,0.2,3,96,,190,Rain,999,1,35,,,,10.9,
Wick,09/10/2018 01:00,12.2,9,,,0.2,,98,,210,Light shower,999,8,13,,,,12,
Wick,09/10/2018 02:00,12,8,,,1,,98,,200,Rain,998,7,20,,,,11.8,
Wick,09/10/2018 03:00,12.3,8,,,0,,96,,200,Dry,997,1,35,,,,11.8,
Wick,09/10/2018 04:00,12.4,10,,,0.2,,95,,200,Rain,997,8,35,,,,11.7,
Wick,09/10/2018 05:00,12.4,10,,,0,,94,,200,Dry,997,8,40,,,,11.6,
Wick,09/10/2018 06:00,13,15,10.4,,0,2,90,28,210,Dry,997,1,45,,,,11.5,
Wick,09/10/2018 07:00,12.5,14,,,0.6,,93,,210,Light shower,997,8,30,,,,11.5,
Wick,09/10/2018 08:00,12.7,13,,,0,,93,,210,Rain,997,8,45,,,,11.6,
Wick,09/10/2018 09:00,13.3,12,,,0,,92,,230,Rain,998,1,45,,,,12.1,
Wick,09/10/2018 10:00,11.6,7,,,0.4,,99,,300,Rain,1000,6,9,,,,11.5,
Wick,09/10/2018 11:00,11.6,9,,,0,,94,,300,Misty,1001,8,16,,,,10.7,
Wick,09/10/2018 12:00,11.7,7,,,0.2,1,94,,290,Light shower,1002,8,12,,,,10.8,
Wick,09/10/2018 13:00,11,8,,,0.6,,97,,310,Light rain,1002,8,17,,,,10.6,
Wick,09/10/2018 14:00,10.6,5,,,1,,97,,310,Light rain,1003,2,11,,,,10.2,
Wick,09/10/2018 15:00,10.3,5,,,1.6,,96,,320,Moderate rain,1004,8,13,,,,9.8,
Wick,09/10/2018 16:00,10.1,3,,,0.4,,94,,40,Rain,1004,8,50,,,,9.3,
Wick,09/10/2018 17:00,10.4,2,,,0,,95,,60,Light shower,1004,8,35,,,,9.7,
Wick,09/10/2018 18:00,10.3,1,,13.4,0,4,96,,80,Rain,1006,8,50,,,,9.8,
Wick,09/10/2018 19:00,10.4,5,,,0,,97,,130,Dry,1006,8,25,,,,10,
Wick,09/10/2018 20:00,10.6,6,,,0,,97,,120,Dry,1007,8,12,,,,10.2,
Wick,09/10/2018 21:00,10.2,6,,,0,,94,,90,Misty,1008,7,4,,,,9.4,
Wick,09/10/2018 22:00,10.1,7,,,0.2,,98,,70,Misty,1008,1,7,,,,9.9,
Wick,09/10/2018 23:00,10.3,6,,,0.2,,100,,100,Dry,1008,8,16,,,,10.3,
Wick,10/10/2018 00:00,10.7,9,,,0,0.4,99,,120,Dry,1008,4,45,,,,10.6,
Wick,10/10/2018 01:00,11,12,,,0,,98,,110,Dry,1007,6,23,,,,10.8,
Wick,10/10/2018 02:00,11.6,10,,,0,,96,,120,Dry,1007,7,28,,,,11.1,
Wick,10/10/2018 03:00,12.8,14,,,0,,94,,160,Dry,1006,1,29,,,,11.9,
Wick,10/10/2018 04:00,13.3,16,,,0,,90,,170,Dry,1006,8,50,,,,11.7,
Wick,10/10/2018 05:00,13.1,16,,,0,,90,,180,Dry,1007,0,45,,,,11.6,
Wick,10/10/2018 06:00,13.4,14,9.9,,0,0,88,,170,Dry,1007,0,29,,,,11.5,
Wick,10/10/2018 07:00,13.5,20,,,0,,85,,180,Dry,1007,0,35,,,,11.1,
Wick,10/10/2018 08:00,13.8,21,,,0,,81,31,180,Dry,1008,0,30,,,,10.6,
Wick,10/10/2018 09:00,13.9,24,,,0,,76,38,180,Dry,1008,0,26,,,,9.8,
Wick,10/10/2018 10:00,14.4,23,,,0,,72,38,180,Dry,1009,0,27,,,,9.6,
Wick,10/10/2018 11:00,14.8,21,,,0,,70,29,190,Dry,1009,0,26,,,,9.5,
Wick,10/10/2018 12:00,15.1,6,,,0,0,67,,160,Dry,1010,0,50,,,,9.2,
Wick,10/10/2018 13:00,15.4,16,,,0,,69,,160,Dry,1009,0,27,,,,9.8,
Wick,10/10/2018 14:00,15.4,16,,,0,,72,,160,Dry,1009,0,24,,,,10.5,
Wick,10/10/2018 15:00,15.2,15,,,0,,75,,150,Dry,1009,0,27,,,,10.9,
Wick,10/10/2018 16:00,14.2,12,,,0,,83,,140,Dry,1009,0,11,,,,11.5,
Wick,10/10/2018 17:00,14,15,,,0,,84,,150,Dry,1009,0,16,,,,11.4,
Wick,10/10/2018 18:00,13.8,18,,16.1,0,0,83,,140,Dry,1009,0,24,,,,11,
Wick,10/10/2018 19:00,12.5,14,,,0,,90,,130,Haze,1009,0,10,,,,11,
Wick,10/10/2018 20:00,12.4,15,,,0,,92,,130,Haze,1009,0,8,,,,11.2,
Wick,10/10/2018 21:00,12.4,14,,,0,,93,,130,Haze,1009,0,7,,,,11.4,
Wick,10/10/2018 22:00,12.2,10,,,0,,96,,120,Misty,1008,1,6,,,,11.6,
Wick,10/10/2018 23:00,13.1,10,,,0,,91,,160,Haze,1008,3,7,,,,11.7,
Wick,11/10/2018 00:00,12.9,7,,,0,0,91,,160,Haze,1008,6,6,,,,11.6,
Wick,11/10/2018 01:00,12.2,15,,,0,,94,,130,Misty,1007,1,6,,,,11.4,
Wick,11/10/2018 02:00,12.5,14,,,0,,90,,130,Haze,1007,3,7,,,,11,
Wick,11/10/2018 03:00,12.2,9,,,0,,92,,120,Haze,1006,7,6,,,,11.1,
Wick,11/10/2018 04:00,12,7,,,0,,90,,140,Haze,1004,3,9,,,,10.5,
Wick,11/10/2018 05:00,12.2,16,,,0,,89,29,130,Haze,1003,0,9,,,,10.6,
Wick,11/10/2018 06:00,12.2,13,11.8,,0,0,91,,140,Haze,1002,7,7,,,,10.9,
Wick,11/10/2018 07:00,12.3,21,,,0,,94,32,120,Misty,1002,8,6,,,,11.4,
Wick,11/10/2018 08:00,12.3,20,,,0,,96,32,130,Misty,1000,8,3,,,,11.8,
Wick,11/10/2018 09:00,12.3,18,,,0,,98,29,130,Misty,1000,8,3,,,,12,
Wick,11/10/2018 10:00,12.2,21,,,0,,99,33,120,Misty,999,8,2,,,,12.1,
Wick,11/10/2018 11:00,12.4,21,,,0,,98,31,130,Misty,998,8,3,,,,12.1,
Wick,11/10/2018 12:00,12.6,23,,,0.2,0.2,98,36,130,Light shower,997,8,3,,,,12.3,
Wick,11/10/2018 13:00,12.5,20,,,0.2,,98,32,130,Rain,997,8,3,,,,12.3,
Wick,11/10/2018 14:00,12.4,20,,,0.2,,99,30,130,Moderate shower,996,8,3,,,,12.3,
Wick,11/10/2018 15:00,12.5,15,,,1.8,,99,31,140,Light rain,996,8,5,,,,12.4,
Wick,11/10/2018 16:00,12.6,15,,,0.4,,98,30,130,Rain,996,3,7,,,,12.3,
Wick,11/10/2018 17:00,12.5,18,,,0,,98,30,130,Misty,995,4,5,,,,12.2,
Wick,11/10/2018 18:00,12.7,20,,12.8,0,2.8,96,30,130,Misty,996,6,6,,,,12.1,
Wick,11/10/2018 19:00,13,20,,,0,,94,32,140,Misty,996,1,6,,,,12.1,
Wick,11/10/2018 20:00,13.1,21,,,0.4,,92,35,140,Moderate shower,997,8,7,,,,11.9,
Wick,11/10/2018 21:00,13.2,17,,,0.4,,92,31,140,Rain,997,8,8,,,,12,
Wick,11/10/2018 22:00,12.9,12,,,0.6,,94,29,170,Light rain,998,2,6,,,,12.1,
Wick,11/10/2018 23:00,11.9,7,,,0.8,,96,,150,Rain,998,8,7,,,,11.3,
Wick,12/10/2018 00:00,10.9,5,,,0,2,97,,170,Dry,998,1,12,,,,10.5,
Wick,12/10/2018 01:00,10.5,5,,,0,,97,,190,Misty,998,0,7,,,,10.1,
Wick,12/10/2018 02:00,10.4,8,,,0,,98,,180,Misty,998,0,8,,,,10.1,
Wick,12/10/2018 03:00,10.3,6,,,0,,97,,170,Misty,998,0,9,,,,9.9,
Wick,12/10/2018 04:00,10.3,6,,,0,,94,,120,Dry,995,0,13,,,,9.4,
Wick,12/10/2018 05:00,11.2,12,,,0,,94,,110,Dry,994,0,15,,,,10.4,
Wick,12/10/2018 06:00,10.9,15,9.9,,0,0,91,,140,Dry,994,1,22,,,,9.6,
Wick,12/10/2018 07:00,11,23,,,0,,94,37,140,Light drizzle,992,8,11,,,,10.1,
Wick,12/10/2018 08:00,11.1,22,,,1.2,,94,35,130,Light shower,991,3,8,,,,10.2,
Wick,12/10/2018 09:00,12.2,30,,,0.2,,77,48,150,Rain,989,4,10,,,,8.4,
Wick,12/10/2018 10:00,12.8,26,,,0,,85,43,150,Haze,988,6,9,,,,10.5,
Wick,12/10/2018 11:00,13.1,25,,,0.4,,85,35,160,Rain,988,5,11,,,,10.7,
Wick,12/10/2018 12:00,13.8,20,,,0,2,76,37,160,Dry,990,6,12,,,,9.7,
Wick,12/10/2018 13:00,13.5,14,,,0,,80,33,150,Dry,990,5,10,,,,10.2,
Wick,12/10/2018 14:00,14.6,20,,,0,,66,30,160,Dry,989,7,10,,,,8.5,
Wick,12/10/2018 15:00,14.7,23,,,0,,69,35,160,Haze,988,7,10,,,,9.1,
Wick,12/10/2018 16:00,12.4,18,,,1.2,,92,39,150,Light rain,987,8,5,,,,11.3,
Wick,12/10/2018 17:00,12.4,15,,,1.6,,97,30,150,Moderate rain,987,1,5,,,,12,
Wick,12/10/2018 18:00,12.4,18,,15.1,0.8,3,96,,160,Rain,986,8,11,,,,11.8,
Wick,12/10/2018 19:00,12.3,21,,,0,,91,31,160,Dry,986,4,16,,,,10.9,
Wick,12/10/2018 20:00,12.8,22,,,0,,84,35,160,Dry,987,0,17,,,,10.2,
Wick,12/10/2018 21:00,12.9,24,,,0,,78,38,170,Dry,988,0,17,,,,9.2,
Wick,12/10/2018 22:00,12.5,28,,,0,,74,37,180,Dry,989,0,19,,,,8,
Wick,12/10/2018 23:00,12.9,31,,,0,,71,38,180,Dry,990,0,18,,,,7.9,
Wick,13/10/2018 00:00,12.7,30,,,0,0,72,37,180,Dry,991,0,18,,,,7.8,
Wick,13/10/2018 01:00,12.3,28,,,0,,77,43,210,Dry,993,0,17,,,,8.5,
Wick,13/10/2018 02:00,11.7,22,,,0,,73,44,210,Dry,995,0,30,,,,7.2,
Wick,13/10/2018 03:00,11.6,24,,,0,,69,32,210,Dry,996,3,35,,,,6.3,
Wick,13/10/2018 04:00,11,16,,,0,,80,32,190,Dry,998,0,29,,,,7.8,
Wick,13/10/2018 05:00,10.8,18,,,0,,83,29,190,Dry,998,0,30,,,,8.1,
Wick,13/10/2018 06:00,11,15,10.7,,0,0,83,,180,Dry,999,7,27,,,,8.4,
Wick,13/10/2018 07:00,10.3,2,,,0,,84,,280,Dry,1001,8,25,,,,7.8,
Wick,13/10/2018 08:00,11.1,13,,,0,,82,,180,Dry,1001,8,25,,,,8.3,
Wick,13/10/2018 09:00,11.2,6,,,0,,84,,170,Dry,1002,8,24,,,,8.6,
Wick,13/10/2018 10:00,11.6,7,,,0,,85,,160,Dry,1002,8,17,,,,9.3,
Wick,13/10/2018 11:00,11.6,6,,,0,,83,,160,Drizzly rain,1002,8,16,,,,8.9,
Wick,13/10/2018 12:00,11.4,5,,,0.4,0.4,91,,130,Light rain,1001,8,10,,,,10.1,
Wick,13/10/2018 13:00,10.9,5,,,1,,92,,140,Light drizzle,1001,1,5,,,,9.8,
Wick,13/10/2018 14:00,10.2,7,,,0.8,,94,,100,Light rain,1000,7,10,,,,9.4,
Wick,13/10/2018 15:00,10.2,7,,,1.4,,95,,60,Moderate rain,999,7,10,,,,9.5,
Wick,13/10/2018 16:00,10,9,,,1.6,,97,,40,Moderate rain,998,7,10,,,,9.6,
Wick,13/10/2018 17:00,9.9,13,,,1,,97,,40,Light rain,997,8,8,,,,9.5,
Wick,13/10/2018 18:00,9.7,15,,11.7,1.8,7.6,98,,40,Light rain,997,8,6,,,,9.5,
Wick,13/10/2018 19:00,10,16,,,3,,99,,20,Light rain,996,8,5,,,,9.9,
Wick,13/10/2018 20:00,10.1,20,,,2.2,,100,,20,Moderate rain,995,8,4,,,,10.1,
Wick,13/10/2018 21:00,9.9,22,,,1,,100,29,10,Moderate rain,994,6,4,,,,9.9,
Wick,13/10/2018 22:00,9.5,18,,,1.6,,100,,340,Light rain,994,8,4,,,,9.5,
Wick,13/10/2018 23:00,9.3,18,,,1,,100,,310,Light drizzle,994,7,3,,,,9.3,
Wick,14/10/2018 00:00,8.6,22,,,0.8,10,99,29,310,Rain,995,5,4,,,,8.5,
Wick,14/10/2018 01:00,8.3,20,,,0.6,,99,29,310,Light drizzle,997,8,3,,,,8.2,
Wick,14/10/2018 02:00,8.1,21,,,0.4,,98,30,300,Rain,998,8,11,,,,7.9,
Wick,14/10/2018 03:00,7.4,17,,,0,,97,29,300,Dry,1000,1,11,,,,7,
Wick,14/10/2018 04:00,7.3,13,,,0,,97,,270,Drizzle,1001,2,9,,,,7,
Wick,14/10/2018 05:00,7.2,10,,,0.4,,98,,270,Light drizzle,1002,1,3,,,,7,
Wick,14/10/2018 06:00,7,7,7,,0.2,1,99,,250,Light shower,1004,8,11,,,,6.9,
Wick,14/10/2018 07:00,6.7,7,,,0.2,,97,,240,Rain,1005,1,50,,,,6.3,
Wick,14/10/2018 08:00,6.8,5,,,0,,93,,210,Dry,1005,7,40,,,,5.8,
Wick,14/10/2018 09:00,7.3,5,,,0,,89,,220,Dry,1006,2,35,,,,5.7,
Wick,14/10/2018 10:00,8,7,,,0,,85,,210,Dry,1007,8,35,,,,5.7,
Wick,14/10/2018 11:00,8.5,6,,,0,,84,,220,Dry,1007,7,35,,,,6,
Wick,14/10/2018 12:00,9.1,7,,,0,0.2,82,,210,Dry,1007,7,40,,,,6.3,
Wick,14/10/2018 13:00,9.9,8,,,0,,79,,200,Dry,1007,7,35,,,,6.6,
Wick,14/10/2018 14:00,11.3,8,,,0,,73,,200,Dry,1007,1,50,,,,6.7,
Wick,14/10/2018 15:00,11.1,9,,,0,,67,,190,Dry,1008,0,50,,,,5.3,
Wick,14/10/2018 16:00,10.5,9,,,0,,68,,170,Dry,1008,0,50,,,,5,
Wick,14/10/2018 17:00,9.2,8,,,0,,79,,190,Dry,1008,0,50,,,,5.9,
Wick,14/10/2018 18:00,8.2,7,,11.7,0,0,83,,190,Dry,1009,0,45,,,,5.6,
Wick,14/10/2018 19:00,8.6,8,,,0,,81,,190,Dry,1009,0,45,,,,5.7,
Wick,14/10/2018 20:00,8.4,6,,,0,,83,,180,Dry,1010,0,40,,,,5.7,
Wick,14/10/2018 21:00,8.4,8,,,0,,86,,180,Dry,1010,0,40,,,,6.2,
Wick,14/10/2018 22:00,8.4,6,,,0,,83,,180,Dry,1010,5,30,,,,5.8,
Wick,14/10/2018 23:00,7.8,6,,,0,,83,,190,Dry,1010,8,40,,,,5.2,
Wick,15/10/2018 00:00,7.2,6,,,0,0,86,,220,Dry,1011,0,50,,,,5.1,
Wick,15/10/2018 01:00,6.7,5,,,0,,88,,200,Dry,1011,8,45,,,,5,
Wick,15/10/2018 02:00,7.8,12,,,0,,85,,200,Dry,1011,0,50,,,,5.6,
Wick,15/10/2018 03:00,7.8,10,,,0,,83,,200,Dry,1011,0,45,,,,5.2,
Wick,15/10/2018 04:00,7.8,10,,,0,,83,,200,Dry,1011,8,40,,,,5.2,
Wick,15/10/2018 05:00,8,9,,,0,,85,,180,Dry,1011,8,50,,,,5.7,
Wick,15/10/2018 06:00,8.2,12,5.6,,0,0,84,,200,Dry,1012,0,50,,,,5.8,
Wick,15/10/2018 07:00,8,9,,,0,,86,,180,Dry,1012,7,45,,,,5.9,
Wick,15/10/2018 08:00,8.6,13,,,0,,85,,190,Dry,1012,8,35,,,,6.3,
Wick,15/10/2018 09:00,8.8,12,,,0,,82,,190,Dry,1013,1,45,,,,6,
Wick,15/10/2018 10:00,10.4,16,,,0,,78,,190,Dry,1013,0,35,,,,6.9,
Wick,15/10/2018 11:00,11.3,15,,,0,,77,,190,Dry,1013,1,35,,,,7.6,
Wick,15/10/2018 12:00,11.2,15,,,0,0,74,,190,Dry,1013,,40,,,,6.9,
Wick,15/10/2018 13:00,12.6,13,,,0,,67,,190,Dry,1013,1,30,,,,6.7,
Wick,15/10/2018 14:00,12.4,13,,,0,,67,,190,Dry,1013,1,40,,,,6.6,
Wick,15/10/2018 15:00,11.9,10,,,0,,70,,180,Dry,1013,5,30,,,,6.8,
Wick,15/10/2018 16:00,11.7,10,,,0,,73,,190,Dry,1013,7,35,,,,7.2,
Wick,15/10/2018 17:00,11,9,,,0,,77,,200,Dry,1013,7,30,,,,7.3,
Wick,15/10/2018 18:00,10.7,6,,12.7,0,0,82,,190,Dry,1014,7,40,,,,7.8,
Wick,15/10/2018 19:00,10.1,5,,,0,,82,,220,Dry,1014,7,40,,,,7.2,
Wick,15/10/2018 20:00,10.3,3,,,0,,78,,160,Dry,1014,7,50,,,,6.8,
Wick,15/10/2018 21:00,11,7,,,0,,85,,160,Dry,1014,8,35,,,,8.7,
Wick,15/10/2018 22:00,11,8,,,0,,84,,150,Dry,1013,0,45,,,,8.5,
Wick,15/10/2018 23:00,11,10,,,0,,84,,160,Dry,1012,0,35,,,,8.5,
Wick,16/10/2018 00:00,11,12,,,0,0,83,,160,Dry,1012,7,40,,,,8.4,
Wick,16/10/2018 01:00,10.5,14,,,0,,82,,170,Dry,1011,0,45,,,,7.7,
Wick,16/10/2018 02:00,10.1,12,,,0,,77,,170,Dry,1011,0,45,,,,6.4,
Wick,16/10/2018 03:00,10.1,14,,,0,,76,,160,Dry,1010,0,40,,,,6.2,
Wick,16/10/2018 04:00,10,16,,,0,,75,,150,Dry,1009,0,45,,,,5.8,
Wick,16/10/2018 05:00,10.3,16,,,0,,74,,150,Dry,1008,0,45,,,,6,
Wick,16/10/2018 06:00,9.8,23,9.8,,0,0,77,33,150,Dry,1006,8,30,,,,6.1,
Wick,16/10/2018 07:00,9.9,23,,,0,,78,35,150,Dry,1006,7,30,,,,6.3,
Wick,16/10/2018 08:00,10,17,,,0,,76,33,170,Dry,1006,8,35,,,,6.1,
Wick,16/10/2018 09:00,10.1,23,,,0,,80,40,160,Dry,1005,8,23,,,,6.9,
Wick,16/10/2018 10:00,10.3,17,,,0,,85,36,150,Drizzly rain,1004,8,15,,,,7.9,
Wick,16/10/2018 11:00,10.9,20,,,0,,83,33,150,Rain,1004,8,21,,,,8.2,
Wick,16/10/2018 12:00,11,21,,,-0.2,,,36,150,Dry,,8,40,,,,9,
Wick,16/10/2018 13:00,12,17,,,-0.2,,,,150,Fog,,8,26,,,,8,
Wick,16/10/2018 14:00,13,17,,,-0.2,,,,140,-,,1,10,,,,8,
Wick,16/10/2018 15:00,14,13,,,,,,,200,-,,3,10,,,,9,
Wick,16/10/2018 16:00,12.8,17,,,-0.2,,80,,190,Fog,,3,21,,,,9.5,
Wick,16/10/2018 17:00,12.1,15,,,0,,85,,180,Dry,,6,21,,,,9.8,
Wick,16/10/2018 18:00,11.9,17,,,0,,80,,200,Dry,,8,25,,,,8.7,
Wick,16/10/2018 19:00,11.9,18,,,0,,82,30,190,Dry,,6,16,,,,9.1,
Wick,16/10/2018 20:00,11.9,16,,,0,,83,,180,Dry,1004,6,19,,,,9.2,
Wick,16/10/2018 21:00,11.5,13,,,0,,85,,180,Dry,1004,6,18,,,,9.1,
Wick,16/10/2018 22:00,11.3,12,,,0,,85,,180,Dry,1004,1,24,,,,9,
Wick,16/10/2018 23:00,10.4,9,,,0,,90,,180,Dry,1005,3,19,,,,8.9,
Wick,17/10/2018 00:00,11.1,9,,,0,0,88,,200,Dry,1005,2,28,,,,9.2,
Wick,17/10/2018 01:00,8.7,3,,,0,,87,,240,Dry,1006,2,24,,,,6.7,
Wick,17/10/2018 02:00,9.8,9,,,0,,81,,200,Dry,1006,6,45,,,,6.8,
Wick,17/10/2018 03:00,8.7,7,,,0,,88,,250,Dry,1007,8,45,,,,6.9,
Wick,17/10/2018 04:00,8.7,12,,,0,,81,,230,Dry,1008,5,35,,,,5.7,
Wick,17/10/2018 05:00,8.5,9,,,0,,76,,210,Dry,1009,0,30,,,,4.7,
Wick,17/10/2018 06:00,7.7,8,7.6,,0,0,80,,200,Dry,1009,1,40,,,,4.5,
Wick,17/10/2018 07:00,7.1,12,,,0,,82,,210,Dry,1010,0,27,,,,4.3,
Wick,17/10/2018 08:00,8,13,,,0,,77,,210,Dry,1011,0,24,,,,4.4,
Wick,17/10/2018 09:00,8.9,18,,,0,,75,,210,Dry,1012,1,28,,,,4.8,
Wick,17/10/2018 10:00,10.2,13,,,0,,72,,220,Dry,1013,0,29,,,,5.5,
Wick,17/10/2018 11:00,11.1,18,,,0,,67,,220,Dry,1014,1,30,,,,5.4,
Wick,17/10/2018 12:00,11.2,22,,,0,0,66,29,230,Dry,1014,0,23,,,,5.1,
Wick,17/10/2018 13:00,11.4,18,,,0,,63,29,230,Dry,1015,0,24,,,,4.8,
Wick,17/10/2018 14:00,11.7,16,,,0,,62,,260,Dry,1016,3,35,,,,4.8,
Wick,17/10/2018 15:00,10.9,15,,,0,,66,,250,Dry,1017,4,30,,,,4.9,
Wick,17/10/2018 16:00,10.3,15,,,0,,67,,250,Dry,1017,2,30,,,,4.6,
Wick,17/10/2018 17:00,9.1,10,,,0,,76,,250,Dry,1018,7,40,,,,5.2,
Wick,17/10/2018 18:00,8.8,7,,12.1,0,0,73,,210,Dry,1023,3,30,,,,4.4,
Wick,17/10/2018 19:00,5.6,9,,,0,,83,,230,Dry,1020,1,40,,,,3.1,
Wick,17/10/2018 20:00,5.8,12,,,0,,87,,230,Dry,1021,2,30,,,,3.9,
Wick,17/10/2018 21:00,6.3,13,,,0,,85,,220,Dry,1022,0,40,,,,4,
Wick,17/10/2018 22:00,6.2,7,,,0,,83,,220,Dry,1022,0,35,,,,3.7,
Wick,17/10/2018 23:00,7.1,12,,,0,,79,,210,Dry,1022,2,45,,,,3.8,
Wick,18/10/2018 00:00,7.2,16,,,0,0,78,,220,Dry,1023,3,35,,,,3.8,
Wick,18/10/2018 01:00,6.3,10,,,0,,82,,220,Dry,1023,1,30,,,,3.6,
Wick,18/10/2018 02:00,5.6,7,,,0,,80,,220,Dry,1024,2,25,,,,2.5,
Wick,18/10/2018 03:00,6.3,7,,,0,,83,,220,Dry,1024,7,30,,,,3.7,
Wick,18/10/2018 04:00,6,5,,,0,,81,,190,Dry,1024,6,35,,,,3.1,
Wick,18/10/2018 05:00,6.4,7,,,0,,79,,210,Dry,1025,7,35,,,,3.1,
Wick,18/10/2018 06:00,6.4,8,0,,0,0,81,,230,Dry,1025,7,30,,,,3.4,
Wick,18/10/2018 07:00,7,8,,,0,,84,,230,Dry,1025,8,30,,,,4.5,
Wick,18/10/2018 08:00,8,5,,,0,,84,,230,Dry,1026,8,35,,,,5.6,
Wick,18/10/2018 09:00,8.8,9,,,0,,80,,210,Dry,1026,8,25,,,,5.6,
Wick,18/10/2018 10:00,9.2,13,,,0,,78,,210,Dry,1026,6,40,,,,5.7,
Wick,18/10/2018 11:00,11,12,,,0,,72,,210,Dry,1026,6,45,,,,6.2,
Wick,18/10/2018 12:00,10.5,12,,,0,0,68,,200,Dry,1026,7,25,,,,5,
Wick,18/10/2018 13:00,10,12,,,0,,74,,200,Dry,1025,8,26,,,,5.7,
Wick,18/10/2018 14:00,10.4,13,,,0,,74,,200,Dry,1025,7,26,,,,6.1,
Wick,18/10/2018 15:00,10.5,9,,,0,,75,,180,Dry,1024,8,30,,,,6.4,
Wick,18/10/2018 16:00,10.5,10,,,0,,73,,190,Dry,1024,8,23,,,,6,
Wick,18/10/2018 17:00,9.8,9,,,0,,76,,190,Dry,1024,8,35,,,,5.8,
Wick,18/10/2018 18:00,9.7,8,,11.5,0,0,77,,170,Dry,1024,8,26,,,,6,
Wick,18/10/2018 19:00,9.9,7,,,0,,79,,170,Dry,1024,1,35,,,,6.5,
Wick,18/10/2018 20:00,9.5,10,,,0,,79,,180,Dry,1023,8,35,,,,6.2,
Wick,18/10/2018 21:00,9.6,9,,,0,,81,,180,Dry,1023,0,40,,,,6.6,
Wick,18/10/2018 22:00,9.4,10,,,0,,83,,190,Dry,1022,8,40,,,,6.8,
Wick,18/10/2018 23:00,9.6,12,,,0,,78,,180,Dry,1021,8,35,,,,6,
Wick,19/10/2018 00:00,9.8,20,,,0,0,71,,180,Dry,1020,0,45,,,,4.8,
Wick,19/10/2018 01:00,10,14,,,0,,73,,180,Dry,1019,8,40,,,,5.4,
Wick,19/10/2018 02:00,9.9,15,,,0,,72,,170,Dry,1018,0,40,,,,5.1,
Wick,19/10/2018 03:00,9.8,20,,,0,,69,29,180,Dry,1018,0,35,,,,4.5,
Wick,19/10/2018 04:00,9.4,10,,,0,,73,,190,Dry,1017,0,35,,,,5,
Wick,19/10/2018 05:00,9.4,15,,,0,,75,29,190,Dry,1016,8,35,,,,5.2,
Wick,19/10/2018 06:00,9.6,14,9.2,,0,0,75,23,200,Drizzly rain,1016,8,30,,,,5.4,
Wick,19/10/2018 07:00,9.9,18,,,0,,76,,190,Rain,1015,8,30,,,,6,
Wick,19/10/2018 08:00,10.5,23,,,0,,72,32,190,Drizzly rain,1014,8,30,,,,5.7,
Wick,19/10/2018 09:00,10.6,21,,,0,,73,32,190,Rain,1014,8,30,,,,6,
Wick,19/10/2018 10:00,10.4,21,,,0,,78,30,190,Dry,1015,8,28,,,,6.9,
Wick,19/10/2018 11:00,11.3,17,,,0,,77,,210,Dry,1015,8,45,,,,7.5,
Wick,19/10/2018 12:00,12,17,,,0,0,80,29,230,Dry,1016,8,23,,,,8.8,
Wick,19/10/2018 13:00,12.9,16,,,0,,69,,270,Dry,1016,1,35,,,,7.4,
Wick,19/10/2018 14:00,11.2,25,,,0,,72,35,270,Haze,1017,6,22,,,,6.5,
Wick,19/10/2018 15:00,10.3,17,,,0,,81,30,280,Rain,1018,7,30,,,,7.3,
Wick,19/10/2018 16:00,9.6,12,,,0.2,,89,30,280,Rain,1019,2,20,,,,8,
Wick,19/10/2018 17:00,7.6,9,,,0,,89,,260,Dry,1020,3,22,,,,6,
Wick,19/10/2018 18:00,7.4,8,,13.2,0,0.2,88,,220,Dry,1021,1,26,,,,5.7,
Wick,19/10/2018 19:00,7,6,,,0,,88,,190,Dry,1021,6,25,,,,5.2,
Wick,19/10/2018 20:00,7.1,5,,,0,,84,,210,Dry,1021,0,23,,,,4.6,
Wick,19/10/2018 21:00,6.6,9,,,0,,88,,240,Dry,1022,7,17,,,,4.8,
Wick,19/10/2018 22:00,8.3,9,,,0,,81,,220,Dry,1022,8,21,,,,5.3,
Wick,19/10/2018 23:00,8.2,10,,,0,,86,,230,Dry,1023,8,23,,,,6.1,
Wick,20/10/2018 00:00,8.3,5,,,0,0,83,,190,Dry,1022,7,26,,,,5.6,
Wick,20/10/2018 01:00,8.1,7,,,0,,83,,180,Dry,1022,8,30,,,,5.5,
Wick,20/10/2018 02:00,8,10,,,0,,86,,180,Dry,1022,0,35,,,,5.9,
Wick,20/10/2018 03:00,8.7,7,,,0,,87,,160,Dry,1021,8,21,,,,6.7,
Wick,20/10/2018 04:00,8.5,5,,,0,,83,,170,Dry,1021,0,25,,,,5.8,
Wick,20/10/2018 05:00,9.2,9,,,0,,83,,170,Dry,1020,8,22,,,,6.6,
Wick,20/10/2018 06:00,9.8,15,6.1,,0,0,77,,170,Dry,1019,1,23,,,,6,
Wick,20/10/2018 07:00,10.2,14,,,0,,85,,170,Light shower,1018,8,21,,,,7.9,
Wick,20/10/2018 08:00,11,14,,,0,,84,,170,Rain,1018,8,27,,,,8.5,
Wick,20/10/2018 09:00,11.5,13,,,0,,86,,170,Dry,1018,8,35,,,,9.4,
Wick,20/10/2018 10:00,12.2,14,,,0,,88,,160,Dry,1018,8,25,,,,10.3,
Wick,20/10/2018 11:00,13,12,,,0,,85,,180,Dry,1018,7,45,,,,10.6,
Wick,20/10/2018 12:00,15.9,9,,,0,0,75,,180,Dry,1018,7,45,,,,11.6,
Wick,20/10/2018 13:00,15.6,23,,,0,,75,31,190,Dry,1017,8,18,,,,11.2,
Wick,20/10/2018 14:00,14.8,23,,,0,,81,36,200,Dry,1017,7,29,,,,11.7,
Wick,20/10/2018 15:00,13.8,7,,,0,,84,32,160,Dry,1017,3,16,,,,11.3,
Wick,20/10/2018 16:00,16.3,23,,,0,,79,29,220,Dry,1017,2,45,,,,12.7,
Wick,20/10/2018 17:00,15.5,18,,,0,,81,30,190,Dry,1017,7,40,,,,12.3,
Wick,20/10/2018 18:00,15,21,,17,0,0,86,29,210,Dry,1018,8,45,,,,12.7,
Wick,20/10/2018 19:00,13.9,8,,,0,,87,,130,Dry,1018,8,23,,,,11.9,
Wick,20/10/2018 20:00,14.8,17,,,0,,86,,210,Dry,1018,7,30,,,,12.6,
Wick,20/10/2018 21:00,14.7,21,,,0,,87,29,200,Dry,1018,8,50,,,,12.7,
Wick,20/10/2018 22:00,14.7,10,,,0,,88,,190,Dry,1017,8,45,,,,12.9,
Wick,20/10/2018 23:00,14.2,12,,,0,,91,,230,Rain,1017,8,45,,,,12.8,
Wick,21/10/2018 00:00,13.8,12,,,0,0,96,,240,Rain,1017,8,8,,,,13.2,
Wick,21/10/2018 01:00,13.6,13,,,0.2,,96,,240,Light shower,1016,8,5,,,,13,
Wick,21/10/2018 02:00,11.4,9,,,0.8,,98,,280,Moderate drizzle,1017,6,2,,,,11.1,
Wick,21/10/2018 03:00,10.8,6,,,0.8,,100,,300,Moderate drizzle,1017,8,3,,,,10.8,
Wick,21/10/2018 04:00,10.8,5,,,0.8,,100,,290,Light drizzle,1016,8,4,,,,10.8,
Wick,21/10/2018 05:00,9.2,14,,,0.2,,98,,280,Light drizzle,1017,8,5,,,,9,
Wick,21/10/2018 06:00,9.1,8,9,,0.2,3,99,,250,Drizzly rain,1017,7,40,,,,9,
Wick,21/10/2018 07:00,9.2,5,,,0,,90,,190,Light shower,1017,7,10,,,,7.7,
Wick,21/10/2018 08:00,8.5,5,,,0.6,,87,,180,Rain,1018,7,27,,,,6.5,
Wick,21/10/2018 09:00,8.3,6,,,0,,84,,190,Rain,1018,8,35,,,,5.8,
Wick,21/10/2018 10:00,9.1,16,,,0,,82,,220,Drizzly rain,1017,8,23,,,,6.2,
Wick,21/10/2018 11:00,9.5,20,,,0,,78,,220,Rain,1017,8,35,,,,5.9,
Wick,21/10/2018 12:00,10.3,20,,,0,0.6,81,,230,Rain,1018,8,24,,,,7.2,
Wick,21/10/2018 13:00,10.4,20,,,0,,85,29,270,Rain,1018,6,30,,,,8.1,
Wick,21/10/2018 14:00,9.7,22,,,0.2,,83,35,270,Rain,1018,4,12,,,,7,
Wick,21/10/2018 15:00,9.6,29,,,0,,66,38,260,Dry,1019,0,35,,,,3.6,
Wick,21/10/2018 16:00,8.5,20,,,0,,71,36,250,Dry,1019,0,25,,,,3.6,
Wick,21/10/2018 17:00,7.1,30,,,0,,80,39,250,Light shower,1020,5,17,,,,4,
Wick,21/10/2018 18:00,6.1,22,,10.8,0.2,0.4,85,38,250,Rain,1021,6,50,,,,3.8,
Wick,21/10/2018 19:00,6.2,21,,,0,,78,31,250,Dry,1022,1,24,,,,2.8,
Wick,21/10/2018 20:00,5.3,16,,,0,,79,37,250,Dry,1023,1,20,,,,2.1,
Wick,21/10/2018 21:00,5.5,23,,,0,,78,51,250,Rain,1023,4,22,,,,2,
Wick,21/10/2018 22:00,5.1,17,,,0,,81,32,250,Dry,1024,6,24,,,,2.2,
Wick,21/10/2018 23:00,5,14,,,0,,81,,240,Dry,1024,2,19,,,,2.1,
Wick,22/10/2018 00:00,5.2,16,,,0.2,0.2,87,,260,Light shower,1024,4,8,,,,3.3,
Wick,22/10/2018 01:00,5,23,,,0,,86,31,260,Light shower,1025,6,16,,,,3,
Wick,22/10/2018 02:00,5,16,,,0,,83,31,250,Light shower,1025,1,14,,,,2.4,
Wick,22/10/2018 03:00,5.6,16,,,0.2,,80,32,250,Rain,1026,6,14,,,,2.5,
Wick,22/10/2018 04:00,5,18,,,0.2,,86,33,260,Rain,1026,2,28,,,,2.9,
Wick,22/10/2018 05:00,6.1,18,,,0,,82,,260,Dry,1026,1,15,,,,3.4,
Wick,22/10/2018 06:00,6.1,16,4,,0,0.4,83,31,260,Dry,1027,2,17,,,,3.6,
Wick,22/10/2018 07:00,5.8,12,,,0,,85,,210,Dry,1027,5,30,,,,3.6,
Wick,22/10/2018 08:00,5.8,13,,,0,,85,,230,Dry,1027,0,24,,,,3.5,
Wick,22/10/2018 09:00,8.2,17,,,0,,78,,220,Dry,1026,1,22,,,,4.6,
Wick,22/10/2018 10:00,9.1,16,,,0,,77,,210,Dry,1026,8,16,,,,5.4,
Wick,22/10/2018 11:00,10.3,22,,,0,,81,29,240,Dry,1025,8,13,,,,7.3,
Wick,22/10/2018 12:00,11.2,22,,,0,0,76,35,240,Dry,1023,8,45,,,,7.3,
Wick,22/10/2018 13:00,11.4,32,,,0,,76,40,240,Dry,1022,8,29,,,,7.4,
Wick,22/10/2018 14:00,11.9,35,,,0,,68,46,240,Dry,1020,6,17,,,,6.4,
Wick,22/10/2018 15:00,11.4,35,,,0,,68,45,250,Dry,1019,8,13,,,,5.8,
Wick,22/10/2018 16:00,11,43,,,0,,71,52,250,Dry,1018,7,11,,,,6.1,
Wick,22/10/2018 17:00,10.8,39,,,0,,75,48,250,Rain,1017,7,16,,,,6.7,
Wick,22/10/2018 18:00,11.3,39,,12.1,0,0,76,52,250,Dry,1017,5,16,,,,7.3,
Wick,22/10/2018 19:00,10.7,30,,,0,,87,39,250,Drizzly rain,1018,7,12,,,,8.7,
Wick,22/10/2018 20:00,10.8,23,,,0,,89,36,250,Light rain,1017,8,22,,,,9.1,
Wick,22/10/2018 21:00,10.8,36,,,0.2,,90,53,270,Light rain,1016,8,17,,,,9.3,
Wick,22/10/2018 22:00,10.8,39,,,0.2,,94,60,270,Light rain,1016,8,5,,,,10,
Wick,22/10/2018 23:00,10.8,40,,,0.4,,95,59,270,Light drizzle,1015,8,5,,,,10.1,
Wick,23/10/2018 00:00,10.8,37,,,0.6,1,96,53,270,Light drizzle,1014,2,5,,,,10.2,
Wick,23/10/2018 01:00,10.7,36,,,0.4,,96,49,270,Light drizzle,1014,8,7,,,,10.1,
Wick,23/10/2018 02:00,10.6,37,,,0.4,,96,56,270,Light drizzle,1014,8,5,,,,10.1,
Wick,23/10/2018 03:00,10.3,38,,,0.4,,98,54,270,Light drizzle,1014,8,3,,,,10.1,
Wick,23/10/2018 04:00,10.3,36,,,0.4,,98,51,270,Drizzly rain,1014,8,4,,,,10.1,
Wick,23/10/2018 05:00,10.4,35,,,0.2,,98,48,270,Rain,1014,8,5,,,,10.1,
Wick,23/10/2018 06:00,10.5,36,10.3,,0,2,96,52,270,Dry,1013,8,12,,,,9.9,
Wick,23/10/2018 07:00,10.7,36,,,0,,96,52,280,Misty,1014,8,4,,,,10.1,
Wick,23/10/2018 08:00,11,37,,,0,,94,53,270,Misty,1014,8,8,,,,10.2,
Wick,23/10/2018 09:00,11,35,,,0,,96,51,280,Misty,1015,8,3,,,,10.5,
Wick,23/10/2018 10:00,11.2,32,,,0.2,,96,46,280,Rain,1016,8,4,,,,10.7,
Wick,23/10/2018 11:00,11.4,29,,,0,,94,44,280,Dry,1016,8,12,,,,10.5,
Wick,23/10/2018 12:00,11.1,24,,,0.4,0.6,97,40,270,Moderate drizzle,1017,7,3,,,,10.7,
Wick,23/10/2018 13:00,11.1,29,,,0,,96,45,280,Drizzle,1017,8,3,,,,10.6,
Wick,23/10/2018 14:00,11.2,29,,,0,,96,39,270,Misty,1016,8,3,,,,10.7,
Wick,23/10/2018 15:00,11.3,29,,,0.4,,95,44,270,Rain,1016,8,12,,,,10.6,
Wick,23/10/2018 16:00,11.3,30,,,0.2,,96,44,270,Misty,1016,8,5,,,,10.8,
Wick,23/10/2018 17:00,11.9,32,,,0,,92,48,280,Rain,1016,8,18,,,,10.7,
Wick,23/10/2018 18:00,11.8,35,,12,0,0.4,96,53,280,Misty,1016,8,5,,,,11.2,
Wick,23/10/2018 19:00,11.6,35,,,0.2,,96,55,280,Rain,1016,8,4,,,,11.1,
Wick,23/10/2018 20:00,11.5,33,,,0,,97,54,280,Misty,1017,8,3,,,,11.1,
Wick,23/10/2018 21:00,11.4,31,,,0.2,,98,47,280,Drizzly rain,1018,7,3,,,,11.1,
Wick,23/10/2018 22:00,11.4,29,,,0.2,,98,44,280,Light drizzle,1019,7,2,,,,11.1,
Wick,23/10/2018 23:00,11.2,24,,,0.4,,98,37,270,Drizzly rain,1020,8,3,,,,11,
Wick,24/10/2018 00:00,11.1,26,,,0.2,1,98,38,280,Drizzly rain,1020,7,2,,,,10.8,
Wick,24/10/2018 01:00,11,29,,,0.4,,99,38,280,Light drizzle,1020,8,3,,,,10.9,
Wick,24/10/2018 02:00,11,25,,,0.2,,98,39,280,Rain,1020,8,3,,,,10.8,
Wick,24/10/2018 03:00,10.8,28,,,0,,98,43,280,Rain,1020,8,3,,,,10.5,
Wick,24/10/2018 04:00,10.8,25,,,0.2,,98,38,280,Rain,1020,8,6,,,,10.5,
Wick,24/10/2018 05:00,10.8,22,,,0,,98,35,270,Misty,1020,7,8,,,,10.6,
Wick,24/10/2018 06:00,10.8,17,10.7,,0,1,97,29,260,Dry,1020,8,30,,,,10.4,
Wick,24/10/2018 07:00,10.8,20,,,0,,97,29,260,Misty,1020,8,5,,,,10.4,
Wick,24/10/2018 08:00,11,20,,,0,,97,,260,Misty,1020,8,8,,,,10.6,
Wick,24/10/2018 09:00,11.4,23,,,0,,91,35,260,Dry,1020,7,45,,,,10,
Wick,24/10/2018 10:00,11.8,21,,,0,,85,36,260,Dry,1020,4,35,,,,9.4,
Wick,24/10/2018 11:00,10.2,24,,,0,,83,36,260,Dry,1020,7,45,,,,7.5,
Wick,24/10/2018 12:00,10.4,22,,,0,0,81,33,260,Dry,1020,5,45,,,,7.3,
Wick,24/10/2018 13:00,11.3,23,,,0,,78,31,250,Dry,1019,4,35,,,,7.7,
Wick,24/10/2018 14:00,11.2,24,,,0,,80,36,250,Dry,1018,6,40,,,,7.9,
Wick,24/10/2018 15:00,11.3,20,,,0,,84,38,240,Dry,1018,8,35,,,,8.8,
Wick,24/10/2018 16:00,11.9,22,,,0,,81,32,240,Dry,1018,8,50,,,,8.9,
Wick,24/10/2018 17:00,11.3,25,,,0,,88,35,250,Dry,1017,7,45,,,,9.4,
Wick,24/10/2018 18:00,11.5,18,,12.3,0,0,84,31,240,Dry,1017,8,50,,,,9,
Wick,24/10/2018 19:00,10.8,24,,,0,,94,36,270,Haze,1017,7,2,,,,9.9,
Wick,24/10/2018 20:00,10.6,21,,,0.2,,93,32,270,Haze,1017,8,2,,,,9.6,
Wick,24/10/2018 21:00,10.3,24,,,0.2,,90,40,270,Rain,1016,1,30,,,,8.8,
Wick,24/10/2018 22:00,9.7,24,,,0,,86,40,280,Dry,1017,8,15,,,,7.6,
Wick,24/10/2018 23:00,9.5,22,,,0,,88,36,280,Rain,1017,8,10,,,,7.7,
Wick,25/10/2018 00:00,9.3,25,,,0,0.4,80,45,270,Dry,1017,2,11,,,,6.2,
Wick,25/10/2018 01:00,8.8,21,,,0,,84,37,280,Haze,1016,8,10,,,,6.4,
Wick,25/10/2018 02:00,8.5,24,,,0,,80,39,280,Rain,1016,1,20,,,,5.3,
Wick,25/10/2018 03:00,8.5,23,,,0,,81,38,280,Dry,1016,8,18,,,,5.5,
Wick,25/10/2018 04:00,8.8,23,,,0,,72,35,270,Dry,1016,8,27,,,,4.2,
Wick,25/10/2018 05:00,8.6,18,,,0,,76,38,280,Dry,1016,8,19,,,,4.8,
Wick,25/10/2018 06:00,8.3,23,8.3,,0,0,79,37,290,Dry,1016,8,19,,,,5,
Wick,25/10/2018 07:00,8.5,16,,,0,,78,36,280,Dry,1016,8,25,,,,4.9,
Wick,25/10/2018 08:00,8.1,17,,,0,,81,,270,Rain,1016,8,23,,,,5.2,
Wick,25/10/2018 09:00,8,16,,,0,,85,,260,Rain,1016,1,18,,,,5.8,
Wick,25/10/2018 10:00,8.4,16,,,0,,79,,260,Dry,1015,3,27,,,,5.1,
Wick,25/10/2018 11:00,8.6,16,,,0,,85,,260,Rain,1015,8,16,,,,6.3,
Wick,25/10/2018 12:00,8.4,15,,,0,0,83,,280,Dry,1015,1,29,,,,5.7,
Wick,25/10/2018 13:00,8.9,12,,,0,,75,,270,Dry,1014,8,35,,,,4.8,
Wick,25/10/2018 14:00,8.3,14,,,0,,83,,270,Light shower,1013,8,40,,,,5.6,
Wick,25/10/2018 15:00,7.9,7,,,0,,87,,250,Light rain,1012,8,30,,,,6,
Wick,25/10/2018 16:00,7.5,6,,,0.4,,90,,240,Moderate rain,1011,1,15,,,,6.1,
Wick,25/10/2018 17:00,7.1,3,,,0.8,,93,,200,Moderate rain,1009,8,10,,,,6.1,
Wick,25/10/2018 18:00,6.6,3,,9.2,2.4,4,95,,230,Moderate rain,1008,8,9,,,,6,
Wick,25/10/2018 19:00,6.2,2,,,2.4,,98,,250,Light rain,1008,8,11,,,,6,
Wick,25/10/2018 20:00,6.3,7,,,1,,99,,270,Moderate rain,1008,8,5,,,,6.2,
Wick,25/10/2018 21:00,5.8,5,,,0.2,,98,,280,Rain,1007,8,30,,,,5.6,
Wick,25/10/2018 22:00,5.5,10,,,1.2,,97,,260,Moderate shower,1007,8,6,,,,5.2,
Wick,25/10/2018 23:00,5.4,13,,,0.2,,92,,280,Rain,1007,6,45,,,,4.3,
Wick,26/10/2018 00:00,4.7,13,,,0,5,91,,290,Dry,1007,1,50,,,,3.4,
Wick,26/10/2018 01:00,4.3,8,,,0.2,,94,,260,Rain,1006,3,30,,,,3.5,
Wick,26/10/2018 02:00,5.5,14,,,0,,93,,310,Dry,1006,8,45,,,,4.5,
Wick,26/10/2018 03:00,5.8,20,,,0.8,,91,29,340,Rain,1007,8,6,,,,4.6,
Wick,26/10/2018 04:00,5.4,16,,,0,,83,,340,Rain,1008,0,45,,,,2.8,
Wick,26/10/2018 05:00,4.1,14,,,0,,88,,320,Dry,1008,8,45,,,,2.3,
Wick,26/10/2018 06:00,3.5,14,3.1,,0,1,87,,320,Dry,1008,1,40,,,,1.7,
Wick,26/10/2018 07:00,4.9,18,,,0.2,,91,30,320,Moderate shower,1009,3,7,,,,3.7,
Wick,26/10/2018 08:00,5.4,21,,,0,,85,33,330,Rain,1009,4,26,,,,3.2,
Wick,26/10/2018 09:00,6.4,25,,,0.2,,78,36,340,Rain,1010,1,27,,,,2.9,
Wick,26/10/2018 10:00,7,26,,,0,,77,38,340,Dry,1011,5,30,,,,3.4,
Wick,26/10/2018 11:00,5.6,31,,,0.4,,89,43,330,Moderate shower,1012,1,9,,,,4,
Wick,26/10/2018 12:00,5.9,25,,,0.4,1,82,44,350,Rain,1012,8,27,,,,3.2,
Wick,26/10/2018 13:00,5.8,28,,,0,,81,40,350,Light shower,1013,1,19,,,,2.8,
Wick,26/10/2018 14:00,6.2,24,,,0,,72,35,340,Rain,1013,3,30,,,,1.6,
Wick,26/10/2018 15:00,5.6,22,,,0,,79,38,330,Rain,1014,5,11,,,,2.4,
Wick,26/10/2018 16:00,4.6,25,,,0.2,,86,41,360,Rain,1014,5,35,,,,2.5,
Wick,26/10/2018 17:00,5,25,,,0.2,,79,35,340,Rain,1014,4,35,,,,1.7,
Wick,26/10/2018 18:00,4.5,24,,7.4,0,1,82,36,320,Dry,1015,3,20,,,,1.8,
Wick,26/10/2018 19:00,4.8,23,,,0.2,,79,36,320,Rain,1015,5,27,,,,1.6,
Wick,26/10/2018 20:00,4.6,20,,,0,,82,33,320,Dry,1015,6,29,,,,1.8,
Wick,26/10/2018 21:00,3.4,32,,,0.8,,89,47,350,Moderate shower,1016,7,3,,,,1.9,
Wick,26/10/2018 22:00,4.2,25,,,0.2,,82,44,340,Rain,1016,4,23,,,,1.5,
Wick,26/10/2018 23:00,4.9,24,,,0,,75,35,330,Dry,1016,8,20,,,,0.9,
Wick,27/10/2018 00:00,4.6,25,,,0,1,73,37,340,Dry,1017,1,28,,,,0.3,
Wick,27/10/2018 01:00,4.6,30,,,0,,68,43,340,Dry,1017,1,24,,,,-0.6,
Wick,27/10/2018 02:00,4.3,23,,,0,,76,40,330,Dry,1017,1,18,,,,0.6,
Wick,27/10/2018 03:00,3.7,22,,,0,,77,38,330,Dry,1018,5,19,,,,0.1,
Wick,27/10/2018 04:00,3.6,22,,,0,,76,38,340,Dry,1018,4,30,,,,-0.1,
Wick,27/10/2018 05:00,2.4,15,,,0.2,,85,31,320,Rain,1018,7,19,,,,0.3,
Wick,27/10/2018 06:00,3.1,25,2.3,,0,0,84,35,360,Dry,1018,1,27,,,,0.7,
Wick,27/10/2018 07:00,1.4,13,,,0,,83,29,310,Dry,1019,0,22,,,,-1.1,
Wick,27/10/2018 08:00,3.7,16,,,0,,73,,340,Dry,1019,4,25,,,,-0.6,
Wick,27/10/2018 09:00,4.5,18,,,0,,73,,330,Dry,1020,1,25,,,,0.2,
Wick,27/10/2018 10:00,5.8,18,,,0,,66,,320,Dry,1020,3,25,,,,0.1,
Wick,27/10/2018 11:00,6.1,24,,,0,,73,35,330,Dry,1020,1,50,,,,1.7,
Wick,27/10/2018 12:00,5.3,29,,,0.6,0.6,90,37,350,Moderate shower,1021,7,9,,,,3.9,
Wick,27/10/2018 13:00,5.3,16,,,1.2,,93,32,340,Rain,1022,4,26,,,,4.3,
Wick,27/10/2018 14:00,6.1,14,,,0.6,,90,,330,Rain,1022,7,22,,,,4.6,
Wick,27/10/2018 15:00,6.8,25,,,0.2,,81,36,10,Rain,1023,6,12,,,,3.9,
Wick,27/10/2018 16:00,8,18,,,0,,71,30,360,Rain,1024,7,21,,,,3.1,
Wick,27/10/2018 17:00,7.3,21,,,0,,71,31,10,Dry,1025,7,35,,,,2.4,
Wick,27/10/2018 18:00,6.9,15,,8,0.2,2.4,74,,360,Rain,1026,0,28,,,,2.6,
Wick,27/10/2018 19:00,6.7,17,,,0,,80,,350,Dry,1027,0,35,,,,3.6,
Wick,27/10/2018 20:00,6.6,15,,,0,,82,,350,Dry,1027,1,28,,,,3.8,
Wick,27/10/2018 21:00,6.4,14,,,0,,86,,340,Dry,1028,2,24,,,,4.3,
Wick,27/10/2018 22:00,5.7,9,,,0,,87,,320,Light shower,1028,5,18,,,,3.8,
Wick,27/10/2018 23:00,4.6,13,,,0,,85,,310,Rain,1028,0,27,,,,2.4,
Wick,28/10/2018 00:00,2.7,8,,,0,0,85,,310,Haze,1028,0,11,,,,0.5,
Wick,28/10/2018 01:00,2.3,10,,,0,,91,,320,Dry,1028,0,24,,,,1,
Wick,28/10/2018 02:00,2.7,10,,,0,,89,,320,Dry,1029,0,14,,,,1.2,
Wick,28/10/2018 03:00,2.2,8,,,0,,87,,310,Dry,1028,0,45,,,,0.4,
Wick,28/10/2018 04:00,1.7,9,,,0,,92,,310,Dry,1028,0,26,,,,0.6,
Wick,28/10/2018 05:00,0.8,7,,,0,,93,,310,Dry,1028,0,35,,,,-0.2,
Wick,28/10/2018 06:00,1.3,8,0.5,,0,0,91,,320,Dry,1028,0,30,,,,0.1,
Wick,28/10/2018 07:00,5.1,18,,,0,,76,,20,Dry,1028,4,35,,,,1.4,
Wick,28/10/2018 08:00,1.5,8,,,0,,87,,320,Rain,1028,1,30,,,,-0.4,
Wick,28/10/2018 09:00,1.9,5,,,0,,88,,280,Dry,1028,0,35,,,,0.2,
Wick,28/10/2018 10:00,5.8,7,,,0,,83,,290,Dry,1028,1,30,,,,3.2,
Wick,28/10/2018 11:00,6.3,7,,,0,,86,,290,Dry,1027,1,35,,,,4.2,
Wick,28/10/2018 12:00,7.6,7,,,0,0,74,,10,Dry,1027,6,18,,,,3.3,
Wick,28/10/2018 13:00,7.7,5,,,0,,66,,40,Dry,1026,0,40,,,,1.9,
Wick,28/10/2018 14:00,6.8,6,,,0,,74,,10,Dry,1026,4,40,,,,2.6,
Wick,28/10/2018 15:00,8,2,,,0,,65,,60,Dry,1025,4,18,,,,2,
Wick,28/10/2018 16:00,7.5,7,,,0,,61,,120,Rain,1024,7,35,,,,0.5,
Wick,28/10/2018 17:00,6.9,7,,,0,,61,,130,Dry,1024,7,45,,,,0,
Wick,28/10/2018 18:00,5.7,3,,9.3,0,0,74,,180,Dry,1024,7,45,,,,1.5,
Wick,28/10/2018 19:00,5.3,7,,,0,,78,,200,Rain,1023,7,50,,,,1.9,
Wick,28/10/2018 20:00,5.6,6,,,0,,75,,160,Dry,1022,0,45,,,,1.6,
Wick,28/10/2018 21:00,6.5,14,,,0,,75,,140,Dry,1022,1,30,,,,2.5,
Wick,28/10/2018 22:00,6.6,13,,,0,,67,,160,Dry,1021,2,10,,,,1.1,
Wick,28/10/2018 23:00,6.7,15,,,0,,62,,160,Dry,1020,5,50,,,,0,
Wick,29/10/2018 00:00,6.5,17,,,0,0,71,30,160,Dry,1020,3,40,,,,1.7,
Wick,29/10/2018 01:00,6.3,18,,,0,,70,,160,Dry,1019,4,35,,,,1.3,
Wick,29/10/2018 02:00,6.7,21,,,0,,67,33,160,Dry,1018,5,50,,,,1.2,
Wick,29/10/2018 03:00,6.4,21,,,0,,71,33,160,Dry,1018,5,40,,,,1.6,
Wick,29/10/2018 04:00,6.3,17,,,0,,73,33,160,Dry,1017,6,40,,,,2,
Wick,29/10/2018 05:00,6.1,18,,,0,,67,31,160,Dry,1017,5,45,,,,0.6,
Wick,29/10/2018 06:00,6.2,18,4.6,,0,0,71,30,160,Dry,1016,6,40,,,,1.5,
Wick,29/10/2018 07:00,5.8,17,,,0,,71,29,160,Dry,1016,2,40,,,,1,
Wick,29/10/2018 08:00,5.9,18,,,0,,74,30,150,Dry,1015,4,35,,,,1.8,
Wick,29/10/2018 09:00,6,18,,,0,,76,,160,Dry,1015,3,22,,,,2.2,
Wick,29/10/2018 10:00,6.3,20,,,0,,70,31,150,Dry,1014,4,45,,,,1.3,
Wick,29/10/2018 11:00,6.7,16,,,0,,73,30,150,Dry,1014,5,30,,,,2.3,
Wick,29/10/2018 12:00,6.8,18,,,0,0,67,30,150,Dry,1013,3,19,,,,1.2,
Wick,29/10/2018 13:00,7.4,15,,,0,,62,,150,Dry,1013,2,35,,,,0.8,
Wick,29/10/2018 14:00,7.5,16,,,0,,61,,140,Dry,1012,5,21,,,,0.5,
Wick,29/10/2018 15:00,6.8,18,,,0,,66,29,130,Rain,1011,7,40,,,,0.9,
Wick,29/10/2018 16:00,6.3,17,,,0,,69,29,120,Dry,1011,1,35,,,,1.1,
Wick,29/10/2018 17:00,5.8,15,,,0,,75,29,120,Rain,1011,2,45,,,,1.8,
Wick,29/10/2018 18:00,5.5,16,,7.8,0,0,85,,110,Rain,1011,2,18,,,,3.3,
Wick,29/10/2018 19:00,6.3,15,,,0.8,,79,28,120,Rain,1011,7,40,,,,3.1,
Wick,29/10/2018 20:00,5.8,16,,,0.4,,81,31,130,Rain,1010,8,45,,,,2.9,
Wick,29/10/2018 21:00,4.9,16,,,2,,90,,130,Moderate shower,1010,2,6,,,,3.5,
Wick,29/10/2018 22:00,5.5,15,,,1.2,,82,35,110,Light shower,1009,8,22,,,,2.8,
Wick,29/10/2018 23:00,6.1,12,,,1.2,,86,,130,Rain,1009,8,35,,,,4,
Wick,30/10/2018 00:00,6.6,20,,,0.8,6,81,29,130,Light shower,1008,1,30,,,,3.6,
Wick,30/10/2018 01:00,7.1,16,,,0.2,,81,31,130,Light shower,1007,8,19,,,,4.2,
Wick,30/10/2018 02:00,7.1,13,,,0.6,,82,,130,Rain,1007,1,25,,,,4.4,
Wick,30/10/2018 03:00,7.3,18,,,0.4,,76,,120,Rain,1006,8,24,,,,3.4,
Wick,30/10/2018 04:00,7.6,17,,,0,,73,29,110,Dry,1006,7,19,,,,3.2,
Wick,30/10/2018 05:00,7.4,16,,,0,,68,,120,Dry,1006,5,21,,,,2,
Wick,30/10/2018 06:00,7.5,16,0,,0,2,72,,120,Dry,1005,2,23,,,,2.9,
Wick,30/10/2018 07:00,7.3,15,,,0,,65,,120,Dry,1005,3,20,,,,1.2,
Wick,30/10/2018 08:00,6.5,14,,,0.2,,70,29,110,Moderate shower,1004,7,40,,,,1.6,
Wick,30/10/2018 09:00,6.4,21,,,0.6,,82,30,100,Rain,1005,1,25,,,,3.7,
Wick,30/10/2018 10:00,7.8,15,,,0.6,,74,,120,Rain,1004,7,12,,,,3.5,
Wick,30/10/2018 11:00,8,16,,,0,,64,,110,Dry,1003,3,22,,,,1.8,
Wick,30/10/2018 12:00,7.6,16,,,0,1,65,,100,Dry,1003,3,35,,,,1.5,
Wick,30/10/2018 13:00,7.8,13,,,0,,66,,90,Dry,1002,6,27,,,,1.9,
Wick,30/10/2018 14:00,7.4,13,,,0,,63,,90,Dry,1001,4,35,,,,0.9,
Wick,30/10/2018 15:00,7,7,,,0,,67,,90,Dry,1000,5,35,,,,1.3,
Wick,30/10/2018 16:00,6.1,12,,,0,,69,,70,Dry,1000,5,30,,,,1,
Wick,30/10/2018 17:00,5.1,10,,,0,,71,,70,Dry,1000,2,45,,,,0.4,
Wick,30/10/2018 18:00,5,12,,8.2,0,0,71,,60,Dry,999,2,45,,,,0.2,
Wick,30/10/2018 19:00,5,7,,,0,,74,,60,Dry,999,6,30,,,,0.9,
Wick,30/10/2018 20:00,3.9,8,,,0,,76,,40,Dry,998,3,40,,,,0.1,
Wick,30/10/2018 21:00,1.3,3,,,0,,85,,290,Dry,998,4,45,,,,-0.9,
Wick,30/10/2018 22:00,0.3,7,,,0,,90,,250,Dry,998,2,45,,,,-1,
Wick,30/10/2018 23:00,0.8,6,,,0,,90,,250,Dry,997,7,45,,,,-0.6,
Wick,31/10/2018 00:00,0.5,8,,,0,0,91,,240,Rain,997,6,45,,,,-0.7,
Wick,31/10/2018 01:00,0.6,5,,,0,,90,,250,Dry,997,2,45,,,,-0.8,
Wick,31/10/2018 02:00,0.1,7,,,0,,90,,250,Dry,997,0,50,,,,-1.2,
Wick,31/10/2018 03:00,-0.8,5,,,0,,91,,250,Dry,997,0,45,,,,-2,
Wick,31/10/2018 04:00,-0.1,5,,,0,,88,,230,Dry,997,4,50,,,,-1.8,
Wick,31/10/2018 05:00,1.2,2,,,0,,82,,210,Dry,997,7,45,,,,-1.5,
Wick,31/10/2018 06:00,1.9,3,-0.8,,0,0,85,,190,Dry,997,7,29,,,,-0.3,
Wick,31/10/2018 07:00,3.4,6,,,0,,86,,180,Dry,997,5,35,,,,1.3,
Wick,31/10/2018 08:00,3.5,5,,,0,,88,,190,Dry,997,0,29,,,,1.8,
Wick,31/10/2018 09:00,5.2,8,,,0,,84,,170,Dry,997,0,26,,,,2.8,
Wick,31/10/2018 10:00,7.3,9,,,0,,78,,170,Dry,998,0,45,,,,3.8,
Wick,31/10/2018 11:00,8.1,17,,,0,,71,,170,Dry,998,1,40,,,,3.2,
Wick,31/10/2018 12:00,8.5,16,,,0,0,68,,170,Dry,998,7,35,,,,3,
Wick,31/10/2018 13:00,8.7,18,,,0,,65,29,170,Dry,998,6,21,,,,2.6,
Wick,31/10/2018 14:00,8.9,18,,,0,,62,30,190,Dry,998,7,26,,,,2.2,
Wick,31/10/2018 15:00,8.5,16,,,0,,69,,180,Dry,998,8,40,,,,3.3,
Wick,31/10/2018 16:00,8.1,16,,,0,,76,,170,Dry,998,8,23,,,,4.2,
Wick,31/10/2018 17:00,8.1,13,,,0,,77,,170,Dry,999,1,35,,,,4.4,
Wick,31/10/2018 18:00,8.4,14,,9.2,0,0,73,,180,Dry,999,8,45,,,,4,
Wick,31/10/2018 19:00,8.5,14,,,0,,69,,180,Dry,1000,8,45,,,,3.3,
Wick,31/10/2018 20:00,7.7,10,,,0,,78,,200,Dry,1000,8,50,,,,4.2,
Wick,31/10/2018 21:00,7.2,10,,,0,,85,,200,Rain,1000,8,45,,,,5,
Wick,31/10/2018 22:00,6.5,10,,,0,,85,,190,Dry,1000,7,35,,,,4.2,
Wick,31/10/2018 23:00,6.1,12,,,0,,88,,180,Dry,1001,3,50,,,,4.4,
Wick,01/11/2018 00:00,6.2,10,,,0,0,84,,180,Dry,1001,0,50,,,,3.8,
Wick,01/11/2018 01:00,5.8,9,,,0,,85,,190,Dry,1001,7,50,,,,3.6,
Wick,01/11/2018 02:00,5.1,6,,,0,,89,,190,Dry,1001,7,45,,,,3.5,
Wick,01/11/2018 03:00,5.7,7,,,0,,90,,170,Dry,1001,0,50,,,,4.2,
Wick,01/11/2018 04:00,5.7,7,,,0,,90,,190,Dry,1000,8,50,,,,4.3,
Wick,01/11/2018 05:00,5.6,6,,,0,,91,,250,Dry,1000,8,50,,,,4.3,
Wick,01/11/2018 06:00,5.1,3,4.6,,0,0,90,,240,Dry,1000,8,50,,,,3.6,
Wick,01/11/2018 07:00,4.6,2,,,0,,91,,250,Dry,1000,8,45,,,,3.4,
Wick,01/11/2018 08:00,4.9,5,,,0,,90,,220,Dry,1001,8,50,,,,3.4,
Wick,01/11/2018 09:00,3.2,5,,,0,,88,,250,Dry,1001,1,50,,,,1.5,
Wick,01/11/2018 10:00,4.6,3,,,0,,88,,230,Dry,1001,0,50,,,,2.9,
Wick,01/11/2018 11:00,7,6,,,0,,77,,260,Dry,1001,0,30,,,,3.3,
Wick,01/11/2018 12:00,7.5,7,,,0,0,69,,270,Dry,1001,0,28,,,,2.2,
Wick,01/11/2018 13:00,8,8,,,0,,63,,270,Dry,1002,0,50,,,,1.4,
Wick,01/11/2018 14:00,8.3,8,,,0,,60,,280,Dry,1002,0,45,,,,1,
Wick,01/11/2018 15:00,7.8,6,,,0,,65,,290,Dry,1002,0,28,,,,1.8,
Wick,01/11/2018 16:00,5.6,5,,,0,,78,,270,Dry,1003,1,50,,,,2.1,
Wick,01/11/2018 17:00,4.1,6,,,0,,81,,240,Dry,1004,0,45,,,,1.2,
Wick,01/11/2018 18:00,3.2,3,,8.3,0,0,83,,230,Dry,1005,0,50,,,,0.7,
Wick,01/11/2018 19:00,1.5,7,,,0,,87,,250,Dry,1005,0,50,,,,-0.4,
Wick,01/11/2018 20:00,0.7,8,,,0,,89,,260,Dry,1006,0,50,,,,-0.8,
Wick,01/11/2018 21:00,0.8,7,,,0,,90,,260,Dry,1007,0,50,,,,-0.6,
Wick,01/11/2018 22:00,0.8,9,,,0,,90,,250,Dry,1008,0,50,,,,-0.5,
Wick,01/11/2018 23:00,0.2,8,,,0,,91,,270,Dry,1008,0,50,,,,-1,
Wick,02/11/2018 00:00,1,7,,,0,0,91,,250,Dry,1009,0,45,,,,-0.3,
Wick,02/11/2018 01:00,2,8,,,0,,89,,240,Dry,1010,0,50,,,,0.5,
Wick,02/11/2018 02:00,2.4,9,,,0,,90,,250,Dry,1010,0,45,,,,1,
Wick,02/11/2018 03:00,1.5,13,,,0,,94,,260,Dry,1011,1,50,,,,0.7,
Wick,02/11/2018 04:00,1.5,7,,,0,,94,,260,Rain,1012,3,50,,,,0.7,
Wick,02/11/2018 05:00,3,9,,,0,,97,,260,Rain,1012,7,40,,,,2.6,
Wick,02/11/2018 06:00,3.1,12,0.1,,0,0,97,,270,Dry,1013,5,45,,,,2.7,
Wick,02/11/2018 07:00,2.9,13,,,0,,95,,280,Precipitation,1014,0,40,,,,2.3,
Wick,02/11/2018 08:00,3.3,12,,,0.2,,94,,270,Rain,1015,4,45,,,,2.5,
Wick,02/11/2018 09:00,3.6,7,,,0,,93,,250,Dry,1016,0,40,,,,2.7,
Wick,02/11/2018 10:00,5.7,9,,,0,,88,,230,Dry,1016,1,30,,,,3.9,
Wick,02/11/2018 11:00,6.6,12,,,0,,81,,250,Dry,1017,0,35,,,,3.7,
Wick,02/11/2018 12:00,8.1,9,,,0,0.2,68,,240,Dry,1017,0,22,,,,2.7,
Wick,02/11/2018 13:00,8.3,9,,,0,,64,,240,Dry,1017,1,35,,,,1.9,
Wick,02/11/2018 14:00,7.1,7,,,0,,73,,230,Dry,1018,6,35,,,,2.7,
Wick,02/11/2018 15:00,7.3,6,,,0,,71,,150,Dry,1018,1,45,,,,2.4,
Wick,02/11/2018 16:00,6.7,8,,,0,,71,,200,Dry,1018,7,45,,,,2,
Wick,02/11/2018 17:00,6.7,8,,,0,,74,,190,Dry,1018,1,45,,,,2.5,
Wick,02/11/2018 18:00,7.4,9,,8.4,0,0,70,,180,Dry,1017,1,45,,,,2.4,
Wick,02/11/2018 19:00,8.1,14,,,0,,64,,170,Dry,1016,8,40,,,,1.9,
Wick,02/11/2018 20:00,8.2,16,,,0,,65,,180,Dry,1015,8,40,,,,2.1,
Wick,02/11/2018 21:00,8,20,,,0,,60,32,180,Dry,1014,8,35,,,,0.9,
Wick,02/11/2018 22:00,8.1,17,,,0,,68,31,160,Dry,1012,8,40,,,,2.7,
Wick,02/11/2018 23:00,8,22,,,0,,72,36,170,Dry,1011,8,40,,,,3.3,
Wick,03/11/2018 00:00,7.3,21,,,0,0,83,37,170,Moderate shower,1009,7,13,,,,4.7,
Wick,03/11/2018 01:00,7.3,22,,,2.2,,87,35,160,Moderate rain,1008,8,6,,,,5.4,
Wick,03/11/2018 02:00,7.9,25,,,3.4,,92,39,160,Moderate rain,1006,7,5,,,,6.7,
Wick,03/11/2018 03:00,8.6,26,,,3,,90,39,150,Moderate rain,1004,8,13,,,,7.1,
Wick,03/11/2018 04:00,9.3,25,,,1,,88,44,150,Rain,1003,7,15,,,,7.5,
Wick,03/11/2018 05:00,9.8,24,,,0,,87,37,160,Dry,1002,8,14,,,,7.8,
Wick,03/11/2018 06:00,11,18,7.2,,0,10,82,36,160,Dry,1002,8,20,,,,8.2,
Wick,03/11/2018 07:00,11.1,17,,,0,,84,,160,Rain,1001,8,16,,,,8.6,
Wick,03/11/2018 08:00,11.4,18,,,0,,85,,160,Drizzly rain,1000,0,16,,,,9.1,
Wick,03/11/2018 09:00,11.8,20,,,0,,85,29,160,Rain,1000,7,15,,,,9.5,
Wick,03/11/2018 10:00,12.2,17,,,0,,84,33,160,Dry,1001,0,16,,,,9.7,
Wick,03/11/2018 11:00,12.2,13,,,0,,87,,150,Dry,1000,8,16,,,,10.2,
Wick,03/11/2018 12:00,12.4,15,,,0,0,87,,150,Dry,1000,7,15,,,,10.4,
Wick,03/11/2018 13:00,12.6,17,,,0,,87,,160,Dry,999,8,13,,,,10.6,
Wick,03/11/2018 14:00,13.3,16,,,0,,83,,150,Dry,999,7,14,,,,10.6,
Wick,03/11/2018 15:00,13.1,13,,,0,,84,,160,Dry,998,8,16,,,,10.6,
Wick,03/11/2018 16:00,13.7,18,,,0,,83,28,180,Dry,998,7,11,,,,10.9,
Wick,03/11/2018 17:00,12.7,12,,,0,,87,32,190,Rain,998,7,45,,,,10.6,
Wick,03/11/2018 18:00,12.9,16,,13.8,0,0,87,,170,Rain,998,8,21,,,,10.9,
Wick,03/11/2018 19:00,12.7,14,,,0,,85,,160,Dry,998,8,14,,,,10.3,
Wick,03/11/2018 20:00,11.8,13,,,0,,87,,180,Dry,998,8,18,,,,9.8,
Wick,03/11/2018 21:00,11.5,12,,,0,,81,,170,Dry,998,8,18,,,,8.4,
Wick,03/11/2018 22:00,11.7,10,,,0,,88,,160,Dry,997,8,23,,,,9.8,
Wick,03/11/2018 23:00,11.8,13,,,0,,82,,160,Dry,996,1,16,,,,9,
Wick,04/11/2018 00:00,12,16,,,0,0,80,,150,Dry,996,0,18,,,,8.8,
Wick,04/11/2018 01:00,12.3,22,,,0,,68,32,170,Dry,996,7,24,,,,6.7,
Wick,04/11/2018 02:00,12,17,,,0,,69,38,170,Dry,995,7,21,,,,6.6,
Wick,04/11/2018 03:00,11.7,17,,,0,,74,,170,Dry,995,1,24,,,,7.4,
Wick,04/11/2018 04:00,11.5,22,,,0,,76,35,160,Dry,995,5,17,,,,7.5,
Wick,04/11/2018 05:00,10.8,21,,,0,,74,32,180,Dry,995,1,26,,,,6.4,
Wick,04/11/2018 06:00,10.6,20,10.5,,0,0,71,28,180,Dry,996,0,24,,,,5.6,
Wick,04/11/2018 07:00,10.4,14,,,0,,72,30,170,Dry,996,0,27,,,,5.6,
Wick,04/11/2018 08:00,10.4,15,,,0,,71,25,170,Dry,997,0,15,,,,5.5,
Wick,04/11/2018 09:00,10.6,15,,,0,,71,,160,Dry,998,7,14,,,,5.6,
Wick,04/11/2018 10:00,10.9,17,,,0,,68,29,160,Dry,998,8,17,,,,5.3,
Wick,04/11/2018 11:00,11.5,17,,,0,,68,33,160,Dry,999,5,17,,,,5.9,
Wick,04/11/2018 12:00,11.7,21,,,0,0,70,30,170,Dry,999,0,13,,,,6.6,
Wick,04/11/2018 13:00,11.2,21,,,0,,70,29,180,Dry,999,0,14,,,,6,
Wick,04/11/2018 14:00,11.3,24,,,0,,67,33,180,Dry,1000,0,22,,,,5.6,
Wick,04/11/2018 15:00,11.4,17,,,0,,67,25,180,Dry,1000,0,18,,,,5.6,
Wick,04/11/2018 16:00,11,18,,,0,,68,,170,Dry,1001,0,19,,,,5.5,
Wick,04/11/2018 17:00,10.5,12,,,0,,70,,180,Dry,1002,0,18,,,,5.3,
Wick,04/11/2018 18:00,10,12,,11.8,0,0,75,,190,Dry,1002,0,16,,,,5.8,
Wick,04/11/2018 19:00,10.7,12,,,0,,75,,160,Dry,1004,1,14,,,,6.6,
Wick,04/11/2018 20:00,10.3,16,,,0,,74,,180,Dry,1004,7,18,,,,5.9,
Wick,04/11/2018 21:00,10.4,18,,,0,,72,,180,Dry,1004,7,22,,,,5.6,
Wick,04/11/2018 22:00,10.1,12,,,0,,75,,190,Dry,1005,8,16,,,,5.9,
Wick,04/11/2018 23:00,10.1,15,,,0,,75,,180,Dry,1005,8,19,,,,5.9,
Wick,05/11/2018 00:00,9.2,9,,,0,0,78,,210,Dry,1005,0,18,,,,5.7,
Wick,05/11/2018 01:00,9.8,10,,,0,,75,,180,Dry,1005,8,24,,,,5.6,
Wick,05/11/2018 02:00,10,13,,,0,,74,,180,Dry,1005,8,20,,,,5.6,
Wick,05/11/2018 03:00,9.7,9,,,0,,77,,190,Dry,1005,5,19,,,,6,
Wick,05/11/2018 04:00,9.5,6,,,0,,81,,190,Dry,1005,8,20,,,,6.5,
Wick,05/11/2018 05:00,7.8,6,,,0,,87,,260,Dry,1005,8,18,,,,5.8,
Wick,05/11/2018 06:00,9.1,5,7.8,,0,0,83,,220,Dry,1005,8,18,,,,6.4,
Wick,05/11/2018 07:00,8.9,7,,,0,,86,,180,Light rain,1005,7,14,,,,6.8,
Wick,05/11/2018 08:00,8.9,7,,,0.4,,88,,160,Light rain,1006,8,17,,,,7.1,
Wick,05/11/2018 09:00,8.5,6,,,0.4,,91,,160,Light rain,1006,8,10,,,,7.2,
Wick,05/11/2018 10:00,8.8,3,,,0.8,,94,,130,Moderate rain,1006,8,6,,,,8,
Wick,05/11/2018 11:00,8.8,3,,,1,,91,,140,Moderate rain,1006,8,7,,,,7.5,
Wick,05/11/2018 12:00,8.8,5,,,0.8,3,94,,50,Light drizzle,1005,8,8,,,,8,
Wick,05/11/2018 13:00,9.5,6,,,0,,98,,110,Drizzle,1004,8,13,,,,9.3,
Wick,05/11/2018 14:00,10.3,12,,,0,,91,,140,Haze,1004,8,9,,,,9,
Wick,05/11/2018 15:00,10.3,9,,,0,,89,,150,Haze,1003,1,8,,,,8.7,
Wick,05/11/2018 16:00,10.2,8,,,0,,91,,130,Haze,1003,0,7,,,,8.9,
Wick,05/11/2018 17:00,10.2,10,,,0,,94,,120,Misty,1002,8,5,,,,9.4,
Wick,05/11/2018 18:00,10.4,13,,10.4,0,0,93,,120,Haze,1002,8,6,,,,9.4,
Wick,05/11/2018 19:00,10.4,15,,,0,,86,,140,Haze,1002,8,9,,,,8.3,
Wick,05/11/2018 20:00,10.4,12,,,0,,91,,140,Haze,1001,8,6,,,,9,
Wick,05/11/2018 21:00,10.5,13,,,0,,95,,140,Misty,1000,8,5,,,,9.8,
Wick,05/11/2018 22:00,10.6,13,,,0,,94,,140,Misty,1000,8,5,,,,9.8,
Wick,05/11/2018 23:00,10.6,15,,,0,,94,,140,Misty,999,8,5,,,,9.8,
Wick,06/11/2018 00:00,10.7,20,,,0,0,91,,150,Haze,999,7,6,,,,9.4,
Wick,06/11/2018 01:00,10.6,22,,,0,,91,31,140,Haze,998,8,5,,,,9.3,
Wick,06/11/2018 02:00,10.4,22,,,0,,94,32,130,Drizzly rain,998,8,4,,,,9.6,
Wick,06/11/2018 03:00,10.4,15,,,0.2,,94,,140,Rain,998,8,4,,,,9.5,
Wick,06/11/2018 04:00,10.7,15,,,0.2,,91,,150,Haze,998,8,6,,,,9.3,
Wick,06/11/2018 05:00,10.6,13,,,0,,94,,130,Haze,997,7,6,,,,9.7,
Wick,06/11/2018 06:00,10.6,13,10.2,,0,0.4,95,,140,Misty,997,8,7,,,,9.9,
Wick,06/11/2018 07:00,10.5,14,,,0,,94,,140,Rain,997,8,7,,,,9.6,
Wick,06/11/2018 08:00,10.5,16,,,0,,91,,140,Haze,997,8,7,,,,9.2,
Wick,06/11/2018 09:00,10.4,18,,,0,,91,,130,Haze,996,8,6,,,,9.1,
Wick,06/11/2018 10:00,10.4,17,,,0,,91,,130,Haze,996,8,6,,,,9.1,
Wick,06/11/2018 11:00,10.4,20,,,0,,93,36,130,Haze,995,8,4,,,,9.4,
Wick,06/11/2018 12:00,10.5,16,,,0,0,94,30,150,Misty,995,8,4,,,,9.6,
Wick,06/11/2018 13:00,10.8,17,,,0,,94,29,150,Misty,994,8,4,,,,9.9,
Wick,06/11/2018 14:00,10.9,17,,,0,,94,29,150,Misty,993,8,4,,,,10,
Wick,06/11/2018 15:00,10.8,15,,,0,,94,30,150,Misty,993,8,4,,,,9.9,
Wick,06/11/2018 16:00,10.7,18,,,0,,94,30,130,Haze,993,8,5,,,,9.8,
Wick,06/11/2018 17:00,10.6,15,,,0,,92,28,160,Haze,993,8,5,,,,9.4,
Wick,06/11/2018 18:00,10.6,15,,11,0,0,94,29,140,Haze,993,7,5,,,,9.7,
Wick,06/11/2018 19:00,10.6,20,,,0,,94,32,130,Haze,992,8,5,,,,9.7,
Wick,06/11/2018 20:00,10.8,17,,,0,,94,29,130,Haze,992,8,5,,,,9.9,
Wick,06/11/2018 21:00,10.8,17,,,0,,92,32,140,Haze,992,7,5,,,,9.7,
Wick,06/11/2018 22:00,11,26,,,0,,93,35,130,Haze,991,8,6,,,,10,
Wick,06/11/2018 23:00,10.9,24,,,0,,94,36,130,Misty,991,6,6,,,,10.1,
Wick,07/11/2018 00:00,11.1,22,,,0,0,93,38,130,Haze,991,5,6,,,,10.1,
Wick,07/11/2018 01:00,11.4,26,,,0,,91,38,130,Haze,991,5,8,,,,10,
Wick,07/11/2018 02:00,11.5,20,,,0,,92,36,140,Haze,991,4,7,,,,10.4,
Wick,07/11/2018 03:00,11.4,21,,,0,,93,33,140,Haze,991,3,8,,,,10.4,
Wick,07/11/2018 04:00,11.3,26,,,0,,92,40,130,Haze,991,0,8,,,,10.2,
Wick,07/11/2018 05:00,11.2,23,,,0,,93,37,130,Haze,992,0,8,,,,10.2,
Wick,07/11/2018 06:00,11.2,21,10.5,,0,0,92,31,130,Haze,993,1,8,,,,10.1,
Wick,07/11/2018 07:00,11.2,17,,,0,,93,31,130,Haze,993,7,8,,,,10.2,
Wick,07/11/2018 08:00,11,20,,,0,,96,,120,Misty,994,7,6,,,,10.4,
Wick,07/11/2018 09:00,11,21,,,0,,95,30,120,Misty,993,8,6,,,,10.3,
Wick,07/11/2018 10:00,11.2,24,,,0,,93,33,120,Haze,993,1,8,,,,10.2,
Wick,07/11/2018 11:00,11.4,24,,,0,,92,33,120,Haze,993,7,8,,,,10.2,
Wick,07/11/2018 12:00,11.2,24,,,0,0,93,37,120,Haze,993,8,8,,,,10.2,
Wick,07/11/2018 13:00,11.3,23,,,0,,92,35,120,Haze,992,8,7,,,,10.1,
Wick,07/11/2018 14:00,11.2,23,,,0,,89,38,120,Haze,991,8,8,,,,9.5,
Wick,07/11/2018 15:00,11.1,28,,,0,,88,40,120,Haze,991,8,9,,,,9.2,
Wick,07/11/2018 16:00,11.1,25,,,0,,87,37,120,Haze,991,6,9,,,,9.1,
Wick,07/11/2018 17:00,10.7,28,,,0,,96,41,120,Rain,990,8,7,,,,10.1,
Wick,07/11/2018 18:00,11,22,,11.5,0.2,0.2,94,38,120,Rain,991,8,8,,,,10.1,
Wick,07/11/2018 19:00,11.1,22,,,0,,91,35,130,Haze,992,8,9,,,,9.8,
Wick,07/11/2018 20:00,11.1,24,,,0,,92,35,130,Haze,992,8,7,,,,9.9,
Wick,07/11/2018 21:00,11,22,,,0,,94,37,130,Misty,992,8,7,,,,10.2,
Wick,07/11/2018 22:00,9.6,13,,,0.4,,89,31,180,Moderate shower,994,8,6,,,,7.9,
Wick,07/11/2018 23:00,9.5,9,,,3,,92,,190,Moderate rain,996,1,13,,,,8.3,
Wick,08/11/2018 00:00,9.3,7,,,0,3,92,,200,Light rain,997,8,16,,,,8.2,
Wick,08/11/2018 01:00,8.1,5,,,0,,93,,240,Rain,998,8,30,,,,7.1,
Wick,08/11/2018 02:00,8.1,5,,,0,,89,,180,Dry,999,8,45,,,,6.4,
Wick,08/11/2018 03:00,5.2,5,,,0,,90,,250,Dry,1000,0,40,,,,3.8,
Wick,08/11/2018 04:00,6.4,3,,,0,,90,,210,Dry,1002,2,50,,,,4.9,
Wick,08/11/2018 05:00,5.8,6,,,0,,89,,190,Dry,1003,0,50,,,,4.2,
Wick,08/11/2018 06:00,5.5,3,4.4,,0,0,83,,190,Dry,1004,0,30,,,,2.9,
Wick,08/11/2018 07:00,6.4,5,,,0,,88,,160,Dry,1004,1,17,,,,4.7,
Wick,08/11/2018 08:00,6.6,8,,,0,,85,,190,Dry,1004,7,25,,,,4.4,
Wick,08/11/2018 09:00,6.7,6,,,0,,84,,180,Dry,1005,1,26,,,,4.3,
Wick,08/11/2018 10:00,9.2,12,,,0,,71,,160,Dry,1005,0,30,,,,4.4,
Wick,08/11/2018 11:00,9.1,14,,,0,,69,,160,Dry,1006,0,35,,,,3.8,
Wick,08/11/2018 12:00,9.2,12,,,0,0,65,,160,Dry,1006,0,19,,,,3.1,
Wick,08/11/2018 13:00,9,13,,,0,,68,,150,Dry,1006,5,29,,,,3.5,
Wick,08/11/2018 14:00,9.2,16,,,0,,68,,160,Dry,1006,1,35,,,,3.7,
Wick,08/11/2018 15:00,9.4,14,,,0,,67,,170,Dry,1006,0,35,,,,3.6,
Wick,08/11/2018 16:00,9,13,,,0,,71,,170,Dry,1006,1,40,,,,4.1,
Wick,08/11/2018 17:00,9.4,16,,,0,,67,,170,Dry,1006,7,35,,,,3.7,
Wick,08/11/2018 18:00,9.3,16,,9.6,0,0,70,,170,Dry,1006,8,30,,,,4.3,
Wick,08/11/2018 19:00,9.6,12,,,0,,75,,140,Dry,1006,1,21,,,,5.5,
Wick,08/11/2018 20:00,9.4,20,,,0,,81,31,150,Dry,1006,7,18,,,,6.4,
Wick,08/11/2018 21:00,9.7,17,,,0,,82,31,150,Dry,1006,0,16,,,,6.8,
Wick,08/11/2018 22:00,9.6,17,,,0.2,,90,30,120,Light shower,1005,6,9,,,,8.2,
Wick,08/11/2018 23:00,9.6,14,,,0.8,,87,29,140,Rain,1004,8,20,,,,7.7,
Wick,09/11/2018 00:00,10.4,21,,,0,1,86,33,150,Light shower,1003,8,10,,,,8.3,
Wick,09/11/2018 01:00,10.3,20,,,0.2,,89,35,150,Light rain,1003,8,10,,,,8.6,
Wick,09/11/2018 02:00,10.1,23,,,0,,87,35,150,Rain,1002,8,12,,,,8.2,
Wick,09/11/2018 03:00,9.9,23,,,0.2,,86,37,150,Light shower,1003,8,8,,,,7.7,
Wick,09/11/2018 04:00,9.8,24,,,0.4,,82,36,150,Rain,1002,8,13,,,,7,
Wick,09/11/2018 05:00,9.7,24,,,0,,82,36,150,Dry,1002,8,15,,,,6.8,
Wick,09/11/2018 06:00,9.6,24,9.3,,0,1,83,37,150,Rain,1002,8,11,,,,6.9,
Wick,09/11/2018 07:00,9.6,25,,,0,,84,37,140,Dry,1002,8,10,,,,7.1,
Wick,09/11/2018 08:00,9.7,24,,,0,,81,40,140,Dry,1002,8,11,,,,6.7,
Wick,09/11/2018 09:00,9.7,23,,,0,,81,36,150,Rain,1002,8,10,,,,6.7,
Wick,09/11/2018 10:00,9.8,23,,,0,,82,36,150,Dry,1002,6,10,,,,7,
Wick,09/11/2018 11:00,9.9,25,,,0,,81,40,140,Haze,1002,5,8,,,,6.9,
Wick,09/11/2018 12:00,10.2,30,,,0,0,79,43,140,Haze,1001,8,9,,,,6.8,
Wick,09/11/2018 13:00,10.5,25,,,0,,77,44,140,Haze,1000,7,9,,,,6.7,
Wick,09/11/2018 14:00,10.4,23,,,0,,79,45,140,Haze,998,7,10,,,,7,
Wick,09/11/2018 15:00,10.3,28,,,0,,81,43,130,Haze,997,8,9,,,,7.2,
Wick,09/11/2018 16:00,10.3,30,,,0,,79,45,130,Dry,996,3,10,,,,7,
Wick,09/11/2018 17:00,10.3,35,,,0,,82,51,120,Haze,994,6,9,,,,7.4,
Wick,09/11/2018 18:00,10.3,35,,10.6,0,0,81,48,120,Dry,993,7,9,,,,7.3,
Wick,09/11/2018 19:00,10.3,35,,,0,,83,51,120,Haze,992,4,9,,,,7.6,
Wick,09/11/2018 20:00,10.5,33,,,0,,82,52,120,Haze,991,8,10,,,,7.6,
Wick,09/11/2018 21:00,10.5,39,,,0,,82,56,120,Haze,989,8,9,,,,7.7,
Wick,09/11/2018 22:00,10.3,38,,,0,,91,51,120,Haze,987,8,6,,,,8.9,
Wick,09/11/2018 23:00,10.6,37,,,0.2,,91,53,120,Rain,986,8,6,,,,9.2,
Wick,10/11/2018 00:00,10.6,32,,,0,0.2,86,47,120,Drizzle,985,5,7,,,,8.5,
Wick,10/11/2018 01:00,10.6,31,,,0,,84,55,130,Haze,984,8,8,,,,8.1,
Wick,10/11/2018 02:00,10.5,35,,,0,,84,47,130,Haze,983,2,9,,,,8,
Wick,10/11/2018 03:00,10,31,,,1,,90,48,130,Light rain,981,8,6,,,,8.6,
Wick,10/11/2018 04:00,10.1,28,,,1.6,,94,41,130,Light rain,981,5,7,,,,9.3,
Wick,10/11/2018 05:00,10.2,23,,,0.4,,93,39,130,Rain,980,8,8,,,,9.2,
Wick,10/11/2018 06:00,10.2,20,10,,0,2.8,91,36,140,Haze,981,1,7,,,,8.8,
Wick,10/11/2018 07:00,10.3,17,,,0,,89,30,140,Haze,981,8,7,,,,8.7,
Wick,10/11/2018 08:00,10.2,15,,,0,,89,,140,Haze,982,1,8,,,,8.5,
Wick,10/11/2018 09:00,10.2,15,,,0,,87,,160,Dry,982,6,12,,,,8.3,
Wick,10/11/2018 10:00,10.6,17,,,0,,83,,160,Dry,982,8,11,,,,8,
Wick,10/11/2018 11:00,10.7,15,,,0,,77,,170,Dry,983,0,23,,,,6.9,
Wick,10/11/2018 12:00,10.7,16,,,0,0,73,,180,Dry,984,0,24,,,,6.2,
Wick,10/11/2018 13:00,10.7,17,,,0,,68,,180,Dry,984,0,23,,,,5.2,
Wick,10/11/2018 14:00,10.4,16,,,0,,66,,200,Dry,985,0,20,,,,4.5,
Wick,10/11/2018 15:00,9.9,18,,,0,,68,,180,Dry,986,0,20,,,,4.4,
Wick,10/11/2018 16:00,9.2,8,,,0,,71,,180,Dry,987,0,30,,,,4.4,
Wick,10/11/2018 17:00,8.7,8,,,0,,73,,170,Dry,988,0,27,,,,4.2,
Wick,10/11/2018 18:00,8.9,9,,10.9,0,0,70,,210,Dry,988,0,30,,,,3.9,
Wick,10/11/2018 19:00,9.8,13,,,0,,75,,160,Dry,989,6,23,,,,5.6,
Wick,10/11/2018 20:00,9.7,16,,,0,,78,,160,Dry,989,0,19,,,,6.1,
Wick,10/11/2018 21:00,9.5,10,,,0,,82,,150,Dry,990,8,12,,,,6.6,
Wick,10/11/2018 22:00,9.7,9,,,0,,88,,140,Rain,990,8,10,,,,7.9,
Wick,10/11/2018 23:00,9.8,12,,,0,,92,,110,Dry,989,8,13,,,,8.6,
Wick,11/11/2018 00:00,9.3,20,,,0.4,0.4,88,,110,Rain,988,1,13,,,,7.5,
Wick,11/11/2018 01:00,9.3,15,,,0,,87,,100,Dry,987,8,17,,,,7.4,
Wick,11/11/2018 02:00,9.5,14,,,0,,84,,160,Dry,987,0,19,,,,7.1,
Wick,11/11/2018 03:00,8,12,,,0,,84,,180,Dry,988,2,45,,,,5.6,
Wick,11/11/2018 04:00,7.6,6,,,0,,91,,200,Dry,988,7,24,,,,6.3,
Wick,11/11/2018 05:00,7.6,5,,,0,,92,,190,Dry,988,8,27,,,,6.5,
Wick,11/11/2018 06:00,6.7,6,6.7,,0,0,90,,180,Dry,988,0,35,,,,5.2,
Wick,11/11/2018 07:00,4.5,2,,,0,,90,,220,Dry,989,0,29,,,,3.1,
Wick,11/11/2018 08:00,6.8,7,,,0,,91,,160,Dry,990,5,27,,,,5.5,
Wick,11/11/2018 09:00,7.1,3,,,0,,87,,180,Dry,990,0,25,,,,5.1,
Wick,11/11/2018 10:00,7.7,5,,,0,,85,,170,Dry,990,1,30,,,,5.5,
Wick,11/11/2018 11:00,9,9,,,0,,75,,170,Dry,991,2,50,,,,5,
Wick,11/11/2018 12:00,9.6,10,,,0,0,75,,160,Dry,991,0,45,,,,5.4,
Wick,11/11/2018 13:00,9.7,8,,,0,,75,,140,Dry,991,0,35,,,,5.6,
Wick,11/11/2018 14:00,9.2,8,,,0,,80,,150,Dry,991,5,50,,,,6.1,
Wick,11/11/2018 15:00,8.9,9,,,0,,84,,160,Dry,991,7,30,,,,6.4,
Wick,11/11/2018 16:00,8.9,9,,,0,,85,,150,Dry,991,7,30,,,,6.6,
Wick,11/11/2018 17:00,9.1,10,,,0,,86,,150,Dry,992,8,30,,,,7,
Wick,11/11/2018 18:00,9.5,14,,9.8,0,0,86,,150,Dry,992,7,23,,,,7.4,
Wick,11/11/2018 19:00,9.4,13,,,0,,86,,160,Drizzly rain,993,8,20,,,,7.3,
Wick,11/11/2018 20:00,8.8,9,,,0,,89,,150,Rain,993,8,22,,,,7.1,
Wick,11/11/2018 21:00,9,9,,,0,,89,,160,Dry,993,8,25,,,,7.4,
Wick,11/11/2018 22:00,7.6,5,,,0,,87,,210,Dry,994,6,40,,,,5.7,
Wick,11/11/2018 23:00,6.3,5,,,0,,90,,200,Dry,994,0,50,,,,4.9,
Wick,12/11/2018 00:00,7.2,9,,,0,0,84,,180,Dry,994,0,50,,,,4.8,
Wick,12/11/2018 01:00,8,9,,,0,,80,,170,Dry,995,8,45,,,,4.8,
Wick,12/11/2018 02:00,8.2,12,,,0,,78,,160,Dry,995,0,50,,,,4.6,
Wick,12/11/2018 03:00,8.5,12,,,0,,79,,160,Dry,995,7,40,,,,5.1,
Wick,12/11/2018 04:00,8.7,13,,,0,,83,,160,Dry,995,8,40,,,,6.1,
Wick,12/11/2018 05:00,8.8,13,,,0,,84,,180,Dry,995,0,35,,,,6.3,
Wick,12/11/2018 06:00,8.8,13,6.2,,0,0,84,,160,Dry,995,6,26,,,,6.4,
Wick,12/11/2018 07:00,8.9,13,,,0,,86,,160,Dry,996,6,28,,,,6.7,
Wick,12/11/2018 08:00,8.9,12,,,0,,86,,160,Dry,996,5,29,,,,6.8,
Wick,12/11/2018 09:00,9.4,9,,,0,,86,,170,Dry,996,5,19,,,,7.2,
Wick,12/11/2018 10:00,10.2,14,,,0,,82,,160,Dry,996,0,17,,,,7.3,
Wick,12/11/2018 11:00,10.5,17,,,0,,80,,150,Dry,997,0,20,,,,7.3,
Wick,12/11/2018 12:00,10.7,14,,,0,0,80,,160,Dry,997,0,16,,,,7.4,
Wick,12/11/2018 13:00,10.5,15,,,0,,83,,150,Dry,997,1,13,,,,7.8,
Wick,12/11/2018 14:00,10.4,13,,,0,,85,,150,Dry,997,4,15,,,,8,
Wick,12/11/2018 15:00,10.2,13,,,0,,86,,150,Dry,997,2,14,,,,8,
Wick,12/11/2018 16:00,10.4,14,,,0,,83,,150,Dry,997,1,21,,,,7.7,
Wick,12/11/2018 17:00,10.3,12,,,0,,84,,150,Dry,998,8,20,,,,7.8,
Wick,12/11/2018 18:00,10.4,14,,10.9,0,0,82,,160,Dry,998,7,22,,,,7.5,
Wick,12/11/2018 19:00,10.1,14,,,0,,83,,160,Dry,998,8,21,,,,7.5,
Wick,12/11/2018 20:00,10,14,,,0,,86,,160,Rain,998,8,23,,,,7.8,
Wick,12/11/2018 21:00,9.9,13,,,0,,86,,170,Dry,998,8,21,,,,7.8,
Wick,12/11/2018 22:00,9.3,7,,,0,,91,,170,Light shower,998,8,7,,,,8,
Wick,12/11/2018 23:00,9.2,8,,,0.2,,90,,170,Rain,998,7,22,,,,7.7,
Wick,13/11/2018 00:00,9.2,9,,,0,0.2,88,,170,Dry,998,7,30,,,,7.4,
Wick,13/11/2018 01:00,8.9,8,,,0,,87,,180,Dry,998,7,29,,,,7,
Wick,13/11/2018 02:00,5.9,3,,,0,,93,,250,Dry,999,1,19,,,,5,
Wick,13/11/2018 03:00,6.9,5,,,0,,93,,180,Dry,999,2,50,,,,5.9,
Wick,13/11/2018 04:00,7,3,,,0,,91,,220,Dry,999,7,45,,,,5.7,
Wick,13/11/2018 05:00,7,3,,,0,,93,,210,Dry,1000,8,40,,,,6,
Wick,13/11/2018 06:00,6.5,5,5.8,,0,0,93,,250,Dry,1001,8,50,,,,5.5,
Wick,13/11/2018 07:00,6.6,2,,,0,,92,,250,Dry,1001,8,45,,,,5.4,
Wick,13/11/2018 08:00,6.1,6,,,0,,93,,270,Dry,1002,8,50,,,,5.2,
Wick,13/11/2018 09:00,6.6,3,,,0,,92,,250,Dry,1003,8,50,,,,5.5,
Wick,13/11/2018 10:00,8.5,5,,,0,,84,,230,Dry,1004,7,35,,,,6.1,
Wick,13/11/2018 11:00,10.3,7,,,0,,79,,230,Dry,1005,7,40,,,,6.9,
Wick,13/11/2018 12:00,10,10,,,0,0,82,,230,Dry,1006,8,45,,,,7.2,
Wick,13/11/2018 13:00,10.5,9,,,0,,80,,230,Dry,1007,4,45,,,,7.3,
Wick,13/11/2018 14:00,10,10,,,0,,83,,220,Haze,1008,7,7,,,,7.4,
Wick,13/11/2018 15:00,9.4,9,,,0,,84,,210,Dry,1009,2,50,,,,7,
Wick,13/11/2018 16:00,8.6,5,,,0,,83,,210,Dry,1009,2,50,,,,5.9,
Wick,13/11/2018 17:00,8,7,,,0,,79,,210,Dry,1010,5,45,,,,4.6,
Wick,13/11/2018 18:00,8,7,,10.8,0,0,81,,170,Dry,1010,7,50,,,,5.1,
Wick,13/11/2018 19:00,8.5,9,,,0,,87,,180,Dry,1010,7,35,,,,6.5,
Wick,13/11/2018 20:00,8.9,12,,,0,,82,,170,Dry,1010,2,30,,,,6.1,
Wick,13/11/2018 21:00,9.5,14,,,0,,75,,160,Dry,1009,7,30,,,,5.4,
Wick,13/11/2018 22:00,9.7,17,,,0,,76,29,160,Dry,1009,8,35,,,,5.7,
Wick,13/11/2018 23:00,9.8,21,,,0,,74,33,160,Light shower,1008,8,30,,,,5.4,
Wick,14/11/2018 00:00,9,18,,,0.6,0.6,86,31,160,Light rain,1008,8,17,,,,6.9,
Wick,14/11/2018 01:00,9.5,17,,,0.2,,84,,160,Drizzly rain,1008,8,13,,,,7,
Wick,14/11/2018 02:00,9.8,16,,,0.2,,85,31,160,Drizzly rain,1007,8,22,,,,7.5,
Wick,14/11/2018 03:00,10.1,17,,,0,,87,,160,Light shower,1007,8,25,,,,8.1,
Wick,14/11/2018 04:00,10.8,15,,,0,,83,,160,Rain,1006,8,24,,,,8.2,
Wick,14/11/2018 05:00,10.5,15,,,0,,86,,150,Dry,1006,7,19,,,,8.4,
Wick,14/11/2018 06:00,10.6,15,8.1,,0,0.4,88,,150,Dry,1006,8,17,,,,8.7,
Wick,14/11/2018 07:00,10.6,17,,,0,,89,,160,Dry,1005,8,14,,,,8.9,
Wick,14/11/2018 08:00,10.5,15,,,0.4,,91,,160,Light shower,1006,8,8,,,,9.2,
Wick,14/11/2018 09:00,10.3,12,,,1,,94,,150,Rain,1006,8,12,,,,9.5,
Wick,14/11/2018 10:00,10.1,15,,,0.8,,96,,150,Light shower,1005,8,6,,,,9.6,
Wick,14/11/2018 11:00,10.2,15,,,0.2,,96,,160,Rain,1005,8,11,,,,9.6,
Wick,14/11/2018 12:00,10.2,12,,,0.4,3,97,,150,Light rain,1005,8,11,,,,9.8,
Wick,14/11/2018 13:00,10.3,8,,,1,,98,,150,Light drizzle,1004,1,8,,,,10,
Wick,14/11/2018 14:00,10.8,13,,,0.2,,97,,150,Drizzly rain,1004,8,16,,,,10.4,
Wick,14/11/2018 15:00,11.6,14,,,0,,91,,170,Rain,1004,8,22,,,,10.3,
Wick,14/11/2018 16:00,12.3,13,,,0,,88,,170,Dry,1005,8,30,,,,10.5,
Wick,14/11/2018 17:00,12.6,16,,,0,,89,,180,Dry,1005,1,40,,,,10.9,
Wick,14/11/2018 18:00,12.9,13,,13,0,1,88,,190,Dry,1005,1,45,,,,11,
Wick,14/11/2018 19:00,13.4,15,,,0,,84,,180,Dry,1005,8,50,,,,10.8,
Wick,14/11/2018 20:00,13.2,21,,,0,,84,29,190,Dry,1006,8,40,,,,10.6,
Wick,14/11/2018 21:00,12.9,18,,,0,,85,,180,Dry,1006,8,23,,,,10.5,
Wick,14/11/2018 22:00,13.4,20,,,0,,82,29,160,Dry,1006,8,24,,,,10.5,
Wick,14/11/2018 23:00,13,20,,,0,,83,,180,Dry,1007,8,22,,,,10.3,
Wick,15/11/2018 00:00,13.4,13,,,0,0,81,,170,Dry,1007,2,29,,,,10.3,
Wick,15/11/2018 01:00,12.9,17,,,0,,84,30,170,Dry,1007,2,21,,,,10.3,
Wick,15/11/2018 02:00,13.4,22,,,0,,79,31,160,Dry,1007,0,23,,,,10,
Wick,15/11/2018 03:00,13.6,17,,,0,,78,31,170,Dry,1008,0,35,,,,9.9,
Wick,15/11/2018 04:00,12.8,17,,,0,,81,36,170,Dry,1008,0,30,,,,9.8,
Wick,15/11/2018 05:00,12.4,14,,,0,,83,29,200,Dry,1008,0,30,,,,9.7,
Wick,15/11/2018 06:00,12.1,16,12.1,,0,0,85,,180,Dry,1009,0,28,,,,9.7,
Wick,15/11/2018 07:00,12.2,8,,,0,,87,,170,Dry,1009,3,22,,,,10.2,
Wick,15/11/2018 08:00,11.2,6,,,0,,89,,140,Dry,1010,1,20,,,,9.6,
Wick,15/11/2018 09:00,11.4,8,,,0,,91,,150,Dry,1010,0,17,,,,10,
Wick,15/11/2018 10:00,11.8,15,,,0,,88,,160,Dry,1010,1,24,,,,10,
Wick,15/11/2018 11:00,11.9,15,,,0,,88,,150,Dry,1010,0,12,,,,10,
Wick,15/11/2018 12:00,12.1,16,,,0,0,86,,140,Dry,1009,0,16,,,,9.9,
Wick,15/11/2018 13:00,12.2,20,,,0,,84,31,160,Dry,1008,0,17,,,,9.7,
Wick,15/11/2018 14:00,11.6,23,,,0,,87,35,140,Dry,1007,1,14,,,,9.6,
Wick,15/11/2018 15:00,11.5,18,,,0,,85,36,150,Dry,1007,1,12,,,,9.1,
Wick,15/11/2018 16:00,11.3,22,,,0,,82,33,150,Dry,1007,0,14,,,,8.4,
Wick,15/11/2018 17:00,11.7,25,,,0,,75,43,160,Dry,1007,5,14,,,,7.5,
Wick,15/11/2018 18:00,11,18,,12.7,0,0,77,35,160,Dry,1007,1,15,,,,7.3,
Wick,15/11/2018 19:00,11.1,18,,,0,,80,35,150,Dry,1008,4,15,,,,7.9,
Wick,15/11/2018 20:00,10.7,18,,,0,,81,33,230,Dry,1010,8,45,,,,7.6,
Wick,15/11/2018 21:00,10.8,12,,,0,,74,,200,Rain,1011,8,35,,,,6.4,
Wick,15/11/2018 22:00,10.2,15,,,0,,84,,190,Dry,1012,8,29,,,,7.7,
Wick,15/11/2018 23:00,9.9,20,,,0,,85,,180,Dry,1013,6,45,,,,7.5,
Wick,16/11/2018 00:00,9.3,12,,,0,0,85,,190,Dry,1015,0,40,,,,7,
Wick,16/11/2018 01:00,9,14,,,0,,87,,180,Dry,1016,0,35,,,,7.1,
Wick,16/11/2018 02:00,9.2,13,,,0,,86,,180,Dry,1017,0,25,,,,7,
Wick,16/11/2018 03:00,9.1,14,,,0,,86,,180,Dry,1017,0,25,,,,6.9,
Wick,16/11/2018 04:00,8.8,12,,,0,,83,,190,Dry,1018,0,40,,,,6.2,
Wick,16/11/2018 05:00,8.2,10,,,0,,84,,180,Dry,1019,0,35,,,,5.8,
Wick,16/11/2018 06:00,8.1,9,7.7,,0,0,85,,190,Dry,1020,0,45,,,,5.8,
Wick,16/11/2018 07:00,7.8,8,,,0,,85,,180,Dry,1021,0,30,,,,5.5,
Wick,16/11/2018 08:00,8.4,10,,,0,,83,,180,Dry,1021,0,30,,,,5.8,
Wick,16/11/2018 09:00,9,8,,,0,,82,,180,Dry,1022,0,19,,,,6.2,
Wick,16/11/2018 10:00,9.9,12,,,0,,79,,170,Dry,1023,0,30,,,,6.5,
Wick,16/11/2018 11:00,9.9,13,,,0,,78,,170,Dry,1023,0,40,,,,6.3,
Wick,16/11/2018 12:00,10.5,12,,,0,0,76,,180,Dry,1023,0,20,,,,6.5,
Wick,16/11/2018 13:00,11.3,8,,,0,,74,,180,Dry,1024,0,29,,,,7,
Wick,16/11/2018 14:00,11,13,,,0,,80,,160,Dry,1024,0,29,,,,7.7,
Wick,16/11/2018 15:00,10.6,8,,,0,,86,,150,Dry,1024,0,25,,,,8.4,
Wick,16/11/2018 16:00,9.6,6,,,0,,92,,120,Dry,1024,0,10,,,,8.5,
Wick,16/11/2018 17:00,9.5,7,,,0,,96,,130,Misty,1025,0,8,,,,9,
Wick,16/11/2018 18:00,10.4,8,,11.5,0,0,96,,120,Misty,1026,1,7,,,,9.8,
Wick,16/11/2018 19:00,10.2,12,,,0,,97,,140,Misty,1026,1,5,,,,9.8,
Wick,16/11/2018 20:00,10.2,13,,,0,,98,,130,Misty,1026,2,4,,,,9.9,
Wick,16/11/2018 21:00,9.7,13,,,0,,100,,130,Fog,1027,7,3,,,,9.7,
Wick,16/11/2018 22:00,9.7,17,,,0,,99,,140,Misty,1027,8,4,,,,9.6,
Wick,16/11/2018 23:00,9.6,17,,,0,,99,,140,Misty,1028,8,5,,,,9.5,
Wick,17/11/2018 00:00,10.2,15,,,0,0,97,,130,Misty,1028,1,5,,,,9.8,
Wick,17/11/2018 01:00,10.5,14,,,0,,95,,130,Misty,1028,8,6,,,,9.8,
Wick,17/11/2018 02:00,10.5,14,,,0,,92,,140,Dry,1029,8,11,,,,9.4,
Wick,17/11/2018 03:00,10.1,16,,,0,,91,,140,Dry,1029,8,18,,,,8.7,
Wick,17/11/2018 04:00,9.7,20,,,0,,89,29,130,Dry,1029,8,15,,,,8.1,
Wick,17/11/2018 05:00,8.7,24,,,0,,87,35,140,Dry,1029,7,12,,,,6.8,
Wick,17/11/2018 06:00,9,25,8.7,,0,0,85,37,130,Dry,1029,7,12,,,,6.7,
Wick,17/11/2018 07:00,9.1,25,,,0,,86,39,130,Dry,1029,7,11,,,,6.9,
Wick,17/11/2018 08:00,8.8,22,,,0,,84,38,140,Dry,1030,6,16,,,,6.4,
Wick,17/11/2018 09:00,8.8,24,,,0,,84,33,130,Dry,1030,7,18,,,,6.3,
Wick,17/11/2018 10:00,8.5,20,,,0,,84,35,140,Dry,1031,8,12,,,,6,
Wick,17/11/2018 11:00,8.2,18,,,0,,84,35,140,Dry,1031,8,11,,,,5.7,
Wick,17/11/2018 12:00,8.5,20,,,0,0,83,29,130,Dry,1031,8,13,,,,5.9,
Wick,17/11/2018 13:00,8.9,17,,,0,,83,32,130,Dry,1031,8,10,,,,6.2,
Wick,17/11/2018 14:00,9,17,,,0,,82,32,140,Dry,1030,5,14,,,,6.2,
Wick,17/11/2018 15:00,9,18,,,0,,84,37,140,Dry,1031,6,10,,,,6.5,
Wick,17/11/2018 16:00,8.8,21,,,0,,85,33,140,Haze,1031,5,9,,,,6.5,
Wick,17/11/2018 17:00,8.7,16,,,0,,85,33,140,Haze,1031,4,8,,,,6.4,
Wick,17/11/2018 18:00,8.8,14,,9.2,0,0,87,29,140,Haze,1032,3,8,,,,6.8,
Wick,17/11/2018 19:00,8.9,15,,,0,,87,,140,Haze,1032,2,8,,,,7,
Wick,17/11/2018 20:00,9.1,18,,,0,,87,,140,Haze,1032,2,8,,,,7.2,
Wick,17/11/2018 21:00,9.3,15,,,0,,89,29,140,Haze,1033,7,7,,,,7.6,
Wick,17/11/2018 22:00,9.1,16,,,0,,88,,140,Haze,1033,7,9,,,,7.3,
Wick,17/11/2018 23:00,9.1,20,,,0,,86,31,140,Dry,1033,7,10,,,,6.9,
Wick,18/11/2018 00:00,8.9,20,,,0,0,86,31,150,Dry,1033,4,11,,,,6.8,
Wick,18/11/2018 01:00,8.8,14,,,0,,86,,150,Dry,1033,2,12,,,,6.7,
Wick,18/11/2018 02:00,8.9,15,,,0,,85,,140,Dry,1034,1,13,,,,6.6,
Wick,18/11/2018 03:00,8.7,17,,,0,,85,,140,Dry,1033,0,15,,,,6.4,
Wick,18/11/2018 04:00,8.7,21,,,0,,84,31,130,Dry,1033,0,16,,,,6.3,
Wick,18/11/2018 05:00,8.6,20,,,0,,86,32,130,Dry,1033,1,15,,,,6.4,
Wick,18/11/2018 06:00,8.5,17,8.4,,0,0,86,31,140,Dry,1034,3,14,,,,6.3,
Wick,18/11/2018 07:00,8.6,20,,,0,,85,31,140,Dry,1034,1,14,,,,6.3,
Wick,18/11/2018 08:00,8.6,22,,,0,,84,33,140,Dry,1034,0,16,,,,6.2,
Wick,18/11/2018 09:00,8.9,17,,,0,,85,31,150,Dry,1034,0,14,,,,6.6,
Wick,18/11/2018 10:00,9.2,17,,,0,,83,,150,Dry,1035,1,20,,,,6.6,
Wick,18/11/2018 11:00,9.4,15,,,0,,84,,150,Dry,1035,0,11,,,,7,
Wick,18/11/2018 12:00,9.5,16,,,0,0,86,,140,Dry,1035,0,16,,,,7.3,
Wick,18/11/2018 13:00,9.4,17,,,0,,85,29,130,Dry,1035,0,10,,,,7.1,
Wick,18/11/2018 14:00,9.4,15,,,0,,86,,140,Dry,1034,0,12,,,,7.3,
Wick,18/11/2018 15:00,9.4,12,,,0,,85,,150,Dry,1035,0,13,,,,7.1,
Wick,18/11/2018 16:00,9,10,,,0,,89,,150,Dry,1035,0,12,,,,7.3,
Wick,18/11/2018 17:00,9,9,,,0,,89,,140,Dry,1035,4,15,,,,7.3,
Wick,18/11/2018 18:00,8.8,14,,9.6,0,0,87,,140,Dry,1035,1,18,,,,6.8,
Wick,18/11/2018 19:00,8.7,14,,,0,,87,,150,Dry,1035,4,15,,,,6.7,
Wick,18/11/2018 20:00,8.6,12,,,0,,86,,150,Dry,1035,2,14,,,,6.4,
Wick,18/11/2018 21:00,8.8,13,,,0,,86,,140,Dry,1034,5,16,,,,6.6,
Wick,18/11/2018 22:00,8.9,14,,,0,,85,,140,Dry,1034,6,18,,,,6.6,
Wick,18/11/2018 23:00,8.7,13,,,0,,83,,150,Dry,1034,5,16,,,,6.1,
Wick,19/11/2018 00:00,8.5,14,,,0,0,83,,140,Dry,1034,0,16,,,,5.9,
Wick,19/11/2018 01:00,8.6,15,,,0,,83,,130,Dry,1034,5,20,,,,5.9,
Wick,19/11/2018 02:00,8.6,16,,,0,,80,,140,Dry,1034,8,20,,,,5.5,
Wick,19/11/2018 03:00,8.7,14,,,0,,79,,140,Dry,1033,8,23,,,,5.4,
Wick,19/11/2018 04:00,8.8,14,,,0,,78,,140,Dry,1033,8,28,,,,5.3,
Wick,19/11/2018 05:00,9,10,,,0,,82,,150,Dry,1033,8,23,,,,6.1,
Wick,19/11/2018 06:00,8.3,13,8.3,,0,0,96,,130,Misty,1033,8,5,,,,7.8,
Wick,19/11/2018 07:00,8.9,16,,,0,,86,,130,Dry,1033,7,30,,,,6.8,
Wick,19/11/2018 08:00,9.1,18,,,0,,71,,120,Dry,1033,2,35,,,,4.3,
Wick,19/11/2018 09:00,9.3,16,,,0,,71,,130,Dry,1033,8,40,,,,4.4,
Wick,19/11/2018 10:00,9.3,13,,,0,,76,,140,Dry,1033,8,27,,,,5.4,
Wick,19/11/2018 11:00,9.2,20,,,0,,67,,120,Dry,1033,1,30,,,,3.6,
Wick,19/11/2018 12:00,9.1,15,,,0,0,69,,130,Dry,1032,8,30,,,,3.9,
Wick,19/11/2018 13:00,9.1,15,,,0,,70,,130,Dry,1032,8,27,,,,4,
Wick,19/11/2018 14:00,8.8,20,,,0,,74,31,120,Dry,1032,8,30,,,,4.5,
Wick,19/11/2018 15:00,8.8,18,,,0,,68,29,130,Dry,1032,7,35,,,,3.3,
Wick,19/11/2018 16:00,8.9,16,,,0,,68,,120,Dry,1032,8,30,,,,3.4,
Wick,19/11/2018 17:00,8.4,21,,,0,,70,30,110,Dry,1032,7,26,,,,3.3,
Wick,19/11/2018 18:00,8,18,,9.5,0,0,61,29,110,Dry,1032,8,30,,,,1.1,
Wick,19/11/2018 19:00,7.8,18,,,0,,64,29,100,Dry,1032,8,29,,,,1.6,
Wick,19/11/2018 20:00,7.9,18,,,0,,63,32,110,Dry,1032,8,25,,,,1.4,
Wick,19/11/2018 21:00,7.8,18,,,0,,65,31,100,Dry,1032,8,30,,,,1.7,
Wick,19/11/2018 22:00,7.8,16,,,0,,72,30,110,Dry,1032,8,26,,,,3.1,
Wick,19/11/2018 23:00,7.5,21,,,0,,64,29,110,Dry,1032,8,35,,,,1.3,
Wick,20/11/2018 00:00,7.5,20,,,0,0,64,,100,Dry,1032,8,30,,,,1.3,
Wick,20/11/2018 01:00,7.2,20,,,0,,68,29,90,Dry,1032,8,29,,,,1.7,
Wick,20/11/2018 02:00,7.1,18,,,0,,67,29,100,Dry,1032,8,25,,,,1.5,
Wick,20/11/2018 03:00,7,21,,,0,,65,30,90,Dry,1031,8,29,,,,0.9,
Wick,20/11/2018 04:00,7.2,18,,,0,,63,30,100,Dry,1031,8,40,,,,0.8,
Wick,20/11/2018 05:00,7,22,,,0,,63,30,90,Dry,1031,8,45,,,,0.5,
Wick,20/11/2018 06:00,7,20,6.7,,0,0,67,29,80,Dry,1031,8,27,,,,1.3,
Wick,20/11/2018 07:00,6.9,22,,,0,,64,31,90,Dry,1031,6,35,,,,0.7,
Wick,20/11/2018 08:00,7.2,22,,,0,,62,29,90,Dry,1030,8,30,,,,0.6,
Wick,20/11/2018 09:00,7.2,21,,,0,,61,32,80,Dry,1030,7,35,,,,0.4,
Wick,20/11/2018 10:00,7.3,21,,,0,,65,29,80,Dry,1029,8,30,,,,1.3,
Wick,20/11/2018 11:00,7.6,22,,,0,,62,30,80,Dry,1029,8,40,,,,0.9,
Wick,20/11/2018 12:00,7.6,21,,,0,0,66,30,90,Dry,1029,8,30,,,,1.8,
Wick,20/11/2018 13:00,7.5,21,,,0,,64,29,90,Dry,1028,7,28,,,,1.2,
Wick,20/11/2018 14:00,7.3,17,,,0,,64,29,80,Dry,1027,7,28,,,,1.1,
Wick,20/11/2018 15:00,7.1,17,,,0,,65,,80,Dry,1026,8,35,,,,1.1,
Wick,20/11/2018 16:00,7.2,21,,,0,,62,29,70,Dry,1026,7,45,,,,0.5,
Wick,20/11/2018 17:00,7.2,18,,,0,,61,29,80,Dry,1026,7,45,,,,0.4,
Wick,20/11/2018 18:00,6.4,18,,7.7,0,0,82,,50,Drizzly rain,1025,7,16,,,,3.7,
Wick,20/11/2018 19:00,6.8,16,,,0.2,,82,,70,Rain,1025,7,35,,,,4.1,
Wick,20/11/2018 20:00,6.7,23,,,0,,77,29,80,Light shower,1025,7,28,,,,3.1,
Wick,20/11/2018 21:00,7.5,18,,,0,,73,,90,Rain,1024,8,28,,,,3,
Wick,20/11/2018 22:00,7.4,22,,,0,,62,30,80,Dry,1024,5,35,,,,0.7,
Wick,20/11/2018 23:00,7.2,17,,,0.2,,78,29,90,Rain,1024,7,35,,,,3.7,
Wick,21/11/2018 00:00,6.9,23,,,0,0.4,66,30,90,Dry,1023,8,35,,,,1.2,
Wick,21/11/2018 01:00,5.9,22,,,0,,79,32,90,Haze,1023,5,10,,,,2.7,
Wick,21/11/2018 02:00,6.6,24,,,0,,78,31,80,Dry,1022,6,19,,,,3.1,
Wick,21/11/2018 03:00,6.5,24,,,0,,78,36,80,Rain,1022,2,12,,,,3.1,
Wick,21/11/2018 04:00,7,26,,,0,,78,35,80,Rain,1022,7,20,,,,3.5,
Wick,21/11/2018 05:00,7,29,,,0,,81,40,80,Rain,1021,6,18,,,,4.1,
Wick,21/11/2018 06:00,7,28,5.9,,0.2,0.2,85,39,90,Rain,1021,8,3,,,,4.7,
Wick,21/11/2018 07:00,7.2,31,,,0,,79,41,90,Rain,1021,1,12,,,,3.9,
Wick,21/11/2018 08:00,7.1,31,,,0.2,,86,45,90,Light shower,1021,8,6,,,,5,
Wick,21/11/2018 09:00,7.8,31,,,0,,79,46,90,Rain,1021,8,12,,,,4.4,
Wick,21/11/2018 10:00,8,33,,,0,,79,45,90,Dry,1021,8,15,,,,4.6,
Wick,21/11/2018 11:00,8.2,32,,,0,,80,44,90,Haze,1022,8,10,,,,5,
Wick,21/11/2018 12:00,8.5,30,,,0,0.2,78,43,100,Haze,1021,8,11,,,,4.9,
Wick,21/11/2018 13:00,8.3,30,,,0,,83,45,100,Rain,1021,1,11,,,,5.7,
Wick,21/11/2018 14:00,8.2,30,,,0.2,,85,43,100,Rain,1021,2,9,,,,6,
Wick,21/11/2018 15:00,8.2,29,,,0.2,,84,41,100,Rain,1021,8,8,,,,5.7,
Wick,21/11/2018 16:00,8.5,26,,,0,,82,44,100,Haze,1021,8,9,,,,5.7,
Wick,21/11/2018 17:00,8.2,26,,,0,,84,41,110,Rain,1021,8,8,,,,5.8,
Wick,21/11/2018 18:00,8,24,,8.7,0.4,0.8,86,38,120,Light shower,1022,1,9,,,,5.9,
Wick,21/11/2018 19:00,8.4,23,,,0,,83,37,120,Rain,1022,8,10,,,,5.8,
Wick,21/11/2018 20:00,8.6,21,,,0,,80,36,110,Rain,1022,1,11,,,,5.5,
Wick,21/11/2018 21:00,7.9,21,,,1.4,,89,32,110,Light shower,1023,3,8,,,,6.3,
Wick,21/11/2018 22:00,8.1,17,,,2,,84,32,130,Light rain,1023,8,23,,,,5.6,
Wick,21/11/2018 23:00,8.4,16,,,0.2,,79,,130,Rain,1023,1,23,,,,5.1,
Wick,22/11/2018 00:00,8.4,14,,,0,4,82,,120,Dry,1024,8,12,,,,5.6,
Wick,22/11/2018 01:00,7.9,16,,,0,,88,,110,Drizzly rain,1024,8,9,,,,6.1,
Wick,22/11/2018 02:00,7.7,12,,,0.4,,88,,120,Rain,1024,8,19,,,,5.9,
Wick,22/11/2018 03:00,7.6,10,,,0,,90,,140,Light shower,1024,8,15,,,,6.2,
Wick,22/11/2018 04:00,7.3,10,,,0.4,,93,,140,Rain,1024,8,20,,,,6.3,
Wick,22/11/2018 05:00,7.9,14,,,0.4,,87,,120,Rain,1024,8,20,,,,5.9,
Wick,22/11/2018 06:00,7.9,14,7.2,,0,1,90,,110,Drizzle,1024,8,12,,,,6.4,
Wick,22/11/2018 07:00,8.1,10,,,0.2,,91,,120,Drizzle,1024,5,15,,,,6.8,
Wick,22/11/2018 08:00,8.2,17,,,0,,88,,120,Dry,1024,2,20,,,,6.4,
Wick,22/11/2018 09:00,8,16,,,0,,92,,120,Haze,1024,8,4,,,,6.9,
Wick,22/11/2018 10:00,8.2,16,,,0.2,,89,,120,Rain,1024,8,15,,,,6.6,
Wick,22/11/2018 11:00,8.2,16,,,0,,89,,120,Dry,1024,8,15,,,,6.5,
Wick,22/11/2018 12:00,8.3,15,,,0.2,0.6,89,29,120,Rain,1024,7,14,,,,6.7,
Wick,22/11/2018 13:00,8.5,18,,,0,,85,,110,Dry,1024,3,14,,,,6.2,
Wick,22/11/2018 14:00,8.3,20,,,0,,87,,110,Dry,1024,8,18,,,,6.3,
Wick,22/11/2018 15:00,8.1,20,,,0,,81,,110,Dry,1024,8,29,,,,5.2,
Wick,22/11/2018 16:00,8,18,,,0,,82,,100,Dry,1024,2,18,,,,5.2,
Wick,22/11/2018 17:00,7.8,17,,,0,,80,,100,Dry,1024,7,26,,,,4.6,
Wick,22/11/2018 18:00,7.9,15,,8.6,0,0,81,,90,Dry,1024,1,24,,,,4.9,
Wick,22/11/2018 19:00,6.9,17,,,0.8,,90,,80,Light shower,1024,8,7,,,,5.5,
Wick,22/11/2018 20:00,7.4,14,,,0,,78,,90,Rain,1024,8,28,,,,3.9,
Wick,22/11/2018 21:00,7.4,17,,,0,,77,,90,Dry,1024,8,21,,,,3.7,
Wick,22/11/2018 22:00,7.4,18,,,0,,73,,90,Dry,1024,4,30,,,,3,
Wick,22/11/2018 23:00,7.1,15,,,0,,75,,90,Dry,1024,8,29,,,,3.1,
Wick,23/11/2018 00:00,7.3,17,,,0,0.8,75,,80,Dry,1023,8,30,,,,3.2,
Wick,23/11/2018 01:00,7.4,16,,,0,,72,,90,Dry,1023,1,30,,,,2.7,
Wick,23/11/2018 02:00,7.1,15,,,0,,70,,90,Dry,1023,1,45,,,,2.2,
Wick,23/11/2018 03:00,7.4,16,,,0,,72,,90,Dry,1022,8,30,,,,2.8,
Wick,23/11/2018 04:00,7,16,,,0,,73,,80,Dry,1022,8,35,,,,2.6,
Wick,23/11/2018 05:00,6.7,17,,,0,,82,,60,Dry,1022,1,30,,,,3.9,
Wick,23/11/2018 06:00,6.3,18,6.1,,0,0,80,,70,Dry,1022,7,45,,,,3.2,
Wick,23/11/2018 07:00,6.7,13,,,0.2,,80,,100,Light shower,1022,8,40,,,,3.6,
Wick,23/11/2018 08:00,6.8,14,,,0,,78,,80,Rain,1022,4,50,,,,3.4,
Wick,23/11/2018 09:00,6.2,14,,,0,,81,,70,Dry,1022,4,35,,,,3.3,
Wick,23/11/2018 10:00,6.6,13,,,0,,85,,60,Rain,1022,8,45,,,,4.3,
Wick,23/11/2018 11:00,7.2,20,,,0,,75,,80,Dry,1022,8,50,,,,3.2,
Wick,23/11/2018 12:00,6.6,21,,,0,0.2,86,,90,Dry,1021,2,20,,,,4.5,
Wick,23/11/2018 13:00,6.8,16,,,0,,81,,90,Dry,1020,7,35,,,,3.8,
Wick,23/11/2018 14:00,6.5,12,,,0,,81,,80,Rain,1020,8,35,,,,3.6,
Wick,23/11/2018 15:00,6.7,15,,,0,,78,,80,Dry,1020,1,40,,,,3.2,
Wick,23/11/2018 16:00,6.6,14,,,0,,81,,70,Dry,1020,7,40,,,,3.6,
Wick,23/11/2018 17:00,7.2,12,,,0,,77,,70,Dry,1019,8,50,,,,3.6,
Wick,23/11/2018 18:00,6.7,13,,7.3,0.2,0.2,83,,70,Rain,1019,7,45,,,,4.1,
Wick,23/11/2018 19:00,6.7,13,,,0.2,,81,,60,Rain,1019,2,45,,,,3.7,
Wick,23/11/2018 20:00,7,14,,,0,,82,,70,Dry,1019,7,45,,,,4.2,
Wick,23/11/2018 21:00,6.5,13,,,0.2,,82,,80,Moderate shower,1019,1,11,,,,3.8,
Wick,23/11/2018 22:00,6.8,12,,,0.6,,88,,70,Rain,1018,8,45,,,,5,
Wick,23/11/2018 23:00,7.2,14,,,0.2,,84,,90,Rain,1018,8,50,,,,4.8,
Wick,24/11/2018 00:00,7.2,12,,,0,1,88,,90,Haze,1018,5,11,,,,5.4,
Wick,24/11/2018 01:00,7.2,13,,,0,,88,,80,Light shower,1018,1,35,,,,5.4,
Wick,24/11/2018 02:00,7.5,13,,,0,,83,,80,Rain,1018,7,50,,,,4.9,
Wick,24/11/2018 03:00,7.2,13,,,0,,85,,70,Dry,1018,8,45,,,,4.9,
Wick,24/11/2018 04:00,6.4,13,,,0,,87,,50,Dry,1018,7,45,,,,4.4,
Wick,24/11/2018 05:00,6.4,10,,,0,,84,,60,Dry,1018,1,50,,,,3.9,
Wick,24/11/2018 06:00,5.8,9,5.6,,0,0,85,,60,Dry,1018,4,50,,,,3.6,
Wick,24/11/2018 07:00,6.5,6,,,0,,82,,70,Dry,1018,7,50,,,,3.7,
Wick,24/11/2018 08:00,6.1,5,,,0,,82,,30,Dry,1019,8,50,,,,3.3,
Wick,24/11/2018 09:00,6.5,9,,,0,,79,,30,Rain,1019,1,50,,,,3.2,
Wick,24/11/2018 10:00,7.2,8,,,0,,77,,30,Dry,1019,7,40,,,,3.6,
Wick,24/11/2018 11:00,7.1,12,,,0,,81,,60,Dry,1019,1,40,,,,4.2,
Wick,24/11/2018 12:00,6.6,8,,,0,0,86,,50,Dry,1019,8,45,,,,4.5,
Wick,24/11/2018 13:00,6.9,10,,,0,,74,,40,Rain,1019,4,45,,,,2.6,
Wick,24/11/2018 14:00,6.7,10,,,0,,77,,40,Rain,1019,8,50,,,,3,
Wick,24/11/2018 15:00,6.5,10,,,0,,78,,70,Dry,1019,2,45,,,,3,
Wick,24/11/2018 16:00,4.9,7,,,0,,80,,50,Rain,1019,4,50,,,,1.8,
Wick,24/11/2018 17:00,4,7,,,0,,83,,40,Dry,1019,5,40,,,,1.5,
Wick,24/11/2018 18:00,6.2,9,,7.9,0,0,84,,20,Dry,1019,8,45,,,,3.8,
Wick,24/11/2018 19:00,6.1,7,,,0,,83,,30,Rain,1019,3,40,,,,3.5,
Wick,24/11/2018 20:00,6.1,2,,,0,,88,,350,Dry,1019,8,25,,,,4.3,
Wick,24/11/2018 21:00,5.7,10,,,0.2,,88,,20,Light shower,1019,8,23,,,,4,
Wick,24/11/2018 22:00,4.2,6,,,0,,87,,360,Rain,1019,8,45,,,,2.3,
Wick,24/11/2018 23:00,3.6,5,,,0.2,,95,,220,Moderate shower,1019,8,19,,,,2.9,
Wick,25/11/2018 00:00,3.9,5,,,0.6,1,95,,320,Drizzly rain,1020,1,21,,,,3.3,
Wick,25/11/2018 01:00,3.2,2,,,0,,95,,260,Rain,1020,3,30,,,,2.6,
Wick,25/11/2018 02:00,2.7,2,,,0,,97,,280,Dry,1020,4,26,,,,2.3,
Wick,25/11/2018 03:00,5.9,14,,,0,,83,,120,Dry,1020,3,45,,,,3.4,
Wick,25/11/2018 04:00,6.5,9,,,0,,75,,120,Dry,1020,7,40,,,,2.5,
Wick,25/11/2018 05:00,6.5,15,,,0,,76,,90,Dry,1020,8,45,,,,2.6,
Wick,25/11/2018 06:00,6.4,12,2.5,,0,0,78,,90,Dry,1020,8,30,,,,3,
Wick,25/11/2018 07:00,5.8,15,,,0.2,,77,,90,Rain,1021,2,45,,,,2.2,
Wick,25/11/2018 08:00,5.3,14,,,0,,80,,100,Dry,1021,5,17,,,,2.2,
Wick,25/11/2018 09:00,6.4,16,,,0,,71,,90,Rain,1022,7,45,,,,1.7,
Wick,25/11/2018 10:00,6.2,13,,,0,,66,,80,Rain,1022,1,35,,,,0.5,
Wick,25/11/2018 11:00,6.1,18,,,0,,74,,70,Dry,1022,7,40,,,,1.9,
Wick,25/11/2018 12:00,6.6,13,,,0,0.2,70,,80,Dry,1022,8,45,,,,1.6,
Wick,25/11/2018 13:00,6.4,16,,,0,,66,,70,Dry,1022,8,35,,,,0.7,
Wick,25/11/2018 14:00,6.5,12,,,0,,61,,90,Dry,1022,8,45,,,,-0.3,
Wick,25/11/2018 15:00,6.2,9,,,0,,61,,100,Dry,1022,8,45,,,,-0.6,
Wick,25/11/2018 16:00,6.3,7,,,0,,65,,50,Dry,1022,8,45,,,,0.3,
Wick,25/11/2018 17:00,5.4,5,,,0,,68,,120,Dry,1022,1,45,,,,0,
Wick,25/11/2018 18:00,5.7,8,,6.8,0,0,70,,90,Dry,1022,7,50,,,,0.7,
Wick,25/11/2018 19:00,5.7,9,,,0,,73,,90,Dry,1022,3,45,,,,1.4,
Wick,25/11/2018 20:00,5.4,5,,,0,,77,,80,Rain,1022,7,50,,,,1.8,
Wick,25/11/2018 21:00,5.2,8,,,0.2,,70,,70,Rain,1022,2,50,,,,0.3,
Wick,25/11/2018 22:00,5.2,10,,,0,,82,,40,Rain,1022,7,45,,,,2.5,
Wick,25/11/2018 23:00,6.1,9,,,0,,82,,80,Dry,1021,1,45,,,,3.3,
Wick,26/11/2018 00:00,5.7,5,,,0.4,0.6,87,,110,Light rain,1022,1,30,,,,3.8,
Wick,26/11/2018 01:00,5.6,2,,,0,,84,,150,Rain,1021,6,40,,,,3.2,
Wick,26/11/2018 02:00,4.3,3,,,0.6,,91,,180,Light shower,1021,8,16,,,,3,
Wick,26/11/2018 03:00,3.5,3,,,0,,95,,260,Rain,1021,8,50,,,,2.8,
Wick,26/11/2018 04:00,5.1,6,,,0,,81,,110,Light shower,1021,6,25,,,,2.2,
Wick,26/11/2018 05:00,5.2,6,,,0.2,,75,,100,Rain,1021,8,50,,,,1.3,
Wick,26/11/2018 06:00,4.3,3,2.8,,0,0.4,82,,200,Precipitation,1021,8,50,,,,1.6,
Wick,26/11/2018 07:00,5.5,6,,,0,,71,,110,Dry,1021,7,50,,,,0.7,
Wick,26/11/2018 08:00,3.6,2,,,0,,81,,310,Dry,1021,8,40,,,,0.8,
Wick,26/11/2018 09:00,3.1,2,,,0,,89,,260,Dry,1021,8,40,,,,1.6,
Wick,26/11/2018 10:00,2.6,2,,,0,,93,,270,Dry,1021,8,35,,,,1.7,
Wick,26/11/2018 11:00,3.8,2,,,0,,96,,290,Dry,1021,8,35,,,,3.3,
Wick,26/11/2018 12:00,4,2,,,0,0,95,,250,Dry,1021,8,30,,,,3.4,
Wick,26/11/2018 13:00,4.6,1,,,0,,95,,320,Dry,1021,8,29,,,,4,
Wick,26/11/2018 14:00,5.4,3,,,0,,83,,40,Dry,1020,8,45,,,,2.9,
Wick,26/11/2018 15:00,5,2,,,0,,81,,50,Dry,1020,7,50,,,,2.1,
Wick,26/11/2018 16:00,4.6,0,,,0,,85,,0,Dry,1020,8,50,,,,2.4,
Wick,26/11/2018 17:00,4.7,3,,,0.2,,84,,70,Light shower,1020,8,26,,,,2.3,
Wick,26/11/2018 18:00,4.7,2,,5.8,0.4,0.6,82,,120,Rain,1020,8,50,,,,2,
Wick,26/11/2018 19:00,3.6,0,,,0,,87,,0,Dry,1020,8,30,,,,1.8,
Wick,26/11/2018 20:00,4.2,3,,,0,,87,,220,Rain,1020,8,50,,,,2.3,
Wick,26/11/2018 21:00,3.7,3,,,0,,89,,110,Dry,1020,6,50,,,,2.1,
Wick,26/11/2018 22:00,4.7,6,,,0.2,,85,,150,Light shower,1020,8,11,,,,2.4,
Wick,26/11/2018 23:00,3.7,2,,,0,,86,,240,Rain,1020,4,50,,,,1.6,
Wick,27/11/2018 00:00,4.7,6,,,0,0.2,80,,130,Dry,1019,5,45,,,,1.7,
Wick,27/11/2018 01:00,4.9,7,,,0,,77,,130,Dry,1019,5,50,,,,1.3,
Wick,27/11/2018 02:00,5.8,8,,,0,,72,,130,Dry,1018,7,50,,,,1.3,
Wick,27/11/2018 03:00,6,13,,,0,,69,,130,Dry,1018,8,50,,,,0.9,
Wick,27/11/2018 04:00,5.7,13,,,0,,69,,150,Dry,1018,5,45,,,,0.5,
Wick,27/11/2018 05:00,6,9,,,0,,68,,140,Dry,1017,6,50,,,,0.6,
Wick,27/11/2018 06:00,5.9,10,1.9,,0,0,66,,140,Dry,1017,7,45,,,,0.2,
Wick,27/11/2018 07:00,5.9,15,,,0,,67,,120,Dry,1016,2,50,,,,0.4,
Wick,27/11/2018 08:00,6.1,15,,,0,,70,,120,Dry,1016,1,50,,,,1.1,
Wick,27/11/2018 09:00,6.6,17,,,0,,82,,110,Dry,1015,6,50,,,,3.8,
Wick,27/11/2018 10:00,7,18,,,0,,78,30,120,Dry,1014,8,30,,,,3.6,
Wick,27/11/2018 11:00,7.4,23,,,0,,75,33,120,Dry,1014,7,30,,,,3.3,
Wick,27/11/2018 12:00,7.5,24,,,0,0,76,38,120,Dry,1013,8,30,,,,3.7,
Wick,27/11/2018 13:00,7.7,23,,,0,,83,36,120,Dry,1012,7,24,,,,5.1,
Wick,27/11/2018 14:00,7.8,25,,,0,,79,36,130,Dry,1012,7,26,,,,4.5,
Wick,27/11/2018 15:00,7.4,26,,,0,,81,39,130,Rain,1010,8,22,,,,4.5,
Wick,27/11/2018 16:00,7.4,28,,,0,,76,39,130,Dry,1010,6,21,,,,3.5,
Wick,27/11/2018 17:00,7.8,26,,,0,,70,38,120,Dry,1009,8,24,,,,2.8,
Wick,27/11/2018 18:00,7.7,24,,7.9,0,0,78,39,130,Dry,1009,8,27,,,,4.2,
Wick,27/11/2018 19:00,7.5,25,,,0,,76,41,130,Rain,1008,2,28,,,,3.6,
Wick,27/11/2018 20:00,7.9,28,,,0,,68,43,140,Dry,1008,8,14,,,,2.4,
Wick,27/11/2018 21:00,7.9,25,,,0,,76,43,130,Dry,1006,8,13,,,,4,
Wick,27/11/2018 22:00,8.1,28,,,0,,77,43,130,Dry,1006,8,13,,,,4.5,
Wick,27/11/2018 23:00,7.9,30,,,0,,80,48,130,Dry,1006,8,13,,,,4.7,
Wick,28/11/2018 00:00,7.9,31,,,0,0,81,45,130,Dry,1005,7,12,,,,5,
Wick,28/11/2018 01:00,7.9,26,,,0,,88,46,130,Dry,1004,6,10,,,,6.1,
Wick,28/11/2018 02:00,8.3,28,,,0,,85,43,130,Dry,1003,7,11,,,,6,
Wick,28/11/2018 03:00,8.4,24,,,0,,86,44,140,Dry,1002,7,12,,,,6.3,
Wick,28/11/2018 04:00,8.6,25,,,0,,86,45,140,Dry,1000,7,12,,,,6.4,
Wick,28/11/2018 05:00,8.7,28,,,0,,87,43,130,Dry,1000,8,11,,,,6.8,
Wick,28/11/2018 06:00,8.8,25,7,,0,0,89,39,130,Haze,998,8,12,,,,7.2,
Wick,28/11/2018 07:00,8.6,23,,,0.2,,94,40,140,Light shower,996,8,10,,,,7.8,
Wick,28/11/2018 08:00,8.7,26,,,0,,84,43,140,Rain,995,8,11,,,,6.2,
Wick,28/11/2018 09:00,8.9,28,,,0,,84,45,150,Haze,994,8,8,,,,6.5,
Wick,28/11/2018 10:00,9,25,,,0,,84,46,140,Dry,993,5,11,,,,6.5,
Wick,28/11/2018 11:00,8.7,23,,,0.2,,90,46,140,Light shower,992,8,6,,,,7.3,
Wick,28/11/2018 12:00,9.2,29,,,0.2,0.6,91,48,140,Rain,988,8,5,,,,7.9,
Wick,28/11/2018 13:00,9.5,28,,,0,,93,52,130,Rain,987,8,9,,,,8.5,
Wick,28/11/2018 14:00,10.1,29,,,0,,91,45,140,Haze,984,8,9,,,,8.7,
Wick,28/11/2018 15:00,9.9,32,,,0,,96,49,130,Misty,981,8,5,,,,9.3,
Wick,28/11/2018 16:00,10.6,28,,,0,,93,48,130,Haze,980,8,7,,,,9.6,
Wick,28/11/2018 17:00,10.9,31,,,0.6,,93,46,140,Light shower,978,7,6,,,,9.9,
Wick,28/11/2018 18:00,11.5,29,,11.5,0,0.4,90,47,140,Rain,976,8,6,,,,10,
Wick,28/11/2018 19:00,11.5,25,,,0,,89,48,150,Haze,975,7,5,,,,9.9,
Wick,28/11/2018 20:00,11.5,26,,,0,,88,41,150,Haze,975,8,7,,,,9.6,
Wick,28/11/2018 21:00,12.3,25,,,0,,82,41,170,Dry,976,5,12,,,,9.4,
Wick,28/11/2018 22:00,12,30,,,0,,75,45,220,Dry,978,7,50,,,,7.8,
Wick,28/11/2018 23:00,11.1,30,,,0,,72,44,220,Dry,981,7,30,,,,6.4,
Wick,29/11/2018 00:00,10.6,25,,,0,0,74,41,220,Dry,983,4,25,,,,6.2,
Wick,29/11/2018 01:00,9.7,16,,,0,,76,32,200,Dry,985,8,24,,,,5.7,
Wick,29/11/2018 02:00,9.4,21,,,0,,62,36,210,Dry,986,2,30,,,,2.6,
Wick,29/11/2018 03:00,9.2,21,,,0,,76,30,200,Dry,987,1,16,,,,5.3,
Wick,29/11/2018 04:00,9.2,21,,,0,,76,33,190,Dry,988,0,25,,,,5.2,
Wick,29/11/2018 05:00,9.4,18,,,0,,76,,180,Dry,988,2,16,,,,5.5,
Wick,29/11/2018 06:00,9.8,15,8.9,,0,0,72,,170,Dry,988,7,14,,,,5.1,
Wick,29/11/2018 07:00,9.3,16,,,0,,81,,160,Dry,987,0,14,,,,6.3,
Wick,29/11/2018 08:00,9.4,17,,,0,,80,,160,Dry,986,8,15,,,,6.3,
Wick,29/11/2018 09:00,9.3,22,,,0,,80,33,160,Dry,986,1,15,,,,6.1,
Wick,29/11/2018 10:00,9.1,21,,,0,,86,37,150,Light shower,986,8,8,,,,6.9,
Wick,29/11/2018 11:00,8.4,17,,,0.6,,85,32,160,Light rain,984,8,9,,,,6.1,
Wick,29/11/2018 12:00,7.9,12,,,1,2,88,,140,Light rain,982,8,9,,,,6.2,
Wick,29/11/2018 13:00,7.7,9,,,1.4,,94,,110,Light drizzle,979,3,7,,,,6.8,
Wick,29/11/2018 14:00,7.6,5,,,1.4,,95,,20,Light rain,976,6,5,,,,7,
Wick,29/11/2018 15:00,6.9,15,,,3.2,,98,,260,Moderate rain,975,8,5,,,,6.7,
Wick,29/11/2018 16:00,6.4,13,,,2.6,,99,,260,Moderate rain,975,7,9,,,,6.3,
Wick,29/11/2018 17:00,6.5,14,,,0.6,,93,,230,Light rain,976,7,30,,,,5.6,
Wick,29/11/2018 18:00,7,16,,9.9,0,9,92,,190,Rain,977,8,40,,,,5.9,
Wick,29/11/2018 19:00,6.9,22,,,0,,88,29,190,Dry,977,1,35,,,,5.1,
Wick,29/11/2018 20:00,7,12,,,0,,85,,200,Dry,977,4,40,,,,4.7,
Wick,29/11/2018 21:00,8.1,22,,,0,,79,32,180,Dry,978,6,40,,,,4.8,
Wick,29/11/2018 22:00,8.3,22,,,0,,76,35,190,Dry,978,8,40,,,,4.5,
Wick,29/11/2018 23:00,8.3,24,,,0,,78,39,180,Dry,977,5,40,,,,4.7,
Wick,30/11/2018 00:00,8.5,23,,,0,0,77,36,180,Dry,977,8,30,,,,4.8,
Wick,30/11/2018 01:00,8.2,25,,,0,,74,39,180,Dry,977,8,30,,,,4,
Wick,30/11/2018 02:00,8.2,29,,,0,,73,41,180,Dry,976,1,35,,,,3.8,
Wick,30/11/2018 03:00,7.6,33,,,0,,76,58,190,Dry,976,8,30,,,,3.8,
Wick,30/11/2018 04:00,7.4,33,,,0,,78,51,200,Dry,975,7,40,,,,4,
Wick,30/11/2018 05:00,7.4,31,,,0,,78,51,200,Dry,976,5,30,,,,4,
Wick,30/11/2018 06:00,7.3,29,6.7,,0,0,81,46,190,Dry,977,4,28,,,,4.4,
Wick,30/11/2018 07:00,7.5,29,,,0,,82,45,190,Dry,977,0,21,,,,4.8,
Wick,30/11/2018 08:00,7.9,26,,,0,,83,43,190,Dry,978,7,21,,,,5.2,
Wick,30/11/2018 09:00,7.5,26,,,0,,84,40,200,Dry,979,5,26,,,,5,
Wick,30/11/2018 10:00,7.3,26,,,0,,84,41,200,Dry,981,5,25,,,,4.8,
Wick,30/11/2018 11:00,7.4,25,,,0,,85,41,210,Haze,982,7,9,,,,5.1,
Wick,30/11/2018 12:00,7.4,24,,,0,0,83,35,210,Dry,982,4,19,,,,4.8,
Wick,30/11/2018 13:00,7.6,18,,,0,,75,33,210,Dry,983,1,35,,,,3.6,
Wick,30/11/2018 14:00,7.2,23,,,0,,73,36,200,Dry,983,0,35,,,,2.7,
Wick,30/11/2018 15:00,6.8,17,,,0,,75,31,190,Dry,984,2,40,,,,2.7,
Wick,30/11/2018 16:00,5.9,23,,,0,,74,36,210,Dry,984,4,50,,,,1.7,
Wick,30/11/2018 17:00,6.2,23,,,0,,81,35,200,Dry,985,8,30,,,,3.3,
Wick,30/11/2018 18:00,5.7,24,,8,0,0,83,37,220,Rain,986,8,21,,,,3.1,
Wick,30/11/2018 19:00,6.5,25,,,0,,85,33,220,Dry,986,7,30,,,,4.3,
Wick,30/11/2018 20:00,6.2,20,,,0.4,,91,37,250,Light shower,988,5,11,,,,4.9,
Wick,30/11/2018 21:00,6,18,,,0,,86,,230,Rain,989,6,25,,,,4,
Wick,30/11/2018 22:00,5.5,21,,,0,,85,33,250,Dry,990,0,40,,,,3.2,
Wick,30/11/2018 23:00,4.4,12,,,0,,86,,230,Dry,991,0,30,,,,2.3,
Wick,01/12/2018 00:00,4.3,14,,,0,0.4,83,,230,Dry,992,2,26,,,,1.7,
Wick,01/12/2018 01:00,4.7,20,,,0,,81,,230,Dry,993,3,35,,,,1.8,
Wick,01/12/2018 02:00,4,17,,,0,,83,,240,Dry,994,7,40,,,,1.5,
Wick,01/12/2018 03:00,4.4,16,,,0,,82,,220,Dry,994,8,50,,,,1.7,
Wick,01/12/2018 04:00,4.3,14,,,0,,81,,220,Dry,994,8,40,,,,1.4,
Wick,01/12/2018 05:00,4.5,15,,,0,,83,,210,Dry,994,8,50,,,,1.9,
Wick,01/12/2018 06:00,4.8,16,4,,0,0,78,,220,Dry,995,8,45,,,,1.3,
Wick,01/12/2018 07:00,4.5,13,,,0,,80,,220,Dry,995,8,40,,,,1.4,
Wick,01/12/2018 08:00,4.6,12,,,0,,78,,210,Dry,995,8,40,,,,1.2,
Wick,01/12/2018 09:00,4.5,9,,,0,,79,,170,Dry,996,0,40,,,,1.3,
Wick,01/12/2018 10:00,5.4,12,,,0,,80,,190,Dry,996,8,35,,,,2.3,
Wick,01/12/2018 11:00,5.8,9,,,0,,79,,180,Dry,996,8,23,,,,2.6,
Wick,01/12/2018 12:00,6,13,,,0,0,82,,190,Dry,996,8,35,,,,3.2,
Wick,01/12/2018 13:00,6.3,14,,,0,,82,,190,Dry,995,1,30,,,,3.6,
Wick,01/12/2018 14:00,6.4,9,,,0,,80,,190,Dry,995,8,45,,,,3.3,
Wick,01/12/2018 15:00,6.3,12,,,0,,84,,190,Dry,995,8,45,,,,3.8,
Wick,01/12/2018 16:00,5.9,12,,,0,,82,,180,Dry,995,8,45,,,,3.2,
Wick,01/12/2018 17:00,5.6,10,,,0,,82,,190,Dry,994,5,50,,,,2.9,
Wick,01/12/2018 18:00,5.4,9,,6.4,0,0,82,,180,Dry,994,6,40,,,,2.7,
Wick,01/12/2018 19:00,5,9,,,0,,83,,180,Dry,993,1,40,,,,2.5,
Wick,01/12/2018 20:00,4.2,7,,,0,,88,,200,Dry,993,0,40,,,,2.5,
Wick,01/12/2018 21:00,5.1,6,,,0,,86,,190,Dry,992,0,35,,,,3,
Wick,01/12/2018 22:00,5.3,10,,,0,,85,,180,Dry,992,0,40,,,,3,
Wick,01/12/2018 23:00,5.1,8,,,0,,86,,190,Dry,991,8,50,,,,3.1,
Wick,02/12/2018 00:00,4.7,7,,,0,0,88,,210,Dry,991,0,45,,,,2.9,
Wick,02/12/2018 01:00,4.5,7,,,0,,88,,180,Dry,990,8,35,,,,2.7,
Wick,02/12/2018 02:00,4.6,7,,,0,,83,,210,Dry,990,7,50,,,,2.1,
Wick,02/12/2018 03:00,4.4,6,,,0,,83,,210,Dry,990,8,45,,,,1.9,
Wick,02/12/2018 04:00,3.5,6,,,0,,87,,240,Dry,989,8,35,,,,1.7,
Wick,02/12/2018 05:00,3,5,,,0,,86,,230,Dry,989,8,50,,,,1,
Wick,02/12/2018 06:00,2.6,6,2.6,,0,0,87,,240,Dry,989,8,50,,,,0.8,
Wick,02/12/2018 07:00,2.5,5,,,0,,87,,240,Dry,989,2,50,,,,0.6,
Wick,02/12/2018 08:00,2.3,5,,,0,,88,,230,Dry,989,0,45,,,,0.6,
Wick,02/12/2018 09:00,2.4,3,,,0,,88,,230,Dry,989,0,45,,,,0.7,
Wick,02/12/2018 10:00,4,7,,,0,,84,,190,Dry,989,1,45,,,,1.7,
Wick,02/12/2018 11:00,4.2,5,,,0,,82,,210,Dry,989,4,30,,,,1.5,
Wick,02/12/2018 12:00,4.5,5,,,0,0,82,,210,Dry,988,0,50,,,,1.8,
Wick,02/12/2018 13:00,5.2,6,,,0,,78,,170,Dry,988,2,45,,,,1.7,
Wick,02/12/2018 14:00,5.6,3,,,0,,83,,190,Dry,988,0,35,,,,3.1,
Wick,02/12/2018 15:00,5.8,5,,,0,,89,,150,Dry,987,7,45,,,,4.2,
Wick,02/12/2018 16:00,6.4,7,,,0,,89,,140,Dry,986,8,50,,,,4.8,
Wick,02/12/2018 17:00,6.7,8,,,0,,87,,140,Dry,986,8,45,,,,4.8,
Wick,02/12/2018 18:00,7.1,9,,7.1,0,0,84,,130,Dry,986,8,45,,,,4.7,
Wick,02/12/2018 19:00,7,14,,,0.2,,81,,120,Rain,985,8,40,,,,4.1,
Wick,02/12/2018 20:00,7.3,15,,,0,,87,,130,Dry,984,8,45,,,,5.4,
Wick,02/12/2018 21:00,7.2,7,,,0,,86,,170,Light shower,984,8,22,,,,5.1,
Wick,02/12/2018 22:00,5.9,2,,,1,,93,,260,Light rain,984,8,8,,,,4.9,
Wick,02/12/2018 23:00,5.2,6,,,0.4,,97,,290,Rain,984,8,9,,,,4.8,
Wick,03/12/2018 00:00,4.4,7,,,0,2,98,,270,Misty,984,1,7,,,,4.2,
Wick,03/12/2018 01:00,5,12,,,0,,99,,280,Drizzle,984,8,15,,,,4.9,
Wick,03/12/2018 02:00,5,17,,,0,,97,,320,Dry,984,8,35,,,,4.6,
Wick,03/12/2018 03:00,4.7,20,,,0,,94,,320,Misty,985,8,11,,,,3.9,
Wick,03/12/2018 04:00,4.4,21,,,0,,95,29,320,Dry,986,7,40,,,,3.8,
Wick,03/12/2018 05:00,4.8,22,,,0,,93,32,330,Haze,988,8,30,,,,3.9,
Wick,03/12/2018 06:00,4.5,21,4.3,,0,0,89,32,330,Dry,988,3,40,,,,2.9,
Wick,03/12/2018 07:00,4,17,,,0,,88,33,320,Dry,990,1,45,,,,2.3,
Wick,03/12/2018 08:00,4.3,16,,,0,,84,,330,Dry,991,1,45,,,,1.9,
Wick,03/12/2018 09:00,2.8,10,,,0,,86,,310,Dry,992,1,35,,,,0.7,
Wick,03/12/2018 10:00,3.5,9,,,0,,81,,310,Dry,993,3,21,,,,0.6,
Wick,03/12/2018 11:00,4.4,16,,,0,,77,,310,Dry,994,3,50,,,,0.9,
Wick,03/12/2018 12:00,5.5,15,,,0,0,77,,310,Dry,995,5,30,,,,1.9,
Wick,03/12/2018 13:00,4,13,,,0.2,,80,,310,Rain,996,3,45,,,,0.9,
Wick,03/12/2018 14:00,4,17,,,0.6,,89,,330,Light shower,998,6,16,,,,2.4,
Wick,03/12/2018 15:00,2.8,10,,,0,,83,,320,Rain,998,6,19,,,,0.3,
Wick,03/12/2018 16:00,2.5,10,,,0,,93,,280,Dry,1000,7,30,,,,1.6,
Wick,03/12/2018 17:00,2.5,9,,,0,,82,,290,Dry,1001,5,30,,,,-0.1,
Wick,03/12/2018 18:00,0.9,6,,5.6,0,0.8,87,,280,Dry,1002,6,30,,,,-0.9,
Wick,03/12/2018 19:00,1.4,5,,,0,,83,,280,Dry,1003,6,30,,,,-1.1,
Wick,03/12/2018 20:00,0.8,8,,,0,,89,,250,Dry,1004,5,40,,,,-0.7,
Wick,03/12/2018 21:00,0.1,8,,,0,,92,,250,Dry,1006,1,45,,,,-0.9,
Wick,03/12/2018 22:00,1.1,14,,,0,,94,,250,Dry,1007,5,50,,,,0.3,
Wick,03/12/2018 23:00,1.4,13,,,0,,93,,250,Moderate precip.,1008,7,7,,,,0.5,
Wick,04/12/2018 00:00,0.9,12,,,0.4,0.4,94,,290,Moderate shower,1009,1,5,,,,0.1,
Wick,04/12/2018 01:00,0.9,6,,,0.8,,96,,250,Rain,1010,8,45,,,,0.4,
Wick,04/12/2018 02:00,0.9,7,,,0,,95,,290,Dry,1010,8,50,,,,0.3,
Wick,04/12/2018 03:00,0.7,8,,,0.8,,97,,320,Light shower,1011,1,45,,,,0.3,
Wick,04/12/2018 04:00,0.8,5,,,0,,97,,260,Rain,1011,7,40,,,,0.5,
Wick,04/12/2018 05:00,0,8,,,0,,97,,240,Dry,1012,4,50,,,,-0.4,
Wick,04/12/2018 06:00,0.4,5,-1.1,,0,1.6,97,,300,Dry,1013,7,50,,,,0.1,
Wick,04/12/2018 07:00,0.2,1,,,0,,96,,280,Dry,1013,1,45,,,,-0.3,
Wick,04/12/2018 08:00,1.9,5,,,0,,94,,190,Light shower,1014,8,28,,,,1.1,
Wick,04/12/2018 09:00,1.6,2,,,0.2,,90,,180,Rain,1014,7,40,,,,0.2,
Wick,04/12/2018 10:00,1.6,3,,,0,,93,,340,Dry,1015,7,29,,,,0.7,
Wick,04/12/2018 11:00,1.2,5,,,0,,97,,280,Dry,1015,2,30,,,,0.8,
Wick,04/12/2018 12:00,2,3,,,0,0.2,94,,270,Dry,1015,8,50,,,,1.2,
Wick,04/12/2018 13:00,4,2,,,0,,91,,220,Dry,1015,7,35,,,,2.7,
Wick,04/12/2018 14:00,4,7,,,0,,84,,220,Dry,1015,1,35,,,,1.7,
Wick,04/12/2018 15:00,2.1,7,,,0,,87,,250,Dry,1016,0,50,,,,0.3,
Wick,04/12/2018 16:00,0.9,7,,,0,,93,,260,Dry,1016,0,45,,,,0,
Wick,04/12/2018 17:00,1.6,7,,,0,,92,,250,Dry,1016,0,50,,,,0.5,
Wick,04/12/2018 18:00,1.1,7,,4.5,0,0,92,,230,Dry,1017,1,50,,,,0,
Wick,04/12/2018 19:00,0.6,7,,,0,,92,,230,Dry,1017,1,50,,,,-0.5,
Wick,04/12/2018 20:00,1.4,7,,,0,,89,,230,Dry,1017,1,50,,,,-0.2,
Wick,04/12/2018 21:00,1,8,,,0,,91,,230,Dry,1017,1,50,,,,-0.3,
Wick,04/12/2018 22:00,1,7,,,0,,89,,230,Dry,1017,1,45,,,,-0.5,
Wick,04/12/2018 23:00,0.9,9,,,0,,87,,230,Dry,1017,0,45,,,,-0.9,
Wick,05/12/2018 00:00,2.7,10,,,0,0,84,,220,Dry,1017,0,40,,,,0.3,
Wick,05/12/2018 01:00,0.7,7,,,0,,87,,240,Dry,1017,0,50,,,,-1.2,
Wick,05/12/2018 02:00,1.2,7,,,0,,86,,220,Dry,1017,0,50,,,,-0.8,
Wick,05/12/2018 03:00,1.4,8,,,0,,83,,220,Dry,1017,0,50,,,,-1.1,
Wick,05/12/2018 04:00,0.7,7,,,0,,82,,230,Dry,1017,1,50,,,,-1.9,
Wick,05/12/2018 05:00,0.8,3,,,0,,85,,210,Dry,1017,0,50,,,,-1.3,
Wick,05/12/2018 06:00,0.1,6,-0.2,,0,0,83,,230,Dry,1017,0,50,,,,-2.4,
Wick,05/12/2018 07:00,0.8,5,,,0,,86,,140,Haze,1016,0,10,,,,-1.2,
Wick,05/12/2018 08:00,0.9,6,,,0,,78,,190,Dry,1016,0,50,,,,-2.4,
Wick,05/12/2018 09:00,1.3,6,,,0,,77,,210,Dry,1016,6,50,,,,-2.2,
Wick,05/12/2018 10:00,0.8,2,,,0,,77,,230,Dry,1016,3,50,,,,-2.6,
Wick,05/12/2018 11:00,0.8,3,,,0,,81,,230,Dry,1015,4,45,,,,-2,
Wick,05/12/2018 12:00,2,2,,,0,0,85,,250,Dry,1015,7,35,,,,-0.2,
Wick,05/12/2018 13:00,3.4,2,,,0,,82,,150,Dry,1014,6,40,,,,0.7,
Wick,05/12/2018 14:00,4.9,8,,,0,,64,,130,Dry,1013,2,30,,,,-1.2,
Wick,05/12/2018 15:00,4.6,7,,,0,,68,,130,Dry,1013,1,50,,,,-0.7,
Wick,05/12/2018 16:00,4.4,8,,,0,,76,,110,Dry,1012,1,50,,,,0.6,
Wick,05/12/2018 17:00,5,8,,,0,,75,,120,Dry,1012,6,50,,,,1.1,
Wick,05/12/2018 18:00,4.6,9,,5.4,0,0,79,,100,Dry,1011,0,50,,,,1.4,
Wick,05/12/2018 19:00,5.5,10,,,0,,80,,110,Dry,1011,2,50,,,,2.5,
Wick,05/12/2018 20:00,6.5,14,,,0,,75,,100,Dry,1010,7,50,,,,2.4,
Wick,05/12/2018 21:00,6.6,16,,,0,,72,,110,Dry,1009,7,30,,,,2.1,
Wick,05/12/2018 22:00,7,16,,,0,,81,,110,Dry,1009,6,45,,,,4,
Wick,05/12/2018 23:00,7.1,16,,,0,,88,,120,Haze,1008,8,9,,,,5.3,
Wick,06/12/2018 00:00,7.4,15,,,0,0,81,,130,Dry,1008,3,35,,,,4.4,
Wick,06/12/2018 01:00,7.6,15,,,0,,85,,130,Dry,1008,8,40,,,,5.4,
Wick,06/12/2018 02:00,7.2,15,,,0,,92,,130,Dry,1006,8,35,,,,6.1,
Wick,06/12/2018 03:00,7.3,17,,,0.2,,91,,130,Drizzle,1005,8,45,,,,6,
Wick,06/12/2018 04:00,7.6,15,,,0,,91,,140,Dry,1004,8,30,,,,6.3,
Wick,06/12/2018 05:00,7.5,21,,,0.2,,92,30,130,Drizzle,1002,1,28,,,,6.4,
Wick,06/12/2018 06:00,7.8,24,4.6,,0,0.4,90,35,130,Dry,1001,8,23,,,,6.4,
Wick,06/12/2018 07:00,8,24,,,0,,92,36,140,Dry,1000,8,14,,,,6.9,
Wick,06/12/2018 08:00,7.9,20,,,0.2,,93,35,150,Light drizzle,999,8,10,,,,6.9,
Wick,06/12/2018 09:00,7.7,22,,,2.4,,96,33,150,Light rain,997,8,5,,,,7.2,
Wick,06/12/2018 10:00,7.8,21,,,0.8,,95,36,150,Rain,996,5,7,,,,7.1,
Wick,06/12/2018 11:00,8.1,22,,,0.2,,93,32,160,Light shower,995,7,14,,,,7.1,
Wick,06/12/2018 12:00,8.5,20,,,0.2,4,89,33,170,Rain,994,1,24,,,,6.9,
Wick,06/12/2018 13:00,8.2,12,,,0,,92,,190,Dry,995,7,40,,,,7.1,
Wick,06/12/2018 14:00,8.7,3,,,0,,91,,150,Dry,995,7,13,,,,7.4,
Wick,06/12/2018 15:00,9.2,13,,,0,,81,31,250,Dry,995,7,30,,,,6.2,
Wick,06/12/2018 16:00,8.4,8,,,0,,86,,190,Rain,996,7,18,,,,6.2,
Wick,06/12/2018 17:00,8.4,20,,,0,,79,29,240,Dry,997,2,28,,,,5.1,
Wick,06/12/2018 18:00,7.7,10,,10.2,0,0,84,,240,Dry,998,3,30,,,,5.2,
Wick,06/12/2018 19:00,7.2,8,,,0,,83,,230,Dry,998,0,30,,,,4.6,
Wick,06/12/2018 20:00,7.5,15,,,0,,82,,250,Dry,998,5,30,,,,4.7,
Wick,06/12/2018 21:00,7.8,13,,,0,,76,,210,Dry,998,7,30,,,,3.9,
Wick,06/12/2018 22:00,6.5,9,,,0,,82,,190,Dry,999,4,22,,,,3.8,
Wick,06/12/2018 23:00,7.1,10,,,0,,84,,170,Dry,998,8,20,,,,4.6,
Wick,07/12/2018 00:00,7.8,10,,,0,0,86,,170,Dry,997,0,15,,,,5.7,
Wick,07/12/2018 01:00,7.9,9,,,0,,86,,170,Dry,996,8,13,,,,5.8,
Wick,07/12/2018 02:00,8.4,10,,,0,,82,,160,Dry,993,8,16,,,,5.6,
Wick,07/12/2018 03:00,8.6,15,,,0,,78,,150,Dry,992,7,18,,,,5.1,
Wick,07/12/2018 04:00,8.8,18,,,0,,84,,130,Light shower,989,7,16,,,,6.3,
Wick,07/12/2018 05:00,8.1,17,,,0,,90,29,140,Rain,986,7,11,,,,6.7,
Wick,07/12/2018 06:00,8.3,18,6,,0,0,87,36,140,Dry,985,8,13,,,,6.3,
Wick,07/12/2018 07:00,8.6,20,,,0,,89,36,150,Dry,983,8,14,,,,6.9,
Wick,07/12/2018 08:00,8.9,20,,,0,,85,32,160,Dry,982,7,24,,,,6.6,
Wick,07/12/2018 09:00,8.2,20,,,0,,72,32,190,Dry,981,0,17,,,,3.6,
Wick,07/12/2018 10:00,7.5,22,,,0,,74,36,190,Dry,980,1,25,,,,3.2,
Wick,07/12/2018 11:00,7.6,18,,,0,,75,35,170,Dry,979,5,27,,,,3.5,
Wick,07/12/2018 12:00,7.8,25,,,0,0,75,39,180,Dry,978,4,30,,,,3.8,
Wick,07/12/2018 13:00,7,30,,,0,,77,40,190,Dry,977,1,24,,,,3.4,
Wick,07/12/2018 14:00,7,28,,,0,,78,45,190,Dry,976,1,45,,,,3.6,
Wick,07/12/2018 15:00,6.7,26,,,0,,78,44,190,Dry,975,1,27,,,,3.3,
Wick,07/12/2018 16:00,7,25,,,0,,80,39,180,Dry,974,8,23,,,,3.8,
Wick,07/12/2018 17:00,6.5,22,,,0,,84,39,190,Rain,973,8,21,,,,4,
Wick,07/12/2018 18:00,6.3,26,,9,0.2,0.2,85,38,200,Rain,972,8,35,,,,4.1,
Wick,07/12/2018 19:00,6.4,26,,,0,,87,40,200,Light shower,971,8,10,,,,4.5,
Wick,07/12/2018 20:00,6.5,25,,,0.2,,89,38,210,Rain,970,6,50,,,,4.9,
Wick,07/12/2018 21:00,7.2,23,,,0,,85,35,200,Rain,970,6,40,,,,4.9,
Wick,07/12/2018 22:00,7.1,26,,,0.4,,88,36,220,Rain,969,8,30,,,,5.3,
Wick,07/12/2018 23:00,7.1,29,,,0.4,,92,40,240,Light shower,969,8,5,,,,5.9,
Wick,08/12/2018 00:00,7.5,26,,,0.8,2,93,38,280,Rain,970,2,21,,,,6.5,
Wick,08/12/2018 01:00,6.9,28,,,0,,94,45,290,Dry,973,8,27,,,,6.1,
Wick,08/12/2018 02:00,7.1,23,,,0,,88,36,280,Dry,974,7,35,,,,5.4,
Wick,08/12/2018 03:00,6.9,26,,,0,,93,37,280,Drizzle,975,7,4,,,,5.9,
Wick,08/12/2018 04:00,6.4,23,,,3.6,,93,37,310,Moderate shower,977,8,4,,,,5.4,
Wick,08/12/2018 05:00,6.8,18,,,0.2,,93,,300,Rain,978,7,29,,,,5.8,
Wick,08/12/2018 06:00,6.9,20,6.1,,0,4,92,,300,Dry,980,7,21,,,,5.7,
Wick,08/12/2018 07:00,7,16,,,1.2,,93,30,290,Rain,982,1,20,,,,6.1,
Wick,08/12/2018 08:00,6.6,15,,,0,,93,,280,Dry,983,2,21,,,,5.6,
Wick,08/12/2018 09:00,6.5,14,,,0,,94,,290,Dry,984,6,23,,,,5.7,
Wick,08/12/2018 10:00,7.1,15,,,0,,91,,290,Dry,984,7,35,,,,5.8,
Wick,08/12/2018 11:00,6.8,18,,,0.4,,94,,310,Light drizzle,985,2,17,,,,6,
Wick,08/12/2018 12:00,6.3,14,,,0,2,93,,310,Rain,985,5,28,,,,5.3,
Wick,08/12/2018 13:00,7,13,,,0,,91,,310,Drizzle,985,7,28,,,,5.7,
Wick,08/12/2018 14:00,6.5,20,,,0,,90,,320,Dry,985,1,30,,,,5,
Wick,08/12/2018 15:00,5.9,13,,,0,,94,,310,Dry,985,7,27,,,,5.1,
Wick,08/12/2018 16:00,5.5,13,,,0,,90,,320,Dry,985,5,35,,,,4.1,
Wick,08/12/2018 17:00,5.4,13,,,0,,92,,320,Dry,986,8,24,,,,4.3,
Wick,08/12/2018 18:00,4.8,12,,7.4,0,0,93,,320,Dry,986,5,27,,,,3.8,
Wick,08/12/2018 19:00,3.4,9,,,0,,95,,320,Dry,986,2,27,,,,2.7,
Wick,08/12/2018 20:00,4.1,12,,,0,,95,,310,Dry,987,1,24,,,,3.4,
Wick,08/12/2018 21:00,5.3,14,,,0,,90,,330,Dry,988,7,20,,,,3.8,
Wick,08/12/2018 22:00,5.3,14,,,0,,89,,330,Haze,988,8,7,,,,3.7,
Wick,08/12/2018 23:00,4.9,13,,,0.2,,89,29,320,Rain,989,8,26,,,,3.3,
Wick,09/12/2018 00:00,5.7,14,,,0,0.2,79,,330,Dry,990,7,28,,,,2.4,
Wick,09/12/2018 01:00,4.4,16,,,0,,81,,320,Dry,991,3,17,,,,1.6,
Wick,09/12/2018 02:00,3.6,15,,,0,,86,33,320,Rain,992,4,19,,,,1.6,
Wick,09/12/2018 03:00,3.8,14,,,0.2,,89,,320,Rain,994,6,17,,,,2.2,
Wick,09/12/2018 04:00,4.9,24,,,0,,87,33,340,Rain,995,7,14,,,,3,
Wick,09/12/2018 05:00,5.1,22,,,0,,89,33,350,Dry,997,8,19,,,,3.5,
Wick,09/12/2018 06:00,4.2,16,3,,0,0.2,82,,330,Dry,998,0,15,,,,1.5,
Wick,09/12/2018 07:00,4,17,,,0,,74,29,330,Dry,1000,0,25,,,,-0.2,
Wick,09/12/2018 08:00,3.2,13,,,0,,80,,330,Dry,1002,2,21,,,,0.2,
Wick,09/12/2018 09:00,3.3,13,,,0,,72,,310,Dry,1004,6,20,,,,-1.1,
Wick,09/12/2018 10:00,3.8,10,,,0,,81,,320,Dry,1005,8,15,,,,0.9,
Wick,09/12/2018 11:00,4.2,12,,,0,,80,31,310,Dry,1006,4,24,,,,1.1,
Wick,09/12/2018 12:00,4.1,10,,,0,0,78,,310,Dry,1007,7,30,,,,0.7,
Wick,09/12/2018 13:00,4.1,15,,,0,,74,,320,Dry,1008,7,28,,,,-0.1,
Wick,09/12/2018 14:00,4,13,,,0,,74,,310,Dry,1008,3,40,,,,-0.2,
Wick,09/12/2018 15:00,3.8,13,,,0,,78,,300,Dry,1010,6,23,,,,0.4,
Wick,09/12/2018 16:00,3,7,,,0,,90,,320,Rain,1011,1,35,,,,1.6,
Wick,09/12/2018 17:00,2.9,14,,,0,,81,,330,Dry,1012,0,50,,,,0.1,
Wick,09/12/2018 18:00,2.7,13,,5.3,0,0,85,,330,Dry,1013,5,30,,,,0.5,
Wick,09/12/2018 19:00,1.8,12,,,0.2,,86,,310,Rain,1014,5,45,,,,-0.2,
Wick,09/12/2018 20:00,1.8,10,,,0,,88,,310,Dry,1015,5,26,,,,0.1,
Wick,09/12/2018 21:00,0.6,6,,,0,,92,,260,Rain,1015,4,30,,,,-0.4,
Wick,09/12/2018 22:00,2,16,,,0.2,,90,29,330,Rain,1016,1,24,,,,0.6,
Wick,09/12/2018 23:00,2.2,12,,,0.2,,85,31,300,Moderate precip.,1017,7,8,,,,0,
Wick,10/12/2018 00:00,2.1,10,,,0.4,1,81,,310,Rain,1017,7,45,,,,-0.7,
Wick,10/12/2018 01:00,1.7,13,,,0,,81,,320,Dry,1018,1,30,,,,-1.2,
Wick,10/12/2018 02:00,2,12,,,0,,78,,310,Dry,1019,4,50,,,,-1.4,
Wick,10/12/2018 03:00,1.8,12,,,0,,72,,300,Dry,1020,2,45,,,,-2.6,
Wick,10/12/2018 04:00,2.3,10,,,0,,78,,310,Dry,1020,7,40,,,,-1.1,
Wick,10/12/2018 05:00,2,12,,,0,,73,,310,Dry,1020,4,50,,,,-2.3,
Wick,10/12/2018 06:00,3.3,13,0.3,,0,0,70,,300,Dry,1021,8,50,,,,-1.6,
Wick,10/12/2018 07:00,3.2,9,,,0,,74,,310,Dry,1022,8,30,,,,-0.9,
Wick,10/12/2018 08:00,2.8,8,,,0,,76,,310,Dry,1022,8,50,,,,-1,
Wick,10/12/2018 09:00,2.8,7,,,0,,78,,300,Dry,1023,8,40,,,,-0.6,
Wick,10/12/2018 10:00,3.9,9,,,0,,68,,330,Dry,1024,8,30,,,,-1.4,
Wick,10/12/2018 11:00,3.6,6,,,0,,74,,300,Dry,1024,7,40,,,,-0.5,
Wick,10/12/2018 12:00,4.2,8,,,0,0,73,,320,Dry,1025,8,35,,,,-0.2,
Wick,10/12/2018 13:00,4.2,3,,,0,,75,,270,Dry,1025,8,40,,,,0.2,
Wick,10/12/2018 14:00,4.1,3,,,0,,74,,260,Dry,1025,8,35,,,,-0.1,
Wick,10/12/2018 15:00,3.5,3,,,0,,74,,240,Dry,1025,8,45,,,,-0.6,
Wick,10/12/2018 16:00,1.5,6,,,0,,82,,260,Dry,1025,3,50,,,,-1.1,
Wick,10/12/2018 17:00,1.2,2,,,0,,83,,230,Dry,1025,5,40,,,,-1.3,
Wick,10/12/2018 18:00,1.2,3,,4.6,0,0,76,,230,Dry,1025,7,45,,,,-2.4,
Wick,10/12/2018 19:00,3.2,3,,,0,,65,,170,Dry,1025,7,50,,,,-2.7,
Wick,10/12/2018 20:00,2.1,3,,,0,,74,,190,Dry,1025,8,40,,,,-1.9,
Wick,10/12/2018 21:00,3.1,5,,,0,,67,,140,Dry,1025,8,28,,,,-2.3,
Wick,10/12/2018 22:00,4.5,7,,,0,,65,,140,Dry,1024,6,40,,,,-1.5,
Wick,10/12/2018 23:00,4.9,9,,,0,,64,,150,Dry,1024,0,40,,,,-1.3,
Wick,11/12/2018 00:00,5.3,12,,,0,0,71,,150,Dry,1024,0,45,,,,0.5,
Wick,11/12/2018 01:00,5.5,13,,,0,,68,,140,Dry,1023,0,35,,,,0.2,
Wick,11/12/2018 02:00,5.5,16,,,0,,70,,140,Dry,1023,0,30,,,,0.5,
Wick,11/12/2018 03:00,5.8,15,,,0,,65,,140,Dry,1022,8,50,,,,-0.2,
Wick,11/12/2018 04:00,5.7,16,,,0,,71,,130,Dry,1022,0,40,,,,1,
Wick,11/12/2018 05:00,6,15,,,0,,77,,140,Dry,1021,8,30,,,,2.4,
Wick,11/12/2018 06:00,6.2,17,-0.3,,0,0,77,,140,Dry,1021,8,28,,,,2.6,
Wick,11/12/2018 07:00,6.3,18,,,0,,79,29,140,Dry,1021,8,25,,,,3.1,
Wick,11/12/2018 08:00,6.2,18,,,0,,81,,140,Dry,1020,8,19,,,,3.3,
Wick,11/12/2018 09:00,6.3,17,,,0,,84,,150,Dry,1020,0,30,,,,3.8,
Wick,11/12/2018 10:00,6.6,20,,,0,,82,30,140,Dry,1020,1,18,,,,3.9,
Wick,11/12/2018 11:00,6.9,20,,,0,,85,30,150,Dry,1019,5,20,,,,4.6,
Wick,11/12/2018 12:00,7.1,20,,,0,0,85,31,150,Dry,1019,4,18,,,,4.8,
Wick,11/12/2018 13:00,7.1,17,,,0,,84,29,150,Dry,1019,1,20,,,,4.7,
Wick,11/12/2018 14:00,7.2,15,,,0,,85,,150,Dry,1018,1,30,,,,5,
Wick,11/12/2018 15:00,7.4,14,,,0,,88,,140,Dry,1018,2,19,,,,5.6,
Wick,11/12/2018 16:00,7.4,14,,,0,,89,,150,Dry,1018,5,14,,,,5.8,
Wick,11/12/2018 17:00,7.4,15,,,0,,90,,140,Dry,1018,1,15,,,,6,
Wick,11/12/2018 18:00,7.7,17,,7.7,0,0,92,,150,Dry,1017,2,12,,,,6.5,
Wick,11/12/2018 19:00,7.9,18,,,0,,92,30,140,Dry,1017,8,14,,,,6.7,
Wick,11/12/2018 20:00,7.8,21,,,0,,90,33,140,Dry,1017,8,12,,,,6.4,
Wick,11/12/2018 21:00,7.9,18,,,0,,92,33,150,Dry,1017,7,11,,,,6.8,
Wick,11/12/2018 22:00,8.1,18,,,0,,92,31,150,Dry,1017,8,13,,,,6.9,
Wick,11/12/2018 23:00,8.2,21,,,0,,91,35,150,Dry,1018,7,14,,,,6.9,
Wick,12/12/2018 00:00,8.3,21,,,0,0,91,32,150,Dry,1017,2,10,,,,7,
Wick,12/12/2018 01:00,8.4,18,,,0,,90,29,140,Dry,1018,8,10,,,,7,
Wick,12/12/2018 02:00,8.4,21,,,0,,88,31,140,Dry,1017,8,15,,,,6.6,
Wick,12/12/2018 03:00,8.2,23,,,0,,86,33,150,Dry,1017,8,15,,,,6.1,
Wick,12/12/2018 04:00,7.8,21,,,0,,85,37,150,Dry,1017,8,12,,,,5.6,
Wick,12/12/2018 05:00,7.7,21,,,0,,87,32,150,Haze,1017,8,11,,,,5.8,
Wick,12/12/2018 06:00,7.7,22,7.6,,0,0,87,35,150,Dry,1018,8,12,,,,5.8,
Wick,12/12/2018 07:00,7.7,20,,,0,,87,36,150,Dry,1018,7,13,,,,5.7,
Wick,12/12/2018 08:00,7.6,21,,,0,,88,33,150,Dry,1018,8,12,,,,5.8,
Wick,12/12/2018 09:00,7.8,21,,,0,,87,31,160,Dry,1018,1,11,,,,5.9,
Wick,12/12/2018 10:00,7.9,18,,,0,,87,32,150,Dry,1018,7,12,,,,5.9,
Wick,12/12/2018 11:00,8,23,,,0,,85,36,150,Dry,1018,8,13,,,,5.7,
Wick,12/12/2018 12:00,8.2,22,,,0,0,84,37,150,Dry,1018,7,13,,,,5.7,
Wick,12/12/2018 13:00,8.2,25,,,0,,82,37,150,Dry,1018,8,13,,,,5.4,
Wick,12/12/2018 14:00,8.2,24,,,0,,81,37,150,Dry,1018,8,13,,,,5.2,
Wick,12/12/2018 15:00,8.1,23,,,0,,80,37,150,Dry,1017,8,17,,,,4.9,
Wick,12/12/2018 16:00,8,22,,,0,,76,37,150,Dry,1018,7,18,,,,4.2,
Wick,12/12/2018 17:00,7.8,23,,,0,,77,38,150,Dry,1018,7,20,,,,4.1,
Wick,12/12/2018 18:00,7.7,21,,8.4,0,0,77,36,150,Dry,1018,6,17,,,,4.1,
Wick,12/12/2018 19:00,7.7,24,,,0,,73,37,140,Dry,1017,3,17,,,,3.3,
Wick,12/12/2018 20:00,7.6,25,,,0,,74,40,150,Dry,1017,1,15,,,,3.3,
Wick,12/12/2018 21:00,7.5,23,,,0,,75,40,150,Dry,1017,1,16,,,,3.5,
Wick,12/12/2018 22:00,7.5,25,,,0,,70,43,150,Dry,1017,3,15,,,,2.5,
Wick,12/12/2018 23:00,7.2,29,,,0,,66,48,150,Dry,1017,1,17,,,,1.4,
Wick,13/12/2018 00:00,7.5,30,,,0,0,66,46,150,Dry,1017,1,17,,,,1.7,
Wick,13/12/2018 01:00,7.2,28,,,0,,68,44,150,Dry,1017,5,23,,,,1.9,
Wick,13/12/2018 02:00,7.2,24,,,0,,74,41,150,Dry,1018,7,22,,,,3,
Wick,13/12/2018 03:00,6.9,24,,,0,,78,37,150,Dry,1018,8,14,,,,3.4,
Wick,13/12/2018 04:00,6.6,29,,,0,,78,45,150,Dry,1017,8,19,,,,3.2,
Wick,13/12/2018 05:00,6.9,24,,,0,,73,40,150,Dry,1016,7,17,,,,2.5,
Wick,13/12/2018 06:00,6.9,25,6.4,,0,0,74,44,150,Dry,1017,7,14,,,,2.7,
Wick,13/12/2018 07:00,7,28,,,0,,69,44,150,Dry,1017,3,14,,,,1.8,
Wick,13/12/2018 08:00,7,26,,,0,,67,44,150,Dry,1017,7,21,,,,1.5,
Wick,13/12/2018 09:00,7.2,26,,,0,,68,43,150,Dry,1017,7,15,,,,1.7,
Wick,13/12/2018 10:00,6.9,25,,,0,,65,40,150,Dry,1018,1,21,,,,0.8,
Wick,13/12/2018 11:00,6.8,23,,,0,,72,44,150,Dry,1018,5,16,,,,2.2,
Wick,13/12/2018 12:00,7,29,,,0,0,70,44,150,Dry,1017,2,12,,,,2.1,
Wick,13/12/2018 13:00,6.7,26,,,0,,75,49,150,Dry,1017,5,18,,,,2.6,
Wick,13/12/2018 14:00,6.6,22,,,0,,75,39,160,Dry,1018,3,16,,,,2.6,
Wick,13/12/2018 15:00,6.6,23,,,0,,70,39,150,Dry,1018,6,15,,,,1.6,
Wick,13/12/2018 16:00,6.5,23,,,0,,72,41,160,Dry,1019,5,19,,,,2,
Wick,13/12/2018 17:00,6.5,28,,,0,,71,41,160,Dry,1019,7,18,,,,1.8,
Wick,13/12/2018 18:00,6.6,26,,7.3,0,0,69,45,160,Dry,1019,6,18,,,,1.5,
Wick,13/12/2018 19:00,6.6,20,,,0,,74,39,160,Dry,1020,6,15,,,,2.4,
Wick,13/12/2018 20:00,6.7,26,,,0,,72,39,150,Dry,1019,4,17,,,,2.1,
Wick,13/12/2018 21:00,6.8,25,,,0,,67,40,150,Dry,1020,3,20,,,,1.3,
Wick,13/12/2018 22:00,6.7,26,,,0,,72,40,160,Dry,1020,3,17,,,,2.1,
Wick,13/12/2018 23:00,6.7,28,,,0,,69,47,150,Dry,1019,2,21,,,,1.5,
Wick,14/12/2018 00:00,6.5,21,,,0,0,69,45,160,Dry,1020,1,22,,,,1.4,
Wick,14/12/2018 01:00,6.3,20,,,0,,72,36,160,Dry,1020,5,20,,,,1.7,
Wick,14/12/2018 02:00,6.2,22,,,0,,72,35,160,Dry,1020,5,22,,,,1.7,
Wick,14/12/2018 03:00,6.1,24,,,0,,69,37,160,Dry,1020,2,30,,,,1,
Wick,14/12/2018 04:00,5.9,20,,,0,,70,36,150,Dry,1020,2,26,,,,0.9,
Wick,14/12/2018 05:00,5.6,21,,,0,,68,33,160,Dry,1020,3,40,,,,0.2,
Wick,14/12/2018 06:00,5.4,20,5.4,,0,0,68,36,170,Dry,1020,1,30,,,,0,
Wick,14/12/2018 07:00,5.3,20,,,0,,67,32,160,Dry,1020,7,35,,,,-0.2,
Wick,14/12/2018 08:00,5.4,18,,,0,,69,30,160,Dry,1020,1,30,,,,0.2,
Wick,14/12/2018 09:00,5.5,22,,,0,,67,36,150,Dry,1020,1,26,,,,0,
Wick,14/12/2018 10:00,5.6,22,,,0,,68,36,150,Dry,1020,6,29,,,,0.3,
Wick,14/12/2018 11:00,5.5,21,,,0,,71,37,160,Dry,1020,5,24,,,,0.7,
Wick,14/12/2018 12:00,5.5,20,,,0,0,65,37,160,Dry,1020,1,30,,,,-0.5,
Wick,14/12/2018 13:00,5.5,22,,,0,,64,32,160,Dry,1019,0,30,,,,-0.7,
Wick,14/12/2018 14:00,5.8,23,,,0,,59,35,160,Dry,1019,1,24,,,,-1.4,
Wick,14/12/2018 15:00,5.5,24,,,0,,64,36,140,Dry,1018,0,35,,,,-0.7,
Wick,14/12/2018 16:00,5.5,25,,,0,,62,40,150,Dry,1017,1,30,,,,-1,
Wick,14/12/2018 17:00,5.3,28,,,0,,61,47,150,Dry,1017,0,25,,,,-1.6,
Wick,14/12/2018 18:00,4.9,28,,5.9,0,0,60,44,160,Dry,1016,0,30,,,,-2.1,
Wick,14/12/2018 19:00,5.1,31,,,0,,59,48,160,Dry,1016,1,35,,,,-2.2,
Wick,14/12/2018 20:00,5.1,25,,,0,,62,51,160,Dry,1016,5,29,,,,-1.5,
Wick,14/12/2018 21:00,5.1,26,,,0,,55,44,160,Dry,1016,0,30,,,,-3.1,
Wick,14/12/2018 22:00,5.1,31,,,0,,53,46,160,Dry,1016,6,35,,,,-3.5,
Wick,14/12/2018 23:00,5.1,30,,,0,,54,46,160,Dry,1015,6,26,,,,-3.3,
Wick,15/12/2018 00:00,4.9,28,,,0,0,54,49,160,Dry,1015,0,24,,,,-3.6,
Wick,15/12/2018 01:00,5,32,,,0,,54,46,160,Dry,1014,6,27,,,,-3.4,
Wick,15/12/2018 02:00,5.1,26,,,0,,55,47,160,Dry,1014,1,26,,,,-3.1,
Wick,15/12/2018 03:00,5.1,32,,,0,,60,46,150,Dry,1012,6,20,,,,-1.9,
Wick,15/12/2018 04:00,5,29,,,0,,62,48,160,Dry,1012,8,18,,,,-1.6,
Wick,15/12/2018 05:00,5,29,,,0,,61,49,160,Dry,1012,8,21,,,,-1.8,
Wick,15/12/2018 06:00,5.2,29,0.9,,0,0,58,49,160,Dry,1011,5,17,,,,-2.3,
Wick,15/12/2018 07:00,5.1,33,,,0,,60,51,160,Dry,1010,7,22,,,,-1.8,
Wick,15/12/2018 08:00,5.1,28,,,0,,63,49,150,Dry,1010,8,12,,,,-1.2,
Wick,15/12/2018 09:00,5.4,35,,,0,,64,52,150,Dry,1010,1,18,,,,-0.8,
Wick,15/12/2018 10:00,5.4,31,,,0,,66,56,150,Dry,1010,2,15,,,,-0.4,
Wick,15/12/2018 11:00,5.5,30,,,0,,68,48,150,Dry,1008,7,15,,,,0.2,
Wick,15/12/2018 12:00,5.7,29,,,0,0,70,47,140,Dry,1006,8,15,,,,0.7,
Wick,15/12/2018 13:00,5.9,31,,,0,,70,54,150,Dry,1004,8,10,,,,0.9,
Wick,15/12/2018 14:00,5.9,30,,,0,,68,52,140,Haze,1002,8,10,,,,0.6,
Wick,15/12/2018 15:00,6.1,38,,,0,,72,55,130,Haze,1001,8,10,,,,1.5,
Wick,15/12/2018 16:00,6.2,31,,,0,,69,53,140,Haze,1000,8,9,,,,1.1,
Wick,15/12/2018 17:00,6,33,,,0,,73,56,130,Haze,999,8,9,,,,1.6,
Wick,15/12/2018 18:00,5.6,39,,6.3,0,0,79,62,130,Haze,996,8,7,,,,2.4,
Wick,15/12/2018 19:00,5.6,36,,,0,,80,60,140,Haze,995,8,8,,,,2.5,
Wick,15/12/2018 20:00,5.6,36,,,0,,82,56,140,Haze,994,8,8,,,,2.8,
Wick,15/12/2018 21:00,5.6,39,,,0,,82,62,130,Haze,993,8,9,,,,2.9,
Wick,15/12/2018 22:00,5.1,40,,,0,,85,60,130,Haze,992,8,8,,,,2.8,
Wick,15/12/2018 23:00,4.9,41,,,0,,83,61,130,Haze,991,8,10,,,,2.4,
Wick,16/12/2018 00:00,5.2,38,,,0,0,83,64,130,Rain,990,3,10,,,,2.6,
Wick,16/12/2018 01:00,5,39,,,0,,86,61,130,Light shower,990,8,7,,,,2.9,
Wick,16/12/2018 02:00,5.2,35,,,0.6,,86,55,130,Rain,989,8,14,,,,3.1,
Wick,16/12/2018 03:00,5.9,31,,,0,,90,51,130,Haze,988,8,8,,,,4.5,
Wick,16/12/2018 04:00,6.2,30,,,0.2,,93,47,130,Light shower,988,8,4,,,,5.2,
Wick,16/12/2018 05:00,6.7,33,,,0.2,,91,49,130,Rain,986,7,9,,,,5.4,
Wick,16/12/2018 06:00,6.7,18,4.7,,0,1,88,47,140,Drizzle,986,8,9,,,,4.9,
Wick,16/12/2018 07:00,6.4,14,,,0,,81,,150,Haze,986,8,11,,,,3.5,
Wick,16/12/2018 08:00,5.8,15,,,0,,78,,190,Dry,987,8,9,,,,2.3,
Wick,16/12/2018 09:00,4.4,10,,,0,,89,,230,Rain,988,8,50,,,,2.9,
Wick,16/12/2018 10:00,4,14,,,0,,89,,250,Dry,990,1,50,,,,2.5,
Wick,16/12/2018 11:00,4.5,14,,,0,,86,,220,Dry,992,8,40,,,,2.5,
Wick,16/12/2018 12:00,5.3,17,,,0,0,85,,230,Dry,993,7,50,,,,3.1,
Wick,16/12/2018 13:00,6.9,18,,,0,,78,,210,Dry,994,8,50,,,,3.5,
Wick,16/12/2018 14:00,6.3,12,,,0,,82,,200,Dry,996,7,25,,,,3.5,
Wick,16/12/2018 15:00,5.7,14,,,0,,83,,190,Dry,997,0,40,,,,3.1,
Wick,16/12/2018 16:00,5.4,12,,,0,,83,,190,Dry,998,0,35,,,,2.9,
Wick,16/12/2018 17:00,5.3,10,,,0,,83,,190,Dry,999,3,45,,,,2.7,
Wick,16/12/2018 18:00,5.5,8,,7,0,0,83,,180,Dry,1000,3,30,,,,2.9,
Wick,16/12/2018 19:00,6.1,12,,,0,,77,,170,Dry,1000,0,30,,,,2.5,
Wick,16/12/2018 20:00,6.4,14,,,0.2,,75,,170,Dry,1001,6,30,,,,2.4,
Wick,16/12/2018 21:00,6.4,14,,,0,,75,,170,Dry,1002,0,18,,,,2.3,
Wick,16/12/2018 22:00,6.3,15,,,0,,79,,170,Dry,1002,3,25,,,,3,
Wick,16/12/2018 23:00,6.7,15,,,0,,77,,170,Dry,1002,5,25,,,,3,
Wick,17/12/2018 00:00,6.6,12,,,0,0.2,79,,170,Dry,1003,0,30,,,,3.3,
Wick,17/12/2018 01:00,6.6,12,,,0,,81,,160,Dry,1003,0,35,,,,3.7,
Wick,17/12/2018 02:00,6.6,12,,,0,,81,,160,Dry,1004,0,25,,,,3.7,
Wick,17/12/2018 03:00,6.3,9,,,0,,82,,170,Dry,1004,0,35,,,,3.6,
Wick,17/12/2018 04:00,5.9,12,,,0,,81,,170,Dry,1005,1,40,,,,3,
Wick,17/12/2018 05:00,6.3,10,,,0,,79,,160,Dry,1005,0,26,,,,3.1,
Wick,17/12/2018 06:00,5.6,10,5.5,,0,0,81,,170,Dry,1005,0,50,,,,2.7,
Wick,17/12/2018 07:00,5.4,8,,,0,,83,,170,Dry,1006,1,50,,,,2.8,
Wick,17/12/2018 08:00,5.2,7,,,0,,85,,190,Dry,1006,0,40,,,,3,
Wick,17/12/2018 09:00,5.6,8,,,0,,83,,180,Dry,1007,0,35,,,,3.1,
Wick,17/12/2018 10:00,5.6,8,,,0,,83,,180,Dry,1008,1,40,,,,3,
Wick,17/12/2018 11:00,6.2,10,,,0,,81,,170,Dry,1008,0,26,,,,3.2,
Wick,17/12/2018 12:00,6.3,10,,,0,0,81,,160,Dry,1007,0,40,,,,3.4,
Wick,17/12/2018 13:00,6.5,12,,,0,,79,,170,Dry,1007,0,35,,,,3.3,
Wick,17/12/2018 14:00,6.6,10,,,0,,76,,170,Dry,1007,1,30,,,,2.8,
Wick,17/12/2018 15:00,7,12,,,0,,76,,160,Dry,1007,4,30,,,,3.1,
Wick,17/12/2018 16:00,6.5,8,,,0,,84,,140,Dry,1007,1,35,,,,4,
Wick,17/12/2018 17:00,6.5,13,,,0,,81,,160,Dry,1006,6,30,,,,3.6,
Wick,17/12/2018 18:00,6.3,21,,7.1,0,0,84,30,150,Dry,1006,6,25,,,,3.8,
Wick,17/12/2018 19:00,6.5,25,,,0,,85,37,150,Dry,1005,3,15,,,,4.2,
Wick,17/12/2018 20:00,6.8,21,,,0,,85,37,150,Dry,1005,7,14,,,,4.6,
Wick,17/12/2018 21:00,7.5,25,,,0,,86,40,150,Dry,1005,4,12,,,,5.4,
Wick,17/12/2018 22:00,7.9,29,,,0,,86,47,150,Dry,1003,8,11,,,,5.8,
Wick,17/12/2018 23:00,8,24,,,0,,88,40,140,Dry,1003,8,10,,,,6.3,
Wick,18/12/2018 00:00,8.4,28,,,0,0,87,46,140,Haze,1003,1,10,,,,6.5,
Wick,18/12/2018 01:00,8.3,23,,,0,,90,39,140,Haze,1002,8,8,,,,6.8,
Wick,18/12/2018 02:00,8.6,21,,,0,,90,39,140,Haze,1001,8,9,,,,7.2,
Wick,18/12/2018 03:00,8.6,28,,,0,,91,43,130,Haze,1000,8,8,,,,7.3,
Wick,18/12/2018 04:00,8.7,25,,,0,,92,39,130,Haze,1000,8,8,,,,7.5,
Wick,18/12/2018 05:00,9.1,25,,,0,,89,37,130,Haze,999,8,10,,,,7.4,
Wick,18/12/2018 06:00,9.4,25,6.2,,0,0,86,37,130,Haze,998,8,10,,,,7.3,
Wick,18/12/2018 07:00,9.2,26,,,0,,87,43,130,Haze,997,8,8,,,,7.3,
Wick,18/12/2018 08:00,9.3,29,,,0,,87,45,130,Haze,996,6,8,,,,7.4,
Wick,18/12/2018 09:00,9.2,26,,,0,,88,48,130,Haze,995,7,9,,,,7.4,
Wick,18/12/2018 10:00,9.2,28,,,0,,88,52,140,Haze,993,3,5,,,,7.4,
Wick,18/12/2018 11:00,9.3,31,,,0,,88,51,140,Rain,992,1,7,,,,7.5,
Wick,18/12/2018 12:00,9.5,36,,,0.2,0.2,86,55,150,Rain,992,7,7,,,,7.4,
Wick,18/12/2018 13:00,9.4,29,,,0,,87,48,140,Haze,992,4,8,,,,7.5,
Wick,18/12/2018 14:00,9.3,25,,,0,,88,43,140,Haze,992,7,8,,,,7.5,
Wick,18/12/2018 15:00,9.4,23,,,0,,88,36,150,Haze,992,8,9,,,,7.6,
Wick,18/12/2018 16:00,9.2,17,,,0,,89,33,150,Haze,992,7,7,,,,7.6,
Wick,18/12/2018 17:00,9,17,,,0,,89,29,150,Haze,992,4,8,,,,7.3,
Wick,18/12/2018 18:00,8.9,16,,9.6,0,0,87,29,150,Dry,992,5,12,,,,6.9,
Wick,18/12/2018 19:00,8.9,20,,,0,,82,30,160,Dry,992,7,23,,,,6,
Wick,18/12/2018 20:00,8.7,16,,,0,,83,,150,Dry,993,8,27,,,,6,
Wick,18/12/2018 21:00,8.4,14,,,0,,86,,150,Dry,993,0,19,,,,6.2,
Wick,18/12/2018 22:00,8.3,13,,,0,,85,,160,Dry,993,8,21,,,,6,
Wick,18/12/2018 23:00,8.3,14,,,0,,86,,150,Dry,993,8,23,,,,6.1,
Wick,19/12/2018 00:00,8.1,13,,,0,0,85,,160,Dry,993,0,26,,,,5.8,
Wick,19/12/2018 01:00,3.2,6,,,0,,91,,100,Dry,993,5,27,,,,1.9,
Wick,19/12/2018 02:00,7.8,15,,,0,,87,,160,Dry,993,8,21,,,,5.9,
Wick,19/12/2018 03:00,7.6,9,,,0,,88,,170,Dry,993,8,22,,,,5.8,
Wick,19/12/2018 04:00,7.6,8,,,0,,87,,160,Dry,993,8,22,,,,5.7,
Wick,19/12/2018 05:00,5.3,6,,,0,,91,,240,Dry,993,0,22,,,,4,
Wick,19/12/2018 06:00,7.1,8,,,0,0,89,,170,Dry,993,0,28,,,,5.5,
Wick,19/12/2018 07:00,7.2,9,,,0,,85,,170,Dry,994,0,25,,,,5,
Wick,19/12/2018 08:00,7,13,,,0,,84,,170,Dry,994,0,30,,,,4.5,
Wick,19/12/2018 09:00,6.7,15,,,0,,78,,170,Dry,994,1,35,,,,3.3,
Wick,19/12/2018 10:00,7.2,13,,,0,,76,,170,Dry,995,0,28,,,,3.3,
Wick,19/12/2018 11:00,7.4,15,,,0,,73,,160,Dry,995,0,30,,,,3,
Wick,19/12/2018 12:00,7.5,16,,,0,0,72,,160,Dry,995,0,29,,,,2.9,
Wick,19/12/2018 13:00,7.4,17,,,0,,75,,160,Dry,995,0,21,,,,3.3,
Wick,19/12/2018 14:00,7.1,15,,,0,,75,,160,Dry,995,0,28,,,,3.1,
Wick,19/12/2018 15:00,7.1,18,,,0,,76,,150,Dry,995,0,30,,,,3.2,
Wick,19/12/2018 16:00,6.9,14,,,0,,81,,150,Dry,995,0,19,,,,3.9,
Wick,19/12/2018 17:00,7.1,15,,,0,,81,,150,Dry,995,7,16,,,,4.2,
Wick,19/12/2018 18:00,7.1,16,,7.5,0,0,82,,150,Dry,996,0,17,,,,4.3,
Wick,19/12/2018 19:00,7.2,18,,,0,,81,,150,Dry,995,6,16,,,,4.3,
Wick,19/12/2018 20:00,7,15,,,0,,84,,150,Dry,996,4,20,,,,4.6,
Wick,19/12/2018 21:00,7.3,13,,,0,,81,,160,Dry,996,0,22,,,,4.3,
Wick,19/12/2018 22:00,7.2,13,,,0,,84,,140,Dry,996,0,21,,,,4.8,
Wick,19/12/2018 23:00,7,12,,,0,,85,,140,Dry,996,2,23,,,,4.7,
Wick,20/12/2018 00:00,6.7,12,,,0,0,87,,140,Dry,996,2,14,,,,4.7,
Wick,20/12/2018 01:00,7.1,12,,,0,,87,,140,Dry,996,4,14,,,,5.2,
Wick,20/12/2018 02:00,7.1,9,,,0,,88,,140,Dry,996,7,14,,,,5.3,
Wick,20/12/2018 03:00,7.1,9,,,0,,88,,140,Dry,996,7,16,,,,5.4,
Wick,20/12/2018 04:00,7.3,10,,,0,,86,,140,Dry,996,8,16,,,,5.2,
Wick,20/12/2018 05:00,7.3,12,,,0,,85,,140,Dry,996,8,18,,,,5.1,
Wick,20/12/2018 06:00,7.4,10,6.7,,0,0,88,,140,Dry,996,8,14,,,,5.6,
Wick,20/12/2018 07:00,7.4,10,,,0,,85,,140,Dry,995,8,18,,,,5.2,
Wick,20/12/2018 08:00,6.9,9,,,0,,85,,150,Dry,995,2,25,,,,4.7,
Wick,20/12/2018 09:00,6.8,9,,,0,,85,,140,Dry,995,4,30,,,,4.6,
Wick,20/12/2018 10:00,7,13,,,0,,81,,160,Dry,996,7,30,,,,4.1,
Wick,20/12/2018 11:00,6.7,14,,,0,,84,,160,Dry,995,1,27,,,,4.2,
Wick,20/12/2018 12:00,6.6,12,,,0,0,84,,150,Dry,995,0,35,,,,4.1,
Wick,20/12/2018 13:00,6.7,12,,,0,,82,,150,Dry,994,0,30,,,,4,
Wick,20/12/2018 14:00,6.9,12,,,0,,84,,140,Dry,994,3,23,,,,4.5,
Wick,20/12/2018 15:00,6.7,14,,,0,,85,,140,Dry,994,7,27,,,,4.4,
Wick,20/12/2018 16:00,6.7,12,,,0,,85,,140,Dry,994,8,26,,,,4.5,
Wick,20/12/2018 17:00,6.7,12,,,0,,86,,150,Dry,994,1,28,,,,4.6,
Wick,20/12/2018 18:00,6.4,9,,7.4,0,0,84,,150,Dry,993,1,45,,,,3.9,
Wick,20/12/2018 19:00,6.5,8,,,0,,87,,140,Dry,993,6,35,,,,4.5,
Wick,20/12/2018 20:00,6.3,8,,,0,,87,,160,Dry,993,2,28,,,,4.4,
Wick,20/12/2018 21:00,6.6,7,,,0,,87,,150,Dry,993,7,29,,,,4.6,
Wick,20/12/2018 22:00,6.8,7,,,0,,85,,150,Dry,992,0,25,,,,4.5,
Wick,20/12/2018 23:00,6.4,7,,,0,,86,,150,Dry,992,0,30,,,,4.3,
Wick,21/12/2018 00:00,6.2,7,,,0,0,86,,150,Dry,992,0,23,,,,4.1,
Wick,21/12/2018 01:00,6.2,5,,,0,,86,,140,Dry,992,5,40,,,,4.2,
Wick,21/12/2018 02:00,6.6,8,,,0,,89,,140,Dry,991,0,35,,,,5,
Wick,21/12/2018 03:00,6.8,8,,,0,,88,,160,Dry,991,5,30,,,,5.1,
Wick,21/12/2018 04:00,6.3,8,,,0,,89,,160,Dry,991,1,30,,,,4.7,
Wick,21/12/2018 05:00,5.7,7,,,0,,87,,170,Dry,990,0,40,,,,3.8,
Wick,21/12/2018 06:00,4.9,5,4.9,,0,0,88,,190,Dry,990,5,45,,,,3.1,
Wick,21/12/2018 07:00,3.6,3,,,0,,91,,210,Dry,991,1,50,,,,2.4,
Wick,21/12/2018 08:00,2.5,3,,,0,,91,,240,Dry,991,7,50,,,,1.3,
Wick,21/12/2018 09:00,0.8,3,,,0,,94,,280,Misty,992,1,5,,,,0,
Wick,21/12/2018 10:00,-0.2,5,,,0,,95,,240,Dry,992,1,29,,,,-0.8,
Wick,21/12/2018 11:00,0.4,5,,,0,,97,,250,Dry,992,0,40,,,,0,
Wick,21/12/2018 12:00,2.3,3,,,0,0,97,,230,Dry,992,0,45,,,,2,
Wick,21/12/2018 13:00,2.7,3,,,0,,96,,250,Dry,993,5,40,,,,2.2,
Wick,21/12/2018 14:00,2.7,5,,,0,,94,,220,Dry,993,6,30,,,,1.9,
Wick,21/12/2018 15:00,2.5,5,,,0,,94,,210,Dry,994,0,50,,,,1.7,
Wick,21/12/2018 16:00,2.5,5,,,0,,92,,220,Dry,994,2,50,,,,1.4,
Wick,21/12/2018 17:00,4.2,5,,,0,,91,,210,Dry,995,7,50,,,,3,
Wick,21/12/2018 18:00,3.8,3,,4.9,0,0,91,,230,Dry,995,8,50,,,,2.5,
Wick,21/12/2018 19:00,3.3,3,,,0,,92,,230,Dry,995,2,50,,,,2.2,
Wick,21/12/2018 20:00,2.8,6,,,0,,93,,230,Dry,996,7,50,,,,1.8,
Wick,21/12/2018 21:00,2.7,3,,,0,,93,,230,Dry,996,8,50,,,,1.7,
Wick,21/12/2018 22:00,2.6,5,,,0,,95,,220,Dry,997,8,50,,,,1.9,
Wick,21/12/2018 23:00,3.4,5,,,0,,94,,220,Dry,997,8,45,,,,2.6,
Wick,22/12/2018 00:00,2.2,6,,,0,0,95,,230,Dry,997,1,50,,,,1.5,
Wick,22/12/2018 01:00,2.2,7,,,0,,95,,260,Dry,998,6,50,,,,1.6,
Wick,22/12/2018 02:00,1.5,6,,,0,,95,,260,Dry,998,7,50,,,,0.9,
Wick,22/12/2018 03:00,1.1,6,,,0,,95,,250,Dry,999,0,45,,,,0.4,
Wick,22/12/2018 04:00,1.4,6,,,0,,96,,250,Dry,1000,7,45,,,,0.9,
Wick,22/12/2018 05:00,1.9,5,,,0,,96,,240,Dry,1000,3,50,,,,1.4,
Wick,22/12/2018 06:00,2.8,5,0.8,,0,0,95,,230,Dry,1000,8,50,,,,2.1,
Wick,22/12/2018 07:00,2.6,5,,,0,,94,,260,Dry,1001,7,50,,,,1.8,
Wick,22/12/2018 08:00,2.4,5,,,0,,94,,250,Dry,1002,7,50,,,,1.6,
Wick,22/12/2018 09:00,2.5,7,,,0.2,,95,,260,Dry,1003,7,50,,,,1.8,
Wick,22/12/2018 10:00,2.8,8,,,0,,94,,250,Dry,1004,7,50,,,,2,
Wick,22/12/2018 11:00,3,7,,,0,,95,,250,Dry,1004,1,50,,,,2.3,
Wick,22/12/2018 12:00,2.4,8,,,0,0.2,95,,260,Dry,1005,2,45,,,,1.7,
Wick,22/12/2018 13:00,3.1,7,,,0,,95,,240,Dry,1005,3,45,,,,2.5,
Wick,22/12/2018 14:00,3.3,6,,,0,,93,,260,Dry,1006,0,35,,,,2.4,
Wick,22/12/2018 15:00,3.6,5,,,0,,95,,230,Dry,1006,1,50,,,,3,
Wick,22/12/2018 16:00,2.5,3,,,0,,94,,250,Dry,1007,0,50,,,,1.7,
Wick,22/12/2018 17:00,2.1,7,,,0,,95,,250,Dry,1008,6,40,,,,1.4,
Wick,22/12/2018 18:00,1.4,8,,3.9,0,0,95,,240,Dry,1008,6,50,,,,0.7,
Wick,22/12/2018 19:00,2.3,10,,,0,,96,,260,Dry,1009,7,50,,,,1.8,
Wick,22/12/2018 20:00,1.5,8,,,0,,95,,250,Dry,1009,0,50,,,,0.9,
Wick,22/12/2018 21:00,2.1,7,,,0,,96,,250,Rain,1010,8,50,,,,1.6,
Wick,22/12/2018 22:00,1,6,,,0.2,,94,,270,Rain,1010,6,50,,,,0.2,
Wick,22/12/2018 23:00,2.3,7,,,0.6,,96,,240,Light shower,1011,5,29,,,,1.8,
Wick,23/12/2018 00:00,2.5,6,,,0,0.8,96,,230,Rain,1011,1,50,,,,2,
Wick,23/12/2018 01:00,2.2,8,,,0.2,,95,,230,Precipitation,1012,4,50,,,,1.5,
Wick,23/12/2018 02:00,2.1,7,,,0,,95,,250,Dry,1012,1,50,,,,1.5,
Wick,23/12/2018 03:00,2.1,8,,,0,,95,,270,Dry,1012,6,45,,,,1.5,
Wick,23/12/2018 04:00,2.4,7,,,0,,96,,250,Dry,1012,7,45,,,,1.9,
Wick,23/12/2018 05:00,2.4,9,,,0,,97,,270,Dry,1012,8,50,,,,2,
Wick,23/12/2018 06:00,2.8,8,0.8,,0,0.2,97,,250,Dry,1013,7,45,,,,2.5,
Wick,23/12/2018 07:00,2.5,6,,,0,,98,,260,Dry,1013,7,45,,,,2.3,
Wick,23/12/2018 08:00,2.9,8,,,0,,97,,260,Dry,1014,4,50,,,,2.5,
Wick,23/12/2018 09:00,2.5,8,,,0,,97,,260,Dry,1014,4,45,,,,2.2,
Wick,23/12/2018 10:00,2.8,7,,,0,,98,,250,Dry,1015,7,50,,,,2.6,
Wick,23/12/2018 11:00,3.2,5,,,0,,98,,250,Dry,1016,7,40,,,,3,
Wick,23/12/2018 12:00,4.1,6,,,0,0,99,,260,Dry,1016,7,50,,,,4,
Wick,23/12/2018 13:00,4.8,5,,,0,,98,,260,Dry,1016,7,50,,,,4.6,
Wick,23/12/2018 14:00,4.7,6,,,0,,98,,270,Dry,1017,8,50,,,,4.5,
Wick,23/12/2018 15:00,4.9,6,,,0,,97,,300,Dry,1018,8,29,,,,4.6,
Wick,23/12/2018 16:00,4.8,6,,,0,,93,,310,Dry,1018,8,40,,,,3.9,
Wick,23/12/2018 17:00,5.4,10,,,0,,94,,330,Dry,1020,8,30,,,,4.6,
Wick,23/12/2018 18:00,4.9,5,,5.5,0,0,89,,310,Dry,1020,8,50,,,,3.3,
Wick,23/12/2018 19:00,3.5,6,,,0,,89,,300,Dry,1021,4,45,,,,2,
Wick,23/12/2018 20:00,1.7,9,,,0,,92,,300,Dry,1022,1,50,,,,0.6,
Wick,23/12/2018 21:00,2,5,,,0,,95,,260,Dry,1023,4,45,,,,1.3,
Wick,23/12/2018 22:00,1.7,7,,,0,,96,,260,Dry,1024,0,45,,,,1.2,
Wick,23/12/2018 23:00,0.9,6,,,0,,97,,250,Dry,1025,0,30,,,,0.5,
Wick,24/12/2018 00:00,1.2,7,,,0,0,97,,250,Dry,1025,6,50,,,,0.9,
Wick,24/12/2018 01:00,2.6,6,,,0,,98,,230,Dry,1025,1,45,,,,2.4,
Wick,24/12/2018 02:00,2.9,10,,,0,,99,,250,Misty,1026,7,5,,,,2.8,
Wick,24/12/2018 03:00,2.8,8,,,0.2,,99,,250,Precipitation,1027,6,45,,,,2.7,
Wick,24/12/2018 04:00,3.3,6,,,0,,99,,250,Dry,1027,7,40,,,,3.2,
Wick,24/12/2018 05:00,3.7,6,,,0,,99,,240,Dry,1028,8,40,,,,3.6,
Wick,24/12/2018 06:00,4,5,0.8,,0,0.2,97,,230,Dry,1028,8,40,,,,3.6,
Wick,24/12/2018 07:00,3.8,6,,,0,,92,,220,Dry,1028,8,50,,,,2.7,
Wick,24/12/2018 08:00,4.3,7,,,0,,89,,240,Dry,1028,8,45,,,,2.7,
Wick,24/12/2018 09:00,4.3,7,,,0,,86,,240,Dry,1029,8,50,,,,2.2,
Wick,24/12/2018 10:00,4.6,8,,,0,,83,,230,Dry,1029,8,50,,,,2,
Wick,24/12/2018 11:00,5.5,8,,,0,,80,,220,Dry,1029,8,50,,,,2.4,
Wick,24/12/2018 12:00,6.2,8,,,0,0,79,,230,Dry,1029,8,50,,,,2.9,
Wick,24/12/2018 13:00,6.7,10,,,0,,74,,220,Dry,1029,8,45,,,,2.5,
Wick,24/12/2018 14:00,6.1,9,,,0,,80,,230,Dry,1028,8,50,,,,3,
Wick,24/12/2018 15:00,4.6,8,,,0,,82,,210,Dry,1028,3,50,,,,1.8,
Wick,24/12/2018 16:00,4,7,,,0,,83,,220,Dry,1028,0,50,,,,1.5,
Wick,24/12/2018 17:00,2.9,7,,,0,,87,,230,Dry,1029,0,50,,,,1,
Wick,24/12/2018 18:00,3,8,,6.7,0,0,86,,220,Dry,1029,0,50,,,,0.9,
Wick,24/12/2018 19:00,2.7,8,,,0,,86,,240,Dry,1029,2,50,,,,0.6,
Wick,24/12/2018 20:00,2.6,9,,,0,,86,,230,Dry,1029,6,50,,,,0.6,
Wick,24/12/2018 21:00,2.9,12,,,0,,85,,230,Dry,1029,0,50,,,,0.7,
Wick,24/12/2018 22:00,1.9,5,,,0,,87,,230,Dry,1029,0,50,,,,0.1,
Wick,24/12/2018 23:00,2.4,6,,,0,,84,,180,Dry,1029,0,50,,,,0.1,
Wick,25/12/2018 00:00,2.7,6,,,0,0,83,,190,Dry,1028,0,50,,,,0.2,
Wick,25/12/2018 01:00,2.3,6,,,0,,87,,230,Dry,1028,0,50,,,,0.5,
Wick,25/12/2018 02:00,2.5,7,,,0,,90,,190,Dry,1028,0,50,,,,1.1,
Wick,25/12/2018 03:00,2.2,6,,,0,,91,,200,Dry,1028,0,50,,,,0.9,
Wick,25/12/2018 04:00,2.5,6,,,0,,92,,160,Dry,1027,0,50,,,,1.4,
Wick,25/12/2018 05:00,2.4,6,,,0,,94,,180,Dry,1027,0,50,,,,1.6,
Wick,25/12/2018 06:00,2.1,6,1.3,,0,0,94,,190,Dry,1026,0,50,,,,1.3,
Wick,25/12/2018 07:00,-1,2,,,0,,92,,280,Dry,1026,2,50,,,,-2,
Wick,25/12/2018 08:00,3.4,7,,,0,,90,,150,Dry,1026,7,50,,,,2,
Wick,25/12/2018 09:00,4,5,,,0,,84,,170,Dry,1026,3,50,,,,1.7,
Wick,25/12/2018 10:00,4.7,5,,,0,,90,,160,Dry,1025,8,30,,,,3.3,
Wick,25/12/2018 11:00,5.7,7,,,0,,92,,170,Dry,1025,7,45,,,,4.6,
Wick,25/12/2018 12:00,6.3,5,,,0,0,87,,170,Dry,1025,3,50,,,,4.3,
Wick,25/12/2018 13:00,6.5,8,,,0,,82,,170,Dry,1024,7,45,,,,3.8,
Wick,25/12/2018 14:00,7,7,,,0,,87,,180,Dry,1024,0,45,,,,5,
Wick,25/12/2018 15:00,8.3,8,,,0,,89,,190,Dry,1024,5,50,,,,6.6,
Wick,25/12/2018 16:00,7.7,5,,,0,,89,,200,Dry,1023,7,40,,,,6.1,
Wick,25/12/2018 17:00,7.9,12,,,0,,92,,190,Dry,1023,8,50,,,,6.7,
Wick,25/12/2018 18:00,7.5,7,,8.3,0,0,91,,170,Dry,1023,8,50,,,,6.2,
Wick,25/12/2018 19:00,7.8,7,,,0,,91,,160,Dry,1023,0,35,,,,6.5,
Wick,25/12/2018 20:00,7.5,8,,,0,,92,,170,Dry,1022,7,45,,,,6.4,
Wick,25/12/2018 21:00,8,14,,,0,,92,,190,Dry,1022,0,45,,,,6.8,
Wick,25/12/2018 22:00,9.1,8,,,0,,89,,190,Dry,1022,7,45,,,,7.4,
Wick,25/12/2018 23:00,8,6,,,0,,90,,220,Dry,1022,6,45,,,,6.5,
Wick,26/12/2018 00:00,8.9,13,,,0,0,88,,200,Dry,1021,0,45,,,,7.1,
Wick,26/12/2018 01:00,8.4,10,,,0,,90,,170,Dry,1021,8,50,,,,7,
Wick,26/12/2018 02:00,9.2,13,,,0,,89,,180,Drizzly rain,1021,8,14,,,,7.6,
Wick,26/12/2018 03:00,9.1,8,,,0.8,,93,,190,Light rain,1021,8,11,,,,8.1,
Wick,26/12/2018 04:00,9.1,6,,,1,,94,,190,Light rain,1021,5,8,,,,8.3,
Wick,26/12/2018 05:00,9,6,,,1,,94,,170,Light rain,1020,8,17,,,,8.2,
Wick,26/12/2018 06:00,9.2,6,7,,0.4,3,95,,180,Drizzly rain,1020,7,10,,,,8.5,
Wick,26/12/2018 07:00,9.4,5,,,0.4,,94,,230,Rain,1020,8,40,,,,8.5,
Wick,26/12/2018 08:00,10,5,,,0,,93,,200,Dry,1020,8,45,,,,9,
Wick,26/12/2018 09:00,10,6,,,0,,92,,180,Dry,1020,1,45,,,,8.8,
Wick,26/12/2018 10:00,9.8,5,,,0,,91,,190,Dry,1019,8,35,,,,8.5,
Wick,26/12/2018 11:00,9,6,,,0,,94,,180,Rain,1020,8,22,,,,8.2,
Wick,26/12/2018 12:00,10.2,6,,,0,0.4,93,,230,Dry,1019,8,35,,,,9.2,
Wick,26/12/2018 13:00,10.1,7,,,0,,92,,190,Dry,1019,8,27,,,,9,
Wick,26/12/2018 14:00,10.3,10,,,0,,91,,200,Dry,1019,8,45,,,,8.9,
Wick,26/12/2018 15:00,9.8,14,,,0,,91,,190,Dry,1018,0,45,,,,8.5,
Wick,26/12/2018 16:00,9.8,14,,,0,,89,,240,Dry,1019,2,50,,,,8.2,
Wick,26/12/2018 17:00,8.4,10,,,0,,95,,280,Dry,1019,1,45,,,,7.7,
Wick,26/12/2018 18:00,6.7,5,,10.6,0,0,95,,260,Dry,1019,0,45,,,,6,
Wick,26/12/2018 19:00,7,3,,,0,,96,,230,Dry,1019,8,50,,,,6.5,
Wick,26/12/2018 20:00,8,7,,,0,,92,,150,Dry,1019,8,45,,,,6.9,
Wick,26/12/2018 21:00,8.8,8,,,0,,89,,180,Dry,1018,8,45,,,,7.1,
Wick,26/12/2018 22:00,9.2,3,,,0,,86,,220,Dry,1018,8,50,,,,7,
Wick,26/12/2018 23:00,8.7,9,,,0,,86,,230,Dry,1018,8,50,,,,6.6,
Wick,27/12/2018 00:00,8.7,9,,,0,0,87,,230,Dry,1017,0,45,,,,6.7,
Wick,27/12/2018 01:00,9.4,13,,,0,,87,,220,Dry,1017,3,40,,,,7.4,
Wick,27/12/2018 02:00,9.6,12,,,0,,89,,230,Dry,1018,6,50,,,,7.9,
Wick,27/12/2018 03:00,8.5,10,,,0,,89,,230,Dry,1018,8,50,,,,6.9,
Wick,27/12/2018 04:00,7.3,9,,,0,,88,,230,Dry,1018,4,40,,,,5.6,
Wick,27/12/2018 05:00,8.1,15,,,0,,87,,230,Dry,1017,5,45,,,,6.2,
Wick,27/12/2018 06:00,8.1,12,6.1,,0.2,0.2,95,,290,Drizzle,1018,8,6,,,,7.5,
Wick,27/12/2018 07:00,8,7,,,0,,95,,240,Dry,1019,7,30,,,,7.3,
Wick,27/12/2018 08:00,7.5,8,,,0,,95,,260,Dry,1019,6,22,,,,6.9,
Wick,27/12/2018 09:00,7.8,8,,,0,,93,,240,Dry,1020,3,27,,,,6.8,
Wick,27/12/2018 10:00,7.5,2,,,0,,92,,210,Dry,1020,8,26,,,,6.4,
Wick,27/12/2018 11:00,7.9,8,,,0,,88,,250,Dry,1020,2,30,,,,6.2,
Wick,27/12/2018 12:00,7.6,9,,,0,0,89,,250,Dry,1020,8,35,,,,6,
Wick,27/12/2018 13:00,7.2,12,,,0,,88,,260,Dry,1020,2,40,,,,5.5,
Wick,27/12/2018 14:00,7.1,7,,,0,,85,,250,Dry,1020,7,40,,,,4.8,
Wick,27/12/2018 15:00,7.1,5,,,0,,86,,210,Dry,1020,7,35,,,,5,
Wick,27/12/2018 16:00,6.6,5,,,0,,89,,260,Dry,1020,8,45,,,,5,
Wick,27/12/2018 17:00,6.9,5,,,0,,88,,190,Dry,1020,8,35,,,,5.1,
Wick,27/12/2018 18:00,7.5,3,,8.1,0,0,84,,180,Dry,1020,8,35,,,,5.1,
Wick,27/12/2018 19:00,7.8,6,,,0,,90,,140,Dry,1021,8,45,,,,6.3,
Wick,27/12/2018 20:00,7.8,6,,,0,,88,,160,Dry,1021,7,45,,,,6.1,
Wick,27/12/2018 21:00,7.9,8,,,0,,92,,190,Dry,1020,8,50,,,,6.7,
Wick,27/12/2018 22:00,7.5,12,,,0,,92,,180,Dry,1020,8,50,,,,6.3,
Wick,27/12/2018 23:00,7.8,10,,,0,,92,,170,Dry,1020,8,50,,,,6.6,
Wick,28/12/2018 00:00,8,10,,,0,0,90,,170,Dry,1019,8,45,,,,6.5,
Wick,28/12/2018 01:00,8.2,12,,,0,,88,,190,Dry,1019,8,45,,,,6.4,
Wick,28/12/2018 02:00,7.9,7,,,0,,87,,180,Dry,1018,5,40,,,,5.9,
Wick,28/12/2018 03:00,7.9,9,,,0,,87,,170,Dry,1018,7,45,,,,6,
Wick,28/12/2018 04:00,7.8,10,,,0,,91,,160,Dry,1018,4,45,,,,6.5,
Wick,28/12/2018 05:00,8.9,15,,,0,,90,,180,Dry,1017,7,50,,,,7.5,
Wick,28/12/2018 06:00,9.1,15,7.5,,0,0,89,,180,Drizzly rain,1017,8,35,,,,7.5,
Wick,28/12/2018 07:00,8.6,14,,,1,,94,,180,Rain,1016,8,17,,,,7.8,
Wick,28/12/2018 08:00,8.8,18,,,0,,92,,200,Dry,1016,7,40,,,,7.6,
Wick,28/12/2018 09:00,8.4,10,,,0,,90,,190,Dry,1017,8,45,,,,6.9,
Wick,28/12/2018 10:00,8,7,,,0,,90,,220,Dry,1018,1,45,,,,6.6,
Wick,28/12/2018 11:00,9.1,13,,,0,,89,,250,Dry,1018,3,50,,,,7.5,
Wick,28/12/2018 12:00,8.9,22,,,0,1,95,33,270,Dry,1019,7,16,,,,8.2,
Wick,28/12/2018 13:00,8.2,25,,,0,,94,38,270,Haze,1020,6,14,,,,7.3,
Wick,28/12/2018 14:00,8.1,17,,,0,,88,32,270,Dry,1022,7,30,,,,6.3,
Wick,28/12/2018 15:00,6.9,17,,,0,,81,,270,Dry,1023,6,24,,,,3.9,
Wick,28/12/2018 16:00,5.6,10,,,0,,85,,260,Dry,1023,2,21,,,,3.4,
Wick,28/12/2018 17:00,4.6,14,,,0,,86,,260,Dry,1023,0,30,,,,2.6,
Wick,28/12/2018 18:00,4.5,8,,9.4,0,0,84,,190,Dry,1024,4,35,,,,2.1,
Wick,28/12/2018 19:00,4.7,8,,,0,,82,,230,Dry,1025,6,30,,,,2,
Wick,28/12/2018 20:00,5.2,8,,,0,,80,,210,Dry,1024,0,27,,,,2.1,
Wick,28/12/2018 21:00,6,6,,,0,,79,,220,Dry,1024,0,28,,,,2.7,
Wick,28/12/2018 22:00,6.2,7,,,0,,81,,190,Dry,1023,8,30,,,,3.3,
Wick,28/12/2018 23:00,6.2,9,,,0,,83,,180,Dry,1022,8,24,,,,3.7,
Wick,29/12/2018 00:00,6.1,5,,,0,0,88,,180,Dry,1021,8,21,,,,4.4,
Wick,29/12/2018 01:00,6.6,9,,,0,,84,,160,Dry,1019,8,27,,,,4.2,
Wick,29/12/2018 02:00,6.7,12,,,0,,80,,170,Light shower,1017,1,30,,,,3.6,
Wick,29/12/2018 03:00,6.5,12,,,0.4,,88,,160,Light shower,1015,7,17,,,,4.7,
Wick,29/12/2018 04:00,6.4,13,,,2,,94,,150,Light rain,1013,3,8,,,,5.6,
Wick,29/12/2018 05:00,6.1,15,,,0.4,,90,,140,Rain,1010,1,28,,,,4.6,
Wick,29/12/2018 06:00,6.7,14,4.4,,0,3,93,,170,Dry,1008,8,21,,,,5.7,
Wick,29/12/2018 07:00,6.6,14,,,0,,95,,190,Rain,1008,8,35,,,,6,
Wick,29/12/2018 08:00,7.6,13,,,0,,95,,230,Rain,1008,3,15,,,,7,
Wick,29/12/2018 09:00,6.4,26,,,0,,95,39,310,Dry,1013,5,50,,,,5.7,
Wick,29/12/2018 10:00,6.1,25,,,0,,90,39,310,Dry,1016,7,45,,,,4.7,
Wick,29/12/2018 11:00,6.8,24,,,0,,86,39,310,Dry,1019,8,35,,,,4.7,
Wick,29/12/2018 12:00,7,24,,,0,0,94,32,300,Haze,1020,8,12,,,,6.2,
Wick,29/12/2018 13:00,7.2,18,,,0,,94,,280,Misty,1022,3,6,,,,6.4,
Wick,29/12/2018 14:00,6.6,17,,,0.2,,92,32,290,Dry,1023,3,35,,,,5.5,
Wick,29/12/2018 15:00,6.6,20,,,0,,92,30,290,Dry,1023,5,35,,,,5.5,
Wick,29/12/2018 16:00,6,15,,,0,,92,,270,Dry,1025,2,45,,,,4.9,
Wick,29/12/2018 17:00,5.9,12,,,0,,93,,240,Dry,1025,6,35,,,,5,
Wick,29/12/2018 18:00,6.1,14,,8.4,0,0.2,92,,260,Dry,1026,7,35,,,,5,
Wick,29/12/2018 19:00,6.3,9,,,0,,92,,250,Dry,1026,8,40,,,,5.1,
Wick,29/12/2018 20:00,6.3,9,,,0,,93,,250,Dry,1026,8,35,,,,5.3,
Wick,29/12/2018 21:00,5.8,7,,,0,,92,,230,Dry,1026,8,45,,,,4.7,
Wick,29/12/2018 22:00,6.5,7,,,0,,90,,190,Dry,1026,8,45,,,,5,
Wick,29/12/2018 23:00,6.2,5,,,0,,90,,240,Dry,1026,8,50,,,,4.7,
Wick,30/12/2018 00:00,6.6,8,,,0,0,87,,220,Dry,1026,0,50,,,,4.7,
Wick,30/12/2018 01:00,6.7,9,,,0,,91,,220,Light shower,1026,8,17,,,,5.4,
Wick,30/12/2018 02:00,6.6,9,,,0.4,,90,,190,Light rain,1025,8,18,,,,5.2,
Wick,30/12/2018 03:00,7,10,,,0.2,,88,,180,Rain,1025,8,45,,,,5.2,
Wick,30/12/2018 04:00,6.6,9,,,0,,92,,170,Dry,1024,8,45,,,,5.5,
Wick,30/12/2018 05:00,6.7,8,,,0,,93,,180,Light shower,1024,8,10,,,,5.7,
Wick,30/12/2018 06:00,6.8,9,5.5,,2,3,95,,170,Light shower,1023,5,7,,,,6.2,
Wick,30/12/2018 07:00,6.9,12,,,1.4,,97,,170,Rain,1023,8,18,,,,6.6,
Wick,30/12/2018 08:00,7.2,12,,,0,,97,,170,Dry,1023,7,50,,,,6.8,
Wick,30/12/2018 09:00,7.3,6,,,0,,95,,190,Dry,1023,2,45,,,,6.7,
Wick,30/12/2018 10:00,8,9,,,0,,95,,180,Dry,1022,7,45,,,,7.4,
Wick,30/12/2018 11:00,10.4,9,,,0,,94,,240,Dry,1022,7,35,,,,9.5,
Wick,30/12/2018 12:00,10.8,15,,,0,1,87,,250,Dry,1022,7,22,,,,8.8,
Wick,30/12/2018 13:00,10.8,9,,,0,,85,,200,Dry,1022,8,30,,,,8.4,
Wick,30/12/2018 14:00,10.9,15,,,0,,87,,250,Dry,1022,5,40,,,,8.9,
Wick,30/12/2018 15:00,10.6,17,,,0,,89,,260,Dry,1023,8,35,,,,9,
Wick,30/12/2018 16:00,10.3,15,,,0,,86,29,250,Dry,1023,8,23,,,,8.1,
Wick,30/12/2018 17:00,10.3,15,,,0,,85,,240,Dry,1023,1,30,,,,8,
Wick,30/12/2018 18:00,9.8,23,,11.1,0,0,87,30,250,Dry,1023,7,45,,,,7.8,
Wick,30/12/2018 19:00,9.2,18,,,0,,87,,250,Dry,1023,8,45,,,,7.2,
Wick,30/12/2018 20:00,9.8,22,,,0,,83,31,240,Dry,1023,7,50,,,,7.1,
Wick,30/12/2018 21:00,8.9,10,,,0,,86,,200,Dry,1023,5,50,,,,6.8,
Wick,30/12/2018 22:00,9.2,16,,,0,,86,,210,Dry,1023,1,50,,,,7,
Wick,30/12/2018 23:00,9,18,,,0,,86,,220,Dry,1023,0,50,,,,6.9,
Wick,31/12/2018 00:00,9,10,,,0,0,84,,190,Dry,1023,4,50,,,,6.5,
Wick,31/12/2018 01:00,9.9,14,,,0,,80,,210,Dry,1023,5,45,,,,6.7,
Wick,31/12/2018 02:00,9,13,,,0,,82,32,220,Dry,1023,6,50,,,,6.2,
Wick,31/12/2018 03:00,10,21,,,0,,78,32,240,Dry,1022,0,50,,,,6.4,
Wick,31/12/2018 04:00,10.1,28,,,0,,75,38,250,Dry,1021,3,45,,,,6,
Wick,31/12/2018 05:00,9.7,26,,,0,,76,43,230,Dry,1021,3,45,,,,5.7,
Wick,31/12/2018 06:00,10.5,18,8.2,,0,0,73,36,220,Dry,1021,6,40,,,,6,
Wick,31/12/2018 07:00,10.6,20,,,0,,73,30,220,Dry,1020,8,40,,,,6.1,
Wick,31/12/2018 08:00,9.7,16,,,0,,80,29,190,Dry,1020,8,23,,,,6.6,
Wick,31/12/2018 09:00,10,18,,,0,,79,,190,Dry,1020,2,23,,,,6.7,
Wick,31/12/2018 10:00,9.6,20,,,0,,82,29,220,Dry,1019,1,22,,,,6.8,
Wick,31/12/2018 11:00,11.4,17,,,0,,79,37,220,Dry,1019,7,28,,,,7.9,
Wick,31/12/2018 12:00,11.6,26,,,0,0,80,41,220,Dry,1018,8,50,,,,8.4,
Wick,31/12/2018 13:00,11.8,20,,,0,,81,39,210,Dry,1017,8,40,,,,8.7,
Wick,31/12/2018 14:00,12,31,,,0,,79,45,240,Dry,1016,6,35,,,,8.6,
Wick,31/12/2018 15:00,11.8,31,,,0,,79,41,250,Dry,1015,1,45,,,,8.3,
Wick,31/12/2018 16:00,11.6,31,,,0,,82,46,250,Dry,1015,1,50,,,,8.8,
Wick,31/12/2018 17:00,11.3,40,,,0,,82,55,260,Dry,1014,0,50,,,,8.5,
Wick,31/12/2018 18:00,9.4,33,,12.4,0,0,89,54,280,Dry,1016,7,50,,,,7.8,
Wick,31/12/2018 19:00,7.6,37,,,0,,77,52,280,Dry,1017,6,14,,,,4,
Wick,31/12/2018 20:00,7,38,,,0,,76,59,280,Dry,1018,0,19,,,,3.2,
Wick,31/12/2018 21:00,6.5,38,,,0,,76,58,280,Dry,1018,3,14,,,,2.7,
Wick,31/12/2018 22:00,6.4,38,,,0,,72,59,280,Dry,1020,5,13,,,,1.9,
Wick,31/12/2018 23:00,6.1,30,,,0,,76,55,280,Dry,1021,4,16,,,,2.3,
Wick,01/01/2019 00:00,6.5,31,,,0,0,75,46,290,Dry,1022,5,13,,,,2.5,
Wick,01/01/2019 01:00,5.3,26,,,0.2,,86,45,300,Rain,1024,4,16,,,,3.3,
Wick,01/01/2019 02:00,5.3,23,,,0.4,,91,46,290,Rain,1025,8,12,,,,4.1,
Wick,01/01/2019 03:00,5.3,24,,,0,,82,36,310,Dry,1026,5,16,,,,2.6,
Wick,01/01/2019 04:00,4.9,28,,,0,,76,39,310,Dry,1027,3,15,,,,1.1,
Wick,01/01/2019 05:00,4.9,29,,,0,,72,44,310,Dry,1027,7,17,,,,0.4,
Wick,01/01/2019 06:00,5.2,29,4.4,,0,0.6,70,39,310,Dry,1028,1,19,,,,0.3,
Wick,01/01/2019 07:00,5,28,,,0,,68,40,310,Dry,1030,1,20,,,,-0.3,
Wick,01/01/2019 08:00,4.8,30,,,0,,60,40,310,Dry,1031,8,23,,,,-2.2,
Wick,01/01/2019 09:00,4.7,20,,,0,,63,38,310,Dry,1032,8,30,,,,-1.7,
Wick,01/01/2019 10:00,4.9,20,,,0,,70,30,330,Dry,1033,1,19,,,,0,
Wick,01/01/2019 11:00,4.8,22,,,0,,60,31,340,Dry,1035,8,21,,,,-2.2,
Wick,01/01/2019 12:00,4.8,20,,,0,0,61,33,330,Dry,1035,8,24,,,,-2,
Wick,01/01/2019 13:00,4.7,20,,,0,,61,31,330,Dry,1036,8,23,,,,-2.1,
Wick,01/01/2019 14:00,4.4,21,,,0,,54,29,330,Dry,1037,7,35,,,,-4,
Wick,01/01/2019 15:00,4.1,18,,,0,,58,31,320,Dry,1038,8,23,,,,-3.2,
Wick,01/01/2019 16:00,4,16,,,0,,66,,340,Dry,1039,8,16,,,,-1.6,
Wick,01/01/2019 17:00,3.8,17,,,0,,58,29,320,Dry,1040,8,21,,,,-3.5,
Wick,01/01/2019 18:00,3.9,17,,5.3,0,0,59,,330,Dry,1041,8,19,,,,-3.3,
Wick,01/01/2019 19:00,3.9,13,,,0,,67,,320,Dry,1041,8,16,,,,-1.5,
Wick,01/01/2019 20:00,3.7,13,,,0,,60,,350,Dry,1042,8,22,,,,-3.2,
Wick,01/01/2019 21:00,3.6,12,,,0,,67,,330,Dry,1042,8,19,,,,-1.8,
Wick,01/01/2019 22:00,3.7,14,,,0,,63,,350,Dry,1042,8,24,,,,-2.5,
Wick,01/01/2019 23:00,3.5,9,,,0,,69,,320,Dry,1043,8,23,,,,-1.6,
Wick,02/01/2019 00:00,2.9,7,,,0,0,73,,300,Dry,1043,8,22,,,,-1.3,
Wick,02/01/2019 01:00,2.7,7,,,0,,78,,300,Dry,1043,8,21,,,,-0.7,
Wick,02/01/2019 02:00,3,9,,,0,,75,,310,Dry,1044,8,14,,,,-0.9,
Wick,02/01/2019 03:00,2.9,5,,,0,,68,,320,Dry,1044,8,27,,,,-2.3,
Wick,02/01/2019 04:00,2.6,3,,,0,,72,,290,Dry,1044,8,28,,,,-1.8,
Wick,02/01/2019 05:00,2.7,3,,,0,,72,,240,Dry,1044,8,15,,,,-1.7,
Wick,02/01/2019 06:00,2.5,3,2.4,,0,0,75,,220,Dry,1044,8,20,,,,-1.3,
Wick,02/01/2019 07:00,2.3,3,,,0,,79,,240,Dry,1044,8,22,,,,-0.9,
Wick,02/01/2019 08:00,2.2,5,,,0,,79,,250,Dry,1044,8,22,,,,-1,
Wick,02/01/2019 09:00,2.3,6,,,0,,78,,250,Dry,1044,8,17,,,,-1,
Wick,02/01/2019 10:00,2.5,6,,,0,,77,,250,Dry,1044,8,29,,,,-1,
Wick,02/01/2019 11:00,2.7,6,,,0,,77,,220,Dry,1044,8,25,,,,-0.9,
Wick,02/01/2019 12:00,3.5,7,,,0,0,73,,230,Dry,1044,8,30,,,,-0.7,
Wick,02/01/2019 13:00,3.5,7,,,0,,69,,230,Dry,1043,8,23,,,,-1.5,
Wick,02/01/2019 14:00,3.5,6,,,0,,69,,210,Dry,1043,8,27,,,,-1.6,
Wick,02/01/2019 15:00,3.1,7,,,0,,71,,230,Dry,1043,8,27,,,,-1.5,
Wick,02/01/2019 16:00,3,5,,,0,,70,,200,Dry,1042,8,22,,,,-1.9,
Wick,02/01/2019 17:00,2.9,6,,,0,,69,,230,Dry,1042,8,29,,,,-2.1,
Wick,02/01/2019 18:00,2.4,6,,3.6,0,0,71,,230,Dry,1042,8,29,,,,-2.2,
Wick,02/01/2019 19:00,1.9,3,,,0,,75,,230,Dry,1042,8,30,,,,-1.9,
Wick,02/01/2019 20:00,1.8,8,,,0,,78,,230,Dry,1042,8,35,,,,-1.6,
Wick,02/01/2019 21:00,2.1,7,,,0,,75,,240,Dry,1042,8,30,,,,-1.7,
Wick,02/01/2019 22:00,2.3,5,,,0,,74,,230,Dry,1041,8,30,,,,-1.8,
Wick,02/01/2019 23:00,2.7,5,,,0,,71,,160,Dry,1041,5,35,,,,-1.9,
Wick,03/01/2019 00:00,3,6,,,0,0,70,,180,Dry,1041,8,35,,,,-1.9,
Wick,03/01/2019 01:00,3,7,,,0,,71,,190,Dry,1041,8,35,,,,-1.7,
Wick,03/01/2019 02:00,3.5,8,,,0,,68,,190,Dry,1040,8,50,,,,-1.8,
Wick,03/01/2019 03:00,3,9,,,0,,76,,190,Dry,1040,8,35,,,,-0.8,
Wick,03/01/2019 04:00,2.9,8,,,0,,74,,180,Dry,1040,7,35,,,,-1.1,
Wick,03/01/2019 05:00,3,9,,,0,,74,,180,Dry,1040,8,45,,,,-1,
Wick,03/01/2019 06:00,2.7,8,1.6,,0,0,78,,190,Dry,1040,4,35,,,,-0.7,
Wick,03/01/2019 07:00,3.3,9,,,0,,77,,180,Dry,1040,8,35,,,,-0.3,
Wick,03/01/2019 08:00,3.7,7,,,0,,72,,180,Dry,1040,8,40,,,,-0.7,
Wick,03/01/2019 09:00,3.8,7,,,0,,76,,190,Dry,1040,8,35,,,,0,
Wick,03/01/2019 10:00,4.3,7,,,0,,75,,190,Dry,1040,8,40,,,,0.3,
Wick,03/01/2019 11:00,4.7,7,,,0,,72,,180,Dry,1040,8,45,,,,0.2,
Wick,03/01/2019 12:00,5.1,7,,,0,0,72,,210,Dry,1040,8,45,,,,0.6,
Wick,03/01/2019 13:00,5.6,5,,,0,,74,,200,Dry,1039,8,45,,,,1.4,
Wick,03/01/2019 14:00,5.8,7,,,0,,76,,180,Dry,1039,8,35,,,,2,
Wick,03/01/2019 15:00,5.6,8,,,0,,78,,180,Dry,1038,8,45,,,,2.2,
Wick,03/01/2019 16:00,5.9,7,,,0,,79,,200,Dry,1039,8,40,,,,2.6,
Wick,03/01/2019 17:00,5.9,5,,,0,,81,,170,Dry,1039,8,45,,,,2.9,
Wick,03/01/2019 18:00,6.2,6,,6.2,0,0,81,,220,Dry,1038,8,50,,,,3.2,
Wick,03/01/2019 19:00,6.3,5,,,0,,80,,240,Dry,1038,8,50,,,,3.2,
Wick,03/01/2019 20:00,6.1,7,,,0,,82,,260,Dry,1038,8,50,,,,3.4,
Wick,03/01/2019 21:00,6.3,9,,,0,,80,,230,Dry,1038,8,50,,,,3.2,
Wick,03/01/2019 22:00,5.9,7,,,0,,81,,220,Dry,1038,8,50,,,,3,
Wick,03/01/2019 23:00,6.4,6,,,0,,76,,190,Dry,1038,8,45,,,,2.5,
Wick,04/01/2019 00:00,5.9,7,,,0,0,79,,220,Dry,1038,8,45,,,,2.7,
Wick,04/01/2019 01:00,5.7,5,,,0,,82,,250,Dry,1038,8,50,,,,2.9,
Wick,04/01/2019 02:00,5.7,7,,,0,,82,,220,Dry,1038,8,45,,,,2.9,
Wick,04/01/2019 03:00,5.2,8,,,0,,82,,230,Dry,1037,7,50,,,,2.5,
Wick,04/01/2019 04:00,5.9,8,,,0,,82,,220,Dry,1037,7,50,,,,3.1,
Wick,04/01/2019 05:00,6.5,9,,,0,,81,,210,Dry,1036,8,50,,,,3.5,
Wick,04/01/2019 06:00,6.6,5,5,,0,0,82,,220,Dry,1036,8,50,,,,3.9,
Wick,04/01/2019 07:00,7,9,,,0,,82,,210,Dry,1036,8,45,,,,4.2,
Wick,04/01/2019 08:00,7.3,10,,,0,,84,,220,Dry,1036,8,50,,,,4.8,
Wick,04/01/2019 09:00,8,10,,,0,,80,,240,Dry,1037,8,40,,,,4.9,
Wick,04/01/2019 10:00,8.2,10,,,0,,81,,230,Dry,1037,8,50,,,,5.2,
Wick,04/01/2019 11:00,8.3,9,,,0,,81,,230,Dry,1037,8,45,,,,5.4,
Wick,04/01/2019 12:00,8.4,13,,,0,0,81,,260,Dry,1036,1,40,,,,5.5,
Wick,04/01/2019 13:00,8.2,10,,,0,,84,,270,Dry,1036,8,40,,,,5.7,
Wick,04/01/2019 14:00,7.8,14,,,0,,79,,280,Dry,1036,8,35,,,,4.5,
Wick,04/01/2019 15:00,7.6,12,,,0,,80,,270,Dry,1036,8,30,,,,4.4,
Wick,04/01/2019 16:00,7.2,9,,,0,,84,,270,Dry,1037,8,28,,,,4.7,
Wick,04/01/2019 17:00,6.7,5,,,0,,84,,240,Dry,1036,8,35,,,,4.2,
Wick,04/01/2019 18:00,6,6,,8.5,0,0,83,,210,Dry,1036,7,45,,,,3.5,
Wick,04/01/2019 19:00,6.5,7,,,0,,82,,240,Dry,1036,8,35,,,,3.7,
Wick,04/01/2019 20:00,6.2,8,,,0,,83,,230,Dry,1036,8,45,,,,3.6,
Wick,04/01/2019 21:00,6.3,8,,,0,,84,,250,Dry,1036,8,45,,,,3.9,
Wick,04/01/2019 22:00,6.5,7,,,0,,84,,230,Dry,1036,8,45,,,,4,
Wick,04/01/2019 23:00,6.8,8,,,0,,82,,220,Dry,1036,8,45,,,,4.1,
Wick,05/01/2019 00:00,6.7,8,,,0,0,82,,240,Dry,1036,8,45,,,,4,
Wick,05/01/2019 01:00,6.8,7,,,0,,82,,240,Dry,1036,8,40,,,,4,
Wick,05/01/2019 02:00,6.7,8,,,0,,80,,240,Dry,1035,8,45,,,,3.6,
Wick,05/01/2019 03:00,6.8,10,,,0,,79,,240,Dry,1035,8,30,,,,3.5,
Wick,05/01/2019 04:00,6.8,8,,,0,,78,,230,Dry,1035,8,50,,,,3.4,
Wick,05/01/2019 05:00,6.8,8,,,0,,77,,230,Dry,1034,8,50,,,,3.2,
Wick,05/01/2019 06:00,6.5,6,5.5,,0,0,79,,240,Dry,1034,8,40,,,,3.2,
Wick,05/01/2019 07:00,6.4,7,,,0,,80,,230,Dry,1034,8,45,,,,3.3,
Wick,05/01/2019 08:00,6.3,8,,,0,,81,,230,Dry,1034,8,45,,,,3.4,
Wick,05/01/2019 09:00,6.6,7,,,0,,78,,230,Dry,1034,7,45,,,,3.1,
Wick,05/01/2019 10:00,4.9,6,,,0,,84,,240,Dry,1033,7,40,,,,2.5,
Wick,05/01/2019 11:00,4.9,7,,,0,,85,,240,Dry,1033,1,40,,,,2.7,
Wick,05/01/2019 12:00,6.4,7,,,0,0,82,,240,Dry,1033,7,30,,,,3.7,
Wick,05/01/2019 13:00,6.7,5,,,0,,80,,230,Dry,1032,8,35,,,,3.6,
Wick,05/01/2019 14:00,7.3,5,,,0,,77,,200,Dry,1032,8,30,,,,3.7,
Wick,05/01/2019 15:00,7.8,6,,,0,,74,,230,Dry,1032,8,40,,,,3.6,
Wick,05/01/2019 16:00,7,10,,,0,,77,,230,Dry,1032,8,40,,,,3.3,
Wick,05/01/2019 17:00,6.5,7,,,0,,76,,210,Dry,1031,8,45,,,,2.7,
Wick,05/01/2019 18:00,5.9,6,,7.9,0,0,78,,150,Dry,1031,8,30,,,,2.5,
Wick,05/01/2019 19:00,6.1,7,,,0,,78,,190,Dry,1031,8,50,,,,2.7,
Wick,05/01/2019 20:00,6,8,,,0,,83,,200,Dry,1030,8,40,,,,3.4,
Wick,05/01/2019 21:00,6.6,9,,,0,,77,,190,Dry,1031,8,45,,,,2.9,
Wick,05/01/2019 22:00,5.9,8,,,0,,90,,190,Rain,1030,8,9,,,,4.4,
Wick,05/01/2019 23:00,5.7,12,,,0.4,,93,,180,Light shower,1030,7,14,,,,4.8,
Wick,06/01/2019 00:00,5.7,9,,,0.4,0.8,93,,170,Rain,1030,1,4,,,,4.8,
Wick,06/01/2019 01:00,6,9,,,0,,94,,180,Dry,1030,8,23,,,,5.2,
Wick,06/01/2019 02:00,6.5,8,,,0,,93,,190,Dry,1030,8,30,,,,5.5,
Wick,06/01/2019 03:00,7.8,9,,,0,,95,,240,Dry,1030,5,50,,,,7.1,
Wick,06/01/2019 04:00,8.6,16,,,0,,96,,270,Dry,1030,8,50,,,,8.1,
Wick,06/01/2019 05:00,7.6,16,,,0.2,,97,,320,Misty,1031,3,11,,,,7.2,
Wick,06/01/2019 06:00,6.4,8,5.4,,0,0.2,95,,310,Dry,1031,1,18,,,,5.8,
Wick,06/01/2019 07:00,6.7,9,,,0,,92,,300,Dry,1032,7,17,,,,5.6,
Wick,06/01/2019 08:00,6.3,9,,,0,,91,,310,Dry,1032,8,18,,,,5,
Wick,06/01/2019 09:00,6.2,3,,,0,,90,,220,Dry,1033,8,19,,,,4.7,
Wick,06/01/2019 10:00,5.4,6,,,0,,90,,280,Dry,1033,8,28,,,,4,
Wick,06/01/2019 11:00,6.1,7,,,0,,90,,270,Dry,1034,8,16,,,,4.6,
Wick,06/01/2019 12:00,6.4,5,,,0,0,88,,280,Dry,1034,8,24,,,,4.6,
Wick,06/01/2019 13:00,6.6,3,,,0,,88,,220,Dry,1034,8,21,,,,4.9,
Wick,06/01/2019 14:00,6.7,6,,,0,,89,,270,Dry,1034,4,22,,,,5.1,
Wick,06/01/2019 15:00,6,2,,,0,,85,,230,Dry,1034,3,21,,,,3.7,
Wick,06/01/2019 16:00,4,3,,,0,,91,,270,Dry,1034,4,14,,,,2.7,
Wick,06/01/2019 17:00,2.9,3,,,0,,94,,250,Dry,1034,0,13,,,,2.1,
Wick,06/01/2019 18:00,3.8,2,,7,0,0,93,,210,Dry,1033,7,30,,,,2.8,
Wick,06/01/2019 19:00,4.6,5,,,0,,86,,170,Dry,1032,2,23,,,,2.6,
Wick,06/01/2019 20:00,4.6,5,,,0,,88,,150,Dry,1032,0,14,,,,2.9,
Wick,06/01/2019 21:00,6.4,9,,,0,,88,,150,Dry,1030,2,17,,,,4.7,
Wick,06/01/2019 22:00,6.7,10,,,0,,87,,160,Dry,1029,3,20,,,,4.8,
Wick,06/01/2019 23:00,6.9,14,,,0,,83,,160,Dry,1028,6,25,,,,4.3,
Wick,07/01/2019 00:00,6.7,13,,,0,0,90,,150,Dry,1026,7,23,,,,5.2,
Wick,07/01/2019 01:00,7.1,13,,,0,,90,,160,Dry,1024,8,30,,,,5.7,
Wick,07/01/2019 02:00,7.3,15,,,0,,90,,160,Dry,1022,8,30,,,,5.9,
Wick,07/01/2019 03:00,7.5,16,,,0,,89,,160,Rain,1021,4,50,,,,5.9,
Wick,07/01/2019 04:00,7.9,16,,,0,,90,,170,Dry,1018,8,35,,,,6.5,
Wick,07/01/2019 05:00,7.9,13,,,0,,94,,160,Dry,1016,8,30,,,,7.1,
Wick,07/01/2019 06:00,9,23,2.7,,0,0,90,31,190,Dry,1013,8,30,,,,7.6,
Wick,07/01/2019 07:00,8.8,18,,,0,,94,31,180,Rain,1012,8,18,,,,7.9,
Wick,07/01/2019 08:00,9.8,21,,,0.2,,83,32,240,Dry,1011,5,40,,,,7.1,
Wick,07/01/2019 09:00,7.9,26,,,0,,80,45,250,Dry,1010,1,19,,,,4.7,
Wick,07/01/2019 10:00,7.3,26,,,0,,81,54,240,Dry,1009,0,30,,,,4.3,
Wick,07/01/2019 11:00,7.2,32,,,0,,81,47,230,Dry,1007,1,40,,,,4.2,
Wick,07/01/2019 12:00,7.3,41,,,0,0.2,84,53,250,Light shower,1006,6,9,,,,4.8,
Wick,07/01/2019 13:00,7.2,39,,,0.2,,82,59,250,Rain,1004,1,18,,,,4.4,
Wick,07/01/2019 14:00,6.9,45,,,0.4,,92,64,260,Rain,1004,8,6,,,,5.7,
Wick,07/01/2019 15:00,6.9,48,,,0.4,,90,74,280,Rain,1004,8,8,,,,5.4,
Wick,07/01/2019 16:00,6.9,51,,,0.6,,86,71,290,Rain,1006,8,8,,,,4.8,
Wick,07/01/2019 17:00,6.4,48,,,0,,86,68,290,Light shower,1008,8,10,,,,4.3,
Wick,07/01/2019 18:00,6.4,49,,9.8,0.2,1.8,84,69,290,Light shower,1010,8,9,,,,4,
Wick,07/01/2019 19:00,6.7,46,,,0.2,,81,68,290,Rain,1011,8,11,,,,3.8,
Wick,07/01/2019 20:00,6.8,46,,,0,,77,62,290,Haze,1013,7,12,,,,3.1,
Wick,07/01/2019 21:00,6.9,47,,,0,,74,64,300,Dry,1014,7,13,,,,2.7,
Wick,07/01/2019 22:00,6.6,41,,,0,,76,63,300,Dry,1016,7,14,,,,2.7,
Wick,07/01/2019 23:00,6.7,39,,,0,,75,59,300,Dry,1018,2,15,,,,2.7,
Wick,08/01/2019 00:00,6.5,35,,,0,0.2,72,49,300,Dry,1019,5,17,,,,2,
Wick,08/01/2019 01:00,6.1,31,,,0.2,,82,51,310,Light shower,1020,2,14,,,,3.3,
Wick,08/01/2019 02:00,5.9,31,,,0,,82,44,310,Rain,1021,5,8,,,,3.2,
Wick,08/01/2019 03:00,5.1,28,,,0.2,,86,40,310,Rain,1022,3,30,,,,3,
Wick,08/01/2019 04:00,5.7,24,,,0,,81,36,310,Rain,1023,5,24,,,,2.8,
Wick,08/01/2019 05:00,5.2,21,,,0.2,,85,39,320,Rain,1024,3,16,,,,3,
Wick,08/01/2019 06:00,4.6,23,4.2,,0.2,0.8,80,44,320,Rain,1025,4,30,,,,1.5,
Wick,08/01/2019 07:00,4.5,21,,,0,,86,35,320,Dry,1025,6,15,,,,2.5,
Wick,08/01/2019 08:00,4.9,18,,,0,,79,32,320,Rain,1026,7,13,,,,1.7,
Wick,08/01/2019 09:00,4.6,22,,,0,,68,32,310,Dry,1026,7,29,,,,-0.6,
Wick,08/01/2019 10:00,5.1,23,,,0,,71,33,310,Dry,1027,7,13,,,,0.3,
Wick,08/01/2019 11:00,5.6,24,,,0,,65,33,320,Dry,1028,7,35,,,,-0.3,
Wick,08/01/2019 12:00,5.6,23,,,0,0,66,33,320,Dry,1028,5,18,,,,-0.1,
Wick,08/01/2019 13:00,5.5,22,,,0,,67,32,320,Dry,1028,8,19,,,,0,
Wick,08/01/2019 14:00,5.9,18,,,0,,65,31,320,Dry,1028,7,23,,,,0,
Wick,08/01/2019 15:00,5.1,17,,,0,,74,,330,Dry,1029,7,16,,,,1,
Wick,08/01/2019 16:00,3.8,21,,,0.4,,84,30,330,Light shower,1029,8,29,,,,1.5,
Wick,08/01/2019 17:00,3.4,16,,,0,,82,29,320,Rain,1030,8,25,,,,0.7,
Wick,08/01/2019 18:00,4.4,20,,6,0,0.4,75,,340,Dry,1030,7,30,,,,0.4,
Wick,08/01/2019 19:00,4.4,17,,,0,,73,29,340,Dry,1031,8,35,,,,0,
Wick,08/01/2019 20:00,4.3,17,,,0,,74,,340,Dry,1031,7,35,,,,0.1,
Wick,08/01/2019 21:00,4,17,,,0,,74,,330,Dry,1032,8,35,,,,-0.1,
Wick,08/01/2019 22:00,3.8,12,,,0,,79,,340,Dry,1032,8,35,,,,0.6,
Wick,08/01/2019 23:00,3.9,12,,,0,,76,,330,Dry,1032,8,45,,,,0.1,
Wick,09/01/2019 00:00,3.4,12,,,0,0,73,,310,Dry,1032,8,40,,,,-0.8,
Wick,09/01/2019 01:00,3.4,10,,,0,,81,,320,Dry,1032,8,35,,,,0.5,
Wick,09/01/2019 02:00,3.7,12,,,0,,80,,340,Rain,1033,8,35,,,,0.6,
Wick,09/01/2019 03:00,3.8,8,,,0,,77,,330,Dry,1033,8,35,,,,0.2,
Wick,09/01/2019 04:00,2.8,8,,,0,,81,,300,Dry,1032,8,28,,,,-0.1,
Wick,09/01/2019 05:00,2.3,7,,,0,,82,,300,Dry,1032,7,35,,,,-0.4,
Wick,09/01/2019 06:00,2,5,2,,0,0,86,,310,Dry,1032,8,40,,,,0,
Wick,09/01/2019 07:00,1.8,5,,,0,,84,,250,Dry,1032,8,27,,,,-0.5,
Wick,09/01/2019 08:00,1,6,,,0,,83,,230,Dry,1032,8,50,,,,-1.5,
Wick,09/01/2019 09:00,1.1,3,,,0,,87,,240,Dry,1032,8,45,,,,-0.8,
Wick,09/01/2019 10:00,1.7,5,,,0,,83,,220,Dry,1032,4,35,,,,-0.8,
Wick,09/01/2019 11:00,2.5,3,,,0,,80,,220,Dry,1032,6,30,,,,-0.5,
Wick,09/01/2019 12:00,3.9,5,,,0,0,79,,240,Dry,1032,7,35,,,,0.7,
Wick,09/01/2019 13:00,4.8,5,,,0,,75,,210,Dry,1031,7,30,,,,0.8,
Wick,09/01/2019 14:00,4.8,6,,,0,,73,,200,Dry,1030,8,40,,,,0.5,
Wick,09/01/2019 15:00,5,7,,,0,,72,,210,Dry,1030,8,40,,,,0.5,
Wick,09/01/2019 16:00,4.8,6,,,0,,78,,190,Dry,1029,1,40,,,,1.3,
Wick,09/01/2019 17:00,5,6,,,0,,74,,210,Dry,1028,8,35,,,,0.9,
Wick,09/01/2019 18:00,5.2,6,,5.3,0,0,76,,180,Dry,1028,8,23,,,,1.5,
Wick,09/01/2019 19:00,4.9,7,,,0.2,,93,,180,Drizzle,1028,8,5,,,,3.9,
Wick,09/01/2019 20:00,5.6,7,,,0,,95,,210,Dry,1027,8,45,,,,5,
Wick,09/01/2019 21:00,7.1,9,,,0,,95,,250,Dry,1027,8,45,,,,6.5,
Wick,09/01/2019 22:00,8,10,,,0,,97,,260,Dry,1027,8,50,,,,7.6,
Wick,09/01/2019 23:00,8.1,9,,,0,,97,,260,Dry,1027,8,50,,,,7.8,
Wick,10/01/2019 00:00,8.7,13,,,0,0.2,96,,270,Dry,1026,7,50,,,,8.2,
Wick,10/01/2019 01:00,8.7,10,,,0,,96,,280,Dry,1027,7,40,,,,8.2,
Wick,10/01/2019 02:00,8.6,10,,,0,,96,,260,Dry,1027,8,40,,,,8,
Wick,10/01/2019 03:00,8.8,14,,,0,,94,,260,Dry,1026,8,50,,,,8,
Wick,10/01/2019 04:00,8.5,14,,,0,,95,,260,Dry,1026,8,50,,,,7.8,
Wick,10/01/2019 05:00,8.5,12,,,0,,95,,260,Dry,1026,8,35,,,,7.8,
Wick,10/01/2019 06:00,8.9,10,4.8,,0,0,94,,280,Dry,1026,8,50,,,,8.1,
Wick,10/01/2019 07:00,9.3,13,,,0,,94,,270,Dry,1026,8,14,,,,8.5,
Wick,10/01/2019 08:00,9.3,16,,,0,,96,,270,Misty,1026,8,9,,,,8.7,
Wick,10/01/2019 09:00,8.7,13,,,0,,93,,270,Dry,1027,7,11,,,,7.7,
Wick,10/01/2019 10:00,8.6,12,,,0,,90,,260,Dry,1027,8,12,,,,7.1,
Wick,10/01/2019 11:00,8.7,13,,,0,,87,,250,Dry,1027,8,18,,,,6.7,
Wick,10/01/2019 12:00,9,14,,,0,0,84,,250,Dry,1027,8,23,,,,6.6,
Wick,10/01/2019 13:00,8.9,17,,,0,,82,,260,Dry,1026,7,27,,,,6,
Wick,10/01/2019 14:00,8.4,18,,,0,,81,,260,Dry,1026,7,50,,,,5.5,
Wick,10/01/2019 15:00,8.5,20,,,0,,83,,270,Dry,1026,7,45,,,,5.9,
Wick,10/01/2019 16:00,8.3,16,,,0,,87,,270,Dry,1025,8,30,,,,6.4,
Wick,10/01/2019 17:00,8.4,21,,,0,,88,,280,Dry,1025,8,24,,,,6.6,
Wick,10/01/2019 18:00,8.1,23,,9.4,0,0,90,30,270,Dry,1026,8,30,,,,6.7,
Wick,10/01/2019 19:00,8.8,21,,,0,,87,31,280,Dry,1026,1,17,,,,6.9,
Wick,10/01/2019 20:00,8.9,22,,,0,,82,37,280,Dry,1026,8,26,,,,6.1,
Wick,10/01/2019 21:00,8.7,28,,,0,,84,37,280,Dry,1026,8,18,,,,6.2,
Wick,10/01/2019 22:00,8.2,25,,,0,,89,38,280,Haze,1026,8,11,,,,6.6,
Wick,10/01/2019 23:00,8.2,21,,,0,,92,35,280,Haze,1026,8,4,,,,7,
Wick,11/01/2019 00:00,8.2,22,,,0.2,0.2,91,30,280,Drizzle,1026,2,6,,,,6.9,
Wick,11/01/2019 01:00,8,18,,,0.2,,93,30,290,Drizzle,1026,8,14,,,,7,
Wick,11/01/2019 02:00,8.1,21,,,0,,87,33,290,Dry,1026,7,22,,,,6.1,
Wick,11/01/2019 03:00,7.2,21,,,0,,90,31,280,Dry,1027,5,23,,,,5.8,
Wick,11/01/2019 04:00,7,20,,,0,,91,30,280,Dry,1026,1,25,,,,5.7,
Wick,11/01/2019 05:00,6.8,16,,,0,,92,30,280,Dry,1027,4,35,,,,5.7,
Wick,11/01/2019 06:00,7.2,8,6.6,,0,0.2,94,,290,Dry,1027,5,18,,,,6.4,
Wick,11/01/2019 07:00,6,12,,,0.2,,96,,270,Drizzle,1026,7,35,,,,5.5,
Wick,11/01/2019 08:00,6.8,13,,,0,,97,,270,Misty,1026,8,10,,,,6.4,
Wick,11/01/2019 09:00,6.5,13,,,0,,97,,270,Dry,1026,8,50,,,,6.2,
Wick,11/01/2019 10:00,7.1,14,,,0,,97,,260,Misty,1026,8,2,,,,6.8,
Wick,11/01/2019 11:00,7.2,14,,,0.2,,97,,270,Dry,1026,1,40,,,,6.8,
Wick,11/01/2019 12:00,7.7,14,,,0,0.4,95,,260,Misty,1025,7,14,,,,7,
Wick,11/01/2019 13:00,8,13,,,0,,93,,260,Dry,1024,7,30,,,,7,
Wick,11/01/2019 14:00,8.2,15,,,0,,86,,260,Dry,1024,7,30,,,,6.1,
Wick,11/01/2019 15:00,7.4,12,,,0,,86,,260,Dry,1023,5,45,,,,5.3,
Wick,11/01/2019 16:00,7.4,14,,,0,,86,,260,Dry,1023,7,45,,,,5.3,
Wick,11/01/2019 17:00,7.4,8,,,0,,87,,210,Dry,1022,8,50,,,,5.4,
Wick,11/01/2019 18:00,6.7,2,,9,0,0,88,,230,Dry,1021,8,45,,,,4.9,
Wick,11/01/2019 19:00,7,5,,,0,,88,,170,Dry,1020,8,50,,,,5.2,
Wick,11/01/2019 20:00,7.2,10,,,0,,91,,190,Dry,1018,8,40,,,,5.9,
Wick,11/01/2019 21:00,7.2,16,,,0,,92,,180,Dry,1016,1,50,,,,6.1,
Wick,11/01/2019 22:00,7.1,12,,,0,,92,,170,Dry,1014,8,50,,,,6,
Wick,11/01/2019 23:00,7.2,17,,,0,,93,,200,Rain,1012,8,5,,,,6.2,
Wick,12/01/2019 00:00,7,18,,,1.2,1,89,30,240,Rain,1012,5,12,,,,5.4,
Wick,12/01/2019 01:00,6.9,21,,,0.2,,90,29,250,Rain,1011,7,29,,,,5.5,
Wick,12/01/2019 02:00,6.1,24,,,0,,88,33,260,Rain,1010,5,50,,,,4.3,
Wick,12/01/2019 03:00,6.2,24,,,0,,93,36,260,Light shower,1010,6,27,,,,5.2,
Wick,12/01/2019 04:00,6.4,20,,,0.2,,92,30,260,Rain,1009,1,16,,,,5.2,
Wick,12/01/2019 05:00,6.8,25,,,0.2,,92,36,270,Light shower,1009,7,16,,,,5.7,
Wick,12/01/2019 06:00,6.9,22,5.8,,0,1,90,33,270,Rain,1009,6,16,,,,5.4,
Wick,12/01/2019 07:00,6.5,24,,,0,,90,40,270,Rain,1008,2,25,,,,5.1,
Wick,12/01/2019 08:00,6.7,23,,,0,,90,35,270,Rain,1009,7,11,,,,5.2,
Wick,12/01/2019 09:00,6.7,21,,,0.2,,90,32,270,Rain,1008,8,14,,,,5.3,
Wick,12/01/2019 10:00,6.9,24,,,0,,90,35,270,Rain,1008,1,14,,,,5.5,
Wick,12/01/2019 11:00,7.7,23,,,0.4,,92,35,270,Rain,1008,7,12,,,,6.5,
Wick,12/01/2019 12:00,7.3,30,,,0.2,0.8,94,43,280,Drizzle,1008,8,20,,,,6.4,
Wick,12/01/2019 13:00,7.6,28,,,0.4,,95,43,290,Drizzle,1007,8,7,,,,6.9,
Wick,12/01/2019 14:00,7.7,28,,,0,,93,45,280,Drizzle,1007,7,15,,,,6.7,
Wick,12/01/2019 15:00,7.4,25,,,0.2,,93,40,280,Dry,1007,7,28,,,,6.4,
Wick,12/01/2019 16:00,7.5,20,,,0.2,,96,31,280,Misty,1007,8,6,,,,7,
Wick,12/01/2019 17:00,7.8,18,,,0,,97,32,280,Drizzle,1006,8,18,,,,7.4,
Wick,12/01/2019 18:00,8.1,17,,8.1,0.2,1.2,98,29,270,Rain,1006,6,8,,,,7.9,
Wick,12/01/2019 19:00,8.6,18,,,0.4,,98,,270,Light drizzle,1005,8,20,,,,8.4,
Wick,12/01/2019 20:00,9.1,22,,,0,,96,32,270,Drizzle,1004,7,15,,,,8.6,
Wick,12/01/2019 21:00,9.1,24,,,0,,96,32,270,Misty,1003,6,7,,,,8.5,
Wick,12/01/2019 22:00,9.2,25,,,0.6,,96,36,270,Drizzly rain,1002,8,7,,,,8.7,
Wick,12/01/2019 23:00,9.2,29,,,0.6,,96,39,270,Drizzly rain,1002,6,5,,,,8.7,
Wick,13/01/2019 00:00,9.2,26,,,1,3,97,38,270,Light drizzle,1001,6,4,,,,8.8,
Wick,13/01/2019 01:00,9.2,25,,,0.4,,97,35,270,Rain,1001,7,5,,,,8.9,
Wick,13/01/2019 02:00,9.3,31,,,0.2,,97,41,280,Misty,1000,8,6,,,,8.9,
Wick,13/01/2019 03:00,9.2,31,,,0,,97,41,280,Misty,999,8,9,,,,8.9,
Wick,13/01/2019 04:00,8.8,28,,,0.2,,96,45,280,Misty,999,8,7,,,,8.3,
Wick,13/01/2019 05:00,8.5,32,,,0,,92,46,270,Dry,998,1,15,,,,7.4,
Wick,13/01/2019 06:00,7.8,33,7.8,,0.2,1,92,46,270,Light shower,998,1,14,,,,6.6,
Wick,13/01/2019 07:00,7.4,29,,,0,,88,47,270,Rain,997,2,16,,,,5.6,
Wick,13/01/2019 08:00,6.9,30,,,0.4,,91,46,280,Rain,997,1,11,,,,5.6,
Wick,13/01/2019 09:00,6.7,30,,,0.2,,88,41,290,Drizzle,998,8,25,,,,5,
Wick,13/01/2019 10:00,6.6,26,,,0.2,,90,43,290,Rain,998,6,17,,,,5.2,
Wick,13/01/2019 11:00,6.6,29,,,0,,86,43,280,Rain,998,,23,,,,4.5,
Wick,13/01/2019 12:00,6.7,23,,,0,0.8,88,40,280,Rain,998,2,13,,,,5,
Wick,13/01/2019 13:00,6.7,24,,,0.4,,90,41,280,Drizzle,999,7,15,,,,5.2,
Wick,13/01/2019 14:00,6,31,,,0.8,,86,46,280,Light shower,999,7,28,,,,3.9,
Wick,13/01/2019 15:00,6.1,22,,,0.2,,90,40,280,Light shower,999,3,10,,,,4.6,
Wick,13/01/2019 16:00,5.9,23,,,0.2,,87,36,300,Light shower,1000,8,27,,,,4,
Wick,13/01/2019 17:00,5.2,10,,,0.6,,94,,310,Rain,1001,8,35,,,,4.4,
Wick,13/01/2019 18:00,3.7,24,,7.9,0.8,3.2,93,33,30,Moderate shower,1003,2,6,,,,2.8,
Wick,13/01/2019 19:00,3.5,21,,,1,,90,,30,Rain,1006,8,13,,,,2.1,
Wick,13/01/2019 20:00,3.1,22,,,0.2,,87,32,30,Rain,1008,8,27,,,,1.2,
Wick,13/01/2019 21:00,2.8,20,,,0,,89,30,20,Dry,1010,8,16,,,,1.2,
Wick,13/01/2019 22:00,2.3,20,,,0,,85,,360,Dry,1011,8,35,,,,0.1,
Wick,13/01/2019 23:00,1.7,8,,,0,,87,29,310,Precipitation,1012,7,23,,,,-0.1,
Wick,14/01/2019 00:00,0.4,6,,,0,1,90,,290,Dry,1013,5,26,,,,-0.9,
Wick,14/01/2019 01:00,0.8,8,,,0.2,,90,,290,Rain,1013,8,18,,,,-0.5,
Wick,14/01/2019 02:00,1.9,16,,,0,,84,,320,Precipitation,1014,7,20,,,,-0.4,
Wick,14/01/2019 03:00,1,17,,,0,,94,30,320,Rain,1015,5,13,,,,0.2,
Wick,14/01/2019 04:00,0.9,7,,,0,,91,,300,Rain,1015,7,27,,,,-0.3,
Wick,14/01/2019 05:00,1.4,10,,,0,,78,,310,Dry,1015,7,40,,,,-2,
Wick,14/01/2019 06:00,-0.5,7,-0.5,,0,0,83,,310,Dry,1015,2,50,,,,-3,
Wick,14/01/2019 07:00,-0.2,7,,,0,,86,,240,Dry,1015,6,45,,,,-2.2,
Wick,14/01/2019 08:00,-0.6,8,,,0,,91,,250,Dry,1016,3,35,,,,-1.8,
Wick,14/01/2019 09:00,-0.3,8,,,0,,91,,230,Dry,1016,0,50,,,,-1.5,
Wick,14/01/2019 10:00,0.4,6,,,0,,87,,240,Dry,1015,5,45,,,,-1.5,
Wick,14/01/2019 11:00,1.5,14,,,0,,84,,230,Dry,1015,7,45,,,,-0.8,
Wick,14/01/2019 12:00,2.6,10,,,0,0,76,,210,Dry,1014,8,40,,,,-1.1,
Wick,14/01/2019 13:00,3.7,15,,,0,,76,,230,Dry,1013,8,50,,,,-0.1,
Wick,14/01/2019 14:00,3.1,16,,,0,,89,,260,Light shower,1013,7,30,,,,1.5,
Wick,14/01/2019 15:00,3.7,12,,,0,,91,,250,Rain,1012,4,35,,,,2.4,
Wick,14/01/2019 16:00,4.2,12,,,0,,88,,240,Dry,1012,8,35,,,,2.4,
Wick,14/01/2019 17:00,4.1,10,,,0.2,,86,,220,Rain,1012,8,35,,,,2,
Wick,14/01/2019 18:00,4.2,8,,4.5,0,0.2,86,,230,Dry,1011,8,25,,,,2.2,
Wick,14/01/2019 19:00,4.6,9,,,0,,84,,210,Dry,1010,8,35,,,,2.2,
Wick,14/01/2019 20:00,4.8,8,,,0,,89,,200,Dry,1009,8,50,,,,3.2,
Wick,14/01/2019 21:00,5.8,12,,,0,,90,,210,Dry,1008,8,45,,,,4.3,
Wick,14/01/2019 22:00,5.9,16,,,0,,90,,200,Dry,1007,8,45,,,,4.5,
Wick,14/01/2019 23:00,5.8,12,,,0.2,,94,,200,Light shower,1006,8,15,,,,5,
Wick,15/01/2019 00:00,7.6,16,,,0.4,0.6,92,,210,Light rain,1005,8,14,,,,6.5,
Wick,15/01/2019 01:00,8.4,20,,,0,,90,,220,Rain,1004,7,24,,,,7,
Wick,15/01/2019 02:00,8.8,17,,,0,,91,,240,Rain,1003,7,45,,,,7.5,
Wick,15/01/2019 03:00,9.4,16,,,0,,91,,250,Dry,1003,8,50,,,,8.1,
Wick,15/01/2019 04:00,8.4,25,,,0.2,,92,39,270,Dry,1003,8,15,,,,7.2,
Wick,15/01/2019 05:00,7.1,22,,,0,,85,38,270,Haze,1004,6,10,,,,4.8,
Wick,15/01/2019 06:00,6.1,12,4.2,,0,0.2,83,,250,Dry,1004,3,11,,,,3.6,
Wick,15/01/2019 07:00,6.3,15,,,0,,88,,260,Haze,1004,7,6,,,,4.6,
Wick,15/01/2019 08:00,5.9,16,,,0,,93,,260,Dry,1003,8,11,,,,4.9,
Wick,15/01/2019 09:00,6.4,15,,,0,,88,,260,Dry,1004,7,16,,,,4.7,
Wick,15/01/2019 10:00,6.5,10,,,0,,90,,260,Light shower,1004,8,10,,,,5.1,
Wick,15/01/2019 11:00,6.4,10,,,0.2,,93,,250,Light shower,1004,7,8,,,,5.4,
Wick,15/01/2019 12:00,6.1,9,,,0.2,0.4,95,,260,Light drizzle,1003,8,6,,,,5.4,
Wick,15/01/2019 13:00,6,8,,,0.4,,94,,250,Light rain,1002,8,9,,,,5.2,
Wick,15/01/2019 14:00,5.9,3,,,0.6,,95,,240,Light rain,1002,8,13,,,,5.3,
Wick,15/01/2019 15:00,6.1,7,,,0.2,,96,,140,Light drizzle,1000,8,6,,,,5.6,
Wick,15/01/2019 16:00,6.3,6,,,1.6,,98,,140,Moderate drizzle,999,8,5,,,,6.1,
Wick,15/01/2019 17:00,6.7,14,,,1,,97,,190,Light shower,998,8,14,,,,6.4,
Wick,15/01/2019 18:00,7.5,14,,7.7,0,3.6,93,,190,Rain,997,8,23,,,,6.5,
Wick,15/01/2019 19:00,8.1,20,,,0,,88,29,220,Dry,996,6,35,,,,6.3,
Wick,15/01/2019 20:00,8,14,,,0,,87,,200,Dry,994,8,22,,,,6,
Wick,15/01/2019 21:00,7.7,15,,,0,,91,,190,Dry,993,8,35,,,,6.4,
Wick,15/01/2019 22:00,7.7,18,,,0,,92,,200,Dry,992,8,29,,,,6.6,
Wick,15/01/2019 23:00,7.9,16,,,0.2,,95,,200,Dry,991,8,27,,,,7.2,
Wick,16/01/2019 00:00,8.5,17,,,0,0.2,86,,250,Dry,991,5,40,,,,6.3,
Wick,16/01/2019 01:00,6.5,15,,,0,,85,35,250,Dry,991,1,45,,,,4.3,
Wick,16/01/2019 02:00,6.1,20,,,0,,84,30,250,Dry,991,4,40,,,,3.7,
Wick,16/01/2019 03:00,6.3,21,,,0,,83,31,250,Dry,991,7,40,,,,3.7,
Wick,16/01/2019 04:00,5.7,20,,,0,,86,30,260,Dry,991,8,35,,,,3.6,
Wick,16/01/2019 05:00,5.3,20,,,0,,87,30,280,Dry,991,8,30,,,,3.4,
Wick,16/01/2019 06:00,4.9,13,4.9,,0,0,88,,290,Dry,991,4,35,,,,3.2,
Wick,16/01/2019 07:00,4.4,7,,,0,,90,,280,Dry,991,8,35,,,,3,
Wick,16/01/2019 08:00,4.1,6,,,0,,91,,260,Dry,991,1,35,,,,2.8,
Wick,16/01/2019 09:00,4,6,,,0,,93,,240,Rain,991,8,26,,,,3.1,
Wick,16/01/2019 10:00,3.6,3,,,0,,94,,230,Dry,991,8,25,,,,2.8,
Wick,16/01/2019 11:00,3.7,5,,,0,,94,,250,Dry,991,8,35,,,,2.9,
Wick,16/01/2019 12:00,4,6,,,0,0,95,,270,Dry,991,8,30,,,,3.3,
Wick,16/01/2019 13:00,4.5,5,,,0,,94,,310,Light shower,992,8,20,,,,3.7,
Wick,16/01/2019 14:00,4.8,7,,,0,,94,,300,Rain,992,8,40,,,,4,
Wick,16/01/2019 15:00,4.7,9,,,0,,92,,320,Dry,992,7,24,,,,3.6,
Wick,16/01/2019 16:00,3.7,9,,,0.6,,93,,310,Moderate shower,993,8,6,,,,2.8,
Wick,16/01/2019 17:00,2.6,28,,,1.6,,90,35,360,Light rain,994,8,24,,,,1.2,
Wick,16/01/2019 18:00,2,26,,5,1,3,95,39,350,Snow shower,995,7,6,,,,1.3,
Wick,16/01/2019 19:00,1.9,22,,,0.2,,91,38,340,Snow,996,1,35,,,,0.6,
Wick,16/01/2019 20:00,1.7,24,,,0.2,,88,38,340,Light shower,998,8,21,,,,0,
Wick,16/01/2019 21:00,1.2,28,,,0,,75,39,330,Rain,998,0,35,,,,-2.7,
Wick,16/01/2019 22:00,0.8,28,,,0,,81,44,340,Light shower,1000,4,10,,,,-2,
Wick,16/01/2019 23:00,1.2,20,,,0,,79,37,320,Moderate precip.,1000,7,16,,,,-2,
Wick,17/01/2019 00:00,0.7,22,,,0,0.4,83,46,320,Moderate shower,1001,3,7,,,,-1.7,
Wick,17/01/2019 01:00,2.2,21,,,0,,68,32,320,Rain,1001,7,8,,,,-2.9,
Wick,17/01/2019 02:00,1.7,25,,,0.2,,76,47,320,Rain,1002,7,24,,,,-1.9,
Wick,17/01/2019 03:00,2.7,24,,,0,,70,39,330,Dry,1003,3,35,,,,-2.1,
Wick,17/01/2019 04:00,2.8,24,,,0,,68,51,340,Snow,1004,5,26,,,,-2.5,
Wick,17/01/2019 05:00,1.5,37,,,0,,89,47,10,Light sleet,1006,6,14,,,,0,
Wick,17/01/2019 06:00,1.4,25,0.1,,0.2,0.4,85,44,350,Snow,1007,4,28,,,,-0.8,
Wick,17/01/2019 07:00,2.4,24,,,0,,79,32,340,Rain,1008,2,21,,,,-0.7,
Wick,17/01/2019 08:00,1.1,17,,,0,,91,39,320,Rain,1009,1,21,,,,-0.1,
Wick,17/01/2019 09:00,2.8,17,,,0,,83,33,350,Rain,1010,7,21,,,,0.3,
Wick,17/01/2019 10:00,3.5,20,,,0,,72,,340,Dry,1011,0,21,,,,-0.9,
Wick,17/01/2019 11:00,2.8,14,,,0,,81,,320,Dry,1012,0,15,,,,-0.1,
Wick,17/01/2019 12:00,4.4,14,,,0,0,70,,340,Dry,1013,0,21,,,,-0.4,
Wick,17/01/2019 13:00,3.8,14,,,0,,76,,310,Dry,1013,3,27,,,,0.1,
Wick,17/01/2019 14:00,2.9,8,,,0,,78,,290,Dry,1013,1,30,,,,-0.5,
Wick,17/01/2019 15:00,2.9,9,,,0,,81,,340,Dry,1014,0,26,,,,0,
Wick,17/01/2019 16:00,0.4,7,,,0,,88,,280,Dry,1014,2,26,,,,-1.2,
Wick,17/01/2019 17:00,-0.2,8,,,0,,90,,260,Dry,1015,7,45,,,,-1.6,
Wick,17/01/2019 18:00,0,9,,4.5,0,0,93,,280,Dry,1015,7,11,,,,-0.9,
Wick,17/01/2019 19:00,-0.4,7,,,0,,96,,230,Snow,1015,3,27,,,,-0.9,
Wick,17/01/2019 20:00,-1,7,,,0,,96,,260,Dry,1015,6,27,,,,-1.5,
Wick,17/01/2019 21:00,-0.1,6,,,0,,97,,250,Dry,1015,7,35,,,,-0.5,
Wick,17/01/2019 22:00,0.5,5,,,0,,95,,210,Dry,1015,6,40,,,,-0.1,
Wick,17/01/2019 23:00,0.1,3,,,0,,92,,220,Dry,1015,5,50,,,,-0.9,
Wick,18/01/2019 00:00,-0.9,5,,,0,0,91,,250,Dry,1015,2,45,,,,-2.1,
Wick,18/01/2019 01:00,-0.8,5,,,0,,90,,230,Dry,1014,4,35,,,,-2.1,
Wick,18/01/2019 02:00,0.3,3,,,0,,81,,230,Dry,1014,7,40,,,,-2.5,
Wick,18/01/2019 03:00,0.9,3,,,0,,87,,200,Dry,1014,4,40,,,,-1,
Wick,18/01/2019 04:00,1,3,,,0,,87,,170,Dry,1013,3,30,,,,-0.9,
Wick,18/01/2019 05:00,1.7,5,,,0,,86,,170,Dry,1013,3,35,,,,-0.3,
Wick,18/01/2019 06:00,3.2,7,-1.5,,0,0,77,,170,Dry,1013,6,30,,,,-0.3,
Wick,18/01/2019 07:00,3.5,9,,,0,,74,,150,Dry,1012,1,28,,,,-0.6,
Wick,18/01/2019 08:00,3.7,9,,,0.2,,66,,150,Dry,1012,0,35,,,,-1.9,
Wick,18/01/2019 09:00,3.2,5,,,0,,67,,160,Dry,1012,3,35,,,,-2.3,
Wick,18/01/2019 10:00,3.5,9,,,0,,66,,150,Dry,1012,0,26,,,,-2.2,
Wick,18/01/2019 11:00,3.9,12,,,0,,64,,160,Dry,1012,3,20,,,,-2.1,
Wick,18/01/2019 12:00,4.1,18,,,0,0.2,64,,160,Dry,1012,0,18,,,,-2,
Wick,18/01/2019 13:00,4.1,15,,,0,,67,,160,Dry,1011,1,24,,,,-1.4,
Wick,18/01/2019 14:00,4.3,16,,,0,,70,,150,Dry,1011,1,20,,,,-0.5,
Wick,18/01/2019 15:00,4.3,16,,,0,,65,29,160,Dry,1010,2,28,,,,-1.5,
Wick,18/01/2019 16:00,4.3,18,,,0,,64,29,160,Dry,1010,7,25,,,,-1.8,
Wick,18/01/2019 17:00,4.2,16,,,0,,66,,150,Dry,1010,7,28,,,,-1.4,
Wick,18/01/2019 18:00,4.5,18,,4.5,0,0,65,,160,Dry,1009,8,29,,,,-1.5,
Wick,18/01/2019 19:00,4.5,15,,,0,,68,,160,Dry,1009,8,27,,,,-0.7,
Wick,18/01/2019 20:00,4.6,16,,,0,,68,,160,Dry,1009,1,30,,,,-0.6,
Wick,18/01/2019 21:00,4.5,14,,,0,,72,,160,Dry,1009,6,23,,,,-0.1,
Wick,18/01/2019 22:00,4.6,17,,,0,,76,,150,Dry,1009,7,28,,,,0.8,
Wick,18/01/2019 23:00,5,16,,,0,,75,29,150,Dry,1008,8,27,,,,1.1,
Wick,19/01/2019 00:00,4.8,16,,,0,0,78,,150,Dry,1008,7,23,,,,1.4,
Wick,19/01/2019 01:00,4.6,14,,,0,,80,,150,Dry,1008,7,29,,,,1.6,
Wick,19/01/2019 02:00,4.4,14,,,0,,80,,150,Dry,1008,7,35,,,,1.4,
Wick,19/01/2019 03:00,4.5,13,,,0,,81,,150,Dry,1008,7,35,,,,1.6,
Wick,19/01/2019 04:00,4.4,12,,,0,,80,,150,Dry,1008,7,45,,,,1.4,
Wick,19/01/2019 05:00,4.1,8,,,0,,83,,150,Dry,1007,4,35,,,,1.5,
Wick,19/01/2019 06:00,4.7,9,4,,0,0,83,,130,Dry,1008,6,30,,,,2.1,
Wick,19/01/2019 07:00,5.1,9,,,0,,79,,120,Dry,1008,8,45,,,,1.9,
Wick,19/01/2019 08:00,5.3,9,,,0,,80,,130,Dry,1008,8,35,,,,2.3,
Wick,19/01/2019 09:00,5.3,8,,,0,,79,,130,Dry,1008,1,40,,,,2.1,
Wick,19/01/2019 10:00,5.1,6,,,0,,83,,150,Dry,1009,8,18,,,,2.6,
Wick,19/01/2019 11:00,5.1,7,,,0,,84,,140,Dry,1009,8,20,,,,2.7,
Wick,19/01/2019 12:00,5.3,7,,,0,0,82,,120,Dry,1009,6,19,,,,2.6,
Wick,19/01/2019 13:00,5.6,6,,,0,,83,,130,Dry,1009,8,18,,,,3,
Wick,19/01/2019 14:00,5.4,7,,,0,,83,,130,Dry,1009,8,22,,,,2.8,
Wick,19/01/2019 15:00,5.4,6,,,0,,82,,140,Dry,1009,8,30,,,,2.6,
Wick,19/01/2019 16:00,5.2,6,,,0,,82,,150,Dry,1009,8,25,,,,2.4,
Wick,19/01/2019 17:00,4.7,3,,,0,,83,,160,Dry,1009,1,23,,,,2.2,
Wick,19/01/2019 18:00,2.9,2,,5.6,0,0,88,,200,Dry,1010,8,11,,,,1.2,
Wick,19/01/2019 19:00,3.3,6,,,0,,86,,160,Dry,1010,1,16,,,,1.3,
Wick,19/01/2019 20:00,2.1,3,,,0,,88,,200,Dry,1010,0,13,,,,0.4,
Wick,19/01/2019 21:00,1.3,2,,,0,,93,,210,Dry,1010,7,11,,,,0.3,
Wick,19/01/2019 22:00,-0.8,2,,,0,,92,,240,Haze,1011,1,7,,,,-1.8,
Wick,19/01/2019 23:00,-1.5,3,,,0,,94,,240,Misty,1011,0,8,,,,-2.2,
Wick,20/01/2019 00:00,-2.5,5,,,0,0,95,,240,Misty,1011,0,6,,,,-3.1,
Wick,20/01/2019 01:00,-0.9,5,,,0,,97,,220,Misty,1011,0,8,,,,-1.3,
Wick,20/01/2019 02:00,-1.6,5,,,0,,97,,230,Misty,1011,0,9,,,,-2,
Wick,20/01/2019 03:00,0.5,6,,,0,,96,,190,Dry,1011,0,40,,,,0,
Wick,20/01/2019 04:00,-1.2,6,,,0,,92,,230,Dry,1011,0,29,,,,-2.2,
Wick,20/01/2019 05:00,-1.5,6,,,0,,94,,230,Dry,1012,0,50,,,,-2.3,
Wick,20/01/2019 06:00,0.9,5,-3,,0,0,92,,200,Dry,1011,0,50,,,,-0.2,
Wick,20/01/2019 07:00,1.1,6,,,0,,87,,190,Dry,1012,4,50,,,,-0.7,
Wick,20/01/2019 08:00,2.5,8,,,0,,86,,190,Dry,1012,7,45,,,,0.5,
Wick,20/01/2019 09:00,3.1,12,,,0.2,,89,,220,Light shower,1012,8,9,,,,1.6,
Wick,20/01/2019 10:00,3.3,16,,,0.8,,94,,260,Drizzly rain,1013,8,16,,,,2.5,
Wick,20/01/2019 11:00,3.2,13,,,0.2,,93,,260,Rain,1014,1,20,,,,2.3,
Wick,20/01/2019 12:00,3.8,17,,,0,1,91,,260,Dry,1015,8,27,,,,2.5,
Wick,20/01/2019 13:00,4,13,,,0,,88,,290,Dry,1015,2,40,,,,2.2,
Wick,20/01/2019 14:00,2.5,25,,,0.4,,93,38,280,Light shower,1016,7,6,,,,1.5,
Wick,20/01/2019 15:00,2.5,14,,,0,,92,29,260,Rain,1016,0,35,,,,1.4,
Wick,20/01/2019 16:00,1.7,13,,,0,,93,,260,Dry,1017,2,28,,,,0.7,
Wick,20/01/2019 17:00,2.1,13,,,0,,92,,260,Precipitation,1018,7,21,,,,1,
Wick,20/01/2019 18:00,1.4,12,,5,0,1,89,,250,Dry,1018,1,30,,,,-0.1,
Wick,20/01/2019 19:00,0.8,9,,,0,,89,,260,Dry,1019,2,30,,,,-0.8,
Wick,20/01/2019 20:00,1,10,,,0,,89,,260,Dry,1019,4,35,,,,-0.5,
Wick,20/01/2019 21:00,0.6,6,,,0,,88,,240,Dry,1020,0,30,,,,-1.1,
Wick,20/01/2019 22:00,0.9,9,,,0,,88,,240,Dry,1020,0,35,,,,-0.8,
Wick,20/01/2019 23:00,1.5,10,,,0,,89,,240,Dry,1020,5,35,,,,0,
Wick,21/01/2019 00:00,1.8,9,,,0,0,90,,240,Dry,1020,1,35,,,,0.4,
Wick,21/01/2019 01:00,1.6,12,,,0,,89,,240,Dry,1020,1,45,,,,0,
Wick,21/01/2019 02:00,1.8,7,,,0,,87,,210,Dry,1019,0,40,,,,-0.1,
Wick,21/01/2019 03:00,1.4,10,,,0,,89,,230,Dry,1019,2,50,,,,-0.1,
Wick,21/01/2019 04:00,2.4,8,,,0,,84,,190,Dry,1018,3,40,,,,0,
Wick,21/01/2019 05:00,2.2,8,,,0,,86,,170,Dry,1017,3,40,,,,0.2,
Wick,21/01/2019 06:00,1.9,2,0.4,,0,0,84,,210,Dry,1016,3,30,,,,-0.4,
Wick,21/01/2019 07:00,2.8,9,,,0,,87,,180,Dry,1015,7,30,,,,0.9,
Wick,21/01/2019 08:00,3.5,14,,,0,,88,,190,Dry,1014,8,30,,,,1.8,
Wick,21/01/2019 09:00,4.1,16,,,0,,86,,180,Dry,1013,8,26,,,,2,
Wick,21/01/2019 10:00,4.4,16,,,0,,81,,180,Dry,1012,8,30,,,,1.5,
Wick,21/01/2019 11:00,4.9,21,,,0,,79,30,180,Dry,1011,8,40,,,,1.6,
Wick,21/01/2019 12:00,5.1,16,,,0,0,78,,170,Dry,1010,8,23,,,,1.7,
Wick,21/01/2019 13:00,5.3,18,,,0,,73,32,170,Dry,1007,8,27,,,,0.9,
Wick,21/01/2019 14:00,5.2,22,,,0,,70,36,180,Dry,1006,7,20,,,,0.3,
Wick,21/01/2019 15:00,5.2,23,,,0,,69,39,190,Dry,1004,8,35,,,,0.1,
Wick,21/01/2019 16:00,5.3,23,,,0,,68,39,170,Dry,1002,1,40,,,,0,
Wick,21/01/2019 17:00,5.3,21,,,0,,71,38,170,Dry,1001,8,40,,,,0.6,
Wick,21/01/2019 18:00,5.1,24,,5.5,0,0,74,36,160,Dry,999,8,28,,,,1,
Wick,21/01/2019 19:00,4.7,25,,,0,,78,39,160,Light shower,998,8,19,,,,1.2,
Wick,21/01/2019 20:00,4.3,24,,,0.2,,82,38,160,Light rain,997,8,13,,,,1.6,
Wick,21/01/2019 21:00,4.1,18,,,0.4,,84,32,170,Light rain,997,8,11,,,,1.8,
Wick,21/01/2019 22:00,3.7,15,,,0.4,,88,31,200,Light rain,996,8,11,,,,2,
Wick,21/01/2019 23:00,2.5,10,,,0.2,,92,,230,Light shower,996,8,24,,,,1.4,
Wick,22/01/2019 00:00,2.2,7,,,0,1,94,,240,Light shower,996,6,23,,,,1.4,
Wick,22/01/2019 01:00,2.4,7,,,0.2,,90,,200,Rain,996,8,50,,,,1,
Wick,22/01/2019 02:00,2.4,7,,,0,,89,,210,Dry,995,8,45,,,,0.8,
Wick,22/01/2019 03:00,1.5,9,,,0,,90,,230,Dry,995,7,45,,,,0.1,
Wick,22/01/2019 04:00,1.6,12,,,0,,91,,250,Dry,994,8,40,,,,0.4,
Wick,22/01/2019 05:00,1.1,7,,,0.2,,95,,270,Rain,994,8,45,,,,0.4,
Wick,22/01/2019 06:00,1.2,12,1,,0,1,95,,260,Dry,994,1,35,,,,0.5,
Wick,22/01/2019 07:00,0.9,14,,,0,,93,,260,Dry,994,8,40,,,,-0.1,
Wick,22/01/2019 08:00,0.4,10,,,0,,92,,270,Dry,993,8,40,,,,-0.6,
Wick,22/01/2019 09:00,0.3,10,,,0,,92,,270,Dry,993,8,40,,,,-0.7,
Wick,22/01/2019 10:00,0.3,13,,,0,,92,,270,Dry,993,7,30,,,,-0.8,
Wick,22/01/2019 11:00,0.7,15,,,0,,91,,260,Dry,993,3,30,,,,-0.5,
Wick,22/01/2019 12:00,1.3,12,,,0,0,91,,270,Dry,993,6,24,,,,0,
Wick,22/01/2019 13:00,2.6,15,,,0,,85,,260,Dry,992,8,40,,,,0.4,
Wick,22/01/2019 14:00,2.5,17,,,0,,86,,270,Dry,992,3,40,,,,0.4,
Wick,22/01/2019 15:00,2.4,14,,,0,,85,,270,Dry,992,1,45,,,,0.3,
Wick,22/01/2019 16:00,1.6,14,,,0,,90,,300,Dry,992,4,45,,,,0.2,
Wick,22/01/2019 17:00,0.6,14,,,0,,92,,260,Rain,992,7,45,,,,-0.5,
Wick,22/01/2019 18:00,-0.4,10,,2.8,0,0,95,,260,Precipitation,992,0,40,,,,-1,
Wick,22/01/2019 19:00,0.2,14,,,0,,95,,260,Dry,992,1,35,,,,-0.4,
Wick,22/01/2019 20:00,-0.5,13,,,0,,92,,250,Dry,993,0,45,,,,-1.5,
Wick,22/01/2019 21:00,-0.9,13,,,0,,94,,260,Dry,994,0,50,,,,-1.6,
Wick,22/01/2019 22:00,-1,9,,,0,,94,,240,Dry,994,5,50,,,,-1.7,
Wick,22/01/2019 23:00,-0.5,8,,,0,,91,,250,Dry,995,7,45,,,,-1.7,
Wick,23/01/2019 00:00,-0.9,7,,,0,0,93,,260,Dry,995,8,50,,,,-1.8,
Wick,23/01/2019 01:00,-1,6,,,0,,94,,270,Snow,996,7,50,,,,-1.8,
Wick,23/01/2019 02:00,-2.3,8,,,0,,94,,260,Dry,996,0,50,,,,-3.1,
Wick,23/01/2019 03:00,-1.7,7,,,0,,94,,240,Dry,996,3,50,,,,-2.4,
Wick,23/01/2019 04:00,-0.1,7,,,0,,95,,290,Snow shower,997,7,5,,,,-0.7,
Wick,23/01/2019 05:00,-0.2,13,,,0,,96,,260,Snow,997,3,50,,,,-0.7,
Wick,23/01/2019 06:00,-0.8,9,-2.6,,0,0,97,,260,Dry,997,3,50,,,,-1.2,
Wick,23/01/2019 07:00,-1.1,10,,,0,,94,,250,Dry,998,6,50,,,,-1.8,
Wick,23/01/2019 08:00,-1,6,,,0,,94,,250,Dry,998,8,50,,,,-1.7,
Wick,23/01/2019 09:00,-1.4,5,,,0,,89,,240,Dry,999,1,30,,,,-2.9,
Wick,23/01/2019 10:00,-0.6,7,,,0,,90,,250,Dry,999,3,40,,,,-2,
Wick,23/01/2019 11:00,2,5,,,0,,83,,240,Dry,999,5,35,,,,-0.5,
Wick,23/01/2019 12:00,2.2,10,,,0.2,0.2,85,,240,Dry,999,2,30,,,,0,
Wick,23/01/2019 13:00,2.7,15,,,0,,82,,240,Dry,999,2,22,,,,0.1,
Wick,23/01/2019 14:00,2.9,13,,,0,,82,,250,Dry,1000,3,35,,,,0.2,
Wick,23/01/2019 15:00,2.1,8,,,0,,85,,250,Dry,1000,6,50,,,,-0.1,
Wick,23/01/2019 16:00,1.5,6,,,0,,88,,250,Dry,1000,7,50,,,,-0.2,
Wick,23/01/2019 17:00,0.8,8,,,0,,89,,230,Dry,1000,1,50,,,,-0.7,
Wick,23/01/2019 18:00,-1,5,,3.1,0,0,90,,260,Dry,1001,8,50,,,,-2.3,
Wick,23/01/2019 19:00,-1.3,6,,,0,,91,,270,Dry,1001,5,50,,,,-2.5,
Wick,23/01/2019 20:00,-1.4,3,,,0,,92,,280,Dry,1002,7,45,,,,-2.4,
Wick,23/01/2019 21:00,-1.1,7,,,0,,90,,260,Dry,1002,0,45,,,,-2.4,
Wick,23/01/2019 22:00,-1.3,7,,,0,,90,,260,Dry,1002,0,50,,,,-2.6,
Wick,23/01/2019 23:00,-2.2,7,,,0,,91,,270,Dry,1003,5,50,,,,-3.4,
Wick,24/01/2019 00:00,-1.6,9,,,0,0,94,,260,Dry,1003,0,50,,,,-2.4,
Wick,24/01/2019 01:00,-1.7,10,,,0,,95,,260,Dry,1004,0,50,,,,-2.3,
Wick,24/01/2019 02:00,-2.5,8,,,0,,96,,270,Dry,1004,1,50,,,,-3,
Wick,24/01/2019 03:00,-2.4,10,,,0,,96,,270,Dry,1004,0,45,,,,-2.9,
Wick,24/01/2019 04:00,-2.1,9,,,0,,96,,260,Dry,1005,0,50,,,,-2.6,
Wick,24/01/2019 05:00,-2,9,,,0,,95,,260,Dry,1005,0,50,,,,-2.6,
Wick,24/01/2019 06:00,-2.4,6,-3,,0,0,96,,250,Dry,1006,0,50,,,,-2.9,
Wick,24/01/2019 07:00,-2.5,6,,,0,,94,,250,Dry,1006,1,50,,,,-3.3,
Wick,24/01/2019 08:00,-1.2,7,,,0,,92,,260,Dry,1007,1,50,,,,-2.2,
Wick,24/01/2019 09:00,-1.9,5,,,0,,93,,290,Dry,1008,1,45,,,,-2.8,
Wick,24/01/2019 10:00,-0.6,3,,,0,,92,,240,Dry,1008,4,50,,,,-1.7,
Wick,24/01/2019 11:00,0.6,6,,,0,,89,,250,Dry,1008,1,35,,,,-0.9,
Wick,24/01/2019 12:00,1.4,3,,,0,0,87,,230,Dry,1008,1,45,,,,-0.5,
Wick,24/01/2019 13:00,2.9,3,,,0.2,,81,,240,Dry,1008,8,50,,,10,0,
Wick,24/01/2019 14:00,3.6,5,,,0,,81,,260,Dry,1008,1,45,,,,0.8,
Wick,24/01/2019 15:00,3.5,3,,,0,,79,,190,Dry,1008,,50,,,,0.3,
Wick,24/01/2019 16:00,3.5,5,,,0,,71,,180,Dry,1008,8,45,,,,-1.1,
Wick,24/01/2019 17:00,2.8,5,,,0,,78,,180,Dry,1008,1,50,,,,-0.6,
Wick,24/01/2019 18:00,2.5,5,,3.8,0,0.2,84,,180,Dry,1008,1,35,,,,0.2,
Wick,24/01/2019 19:00,3.3,6,,,0,,81,,180,Dry,1007,8,50,,,,0.4,
Wick,24/01/2019 20:00,3.7,10,,,0,,81,,180,Dry,1007,8,50,,,,0.9,
Wick,24/01/2019 21:00,3.9,12,,,0,,81,,170,Dry,1006,8,50,,,,1,
Wick,24/01/2019 22:00,4,10,,,0,,80,,170,Dry,1006,8,50,,,,1,
Wick,24/01/2019 23:00,4.1,10,,,0,,81,,170,Light shower,1005,8,15,,,,1.2,
Wick,25/01/2019 00:00,3.8,10,,,1,1,89,,170,Light rain,1004,1,15,,,,2.3,
Wick,25/01/2019 01:00,4.1,15,,,0.6,,94,,170,Light drizzle,1003,2,30,,,,3.3,
Wick,25/01/2019 02:00,4.3,12,,,0,,94,,170,Drizzle,1002,7,40,,,,3.5,
Wick,25/01/2019 03:00,4.1,10,,,0,,94,,190,Dry,1001,7,30,,,,3.3,
Wick,25/01/2019 04:00,5,12,,,0,,95,,230,Dry,1001,8,45,,,,4.4,
Wick,25/01/2019 05:00,6.5,20,,,0,,95,,250,Dry,1000,8,21,,,,5.9,
Wick,25/01/2019 06:00,6,14,2.5,,0,1,93,,250,Dry,1000,8,40,,,,5.1,
Wick,25/01/2019 07:00,4.9,14,,,0,,93,,260,Dry,1000,5,30,,,,3.9,
Wick,25/01/2019 08:00,5.4,18,,,0,,88,,260,Rain,1000,7,28,,,,3.7,
Wick,25/01/2019 09:00,4.5,14,,,0,,91,,260,Dry,1001,1,22,,,,3.2,
Wick,25/01/2019 10:00,5.3,22,,,0,,91,36,270,Rain,1001,7,18,,,,4,
Wick,25/01/2019 11:00,5.7,18,,,0,,90,29,260,Haze,1001,6,12,,,,4.3,
Wick,25/01/2019 12:00,6.1,22,,,0.2,0.2,86,32,260,Rain,1000,2,19,,,,4,
Wick,25/01/2019 13:00,6.2,22,,,0,,84,29,260,Dry,1000,1,18,,,,3.8,
Wick,25/01/2019 14:00,6.6,26,,,0,,75,33,260,Dry,1000,1,24,,,,2.5,
Wick,25/01/2019 15:00,5.3,26,,,0,,86,39,260,Rain,1000,6,30,,,,3.2,
Wick,25/01/2019 16:00,5.3,26,,,0.2,,90,38,260,Rain,1000,7,26,,,,3.8,
Wick,25/01/2019 17:00,5.2,23,,,0,,88,33,270,Dry,999,7,19,,,,3.5,
Wick,25/01/2019 18:00,5.3,25,,6.9,0,0.2,86,35,270,Dry,999,3,14,,,,3.2,
Wick,25/01/2019 19:00,5,22,,,0.2,,90,31,270,Moderate shower,999,1,7,,,,3.6,
Wick,25/01/2019 20:00,4.9,22,,,0.2,,91,29,270,Rain,999,7,18,,,,3.7,
Wick,25/01/2019 21:00,4.6,17,,,0,,90,31,260,Dry,999,8,19,,,,3.2,
Wick,25/01/2019 22:00,4.8,18,,,0,,91,,260,Light shower,999,8,11,,,,3.5,
Wick,25/01/2019 23:00,4.9,21,,,0,,92,,260,Rain,999,7,20,,,,3.8,
Wick,26/01/2019 00:00,4.7,18,,,0,0.4,95,,260,Misty,999,5,4,,,,4,
Wick,26/01/2019 01:00,4.6,17,,,0.2,,97,,270,Misty,999,8,4,,,,4.2,
Wick,26/01/2019 02:00,4.3,14,,,0,,97,,270,Drizzle,998,7,30,,,,3.9,
Wick,26/01/2019 03:00,4.1,10,,,0,,97,,270,Dry,998,7,26,,,,3.8,
Wick,26/01/2019 04:00,3.6,10,,,0,,98,,280,Dry,997,0,40,,,,3.4,
Wick,26/01/2019 05:00,3.7,5,,,0,,97,,210,Dry,997,8,50,,,,3.4,
Wick,26/01/2019 06:00,3.6,5,3.5,,0.4,0.6,97,,230,Light shower,996,8,13,,,,3.3,
Wick,26/01/2019 07:00,3.6,1,,,0.8,,97,,20,Light drizzle,995,8,9,,,,3.3,
Wick,26/01/2019 08:00,4.1,13,,,1.4,,94,,70,Light rain,994,2,12,,,,3.3,
Wick,26/01/2019 09:00,4.1,14,,,1.6,,90,,90,Light rain,993,8,10,,,,2.7,
Wick,26/01/2019 10:00,4.1,15,,,1.4,,91,,80,Light rain,992,7,11,,,,2.9,
Wick,26/01/2019 11:00,3.9,16,,,1.6,,93,,80,Light rain,991,8,11,,,,3,
Wick,26/01/2019 12:00,3.6,20,,,1.8,9,93,,70,Light rain,990,8,9,,,,2.6,
Wick,26/01/2019 13:00,3.8,22,,,2,,94,29,60,Drizzly rain,988,8,11,,,,3,
Wick,26/01/2019 14:00,3.4,22,,,2.2,,94,30,40,Light rain,988,8,8,,,,2.6,
Wick,26/01/2019 15:00,3.4,24,,,1.8,,94,31,30,Moderate rain,987,6,11,,,,2.6,
Wick,26/01/2019 16:00,3.6,26,,,1,,95,33,20,Light rain,987,8,9,,,,2.9,
Wick,26/01/2019 17:00,3.3,26,,,1,,94,38,360,Moderate rain,987,8,12,,,,2.5,
Wick,26/01/2019 18:00,3.4,28,,4.3,0.4,8,91,40,350,Light rain,987,8,9,,,,2.2,
Wick,26/01/2019 19:00,3.2,24,,,0.6,,95,37,350,Light rain,988,4,8,,,,2.5,
Wick,26/01/2019 20:00,3.5,28,,,0.8,,90,41,340,Rain,987,8,25,,,,2.1,
Wick,26/01/2019 21:00,3.3,28,,,0,,85,40,330,Dry,988,7,19,,,,1.1,
Wick,26/01/2019 22:00,2.5,26,,,0,,84,39,320,Dry,987,7,30,,,,0.2,
Wick,26/01/2019 23:00,2.7,21,,,0,,87,29,310,Dry,986,1,30,,,,0.8,
Wick,27/01/2019 00:00,2.9,17,,,0,1,93,30,310,Rain,986,6,28,,,,1.9,
Wick,27/01/2019 01:00,3.2,20,,,0.2,,92,32,330,Light shower,985,7,11,,,,2.1,
Wick,27/01/2019 02:00,3.4,22,,,0,,91,29,330,Rain,985,0,30,,,,2.2,
Wick,27/01/2019 03:00,3.6,17,,,0,,92,29,330,Dry,986,2,35,,,,2.5,
Wick,27/01/2019 04:00,3.2,23,,,0.2,,91,35,350,Rain,987,1,40,,,,1.9,
Wick,27/01/2019 05:00,3.6,23,,,0,,90,30,350,Dry,988,8,35,,,,2.2,
Wick,27/01/2019 06:00,3.6,22,1.9,,0,1,91,32,350,Dry,988,2,14,,,,2.4,
Wick,27/01/2019 07:00,3.7,26,,,0,,91,37,350,Rain,990,8,25,,,,2.5,
Wick,27/01/2019 08:00,3.9,29,,,0,,89,40,350,Dry,990,8,29,,,,2.3,
Wick,27/01/2019 09:00,3.6,31,,,0.4,,93,44,350,Light shower,992,8,11,,,,2.7,
Wick,27/01/2019 10:00,4.1,30,,,0.4,,91,45,340,Light rain,992,8,11,,,,2.9,
Wick,27/01/2019 11:00,3.8,33,,,0.2,,92,44,340,Light shower,993,8,9,,,,2.7,
Wick,27/01/2019 12:00,4,31,,,0.2,1,94,41,340,Light shower,994,4,8,,,,3.2,
Wick,27/01/2019 13:00,3.3,28,,,1.2,,95,40,350,Light rain,994,8,9,,,,2.6,
Wick,27/01/2019 14:00,3.3,28,,,0.2,,91,44,350,Rain,995,8,18,,,,2,
Wick,27/01/2019 15:00,3.5,25,,,0.2,,89,36,340,Rain,996,8,21,,,,1.9,
Wick,27/01/2019 16:00,2.7,25,,,0,,87,35,330,Light shower,996,8,13,,,,0.8,
Wick,27/01/2019 17:00,2.9,21,,,0.2,,86,37,330,Rain,997,7,13,,,,0.8,
Wick,27/01/2019 18:00,2.2,22,,4.3,0,2,86,33,330,Dry,998,5,14,,,,0.2,
Wick,27/01/2019 19:00,1.3,23,,,0,,91,32,320,Dry,998,6,15,,,,0,
Wick,27/01/2019 20:00,2.3,17,,,0,,84,,340,Dry,998,0,30,,,,0,
Wick,27/01/2019 21:00,1,10,,,0.2,,95,35,330,Snow,999,1,24,,,,0.4,
Wick,27/01/2019 22:00,0.7,8,,,0,,97,,310,Dry,999,4,18,,,,0.4,
Wick,27/01/2019 23:00,1,12,,,0,,89,36,340,Snow,1000,7,30,,,,-0.6,
Wick,28/01/2019 00:00,0.2,12,,,0,0.2,92,,290,Dry,1000,2,30,,,,-0.8,
Wick,28/01/2019 01:00,0.6,14,,,0,,95,31,320,Light sleet,1001,6,14,,,,-0.1,
Wick,28/01/2019 02:00,0,13,,,0,,96,,290,Rain,1001,6,30,,,,-0.5,
Wick,28/01/2019 03:00,1.5,12,,,0,,91,31,340,Snow,1001,8,25,,,,0.3,
Wick,28/01/2019 04:00,1.5,18,,,0,,84,31,340,Rain,1002,6,13,,,,-0.9,
Wick,28/01/2019 05:00,-0.5,9,,,0,,86,,290,Rain,1002,4,50,,,,-2.4,
Wick,28/01/2019 06:00,0.3,9,-1.1,,0,0,90,,330,Dry,1002,3,45,,,,-1.1,
Wick,28/01/2019 07:00,0.3,13,,,0,,88,,310,Freezing rain,1002,3,45,,,,-1.4,
Wick,28/01/2019 08:00,0.3,7,,,0,,94,,260,Snow,1003,7,40,,,,-0.5,
Wick,28/01/2019 09:00,-2,8,,,0,,88,,260,Dry,1003,2,45,,,,-3.7,
Wick,28/01/2019 10:00,-0.6,7,,,0,,88,,280,Rain,1003,4,40,,,,-2.3,
Wick,28/01/2019 11:00,0.5,12,,,0,,92,,250,Precipitation,1003,7,40,,,,-0.5,
Wick,28/01/2019 12:00,0.8,12,,,0,0,93,,270,Drizzly rain,1003,7,18,,,,-0.2,
Wick,28/01/2019 13:00,0.7,13,,,0,,93,,250,Snow,1002,6,45,,,,-0.2,
Wick,28/01/2019 14:00,0.9,7,,,0,,93,,260,Rain,1002,1,45,,,,0,
Wick,28/01/2019 15:00,1.6,9,,,0,,87,,240,Dry,1001,7,30,,,,-0.3,
Wick,28/01/2019 16:00,1.6,13,,,0,,86,,240,Dry,1000,6,45,,,,-0.4,
Wick,28/01/2019 17:00,1.3,10,,,0,,89,,240,Dry,1000,8,45,,,,-0.3,
Wick,28/01/2019 18:00,1.8,10,,1.8,1,1,83,,210,Precipitation,999,8,45,,,,-0.7,
Wick,28/01/2019 19:00,1,13,,,0,,91,,240,Rain,998,6,45,,,,-0.3,
Wick,28/01/2019 20:00,0.9,14,,,0,,92,,250,Dry,998,1,45,,,,-0.2,
Wick,28/01/2019 21:00,0.7,9,,,0,,93,,240,Dry,997,4,45,,,,-0.2,
Wick,28/01/2019 22:00,0.1,9,,,0,,94,,240,Dry,996,5,50,,,,-0.7,
Wick,28/01/2019 23:00,-0.3,6,,,0,,94,,250,Dry,996,2,50,,,,-1.1,
Wick,29/01/2019 00:00,-0.2,13,,,0,0,95,,230,Dry,995,1,50,,,,-0.9,
Wick,29/01/2019 01:00,-0.5,10,,,0,,93,,250,Dry,995,4,50,,,,-1.4,
Wick,29/01/2019 02:00,-0.6,10,,,0,,95,,250,Dry,994,3,50,,,,-1.3,
Wick,29/01/2019 03:00,-0.2,7,,,0,,91,,230,Dry,994,0,50,,,,-1.4,
Wick,29/01/2019 04:00,-1.8,9,,,0,,91,,290,Dry,993,3,50,,,,-3,
Wick,29/01/2019 05:00,-1.6,7,,,0,,91,,220,Freezing rain,992,2,50,,,,-2.8,
Wick,29/01/2019 06:00,-1.7,6,-2.4,,0,0,91,,230,Dry,992,1,45,,,,-2.9,
Wick,29/01/2019 07:00,-1,5,,,0,,90,,180,Dry,991,1,50,,,,-2.3,
Wick,29/01/2019 08:00,-1.8,2,,,0,,89,,260,Dry,991,1,45,,,,-3.3,
Wick,29/01/2019 09:00,-0.4,8,,,0,,89,,220,Dry,991,3,45,,,,-1.9,
Wick,29/01/2019 10:00,0.8,12,,,0,,78,,220,Dry,990,5,50,,,,-2.5,
Wick,29/01/2019 11:00,0.5,6,,,0,,83,,260,Dry,990,0,35,,,,-2,
Wick,29/01/2019 12:00,0.9,8,,,0,0,83,,240,Dry,989,0,50,,,,-1.6,
Wick,29/01/2019 13:00,1.3,8,,,0,,80,,230,Dry,989,3,45,,,,-1.7,
Wick,29/01/2019 14:00,1.1,7,,,0,,80,,220,Dry,988,2,50,,,,-1.8,
Wick,29/01/2019 15:00,1.7,6,,,0,,79,,240,Dry,988,0,35,,,,-1.4,
Wick,29/01/2019 16:00,0.5,8,,,0,,83,,240,Dry,988,1,50,,,,-1.9,
Wick,29/01/2019 17:00,-2.1,7,,,0,,87,,270,Dry,988,0,35,,,,-3.9,
Wick,29/01/2019 18:00,-2.4,6,,2,0,0,90,,260,Dry,988,0,50,,,,-3.8,
Wick,29/01/2019 19:00,-1.8,7,,,0,,88,,210,Dry,988,1,50,,,,-3.5,
Wick,29/01/2019 20:00,-2,7,,,0,,86,,220,Dry,988,0,50,,,,-3.9,
Wick,29/01/2019 21:00,-2,5,,,0,,84,,210,Dry,988,1,50,,,,-4.2,
Wick,29/01/2019 22:00,-1.2,6,,,0,,82,,190,Dry,988,0,50,,,,-3.8,
Wick,29/01/2019 23:00,-1.3,6,,,0,,81,,220,Dry,987,0,50,,,,-4.1,
Wick,30/01/2019 00:00,-0.9,5,,,0,0,86,,190,Dry,987,0,50,,,10,-2.8,
Wick,30/01/2019 01:00,-1.4,6,,,0,,88,,200,Dry,987,0,50,,,10,-3,
Wick,30/01/2019 02:00,-0.6,6,,,0,,84,,180,Dry,987,3,45,,,10,-2.9,
Wick,30/01/2019 03:00,-0.1,9,,,0,,86,,180,Dry,987,8,45,,,10,-2.1,
Wick,30/01/2019 04:00,0.5,9,,,0,,87,,200,Dry,986,0,50,,,10,-1.3,
Wick,30/01/2019 05:00,-0.1,7,,,0,,88,,200,Dry,987,0,50,,,10,-1.7,
Wick,30/01/2019 06:00,0,5,-3,,0,0,88,,200,Precipitation,987,6,50,,,10,-1.7,
Wick,30/01/2019 07:00,0.2,8,,,0,,88,,220,Dry,987,7,50,,,10,-1.5,
Wick,30/01/2019 08:00,0.9,10,,,0,,89,,180,Precipitation,988,7,45,,,10,-0.7,
Wick,30/01/2019 09:00,0.9,9,,,0,,90,,170,Dry,988,1,40,,,10,-0.5,
Wick,30/01/2019 10:00,2.4,6,,,0,,74,,160,Dry,988,7,30,,,10,-1.6,
Wick,30/01/2019 11:00,2.3,13,,,0,,79,,190,Dry,988,7,35,,,10,-0.9,
Wick,30/01/2019 12:00,2.4,16,,,0,0,81,,190,Dry,988,8,40,,,,-0.5,
Wick,30/01/2019 13:00,3,18,,,0,,76,,180,Dry,987,8,24,,,,-0.7,
Wick,30/01/2019 14:00,2.5,17,,,0,,86,,190,Dry,987,8,50,,,,0.4,
Wick,30/01/2019 15:00,3.1,15,,,0,,82,,190,Dry,987,7,40,,,,0.4,
Wick,30/01/2019 16:00,1.7,15,,,0,,87,,200,Dry,987,2,30,,,,-0.1,
Wick,30/01/2019 17:00,0.9,6,,,0,,92,,250,Dry,987,7,50,,,,-0.2,
Wick,30/01/2019 18:00,0.7,9,,3.3,0,0,96,,270,Dry,987,7,40,,,,0.2,
Wick,30/01/2019 19:00,1.2,13,,,0,,97,,290,Dry,988,7,40,,,,0.9,
Wick,30/01/2019 20:00,1.5,13,,,0,,97,,280,Drizzle,989,8,35,,,,1.1,
Wick,30/01/2019 21:00,0.8,12,,,0,,97,,290,Dry,989,1,40,,,,0.4,
Wick,30/01/2019 22:00,0.9,10,,,0,,96,,280,Dry,990,6,45,,,,0.4,
Wick,30/01/2019 23:00,0.8,10,,,0,,97,,280,Dry,990,5,35,,,,0.4,
Wick,31/01/2019 00:00,0.6,10,,,0,0,97,,280,Rain,990,6,27,,,,0.2,
Wick,31/01/2019 01:00,0.5,10,,,0.4,,97,,250,Light shower,991,6,30,,,,0.1,
Wick,31/01/2019 02:00,0.2,13,,,0,,97,,270,Rain,991,0,50,,,,-0.2,
Wick,31/01/2019 03:00,-0.3,13,,,0,,97,,270,Dry,991,1,45,,,,-0.7,
Wick,31/01/2019 04:00,-1,12,,,0,,97,,260,Dry,991,0,50,,,,-1.4,
Wick,31/01/2019 05:00,-0.6,8,,,0,,97,,260,Dry,991,4,50,,,,-0.9,
Wick,31/01/2019 06:00,-0.1,8,-1.1,,0,0.4,95,,220,Moderate precip.,992,7,50,,,,-0.7,
Wick,31/01/2019 07:00,-1.1,6,,,0,,96,,240,Precipitation,992,5,50,,,,-1.6,
Wick,31/01/2019 08:00,-1,7,,,0,,94,,240,Precipitation,992,7,50,,,,-1.7,
Wick,31/01/2019 09:00,-1.2,7,,,0,,94,,240,Snow,992,4,50,,,,-1.9,
Wick,31/01/2019 10:00,-0.2,7,,,0,,95,,250,Dry,992,5,45,,,,-0.9,
Wick,31/01/2019 11:00,0.6,8,,,0,,94,,250,Light shower,992,8,9,,,,-0.2,
Wick,31/01/2019 12:00,1.2,9,,,0.2,0.2,95,,240,Rain,992,8,45,,,,0.5,
Wick,31/01/2019 13:00,2.1,9,,,0.2,,96,,240,Rain,992,7,45,,,,1.6,
Wick,31/01/2019 14:00,1.9,10,,,0,,95,,240,Rain,992,8,35,,,,1.3,
Wick,31/01/2019 15:00,1.6,8,,,0.2,,94,,250,Rain,992,1,45,,,,0.8,
Wick,31/01/2019 16:00,1.7,8,,,0,,95,,240,Rain,992,8,45,,,,1,
Wick,31/01/2019 17:00,1.3,8,,,0,,94,,240,Precipitation,992,8,25,,,,0.5,
Wick,31/01/2019 18:00,1,6,,2.4,0.4,0.8,95,,230,Light shower,992,8,40,,,,0.3,
Wick,31/01/2019 19:00,0.7,7,,,0,,95,,240,Rain,992,2,40,,,,0.1,
Wick,31/01/2019 20:00,1.1,8,,,0.4,,97,,250,Rain,992,7,22,,,,0.7,
Wick,31/01/2019 21:00,1,10,,,0.2,,97,,250,Rain,992,7,50,,,,0.7,
Wick,31/01/2019 22:00,1,13,,,0.2,,97,,270,Rain,992,8,17,,,,0.7,
Wick,31/01/2019 23:00,1.2,9,,,0.8,,98,,260,Light shower,993,1,17,,,,1,
Wick,01/02/2019 00:00,1.3,7,,,1.2,3,97,,270,Rain,992,3,35,,,,1,
Wick,01/02/2019 01:00,1.2,6,,,0.2,,97,,280,Rain,992,7,40,,,,0.8,
Wick,01/02/2019 02:00,1.5,10,,,0.4,,97,,250,Light shower,992,8,21,,,,1.1,
Wick,01/02/2019 03:00,0.8,8,,,0.2,,98,,260,Rain,992,2,40,,,,0.6,
Wick,01/02/2019 04:00,-0.2,8,,,0,,97,,290,Dry,992,1,45,,,,-0.5,
Wick,01/02/2019 05:00,0.7,10,,,0,,98,,320,Freezing precip,993,4,11,,,,0.5,
Wick,01/02/2019 06:00,1.9,13,-0.5,,0,1,97,,350,Freezing rain,993,1,10,,,,1.6,
Wick,01/02/2019 07:00,2.1,12,,,0.2,,93,,10,Rain,994,3,50,,,,1.2,
Wick,01/02/2019 08:00,2.1,12,,,0,,91,,360,Precipitation,995,4,50,,,,0.9,
Wick,01/02/2019 09:00,1.9,23,,,0.4,,89,31,40,Moderate shower,996,6,4,,,,0.3,
Wick,01/02/2019 10:00,2.8,16,,,2,,92,,350,Rain,996,8,27,,,,1.7,
Wick,01/02/2019 11:00,1.4,13,,,0,,94,,300,Precipitation,997,2,45,,,,0.6,
Wick,01/02/2019 12:00,3,16,,,0,3,94,,340,Dry,997,5,30,,,,2.2,
Wick,01/02/2019 13:00,2.6,15,,,0,,94,,320,Dry,998,7,17,,,,1.8,
Wick,01/02/2019 14:00,3.5,18,,,0,,93,,340,Dry,998,1,23,,,,2.5,
Wick,01/02/2019 15:00,2.6,15,,,0,,94,,320,Dry,999,7,25,,,,1.8,
Wick,01/02/2019 16:00,0.9,14,,,0.2,,96,,300,Light shower,999,8,8,,,,0.4,
Wick,01/02/2019 17:00,2.2,14,,,0,,97,,360,Light shower,1000,8,45,,,,1.9,
Wick,01/02/2019 18:00,1.8,21,,3.5,0.2,0,97,29,340,Light shower,1001,8,7,,,,1.4,
Wick,01/02/2019 19:00,2,17,,,0.2,,96,,330,Rain,1001,4,21,,,,1.5,
Wick,01/02/2019 20:00,2.2,15,,,0,,97,,330,Drizzle,1002,8,45,,,,1.8,
Wick,01/02/2019 21:00,1.7,18,,,0.4,,95,,350,Moderate shower,1003,8,19,,,,1,
Wick,01/02/2019 22:00,0.3,9,,,0.2,,96,,310,Light snow,1003,8,3,,,,-0.2,
Wick,01/02/2019 23:00,0.7,13,,,0.6,,97,,320,Snow,1004,1,20,,,,0.4,
Wick,02/02/2019 00:00,1,12,,,0.6,2,95,,310,Dry,1004,2,45,,,,0.3,
Wick,02/02/2019 01:00,1.6,20,,,0.4,,91,,320,Dry,1004,7,30,,,,0.3,
Wick,02/02/2019 02:00,2.1,16,,,0,,84,,320,Dry,1005,8,26,,,,-0.3,
Wick,02/02/2019 03:00,1.7,12,,,0,,78,,320,Dry,1005,1,30,,,,-1.7,
Wick,02/02/2019 04:00,1,13,,,0,,81,,310,Dry,1005,2,35,,,,-1.8,
Wick,02/02/2019 05:00,-0.3,12,,,0,,81,,310,Dry,1006,0,45,,,,-3,
Wick,02/02/2019 06:00,-0.8,10,-1.1,,0,0,81,,310,Dry,1006,0,40,,,,-3.5,
Wick,02/02/2019 07:00,-1.5,9,,,0,,84,,300,Dry,1007,0,50,,,,-3.7,
Wick,02/02/2019 08:00,-0.2,10,,,0,,86,,310,Dry,1008,4,45,,,,-2.1,
Wick,02/02/2019 09:00,-1.3,9,,,0,,87,,250,Dry,1008,2,50,,,,-3.1,
Wick,02/02/2019 10:00,-0.4,9,,,0,,92,,250,Rain,1009,7,45,,,,-1.5,
Wick,02/02/2019 11:00,0.6,14,,,0,,87,,250,Dry,1009,0,35,,,,-1.2,
Wick,02/02/2019 12:00,0.9,14,,,0.2,0.2,86,,260,Dry,1009,0,50,,,,-1.1,
Wick,02/02/2019 13:00,1.9,12,,,0,,86,,270,Dry,1010,1,35,,,,-0.1,
Wick,02/02/2019 14:00,2.1,14,,,0,,84,,270,Precipitation,1010,2,30,,,,-0.2,
Wick,02/02/2019 15:00,1.1,10,,,0,,91,,270,Rain,1010,3,50,,,,-0.1,
Wick,02/02/2019 16:00,0.6,8,,,0.2,,94,,300,Snow,1011,3,50,,,,-0.2,
Wick,02/02/2019 17:00,0.1,8,,,0,,95,,300,Moderate precip.,1011,3,10,,,,-0.6,
Wick,02/02/2019 18:00,0.5,10,,2.4,0,0.2,96,,340,Freezing rain,1012,6,45,,,,0,
Wick,02/02/2019 19:00,-0.4,7,,,0,,97,,230,Snow shower,1013,8,2,,,,-0.8,
Wick,02/02/2019 20:00,0,3,,,0,,97,,220,Snow shower,1013,8,9,,,10,-0.3,
Wick,02/02/2019 21:00,-0.7,1,,,0,,97,,250,Snow,1013,1,5,,,30,-1,
Wick,02/02/2019 22:00,-1.3,2,,,0,,97,,280,Thickening fog,1013,7,1,,,30,-1.6,
Wick,02/02/2019 23:00,-1.9,2,,,0,,97,,180,Fog,1013,8,25,,,30,-2.2,
Wick,03/02/2019 00:00,-1.7,3,,,0,0,97,,200,Dry,1013,4,26,,,30,-2,
Wick,03/02/2019 01:00,-0.9,2,,,0,,97,,210,Dry,1013,7,50,,,20,-1.2,
Wick,03/02/2019 02:00,-0.3,3,,,0,,97,,240,Precipitation,1013,7,50,,,20,-0.7,
Wick,03/02/2019 03:00,-0.2,3,,,0,,95,,240,Dry,1012,7,50,,,20,-0.8,
Wick,03/02/2019 04:00,-0.1,7,,,0,,92,,200,Dry,1012,6,50,,,20,-1.2,
Wick,03/02/2019 05:00,0,9,,,0,,87,,180,Dry,1011,7,45,,,20,-1.8,
Wick,03/02/2019 06:00,0.3,7,-2.9,,0,0,87,,180,Dry,1011,7,50,,,20,-1.5,
Wick,03/02/2019 07:00,0.8,9,,,0,,87,,170,Dry,1011,8,45,,,20,-1,
Wick,03/02/2019 08:00,1,7,,,0,,88,,190,Dry,1010,8,40,,,20,-0.7,
Wick,03/02/2019 09:00,1.5,9,,,0,,86,,170,Dry,1010,8,50,,,20,-0.5,
Wick,03/02/2019 10:00,2.2,9,,,0,,89,,180,Dry,1009,7,30,,,10,0.6,
Wick,03/02/2019 11:00,2,15,,,1.4,,93,,160,Moderate shower,1008,2,16,,,,1,
Wick,03/02/2019 12:00,3.5,17,,,0,1,83,,170,Rain,1008,7,40,,,,0.9,
Wick,03/02/2019 13:00,3.8,15,,,0,,83,,180,Dry,1008,1,45,,,,1.2,
Wick,03/02/2019 14:00,3.3,13,,,0,,84,,220,Dry,1007,6,50,,,,1,
Wick,03/02/2019 15:00,3.8,12,,,0,,81,,220,Dry,1007,1,30,,,,1,
Wick,03/02/2019 16:00,3.1,13,,,0,,83,,200,Dry,1007,2,30,,,,0.6,
Wick,03/02/2019 17:00,2.9,13,,,0,,82,,200,Dry,1007,3,30,,,,0.3,
Wick,03/02/2019 18:00,2.7,15,,4.4,0,0,82,,200,Dry,1007,0,35,,,,0,
Wick,03/02/2019 19:00,2.7,14,,,0,,81,,190,Dry,1007,2,30,,,,-0.2,
Wick,03/02/2019 20:00,2.9,16,,,0,,86,,200,Dry,1007,5,28,,,,0.8,
Wick,03/02/2019 21:00,3.1,16,,,0,,80,,200,Dry,1007,7,24,,,,0.1,
Wick,03/02/2019 22:00,3.2,14,,,0,,81,,200,Dry,1006,8,35,,,,0.3,
Wick,03/02/2019 23:00,3.4,14,,,0,,83,,200,Dry,1006,8,22,,,,0.9,
Wick,04/02/2019 00:00,3.4,12,,,0,0,82,,190,Dry,1006,0,27,,,,0.7,
Wick,04/02/2019 01:00,3.4,10,,,0,,84,,190,Dry,1005,8,25,,,,1,
Wick,04/02/2019 02:00,3.4,13,,,0,,83,,200,Dry,1004,8,30,,,,0.9,
Wick,04/02/2019 03:00,3.2,10,,,0,,84,,170,Dry,1004,8,30,,,,0.8,
Wick,04/02/2019 04:00,3,7,,,0,,81,,200,Moderate precip.,1003,7,30,,,,0.1,
Wick,04/02/2019 05:00,2.2,6,,,0,,88,,170,Light shower,1003,1,19,,,,0.5,
Wick,04/02/2019 06:00,2,3,1.9,,0,0,90,,190,Rain,1002,4,18,,,,0.6,
Wick,04/02/2019 07:00,1.3,5,,,0.2,,91,,250,Rain,1002,7,35,,,,0.1,
Wick,04/02/2019 08:00,1.2,9,,,0,,95,,260,Rain,1003,1,30,,,,0.6,
Wick,04/02/2019 09:00,1.7,13,,,0,,95,,260,Rain,1003,7,23,,,,1.1,
Wick,04/02/2019 10:00,2.2,17,,,0,,95,,260,Dry,1003,8,50,,,,1.6,
Wick,04/02/2019 11:00,3.4,20,,,0,,93,29,270,Light shower,1004,8,20,,,,2.5,
Wick,04/02/2019 12:00,3.5,16,,,0.4,0.6,95,29,270,Light shower,1005,7,12,,,,2.8,
Wick,04/02/2019 13:00,4.8,17,,,0.2,,93,30,270,Rain,1006,5,7,,,,3.8,
Wick,04/02/2019 14:00,5.1,16,,,0,,89,,280,Rain,1006,1,26,,,,3.5,
Wick,04/02/2019 15:00,5,17,,,0,,87,,290,Dry,1008,1,40,,,,3.1,
Wick,04/02/2019 16:00,3,15,,,0.4,,93,30,260,Rain,1009,6,40,,,,2.1,
Wick,04/02/2019 17:00,2.1,12,,,0,,93,,260,Rain,1009,4,50,,,,1.2,
Wick,04/02/2019 18:00,1.9,13,,5.4,0,0.4,93,,260,Dry,1010,1,45,,,,1,
Wick,04/02/2019 19:00,2.5,14,,,0,,93,,260,Dry,1012,1,50,,,,1.6,
Wick,04/02/2019 20:00,2.7,13,,,0,,93,,260,Dry,1013,6,50,,,,1.8,
Wick,04/02/2019 21:00,1.4,10,,,0,,94,,260,Precipitation,1013,0,40,,,,0.6,
Wick,04/02/2019 22:00,1.9,15,,,0,,92,,250,Dry,1014,0,50,,,,0.8,
Wick,04/02/2019 23:00,1.7,13,,,0.2,,93,,270,Light shower,1015,5,50,,,,0.8,
Wick,05/02/2019 00:00,1.5,13,,,0,0.2,95,,260,Rain,1015,0,45,,,,0.8,
Wick,05/02/2019 01:00,2.3,12,,,0,,95,,260,Light shower,1016,6,10,,,,1.6,
Wick,05/02/2019 02:00,1.7,8,,,0.2,,95,,260,Light drizzle,1016,3,12,,,,1,
Wick,05/02/2019 03:00,0.8,8,,,0,,95,,240,Rain,1017,3,50,,,,0.1,
Wick,05/02/2019 04:00,0.3,9,,,0,,95,,250,Dry,1017,0,45,,,,-0.4,
Wick,05/02/2019 05:00,0.4,7,,,0,,94,,230,Dry,1018,4,45,,,,-0.4,
Wick,05/02/2019 06:00,0.7,6,-0.2,,0,0.2,93,,220,Dry,1018,5,45,,,,-0.3,
Wick,05/02/2019 07:00,1.3,3,,,0,,92,,250,Dry,1018,7,45,,,,0.2,
Wick,05/02/2019 08:00,0.8,5,,,0,,93,,220,Dry,1018,1,45,,,,-0.1,
Wick,05/02/2019 09:00,2.8,6,,,0,,92,,170,Dry,1018,3,28,,,,1.7,
Wick,05/02/2019 10:00,4.5,5,,,0,,88,,150,Dry,1018,3,19,,,,2.7,
Wick,05/02/2019 11:00,5.8,7,,,0,,85,,140,Dry,1018,0,18,,,,3.6,
Wick,05/02/2019 12:00,6,13,,,0,0,84,,130,Dry,1017,1,35,,,,3.6,
Wick,05/02/2019 13:00,5.9,15,,,0,,83,,130,Dry,1016,0,15,,,,3.4,
Wick,05/02/2019 14:00,5.7,20,,,0,,81,,120,Dry,1014,0,30,,,,2.8,
Wick,05/02/2019 15:00,6,21,,,0,,75,32,130,Dry,1013,6,28,,,,2,
Wick,05/02/2019 16:00,5.4,22,,,0,,80,36,130,Dry,1012,7,35,,,,2.4,
Wick,05/02/2019 17:00,5.5,20,,,0,,82,35,150,Dry,1011,7,23,,,,2.8,
Wick,05/02/2019 18:00,5.4,21,,6.1,0,0,85,35,140,Dry,1009,1,24,,,,3.1,
Wick,05/02/2019 19:00,5.5,20,,,0,,88,32,140,Dry,1008,8,14,,,,3.8,
Wick,05/02/2019 20:00,5.6,23,,,0.4,,91,36,140,Light shower,1006,5,6,,,,4.3,
Wick,05/02/2019 21:00,5.6,24,,,1.4,,93,39,140,Rain,1005,8,10,,,,4.6,
Wick,05/02/2019 22:00,5.6,24,,,0.2,,92,37,150,Light shower,1005,8,10,,,,4.5,
Wick,05/02/2019 23:00,5.4,18,,,0.6,,93,36,160,Rain,1004,8,15,,,,4.5,
Wick,06/02/2019 00:00,5.5,13,,,0,3,92,,170,Rain,1004,8,22,,,,4.4,
Wick,06/02/2019 01:00,5.5,10,,,0,,90,,190,Dry,1004,8,45,,,,4,
Wick,06/02/2019 02:00,4.8,9,,,0,,86,,210,Dry,1004,4,45,,,,2.8,
Wick,06/02/2019 03:00,4.1,12,,,0,,87,,210,Dry,1004,0,50,,,,2.2,
Wick,06/02/2019 04:00,3.3,10,,,0,,86,,230,Dry,1005,0,40,,,,1.2,
Wick,06/02/2019 05:00,3.8,12,,,0,,88,,190,Dry,1005,1,45,,,,2,
Wick,06/02/2019 06:00,4.4,13,2.7,,0,0,86,,190,Dry,1005,4,40,,,,2.4,
Wick,06/02/2019 07:00,3.9,13,,,0,,89,,190,Dry,1005,8,35,,,,2.3,
Wick,06/02/2019 08:00,2.9,6,,,0,,89,,200,Dry,1005,8,35,,,,1.4,
Wick,06/02/2019 09:00,2.9,5,,,0,,87,,210,Dry,1006,5,40,,,,1,
Wick,06/02/2019 10:00,3.9,13,,,0,,85,,190,Dry,1006,3,40,,,,1.7,
Wick,06/02/2019 11:00,5.3,12,,,0,,86,,180,Dry,1006,7,30,,,,3.3,
Wick,06/02/2019 12:00,5.7,15,,,0,0,81,,190,Dry,1006,8,50,,,,2.8,
Wick,06/02/2019 13:00,6.4,15,,,0,,82,,190,Dry,1005,0,25,,,,3.7,
Wick,06/02/2019 14:00,6.5,13,,,0,,78,,190,Dry,1005,0,23,,,,3.1,
Wick,06/02/2019 15:00,5.5,15,,,0,,83,,180,Dry,1004,0,26,,,,3,
Wick,06/02/2019 16:00,6.2,15,,,0,,74,,170,Dry,1003,6,30,,,,2.1,
Wick,06/02/2019 17:00,6,14,,,0,,73,,180,Dry,1003,7,35,,,,1.6,
Wick,06/02/2019 18:00,6,14,,6.6,0,0,78,,150,Rain,1002,3,27,,,,2.6,
Wick,06/02/2019 19:00,6.2,15,,,0,,77,,170,Dry,1001,2,26,,,,2.6,
Wick,06/02/2019 20:00,4.9,16,,,0,,80,25,190,Dry,1001,5,45,,,,1.8,
Wick,06/02/2019 21:00,3.3,9,,,0,,84,,210,Dry,1001,0,50,,,,1,
Wick,06/02/2019 22:00,3,7,,,0,,86,,180,Dry,1001,0,45,,,,1,
Wick,06/02/2019 23:00,2.6,6,,,0,,84,,220,Dry,1001,2,50,,,,0.2,
Wick,07/02/2019 00:00,3.5,8,,,0,0,87,,180,Dry,1001,0,40,,,,1.7,
Wick,07/02/2019 01:00,3.4,6,,,0,,89,,170,Dry,1000,8,45,,,,1.8,
Wick,07/02/2019 02:00,3.4,7,,,0,,90,,200,Dry,999,8,45,,,,2,
Wick,07/02/2019 03:00,2,2,,,0,,88,,280,Dry,998,7,50,,,,0.3,
Wick,07/02/2019 04:00,2.3,3,,,0,,89,,120,Dry,997,8,50,,,,0.8,
Wick,07/02/2019 05:00,2.6,3,,,0,,92,,200,Dry,996,0,40,,,,1.5,
Wick,07/02/2019 06:00,1.5,1,1.2,,0,0,94,,250,Dry,996,8,35,,,,0.7,
Wick,07/02/2019 07:00,1.5,2,,,0,,95,,310,Dry,995,8,40,,,,0.8,
Wick,07/02/2019 08:00,0.7,3,,,0,,96,,270,Dry,995,8,40,,,,0.2,
Wick,07/02/2019 09:00,0.9,5,,,0,,97,,250,Dry,994,1,50,,,,0.5,
Wick,07/02/2019 10:00,2,5,,,0,,97,,260,Rain,994,8,45,,,,1.7,
Wick,07/02/2019 11:00,3.3,6,,,0,,98,,270,Dry,994,8,24,,,,3.1,
Wick,07/02/2019 12:00,3.7,5,,,0,0,97,,270,Light shower,994,3,25,,,,3.4,
Wick,07/02/2019 13:00,4.3,10,,,0,,97,,280,Rain,994,8,35,,,,3.9,
Wick,07/02/2019 14:00,4.4,9,,,0,,93,,270,Dry,993,5,40,,,,3.5,
Wick,07/02/2019 15:00,3.8,13,,,0,,88,,290,Dry,993,5,40,,,,2.1,
Wick,07/02/2019 16:00,3.9,8,,,0,,90,,290,Dry,993,7,45,,,,2.5,
Wick,07/02/2019 17:00,1.1,3,,,0,,92,,270,Dry,994,8,30,,,,0,
Wick,07/02/2019 18:00,2,5,,4.9,0,0,95,,160,Dry,993,8,50,,,,1.4,
Wick,07/02/2019 19:00,2.5,5,,,0,,93,,180,Dry,993,7,45,,,,1.5,
Wick,07/02/2019 20:00,3.1,7,,,0,,84,,190,Dry,993,7,50,,,,0.7,
Wick,07/02/2019 21:00,3.6,9,,,0,,89,,160,Dry,992,0,50,,,,2,
Wick,07/02/2019 22:00,2.7,7,,,0,,89,,170,Dry,992,0,45,,,,1.2,
Wick,07/02/2019 23:00,3.3,12,,,0,,91,,190,Dry,992,2,50,,,,2,
Wick,08/02/2019 00:00,2.7,9,,,0,0,91,,180,Dry,992,0,50,,,,1.5,
Wick,08/02/2019 01:00,3,8,,,0,,91,,180,Dry,991,0,45,,,,1.7,
Wick,08/02/2019 02:00,3.2,12,,,0,,91,,190,Dry,990,8,45,,,,2,
Wick,08/02/2019 03:00,4,10,,,0,,91,,170,Dry,989,7,45,,,,2.7,
Wick,08/02/2019 04:00,5,13,,,0,,80,,170,Dry,988,8,45,,,,2,
Wick,08/02/2019 05:00,4.9,14,,,0,,81,,130,Dry,986,8,45,,,,2,
Wick,08/02/2019 06:00,5,18,1.9,,0,0,82,29,130,Dry,984,8,35,,,,2.3,
Wick,08/02/2019 07:00,4.9,22,,,0,,90,32,130,Dry,983,8,12,,,,3.4,
Wick,08/02/2019 08:00,5.4,26,,,1,,93,37,130,Light rain,981,8,7,,,,4.5,
Wick,08/02/2019 09:00,5.8,28,,,1.6,,95,40,130,Light rain,978,8,6,,,,5.2,
Wick,08/02/2019 10:00,6.2,25,,,1.6,,96,39,130,Light rain,976,7,6,,,,5.7,
Wick,08/02/2019 11:00,6.6,20,,,1.6,,97,36,140,Light rain,974,8,6,,,,6.2,
Wick,08/02/2019 12:00,7,21,,,0.6,6,95,35,140,Rain,971,8,11,,,,6.3,
Wick,08/02/2019 13:00,7.4,24,,,0,,92,40,150,Haze,969,8,9,,,,6.3,
Wick,08/02/2019 14:00,7.8,20,,,1.2,,93,37,150,Rain,967,6,9,,,,6.8,
Wick,08/02/2019 15:00,8.1,17,,,0,,84,33,150,Dry,966,6,12,,,,5.6,
Wick,08/02/2019 16:00,8,26,,,0,,77,40,160,Dry,964,7,19,,,,4.3,
Wick,08/02/2019 17:00,7.6,22,,,0,,77,39,160,Dry,963,5,23,,,,3.9,
Wick,08/02/2019 18:00,7.9,26,,8.2,0,2,74,43,170,Dry,962,8,22,,,,3.7,
Wick,08/02/2019 19:00,7.5,25,,,0,,75,41,170,Dry,962,8,26,,,,3.5,
Wick,08/02/2019 20:00,7.1,25,,,0,,78,41,180,Dry,962,7,24,,,,3.7,
Wick,08/02/2019 21:00,6.9,25,,,0,,78,39,180,Dry,962,6,27,,,,3.4,
Wick,08/02/2019 22:00,6.7,21,,,0,,80,37,170,Dry,963,1,28,,,,3.5,
Wick,08/02/2019 23:00,6.9,23,,,0,,77,39,170,Dry,963,1,21,,,,3.3,
Wick,09/02/2019 00:00,6.9,23,,,0,0,77,37,170,Dry,963,1,22,,,,3.2,
Wick,09/02/2019 01:00,6.8,28,,,0,,78,41,180,Dry,963,8,35,,,,3.3,
Wick,09/02/2019 02:00,6.5,26,,,0,,79,38,180,Rain,963,8,19,,,,3.3,
Wick,09/02/2019 03:00,6.4,26,,,0,,79,39,190,Dry,963,8,40,,,,3.2,
Wick,09/02/2019 04:00,6,22,,,0,,85,38,200,Dry,963,6,29,,,,3.7,
Wick,09/02/2019 05:00,5.4,15,,,0,,90,30,200,Rain,963,8,30,,,,3.9,
Wick,09/02/2019 06:00,5.5,18,5.4,,0,0,90,,190,Dry,964,8,45,,,,4,
Wick,09/02/2019 07:00,6.1,18,,,0,,90,,210,Dry,964,8,21,,,,4.7,
Wick,09/02/2019 08:00,6.1,18,,,0,,91,,230,Rain,965,7,26,,,,4.8,
Wick,09/02/2019 09:00,6.6,18,,,0.2,,92,,240,Light shower,966,6,13,,,,5.4,
Wick,09/02/2019 10:00,6.9,29,,,0.6,,91,40,260,Rain,967,8,21,,,,5.6,
Wick,09/02/2019 11:00,6.5,32,,,0,,91,49,260,Haze,969,8,6,,,,5.2,
Wick,09/02/2019 12:00,6.7,39,,,0,0.8,86,52,260,Haze,970,8,11,,,,4.6,
Wick,09/02/2019 13:00,7.1,37,,,0,,81,49,260,Dry,971,8,29,,,,4.1,
Wick,09/02/2019 14:00,6.7,37,,,0.2,,90,55,270,Dry,972,8,15,,,,5.2,
Wick,09/02/2019 15:00,6.3,39,,,0,,88,58,270,Dry,974,8,12,,,,4.6,
Wick,09/02/2019 16:00,6.6,39,,,0,,82,60,260,Dry,975,8,21,,,,3.9,
Wick,09/02/2019 17:00,6.3,37,,,0,,82,55,260,Dry,976,8,35,,,,3.5,
Wick,09/02/2019 18:00,5.9,32,,7.3,0,0.2,85,48,260,Dry,978,8,27,,,,3.7,
Wick,09/02/2019 19:00,6,31,,,0,,82,46,260,Dry,979,8,13,,,,3.3,
Wick,09/02/2019 20:00,6,35,,,0,,80,46,260,Dry,980,8,30,,,,2.9,
Wick,09/02/2019 21:00,5.3,25,,,0,,84,47,250,Light shower,981,8,8,,,,2.9,
Wick,09/02/2019 22:00,5,24,,,0,,82,36,250,Rain,982,8,26,,,,2.3,
Wick,09/02/2019 23:00,5.1,28,,,0,,78,37,240,Dry,982,8,30,,,,1.6,
Wick,10/02/2019 00:00,5.1,24,,,0,0,73,36,250,Dry,983,0,26,,,,0.7,
Wick,10/02/2019 01:00,5.1,25,,,0,,66,33,250,Dry,984,8,30,,,,-0.6,
Wick,10/02/2019 02:00,4.7,18,,,0,,70,36,240,Dry,984,8,35,,,,-0.2,
Wick,10/02/2019 03:00,4.3,17,,,0,,71,29,250,Dry,984,8,35,,,,-0.4,
Wick,10/02/2019 04:00,3.6,16,,,0,,76,,250,Dry,984,8,35,,,,-0.1,
Wick,10/02/2019 05:00,3.4,14,,,0,,75,,250,Dry,985,8,40,,,,-0.6,
Wick,10/02/2019 06:00,2.7,14,2.4,,0,0,76,,250,Dry,985,8,40,,,,-1,
Wick,10/02/2019 07:00,2.4,9,,,0,,79,,250,Dry,986,0,35,,,,-0.8,
Wick,10/02/2019 08:00,2,10,,,0,,82,,260,Dry,986,8,50,,,,-0.7,
Wick,10/02/2019 09:00,2.7,10,,,0,,82,,250,Dry,988,8,40,,,,0,
Wick,10/02/2019 10:00,3.2,17,,,0.2,,87,,250,Light shower,988,8,22,,,,1.4,
Wick,10/02/2019 11:00,3.5,15,,,0.4,,91,,260,Rain,989,1,18,,,,2.2,
Wick,10/02/2019 12:00,3.6,16,,,0.2,0.8,90,,260,Light shower,990,8,8,,,,2.2,
Wick,10/02/2019 13:00,3.7,14,,,1.6,,95,,270,Moderate rain,991,8,7,,,,3,
Wick,10/02/2019 14:00,4.6,15,,,0.8,,94,,270,Rain,992,8,13,,,,3.8,
Wick,10/02/2019 15:00,4.2,13,,,0.4,,95,,270,Rain,993,1,50,,,,3.5,
Wick,10/02/2019 16:00,5.1,3,,,1.6,,94,,260,Light shower,994,7,45,,,,4.3,
Wick,10/02/2019 17:00,4.5,18,,,0,,91,,20,Rain,996,8,13,,,,3.2,
Wick,10/02/2019 18:00,5.3,16,,5.7,0.8,5.2,91,,20,Light shower,998,8,21,,,,4,
Wick,10/02/2019 19:00,4.4,22,,,0.6,,89,31,30,Light rain,1000,8,22,,,,2.8,
Wick,10/02/2019 20:00,4,23,,,1.2,,91,33,30,Moderate rain,1002,7,11,,,,2.7,
Wick,10/02/2019 21:00,4.2,24,,,0.4,,84,29,10,Rain,1004,8,23,,,,1.8,
Wick,10/02/2019 22:00,3.7,13,,,0.6,,91,31,340,Rain,1006,8,20,,,,2.4,
Wick,10/02/2019 23:00,3.6,20,,,0,,86,,350,Dry,1008,7,30,,,,1.6,
Wick,11/02/2019 00:00,2.2,9,,,0,3,89,29,340,Dry,1010,2,21,,,,0.6,
Wick,11/02/2019 01:00,0.6,8,,,0,,93,,300,Dry,1011,0,21,,,,-0.3,
Wick,11/02/2019 02:00,0.6,10,,,0,,91,,320,Dry,1013,2,30,,,,-0.6,
Wick,11/02/2019 03:00,-0.4,8,,,0,,90,,310,Dry,1014,1,28,,,,-1.7,
Wick,11/02/2019 04:00,-0.5,9,,,0,,93,,320,Dry,1015,2,40,,,,-1.4,
Wick,11/02/2019 05:00,-0.4,5,,,0,,94,,270,Dry,1016,0,28,,,,-1.2,
Wick,11/02/2019 06:00,0.2,9,-1,,0,0,95,,270,Dry,1017,6,30,,,,-0.5,
Wick,11/02/2019 07:00,-0.1,7,,,0,,94,,250,Rain,1018,2,40,,,,-0.9,
Wick,11/02/2019 08:00,-0.5,7,,,0,,92,,250,Dry,1019,1,40,,,,-1.6,
Wick,11/02/2019 09:00,0.4,7,,,0,,93,,230,Dry,1020,6,35,,,,-0.5,
Wick,11/02/2019 10:00,1,6,,,0,,93,,240,Dry,1021,8,30,,,,0,
Wick,11/02/2019 11:00,1.8,6,,,0,,93,,250,Dry,1022,7,30,,,,0.9,
Wick,11/02/2019 12:00,3.8,6,,,0.2,0.2,89,,240,Dry,1022,7,40,,,,2.2,
Wick,11/02/2019 13:00,5,8,,,0,,78,,240,Dry,1023,5,35,,,,1.5,
Wick,11/02/2019 14:00,5.2,7,,,0,,76,,250,Dry,1023,4,45,,,,1.4,
Wick,11/02/2019 15:00,5,10,,,0,,75,,230,Dry,1023,3,30,,,,1,
Wick,11/02/2019 16:00,4.1,5,,,0,,79,,230,Dry,1023,6,35,,,,0.8,
Wick,11/02/2019 17:00,3.5,6,,,0,,80,,200,Dry,1023,6,40,,,,0.5,
Wick,11/02/2019 18:00,3.3,7,,5.5,0,0,86,,190,Dry,1023,8,30,,,,1.2,
Wick,11/02/2019 19:00,3.7,7,,,0,,83,,170,Dry,1023,8,27,,,,1.1,
Wick,11/02/2019 20:00,4.6,9,,,0,,77,,170,Dry,1023,8,30,,,,1,
Wick,11/02/2019 21:00,4.6,13,,,0,,78,,180,Light shower,1022,8,21,,,,1.1,
Wick,11/02/2019 22:00,4.2,14,,,0.4,,82,,170,Light rain,1022,8,19,,,,1.5,
Wick,11/02/2019 23:00,4.5,13,,,0.2,,88,,170,Light rain,1021,7,14,,,,2.8,
Wick,12/02/2019 00:00,4.8,16,,,0,0.6,89,,180,Rain,1020,1,29,,,,3.3,
Wick,12/02/2019 01:00,5.2,14,,,0,,90,,180,Rain,1020,7,30,,,,3.8,
Wick,12/02/2019 02:00,5.6,14,,,0,,88,,180,Dry,1019,8,30,,,,3.9,
Wick,12/02/2019 03:00,5.7,14,,,0,,90,,180,Dry,1018,8,35,,,,4.3,
Wick,12/02/2019 04:00,6.3,14,,,0,,91,,170,Dry,1017,8,40,,,,5,
Wick,12/02/2019 05:00,6.4,15,,,1.6,,93,,170,Moderate shower,1017,8,6,,,,5.5,
Wick,12/02/2019 06:00,7,17,3.3,,0.8,2.4,90,,180,Rain,1016,8,28,,,,5.6,
Wick,12/02/2019 07:00,7,16,,,0,,88,,170,Dry,1015,8,20,,,,5.3,
Wick,12/02/2019 08:00,7.4,18,,,0,,86,29,190,Dry,1015,1,35,,,,5.3,
Wick,12/02/2019 09:00,7.2,17,,,0,,88,31,180,Dry,1014,7,28,,,,5.4,
Wick,12/02/2019 10:00,7.5,20,,,0,,90,,180,Dry,1013,8,30,,,,6,
Wick,12/02/2019 11:00,7.9,22,,,0,,88,31,190,Dry,1013,8,30,,,,6.1,
Wick,12/02/2019 12:00,8,21,,,0,0,88,30,190,Dry,,7,19,,,,6.3,
Wick,12/02/2019 13:00,9.5,20,,,0,,87,32,210,-,1012,1,30,,,,7.5,
Wick,12/02/2019 14:00,11.3,15,,,0,,79,,210,Dry,1013,3,35,,,,7.9,
Wick,12/02/2019 15:00,11.9,17,,,0,,76,30,220,Dry,1014,1,25,,,,8,
Wick,12/02/2019 16:00,11.3,29,,,0,,68,40,230,Dry,1014,0,24,,,,5.8,
Wick,12/02/2019 17:00,9.7,20,,,0,,71,35,230,Dry,1015,0,22,,,,4.8,
Wick,12/02/2019 18:00,8.9,9,,12.4,0,0,69,,180,Dry,1016,3,18,,,,3.7,
Wick,12/02/2019 19:00,8.7,16,,,0,,72,,220,Dry,1016,0,17,,,,4,
Wick,12/02/2019 20:00,8.8,24,,,0,,70,35,240,Dry,1017,0,16,,,,3.7,
Wick,12/02/2019 21:00,8,20,,,0,,69,33,240,Dry,1018,0,12,,,,2.8,
Wick,12/02/2019 22:00,7.4,18,,,0,,72,,240,Dry,1019,0,12,,,,2.7,
Wick,12/02/2019 23:00,7,14,,,0,,75,,250,Dry,1019,0,10,,,,3,
Wick,13/02/2019 00:00,6,15,,,0,0,81,,260,Haze,1019,0,10,,,,3,
Wick,13/02/2019 01:00,7.1,13,,,0,,74,,200,Dry,1020,8,10,,,,2.8,
Wick,13/02/2019 02:00,7,12,,,0,,84,,160,Haze,1020,0,10,,,,4.5,
Wick,13/02/2019 03:00,6.9,17,,,0,,87,,190,Haze,1020,6,9,,,,4.9,
Wick,13/02/2019 04:00,7.2,15,,,0,,82,,200,Dry,1019,8,10,,,,4.5,
Wick,13/02/2019 05:00,7.2,14,,,0,,82,,160,Dry,1018,8,10,,,,4.4,
Wick,13/02/2019 06:00,7.2,12,5.8,,0,0,82,,160,Dry,1017,8,11,,,,4.5,
Wick,13/02/2019 07:00,6.9,13,,,0.2,,85,,170,Light rain,1017,8,10,,,,4.6,
Wick,13/02/2019 08:00,7.4,14,,,0,,81,,170,Rain,1017,8,20,,,,4.4,
Wick,13/02/2019 09:00,8.1,13,,,0,,80,,170,Dry,1017,7,22,,,,5,
Wick,13/02/2019 10:00,8.5,17,,,0,,84,,180,Dry,1017,5,35,,,,6.1,
Wick,13/02/2019 11:00,8.5,17,,,0,,89,,180,Dry,1016,8,26,,,,6.8,
Wick,13/02/2019 12:00,8.7,17,,,0,0.2,88,,180,Dry,1016,8,25,,,,6.9,
Wick,13/02/2019 13:00,10.7,20,,,0,,82,,180,Dry,1016,5,30,,,,7.8,
Wick,13/02/2019 14:00,10.6,22,,,0,,80,33,200,Dry,1015,1,30,,,,7.3,
Wick,13/02/2019 15:00,10.3,20,,,0,,79,35,190,Dry,1016,6,24,,,,7,
Wick,13/02/2019 16:00,9.8,16,,,0,,82,29,180,Dry,1016,8,22,,,,6.9,
Wick,13/02/2019 17:00,10.2,23,,,0,,78,35,190,Dry,1016,8,28,,,,6.7,
Wick,13/02/2019 18:00,9.4,16,,11,0,0,80,31,190,Dry,1015,1,26,,,,6.3,
Wick,13/02/2019 19:00,10,23,,,0,,78,38,200,Dry,1014,0,28,,,,6.5,
Wick,13/02/2019 20:00,9.8,18,,,0,,77,33,200,Dry,1015,0,35,,,,6.1,
Wick,13/02/2019 21:00,10,26,,,0,,76,38,200,Dry,1014,4,26,,,,6.1,
Wick,13/02/2019 22:00,10,30,,,0,,78,45,200,Dry,1015,0,25,,,,6.4,
Wick,13/02/2019 23:00,9.3,28,,,0,,79,45,190,Dry,1015,0,20,,,,6,
Wick,14/02/2019 00:00,8.6,21,,,0,0,81,38,190,Dry,1015,0,14,,,,5.6,
Wick,14/02/2019 01:00,10.3,38,,,0,,73,49,210,Dry,1014,0,40,,,,5.7,
Wick,14/02/2019 02:00,9.8,31,,,0,,76,51,210,Dry,1016,0,35,,,,5.9,
Wick,14/02/2019 03:00,10.1,32,,,0,,79,47,210,Dry,1016,1,40,,,,6.8,
Wick,14/02/2019 04:00,9.9,31,,,0,,80,44,210,Dry,1017,2,50,,,,6.7,
Wick,14/02/2019 05:00,9.9,31,,,0,,81,39,210,Dry,1018,7,30,,,,6.9,
Wick,14/02/2019 06:00,9.9,26,8.5,,0,0,82,39,210,Dry,1018,8,40,,,,7.1,
Wick,14/02/2019 07:00,9.9,25,,,0,,83,36,210,Dry,1019,8,45,,,,7.3,
Wick,14/02/2019 08:00,10,18,,,0,,85,35,220,Dry,1020,8,45,,,,7.6,
Wick,14/02/2019 09:00,10.1,17,,,0,,84,,230,Dry,1020,1,22,,,,7.6,
Wick,14/02/2019 10:00,10.7,15,,,0,,81,,210,Dry,1020,0,26,,,,7.6,
Wick,14/02/2019 11:00,10.4,9,,,0,,81,,200,Dry,1021,8,30,,,,7.3,
Wick,14/02/2019 12:00,10.5,13,,,0,0,81,,180,Dry,1021,8,23,,,,7.4,
Wick,14/02/2019 13:00,10.4,17,,,0,,82,,200,Dry,1021,0,20,,,,7.5,
Wick,14/02/2019 14:00,9.6,15,,,0,,85,29,200,Dry,1021,8,25,,,,7.3,
Wick,14/02/2019 15:00,9.7,14,,,0,,83,,200,Dry,1021,8,35,,,,7.1,
Wick,14/02/2019 16:00,10.2,9,,,0,,81,,200,Dry,1021,8,45,,,,7.1,
Wick,14/02/2019 17:00,9.2,10,,,0,,83,,160,Dry,1020,8,26,,,,6.5,
Wick,14/02/2019 18:00,8.8,9,,10.8,0,0,86,,160,Dry,1020,1,26,,,,6.6,
Wick,14/02/2019 19:00,8.3,6,,,0,,89,,110,Dry,1020,8,20,,,,6.7,
Wick,14/02/2019 20:00,8.4,10,,,0,,89,,140,Dry,1019,8,19,,,,6.7,
Wick,14/02/2019 21:00,8.3,18,,,0,,86,29,150,Dry,1019,8,19,,,,6.1,
Wick,14/02/2019 22:00,8.3,8,,,0,,81,,190,Dry,1019,8,20,,,,5.3,
Wick,14/02/2019 23:00,8.2,10,,,0,,83,,180,Dry,1018,8,25,,,,5.6,
Wick,15/02/2019 00:00,8.4,9,,,0,0,77,,200,Dry,1018,0,23,,,,4.7,
Wick,15/02/2019 01:00,9.7,23,,,0,,64,30,190,Dry,1017,0,25,,,,3.3,
Wick,15/02/2019 02:00,8.7,22,,,0,,70,33,190,Dry,1016,8,25,,,,3.7,
Wick,15/02/2019 03:00,8.6,18,,,0,,70,31,180,Dry,1016,8,25,,,,3.5,
Wick,15/02/2019 04:00,8.8,23,,,0,,64,33,180,Dry,1015,0,35,,,,2.4,
Wick,15/02/2019 05:00,8.4,17,,,0,,66,29,180,Dry,1015,5,26,,,,2.5,
Wick,15/02/2019 06:00,8.2,21,7.5,,0,0,67,33,170,Dry,1014,0,29,,,,2.5,
Wick,15/02/2019 07:00,8.3,22,,,0,,61,32,170,Dry,1013,0,45,,,,1.4,
Wick,15/02/2019 08:00,8.2,18,,,0,,60,32,170,Dry,1014,0,45,,,,1.1,
Wick,15/02/2019 09:00,8.5,15,,,0,,60,,170,Dry,1013,0,20,,,,1.3,
Wick,15/02/2019 10:00,9.2,12,,,0,,57,,170,Dry,1013,0,17,,,,1.2,
Wick,15/02/2019 11:00,9.3,17,,,0,,51,,170,Dry,1012,0,28,,,,-0.2,
Wick,15/02/2019 12:00,9.6,18,,,0,0,48,31,170,Dry,1011,0,30,,,,-0.7,
Wick,15/02/2019 13:00,10.4,10,,,0,,49,30,200,Dry,1010,6,25,,,,0.2,
Wick,15/02/2019 14:00,11.1,18,,,0,,56,33,180,Dry,1009,8,30,,,,2.7,
Wick,15/02/2019 15:00,11.6,10,,,0,,59,,200,Dry,1008,7,35,,,,3.9,
Wick,15/02/2019 16:00,10.7,13,,,0,,63,,170,Dry,1009,5,25,,,,4.1,
Wick,15/02/2019 17:00,10.7,17,,,0,,65,,190,Dry,1009,7,26,,,,4.6,
Wick,15/02/2019 18:00,10.7,17,,11.8,0,0,66,,200,Dry,1009,8,29,,,,4.8,
Wick,15/02/2019 19:00,10.2,12,,,0,,71,,190,Dry,1009,7,20,,,,5.3,
Wick,15/02/2019 20:00,9.7,13,,,0,,75,,170,Dry,1008,8,28,,,,5.5,
Wick,15/02/2019 21:00,9,13,,,0,,78,,170,Dry,1008,1,17,,,,5.4,
Wick,15/02/2019 22:00,9.1,13,,,0,,79,,170,Dry,1007,7,16,,,,5.7,
Wick,15/02/2019 23:00,8.8,10,,,0.2,,85,,170,Light shower,1006,8,13,,,,6.5,
Wick,16/02/2019 00:00,8.1,14,,,2.6,3,94,,200,Moderate rain,1007,8,7,,,,7.2,
Wick,16/02/2019 01:00,8.2,12,,,1,,94,,200,Rain,1007,8,12,,,,7.4,
Wick,16/02/2019 02:00,7.9,6,,,0.4,,95,,230,Light shower,1006,8,11,,,,7.2,
Wick,16/02/2019 03:00,6.9,8,,,0.2,,91,,220,Rain,1007,2,50,,,,5.6,
Wick,16/02/2019 04:00,7.1,10,,,0,,87,,200,Dry,1007,1,50,,,,5.2,
Wick,16/02/2019 05:00,6.1,8,,,0,,91,,230,Dry,1007,5,50,,,,4.8,
Wick,16/02/2019 06:00,5.2,3,4.2,,0,1,93,,220,Dry,1008,2,45,,,,4.3,
Wick,16/02/2019 07:00,4.1,6,,,0,,95,,250,Dry,1008,7,35,,,,3.4,
Wick,16/02/2019 08:00,3.9,3,,,0,,92,,220,Dry,1009,2,30,,,,2.8,
Wick,16/02/2019 09:00,5.5,5,,,0,,94,,60,Dry,1009,4,27,,,,4.7,
Wick,16/02/2019 10:00,6.8,6,,,0,,90,,140,Dry,1010,3,12,,,,5.3,
Wick,16/02/2019 11:00,7.9,5,,,0,,92,,160,Dry,1010,8,26,,,,6.8,
Wick,16/02/2019 12:00,9.3,7,,,0,0,84,,170,Dry,1010,7,16,,,,6.9,
Wick,16/02/2019 13:00,8.7,5,,,0,,86,,130,Dry,1010,8,28,,,,6.5,
Wick,16/02/2019 14:00,9.1,6,,,0,,85,,170,Dry,1010,6,50,,,,6.8,
Wick,16/02/2019 15:00,9.1,10,,,0,,86,,210,Dry,1010,1,50,,,,7,
Wick,16/02/2019 16:00,8.5,7,,,0,,87,,190,Dry,1009,1,30,,,,6.6,
Wick,16/02/2019 17:00,7.7,10,,,0,,90,,180,Dry,1009,7,35,,,,6.3,
Wick,16/02/2019 18:00,7.9,10,,9.9,0,0,87,,190,Dry,1009,0,45,,,,6,
Wick,16/02/2019 19:00,7.8,8,,,0,,83,,180,Dry,1009,8,40,,,,5.1,
Wick,16/02/2019 20:00,8,8,,,0,,81,,150,Dry,1009,8,35,,,,5.1,
Wick,16/02/2019 21:00,8.2,13,,,0,,78,,180,Dry,1008,8,40,,,,4.7,
Wick,16/02/2019 22:00,7.9,14,,,0,,79,,200,Light shower,1008,8,30,,,,4.5,
Wick,16/02/2019 23:00,7.8,5,,,0,,81,,180,Rain,1008,8,30,,,,4.9,
Wick,17/02/2019 00:00,7.7,10,,,0,0,85,,130,Dry,1006,1,35,,,,5.5,
Wick,17/02/2019 01:00,7.5,12,,,0,,88,,130,Dry,1006,8,22,,,,5.8,
Wick,17/02/2019 02:00,7.7,12,,,0,,87,,130,Dry,1005,8,24,,,,5.7,
Wick,17/02/2019 03:00,7.7,10,,,0,,87,,140,Dry,1004,8,13,,,,5.7,
Wick,17/02/2019 04:00,7.9,15,,,0,,88,,150,Dry,1003,7,14,,,,6.1,
Wick,17/02/2019 05:00,8.1,14,,,0,,89,30,160,Dry,1003,0,13,,,,6.5,
Wick,17/02/2019 06:00,8.2,15,7.4,,0,0,90,,150,Dry,1002,8,12,,,,6.8,
Wick,17/02/2019 07:00,9,15,,,0,,85,,150,Dry,1002,7,15,,,,6.7,
Wick,17/02/2019 08:00,9.5,16,,,0,,82,,160,Dry,1002,0,16,,,,6.7,
Wick,17/02/2019 09:00,9.5,16,,,0,,80,,160,Dry,1001,7,12,,,,6.3,
Wick,17/02/2019 10:00,9.1,22,,,0,,83,39,150,Dry,1000,8,12,,,,6.4,
Wick,17/02/2019 11:00,8.8,22,,,0,,86,38,150,Haze,1000,0,10,,,,6.6,
Wick,17/02/2019 12:00,8.7,18,,,0,0,85,39,150,Haze,999,6,10,,,,6.4,
Wick,17/02/2019 13:00,9,21,,,0,,82,36,150,Haze,998,8,10,,,,6.2,
Wick,17/02/2019 14:00,8.9,20,,,0,,83,35,150,Haze,998,7,9,,,,6.3,
Wick,17/02/2019 15:00,8.7,20,,,0,,84,32,150,Haze,998,7,10,,,,6.2,
Wick,17/02/2019 16:00,9.3,21,,,0,,80,30,160,Dry,998,8,11,,,,6.1,
Wick,17/02/2019 17:00,7.7,12,,,0,,82,,210,Rain,998,7,35,,,,4.9,
Wick,17/02/2019 18:00,6.4,15,,9.7,0,0,81,,200,Dry,999,0,45,,,,3.5,
Wick,17/02/2019 19:00,6.2,10,,,0,,82,,170,Dry,1000,0,30,,,,3.5,
Wick,17/02/2019 20:00,6.5,6,,,0,,81,,140,Dry,1000,0,15,,,,3.6,
Wick,17/02/2019 21:00,6.6,8,,,0,,82,,170,Dry,1000,0,26,,,,3.8,
Wick,17/02/2019 22:00,6.5,1,,,0,,79,,170,Dry,999,2,25,,,,3.2,
Wick,17/02/2019 23:00,7.9,14,,,0,,75,,160,Dry,999,1,18,,,,3.8,
Wick,18/02/2019 03:00,7.7,18,,,,,76,33,170,Dry,996,1,27,,,,3.9,
Wick,18/02/2019 04:00,7.4,16,,,,,77,32,180,Dry,996,1,25,,,,3.7,
Wick,18/02/2019 05:00,7.1,10,,,,,78,,170,Dry,997,4,30,,,,3.7,
Wick,18/02/2019 06:00,7,15,6,,,0,79,,170,Dry,996,2,22,,,,3.7,
Wick,18/02/2019 07:00,6.9,18,,,0,,77,29,170,Dry,996,1,26,,,,3.2,
Wick,18/02/2019 08:00,6.8,20,,,0,,78,29,170,Dry,996,0,24,,,,3.4,
Wick,18/02/2019 09:00,7.3,17,,,0,,71,31,170,Dry,996,0,24,,,,2.5,
Wick,18/02/2019 10:00,7.5,20,,,0,,70,31,170,Dry,995,1,20,,,,2.4,
Wick,18/02/2019 11:00,7.9,22,,,0,,69,35,170,Dry,995,5,22,,,,2.7,
Wick,18/02/2019 12:00,8.8,23,,,0,0,67,33,180,Dry,994,3,30,,,,3.1,
Wick,18/02/2019 13:00,9,23,,,0,,68,39,190,Dry,994,7,35,,,,3.5,
Wick,18/02/2019 14:00,8.4,23,,,0,,74,33,200,Dry,994,4,40,,,,4.1,
Wick,18/02/2019 15:00,8.6,16,,,0.2,,74,30,200,Rain,994,8,30,,,,4.4,
Wick,18/02/2019 16:00,7.8,16,,,0,,79,,210,Rain,994,8,45,,,,4.5,
Wick,18/02/2019 17:00,7.1,14,,,0,,78,,220,Dry,995,1,45,,,,3.7,
Wick,18/02/2019 18:00,6.1,16,,9.1,0,0.2,83,,230,Dry,995,6,50,,,,3.6,
Wick,18/02/2019 19:00,5.6,15,,,0,,86,,240,Dry,996,7,45,,,,3.5,
Wick,18/02/2019 20:00,6,14,,,0,,88,,250,Light shower,997,8,17,,,,4.2,
Wick,18/02/2019 21:00,6,15,,,0,,89,,250,Rain,998,7,45,,,,4.4,
Wick,18/02/2019 22:00,5.5,15,,,0.8,,95,29,260,Moderate shower,999,1,5,,,,4.9,
Wick,18/02/2019 23:00,5.7,15,,,0.2,,89,,280,Rain,1000,8,30,,,,4.1,
Wick,19/02/2019 00:00,4.8,14,,,0,1,89,,260,Light shower,1000,6,11,,,,3.3,
Wick,19/02/2019 01:00,4.4,14,,,0,,90,,250,Rain,1001,5,27,,,,3,
Wick,19/02/2019 02:00,3.9,17,,,0,,91,,260,Rain,1002,4,19,,,,2.7,
Wick,19/02/2019 03:00,3.8,16,,,0,,92,,260,Rain,1002,6,30,,,,2.7,
Wick,19/02/2019 04:00,4,16,,,0,,92,,260,Dry,1003,3,26,,,,2.9,
Wick,19/02/2019 05:00,4,14,,,0.2,,91,,260,Dry,1004,7,3,,,,2.8,
Wick,19/02/2019 06:00,4.2,14,3.2,,0,0,92,,270,Light shower,1004,7,22,,,,3.1,
Wick,19/02/2019 07:00,2.5,9,,,0,,94,,260,Rain,1005,5,19,,,,1.7,
Wick,19/02/2019 08:00,2.6,9,,,0,,94,,260,Precipitation,1006,5,21,,,,1.8,
Wick,19/02/2019 09:00,3.9,6,,,0.2,,93,,230,Rain,1007,6,30,,,,3,
Wick,19/02/2019 10:00,4.7,9,,,0,,93,,250,Rain,1008,1,30,,,,3.8,
Wick,19/02/2019 11:00,6,10,,,0,,88,,270,Rain,1008,3,30,,,,4.3,
Wick,19/02/2019 12:00,6.3,8,,,0,0.2,79,,290,Dry,1008,7,30,,,,3.1,
Wick,19/02/2019 13:00,7.3,6,,,0,,73,,260,Dry,1008,7,14,,,,2.8,
Wick,19/02/2019 14:00,7,6,,,0,,67,,280,Dry,1009,7,21,,,,1.5,
Wick,19/02/2019 15:00,6.7,5,,,0,,68,,10,Dry,1008,8,19,,,,1.3,
Wick,19/02/2019 16:00,6.4,6,,,0,,71,,90,Dry,1008,8,27,,,,1.6,
Wick,19/02/2019 17:00,6.1,7,,,0,,81,,120,Dry,1008,8,35,,,,3.1,
Wick,19/02/2019 18:00,5.7,8,,7.6,0,0,81,,120,Dry,1008,8,30,,,,2.8,
Wick,19/02/2019 19:00,6,10,,,0,,85,,120,Dry,1008,8,45,,,,3.7,
Wick,19/02/2019 20:00,6.4,10,,,0,,84,,120,Dry,1008,8,30,,,,4,
Wick,19/02/2019 21:00,6.5,13,,,0,,85,,120,Dry,1007,8,30,,,,4.2,
Wick,19/02/2019 22:00,6.6,14,,,0,,85,,120,Dry,1006,7,27,,,,4.4,
Wick,19/02/2019 23:00,6.6,16,,,0,,90,,120,Dry,1006,7,15,,,,5.2,
Wick,20/02/2019 00:00,6.6,13,,,0,0,90,,130,Light shower,1005,3,14,,,,5.2,
Wick,20/02/2019 01:00,6.4,13,,,0.2,,87,,150,Light rain,1004,8,15,,,,4.4,
Wick,20/02/2019 02:00,6.3,16,,,0.2,,92,,150,Light rain,1003,8,15,,,,5.1,
Wick,20/02/2019 03:00,6.4,16,,,0.4,,94,,150,Drizzly rain,1002,7,8,,,,5.6,
Wick,20/02/2019 04:00,6.5,16,,,2,,96,,150,Moderate rain,1001,8,6,,,,6,
Wick,20/02/2019 05:00,6.7,14,,,2,,97,,150,Light rain,1001,7,8,,,,6.4,
Wick,20/02/2019 06:00,7.3,16,5.7,,0.2,5,93,,160,Light shower,1001,8,19,,,,6.3,
Wick,20/02/2019 07:00,7.8,15,,,0,,89,,160,Rain,1001,8,35,,,,6.2,
Wick,20/02/2019 08:00,8.5,17,,,0,,85,,180,Dry,1001,8,50,,,,6.2,
Wick,20/02/2019 09:00,9.1,18,,,0,,87,,180,Dry,1001,1,40,,,,7.2,
Wick,20/02/2019 10:00,8.6,12,,,0,,87,,170,Dry,1001,8,26,,,,6.7,
Wick,20/02/2019 11:00,8.9,12,,,0,,87,,160,Dry,1001,8,30,,,,7,
Wick,20/02/2019 12:00,9.3,18,,,0,0,87,,180,Dry,1001,8,45,,,,7.3,
Wick,20/02/2019 13:00,9.6,20,,,0,,86,,180,Dry,1001,8,30,,,,7.5,
Wick,20/02/2019 14:00,9.7,17,,,0,,86,30,180,Dry,1001,8,35,,,,7.5,
Wick,20/02/2019 15:00,11,15,,,0,,82,,180,Dry,1002,5,40,,,,8.2,
Wick,20/02/2019 16:00,10.8,17,,,0,,83,,190,Dry,1001,8,45,,,,8.1,
Wick,20/02/2019 17:00,10.9,15,,,0,,83,,220,Dry,1002,3,40,,,,8.2,
Wick,20/02/2019 18:00,11,18,,11.6,0,0,82,29,240,Dry,1003,1,50,,,,8.2,
Wick,20/02/2019 19:00,9.5,14,,,0,,83,,240,Dry,1005,1,50,,,,6.8,
Wick,20/02/2019 20:00,7.8,7,,,0,,90,,210,Dry,1006,1,45,,,,6.3,
Wick,20/02/2019 21:00,7.7,6,,,0,,86,,200,Dry,1006,6,50,,,,5.6,
Wick,20/02/2019 22:00,7.6,5,,,0,,87,,180,Dry,1007,7,50,,,,5.7,
Wick,20/02/2019 23:00,8,9,,,0,,82,,210,Dry,1008,6,50,,,,5.2,
Wick,21/02/2019 00:00,8,7,,,0,0,80,,210,Dry,1008,6,50,,,,4.8,
Wick,21/02/2019 01:00,6.7,6,,,0,,85,,170,Dry,1009,6,50,,,,4.4,
Wick,21/02/2019 02:00,6.6,7,,,0,,88,,170,Dry,1009,0,50,,,,4.9,
Wick,21/02/2019 03:00,6.9,6,,,0,,87,,180,Dry,1010,0,45,,,,5,
Wick,21/02/2019 04:00,6.4,7,,,0,,94,,160,Dry,1010,0,45,,,,5.6,
Wick,21/02/2019 05:00,6.2,6,,,0,,92,,180,Dry,1011,0,40,,,,5,
Wick,21/02/2019 06:00,6.8,9,6.1,,0,0,93,,150,Dry,1010,0,27,,,,5.9,
Wick,21/02/2019 07:00,7.5,10,,,0,,94,,160,Dry,1011,3,35,,,,6.6,
Wick,21/02/2019 08:00,8,7,,,0,,89,,170,Dry,1012,5,45,,,,6.4,
Wick,21/02/2019 09:00,8.6,7,,,0,,88,,180,Dry,1013,7,40,,,,6.8,
Wick,21/02/2019 10:00,8.6,9,,,0,,89,,160,Dry,1014,8,35,,,,6.9,
Wick,21/02/2019 11:00,9.9,5,,,0,,86,,170,Dry,1014,7,50,,,,7.8,
Wick,21/02/2019 12:00,9.1,7,,,0,0,90,,120,Dry,1015,8,20,,,,7.7,
Wick,21/02/2019 13:00,11.4,12,,,0,,84,,180,Dry,1016,0,30,,,,8.8,
Wick,21/02/2019 14:00,12.2,8,,,0,,81,,170,Dry,1016,3,25,,,,9.2,
Wick,21/02/2019 15:00,13.2,12,,,0,,79,,180,Dry,1017,6,35,,,,9.8,
Wick,21/02/2019 16:00,11.5,9,,,0,,85,,150,Dry,1017,3,40,,,,9.1,
Wick,21/02/2019 17:00,10.2,9,,,0,,87,,150,Dry,1017,0,35,,,,8.3,
Wick,21/02/2019 18:00,11,13,,14.5,0,0,87,,160,Dry,1018,1,40,,,,9,
Wick,21/02/2019 19:00,9.5,6,,,0,,89,,120,Dry,1019,1,40,,,,7.9,
Wick,21/02/2019 20:00,10.7,7,,,0,,89,,170,Dry,1019,0,40,,,,9,
Wick,21/02/2019 21:00,10.4,7,,,0,,88,,180,Dry,1019,1,45,,,,8.6,
Wick,21/02/2019 22:00,10.8,14,,,0,,80,,180,Dry,1019,0,30,,,,7.6,
Wick,21/02/2019 23:00,11.1,13,,,0,,76,,180,Dry,1019,0,50,,,,7.1,
Wick,22/02/2019 00:00,9.9,9,,,0,0,79,,180,Dry,1020,0,35,,,,6.6,
Wick,22/02/2019 01:00,9.4,14,,,0,,78,,160,Dry,1020,0,40,,,,5.8,
Wick,22/02/2019 02:00,9.4,16,,,0,,77,,170,Dry,1020,0,35,,,,5.7,
Wick,22/02/2019 03:00,9.3,22,,,0,,74,31,180,Dry,1020,0,30,,,,5.1,
Wick,22/02/2019 04:00,10,25,,,0,,66,36,190,Dry,1021,0,27,,,,4.1,
Wick,22/02/2019 05:00,9.6,25,,,0,,67,36,190,Dry,1021,0,28,,,,3.9,
Wick,22/02/2019 06:00,9,22,8.5,,0,0,72,33,180,Dry,1022,3,29,,,,4.4,
Wick,22/02/2019 07:00,9.5,17,,,0,,79,,170,Dry,1022,8,27,,,,6.1,
Wick,22/02/2019 08:00,10.4,15,,,0,,72,,180,Dry,1023,8,23,,,,5.6,
Wick,22/02/2019 09:00,9.6,14,,,0,,79,,170,Dry,1023,0,14,,,,6.2,
Wick,22/02/2019 10:00,10.1,14,,,0,,78,,170,Dry,1024,0,17,,,,6.6,
Wick,22/02/2019 11:00,10.8,15,,,0,,76,29,170,Dry,1024,7,19,,,,6.8,
Wick,22/02/2019 12:00,11.6,15,,,0,0,73,31,180,Dry,1025,2,26,,,,7,
Wick,22/02/2019 13:00,11.8,12,,,0,,74,,180,Dry,1026,0,27,,,,7.5,
Wick,22/02/2019 14:00,10.6,16,,,0,,79,,160,Dry,1025,7,15,,,,7.2,
Wick,22/02/2019 15:00,10.7,10,,,0,,79,,150,Dry,1026,8,19,,,,7.3,
Wick,22/02/2019 16:00,10.6,13,,,0,,79,,160,Dry,1026,8,13,,,,7.2,
Wick,22/02/2019 17:00,11.1,13,,,0,,77,,170,Dry,1026,8,15,,,,7.4,
Wick,22/02/2019 18:00,10.6,10,,11.9,0,0,77,,150,Dry,1026,8,18,,,,6.9,
Wick,22/02/2019 19:00,10.6,10,,,0,,74,,160,Dry,1026,8,14,,,,6.3,
Wick,22/02/2019 20:00,10.2,16,,,0,,76,,150,Dry,1026,8,13,,,,6.3,
Wick,22/02/2019 21:00,11,16,,,0,,69,31,150,Dry,1026,0,13,,,,5.6,
Wick,22/02/2019 22:00,11.6,16,,,0,,62,30,160,Dry,1026,8,20,,,,4.7,
Wick,22/02/2019 23:00,9.3,13,,,0,,81,,140,Dry,1025,8,10,,,,6.3,
Wick,23/02/2019 00:00,9.3,16,,,0,0,83,,140,Haze,1024,0,10,,,,6.7,
Wick,23/02/2019 01:00,9.3,14,,,0,,83,,140,Haze,1024,8,10,,,,6.6,
Wick,23/02/2019 02:00,10.4,17,,,0,,72,,160,Dry,1024,8,14,,,,5.7,
Wick,23/02/2019 03:00,11,16,,,0,,63,,170,Dry,1023,8,21,,,,4.3,
Wick,23/02/2019 04:00,10,17,,,0,,70,,150,Dry,1022,8,15,,,,4.9,
Wick,23/02/2019 05:00,9.7,14,,,0,,72,,150,Dry,1022,8,15,,,,5.1,
Wick,23/02/2019 06:00,9,18,9,,0,0,79,29,150,Dry,1022,8,11,,,,5.6,
Wick,23/02/2019 07:00,9.3,16,,,0,,75,,150,Dry,1022,8,11,,,,5.2,
Wick,23/02/2019 08:00,8.8,15,,,0,,78,30,140,Dry,1022,8,11,,,,5.3,
Wick,23/02/2019 09:00,9.6,12,,,0,,72,,160,Dry,1022,8,14,,,,5,
Wick,23/02/2019 10:00,10,16,,,0,,69,,160,Dry,1021,0,18,,,,4.6,
Wick,23/02/2019 11:00,9.1,17,,,0,,78,30,130,Dry,1021,8,14,,,,5.6,
Wick,23/02/2019 12:00,10.4,15,,,0,0,68,,160,Dry,1021,0,17,,,,4.8,
Wick,23/02/2019 13:00,10.5,20,,,0,,68,30,160,Dry,1020,8,15,,,,5,
Wick,23/02/2019 14:00,12.2,16,,,0,,58,,170,Dry,1021,8,16,,,,4.3,
Wick,23/02/2019 15:00,12.1,17,,,0,,63,,180,Dry,1021,8,20,,,,5.3,
Wick,23/02/2019 16:00,12.1,20,,,0,,71,30,210,Rain,1022,8,27,,,,7.1,
Wick,23/02/2019 17:00,11.7,21,,,0,,73,33,190,Dry,1022,8,30,,,,7.1,
Wick,23/02/2019 18:00,11.2,17,,12.7,0,0,76,,200,Dry,1023,8,45,,,,7.2,
Wick,23/02/2019 19:00,9.9,14,,,0,,83,,190,Dry,1024,8,35,,,,7.2,
Wick,23/02/2019 20:00,10.2,18,,,0,,81,,200,Dry,1024,0,24,,,,7.1,
Wick,23/02/2019 21:00,9.6,10,,,0,,82,,210,Dry,1025,5,30,,,,6.7,
Wick,23/02/2019 22:00,9.8,16,,,0,,81,,230,Dry,1027,7,29,,,,6.7,
Wick,23/02/2019 23:00,7.5,14,,,0,,85,,260,Dry,1028,0,45,,,,5.2,
Wick,24/02/2019 00:00,6,3,,,0,0,88,,140,Dry,1029,0,40,,,,4.2,
Wick,24/02/2019 01:00,5.8,7,,,0,,86,,210,Dry,1030,0,30,,,,3.7,
Wick,24/02/2019 02:00,5.1,10,,,0,,86,,220,Dry,1031,0,26,,,,3,
Wick,24/02/2019 03:00,5.6,10,,,0,,85,,240,Dry,1032,0,23,,,,3.3,
Wick,24/02/2019 04:00,4.5,8,,,0,,88,,230,Dry,1033,0,23,,,,2.8,
Wick,24/02/2019 05:00,3.9,6,,,0,,87,,230,Dry,1033,0,19,,,,2,
Wick,24/02/2019 06:00,4.2,5,2.7,,0,0,86,,180,Dry,1033,0,27,,,,2.1,
Wick,24/02/2019 07:00,5.2,5,,,0,,82,,210,Dry,1034,0,28,,,,2.5,
Wick,24/02/2019 08:00,5.5,3,,,0,,82,,190,Dry,1034,0,30,,,,2.7,
Wick,24/02/2019 09:00,7.1,8,,,0,,84,,170,Dry,1034,0,28,,,,4.6,
Wick,24/02/2019 10:00,7.4,8,,,0,,85,,170,Dry,1034,2,30,,,,5.1,
Wick,24/02/2019 11:00,7,12,,,0,,91,,160,Dry,1035,1,27,,,,5.7,
Wick,24/02/2019 12:00,8.2,12,,,0,0,82,,140,Dry,1034,0,23,,,,5.4,
Wick,24/02/2019 13:00,8.6,15,,,0,,82,,150,Dry,1033,7,30,,,,5.8,
Wick,24/02/2019 14:00,8.4,12,,,0,,83,,140,Dry,1032,8,20,,,,5.7,
Wick,24/02/2019 15:00,8.4,15,,,0,,87,,140,Dry,1031,8,12,,,,6.4,
Wick,24/02/2019 16:00,8.8,13,,,0,,86,,150,Dry,1030,8,13,,,,6.7,
Wick,24/02/2019 17:00,9.5,14,,,0,,77,,160,Dry,1030,8,20,,,,5.8,
Wick,24/02/2019 18:00,9.1,12,,9.6,0,0,78,,150,Dry,1030,8,15,,,,5.6,
Wick,24/02/2019 19:00,8.9,14,,,0,,79,,140,Dry,1030,8,15,,,,5.5,
Wick,24/02/2019 20:00,8.9,8,,,0,,78,,150,Dry,1030,8,14,,,,5.4,
Wick,24/02/2019 21:00,8.9,9,,,0,,78,,160,Dry,1030,8,21,,,,5.3,
Wick,24/02/2019 22:00,8.5,10,,,0,,84,,150,Dry,1029,8,18,,,,6,
Wick,24/02/2019 23:00,9.1,8,,,0,,81,,230,Light shower,1030,8,24,,,,6.1,
Wick,25/02/2019 00:00,10.3,2,,,0,0,74,,180,Light shower,1030,8,35,,,,5.9,
Wick,25/02/2019 01:00,10.8,12,,,0,,73,,170,Rain,1030,8,45,,,,6.2,
Wick,25/02/2019 02:00,10.9,14,,,0,,75,,180,Light shower,1031,8,40,,,,6.7,
Wick,25/02/2019 03:00,10,9,,,0,,79,,170,Rain,1030,8,30,,,,6.6,
Wick,25/02/2019 04:00,9.9,10,,,0.2,,82,,180,Rain,1031,8,35,,,,7,
Wick,25/02/2019 05:00,10,10,,,0,,82,,180,Dry,1031,8,40,,,,7.1,
Wick,25/02/2019 06:00,9.7,8,8.4,,0,0.2,83,,190,Dry,1031,8,30,,,,7.1,
Wick,25/02/2019 07:00,10,6,,,0,,84,,170,Dry,1031,8,30,,,,7.5,
Wick,25/02/2019 08:00,10.2,3,,,0,,86,,220,Dry,1032,3,30,,,,8,
Wick,25/02/2019 09:00,9.7,5,,,0,,87,,150,Dry,1032,7,21,,,,7.7,
Wick,25/02/2019 10:00,9,2,,,0.2,,91,,30,Moderate shower,1032,8,9,,,,7.7,
Wick,25/02/2019 11:00,9.4,3,,,0,,92,,140,Rain,1032,7,12,,,,8.2,
Wick,25/02/2019 12:00,9.5,8,,,0,0.2,87,,150,Light shower,1032,8,10,,,,7.6,
Wick,25/02/2019 13:00,9.9,3,,,0.4,,89,,130,Light rain,1033,8,10,,,,8.2,
Wick,25/02/2019 14:00,9.4,3,,,0.4,,89,,110,Light rain,1032,8,12,,,,7.8,
Wick,25/02/2019 15:00,9.2,6,,,0.2,,92,,110,Rain,1031,8,12,,,,8.1,
Wick,25/02/2019 16:00,9.2,13,,,0,,91,,120,Rain,1031,3,28,,,,7.9,
Wick,25/02/2019 17:00,8.8,12,,,0,,93,,120,Dry,1030,8,20,,,,7.8,
Wick,25/02/2019 18:00,8.9,9,,11,0,0.8,90,,140,Dry,1030,8,17,,,,7.5,
Wick,25/02/2019 19:00,8.9,9,,,0,,89,,140,Dry,1030,8,18,,,,7.3,
Wick,25/02/2019 20:00,9.3,6,,,0,,84,,170,Dry,1029,8,17,,,,6.9,
Wick,25/02/2019 21:00,8.8,7,,,0,,88,,150,Dry,1028,0,13,,,,7,
Wick,25/02/2019 22:00,10.1,15,,,0,,85,,160,Dry,1027,2,16,,,,7.7,
Wick,25/02/2019 23:00,10.8,15,,,0,,78,,180,Dry,1027,0,26,,,,7.2,
Wick,26/02/2019 00:00,11.2,13,,,0,0,68,,180,Dry,1027,0,30,,,,5.7,
Wick,26/02/2019 01:00,11.6,15,,,0,,62,,180,Dry,1027,0,50,,,,4.7,
Wick,26/02/2019 02:00,11.2,14,,,0,,64,,170,Dry,1026,7,35,,,,4.7,
Wick,26/02/2019 03:00,10.5,15,,,0,,66,,180,Dry,1026,7,35,,,,4.6,
Wick,26/02/2019 04:00,9.1,9,,,0,,75,,180,Dry,1026,7,30,,,,5,
Wick,26/02/2019 05:00,9.2,12,,,0,,73,,190,Dry,1027,5,35,,,,4.8,
Wick,26/02/2019 06:00,8.2,6,8.2,,0,0,73,,250,Dry,1027,8,40,,,,3.7,
Wick,26/02/2019 07:00,8.1,6,,,0,,76,,240,Dry,1028,1,40,,,,4.2,
Wick,26/02/2019 08:00,9.7,9,,,0,,82,,260,Dry,1028,7,23,,,,6.9,
Wick,26/02/2019 09:00,11.1,6,,,0,,82,,220,Dry,1029,6,12,,,,8.2,
Wick,26/02/2019 10:00,12.8,6,,,0,,77,,260,Dry,1029,1,17,,,,8.9,
Wick,26/02/2019 11:00,14.2,3,,,0,,71,,250,Dry,1029,3,10,,,,9.2,
Wick,26/02/2019 12:00,13.9,8,,,0,0,68,,270,Dry,1030,3,12,,,,8.2,
Wick,26/02/2019 13:00,13.8,8,,,0,,66,,250,Dry,1029,2,15,,,,7.7,
Wick,26/02/2019 14:00,14.2,5,,,0,,64,,280,Haze,1029,2,9,,,,7.6,
Wick,26/02/2019 15:00,11.7,7,,,0,,75,,90,Dry,1029,6,14,,,,7.6,
Wick,26/02/2019 16:00,9.7,6,,,0,,83,,60,Dry,1029,3,16,,,,7,
Wick,26/02/2019 17:00,8.2,8,,,0,,90,,70,Dry,1028,0,12,,,,6.8,
Wick,26/02/2019 18:00,6.3,8,,14.4,0,0,93,,50,Misty,1028,0,9,,,,5.4,
Wick,26/02/2019 19:00,7.7,6,,,0,,97,,70,Misty,1028,1,9,,,,7.3,
Wick,26/02/2019 20:00,7.4,6,,,0,,96,,110,Dry,1028,0,11,,,,6.9,
Wick,26/02/2019 21:00,5.9,1,,,0,,95,,280,Thickening fog,1027,7,0,,,,5.3,
Wick,26/02/2019 22:00,6.8,3,,,0,,97,,110,Fog,1026,2,3,,,,6.5,
Wick,26/02/2019 23:00,6.3,5,,,0,,100,,120,Fog,1025,0,6,,,,6.3,
Wick,27/02/2019 00:00,5,2,,,0,0,97,,170,Fog,1025,0,3,,,,4.7,
Wick,27/02/2019 01:00,3.1,5,,,0,,97,,230,Thickening fog,1024,4,0,,,,2.8,
Wick,27/02/2019 02:00,2.1,5,,,0,,98,,310,Fog,1024,7,0,,,,1.9,
Wick,27/02/2019 03:00,2.9,3,,,0,,99,,260,Light shower,1023,9,0,,,,2.8,
Wick,27/02/2019 04:00,4.4,10,,,0,,100,,280,Rain,1022,8,6,,,,4.4,
Wick,27/02/2019 05:00,3.3,7,,,0,,100,,270,Thickening fog,1022,8,0,,,,3.3,
Wick,27/02/2019 06:00,3.5,7,1.5,,0,0,100,,250,Fog,1022,7,8,,,,3.5,
Wick,27/02/2019 07:00,3.8,6,,,0,,100,,230,Misty,1022,1,8,,,,3.8,
Wick,27/02/2019 08:00,4.6,5,,,0,,100,,230,Dry,1021,8,10,,,,4.6,
Wick,27/02/2019 09:00,7.4,3,,,0.2,,100,,200,Dry,1020,1,18,,,,7.4,
Wick,27/02/2019 10:00,9.4,3,,,0,,98,,220,Dry,1020,8,30,,,,9.2,
Wick,27/02/2019 11:00,10.1,3,,,0,,93,,210,Dry,1020,0,17,,,,9.1,
Wick,27/02/2019 12:00,11.8,2,,,0,0.2,85,,250,Dry,1020,0,25,,,,9.5,
Wick,27/02/2019 13:00,13.4,3,,,0,,75,,280,Dry,1019,0,16,,,,9.2,
Wick,27/02/2019 14:00,9.8,6,,,0,,87,,60,Haze,1019,1,9,,,,7.8,
Wick,27/02/2019 15:00,9.7,7,,,0,,87,,20,Dry,1019,4,16,,,,7.7,
Wick,27/02/2019 16:00,9.7,15,,,0,,82,,300,Haze,1019,2,9,,,,6.9,
Wick,27/02/2019 17:00,8.6,14,,,0,,84,,300,Haze,1019,1,9,,,,6.2,
Wick,27/02/2019 18:00,7.5,12,,13.7,0,0,91,,300,Haze,1019,4,7,,,,6.2,
Wick,27/02/2019 19:00,7.7,6,,,0,,93,,280,Haze,1019,7,7,,,,6.7,
Wick,27/02/2019 20:00,7.2,5,,,0,,93,,270,Haze,1019,6,5,,,,6.2,
Wick,27/02/2019 21:00,6.2,6,,,0,,95,,260,Misty,1019,3,2,,,,5.6,
Wick,27/02/2019 22:00,7,6,,,0,,97,,300,Misty,1019,8,4,,,,6.6,
Wick,27/02/2019 23:00,7,6,,,0,,98,,310,Misty,1019,7,5,,,,6.8,
Wick,28/02/2019 00:00,7.5,6,,,0,0,98,,350,Misty,1018,5,2,,,,7.3,
Wick,28/02/2019 01:00,7.4,8,,,0,,99,,30,Misty,1018,4,2,,,,7.3,
Wick,28/02/2019 02:00,7.1,6,,,0,,99,,70,Misty,1018,8,5,,,,7,
Wick,28/02/2019 03:00,7,8,,,0,,98,,60,Dry,1017,8,14,,,,6.8,
Wick,28/02/2019 04:00,7.1,9,,,0,,97,,70,Misty,1017,8,8,,,,6.7,
Wick,28/02/2019 05:00,7,13,,,0,,95,,70,Dry,1016,7,15,,,,6.3,
Wick,28/02/2019 06:00,7,12,5.1,,0,0,95,,70,Dry,1016,8,14,,,,6.3,
Wick,28/02/2019 07:00,6.9,12,,,0,,93,,70,Dry,1016,4,15,,,,5.9,
Wick,28/02/2019 08:00,7,12,,,0,,92,,80,Dry,1016,1,15,,,,5.8,
Wick,28/02/2019 09:00,7,15,,,0,,87,,90,Dry,1016,8,13,,,,5.1,
Wick,28/02/2019 10:00,7,14,,,0,,87,,90,Dry,1016,7,12,,,,5,
Wick,28/02/2019 11:00,7.1,10,,,0,,86,,100,Dry,1016,8,12,,,,5,
Wick,28/02/2019 12:00,7.2,12,,,0,0,85,,90,Dry,1016,8,13,,,,4.9,
Wick,28/02/2019 13:00,7.1,10,,,0,,81,,100,Dry,1016,7,14,,,,4.1,
Wick,28/02/2019 14:00,7.2,12,,,0,,80,,100,Dry,1016,8,16,,,,4.1,
Wick,28/02/2019 15:00,6.9,10,,,0,,88,,110,Dry,1015,8,15,,,,5.1,
Wick,28/02/2019 16:00,6.8,12,,,0,,84,,100,Dry,1015,8,15,,,,4.3,
Wick,28/02/2019 17:00,6.8,7,,,0,,83,,110,Dry,1015,8,24,,,,4.2,
Wick,28/02/2019 18:00,6.6,7,,7.3,0,0,80,,80,Dry,1016,8,22,,,,3.5,
Wick,28/02/2019 19:00,6.6,7,,,0,,82,,90,Dry,1016,7,21,,,,3.8,
Wick,28/02/2019 20:00,6.5,8,,,0,,79,,100,Dry,1016,8,21,,,,3.3,
Wick,28/02/2019 21:00,5.7,6,,,0,,86,,110,Dry,1016,7,24,,,,3.6,
Wick,28/02/2019 22:00,5.6,6,,,0,,86,,100,Dry,1017,7,27,,,,3.6,
Wick,28/02/2019 23:00,5.4,5,,,0,,90,,110,Dry,1017,8,20,,,,3.9,
Wick,01/03/2019 00:00,4.8,6,,,0,0,90,,110,Dry,1016,1,25,,,,3.4,
Wick,01/03/2019 01:00,5.1,8,,,0,,93,,90,Dry,1016,3,30,,,,4.1,
Wick,01/03/2019 02:00,4.8,7,,,0,,94,,110,Dry,1016,5,40,,,,4,
Wick,01/03/2019 03:00,5.5,7,,,0,,93,,110,Dry,1016,7,35,,,,4.6,
Wick,01/03/2019 04:00,5.7,6,,,0,,90,,110,Dry,1016,7,40,,,,4.3,
Wick,01/03/2019 05:00,4.6,2,,,0,,91,,220,Light drizzle,1016,7,7,,,,3.3,
Wick,01/03/2019 06:00,5.6,3,4.5,,0,0,94,,100,Drizzle,1016,8,25,,,,4.8,
Wick,01/03/2019 07:00,5.9,7,,,0,,91,,130,Dry,1016,7,16,,,,4.7,
Wick,01/03/2019 08:00,5.9,9,,,0,,89,,130,Dry,1015,7,27,,,,4.3,
Wick,01/03/2019 09:00,6.3,14,,,0.2,,87,,130,Dry,1015,7,28,,,,4.4,
Wick,01/03/2019 10:00,6.6,14,,,0,,85,,160,Dry,1015,8,22,,,,4.4,
Wick,01/03/2019 11:00,6.6,13,,,0,,87,,160,Dry,1015,8,25,,,,4.7,
Wick,01/03/2019 12:00,6.9,13,,,0,0.2,90,,150,Dry,1014,7,21,,,,5.5,
Wick,01/03/2019 13:00,6.7,10,,,0,,90,,160,Dry,1014,8,11,,,,5.3,
Wick,01/03/2019 14:00,6.8,10,,,0,,90,,160,Dry,1013,8,13,,,,5.4,
Wick,01/03/2019 15:00,7,12,,,0,,89,,150,Dry,1012,8,12,,,,5.4,
Wick,01/03/2019 16:00,7,9,,,0,,90,,150,Dry,1012,8,11,,,,5.5,
Wick,01/03/2019 17:00,7.1,12,,,0,,91,,140,Dry,1011,7,11,,,,5.8,
Wick,01/03/2019 18:00,7.3,8,,7.4,0,0,91,,140,Dry,1011,8,11,,,,6,
Wick,01/03/2019 19:00,7.4,9,,,0,,90,,160,Haze,1010,8,9,,,,6,
Wick,01/03/2019 20:00,6.9,6,,,0,,93,,150,Haze,1010,6,7,,,,5.9,
Wick,01/03/2019 21:00,6.9,8,,,0,,93,,150,Haze,1008,0,7,,,,5.9,
Wick,01/03/2019 22:00,6.9,7,,,0,,93,,160,Haze,1008,0,8,,,,5.9,
Wick,01/03/2019 23:00,6.7,7,,,0,,92,,170,Dry,1007,0,11,,,,5.5,
Wick,02/03/2019 00:00,6.3,3,,,0,0,90,,170,Dry,1006,1,17,,,,4.8,
Wick,02/03/2019 01:00,6.2,5,,,0,,90,,230,Dry,1005,7,17,,,,4.8,
Wick,02/03/2019 02:00,6.6,7,,,0,,91,,180,Dry,1004,8,24,,,,5.3,
Wick,02/03/2019 03:00,6.6,7,,,0,,89,,180,Dry,1003,8,21,,,,5,
Wick,02/03/2019 04:00,6.6,8,,,0,,91,,180,Light shower,1002,7,9,,,,5.3,
Wick,02/03/2019 05:00,6.2,9,,,0.8,,95,,200,Light rain,1002,8,10,,,,5.5,
Wick,02/03/2019 06:00,6.1,3,6.1,,1.2,2,95,,210,Light drizzle,1001,8,9,,,,5.5,
Wick,02/03/2019 07:00,6.2,6,,,0.6,,96,,190,Light rain,1001,8,20,,,,5.7,
Wick,02/03/2019 08:00,5.8,7,,,0,,97,,200,Rain,1000,8,18,,,,5.4,
Wick,02/03/2019 09:00,6.8,3,,,0,,94,,230,Dry,999,8,35,,,,6,
Wick,02/03/2019 10:00,8.5,6,,,0,,85,,200,Dry,998,1,40,,,,6.2,
Wick,02/03/2019 11:00,9.1,8,,,0,,83,,170,Dry,998,0,26,,,,6.4,
Wick,02/03/2019 12:00,9,10,,,0,0.6,79,,160,Dry,996,0,30,,,,5.6,
Wick,02/03/2019 13:00,7.5,10,,,0,,90,,150,Dry,994,7,35,,,,6.1,
Wick,02/03/2019 14:00,7.9,8,,,0,,87,,110,Dry,992,7,25,,,,6,
Wick,02/03/2019 15:00,8.2,16,,,0,,85,,130,Dry,990,7,40,,,,6,
Wick,02/03/2019 16:00,7.9,16,,,0.6,,84,,150,Light shower,988,7,11,,,,5.5,
Wick,02/03/2019 17:00,7.7,17,,,1,,88,,150,Moderate rain,986,5,7,,,,5.9,
Wick,02/03/2019 18:00,7.8,18,,9.1,0.4,2.4,88,31,150,Rain,984,0,18,,,,6.1,
Wick,02/03/2019 19:00,7.7,20,,,0,,85,33,160,Rain,983,4,22,,,,5.5,
Wick,02/03/2019 20:00,7.2,18,,,0,,84,,200,Dry,982,0,50,,,,4.7,
Wick,02/03/2019 21:00,6.2,16,,,0,,77,,210,Dry,982,0,23,,,,2.6,
Wick,02/03/2019 22:00,6.2,12,,,0,,81,,170,Dry,981,0,15,,,,3.2,
Wick,02/03/2019 23:00,6.5,25,,,0,,78,36,190,Dry,980,3,20,,,,3.1,
Wick,03/03/2019 00:00,6.8,20,,,0,0,77,29,180,Dry,979,7,19,,,,3.2,
Wick,03/03/2019 01:00,6.9,28,,,0,,77,43,180,Dry,977,8,21,,,,3.2,
Wick,03/03/2019 02:00,6.8,30,,,0,,78,44,190,Dry,976,8,24,,,,3.3,
Wick,03/03/2019 03:00,6,37,,,0,,85,54,200,Light shower,975,5,10,,,,3.7,
Wick,03/03/2019 04:00,5.9,30,,,0,,86,51,190,Rain,974,2,20,,,,3.9,
Wick,03/03/2019 05:00,6.1,29,,,0,,89,52,200,Light shower,975,3,6,,,,4.5,
Wick,03/03/2019 06:00,6.7,31,5.4,,0.2,0.2,80,46,220,Rain,976,5,16,,,,3.5,
Wick,03/03/2019 07:00,6.3,21,,,0,,78,51,210,Dry,976,0,26,,,,2.8,
Wick,03/03/2019 08:00,6.3,22,,,0,,78,33,210,Dry,977,0,28,,,,2.8,
Wick,03/03/2019 09:00,7,25,,,0,,81,33,210,Dry,978,3,22,,,,4.1,
Wick,03/03/2019 10:00,7.2,25,,,0,,83,38,210,Dry,978,3,19,,,,4.6,
Wick,03/03/2019 11:00,8.6,24,,,0,,79,35,230,Dry,979,6,30,,,,5.3,
Wick,03/03/2019 12:00,9.7,29,,,0,0,67,39,240,Dry,979,0,30,,,,4,
Wick,03/03/2019 13:00,9.1,28,,,0,,69,41,240,Dry,980,1,35,,,,3.8,
Wick,03/03/2019 14:00,9.5,22,,,0,,71,38,260,Dry,979,5,25,,,,4.6,
Wick,03/03/2019 15:00,9.6,23,,,0,,67,35,240,Dry,980,3,30,,,,3.9,
Wick,03/03/2019 16:00,9.5,17,,,0,,69,35,240,Dry,980,7,30,,,,4.3,
Wick,03/03/2019 17:00,9,12,,,0,,71,,230,Dry,980,7,30,,,,4.1,
Wick,03/03/2019 18:00,7,12,,10.5,0,0,81,,230,Dry,980,7,45,,,,4.1,
Wick,03/03/2019 19:00,6,3,,,0,,86,,190,Dry,980,7,45,,,,3.9,
Wick,03/03/2019 20:00,5.6,5,,,0,,87,,210,Dry,979,0,45,,,,3.7,
Wick,03/03/2019 21:00,5.3,8,,,0,,88,,200,Dry,979,0,50,,,,3.5,
Wick,03/03/2019 22:00,3.9,5,,,0,,89,,220,Dry,979,3,35,,,,2.4,
Wick,03/03/2019 23:00,3.8,5,,,0,,91,,230,Dry,979,0,35,,,,2.6,
Wick,04/03/2019 00:00,3.6,3,,,0,0,92,,210,Dry,978,3,40,,,,2.5,
Wick,04/03/2019 01:00,3,7,,,0,,94,,260,Dry,978,8,40,,,,2.2,
Wick,04/03/2019 02:00,2.3,5,,,0,,94,,270,Dry,978,8,30,,,,1.5,
Wick,04/03/2019 03:00,2.3,6,,,0,,94,,250,Dry,978,0,28,,,,1.5,
Wick,04/03/2019 04:00,2.7,9,,,0,,95,,260,Dry,978,8,40,,,,2.1,
Wick,04/03/2019 05:00,3.2,9,,,0,,95,,260,Rain,978,8,35,,,,2.5,
Wick,04/03/2019 06:00,3.2,10,1.8,,0,0,95,,270,Dry,978,8,30,,,,2.6,
Wick,04/03/2019 07:00,3.4,12,,,0,,95,,260,Dry,978,8,35,,,,2.7,
Wick,04/03/2019 08:00,3.6,14,,,0,,93,,260,Dry,978,8,50,,,,2.6,
Wick,04/03/2019 09:00,4.9,15,,,0,,92,,260,Dry,978,4,35,,,,3.8,
Wick,04/03/2019 10:00,6.2,20,,,0,,86,,270,Dry,979,4,35,,,,4.2,
Wick,04/03/2019 11:00,6.8,21,,,0,,81,32,280,Dry,979,3,40,,,,3.8,
Wick,04/03/2019 12:00,7.3,23,,,0,0,81,36,270,Dry,980,6,15,,,,4.4,
Wick,04/03/2019 13:00,7.5,23,,,0,,77,33,270,Dry,980,7,40,,,,3.8,
Wick,04/03/2019 14:00,7.8,22,,,0,,75,35,270,Dry,981,8,30,,,,3.7,
Wick,04/03/2019 15:00,7.7,23,,,0,,75,38,270,Dry,982,8,30,,,,3.6,
Wick,04/03/2019 16:00,7.4,25,,,0,,74,38,270,Dry,982,7,35,,,,3.2,
Wick,04/03/2019 17:00,6.2,17,,,0,,82,36,260,Dry,983,8,26,,,,3.4,
Wick,04/03/2019 18:00,5.6,14,,8.1,0,0,74,,260,Dry,984,8,30,,,,1.5,
Wick,04/03/2019 19:00,5,13,,,0,,76,,260,Dry,984,1,35,,,,1.3,
Wick,04/03/2019 20:00,3.9,12,,,0,,79,,260,Dry,985,8,40,,,,0.6,
Wick,04/03/2019 21:00,2.7,7,,,0,,81,,230,Dry,985,0,30,,,,-0.1,
Wick,04/03/2019 22:00,2,7,,,0,,84,,230,Dry,986,7,35,,,,-0.3,
Wick,04/03/2019 23:00,2.3,7,,,0,,84,,220,Dry,987,4,40,,,,-0.1,
Wick,05/03/2019 00:00,1.7,6,,,0,0,85,,220,Dry,987,0,35,,,,-0.4,
Wick,05/03/2019 01:00,1.5,9,,,0,,85,,230,Dry,987,4,45,,,,-0.6,
Wick,05/03/2019 02:00,1.6,7,,,0,,88,,230,Dry,988,2,50,,,,-0.1,
Wick,05/03/2019 03:00,1.7,8,,,0,,87,,210,Dry,988,3,50,,,,-0.2,
Wick,05/03/2019 04:00,2.5,7,,,0,,84,,220,Dry,988,2,50,,,,0.1,
Wick,05/03/2019 05:00,3.3,8,,,0,,83,,220,Dry,988,5,45,,,,0.7,
Wick,05/03/2019 06:00,2.7,7,0.9,,0,0,83,,220,Dry,989,0,45,,,,0.2,
Wick,05/03/2019 07:00,2.5,8,,,0,,83,,190,Dry,990,0,30,,,,0,
Wick,05/03/2019 08:00,2.4,6,,,0,,83,,230,Dry,990,0,35,,,,-0.1,
Wick,05/03/2019 09:00,4.1,5,,,0,,81,,220,Dry,991,0,26,,,,1.3,
Wick,05/03/2019 10:00,7.1,3,,,0,,73,,220,Dry,991,0,27,,,,2.7,
Wick,05/03/2019 11:00,8.9,3,,,0,,63,,270,Dry,992,0,18,,,,2.3,
Wick,05/03/2019 12:00,7.5,5,,,0,0,67,,360,Dry,992,0,22,,,,1.8,
Wick,05/03/2019 13:00,8.3,6,,,0,,70,,120,Dry,993,1,28,,,,3.3,
Wick,05/03/2019 14:00,8.1,8,,,0,,73,,50,Dry,993,3,23,,,,3.6,
Wick,05/03/2019 15:00,7.6,8,,,0,,75,,60,Dry,994,1,21,,,,3.6,
Wick,05/03/2019 16:00,7.3,6,,,0,,79,,70,Dry,994,1,19,,,,4,
Wick,05/03/2019 17:00,6.5,5,,,0,,84,,80,Dry,994,6,19,,,,4.1,
Wick,05/03/2019 18:00,5.8,5,,9.1,0,0,88,,60,Dry,995,7,11,,,,4.1,
Wick,05/03/2019 19:00,5.6,7,,,0,,86,,80,Dry,995,5,11,,,,3.6,
Wick,05/03/2019 20:00,4.5,2,,,0,,89,,80,Dry,996,2,13,,,,2.9,
Wick,05/03/2019 21:00,5,7,,,0,,94,,30,Light drizzle,996,6,16,,,,4.2,
Wick,05/03/2019 22:00,4.8,9,,,1,,94,,20,Drizzly rain,996,8,15,,,,4,
Wick,05/03/2019 23:00,4.5,2,,,1.8,,94,,40,Rain,996,8,23,,,,3.7,
Wick,06/03/2019 00:00,4.5,3,,,0.6,3,93,,20,Rain,996,4,22,,,,3.6,
Wick,06/03/2019 01:00,4.6,9,,,1.8,,91,,90,Moderate shower,996,8,8,,,,3.4,
Wick,06/03/2019 02:00,5.1,15,,,0.4,,86,,60,Rain,995,7,19,,,,3.1,
Wick,06/03/2019 03:00,5.3,18,,,0,,84,,60,Dry,995,8,19,,,,2.9,
Wick,06/03/2019 04:00,5,20,,,0,,85,,60,Dry,994,8,15,,,,2.7,
Wick,06/03/2019 05:00,4.9,21,,,0,,85,,60,Rain,994,8,16,,,,2.7,
Wick,06/03/2019 06:00,4.7,23,2.9,,0,3,86,,70,Light shower,993,8,7,,,,2.7,
Wick,06/03/2019 07:00,4.9,23,,,0.4,,83,29,60,Light shower,992,8,15,,,,2.3,
Wick,06/03/2019 08:00,5,24,,,0,,83,31,60,Rain,992,8,18,,,,2.4,
Wick,06/03/2019 09:00,5.2,23,,,0,,82,30,50,Dry,991,1,18,,,,2.5,
Wick,06/03/2019 10:00,5.3,25,,,0,,83,32,50,Rain,990,8,14,,,,2.7,
Wick,06/03/2019 11:00,5.4,26,,,0.6,,90,35,50,Rain,989,8,14,,,,4,
Wick,06/03/2019 12:00,5.7,24,,,0,1,89,33,60,Light shower,988,8,10,,,,4.1,
Wick,06/03/2019 13:00,5.9,24,,,0.2,,91,33,60,Rain,987,8,8,,,,4.6,
Wick,06/03/2019 14:00,6.1,23,,,0.6,,88,32,70,Light shower,986,8,11,,,,4.4,
Wick,06/03/2019 15:00,5.9,20,,,0.2,,91,30,60,Rain,985,1,25,,,,4.6,
Wick,06/03/2019 16:00,6.2,22,,,0,,92,30,50,Dry,984,8,13,,,,5.1,
Wick,06/03/2019 17:00,5.8,24,,,1.2,,92,32,60,Moderate shower,983,8,7,,,,4.7,
Wick,06/03/2019 18:00,5.5,26,,6.3,1,3,94,35,50,Light rain,983,8,8,,,,4.7,
Wick,06/03/2019 19:00,5.7,23,,,1.4,,95,35,40,Light rain,982,8,10,,,,5,
Wick,06/03/2019 20:00,5.6,23,,,2,,93,31,40,Light rain,982,8,16,,,,4.6,
Wick,06/03/2019 21:00,5.8,21,,,0.2,,94,29,30,Light drizzle,981,8,12,,,,5,
Wick,06/03/2019 22:00,5.9,22,,,0.4,,94,29,20,Light drizzle,981,8,13,,,,5.1,
Wick,06/03/2019 23:00,6,22,,,0,,94,30,20,Drizzle,980,8,13,,,,5.2,
Wick,07/03/2019 00:00,6,22,,,0,4,92,30,20,Drizzle,980,8,23,,,,4.9,
Wick,07/03/2019 01:00,6.1,21,,,0,,92,29,20,Dry,980,8,28,,,,4.9,
Wick,07/03/2019 02:00,5.9,24,,,0,,95,30,30,Drizzle,980,8,4,,,,5.3,
Wick,07/03/2019 03:00,5.8,24,,,0.2,,96,33,10,Rain,980,8,12,,,,5.3,
Wick,07/03/2019 04:00,5.7,24,,,0,,93,33,20,Dry,980,7,17,,,,4.8,
Wick,07/03/2019 05:00,5.7,25,,,0,,91,35,20,Dry,980,8,16,,,,4.4,
Wick,07/03/2019 06:00,5.6,30,5.5,,0,0,91,37,20,Light drizzle,981,8,7,,,,4.4,
Wick,07/03/2019 07:00,5.7,29,,,0.2,,88,39,20,Rain,982,8,8,,,,4,
Wick,07/03/2019 08:00,5.6,28,,,0.6,,91,39,20,Rain,982,8,11,,,,4.3,
Wick,07/03/2019 09:00,5.7,31,,,0.2,,89,45,10,Rain,984,8,11,,,,4.1,
Wick,07/03/2019 10:00,5.4,31,,,0,,88,41,360,Rain,985,8,5,,,,3.7,
Wick,07/03/2019 11:00,5.6,29,,,0,,83,43,350,Rain,986,7,10,,,,3.1,
Wick,07/03/2019 12:00,5.9,32,,,0,1,79,40,360,Dry,988,8,11,,,,2.6,
Wick,07/03/2019 13:00,6.5,31,,,0,,70,41,360,Dry,989,7,12,,,,1.5,
Wick,07/03/2019 14:00,5.3,30,,,0,,78,44,360,Dry,990,8,19,,,,1.9,
Wick,07/03/2019 15:00,5.5,25,,,0,,75,40,360,Rain,991,1,17,,,,1.6,
Wick,07/03/2019 16:00,5.9,26,,,0,,69,40,350,Rain,992,7,20,,,,0.7,
Wick,07/03/2019 17:00,4.8,24,,,0.2,,80,39,340,Rain,994,7,23,,,,1.7,
Wick,07/03/2019 18:00,4.6,22,,6.7,0,0,75,36,330,Dry,995,7,19,,,,0.6,
Wick,07/03/2019 19:00,4,21,,,0,,74,32,330,Dry,997,7,15,,,,-0.1,
Wick,07/03/2019 20:00,4.2,18,,,0,,77,33,330,Dry,998,7,12,,,,0.7,
Wick,07/03/2019 21:00,3.2,13,,,0,,72,,320,Dry,999,5,13,,,,-1.3,
Wick,07/03/2019 22:00,1.6,12,,,0,,79,,310,Dry,1000,1,15,,,,-1.6,
Wick,07/03/2019 23:00,3.6,13,,,0,,67,,330,Dry,1000,4,35,,,,-1.9,
Wick,08/03/2019 00:00,1,9,,,0,0,72,,300,Dry,1001,4,35,,,,-3.3,
Wick,08/03/2019 01:00,-0.6,7,,,0,,80,,300,Dry,1001,2,40,,,,-3.6,
Wick,08/03/2019 02:00,1.7,7,,,0,,78,,250,Dry,1002,7,25,,,,-1.7,
Wick,08/03/2019 03:00,2.2,5,,,0,,72,,230,Dry,1002,7,35,,,,-2.2,
Wick,08/03/2019 04:00,1.8,6,,,0,,78,,230,Dry,1002,8,30,,,,-1.5,
Wick,08/03/2019 05:00,2,6,,,0,,78,,230,Dry,1002,8,50,,,,-1.3,
Wick,08/03/2019 06:00,2,5,-0.9,,0,0,79,,240,Dry,1001,8,40,,,,-1.2,
Wick,08/03/2019 07:00,2.9,6,,,0,,69,,220,Dry,1001,8,45,,,,-2.2,
Wick,08/03/2019 08:00,3.4,6,,,0,,65,,200,Dry,1001,8,29,,,,-2.5,
Wick,08/03/2019 09:00,4.1,9,,,0,,70,,180,Dry,1000,8,45,,,,-0.8,
Wick,08/03/2019 10:00,5,16,,,0,,71,,190,Dry,1000,7,25,,,,0.3,
Wick,08/03/2019 11:00,5.1,17,,,0,,72,,180,Dry,999,7,27,,,,0.5,
Wick,08/03/2019 12:00,5.2,16,,,0,0,70,,180,Dry,998,7,30,,,,0.3,
Wick,08/03/2019 13:00,5.3,13,,,0,,74,,170,Rain,996,7,30,,,,1.2,
Wick,08/03/2019 14:00,4.5,16,,,0.2,,82,,180,Light shower,995,8,12,,,,1.8,
Wick,08/03/2019 15:00,5.7,15,,,0,,76,,180,Rain,994,7,40,,,,1.9,
Wick,08/03/2019 16:00,5.9,13,,,0,,78,,180,Dry,993,8,28,,,,2.4,
Wick,08/03/2019 17:00,6.3,10,,,0,,75,,160,Rain,991,8,35,,,,2.3,
Wick,08/03/2019 18:00,6,9,,6.3,0,0.2,78,,170,Dry,990,8,40,,,,2.6,
Wick,08/03/2019 19:00,5.8,10,,,0,,83,,170,Light shower,989,7,23,,,,3.2,
Wick,08/03/2019 20:00,5.5,18,,,0.2,,83,24,190,Light rain,988,8,22,,,,2.9,
Wick,08/03/2019 21:00,2.4,17,,,3,,93,,230,Moderate rain,988,8,4,,,,1.5,
Wick,08/03/2019 22:00,3.7,15,,,1,,93,29,240,Light rain,988,8,10,,,,2.7,
Wick,08/03/2019 23:00,4.1,16,,,0,,91,,250,Rain,987,7,35,,,,2.8,
Wick,09/03/2019 00:00,4.6,16,,,0,4,83,,230,Dry,988,2,18,,,,2.1,
Wick,09/03/2019 01:00,3.9,25,,,0,,83,39,250,Dry,988,6,18,,,,1.3,
Wick,09/03/2019 02:00,3.6,22,,,0,,81,36,230,Dry,988,0,20,,,,0.8,
Wick,09/03/2019 03:00,3.3,24,,,0,,78,48,240,Dry,987,0,23,,,,0,
Wick,09/03/2019 04:00,3.3,31,,,0,,81,45,260,Dry,987,0,19,,,,0.4,
Wick,09/03/2019 05:00,3,32,,,0,,84,45,260,Precipitation,988,4,23,,,,0.7,
Wick,09/03/2019 06:00,3,24,2.3,,0,0,82,44,250,Dry,989,7,29,,,,0.3,
Wick,09/03/2019 07:00,2.7,32,,,0.4,,88,45,260,Moderate shower,989,8,7,,,,1,
Wick,09/03/2019 08:00,3.1,24,,,0,,81,39,250,Rain,990,8,14,,,,0.2,
Wick,09/03/2019 09:00,3,31,,,0,,84,45,260,Dry,990,8,22,,,,0.7,
Wick,09/03/2019 10:00,4.2,30,,,0,,79,40,260,Dry,991,8,19,,,,0.9,
Wick,09/03/2019 11:00,5.5,30,,,0,,73,47,270,Dry,992,8,23,,,,1.1,
Wick,09/03/2019 12:00,5.5,35,,,0,0.4,67,47,270,Dry,993,8,21,,,,0,
Wick,09/03/2019 13:00,5.5,29,,,0,,67,51,280,Dry,994,8,25,,,,-0.1,
Wick,09/03/2019 14:00,4.3,45,,,0,,79,56,280,Dry,996,7,17,,,,1,
Wick,09/03/2019 15:00,6.7,26,,,0,,66,56,270,Dry,996,7,22,,,,1,
Wick,09/03/2019 16:00,5.2,28,,,0,,75,46,270,Rain,997,7,35,,,,1.3,
Wick,09/03/2019 17:00,4.1,22,,,0.6,,83,48,280,Rain,999,6,5,,,,1.5,
Wick,09/03/2019 18:00,2.6,29,,7.1,0,0.6,82,39,260,Moderate precip.,1000,8,10,,,,-0.1,
Wick,09/03/2019 19:00,1.7,9,,,0.2,,88,36,230,Rain,1000,2,50,,,,0,
Wick,09/03/2019 20:00,1.1,18,,,0,,93,,250,Rain,1000,5,50,,,,0.1,
Wick,09/03/2019 21:00,0.8,12,,,0,,92,,230,Dry,1000,0,50,,,,-0.3,
Wick,09/03/2019 22:00,0.8,7,,,0,,89,,190,Dry,1001,3,50,,,,-0.7,
Wick,09/03/2019 23:00,0.3,9,,,0,,87,,260,Dry,1001,1,45,,,,-1.5,
Wick,10/03/2019 00:00,0.6,10,,,0,0.2,86,,250,Dry,1000,0,45,,,,-1.4,
Wick,10/03/2019 01:00,0.6,8,,,0,,89,,220,Dry,1000,0,40,,,,-1,
Wick,10/03/2019 02:00,0.6,10,,,0,,85,,240,Dry,1000,0,35,,,,-1.5,
Wick,10/03/2019 03:00,-0.2,9,,,0,,85,,220,Dry,999,0,35,,,,-2.4,
Wick,10/03/2019 04:00,-0.4,7,,,0,,86,,220,Dry,998,0,40,,,,-2.4,
Wick,10/03/2019 05:00,0.4,5,,,0,,81,,180,Dry,998,0,50,,,,-2.4,
Wick,10/03/2019 06:00,0.9,7,-0.6,,0,0,83,,210,Dry,998,6,30,,,,-1.5,
Wick,10/03/2019 07:00,1.3,5,,,0,,85,,180,Dry,998,8,35,,,,-0.9,
Wick,10/03/2019 08:00,1.7,5,,,0,,85,,160,Dry,998,6,25,,,,-0.4,
Wick,10/03/2019 09:00,2.6,9,,,0,,87,,180,Dry,998,8,23,,,,0.7,
Wick,10/03/2019 10:00,3.1,7,,,0,,88,,170,Dry,997,7,26,,,,1.4,
Wick,10/03/2019 11:00,4.4,7,,,0,,80,,160,Dry,996,0,30,,,,1.4,
Wick,10/03/2019 12:00,4.8,13,,,0,0,71,,120,Dry,996,8,35,,,,0.1,
Wick,10/03/2019 13:00,5.1,15,,,0,,65,,120,Dry,995,8,35,,,,-0.9,
Wick,10/03/2019 14:00,5.7,17,,,0,,67,,140,Dry,994,1,26,,,,0.1,
Wick,10/03/2019 15:00,4.8,16,,,0,,82,,120,Light shower,993,8,35,,,,2.1,
Wick,10/03/2019 16:00,5,13,,,0,,83,,110,Rain,993,8,19,,,,2.5,
Wick,10/03/2019 17:00,4.7,13,,,0.4,,85,,90,Rain,993,7,26,,,,2.4,
Wick,10/03/2019 18:00,4,13,,6.2,0,0.4,88,22,10,Dry,994,7,35,,,,2.2,
Wick,10/03/2019 19:00,3.4,20,,,0.2,,90,30,350,Light shower,996,8,22,,,,2,
Wick,10/03/2019 20:00,2.3,20,,,0.6,,95,31,320,Light rain,998,8,15,,,,1.6,
Wick,10/03/2019 21:00,2.5,17,,,0.4,,91,,310,Light rain,999,5,13,,,,1.3,
Wick,10/03/2019 22:00,2.3,15,,,0.4,,93,,310,Light shower,1000,5,8,,,,1.4,
Wick,10/03/2019 23:00,0.5,16,,,2,,97,,280,Heavy snow,1001,8,3,,,,0.1,
Wick,11/03/2019 00:00,1.6,12,,,0.6,4,97,,300,Snow,1002,1,40,,,,1.3,
Wick,11/03/2019 01:00,1.5,13,,,0,,96,,280,Dry,1003,1,35,,,,1,
Wick,11/03/2019 02:00,1.1,14,,,0,,96,,260,Dry,1004,7,45,,,,0.6,
Wick,11/03/2019 03:00,1.1,12,,,0.2,,95,,250,Moderate precip.,1005,6,35,,,,0.4,
Wick,11/03/2019 04:00,1.1,14,,,0,,93,,260,Rain,1006,4,50,,,,0.2,
Wick,11/03/2019 05:00,1.6,13,,,0,,91,,290,Precipitation,1007,8,40,,,,0.4,
Wick,11/03/2019 06:00,1.6,7,0.5,,0.2,1,92,,240,Rain,1008,8,45,,,,0.5,
Wick,11/03/2019 07:00,2.4,13,,,0,,87,,250,Dry,1008,8,35,,,,0.6,
Wick,11/03/2019 08:00,2.7,15,,,0,,84,,250,Dry,1009,7,35,,,,0.4,
Wick,11/03/2019 09:00,4.3,13,,,0,,80,,250,Dry,1010,1,30,,,,1.2,
Wick,11/03/2019 10:00,3.9,18,,,0,,84,33,240,Rain,1011,6,28,,,,1.6,
Wick,11/03/2019 11:00,5.9,18,,,0.2,,79,,270,Dry,1012,6,40,,,,2.7,
Wick,11/03/2019 12:00,6.4,22,,,0,0.2,76,29,250,Dry,1012,4,27,,,,2.5,
Wick,11/03/2019 13:00,7.5,23,,,0,,64,31,250,Dry,1012,0,17,,,,1.3,
Wick,11/03/2019 14:00,7.3,17,,,0,,63,33,240,Dry,1012,2,35,,,,0.9,
Wick,11/03/2019 15:00,7.4,20,,,0,,61,,230,Dry,1011,4,29,,,,0.6,
Wick,11/03/2019 16:00,6.8,15,,,0,,60,30,210,Dry,1011,0,29,,,,-0.4,
Wick,11/03/2019 17:00,6.1,14,,,0,,65,,180,Dry,1010,1,26,,,,0.2,
Wick,11/03/2019 18:00,6,16,,8,0,0,68,,180,Dry,1008,6,28,,,,0.7,
Wick,11/03/2019 19:00,6.2,16,,,0,,66,,180,Dry,1007,7,27,,,,0.5,
Wick,11/03/2019 20:00,6.2,21,,,0,,65,33,160,Dry,1005,8,35,,,,0.3,
Wick,11/03/2019 21:00,6.3,22,,,0,,70,36,160,Dry,1003,8,19,,,,1.4,
Wick,11/03/2019 22:00,5.5,22,,,0.4,,82,41,150,Light shower,1000,8,14,,,,2.7,
Wick,11/03/2019 23:00,5.3,29,,,0.8,,86,46,140,Light rain,996,8,9,,,,3.2,
Wick,12/03/2019 00:00,5.6,35,,,0.8,2,89,53,150,Light rain,992,7,6,,,,4,
Wick,12/03/2019 01:00,5.8,28,,,0.6,,88,51,150,Light rain,990,8,10,,,,4.1,
Wick,12/03/2019 02:00,6.1,23,,,0,,85,44,160,Light shower,989,8,11,,,,3.8,
Wick,12/03/2019 03:00,6,17,,,0.4,,88,39,170,Light rain,988,4,10,,,,4.2,
Wick,12/03/2019 04:00,5.6,17,,,0,,86,,210,Rain,987,7,29,,,,3.6,
Wick,12/03/2019 05:00,4.3,13,,,0.2,,88,,210,Rain,986,7,45,,,,2.6,
Wick,12/03/2019 06:00,4.5,17,4.3,,0,1,87,,200,Dry,986,7,50,,,,2.6,
Wick,12/03/2019 07:00,3.5,17,,,0,,82,30,220,Dry,985,7,50,,,,0.8,
Wick,12/03/2019 08:00,3.7,16,,,0,,88,,190,Dry,984,5,45,,,,2,
Wick,12/03/2019 09:00,4.7,17,,,0,,79,31,210,Dry,984,0,45,,,,1.5,
Wick,12/03/2019 10:00,5.6,16,,,0,,80,,200,Dry,984,1,25,,,,2.6,
Wick,12/03/2019 11:00,6.7,20,,,0,,76,,200,Dry,983,2,18,,,,2.8,
Wick,12/03/2019 12:00,6.9,22,,,0,0,67,35,200,Dry,982,0,35,,,,1.4,
Wick,12/03/2019 13:00,6.2,25,,,0,,73,37,190,Dry,981,0,40,,,,1.9,
Wick,12/03/2019 14:00,7.7,26,,,0,,62,36,190,Dry,979,1,14,,,,1,
Wick,12/03/2019 15:00,6.5,25,,,0,,68,40,190,Dry,978,7,22,,,,1.2,
Wick,12/03/2019 16:00,6.7,23,,,0,,62,41,170,Dry,975,7,18,,,,0,
Wick,12/03/2019 17:00,6.3,29,,,0,,64,41,170,Dry,973,7,30,,,,0,
Wick,12/03/2019 18:00,5.7,26,,7.8,0,0,69,48,180,Light shower,971,7,11,,,,0.6,
Wick,12/03/2019 19:00,5.5,23,,,0,,74,40,170,Rain,971,7,7,,,,1.3,
Wick,12/03/2019 20:00,4.9,21,,,0,,82,35,190,Rain,970,8,35,,,,2.2,
Wick,12/03/2019 21:00,4.4,20,,,0,,87,29,200,Rain,969,8,35,,,,2.5,
Wick,12/03/2019 22:00,3.8,8,,,0,,89,,210,Dry,969,0,35,,,,2.2,
Wick,12/03/2019 23:00,1.4,3,,,0,,92,,290,Dry,970,6,45,,,,0.3,
Wick,13/03/2019 00:00,1,8,,,0,0,95,,260,Dry,972,0,50,,,,0.3,
Wick,13/03/2019 01:00,1.6,10,,,0,,96,,270,Dry,974,4,45,,,,1.1,
Wick,13/03/2019 02:00,2.6,12,,,0,,95,,270,Dry,975,7,25,,,,2,
Wick,13/03/2019 03:00,3.8,14,,,0,,94,,310,Dry,977,5,30,,,,3,
Wick,13/03/2019 04:00,4.7,21,,,0.4,,91,31,320,Moderate shower,979,8,13,,,,3.4,
Wick,13/03/2019 05:00,5,18,,,0.2,,91,30,310,Rain,981,7,18,,,,3.7,
Wick,13/03/2019 06:00,5,21,-0.4,,0,0.6,89,37,320,Rain,984,8,24,,,,3.4,
Wick,13/03/2019 07:00,5.1,21,,,0,,89,36,310,Rain,986,1,18,,,,3.5,
Wick,13/03/2019 08:00,5.7,24,,,0.2,,85,40,310,Rain,989,5,20,,,,3.5,
Wick,13/03/2019 09:00,6.5,21,,,0,,84,38,310,Dry,990,2,15,,,,4.1,
Wick,13/03/2019 10:00,7.6,26,,,0,,76,39,300,Dry,992,0,18,,,,3.7,
Wick,13/03/2019 11:00,8.4,28,,,0,,72,37,300,Dry,994,0,15,,,,3.7,
Wick,13/03/2019 12:00,8,25,,,0,0.2,74,37,290,Light shower,995,2,10,,,,3.7,
Wick,13/03/2019 13:00,8.2,20,,,0.8,,84,39,280,Rain,995,1,19,,,,5.8,
Wick,13/03/2019 14:00,7.9,23,,,0.6,,87,38,280,Rain,995,1,19,,,,5.9,
Wick,13/03/2019 15:00,7.9,26,,,0,,84,39,280,Rain,995,5,21,,,,5.5,
Wick,13/03/2019 16:00,6.8,22,,,0.2,,89,36,280,Rain,996,1,30,,,,5.2,
Wick,13/03/2019 17:00,6,18,,,0.2,,91,,260,Rain,996,1,30,,,,4.7,
Wick,13/03/2019 18:00,5.4,22,,9.6,0.6,2.8,90,35,260,Light shower,996,6,16,,,,4,
Wick,13/03/2019 19:00,5.3,13,,,0,,90,30,240,Rain,996,1,9,,,,3.8,
Wick,13/03/2019 20:00,5.2,15,,,0,,86,,250,Rain,994,7,30,,,,3.1,
Wick,13/03/2019 21:00,4.7,13,,,0,,84,,240,Dry,993,8,40,,,,2.3,
Wick,13/03/2019 22:00,4.2,10,,,0.2,,89,,200,Light shower,992,6,11,,,,2.6,
Wick,13/03/2019 23:00,4.4,14,,,0.8,,91,,180,Light rain,989,7,18,,,,3.2,
Wick,14/03/2019 00:00,4.4,16,,,0.8,2,93,,180,Light rain,987,7,13,,,,3.5,
Wick,14/03/2019 01:00,4.5,15,,,0.2,,95,,200,Rain,986,4,30,,,,3.8,
Wick,14/03/2019 02:00,5.8,16,,,0,,92,,250,Rain,984,8,30,,,,4.7,
Wick,14/03/2019 03:00,5.5,16,,,0,,92,,260,Dry,984,1,30,,,,4.4,
Wick,14/03/2019 04:00,5.8,14,,,0,,91,,250,Dry,983,4,30,,,,4.5,
Wick,14/03/2019 05:00,5.7,20,,,0,,90,,270,Dry,982,7,28,,,,4.2,
Wick,14/03/2019 06:00,5,24,4.2,,0,0,92,29,260,Dry,983,7,35,,,,3.9,
Wick,14/03/2019 07:00,5.2,22,,,0.2,,93,30,270,Moderate shower,984,7,6,,,,4.3,
Wick,14/03/2019 08:00,6.1,21,,,0.4,,92,30,280,Moderate drizzle,985,1,6,,,,5,
Wick,14/03/2019 09:00,5.5,21,,,1,,90,37,290,Rain,986,4,30,,,,4,
Wick,14/03/2019 10:00,6.9,21,,,0,,86,38,280,Rain,987,4,27,,,,4.8,
Wick,14/03/2019 11:00,6.3,23,,,0.4,,85,31,280,Rain,988,3,30,,,,4.1,
Wick,14/03/2019 12:00,8,25,,,0.6,3,83,35,280,Rain,989,7,23,,,,5.4,
Wick,14/03/2019 13:00,8.6,24,,,0,,81,36,280,Dry,990,1,20,,,,5.6,
Wick,14/03/2019 14:00,8,23,,,0,,79,37,260,Dry,990,0,30,,,,4.6,
Wick,14/03/2019 15:00,7.9,23,,,0,,72,33,270,Dry,990,0,29,,,,3.3,
Wick,14/03/2019 16:00,7.7,15,,,0,,80,31,270,Rain,991,3,17,,,,4.5,
Wick,14/03/2019 17:00,7.5,15,,,0,,79,,250,Rain,991,4,40,,,,4.1,
Wick,14/03/2019 18:00,6.4,12,,8.8,0,0,81,23,250,Dry,991,4,40,,,,3.4,
Wick,14/03/2019 19:00,4.3,12,,,0,,86,,230,Dry,992,1,45,,,,2.2,
Wick,14/03/2019 20:00,4.8,12,,,0,,86,,220,Dry,991,3,35,,,,2.8,
Wick,14/03/2019 21:00,4.7,16,,,0,,86,,230,Dry,991,7,40,,,,2.7,
Wick,14/03/2019 22:00,5.4,18,,,0,,82,,240,Dry,990,8,45,,,,2.6,
Wick,14/03/2019 23:00,5.2,12,,,0,,84,,230,Dry,990,8,40,,,,2.8,
Wick,15/03/2019 00:00,5.3,12,,,0,0,80,,220,Dry,989,3,35,,,,2.2,
Wick,15/03/2019 01:00,5.5,15,,,0,,80,,220,Rain,988,8,28,,,,2.4,
Wick,15/03/2019 02:00,5,13,,,0.2,,85,,230,Light shower,987,8,15,,,,2.7,
Wick,15/03/2019 03:00,4.4,15,,,0,,89,,220,Light rain,986,8,13,,,,2.8,
Wick,15/03/2019 04:00,3.8,10,,,0.6,,91,,230,Light rain,985,8,17,,,,2.6,
Wick,15/03/2019 05:00,3,10,,,0.2,,93,,230,Light rain,984,8,35,,,,2,
Wick,15/03/2019 06:00,2.8,7,2.7,,0,1,93,,230,Light shower,984,8,50,,,,1.9,
Wick,15/03/2019 07:00,3.3,14,,,0,,93,,240,Rain,984,8,40,,,,2.3,
Wick,15/03/2019 08:00,4.3,21,,,0.2,,88,36,250,Rain,984,8,45,,,,2.5,
Wick,15/03/2019 09:00,4.8,21,,,0.4,,91,38,270,Rain,985,7,17,,,,3.5,
Wick,15/03/2019 10:00,4.2,22,,,0.2,,92,44,260,Rain,986,4,30,,,,3.1,
Wick,15/03/2019 11:00,4.2,20,,,0.4,,93,41,260,Rain,987,7,35,,,,3.3,
Wick,15/03/2019 12:00,3.6,26,,,0,1,89,45,260,Rain,987,6,50,,,,2.1,
Wick,15/03/2019 13:00,6.2,29,,,0.4,,85,51,260,Rain,987,3,35,,,,4,
Wick,15/03/2019 14:00,3.5,30,,,0.2,,88,44,280,Light shower,988,3,5,,,,1.8,
Wick,15/03/2019 15:00,6.5,29,,,0,,84,45,270,Rain,988,1,30,,,,4.1,
Wick,15/03/2019 16:00,5.5,29,,,0.2,,86,44,270,Rain,990,1,27,,,,3.5,
Wick,15/03/2019 17:00,4.7,26,,,0,,82,43,260,Dry,990,0,45,,,,2,
Wick,15/03/2019 18:00,4,28,,7.5,0,1,79,39,260,Dry,992,0,50,,,,0.7,
Wick,15/03/2019 19:00,3.2,24,,,0,,86,43,260,Rain,992,0,45,,,,1.2,
Wick,15/03/2019 20:00,3,23,,,0,,87,33,260,Dry,992,0,35,,,,1.1,
Wick,15/03/2019 21:00,3.1,24,,,0,,86,35,250,Dry,993,0,50,,,,1.1,
Wick,15/03/2019 22:00,3,17,,,0,,85,29,250,Dry,994,0,50,,,,0.8,
Wick,15/03/2019 23:00,3,20,,,0,,84,30,250,Dry,994,0,40,,,,0.7,
Wick,16/03/2019 00:00,3,17,,,0,0,87,,250,Dry,994,0,40,,,,1.1,
Wick,16/03/2019 01:00,2.6,12,,,0,,87,,250,Dry,994,0,29,,,,0.7,
Wick,16/03/2019 02:00,2.4,15,,,0,,85,,260,Dry,994,0,30,,,,0.3,
Wick,16/03/2019 03:00,2,6,,,0,,89,,220,Dry,994,0,30,,,,0.4,
Wick,16/03/2019 04:00,2.1,12,,,0,,85,,230,Dry,993,0,40,,,,-0.1,
Wick,16/03/2019 05:00,2.1,9,,,0,,84,,230,Dry,993,0,29,,,,-0.2,
Wick,16/03/2019 06:00,2.5,3,1.5,,0,0,84,,160,Dry,993,0,29,,,,0.1,
Wick,16/03/2019 07:00,3,10,,,0,,84,,200,Dry,992,0,35,,,,0.7,
Wick,16/03/2019 08:00,3.5,9,,,0,,84,,210,Dry,991,8,30,,,,1.1,
Wick,16/03/2019 09:00,3.9,9,,,0,,83,,200,Dry,990,0,30,,,,1.4,
Wick,16/03/2019 10:00,4.5,10,,,0,,82,,210,Dry,990,8,22,,,,1.7,
Wick,16/03/2019 11:00,4.8,12,,,0,,80,,200,Dry,989,8,30,,,,1.7,
Wick,16/03/2019 12:00,4.8,12,,,0,0,76,,200,Dry,988,8,45,,,,1.1,
Wick,16/03/2019 13:00,4.3,9,,,0,,79,,190,Dry,988,8,20,,,,1.1,
Wick,16/03/2019 14:00,4.2,5,,,0,,77,,220,Dry,987,7,24,,,,0.6,
Wick,16/03/2019 15:00,3.9,2,,,0,,74,,350,Dry,986,8,30,,,,-0.2,
Wick,16/03/2019 16:00,3.4,5,,,0,,81,,360,Rain,985,8,29,,,,0.6,
Wick,16/03/2019 17:00,2.9,7,,,0.2,,87,,310,Light rain,985,8,9,,,,1,
Wick,16/03/2019 18:00,0.5,8,,4.9,1.8,2,95,,320,Light snow,984,5,5,,,,-0.1,
Wick,16/03/2019 19:00,0.4,8,,,1,,97,,280,Light drizzle,984,8,10,,,,0.1,
Wick,16/03/2019 20:00,0.4,8,,,0.8,,99,,300,Moderate rain,984,7,8,,,,0.3,
Wick,16/03/2019 21:00,0.3,9,,,1,,99,,290,Light snow,984,7,4,,,,0.2,
Wick,16/03/2019 22:00,0.6,9,,,0.6,,99,,280,Snow,984,8,18,,,,0.5,
Wick,16/03/2019 23:00,1.2,13,,,1,,99,,290,Drizzle,984,8,40,,,,1.1,
Wick,17/03/2019 00:00,1.1,14,,,0.4,5,97,,260,Rain,984,2,40,,,,0.8,
Wick,17/03/2019 01:00,2.1,17,,,0,,97,,280,Dry,984,1,45,,,,1.7,
Wick,17/03/2019 02:00,2.1,12,,,0.8,,97,,280,Moderate shower,984,8,6,,,,1.7,
Wick,17/03/2019 03:00,2.1,16,,,0.4,,93,,280,Rain,984,6,50,,,,1.2,
Wick,17/03/2019 04:00,2.6,15,,,0.2,,96,,270,Moderate precip.,985,7,4,,,,2.1,
Wick,17/03/2019 05:00,3.2,16,,,0.2,,94,,280,Rain,985,8,40,,,,2.4,
Wick,17/03/2019 06:00,3.2,12,0.2,,0.2,2,94,,310,Rain,986,7,45,,,,2.4,
Wick,17/03/2019 07:00,3.5,13,,,0,,95,,280,Dry,987,4,35,,,,2.8,
Wick,17/03/2019 08:00,4,12,,,0.2,,95,,310,Rain,989,6,30,,,,3.3,
Wick,17/03/2019 09:00,4.7,13,,,0.4,,93,,320,Rain,990,2,29,,,,3.8,
Wick,17/03/2019 10:00,5.1,28,,,0,,84,38,340,Dry,992,1,23,,,,2.7,
Wick,17/03/2019 11:00,6.3,25,,,0,,84,36,330,Rain,994,5,21,,,,3.9,
Wick,17/03/2019 12:00,5.4,26,,,0,0.6,78,41,320,Dry,996,6,18,,,,2,
Wick,17/03/2019 13:00,6.7,30,,,0,,71,45,330,Dry,997,7,20,,,,1.9,
Wick,17/03/2019 14:00,6.3,30,,,0,,64,40,330,Dry,999,7,22,,,,0.2,
Wick,17/03/2019 15:00,5,29,,,0,,74,41,320,Dry,1000,7,25,,,,0.9,
Wick,17/03/2019 16:00,6,29,,,0,,69,38,320,Light shower,1001,7,12,,,,0.9,
Wick,17/03/2019 17:00,4.2,23,,,0.2,,76,41,320,Rain,1003,7,17,,,,0.5,
Wick,17/03/2019 18:00,3.9,18,,7.8,0.2,0.4,80,36,320,Rain,1004,7,15,,,,0.8,
Wick,17/03/2019 19:00,4,22,,,0,,77,32,320,Rain,1005,7,15,,,,0.5,
Wick,17/03/2019 20:00,4.6,17,,,0,,69,,320,Dry,1007,8,19,,,,-0.5,
Wick,17/03/2019 21:00,4.3,21,,,0,,72,29,320,Light shower,1008,8,21,,,,-0.2,
Wick,17/03/2019 22:00,3.8,13,,,0,,68,,320,Rain,1008,8,14,,,,-1.4,
Wick,17/03/2019 23:00,3.9,12,,,0,,74,,310,Dry,1009,7,35,,,,-0.3,
Wick,18/03/2019 00:00,3.9,10,,,0,0,67,,320,Dry,1009,7,12,,,,-1.5,
Wick,18/03/2019 01:00,3.6,10,,,0,,76,,300,Dry,1010,8,30,,,,-0.2,
Wick,18/03/2019 02:00,3.4,9,,,0,,70,,290,Dry,1010,8,35,,,,-1.4,
Wick,18/03/2019 03:00,2.5,9,,,0,,71,,280,Dry,1011,7,40,,,,-2.1,
Wick,18/03/2019 04:00,1.4,7,,,0,,79,,220,Dry,1011,7,40,,,,-1.8,
Wick,18/03/2019 05:00,1.1,5,,,0,,82,,250,Dry,1012,8,30,,,,-1.6,
Wick,18/03/2019 06:00,1.5,5,1,,0,0,81,,250,Dry,1012,7,40,,,,-1.4,
Wick,18/03/2019 07:00,0.8,5,,,0,,82,,260,Dry,1012,3,35,,,,-1.9,
Wick,18/03/2019 08:00,1.3,5,,,0,,84,,260,Dry,1013,0,35,,,,-1.1,
Wick,18/03/2019 09:00,4,2,,,0,,75,,220,Dry,1013,7,35,,,,0,
Wick,18/03/2019 10:00,7.4,2,,,0,,56,,180,Dry,1014,5,35,,,,-0.7,
Wick,18/03/2019 11:00,7.4,7,,,0,,61,,150,Dry,1015,7,17,,,,0.5,
Wick,18/03/2019 12:00,6.7,10,,,0,0,70,,150,Dry,1015,2,18,,,,1.8,
Wick,18/03/2019 13:00,7.6,12,,,0,,64,,170,Dry,1015,7,23,,,,1.3,
Wick,18/03/2019 14:00,7.8,10,,,0,,71,,150,Dry,1016,2,22,,,,2.9,
Wick,18/03/2019 15:00,7.9,13,,,0,,66,,160,Dry,1016,0,24,,,,2,
Wick,18/03/2019 16:00,7.4,12,,,0,,71,,150,Dry,1016,0,24,,,,2.5,
Wick,18/03/2019 17:00,7,10,,,0,,73,,160,Dry,1016,1,35,,,,2.6,
Wick,18/03/2019 18:00,6.5,12,,8.3,0,0,74,,150,Dry,1017,0,29,,,,2.3,
Wick,18/03/2019 19:00,6.3,9,,,0,,73,,150,Dry,1018,0,30,,,,2,
Wick,18/03/2019 20:00,6.3,7,,,0,,78,,140,Dry,1018,0,15,,,,2.8,
Wick,18/03/2019 21:00,6.6,9,,,0,,80,,150,Dry,1018,0,22,,,,3.5,
Wick,18/03/2019 22:00,6.2,7,,,0,,87,,170,Dry,1018,0,15,,,,4.3,
Wick,18/03/2019 23:00,5.6,8,,,0,,86,,190,Dry,1018,2,28,,,,3.6,
Wick,19/03/2019 00:00,4.9,2,,,0,0,88,,200,Dry,1018,7,28,,,,3.2,
Wick,19/03/2019 01:00,4.7,8,,,0,,89,,200,Dry,1018,1,35,,,,3.1,
Wick,19/03/2019 02:00,4.5,5,,,0,,89,,230,Dry,1017,8,50,,,,2.9,
Wick,19/03/2019 03:00,5.8,8,,,0,,85,,180,Dry,1017,8,50,,,,3.5,
Wick,19/03/2019 04:00,5.5,6,,,0,,90,,170,Dry,1017,8,45,,,,4.1,
Wick,19/03/2019 05:00,5.9,12,,,0,,91,,190,Dry,1016,8,50,,,,4.6,
Wick,19/03/2019 06:00,6,8,3.8,,0,0,90,,180,Dry,1016,8,50,,,,4.6,
Wick,19/03/2019 07:00,5.9,8,,,0,,91,,170,Dry,1016,8,45,,,,4.7,
Wick,19/03/2019 08:00,7,12,,,0,,88,,200,Dry,1016,8,35,,,,5.3,
Wick,19/03/2019 09:00,6.8,10,,,0.8,,92,,200,Rain,1016,8,12,,,,5.7,
Wick,19/03/2019 10:00,7.2,14,,,0.6,,94,,180,Light shower,1015,7,10,,,,6.4,
Wick,19/03/2019 11:00,7.4,13,,,0.2,,94,,180,Rain,1014,8,28,,,,6.6,
Wick,19/03/2019 12:00,8.5,18,,,0,2,89,,180,Dry,1014,8,22,,,,6.8,
Wick,19/03/2019 13:00,9.5,20,,,0,,80,,190,Dry,1014,7,40,,,,6.4,
Wick,19/03/2019 14:00,10.1,15,,,0,,81,29,180,Dry,1014,7,30,,,,7.1,
Wick,19/03/2019 15:00,11.9,15,,,0,,78,,220,Dry,1013,7,30,,,,8.2,
Wick,19/03/2019 16:00,11.4,16,,,0,,77,,220,Dry,1013,7,50,,,,7.6,
Wick,19/03/2019 17:00,11.5,20,,,0,,79,29,250,Dry,1014,8,45,,,,8.1,
Wick,19/03/2019 18:00,10.6,22,,12.1,0,0,81,30,230,Dry,1014,7,50,,,,7.6,
Wick,19/03/2019 19:00,9.4,17,,,0,,78,29,250,Dry,1015,5,45,,,,5.9,
Wick,19/03/2019 20:00,9.1,18,,,0,,78,,250,Dry,1016,5,30,,,,5.6,
Wick,19/03/2019 21:00,7.4,9,,,0,,81,,250,Dry,1017,3,26,,,,4.4,
Wick,19/03/2019 22:00,8.2,3,,,0,,75,,200,Dry,1018,1,21,,,,4.2,
Wick,19/03/2019 23:00,8.5,5,,,0,,73,,190,Dry,1018,8,17,,,,4.1,
Wick,20/03/2019 00:00,7.7,10,,,0,0,72,,230,Dry,1019,7,15,,,,3,
Wick,20/03/2019 01:00,7.7,9,,,0,,72,,190,Dry,1019,8,15,,,,3,
Wick,20/03/2019 02:00,7.1,14,,,0,,87,,220,Light shower,1019,8,10,,,,5.2,
Wick,20/03/2019 03:00,6.1,5,,,0,,87,,200,Rain,1019,6,14,,,,4.2,
Wick,20/03/2019 04:00,5.9,9,,,0,,84,,210,Dry,1020,4,16,,,,3.5,
Wick,20/03/2019 05:00,5.3,5,,,0,,84,,170,Dry,1020,7,16,,,,2.9,
Wick,20/03/2019 06:00,6.6,10,4.7,,0,0,77,,220,Dry,1020,8,15,,,,2.9,
Wick,20/03/2019 07:00,7.4,10,,,0,,73,,190,Dry,1021,7,18,,,,2.9,
Wick,20/03/2019 08:00,8,14,,,0,,73,,230,Dry,1021,7,16,,,,3.5,
Wick,20/03/2019 09:00,8.1,13,,,0,,77,,190,Dry,1022,4,11,,,,4.5,
Wick,20/03/2019 10:00,9.1,16,,,0,,71,,220,Dry,1022,1,15,,,,4.2,
Wick,20/03/2019 11:00,10.1,10,,,0,,67,,210,Dry,1021,1,12,,,,4.3,
Wick,20/03/2019 12:00,9.5,15,,,0,0,69,,170,Dry,1021,3,12,,,,4.3,
Wick,20/03/2019 13:00,9.6,15,,,0,,77,,170,Dry,1020,7,21,,,,5.9,
Wick,20/03/2019 14:00,9.4,16,,,0,,79,,160,Dry,1019,3,25,,,,6,
Wick,20/03/2019 15:00,10.6,17,,,0,,78,29,190,Dry,1018,8,35,,,,7.1,
Wick,20/03/2019 16:00,11.6,22,,,0,,77,30,190,Dry,1017,4,30,,,,7.8,
Wick,20/03/2019 17:00,11.8,22,,,0,,79,39,190,Dry,1016,6,35,,,,8.3,
Wick,20/03/2019 18:00,11.4,24,,12,0,0,81,35,200,Dry,1015,6,45,,,,8.3,
Wick,20/03/2019 19:00,10.8,24,,,0,,84,38,210,Dry,1015,4,50,,,,8.3,
Wick,20/03/2019 20:00,10.5,24,,,0,,87,32,210,Dry,1015,1,45,,,,8.5,
Wick,20/03/2019 21:00,11.5,24,,,0,,78,33,210,Dry,1015,6,45,,,,7.9,
Wick,20/03/2019 22:00,11.3,16,,,0,,78,32,200,Dry,1016,8,50,,,,7.7,
Wick,20/03/2019 23:00,10,10,,,0,,84,,180,Dry,1016,8,13,,,,7.5,
Wick,21/03/2019 00:00,10.1,8,,,0,0,90,,180,Dry,1017,5,35,,,,8.6,
Wick,21/03/2019 01:00,10.8,16,,,0,,90,,220,Dry,1017,7,17,,,,9.3,
Wick,21/03/2019 02:00,10.4,16,,,0,,92,,210,Drizzly rain,1017,8,6,,,,9.3,
Wick,21/03/2019 03:00,10.5,16,,,0.2,,92,,210,Rain,1017,4,15,,,,9.4,
Wick,21/03/2019 04:00,8.7,15,,,0.6,,94,,290,Moderate shower,1018,8,3,,,,7.8,
Wick,21/03/2019 05:00,7.6,13,,,0.8,,97,,300,Light drizzle,1019,8,4,,,,7.3,
Wick,21/03/2019 06:00,6.9,12,6.9,,0.2,2,97,,300,Rain,1021,8,15,,,,6.6,
Wick,21/03/2019 07:00,6.6,13,,,0,,97,,300,Rain,1022,1,22,,,,6.3,
Wick,21/03/2019 08:00,6.3,12,,,0.2,,95,,310,Dry,1024,1,23,,,,5.7,
Wick,21/03/2019 09:00,7.3,5,,,0,,91,,230,Dry,1025,7,20,,,,6,
Wick,21/03/2019 10:00,8.8,10,,,0,,80,,260,Dry,1026,8,25,,,,5.7,
Wick,21/03/2019 11:00,10,9,,,0,,65,,260,Dry,1026,8,35,,,,3.8,
Wick,21/03/2019 12:00,10.3,7,,,0,0.2,60,,260,Dry,1027,3,16,,,,3,
Wick,21/03/2019 13:00,10.2,9,,,0,,70,,180,Dry,1027,7,24,,,,5.1,
Wick,21/03/2019 14:00,9.3,12,,,0,,77,,170,Dry,1027,7,30,,,,5.6,
Wick,21/03/2019 15:00,10.3,5,,,0,,73,,170,Dry,1028,3,27,,,,5.7,
Wick,21/03/2019 16:00,9.9,9,,,0,,72,,170,Dry,1027,7,45,,,,5.2,
Wick,21/03/2019 17:00,8.2,8,,,0,,76,,150,Dry,1026,1,27,,,,4.3,
Wick,21/03/2019 18:00,8,10,,10.7,0,0,76,,160,Dry,1026,1,35,,,,4.2,
Wick,21/03/2019 19:00,8.1,10,,,0,,77,,150,Dry,1026,1,24,,,,4.5,
Wick,21/03/2019 20:00,8.2,14,,,0,,83,,140,Dry,1025,2,30,,,,5.6,
Wick,21/03/2019 21:00,8.2,15,,,0,,87,,150,Dry,1024,4,27,,,,6.2,
Wick,21/03/2019 22:00,7.9,16,,,0,,92,,150,Dry,1022,6,14,,,,6.7,
Wick,21/03/2019 23:00,7.9,16,,,0,,95,,140,Dry,1020,0,13,,,,7.2,
Wick,22/03/2019 00:00,8.5,24,,,0,0,94,36,150,Dry,1018,1,13,,,,7.6,
Wick,22/03/2019 01:00,9,24,,,0,,91,35,150,Rain,1017,3,20,,,,7.7,
Wick,22/03/2019 02:00,9.5,20,,,0,,89,35,160,Dry,1015,7,22,,,,7.9,
Wick,22/03/2019 03:00,9.8,22,,,0,,87,33,160,Dry,1014,0,22,,,,7.9,
Wick,22/03/2019 04:00,9.7,20,,,0,,80,30,170,Dry,1014,7,18,,,,6.6,
Wick,22/03/2019 05:00,9.3,14,,,0,,80,32,160,Dry,1013,8,13,,,,6.1,
Wick,22/03/2019 06:00,9.3,20,7.8,,0,0,80,32,180,Dry,1011,8,19,,,,6.1,
Wick,22/03/2019 07:00,9.8,29,,,0,,77,39,190,Dry,1010,0,24,,,,6,
Wick,22/03/2019 08:00,10.4,28,,,0,,73,44,180,Dry,1009,8,40,,,,5.8,
Wick,22/03/2019 09:00,10.1,28,,,0,,75,43,190,Dry,1009,1,35,,,,5.9,
Wick,22/03/2019 10:00,10.6,25,,,0,,74,39,180,Dry,1009,1,30,,,,6.2,
Wick,22/03/2019 11:00,10.7,25,,,0,,79,43,190,Dry,1008,7,18,,,,7.3,
Wick,22/03/2019 12:00,9.3,25,,,1,1,86,41,230,Light shower,1009,7,11,,,,7.2,
Wick,22/03/2019 13:00,10.2,24,,,0,,74,35,230,Rain,1009,1,30,,,,5.9,
Wick,22/03/2019 14:00,11,25,,,0,,66,43,240,Dry,1009,2,16,,,,5.1,
Wick,22/03/2019 15:00,10.2,31,,,0,,60,41,240,Dry,1010,3,30,,,,2.9,
Wick,22/03/2019 16:00,9.9,30,,,0,,55,45,230,Dry,1010,2,35,,,,1.5,
Wick,22/03/2019 17:00,8.2,30,,,0,,57,51,240,Dry,1010,1,35,,,,0.4,
Wick,22/03/2019 18:00,7.1,26,,11.7,0,0,63,40,230,Dry,1011,1,27,,,,0.6,
Wick,22/03/2019 19:00,4.6,28,,,0,,79,48,220,Dry,1012,1,40,,,,1.3,
Wick,22/03/2019 20:00,4.5,25,,,0,,77,45,230,Dry,1012,1,24,,,,1,
Wick,22/03/2019 21:00,4.1,36,,,0,,72,52,230,Dry,1013,0,26,,,,-0.3,
Wick,22/03/2019 22:00,3.2,24,,,0,,80,46,230,Rain,1014,0,30,,,,0.1,
Wick,22/03/2019 23:00,2.4,25,,,0.2,,88,52,240,Rain,1015,1,45,,,,0.7,
Wick,23/03/2019 00:00,2.4,23,,,0,0.2,86,31,230,Dry,1016,0,40,,,,0.4,
Wick,23/03/2019 01:00,2.7,26,,,0,,76,36,240,Dry,1016,0,29,,,,-1.1,
Wick,23/03/2019 02:00,2.4,16,,,0,,75,35,220,Dry,1017,0,20,,,,-1.5,
Wick,23/03/2019 03:00,2.7,24,,,0,,81,31,230,Dry,1017,0,24,,,,-0.2,
Wick,23/03/2019 04:00,2.5,18,,,0,,81,35,230,Dry,1018,1,30,,,,-0.4,
Wick,23/03/2019 05:00,3,16,,,0,,81,29,250,Dry,1018,2,45,,,,0.2,
Wick,23/03/2019 06:00,2.8,24,2.2,,0,0,82,41,230,Dry,1019,1,35,,,,0.1,
Wick,23/03/2019 07:00,2.9,18,,,0,,78,31,250,Dry,1020,0,40,,,,-0.5,
Wick,23/03/2019 08:00,3.6,23,,,0,,81,35,250,Rain,1021,1,30,,,,0.8,
Wick,23/03/2019 09:00,4.9,31,,,0,,75,45,260,Dry,1022,3,21,,,,1,
Wick,23/03/2019 10:00,7.2,32,,,0,,60,44,260,Dry,1022,0,23,,,,0,
Wick,23/03/2019 11:00,7.9,30,,,0,,59,40,260,Dry,1023,2,30,,,,0.5,
Wick,23/03/2019 12:00,8.2,29,,,0,0,53,46,260,Dry,1024,2,45,,,,-0.8,
Wick,23/03/2019 13:00,8.6,33,,,0,,55,45,260,Dry,1025,4,28,,,,0.2,
Wick,23/03/2019 14:00,7.4,26,,,0,,62,41,270,Dry,1025,2,35,,,,0.7,
Wick,23/03/2019 15:00,8.2,26,,,0,,56,38,240,Dry,1025,5,23,,,,0.1,
Wick,23/03/2019 16:00,8,24,,,0,,57,35,250,Dry,1026,3,20,,,,0.2,
Wick,23/03/2019 17:00,6.9,17,,,0,,72,35,250,Rain,1026,5,45,,,,2.3,
Wick,23/03/2019 18:00,6.5,14,,9.5,0,0,71,,230,Dry,1026,3,40,,,,1.8,
Wick,23/03/2019 19:00,5.1,17,,,0,,79,30,220,Rain,1026,1,35,,,,1.9,
Wick,23/03/2019 20:00,4.4,20,,,0,,85,36,230,Rain,1026,4,35,,,,2.2,
Wick,23/03/2019 21:00,5.1,23,,,0,,79,30,220,Dry,1025,4,45,,,,1.8,
Wick,23/03/2019 22:00,4.6,21,,,0,,82,29,230,Light shower,1025,6,40,,,,1.8,
Wick,23/03/2019 23:00,4.2,18,,,0,,80,30,220,Rain,1024,0,50,,,,1.2,
Wick,24/03/2019 00:00,4.3,16,,,0,0,78,,200,Dry,1023,0,45,,,,0.9,
Wick,24/03/2019 01:00,4.7,17,,,0,,78,,210,Dry,1022,7,40,,,,1.2,
Wick,24/03/2019 02:00,4.1,13,,,0,,83,,190,Dry,1021,7,50,,,,1.6,
Wick,24/03/2019 03:00,4.5,16,,,0,,84,,200,Dry,1020,7,40,,,,2.1,
Wick,24/03/2019 04:00,4.5,17,,,0,,82,,200,Dry,1019,0,50,,,,1.7,
Wick,24/03/2019 05:00,4.4,16,,,0,,81,,210,Dry,1018,2,45,,,,1.6,
Wick,24/03/2019 06:00,4,22,4,,0,0,80,30,220,Dry,1016,4,45,,,,0.9,
Wick,24/03/2019 07:00,4.6,22,,,0,,80,37,210,Dry,1016,1,50,,,,1.6,
Wick,24/03/2019 08:00,5.6,17,,,0,,83,31,240,Rain,1015,4,30,,,,3.1,
Wick,24/03/2019 09:00,5.4,20,,,0.2,,85,32,220,Light shower,1014,1,19,,,,3.1,
Wick,24/03/2019 10:00,7.4,25,,,0,,78,37,260,Rain,1014,4,35,,,,3.9,
Wick,24/03/2019 11:00,5.7,25,,,0.2,,83,44,250,Rain,1014,7,35,,,,3.2,
Wick,24/03/2019 12:00,8.6,29,,,0,0.4,71,39,260,Dry,1014,7,22,,,,3.8,
Wick,24/03/2019 13:00,6.6,26,,,0,,77,41,260,Rain,1014,5,28,,,,3,
Wick,24/03/2019 14:00,6.3,31,,,0.2,,69,46,280,Rain,1014,1,35,,,,1.2,
Wick,24/03/2019 15:00,5.8,30,,,0,,82,48,270,Rain,1014,1,15,,,,3,
Wick,24/03/2019 16:00,7.1,30,,,0,,67,45,270,Dry,1014,2,13,,,,1.4,
Wick,24/03/2019 17:00,4.5,23,,,0.8,,91,54,280,Light drizzle,1015,1,7,,,,3.2,
Wick,24/03/2019 18:00,4.6,29,,8.8,0.6,1.6,90,45,270,Rain,1015,3,17,,,,3.2,
Wick,24/03/2019 19:00,4.4,31,,,0.4,,92,47,280,Rain,1015,7,24,,,,3.3,
Wick,24/03/2019 20:00,5.3,33,,,0.4,,85,51,300,Rain,1016,1,20,,,,3,
Wick,24/03/2019 21:00,5.7,33,,,0,,83,46,300,Dry,1017,4,15,,,,3.1,
Wick,24/03/2019 22:00,4.9,24,,,0,,86,40,290,Dry,1019,4,16,,,,2.9,
Wick,24/03/2019 23:00,5.4,24,,,0,,86,35,300,Dry,1020,2,16,,,,3.4,
Wick,25/03/2019 00:00,4.4,26,,,0.4,1,88,40,310,Rain,1022,1,45,,,,2.6,
Wick,25/03/2019 01:00,5.3,22,,,0,,80,36,310,Dry,1023,1,17,,,,2.3,
Wick,25/03/2019 02:00,5.8,25,,,0,,79,38,300,Rain,1024,6,14,,,,2.6,
Wick,25/03/2019 03:00,6.2,22,,,0,,74,33,310,Rain,1025,8,18,,,,2.1,
Wick,25/03/2019 04:00,5.9,21,,,0,,74,30,310,Dry,1025,8,24,,,,1.7,
Wick,25/03/2019 05:00,5.4,22,,,0,,77,30,310,Dry,1026,1,23,,,,1.8,
Wick,25/03/2019 06:00,4.4,14,3.7,,0,0,88,,300,Dry,1027,3,14,,,,2.7,
Wick,25/03/2019 07:00,5.2,16,,,0.8,,93,,310,Light shower,1028,7,12,,,,4.2,
Wick,25/03/2019 08:00,5.8,10,,,0,,90,,300,Rain,1029,7,14,,,,4.4,
Wick,25/03/2019 09:00,7.1,21,,,0,,72,,290,Dry,1029,1,19,,,,2.5,
Wick,25/03/2019 10:00,7.4,22,,,0,,73,30,290,Dry,1030,2,18,,,,3,
Wick,25/03/2019 11:00,7.6,20,,,0,,69,,300,Dry,1030,7,27,,,,2.4,
Wick,25/03/2019 12:00,8,18,,,0,0.8,69,,280,Dry,1030,8,26,,,,2.8,
Wick,25/03/2019 13:00,8.3,18,,,0,,66,,280,Dry,1030,7,22,,,,2.4,
Wick,25/03/2019 14:00,9,22,,,0,,67,32,280,Dry,1030,7,23,,,,3.4,
Wick,25/03/2019 15:00,8.4,20,,,0,,72,30,280,Dry,1030,3,35,,,,3.8,
Wick,25/03/2019 16:00,8.2,17,,,0,,71,,280,Dry,1030,8,25,,,,3.3,
Wick,25/03/2019 17:00,8.3,17,,,0,,72,,280,Dry,1030,8,24,,,,3.7,
Wick,25/03/2019 18:00,7.8,10,,9.5,0,0,77,,270,Dry,1030,7,18,,,,4.2,
Wick,25/03/2019 19:00,6.9,13,,,0,,82,,260,Dry,1030,8,35,,,,4.2,
Wick,25/03/2019 20:00,6.4,9,,,0,,86,,240,Dry,1030,4,35,,,,4.3,
Wick,25/03/2019 21:00,6.7,9,,,0,,84,,220,Dry,1030,8,35,,,,4.2,
Wick,25/03/2019 22:00,6.6,12,,,0,,81,,230,Dry,1030,7,45,,,,3.7,
Wick,25/03/2019 23:00,6.6,10,,,0,,84,,230,Dry,1029,7,35,,,,4.1,
Wick,26/03/2019 00:00,6.6,12,,,0,0,82,,240,Dry,1029,7,45,,,,3.9,
Wick,26/03/2019 01:00,5.9,9,,,0,,87,,220,Rain,1029,8,50,,,,4,
Wick,26/03/2019 02:00,6,12,,,0,,85,,200,Dry,1028,5,50,,,,3.8,
Wick,26/03/2019 03:00,5.4,8,,,0,,86,,200,Dry,1028,3,50,,,,3.3,
Wick,26/03/2019 04:00,5.1,9,,,0,,87,,220,Dry,1027,6,45,,,,3.2,
Wick,26/03/2019 05:00,5.4,8,,,0,,85,,210,Dry,1026,6,50,,,,3.2,
Wick,26/03/2019 06:00,5.3,12,4.9,,0,0,87,,230,Dry,1026,6,50,,,,3.4,
Wick,26/03/2019 07:00,5.7,12,,,0,,85,,240,Dry,1026,7,40,,,,3.5,
Wick,26/03/2019 08:00,7.6,16,,,0,,79,,220,Dry,1025,8,40,,,,4.3,
Wick,26/03/2019 09:00,8.5,17,,,0,,75,29,230,Dry,1025,2,50,,,,4.5,
Wick,26/03/2019 10:00,9,20,,,0,,77,,240,Dry,1025,8,50,,,,5.2,
Wick,26/03/2019 11:00,9.6,18,,,0,,76,,240,Dry,1024,7,45,,,,5.7,
Wick,26/03/2019 12:00,10.4,26,,,0,0,75,38,250,Dry,1024,8,29,,,,6.2,
Wick,26/03/2019 13:00,10.8,25,,,0,,74,35,240,Dry,1024,8,40,,,,6.4,
Wick,26/03/2019 14:00,11.2,24,,,0,,74,37,250,Dry,1024,8,50,,,,6.8,
Wick,26/03/2019 15:00,11.2,25,,,0,,75,36,250,Dry,1024,7,45,,,,7,
Wick,26/03/2019 16:00,11.1,25,,,0,,77,37,260,Dry,1023,8,50,,,,7.4,
Wick,26/03/2019 17:00,10.9,20,,,0,,79,37,260,Dry,1024,8,50,,,,7.5,
Wick,26/03/2019 18:00,10.4,20,,11.5,0,0,81,,260,Dry,1024,8,40,,,,7.3,
Wick,26/03/2019 19:00,10.2,13,,,0,,81,29,240,Dry,1024,6,35,,,,7.2,
Wick,26/03/2019 20:00,10.2,15,,,0,,81,,240,Dry,1025,7,40,,,,7.1,
Wick,26/03/2019 21:00,10.1,15,,,0,,80,,240,Dry,1025,8,45,,,,6.9,
Wick,26/03/2019 22:00,10.2,20,,,0,,81,,250,Dry,1025,8,50,,,,7.1,
Wick,26/03/2019 23:00,10.2,17,,,0,,83,,230,Dry,1026,8,35,,,,7.6,
Wick,27/03/2019 00:00,10.1,21,,,0,0,83,29,250,Dry,1025,1,40,,,,7.5,
Wick,27/03/2019 01:00,10.2,18,,,0,,83,,240,Dry,1025,8,20,,,,7.5,
Wick,27/03/2019 02:00,9.8,15,,,0,,84,,230,Dry,1025,8,24,,,,7.3,
Wick,27/03/2019 03:00,10,15,,,0,,83,,230,Dry,1025,8,26,,,,7.4,
Wick,27/03/2019 04:00,9.9,15,,,0,,84,,240,Light shower,1025,1,20,,,,7.4,
Wick,27/03/2019 05:00,9.6,16,,,0,,86,,230,Drizzly rain,1025,7,22,,,,7.4,
Wick,27/03/2019 06:00,10,20,9.6,,0,0,80,29,250,Rain,1025,8,27,,,,6.8,
Wick,27/03/2019 07:00,10,21,,,0,,78,29,250,Dry,1025,8,29,,,,6.4,
Wick,27/03/2019 08:00,10.1,17,,,0,,78,,240,Dry,1025,8,35,,,,6.5,
Wick,27/03/2019 09:00,10.2,18,,,0,,77,,230,Dry,1026,8,30,,,,6.5,
Wick,27/03/2019 10:00,10,15,,,0,,85,,230,Light shower,1026,8,25,,,,7.7,
Wick,27/03/2019 11:00,11.4,17,,,0,,78,,230,Rain,1026,8,30,,,,7.8,
Wick,27/03/2019 12:00,11.8,22,,,0,0,75,,230,Dry,1026,8,23,,,,7.7,
Wick,27/03/2019 13:00,11.8,18,,,0,,75,31,230,Dry,1027,7,35,,,,7.6,
Wick,27/03/2019 14:00,12.6,22,,,0,,70,31,240,Dry,1026,5,23,,,,7.4,
Wick,27/03/2019 15:00,12.4,18,,,0,,72,29,240,Dry,1027,8,30,,,,7.5,
Wick,27/03/2019 16:00,12.8,23,,,0,,73,30,240,Dry,1026,8,35,,,,8.1,
Wick,27/03/2019 17:00,12.6,22,,,0,,73,32,240,Dry,1027,8,30,,,,8,
Wick,27/03/2019 18:00,11.6,23,,13.7,0,0,76,35,250,Dry,1027,7,35,,,,7.6,
Wick,27/03/2019 19:00,10.4,20,,,0,,81,29,230,Dry,1027,6,40,,,,7.4,
Wick,27/03/2019 20:00,9.9,16,,,0,,84,,240,Dry,1028,7,22,,,,7.4,
Wick,27/03/2019 21:00,10.3,16,,,0,,80,,230,Dry,1028,8,22,,,,7.1,
Wick,27/03/2019 22:00,10.3,22,,,0,,75,30,210,Dry,1028,8,25,,,,6.2,
Wick,27/03/2019 23:00,9.5,15,,,0,,77,30,190,Dry,1028,8,29,,,,5.8,
Wick,28/03/2019 00:00,8.8,21,,,0,0,81,31,190,Dry,1028,7,24,,,,5.8,
Wick,28/03/2019 01:00,9.6,20,,,0,,75,,210,Dry,1028,1,35,,,,5.4,
Wick,28/03/2019 02:00,8.4,20,,,0,,83,,200,Dry,1028,0,18,,,,5.8,
Wick,28/03/2019 03:00,8.6,17,,,0,,83,,190,Dry,1028,5,19,,,,5.9,
Wick,28/03/2019 04:00,8.5,20,,,0,,83,29,190,Dry,1027,7,20,,,,5.8,
Wick,28/03/2019 05:00,8.4,21,,,0,,84,30,190,Dry,1027,4,15,,,,6,
Wick,28/03/2019 06:00,8.6,20,7.9,,0,0,85,29,210,Dry,1027,7,24,,,,6.3,
Wick,28/03/2019 07:00,8.3,18,,,0,,87,29,180,Dry,1027,2,14,,,,6.4,
Wick,28/03/2019 08:00,9.3,18,,,0,,83,,190,Dry,1026,0,24,,,,6.7,
Wick,28/03/2019 09:00,9.7,16,,,0,,80,,170,Dry,1026,6,24,,,,6.6,
Wick,28/03/2019 10:00,10.2,20,,,0,,79,30,190,Dry,1026,2,30,,,,6.8,
Wick,28/03/2019 11:00,11.1,22,,,0,,74,31,190,Dry,1025,2,30,,,,6.8,
Wick,28/03/2019 12:00,10.7,21,,,0,0,75,31,200,Dry,1025,4,14,,,,6.6,
Wick,28/03/2019 13:00,10.5,28,,,0,,75,35,200,Dry,1024,1,15,,,,6.3,
Wick,28/03/2019 14:00,10.4,14,,,0,,76,33,180,Dry,1024,4,20,,,,6.4,
Wick,28/03/2019 15:00,10,25,,,0,,77,35,200,Dry,1023,1,21,,,,6.2,
Wick,28/03/2019 16:00,9.6,12,,,0,,80,33,170,Dry,1023,1,19,,,,6.5,
Wick,28/03/2019 17:00,9.9,13,,,0,,73,,190,Dry,1022,7,22,,,,5.4,
Wick,28/03/2019 18:00,9.3,22,,11.4,0,0,72,29,210,Dry,1021,0,30,,,,4.6,
Wick,28/03/2019 19:00,9.1,13,,,0,,72,,210,Dry,1022,7,29,,,,4.4,
Wick,28/03/2019 20:00,9.3,13,,,0,,69,,190,Dry,1022,1,30,,,,4.1,
Wick,28/03/2019 21:00,8.7,13,,,0,,72,,170,Dry,1021,1,26,,,,4.1,
Wick,28/03/2019 22:00,8.3,12,,,0,,73,,190,Dry,1021,0,30,,,,3.8,
Wick,28/03/2019 23:00,8.2,10,,,0,,75,,200,Dry,1021,6,30,,,,4.1,
Wick,29/03/2019 00:00,7.7,9,,,0,0,77,,210,Dry,1020,2,28,,,,4,
Wick,29/03/2019 01:00,8.2,15,,,0,,74,,210,Dry,1020,6,23,,,,4,
Wick,29/03/2019 02:00,8.6,15,,,0,,71,,220,Dry,1020,8,30,,,,3.8,
Wick,29/03/2019 03:00,8.3,15,,,0,,70,,220,Dry,1019,5,28,,,,3.3,
Wick,29/03/2019 04:00,7.8,12,,,0,,72,,220,Dry,1018,1,30,,,,3.2,
Wick,29/03/2019 05:00,7.2,10,,,0,,75,,220,Dry,1018,0,30,,,,3.2,
Wick,29/03/2019 06:00,7.9,14,6.7,,0,0,74,,220,Dry,1018,0,30,,,,3.7,
Wick,29/03/2019 07:00,8.7,14,,,0,,73,,190,Dry,1018,0,35,,,,4.2,
Wick,29/03/2019 08:00,10.2,18,,,0,,73,24,210,Dry,1018,0,30,,,,5.6,
Wick,29/03/2019 09:00,11.1,24,,,0,,73,32,230,Dry,1018,2,50,,,,6.6,
Wick,29/03/2019 10:00,12.8,35,,,0,,65,45,230,Dry,1017,3,35,,,,6.4,
Wick,29/03/2019 11:00,12.5,28,,,0,,64,46,240,Dry,1017,1,40,,,,5.9,
Wick,29/03/2019 12:00,13.6,30,,,0,0,59,41,230,Dry,1017,4,30,,,,5.8,
Wick,29/03/2019 13:00,12.5,30,,,0,,64,41,230,Dry,1018,7,40,,,,6,
Wick,29/03/2019 14:00,9.3,16,,,0,,83,39,300,Dry,1018,1,40,,,,6.7,
Wick,29/03/2019 15:00,8.6,14,,,0,,88,,290,Dry,1018,8,50,,,,6.8,
Wick,29/03/2019 16:00,7.9,12,,,0.4,,94,,290,Rain,1018,8,17,,,,7,
Wick,29/03/2019 17:00,7.5,13,,,0,,93,,290,Dry,1018,7,21,,,,6.5,
Wick,29/03/2019 18:00,7.4,12,,14.3,0,0.4,92,,290,Dry,1018,6,40,,,,6.3,
Wick,29/03/2019 19:00,6.6,9,,,0,,96,,300,Misty,1018,8,5,,,,6.1,
Wick,29/03/2019 20:00,6.3,6,,,0.2,,97,,280,Misty,1019,8,4,,,,6,
Wick,29/03/2019 21:00,6,7,,,0,,97,,290,Misty,1019,4,4,,,,5.7,
Wick,29/03/2019 22:00,5.8,12,,,0.2,,97,,280,Misty,1019,8,9,,,,5.5,
Wick,29/03/2019 23:00,5.6,9,,,0,,96,,280,Dry,1018,7,35,,,,5.1,
Wick,30/03/2019 00:00,5.2,12,,,0,0.4,94,,290,Dry,1018,1,40,,,,4.4,
Wick,30/03/2019 01:00,5,9,,,0,,94,,260,Dry,1018,8,35,,,,4.2,
Wick,30/03/2019 02:00,4.8,9,,,0,,91,,270,Dry,1018,7,26,,,,3.6,
Wick,30/03/2019 03:00,4.5,12,,,0,,90,,270,Dry,1018,7,35,,,,3.1,
Wick,30/03/2019 04:00,4.3,7,,,0,,91,,250,Light shower,1017,8,45,,,,3,
Wick,30/03/2019 05:00,4.2,6,,,0,,90,,230,Rain,1017,7,50,,,,2.8,
Wick,30/03/2019 06:00,4.2,14,4.2,,0,0,88,,250,Dry,1017,7,40,,,,2.4,
Wick,30/03/2019 07:00,4.2,13,,,0,,88,,260,Rain,1017,7,35,,,,2.4,
Wick,30/03/2019 08:00,5.1,12,,,0,,85,,240,Dry,1018,4,22,,,,2.9,
Wick,30/03/2019 09:00,6.1,14,,,0,,76,,250,Dry,1018,3,40,,,,2.2,
Wick,30/03/2019 10:00,5.2,24,,,0,,80,32,260,Dry,1018,3,29,,,,2.1,
Wick,30/03/2019 11:00,6.8,21,,,0,,84,37,260,Dry,1018,2,19,,,,4.3,
Wick,30/03/2019 12:00,6.9,24,,,0,0,71,47,260,Dry,1018,5,27,,,,2.1,
Wick,30/03/2019 13:00,8.4,32,,,0,,57,43,280,Dry,1019,3,30,,,,0.4,
Wick,30/03/2019 14:00,7.7,26,,,0,,62,46,290,Dry,1019,3,23,,,,1.1,
Wick,30/03/2019 15:00,7.2,30,,,0,,59,40,290,Rain,1020,3,30,,,,-0.2,
Wick,30/03/2019 16:00,6.5,28,,,0,,66,40,310,Dry,1021,4,30,,,,0.7,
Wick,30/03/2019 17:00,5.6,21,,,0,,68,38,320,Dry,1022,6,25,,,,0.3,
Wick,30/03/2019 18:00,4.8,18,,9,0,0,70,31,310,Dry,1022,1,19,,,,-0.1,
Wick,30/03/2019 19:00,3.4,17,,,0.2,,84,,320,Light shower,1023,6,10,,,,1.1,
Wick,30/03/2019 20:00,2.8,16,,,0,,87,,360,Rain,1024,1,35,,,,1,
Wick,30/03/2019 21:00,1,6,,,0,,91,,310,Dry,1025,1,24,,,,-0.3,
Wick,30/03/2019 22:00,0.4,6,,,0,,93,,270,Dry,1026,5,22,,,,-0.5,
Wick,30/03/2019 23:00,1.8,7,,,0,,92,,290,Light shower,1027,8,9,,,,0.7,
Wick,31/03/2019 00:00,1.5,7,,,0,0.2,94,,250,Moderate precip.,1027,7,16,,,,0.7,
Wick,31/03/2019 01:00,-0.4,7,,,0,,93,,270,Precipitation,1028,1,28,,,,-1.3,
Wick,31/03/2019 02:00,-0.2,5,,,0,,95,,250,Dry,1028,5,30,,,,-0.8,
Wick,31/03/2019 03:00,0.3,5,,,0,,96,,220,Dry,1028,7,25,,,,-0.2,
Wick,31/03/2019 04:00,-0.3,6,,,0,,94,,260,Dry,1028,7,45,,,,-1.1,
Wick,31/03/2019 05:00,-0.4,5,,,0,,92,,230,Dry,1028,8,35,,,,-1.4,
Wick,31/03/2019 06:00,-0.5,5,-1.5,,0,0,91,,250,Dry,1028,8,40,,,,-1.7,
Wick,31/03/2019 07:00,0.3,5,,,0,,87,,230,Dry,1029,8,45,,,,-1.5,
Wick,31/03/2019 08:00,3,3,,,0,,77,,190,Dry,1029,8,35,,,,-0.5,
Wick,31/03/2019 09:00,4.2,10,,,0,,76,,190,Dry,1029,7,35,,,,0.5,
Wick,31/03/2019 10:00,5.5,14,,,0,,74,,200,Dry,1029,7,20,,,,1.4,
Wick,31/03/2019 11:00,6.6,14,,,0,,63,,200,Dry,1029,1,30,,,,0.2,
Wick,31/03/2019 12:00,7.7,14,,,0,0,56,,190,Dry,1029,6,35,,,,-0.3,
Wick,31/03/2019 13:00,7.2,15,,,0,,55,,190,Dry,1029,7,50,,,,-1.1,
Wick,31/03/2019 14:00,7.1,15,,,0,,50,,180,Dry,1028,7,40,,,,-2.5,
Wick,31/03/2019 15:00,7.4,16,,,0,,44,,190,Dry,1028,5,30,,,,-4,
Wick,31/03/2019 16:00,6.9,13,,,0,,48,,180,Dry,1028,8,50,,,,-3.1,
Wick,31/03/2019 17:00,6.6,14,,,0,,60,,180,Dry,1027,8,35,,,,-0.6,
Wick,31/03/2019 18:00,6.3,12,,8,0,0,62,,160,Dry,1027,6,35,,,,-0.4,
Wick,31/03/2019 19:00,5.9,8,,,0,,61,,170,Dry,1027,1,40,,,,-0.9,
Wick,31/03/2019 20:00,6.1,9,,,0,,69,,160,Dry,1026,1,40,,,,0.9,
Wick,31/03/2019 21:00,6.1,12,,,0,,73,,160,Dry,1026,0,35,,,,1.8,
Wick,31/03/2019 22:00,5.5,9,,,0,,77,,170,Dry,1026,3,30,,,,1.9,
Wick,31/03/2019 23:00,4.9,7,,,0,,81,,170,Dry,1025,7,28,,,,2,
Wick,01/04/2019 00:00,4,6,,,0,0,87,,190,Dry,1025,0,24,,,,2.1,
Wick,01/04/2019 01:00,3.3,6,,,0,,84,,160,Dry,1024,0,40,,,,1,
Wick,01/04/2019 02:00,3.7,7,,,0,,88,,170,Dry,1023,3,29,,,,1.9,
Wick,01/04/2019 03:00,3.5,12,,,0,,84,,180,Dry,1022,0,45,,,,1.2,
Wick,01/04/2019 04:00,3.8,13,,,0,,82,,180,Dry,1022,0,45,,,,1.1,
Wick,01/04/2019 05:00,3.9,8,,,0,,85,,170,Dry,1021,7,30,,,,1.7,
Wick,01/04/2019 06:00,4.4,13,3.1,,0,0,82,,180,Dry,1020,7,30,,,,1.7,
Wick,01/04/2019 07:00,4.9,13,,,0,,81,,170,Dry,1020,0,30,,,,2,
Wick,01/04/2019 08:00,5.9,14,,,0,,78,,170,Dry,1019,1,35,,,,2.5,
Wick,01/04/2019 09:00,6.7,18,,,0,,69,29,170,Dry,1018,0,45,,,,1.6,
Wick,01/04/2019 10:00,7.1,18,,,0,,69,,180,Dry,1018,6,29,,,,1.9,
Wick,01/04/2019 11:00,7.5,17,,,0,,69,,170,Dry,1016,7,29,,,,2.3,
Wick,01/04/2019 12:00,7.4,21,,,0,0,70,31,160,Dry,1015,7,29,,,,2.4,
Wick,01/04/2019 13:00,7.8,18,,,0,,70,32,160,Dry,1014,8,15,,,,2.7,
Wick,01/04/2019 14:00,7.7,23,,,0,,68,36,160,Dry,1012,1,19,,,,2.2,
Wick,01/04/2019 15:00,7.8,21,,,0,,67,33,170,Dry,1011,7,23,,,,2.1,
Wick,01/04/2019 16:00,7.6,16,,,0,,66,32,160,Dry,1010,7,24,,,,1.7,
Wick,01/04/2019 17:00,7.1,21,,,0,,67,31,160,Dry,1009,7,16,,,,1.6,
Wick,01/04/2019 18:00,6.9,21,,8.3,0,0,72,35,160,Light shower,1008,8,20,,,,2.4,
Wick,01/04/2019 19:00,6.6,20,,,0,,73,37,170,Rain,1007,7,21,,,,2.3,
Wick,01/04/2019 20:00,6.5,17,,,0,,79,30,180,Dry,1006,3,18,,,,3.2,
Wick,01/04/2019 21:00,6.3,16,,,0,,79,30,170,Dry,1005,8,35,,,,3,
Wick,01/04/2019 22:00,6.3,17,,,0,,77,29,170,Dry,1004,8,35,,,,2.7,
Wick,01/04/2019 23:00,6.3,17,,,0,,78,,180,Dry,1004,8,45,,,,2.8,
Wick,02/04/2019 00:00,5.2,16,,,0,0,81,,230,Dry,1004,4,50,,,,2.3,
Wick,02/04/2019 01:00,3.2,9,,,0,,91,,260,Dry,1004,8,50,,,,1.9,
Wick,02/04/2019 02:00,3.6,6,,,0.2,,89,,220,Drizzly rain,1004,8,45,,,,2.1,
Wick,02/04/2019 03:00,3.2,3,,,0,,88,,200,Rain,1003,8,40,,,,1.5,
Wick,02/04/2019 04:00,3.6,5,,,0,,82,,180,Dry,1002,8,35,,,,0.9,
Wick,02/04/2019 05:00,3.2,3,,,0,,84,,240,Dry,1002,7,50,,,,0.8,
Wick,02/04/2019 06:00,2.7,5,2.7,,0,0.2,86,,230,Dry,1002,8,50,,,,0.6,
Wick,02/04/2019 07:00,2.6,2,,,0,,83,,250,Dry,1001,8,50,,,,0.1,
Wick,02/04/2019 08:00,2.3,6,,,0,,87,,290,Dry,1001,8,40,,,,0.4,
Wick,02/04/2019 09:00,3.3,6,,,0,,83,,290,Dry,1001,8,45,,,,0.8,
Wick,02/04/2019 10:00,4.7,8,,,0,,78,,290,Dry,1001,7,30,,,,1.2,
Wick,02/04/2019 11:00,5.4,8,,,0,,74,,340,Dry,1001,8,30,,,,1.3,
Wick,02/04/2019 12:00,6.1,12,,,0,0,70,,350,Dry,1001,7,29,,,,1.2,
Wick,02/04/2019 13:00,6.8,13,,,0,,69,,350,Dry,1001,1,29,,,,1.7,
Wick,02/04/2019 14:00,5,13,,,0.2,,83,,10,Light shower,1001,8,15,,,,2.4,
Wick,02/04/2019 15:00,5.3,13,,,0.2,,84,,330,Rain,1001,8,35,,,,2.9,
Wick,02/04/2019 16:00,5.2,22,,,0,,85,29,360,Dry,1001,8,30,,,,3,
Wick,02/04/2019 17:00,4.6,24,,,0,,86,32,360,Light shower,1001,8,10,,,,2.6,
Wick,02/04/2019 18:00,4.4,24,,6.9,0.2,0.6,91,38,350,Light shower,1002,8,19,,,,3.1,
Wick,02/04/2019 19:00,5.1,28,,,0.2,,83,41,360,Light shower,1002,8,19,,,,2.6,
Wick,02/04/2019 20:00,4.6,30,,,0.2,,88,40,360,Light shower,1002,8,30,,,,2.9,
Wick,02/04/2019 21:00,4.5,33,,,0.2,,89,44,350,Light shower,1002,3,9,,,,3,
Wick,02/04/2019 22:00,4.5,31,,,0.4,,89,46,350,Rain,1002,2,21,,,,3,
Wick,02/04/2019 23:00,4.8,30,,,0.4,,90,46,350,Rain,1002,8,11,,,,3.4,
Wick,03/04/2019 00:00,4.4,29,,,1,2,91,49,350,Moderate rain,1002,1,8,,,,3.1,
Wick,03/04/2019 01:00,4,33,,,0.6,,88,47,340,Light rain,1002,8,17,,,,2.3,
Wick,03/04/2019 02:00,4,32,,,0.2,,89,48,340,Moderate rain,1001,8,5,,,,2.5,
Wick,03/04/2019 03:00,3.8,33,,,0.8,,92,52,340,Light rain,1000,8,6,,,,2.7,
Wick,03/04/2019 04:00,3.9,33,,,1,,93,51,340,Moderate rain,1000,7,5,,,,3,
Wick,03/04/2019 05:00,4.7,39,,,1.2,,94,54,350,Moderate rain,999,8,4,,,,3.9,
Wick,03/04/2019 06:00,4.8,38,3,,0.8,5,98,52,360,Moderate rain,999,6,5,,,,4.6,
Wick,03/04/2019 07:00,6,32,,,1,,98,47,360,Light rain,999,8,6,,,,5.8,
Wick,03/04/2019 08:00,6.1,30,,,1.6,,95,44,20,Moderate rain,999,8,6,,,,5.5,
Wick,03/04/2019 09:00,6,36,,,1.6,,96,47,20,Light rain,1000,5,5,,,,5.5,
Wick,03/04/2019 10:00,5.7,36,,,0.2,,92,49,30,Rain,1001,8,10,,,,4.6,
Wick,03/04/2019 11:00,5.3,38,,,1.4,,93,52,30,Light rain,1001,7,7,,,,4.4,
Wick,03/04/2019 12:00,5.2,38,,,1.8,8,93,51,30,Light rain,1001,8,6,,,,4.2,
Wick,03/04/2019 13:00,6.1,35,,,1.6,,95,47,40,Rain,1002,8,7,,,,5.4,
Wick,03/04/2019 14:00,6.7,28,,,0.4,,96,43,50,Rain,1002,8,7,,,,6.2,
Wick,03/04/2019 15:00,7.5,17,,,0.2,,87,35,80,Rain,1002,8,20,,,,5.6,
Wick,03/04/2019 16:00,7,16,,,0,,86,,90,Dry,1003,7,18,,,,4.9,
Wick,03/04/2019 17:00,7.2,15,,,0,,72,,100,Dry,1004,5,40,,,,2.6,
Wick,03/04/2019 18:00,6.9,14,,7.9,0,2,74,,100,Dry,1005,7,26,,,,2.7,
Wick,03/04/2019 19:00,6.2,10,,,0,,74,,100,Dry,1005,6,26,,,,2.1,
Wick,03/04/2019 20:00,5.8,7,,,0,,77,,90,Dry,1006,8,24,,,,2.2,
Wick,03/04/2019 21:00,5.7,8,,,0,,79,,80,Dry,1006,7,24,,,,2.4,
Wick,03/04/2019 22:00,5.7,8,,,0,,86,,50,Dry,1006,8,13,,,,3.6,
Wick,03/04/2019 23:00,6,8,,,0,,89,,40,Dry,1005,2,16,,,,4.4,
Wick,04/04/2019 00:00,5.3,9,,,1,1,90,,90,Moderate shower,1005,3,19,,,,3.9,
Wick,04/04/2019 01:00,6.3,15,,,0.4,,93,,50,Light shower,1004,8,11,,,,5.3,
Wick,04/04/2019 02:00,6,20,,,1,,94,,60,Moderate rain,1004,8,8,,,,5.2,
Wick,04/04/2019 03:00,6.4,25,,,2,,97,33,60,Light rain,1003,8,7,,,,6.1,
Wick,04/04/2019 04:00,6.1,21,,,0.4,,95,37,80,Moderate rain,1002,8,4,,,,5.5,
Wick,04/04/2019 05:00,5.9,15,,,1.4,,97,29,50,Light rain,1002,3,4,,,,5.6,
Wick,04/04/2019 06:00,6.5,23,4.9,,0.6,6,91,30,40,Rain,1001,8,13,,,,5.2,
Wick,04/04/2019 07:00,6.9,28,,,0.4,,87,36,40,Rain,1000,7,13,,,,4.9,
Wick,04/04/2019 08:00,7.1,31,,,0,,87,40,50,Rain,1000,8,12,,,,5.1,
Wick,04/04/2019 09:00,7.3,29,,,0,,88,40,50,Rain,999,3,9,,,,5.5,
Wick,04/04/2019 10:00,7,26,,,0.8,,93,40,70,Light shower,1000,8,6,,,,6.1,
Wick,04/04/2019 11:00,6.9,26,,,2,,93,37,90,Moderate rain,1000,8,5,,,,6,
Wick,04/04/2019 12:00,6.5,17,,,1,4,92,35,100,Light rain,1000,8,15,,,,5.3,
Wick,04/04/2019 13:00,6.4,13,,,0,,90,,110,Rain,1001,8,19,,,,4.9,
Wick,04/04/2019 14:00,6.7,13,,,0,,90,,110,Dry,1001,8,30,,,,5.3,
Wick,04/04/2019 15:00,7.2,12,,,0,,87,,120,Dry,1001,7,40,,,,5.2,
Wick,04/04/2019 16:00,7.2,12,,,0,,85,,110,Dry,1002,7,40,,,,4.9,
Wick,04/04/2019 17:00,6.9,10,,,0,,85,,110,Dry,1002,7,30,,,,4.6,
Wick,04/04/2019 18:00,6.7,10,,7.6,0,0,87,,100,Dry,1003,5,40,,,,4.7,
Wick,04/04/2019 19:00,6.4,9,,,0,,87,,110,Dry,1004,8,35,,,,4.4,
Wick,04/04/2019 20:00,6.5,10,,,0,,89,,100,Dry,1004,8,35,,,,4.9,
Wick,04/04/2019 21:00,6.8,13,,,0,,88,,100,Dry,1004,8,30,,,,5.1,
Wick,04/04/2019 22:00,6.8,14,,,0,,90,,100,Dry,1005,8,30,,,,5.3,
Wick,04/04/2019 23:00,6.9,13,,,0,,89,,100,Dry,1005,8,25,,,,5.3,
Wick,05/04/2019 00:00,6.9,14,,,0,0,91,,100,Rain,1005,3,20,,,,5.6,
Wick,05/04/2019 01:00,6.8,14,,,0,,90,,100,Dry,1005,8,23,,,,5.4,
Wick,05/04/2019 02:00,6.6,14,,,0,,92,,100,Drizzle,1006,8,11,,,,5.5,
Wick,05/04/2019 03:00,6.7,13,,,0,,85,,110,Dry,1006,8,25,,,,4.5,
Wick,05/04/2019 04:00,6.4,15,,,0,,78,,110,Dry,1006,8,40,,,,2.9,
Wick,05/04/2019 05:00,6.2,15,,,0,,84,,110,Dry,1007,8,45,,,,3.8,
Wick,05/04/2019 06:00,6.3,14,6.1,,0,0,85,,110,Dry,1007,8,40,,,,4,
Wick,05/04/2019 07:00,6.4,14,,,0,,85,,110,Dry,1008,7,40,,,,4.1,
Wick,05/04/2019 08:00,6.8,13,,,0,,85,,120,Dry,1009,6,20,,,,4.5,
Wick,05/04/2019 09:00,7.9,14,,,0,,81,,120,Dry,1009,1,30,,,,4.9,
Wick,05/04/2019 10:00,7.4,12,,,0,,81,,120,Dry,1010,7,24,,,,4.5,
Wick,05/04/2019 11:00,7.6,10,,,0,,79,,120,Dry,1010,7,20,,,,4.2,
Wick,05/04/2019 12:00,7.8,12,,,0,0,81,,110,Dry,1010,7,25,,,,4.8,
Wick,05/04/2019 13:00,8.7,15,,,0,,78,,90,Dry,1010,5,14,,,,5.2,
Wick,05/04/2019 14:00,8.8,13,,,0,,80,,90,Dry,1011,1,20,,,,5.6,
Wick,05/04/2019 15:00,8.3,13,,,0,,80,,100,Dry,1011,0,35,,,,5.1,
Wick,05/04/2019 16:00,8.3,13,,,0,,81,,90,Dry,1011,0,23,,,,5.4,
Wick,05/04/2019 17:00,8.1,9,,,0,,83,,120,Dry,1011,1,29,,,,5.4,
Wick,05/04/2019 18:00,7.5,9,,9.1,0,0,84,,100,Dry,1011,0,30,,,,5.1,
Wick,05/04/2019 19:00,6.5,8,,,0,,88,,90,Dry,1012,0,27,,,,4.7,
Wick,05/04/2019 20:00,4.2,2,,,0,,88,,80,Dry,1012,0,15,,,,2.5,
Wick,05/04/2019 21:00,2.8,6,,,0,,91,,50,Dry,1013,0,11,,,,1.5,
Wick,05/04/2019 22:00,2.4,1,,,0,,95,,210,Misty,1013,1,9,,,,1.7,
Wick,05/04/2019 23:00,0.7,5,,,0,,97,,270,Thickening fog,1013,6,0,,,,0.3,
Wick,06/04/2019 00:00,1,3,,,0,0,99,,280,Fog thinning,1013,2,1,,,,0.9,
Wick,06/04/2019 01:00,1.3,3,,,0,,99,,260,Fog,1013,8,2,,,,1.2,
Wick,06/04/2019 02:00,2.1,6,,,0.2,,100,,270,Fog,1013,8,6,,,,2.1,
Wick,06/04/2019 03:00,2.7,6,,,0,,100,,260,Light drizzle,1013,8,6,,,,2.7,
Wick,06/04/2019 04:00,3.9,2,,,0,,100,,300,Drizzle,1013,8,6,,,,3.9,
Wick,06/04/2019 05:00,6.7,7,,,0.2,,100,,70,Light shower,1013,8,7,,,,6.7,
Wick,06/04/2019 06:00,5.7,8,0.3,,0,0.4,98,,50,Rain,1013,6,6,,,,5.5,
Wick,06/04/2019 07:00,6.6,9,,,0,,99,,20,Misty,1013,2,7,,,,6.5,
Wick,06/04/2019 08:00,7.8,12,,,0,,97,,30,Misty,1014,7,12,,,,7.4,
Wick,06/04/2019 09:00,8.2,14,,,0,,92,,20,Dry,1014,7,11,,,,7,
Wick,06/04/2019 10:00,8.8,13,,,0,,89,,40,Dry,1014,5,10,,,,7.2,
Wick,06/04/2019 11:00,9,14,,,0,,92,,40,Dry,1014,7,10,,,,7.9,
Wick,06/04/2019 12:00,9,15,,,0,0,89,,40,Dry,1014,8,15,,,,7.4,
Wick,06/04/2019 13:00,9.3,18,,,0,,90,,50,Haze,1014,6,10,,,,7.8,
Wick,06/04/2019 14:00,9,21,,,0,,89,,50,Haze,1014,8,9,,,,7.4,
Wick,06/04/2019 15:00,8.2,20,,,0,,90,,40,Haze,1015,8,10,,,,6.8,
Wick,06/04/2019 16:00,7.6,18,,,0,,90,,40,Dry,1015,8,10,,,,6.1,
Wick,06/04/2019 17:00,7.2,20,,,0,,91,,40,Dry,1015,8,10,,,,5.9,
Wick,06/04/2019 18:00,7,18,,9.7,0,0,92,,50,Dry,1015,8,10,,,,5.8,
Wick,06/04/2019 19:00,6.8,17,,,0,,92,,40,Dry,1016,8,11,,,,5.7,
Wick,06/04/2019 20:00,7,18,,,0,,89,,50,Dry,1016,8,13,,,,5.4,
Wick,06/04/2019 21:00,7.3,20,,,0,,85,,60,Dry,1016,8,17,,,,5,
Wick,06/04/2019 22:00,7.3,21,,,0,,87,,50,Dry,1016,8,12,,,,5.3,
Wick,06/04/2019 23:00,7.4,20,,,0,,84,,50,Dry,1016,8,16,,,,5,
Wick,07/04/2019 00:00,7.2,21,,,0,0,82,29,60,Dry,1016,8,15,,,,4.4,
Wick,07/04/2019 01:00,7,21,,,0,,80,,60,Dry,1016,8,19,,,,3.9,
Wick,07/04/2019 02:00,6.9,20,,,0,,81,,60,Dry,1016,8,18,,,,4,
Wick,07/04/2019 03:00,6.8,20,,,0,,80,,50,Dry,1016,8,18,,,,3.6,
Wick,07/04/2019 04:00,6.6,21,,,0,,79,,50,Dry,1016,7,19,,,,3.3,
Wick,07/04/2019 05:00,6,20,,,0,,81,,60,Dry,1017,8,15,,,,3,
Wick,07/04/2019 06:00,6.1,18,5.9,,0,0,82,,50,Dry,1017,8,15,,,,3.3,
Wick,07/04/2019 07:00,6.2,18,,,0,,78,,60,Dry,1017,8,15,,,,2.7,
Wick,07/04/2019 08:00,6.5,20,,,0,,78,,50,Dry,1017,8,21,,,,3,
Wick,07/04/2019 09:00,6.6,18,,,0,,78,,50,Dry,1018,8,14,,,,3.1,
Wick,07/04/2019 10:00,6.8,20,,,0,,75,,50,Dry,1018,8,20,,,,2.7,
Wick,07/04/2019 11:00,7.1,20,,,0,,74,,50,Dry,1018,8,15,,,,2.8,
Wick,07/04/2019 12:00,7.8,20,,,0,0,72,,50,Dry,1018,7,19,,,,3.2,
Wick,07/04/2019 13:00,7.5,22,,,0,,73,,40,Dry,1018,7,13,,,,3.1,
Wick,07/04/2019 14:00,7.8,20,,,0,,71,,50,Dry,1018,8,19,,,,2.9,
Wick,07/04/2019 15:00,7.5,18,,,0,,72,,50,Dry,1018,8,15,,,,2.8,
Wick,07/04/2019 16:00,7.5,18,,,0,,75,,50,Dry,1018,7,14,,,,3.4,
Wick,07/04/2019 17:00,7.2,20,,,0,,73,,50,Dry,1018,8,16,,,,2.8,
Wick,07/04/2019 18:00,6.8,21,,8.2,0,0,74,,50,Dry,1019,7,14,,,,2.6,
Wick,07/04/2019 19:00,6.4,18,,,0,,76,,50,Dry,1019,7,12,,,,2.5,
Wick,07/04/2019 20:00,6.2,18,,,0,,76,,50,Dry,1020,8,10,,,,2.3,
Wick,07/04/2019 21:00,6.1,18,,,0,,74,,50,Dry,1020,5,12,,,,1.9,
Wick,07/04/2019 22:00,5.8,18,,,0,,73,,40,Dry,1020,8,13,,,,1.4,
Wick,07/04/2019 23:00,5.7,18,,,0,,75,,30,Dry,1020,8,12,,,,1.7,
Wick,08/04/2019 00:00,5.6,17,,,0,0,73,,40,Dry,1020,7,12,,,,1.2,
Wick,08/04/2019 01:00,5.7,17,,,0,,72,,40,Dry,1020,8,12,,,,1.1,
Wick,08/04/2019 02:00,5.6,16,,,0,,74,,50,Dry,1020,8,12,,,,1.5,
Wick,08/04/2019 03:00,5.5,15,,,0,,74,,30,Dry,1020,8,11,,,,1.4,
Wick,08/04/2019 04:00,5.3,14,,,0,,72,,30,Dry,1019,8,12,,,,0.7,
Wick,08/04/2019 05:00,5.6,12,,,0,,72,,40,Dry,1019,8,13,,,,1.1,
Wick,08/04/2019 06:00,5.7,13,5.2,,0,0,74,,30,Dry,1019,8,13,,,,1.6,
Wick,08/04/2019 07:00,6,13,,,0,,72,,50,Dry,1019,8,15,,,,1.5,
Wick,08/04/2019 08:00,6.3,13,,,0,,72,,40,Dry,1020,8,13,,,,1.8,
Wick,08/04/2019 09:00,6.6,13,,,0,,76,,50,Dry,1020,8,12,,,,2.7,
Wick,08/04/2019 10:00,6.9,14,,,0,,78,,40,Dry,1020,8,14,,,,3.5,
Wick,08/04/2019 11:00,7.3,12,,,0,,80,,50,Dry,1020,8,14,,,,4.1,
Wick,08/04/2019 12:00,7.3,15,,,0,0,80,,60,Dry,1020,8,25,,,,4.1,
Wick,08/04/2019 13:00,7.6,10,,,0,,76,,40,Dry,1020,7,22,,,,3.7,
Wick,08/04/2019 14:00,7.5,14,,,0,,71,,40,Dry,1020,7,40,,,,2.6,
Wick,08/04/2019 15:00,7.3,15,,,0,,70,,50,Dry,1020,7,35,,,,2.3,
Wick,08/04/2019 16:00,7.4,12,,,0,,74,,80,Dry,1020,8,27,,,,3.1,
Wick,08/04/2019 17:00,6.9,12,,,0,,71,,80,Dry,1020,8,26,,,,2.1,
Wick,08/04/2019 18:00,6.5,7,,8.5,0,0,69,,100,Dry,1020,8,40,,,,1.3,
Wick,08/04/2019 19:00,6.4,9,,,0,,70,,90,Dry,1020,8,29,,,,1.5,
Wick,08/04/2019 20:00,6.5,9,,,0,,71,,120,Dry,1021,7,28,,,,1.8,
Wick,08/04/2019 21:00,7,9,,,0,,83,,110,Dry,1021,8,18,,,,4.4,
Wick,08/04/2019 22:00,7,10,,,0,,88,,120,Dry,1021,8,14,,,,5.2,
Wick,08/04/2019 23:00,7.1,17,,,0,,88,,120,Dry,1021,8,12,,,,5.4,
Wick,09/04/2019 00:00,6.9,16,,,0,0,88,,120,Dry,1022,7,12,,,,5.2,
Wick,09/04/2019 01:00,6.8,18,,,0,,88,,120,Dry,1022,7,13,,,,5,
Wick,09/04/2019 02:00,6.5,17,,,0,,87,,120,Dry,1022,1,13,,,,4.5,
Wick,09/04/2019 03:00,6.3,16,,,0,,87,,120,Dry,1023,1,12,,,,4.4,
Wick,09/04/2019 04:00,6.2,14,,,0,,85,,120,Dry,1023,0,18,,,,3.9,
Wick,09/04/2019 05:00,6,14,,,0,,82,,120,Dry,1023,2,20,,,,3.2,
Wick,09/04/2019 06:00,6.1,13,5.9,,0,0,81,,120,Dry,1023,2,20,,,,3.2,
Wick,09/04/2019 07:00,6.6,14,,,0,,73,,120,Dry,1024,1,26,,,,2.2,
Wick,09/04/2019 08:00,7.3,12,,,0,,69,,120,Dry,1024,0,28,,,,2.1,
Wick,09/04/2019 09:00,8,13,,,0,,69,,110,Dry,1024,0,21,,,,2.8,
Wick,09/04/2019 10:00,8,14,,,0,,68,,100,Dry,1024,0,50,,,,2.6,
Wick,09/04/2019 11:00,8.1,15,,,0,,67,,100,Dry,1024,1,18,,,,2.4,
Wick,09/04/2019 12:00,8.1,15,,,0,0,70,,100,Dry,1024,4,40,,,,3,
Wick,09/04/2019 13:00,7.9,16,,,0,,75,,80,Dry,1024,3,21,,,,3.9,
Wick,09/04/2019 14:00,7.8,15,,,0,,76,,90,Dry,1024,3,16,,,,3.9,
Wick,09/04/2019 15:00,8,16,,,0,,72,,80,Dry,1024,2,21,,,,3.3,
Wick,09/04/2019 16:00,7.6,16,,,0,,70,,70,Dry,1024,0,35,,,,2.5,
Wick,09/04/2019 17:00,7.3,15,,,0,,72,,80,Dry,1023,1,27,,,,2.7,
Wick,09/04/2019 18:00,6.6,13,,8.8,0,0,72,,80,Dry,1024,0,24,,,,2.1,
Wick,09/04/2019 19:00,5.7,12,,,0,,77,,70,Dry,1024,0,24,,,,2,
Wick,09/04/2019 20:00,4.8,10,,,0,,80,,80,Dry,1024,1,21,,,,1.8,
Wick,09/04/2019 21:00,4.1,7,,,0,,81,,70,Dry,1024,1,23,,,,1.3,
Wick,09/04/2019 22:00,3.3,7,,,0,,82,,70,Dry,1024,1,17,,,,0.6,
Wick,09/04/2019 23:00,3.8,8,,,0,,84,,70,Dry,1024,4,25,,,,1.5,
Wick,10/04/2019 00:00,3.2,8,,,0,0,85,,70,Dry,1024,2,26,,,,1,
Wick,10/04/2019 01:00,3.7,7,,,0,,83,,70,Dry,1024,2,29,,,,1.1,
Wick,10/04/2019 02:00,0.9,0,,,0,,82,,0,Dry,1024,6,30,,,,-1.7,
Wick,10/04/2019 03:00,1.1,1,,,0,,85,,110,Dry,1024,7,21,,,,-1.1,
Wick,10/04/2019 04:00,1.1,1,,,0,,90,,110,Dry,1024,7,30,,,,-0.3,
Wick,10/04/2019 05:00,4.1,7,,,0,,78,,80,Dry,1024,6,40,,,,0.7,
Wick,10/04/2019 06:00,0.7,2,0.3,,0,0,80,,200,Dry,1024,7,30,,,,-2.2,
Wick,10/04/2019 07:00,0.5,5,,,0,,90,,230,Dry,1024,6,30,,,,-0.8,
Wick,10/04/2019 08:00,4.7,2,,,0,,86,,240,Dry,1024,5,35,,,,2.7,
Wick,10/04/2019 09:00,6.5,5,,,0,,66,,80,Dry,1025,7,22,,,,0.8,
Wick,10/04/2019 10:00,6.8,6,,,0,,63,,50,Dry,1025,8,15,,,,0.3,
Wick,10/04/2019 11:00,6.6,8,,,0,,65,,60,Dry,1025,8,30,,,,0.6,
Wick,10/04/2019 12:00,6.8,7,,,0,0,63,,50,Dry,1025,8,35,,,,0.4,
Wick,10/04/2019 13:00,6.9,7,,,0,,64,,70,Dry,1025,8,40,,,,0.6,
Wick,10/04/2019 14:00,6.7,7,,,0,,61,,90,Dry,1025,8,50,,,,-0.1,
Wick,10/04/2019 15:00,6.7,6,,,0,,61,,80,Dry,1025,8,35,,,,-0.1,
Wick,10/04/2019 16:00,6.6,6,,,0,,63,,80,Dry,1025,8,35,,,,0.1,
Wick,10/04/2019 17:00,6.5,5,,,0,,64,,70,Dry,1025,8,40,,,,0.4,
Wick,10/04/2019 18:00,6.3,6,,7.3,0,0,67,,80,Dry,1025,8,45,,,,0.8,
Wick,10/04/2019 19:00,6.1,7,,,0,,69,,80,Dry,1025,8,30,,,,0.9,
Wick,10/04/2019 20:00,6,6,,,0,,70,,80,Dry,1025,8,35,,,,1.1,
Wick,10/04/2019 21:00,6,7,,,0,,70,,80,Dry,1025,7,45,,,,1.1,
Wick,10/04/2019 22:00,5.9,6,,,0,,71,,90,Dry,1025,8,30,,,,1.2,
Wick,10/04/2019 23:00,5.9,6,,,0,,71,,90,Dry,1025,8,35,,,,1.1,
Wick,11/04/2019 00:00,5.8,5,,,0,0,72,,80,Light shower,1025,8,45,,,,1.3,
Wick,11/04/2019 01:00,5.8,1,,,0,,73,,140,Light shower,1025,8,35,,,,1.4,
Wick,11/04/2019 02:00,5.6,3,,,0,,76,,50,Rain,1025,8,35,,,,1.8,
Wick,11/04/2019 03:00,5,5,,,0,,81,,10,Dry,1025,8,30,,,,2.1,
Wick,11/04/2019 04:00,5.1,3,,,0,,80,,10,Dry,1025,8,40,,,,2,
Wick,11/04/2019 05:00,4.7,6,,,0,,83,,320,Dry,1025,8,29,,,,2.1,
Wick,11/04/2019 06:00,4.8,5,4.5,,0,0,86,,310,Dry,1025,8,24,,,,2.7,
Wick,11/04/2019 07:00,4.9,3,,,0,,86,,320,Dry,1025,8,23,,,,2.8,
Wick,11/04/2019 08:00,5.8,3,,,0,,82,,330,Dry,1025,8,30,,,,3.1,
Wick,11/04/2019 09:00,6.3,2,,,0,,74,,40,Dry,1026,8,35,,,,2.1,
Wick,11/04/2019 10:00,6.3,5,,,0,,76,,80,Dry,1026,8,26,,,,2.4,
Wick,11/04/2019 11:00,6.4,6,,,0,,73,,50,Dry,1026,8,35,,,,2.1,
Wick,11/04/2019 12:00,7.1,6,,,0,0,70,,70,Dry,1026,8,35,,,,2.2,
Wick,11/04/2019 13:00,7.8,6,,,0,,65,,60,Dry,1026,5,30,,,,1.7,
Wick,11/04/2019 14:00,7.2,5,,,0,,67,,40,Dry,1026,6,22,,,,1.5,
Wick,11/04/2019 15:00,7,3,,,-0.2,,,,,Dry,,8,50,,,,1,
Wick,11/04/2019 16:00,7,5,,,-0.2,,,,90,Fog,,5,30,,,,2,
Wick,11/04/2019 17:00,6.6,3,,,-0.2,,77,,,Dry,1026,6,35,,,,2.9,
Wick,11/04/2019 18:00,6.5,3,,,0,,74,,90,Dry,1026,7,35,,,,2.3,
Wick,11/04/2019 19:00,6.2,5,,,0,,76,,70,Dry,1026,8,40,,,,2.4,
Wick,11/04/2019 20:00,5.9,3,,,0,,79,,100,Dry,1027,8,40,,,,2.7,
Wick,11/04/2019 21:00,6.1,2,,,0,,76,,130,Dry,1027,3,50,,,,2.3,
Wick,11/04/2019 22:00,6.1,1,,,0,,76,,150,Dry,1027,8,45,,,,2.2,
Wick,11/04/2019 23:00,5,0,,,0,,85,,0,Dry,1027,8,25,,,,2.7,
Wick,12/04/2019 00:00,4.8,0,,,0,0,86,,0,Dry,1027,8,29,,,,2.7,
Wick,12/04/2019 01:00,4.8,2,,,0,,88,,120,Dry,1027,8,28,,,,3,
Wick,12/04/2019 02:00,6,6,,,0,,81,,130,Dry,1027,8,45,,,,3,
Wick,12/04/2019 03:00,5.4,5,,,0,,84,,140,Dry,1027,2,40,,,,3,
Wick,12/04/2019 04:00,5.7,6,,,0,,90,,120,Dry,1027,1,20,,,,4.2,
Wick,12/04/2019 05:00,3.6,3,,,0,,89,,170,Dry,1027,6,10,,,,2,
Wick,12/04/2019 06:00,5.6,6,2.2,,0,0,95,,140,Dry,1027,5,12,,,,4.9,
Wick,12/04/2019 07:00,6.6,10,,,0,,88,,140,Dry,1028,7,15,,,,4.8,
Wick,12/04/2019 08:00,7.2,15,,,0,,86,,130,Dry,1027,6,13,,,,5.1,
Wick,12/04/2019 09:00,8,16,,,0,,84,,140,Dry,1027,8,17,,,,5.6,
Wick,12/04/2019 10:00,8.4,16,,,0,,79,,140,Dry,1028,3,30,,,,5,
Wick,12/04/2019 11:00,8.4,17,,,0,,75,,140,Dry,1028,8,13,,,,4.4,
Wick,12/04/2019 12:00,8,16,,,0,0,79,,150,Dry,1028,8,11,,,,4.6,
Wick,12/04/2019 13:00,8.2,18,,,0,,75,29,140,Dry,1029,6,11,,,,4.1,
Wick,12/04/2019 14:00,8.3,18,,,0,,71,29,140,Dry,1028,3,15,,,,3.5,
Wick,12/04/2019 15:00,8.1,18,,,0,,72,30,140,Dry,1028,1,15,,,,3.4,
Wick,12/04/2019 16:00,8.1,18,,,0,,73,29,140,Dry,1028,1,13,,,,3.7,
Wick,12/04/2019 17:00,7.7,18,,,0,,73,31,140,Dry,1028,2,29,,,,3.3,
Wick,12/04/2019 18:00,7.4,17,,8.8,0,0,76,31,140,Dry,1028,0,18,,,,3.5,
Wick,12/04/2019 19:00,7,20,,,0,,74,30,140,Dry,1028,0,22,,,,2.8,
Wick,12/04/2019 20:00,6.4,21,,,0,,77,30,140,Dry,1029,6,20,,,,2.8,
Wick,12/04/2019 21:00,6.1,21,,,0,,73,32,150,Dry,1030,1,25,,,,1.7,
Wick,12/04/2019 22:00,6,18,,,0,,71,30,160,Dry,1030,0,24,,,,1.2,
Wick,12/04/2019 23:00,5.7,20,,,0,,73,30,160,Dry,1030,1,24,,,,1.3,
Wick,13/04/2019 00:00,5.6,17,,,0,0,72,30,150,Dry,1031,1,24,,,,1.1,
Wick,13/04/2019 01:00,5.6,17,,,0,,71,29,160,Dry,1031,3,30,,,,0.9,
Wick,13/04/2019 02:00,5.6,17,,,0,,68,31,150,Dry,1031,1,27,,,,0.3,
Wick,13/04/2019 03:00,5.2,18,,,0,,71,,150,Dry,1031,0,27,,,,0.5,
Wick,13/04/2019 04:00,5,17,,,0,,68,29,150,Dry,1031,0,40,,,,-0.4,
Wick,13/04/2019 05:00,5.1,17,,,0,,64,30,150,Dry,1031,1,35,,,,-1.1,
Wick,13/04/2019 06:00,5,16,4.9,,0,0,62,,140,Dry,1031,3,45,,,,-1.6,
Wick,13/04/2019 07:00,5.5,17,,,0,,60,,140,Dry,1032,5,50,,,,-1.5,
Wick,13/04/2019 08:00,5.4,16,,,0,,58,,140,Dry,1032,7,50,,,,-2.1,
Wick,13/04/2019 09:00,6,16,,,0,,58,,140,Dry,1032,7,20,,,,-1.5,
Wick,13/04/2019 10:00,6.7,21,,,0,,58,29,130,Dry,1032,5,20,,,,-0.9,
Wick,13/04/2019 11:00,6.6,20,,,0,,59,33,140,Dry,1031,6,40,,,,-0.7,
Wick,13/04/2019 12:00,7.1,23,,,0,0,58,33,130,Dry,1031,2,23,,,,-0.5,
Wick,13/04/2019 13:00,7.3,24,,,0,,58,36,130,Dry,1031,0,35,,,,-0.2,
Wick,13/04/2019 14:00,7.4,23,,,0,,59,36,130,Dry,1031,0,13,,,,0,
Wick,13/04/2019 15:00,7.6,24,,,0,,61,35,130,Dry,1031,0,29,,,,0.6,
Wick,13/04/2019 16:00,7.1,23,,,0,,61,33,130,Dry,1030,0,20,,,,0.1,
Wick,13/04/2019 17:00,6.9,22,,,0,,64,35,130,Dry,1030,0,20,,,,0.6,
Wick,13/04/2019 18:00,6.3,22,,8,0,0,66,32,130,Dry,1030,1,35,,,,0.5,
Wick,13/04/2019 19:00,6.1,20,,,0,,66,29,130,Dry,1030,2,28,,,,0.4,
Wick,13/04/2019 20:00,6.2,18,,,0,,66,,130,Dry,1030,6,45,,,,0.4,
Wick,13/04/2019 21:00,6,18,,,0,,64,,150,Dry,1030,6,40,,,,-0.1,
Wick,13/04/2019 22:00,6,15,,,0,,66,,140,Dry,1030,7,28,,,,0.2,
Wick,13/04/2019 23:00,5.7,17,,,0,,69,,150,Dry,1030,5,35,,,,0.6,
Wick,14/04/2019 00:00,5.7,16,,,0,0,66,,150,Dry,1030,5,45,,,,0,
Wick,14/04/2019 01:00,5.4,17,,,0,,66,,140,Dry,1030,2,35,,,,-0.4,
Wick,14/04/2019 02:00,5.4,18,,,0,,63,,150,Dry,1030,5,45,,,,-1,
Wick,14/04/2019 03:00,5.5,16,,,0,,66,,140,Dry,1030,5,40,,,,-0.3,
Wick,14/04/2019 04:00,5.4,16,,,0,,63,,140,Dry,1030,7,50,,,,-0.9,
Wick,14/04/2019 05:00,5.7,16,,,0,,66,,140,Dry,1030,6,29,,,,0,
Wick,14/04/2019 06:00,6.1,17,5.2,,0,0,62,,140,Dry,1031,8,35,,,,-0.6,
Wick,14/04/2019 07:00,6.3,18,,,0,,65,29,130,Dry,1031,8,40,,,,0.4,
Wick,14/04/2019 08:00,6.3,20,,,0,,61,29,130,Dry,1031,8,30,,,,-0.6,
Wick,14/04/2019 09:00,6.6,16,,,0,,60,,140,Dry,1031,8,25,,,,-0.4,
Wick,14/04/2019 10:00,7.3,20,,,0,,63,29,130,Dry,1031,1,27,,,,0.9,
Wick,14/04/2019 11:00,6.7,18,,,0,,64,29,130,Dry,1031,4,30,,,,0.5,
Wick,14/04/2019 12:00,6.8,17,,,0,0,59,,130,Dry,1031,7,35,,,,-0.6,
Wick,14/04/2019 13:00,7.6,18,,,0,,59,,120,Dry,1031,7,30,,,,0.3,
Wick,14/04/2019 14:00,8.1,18,,,0,,59,30,130,Dry,1031,4,30,,,,0.6,
Wick,14/04/2019 15:00,7.6,20,,,0,,62,29,130,Dry,1030,7,23,,,,0.9,
Wick,14/04/2019 16:00,8,20,,,0,,58,30,120,Dry,1030,1,35,,,,0.4,
Wick,14/04/2019 17:00,6.9,22,,,0,,62,29,120,Dry,1030,2,30,,,,0.3,
Wick,14/04/2019 18:00,6.6,21,,8.7,0,0,67,30,120,Dry,1029,1,19,,,,1.1,
Wick,14/04/2019 19:00,6.4,22,,,0,,67,30,120,Dry,1029,2,29,,,,0.9,
Wick,14/04/2019 20:00,6.4,20,,,0,,68,33,130,Dry,1030,7,30,,,,1.1,
Wick,14/04/2019 21:00,6.3,20,,,0,,65,31,140,Dry,1030,8,35,,,,0.4,
Wick,14/04/2019 22:00,6.2,20,,,0,,67,31,130,Dry,1030,5,35,,,,0.7,
Wick,14/04/2019 23:00,6.2,20,,,0,,71,29,130,Dry,1029,1,30,,,,1.4,
Wick,15/04/2019 00:00,6.3,20,,,0,0,70,30,130,Dry,1030,1,27,,,,1.3,
Wick,15/04/2019 01:00,6.2,14,,,0,,73,,140,Dry,1029,8,23,,,,1.8,
Wick,15/04/2019 02:00,5.4,18,,,0,,74,30,130,Rain,1029,1,35,,,,1.3,
Wick,15/04/2019 03:00,5.9,16,,,0,,71,29,150,Dry,1029,2,18,,,,1.2,
Wick,15/04/2019 04:00,5.9,20,,,0,,67,,130,Dry,1028,8,23,,,,0.3,
Wick,15/04/2019 05:00,6,20,,,0,,69,29,120,Dry,1028,8,22,,,,0.9,
Wick,15/04/2019 06:00,6.2,21,5.1,,0,0,73,33,130,Dry,1027,8,20,,,,1.9,
Wick,15/04/2019 07:00,6,18,,,0,,77,35,140,Dry,1027,7,14,,,,2.3,
Wick,15/04/2019 08:00,6.4,18,,,0,,69,30,140,Dry,1027,7,19,,,,1.3,
Wick,15/04/2019 09:00,7.2,18,,,0,,67,31,140,Dry,1027,3,20,,,,1.5,
Wick,15/04/2019 10:00,7.3,21,,,0,,66,31,130,Dry,1027,3,21,,,,1.5,
Wick,15/04/2019 11:00,7.4,23,,,0,,65,36,130,Dry,1027,6,20,,,,1.4,
Wick,15/04/2019 12:00,7.8,25,,,0,0,69,36,130,Dry,1026,7,16,,,,2.6,
Wick,15/04/2019 13:00,8.1,25,,,0,,77,39,120,Dry,1025,6,17,,,,4.4,
Wick,15/04/2019 14:00,7.9,29,,,0,,75,38,120,Dry,1024,8,12,,,,3.9,
Wick,15/04/2019 15:00,7.5,24,,,0,,80,38,120,Haze,1023,8,10,,,,4.3,
Wick,15/04/2019 16:00,7,24,,,0,,89,38,120,Haze,1023,8,8,,,,5.4,
Wick,15/04/2019 17:00,7.4,26,,,0,,81,38,120,Dry,1022,8,10,,,,4.5,
Wick,15/04/2019 18:00,7.2,25,,8.4,0,0,82,40,120,Haze,1022,8,9,,,,4.5,
Wick,15/04/2019 19:00,7.2,28,,,0,,82,38,120,Dry,1022,8,10,,,,4.4,
Wick,15/04/2019 20:00,7.1,28,,,0,,83,40,120,Haze,1022,8,9,,,,4.5,
Wick,15/04/2019 21:00,7.1,26,,,0,,80,41,120,Dry,1022,7,10,,,,3.9,
Wick,15/04/2019 22:00,7,25,,,0,,83,41,120,Haze,1022,8,9,,,,4.4,
Wick,15/04/2019 23:00,7,26,,,0,,81,43,120,Haze,1022,8,9,,,,4.1,
Wick,16/04/2019 00:00,7,25,,,0,0,81,40,130,Haze,1022,8,9,,,,4.1,
Wick,16/04/2019 01:00,6.9,24,,,0,,80,40,130,Haze,1022,8,10,,,,3.8,
Wick,16/04/2019 02:00,6.9,25,,,0,,78,38,130,Dry,1022,8,12,,,,3.4,
Wick,16/04/2019 03:00,6.9,24,,,0,,79,38,130,Dry,1022,8,12,,,,3.6,
Wick,16/04/2019 04:00,6.9,20,,,0,,82,31,130,Haze,1022,8,9,,,,4.2,
Wick,16/04/2019 05:00,6.9,21,,,0,,83,30,130,Haze,1022,8,10,,,,4.3,
Wick,16/04/2019 06:00,7,17,6.8,,0,0,81,29,130,Haze,1022,8,11,,,,4.1,
Wick,16/04/2019 07:00,7.2,20,,,0,,81,30,130,Dry,1023,8,10,,,,4.2,
Wick,16/04/2019 08:00,7.3,17,,,0,,82,29,130,Dry,1023,8,10,,,,4.6,
Wick,16/04/2019 09:00,7.4,20,,,0,,82,29,120,Haze,1023,8,9,,,,4.6,
Wick,16/04/2019 10:00,7.5,20,,,0,,82,30,130,Haze,1023,8,8,,,,4.8,
Wick,16/04/2019 11:00,7.6,18,,,0,,79,29,120,Haze,1023,8,9,,,,4.2,
Wick,16/04/2019 12:00,8,21,,,0,0,77,31,130,Haze,1023,8,10,,,,4.4,
Wick,16/04/2019 13:00,9.1,20,,,0,,77,,120,Dry,1023,8,12,,,,5.4,
Wick,16/04/2019 14:00,8.4,21,,,0,,77,29,120,Haze,1023,8,15,,,,4.7,
Wick,16/04/2019 15:00,8,18,,,0,,78,30,130,Dry,1023,7,10,,,,4.5,
Wick,16/04/2019 16:00,7.7,22,,,0,,79,31,120,Dry,1023,8,10,,,,4.3,
Wick,16/04/2019 17:00,7.6,25,,,0,,76,36,120,Dry,1023,7,10,,,,3.7,
Wick,16/04/2019 18:00,7.3,24,,9.1,0,0,76,35,120,Dry,1023,8,13,,,,3.4,
Wick,16/04/2019 19:00,7.1,24,,,0,,75,40,130,Dry,1024,8,13,,,,3.1,
Wick,16/04/2019 20:00,6.9,23,,,0,,78,35,130,Dry,1024,8,13,,,,3.5,
Wick,16/04/2019 21:00,6.8,22,,,0,,78,36,130,Dry,1024,8,12,,,,3.3,
Wick,16/04/2019 22:00,6.6,21,,,0,,76,32,130,Dry,1024,8,14,,,,2.7,
Wick,16/04/2019 23:00,6.5,20,,,0,,75,35,130,Dry,1025,8,15,,,,2.5,
Wick,17/04/2019 00:00,6.3,20,,,0,0,76,32,130,Dry,1025,5,18,,,,2.4,
Wick,17/04/2019 01:00,6.3,20,,,0,,74,30,130,Dry,1025,8,14,,,,2.1,
Wick,17/04/2019 02:00,6.3,20,,,0,,72,,130,Dry,1024,8,22,,,,1.7,
Wick,17/04/2019 03:00,6.3,18,,,0,,72,,130,Dry,1024,8,29,,,,1.7,
Wick,17/04/2019 04:00,6.1,17,,,0,,69,,120,Dry,1024,8,30,,,,1,
Wick,17/04/2019 05:00,6.1,17,,,0,,71,,130,Dry,1024,8,29,,,,1.4,
Wick,17/04/2019 06:00,6.3,16,6,,0,0,73,,120,Dry,1024,8,20,,,,2,
Wick,17/04/2019 07:00,6.6,16,,,0,,73,,130,Dry,1025,7,19,,,,2.2,
Wick,17/04/2019 08:00,7,14,,,0,,75,,130,Dry,1025,8,22,,,,3,
Wick,17/04/2019 09:00,7.3,16,,,0,,72,,130,Dry,1025,1,25,,,,2.7,
Wick,17/04/2019 10:00,7.9,16,,,0,,70,,130,Dry,1026,8,29,,,,2.9,
Wick,17/04/2019 11:00,8.5,17,,,0,,70,,130,Dry,1025,1,30,,,,3.5,
Wick,17/04/2019 12:00,9.1,15,,,0,0,73,,130,Dry,1025,0,14,,,,4.6,
Wick,17/04/2019 13:00,9.2,16,,,0,,74,,130,Dry,1026,0,12,,,,4.9,
Wick,17/04/2019 14:00,9.4,14,,,0,,78,,120,Dry,1025,0,10,,,,5.9,
Wick,17/04/2019 15:00,9.5,16,,,0,,76,,120,Dry,1025,0,14,,,,5.5,
Wick,17/04/2019 16:00,9.4,16,,,0,,75,,120,Dry,1025,0,16,,,,5.2,
Wick,17/04/2019 17:00,8.7,17,,,0,,78,,120,Dry,1025,0,10,,,,5.2,
Wick,17/04/2019 18:00,8.1,15,,10,0,0,83,,120,Dry,1025,0,12,,,,5.5,
Wick,17/04/2019 19:00,7.6,14,,,0,,87,,130,Haze,1025,0,10,,,,5.7,
Wick,17/04/2019 20:00,7.4,14,,,0,,91,,130,Haze,1026,6,8,,,,6.1,
Wick,17/04/2019 21:00,7.5,10,,,0,,88,,130,Haze,1026,3,10,,,,5.8,
Wick,17/04/2019 22:00,7.3,13,,,0,,88,,130,Haze,1026,0,10,,,,5.6,
Wick,17/04/2019 23:00,7.9,10,,,0,,81,,150,Dry,1026,6,12,,,,5,
Wick,18/04/2019 00:00,7.7,14,,,0,0,84,,150,Dry,1026,0,10,,,,5.2,
Wick,18/04/2019 01:00,7.2,14,,,0,,88,,140,Haze,1026,2,9,,,,5.5,
Wick,18/04/2019 02:00,7,17,,,0,,93,,130,Haze,1027,0,7,,,,6.1,
Wick,18/04/2019 03:00,6.5,14,,,0,,96,,130,Misty,1027,5,4,,,,6,
Wick,18/04/2019 04:00,6.7,13,,,0,,96,,140,Misty,1028,2,5,,,,6.2,
Wick,18/04/2019 05:00,6.9,12,,,0,,95,,140,Misty,1028,0,6,,,,6.2,
Wick,18/04/2019 06:00,7.3,10,6.4,,0,0,94,,140,Haze,1028,0,5,,,,6.4,
Wick,18/04/2019 07:00,7.7,10,,,0,,92,,150,Haze,1029,0,5,,,,6.6,
Wick,18/04/2019 08:00,8.3,13,,,0,,91,,140,Haze,1029,1,5,,,,7,
Wick,18/04/2019 09:00,9.5,14,,,0,,83,,140,Haze,1030,0,6,,,,6.9,
Wick,18/04/2019 10:00,8.9,14,,,0,,88,,120,Haze,1030,1,6,,,,7.1,
Wick,18/04/2019 11:00,9.4,16,,,0,,84,,120,Haze,1030,2,7,,,,7,
Wick,18/04/2019 12:00,10,16,,,0,0,83,,120,Dry,1030,6,10,,,,7.3,
Wick,18/04/2019 13:00,10.4,16,,,0,,81,,100,Haze,1030,7,10,,,,7.4,
Wick,18/04/2019 14:00,9.6,15,,,0,,83,,120,Haze,1030,0,8,,,,7,
Wick,18/04/2019 15:00,10.1,15,,,0,,83,,130,Haze,1029,5,14,,,,7.5,
Wick,18/04/2019 16:00,9.9,16,,,0,,84,,130,Haze,1029,0,9,,,,7.4,
Wick,18/04/2019 17:00,9.4,16,,,0,,85,,130,Haze,1029,6,8,,,,7.1,
Wick,18/04/2019 18:00,9.1,17,,10.9,0,0,87,,120,Haze,1029,5,9,,,,7.1,
Wick,18/04/2019 19:00,8.4,8,,,0,,90,,140,Haze,1030,7,8,,,,7,
Wick,18/04/2019 20:00,8.4,12,,,0,,91,,120,Haze,1030,7,8,,,,7.1,
Wick,18/04/2019 21:00,8.3,7,,,0,,91,,150,Haze,1030,6,7,,,,7,
Wick,18/04/2019 22:00,8.4,12,,,0,,90,,140,Haze,1030,8,9,,,,6.9,
Wick,18/04/2019 23:00,8.3,8,,,0,,88,,150,Haze,1031,8,9,,,,6.5,
Wick,19/04/2019 00:00,8.3,16,,,0,0,89,,130,Haze,1030,0,10,,,,6.6,
Wick,19/04/2019 01:00,8.3,14,,,0,,88,,140,Dry,1031,8,11,,,,6.5,
Wick,19/04/2019 02:00,8.1,16,,,0,,89,,130,Dry,1030,8,11,,,,6.4,
Wick,19/04/2019 03:00,7.8,13,,,0,,92,,130,Haze,1030,8,10,,,,6.6,
Wick,19/04/2019 04:00,7.6,12,,,0,,92,,130,Haze,1031,0,8,,,,6.5,
Wick,19/04/2019 05:00,7.9,13,,,0,,91,,130,Dry,1030,2,11,,,,6.6,
Wick,19/04/2019 06:00,8.1,16,7.4,,0,0,88,,130,Dry,1030,7,13,,,,6.3,
Wick,19/04/2019 07:00,8.8,12,,,0,,86,,140,Dry,1030,0,11,,,,6.6,
Wick,19/04/2019 08:00,8.9,15,,,0,,86,29,160,Haze,1030,8,10,,,,6.8,
Wick,19/04/2019 09:00,9.4,14,,,0,,84,,150,Haze,1031,7,7,,,,7,
Wick,19/04/2019 10:00,10.5,12,,,0,,81,,150,Dry,1030,5,11,,,,7.4,
Wick,19/04/2019 11:00,10.5,14,,,0,,79,,150,Dry,1030,1,13,,,,7.2,
Wick,19/04/2019 12:00,11.2,12,,,0,0,77,,140,Haze,1030,0,10,,,,7.5,
Wick,19/04/2019 13:00,12.1,9,,,0,,74,,140,Haze,1029,5,8,,,,7.8,
Wick,19/04/2019 14:00,12.2,15,,,0,,73,,130,Dry,1029,0,12,,,,7.6,
Wick,19/04/2019 15:00,12.3,16,,,0,,71,,130,Dry,1028,0,11,,,,7.2,
Wick,19/04/2019 16:00,12.8,15,,,0,,67,,140,Dry,1028,0,13,,,,6.9,
Wick,19/04/2019 17:00,12.8,13,,,0,,68,,140,Dry,1028,0,12,,,,7.1,
Wick,19/04/2019 18:00,13,14,,13.5,0,0,65,,150,Dry,1028,0,14,,,,6.8,
Wick,19/04/2019 19:00,13,14,,,0,,65,,160,Dry,1028,0,16,,,,6.7,
Wick,19/04/2019 20:00,13.4,12,,,0,,62,,170,Dry,1028,4,24,,,,6.4,
Wick,19/04/2019 21:00,12.6,12,,,0,,67,,160,Dry,1028,0,20,,,,6.8,
Wick,19/04/2019 22:00,11.7,12,,,0,,73,,150,Dry,1028,3,17,,,,7.1,
Wick,19/04/2019 23:00,12.2,10,,,0,,71,,170,Dry,1028,6,19,,,,7.2,
Wick,20/04/2019 00:00,12,12,,,0,0,71,,160,Dry,1028,0,20,,,,7.1,
Wick,20/04/2019 01:00,11.8,9,,,0,,72,,160,Dry,1028,5,24,,,,7,
Wick,20/04/2019 02:00,11.5,9,,,0,,73,,160,Dry,1028,1,18,,,,6.9,
Wick,20/04/2019 03:00,11.3,2,,,0,,73,,130,Dry,1028,7,18,,,,6.8,
Wick,20/04/2019 04:00,11.5,5,,,0,,70,,180,Dry,1028,8,24,,,,6.4,
Wick,20/04/2019 05:00,11.5,10,,,0,,68,,180,Dry,1028,2,25,,,,6,
Wick,20/04/2019 06:00,9.1,8,8.7,,0,0,86,,350,Dry,1029,3,12,,,,6.9,
Wick,20/04/2019 07:00,10,1,,,0,,90,,310,Dry,1029,3,11,,,,8.5,
Wick,20/04/2019 08:00,11.1,3,,,0,,89,,130,Haze,1029,7,9,,,,9.4,
Wick,20/04/2019 09:00,11.9,7,,,0,,85,,100,Dry,1029,4,12,,,,9.5,
Wick,20/04/2019 10:00,11.4,9,,,0,,85,,70,Haze,1029,0,8,,,,9,
Wick,20/04/2019 11:00,11.6,7,,,0,,84,,60,Dry,1029,0,11,,,,9.1,
Wick,20/04/2019 12:00,13.1,6,,,0,0,79,,80,Dry,1029,7,23,,,,9.6,
Wick,20/04/2019 13:00,13.4,7,,,0,,83,,50,Dry,1029,7,24,,,,10.7,
Wick,20/04/2019 14:00,13.9,9,,,0,,73,,340,Dry,1029,8,20,,,,9.2,
Wick,20/04/2019 15:00,11.5,9,,,0,,79,,80,Dry,1029,8,50,,,,8,
Wick,20/04/2019 16:00,11.3,10,,,0,,80,,80,Dry,1029,8,22,,,,8.1,
Wick,20/04/2019 17:00,10.4,10,,,0,,88,,110,Dry,1029,7,19,,,,8.6,
Wick,20/04/2019 18:00,10.2,9,,14.6,0,0,87,,120,Dry,1028,8,25,,,,8.3,
Wick,20/04/2019 19:00,9.7,6,,,0,,87,,130,Dry,1028,7,16,,,,7.8,
Wick,20/04/2019 20:00,9.3,6,,,0,,92,,150,Rain,1028,7,20,,,,8.2,
Wick,20/04/2019 21:00,9.2,6,,,0,,94,,120,Dry,1027,6,21,,,,8.4,
Wick,20/04/2019 22:00,9.3,1,,,0,,94,,20,Rain,1026,8,20,,,,8.5,
Wick,20/04/2019 23:00,9.1,6,,,0,,95,,70,Dry,1025,1,16,,,,8.4,
Wick,21/04/2019 00:00,9.1,10,,,0,0,95,,80,Dry,1024,8,25,,,,8.4,
Wick,21/04/2019 01:00,8.8,8,,,0.2,,96,,80,Light shower,1023,7,13,,,,8.2,
Wick,21/04/2019 02:00,8.5,8,,,0,,97,,80,Light shower,1022,7,10,,,,8.2,
Wick,21/04/2019 03:00,8.3,6,,,0.2,,97,,100,Rain,1020,8,7,,,,8,
Wick,21/04/2019 04:00,8.1,7,,,0.2,,98,,150,Light shower,1019,8,5,,,,7.9,
Wick,21/04/2019 05:00,8.2,3,,,0,,97,,170,Rain,1019,8,5,,,,7.9,
Wick,21/04/2019 06:00,8.4,1,8.1,,0,0.6,97,,290,Misty,1018,8,5,,,,8.1,
Wick,21/04/2019 07:00,9,3,,,0,,97,,280,Misty,1018,8,6,,,,8.7,
Wick,21/04/2019 08:00,10.7,3,,,0,,97,,260,Misty,1017,8,10,,,,10.3,
Wick,21/04/2019 09:00,11.4,7,,,0,,89,,100,Haze,1016,1,8,,,,9.8,
Wick,21/04/2019 10:00,10.8,7,,,0,,86,,120,Dry,1016,8,17,,,,8.6,
Wick,21/04/2019 11:00,10.3,12,,,0,,85,,140,Dry,1015,7,12,,,,7.9,
Wick,21/04/2019 12:00,12.2,13,,,0,0,82,,150,Haze,1014,8,9,,,,9.3,
Wick,21/04/2019 13:00,14,10,,,0,,77,,160,Dry,1013,7,10,,,,10.2,
Wick,21/04/2019 14:00,15.7,13,,,0,,72,,160,Dry,1012,8,13,,,,10.8,
Wick,21/04/2019 15:00,13.8,8,,,0,,76,,120,Haze,1012,5,16,,,,9.7,
Wick,21/04/2019 16:00,13.6,8,,,0,,80,,100,Haze,1011,7,9,,,,10.3,
Wick,21/04/2019 17:00,13.5,6,,,0,,77,,130,Dry,1010,5,13,,,,9.7,
Wick,21/04/2019 18:00,15,6,,15.7,0,0,68,,140,Dry,1009,6,15,,,,9.3,
Wick,21/04/2019 19:00,12.8,3,,,0,,76,,130,Haze,1009,5,9,,,,8.8,
Wick,21/04/2019 20:00,14.5,6,,,0,,69,,150,Dry,1008,3,25,,,,9.1,
Wick,21/04/2019 21:00,12.5,6,,,0,,77,,150,Dry,1008,0,12,,,,8.7,
Wick,21/04/2019 22:00,12,6,,,0,,76,,150,Dry,1008,1,16,,,,8,
Wick,21/04/2019 23:00,12.5,9,,,0,,74,,180,Dry,1008,0,29,,,,8,
Wick,22/04/2019 00:00,12.6,12,,,0,0,71,,180,Dry,1008,0,40,,,,7.6,
Wick,22/04/2019 01:00,12.9,12,,,0,,68,,160,Dry,1007,0,40,,,,7.2,
Wick,22/04/2019 02:00,11.9,13,,,0,,72,,150,Dry,1007,0,40,,,,7.1,
Wick,22/04/2019 03:00,11.8,12,,,0,,69,,160,Dry,1007,0,35,,,,6.4,
Wick,22/04/2019 04:00,11,14,,,0,,73,,150,Dry,1006,3,16,,,,6.4,
Wick,22/04/2019 05:00,10.7,13,,,0,,75,,170,Dry,1006,6,14,,,,6.5,
Wick,22/04/2019 06:00,10.8,13,10.3,,0,0,73,,150,Dry,1006,4,13,,,,6.2,
Wick,22/04/2019 07:00,11.7,17,,,0,,69,,160,Dry,1007,0,12,,,,6.4,
Wick,22/04/2019 08:00,12.5,16,,,0,,65,,160,Dry,1007,0,17,,,,6.2,
Wick,22/04/2019 09:00,14.8,14,,,0,,57,,160,Dry,1008,0,26,,,,6.5,
Wick,22/04/2019 10:00,13.9,12,,,0,,61,,150,Dry,1008,0,15,,,,6.6,
Wick,22/04/2019 11:00,13,8,,,0,,68,,130,Haze,1008,0,10,,,,7.3,
Wick,22/04/2019 12:00,12.6,17,,,0,0,72,,130,Haze,1007,0,11,,,,7.7,
Wick,22/04/2019 13:00,12.1,17,,,0,,78,,110,Haze,1007,0,8,,,,8.5,
Wick,22/04/2019 14:00,11.7,17,,,0,,78,,100,Haze,1007,0,8,,,,8.1,
Wick,22/04/2019 15:00,11.7,21,,,0,,75,29,120,Haze,1006,0,8,,,,7.6,
Wick,22/04/2019 16:00,11.9,20,,,0,,74,30,120,Haze,1006,0,9,,,,7.5,
Wick,22/04/2019 17:00,11.9,18,,,0,,67,29,130,Haze,1006,0,9,,,,6.1,
Wick,22/04/2019 18:00,10.2,16,,15.4,0,0,74,30,130,Dry,1006,0,11,,,,5.8,
Wick,22/04/2019 19:00,9.4,15,,,0,,80,,130,Dry,1006,0,10,,,,6.3,
Wick,22/04/2019 20:00,8.8,17,,,0,,87,,130,Dry,1006,0,10,,,,6.8,
Wick,22/04/2019 21:00,8.7,20,,,0,,90,29,130,Haze,1006,0,9,,,,7.3,
Wick,22/04/2019 22:00,8.6,17,,,0,,90,32,120,Haze,1006,0,9,,,,7.2,
Wick,22/04/2019 23:00,8.4,15,,,0,,91,,130,Haze,1006,0,8,,,,7.1,
Wick,23/04/2019 00:00,8.3,16,,,0,0,92,,130,Haze,1006,0,8,,,,7.2,
Wick,23/04/2019 01:00,8.1,3,,,0,,94,,180,Haze,1006,4,7,,,,7.2,
Wick,23/04/2019 02:00,8.1,6,,,0,,93,,160,Haze,1006,7,7,,,,7.1,
Wick,23/04/2019 03:00,8.1,14,,,0,,93,,120,Haze,1005,7,8,,,,7.1,
Wick,23/04/2019 04:00,8.1,10,,,0,,94,,140,Haze,1005,4,7,,,,7.2,
Wick,23/04/2019 05:00,8,14,,,0,,94,,140,Haze,1005,2,7,,,,7.1,
Wick,23/04/2019 06:00,8.3,17,8,,0,0,93,,120,Haze,1005,0,8,,,,7.3,
Wick,23/04/2019 07:00,8.8,16,,,0,,92,,130,Haze,1005,0,8,,,,7.6,
Wick,23/04/2019 08:00,9.2,17,,,0,,89,,130,Haze,1005,3,8,,,,7.6,
Wick,23/04/2019 09:00,9.7,13,,,0,,87,,140,Haze,1005,2,10,,,,7.8,
Wick,23/04/2019 10:00,10.4,18,,,0,,84,,130,Haze,1005,0,7,,,,7.9,
Wick,23/04/2019 11:00,10.6,21,,,0,,81,29,120,Haze,1006,0,8,,,,7.5,
Wick,23/04/2019 12:00,11,21,,,0,0,78,32,120,Haze,1005,0,9,,,,7.4,
Wick,23/04/2019 13:00,10.9,26,,,0,,80,37,120,Haze,1005,0,10,,,,7.6,
Wick,23/04/2019 14:00,9.9,25,,,0,,83,38,120,Haze,1005,0,7,,,,7.3,
Wick,23/04/2019 15:00,9.6,26,,,0,,85,36,120,Haze,1004,1,9,,,,7.3,
Wick,23/04/2019 16:00,9.4,21,,,0,,86,30,120,Haze,1004,7,7,,,,7.3,
Wick,23/04/2019 17:00,9.2,20,,,0,,87,31,120,Haze,1004,8,7,,,,7.2,
Wick,23/04/2019 18:00,9.1,20,,11.6,0,0,87,30,130,Haze,1004,8,7,,,,7.2,
Wick,23/04/2019 19:00,8.9,20,,,0,,87,30,130,Haze,1004,7,7,,,,6.9,
Wick,23/04/2019 20:00,8.7,16,,,0,,87,29,130,Haze,1004,8,6,,,,6.7,
Wick,23/04/2019 21:00,8.6,17,,,0,,87,29,130,Haze,1004,8,8,,,,6.6,
Wick,23/04/2019 22:00,8.6,15,,,0,,86,,130,Haze,1004,0,8,,,,6.5,
Wick,23/04/2019 23:00,8.5,13,,,0,,87,,120,Haze,1004,0,7,,,,6.5,
Wick,24/04/2019 00:00,8.5,13,,,0,0,86,,130,Haze,1004,0,7,,,,6.4,
Wick,24/04/2019 01:00,8.6,17,,,0,,85,,120,Haze,1004,0,7,,,,6.3,
Wick,24/04/2019 02:00,8.5,15,,,0,,86,,120,Haze,1003,0,6,,,,6.3,
Wick,24/04/2019 03:00,8.6,20,,,0,,84,31,120,Haze,1002,0,7,,,,6.2,
Wick,24/04/2019 04:00,8.5,17,,,0,,84,29,110,Haze,1002,0,7,,,,6,
Wick,24/04/2019 05:00,8.5,16,,,0,,84,,110,Haze,1002,0,7,,,,6.1,
Wick,24/04/2019 06:00,8.8,16,8.4,,0,0,84,,110,Haze,1002,0,7,,,,6.3,
Wick,24/04/2019 07:00,9.4,17,,,0,,83,,110,Haze,1002,0,7,,,,6.8,
Wick,24/04/2019 08:00,9.8,17,,,0,,84,,110,Haze,1002,7,7,,,,7.4,
Wick,24/04/2019 09:00,10.2,23,,,0,,83,31,100,Haze,1002,4,6,,,,7.6,
Wick,24/04/2019 10:00,10.1,23,,,0,,81,30,100,Haze,1002,1,7,,,,7.1,
Wick,24/04/2019 11:00,9.9,23,,,0,,81,31,90,Haze,1002,7,8,,,,6.9,
Wick,24/04/2019 12:00,9.9,23,,,0,0,83,31,100,Haze,1002,8,6,,,,7.2,
Wick,24/04/2019 13:00,9.8,23,,,0,,84,33,100,Haze,1001,8,5,,,,7.3,
Wick,24/04/2019 14:00,9.4,24,,,0,,88,31,90,Haze,1001,8,6,,,,7.6,
Wick,24/04/2019 15:00,9.2,20,,,0,,89,30,100,Haze,1000,8,6,,,,7.5,
Wick,24/04/2019 16:00,9,22,,,0,,89,,90,Haze,1000,8,7,,,,7.4,
Wick,24/04/2019 17:00,9.2,17,,,0,,87,,90,Haze,1000,8,6,,,,7.3,
Wick,24/04/2019 18:00,8.9,16,,10.9,0,0,89,,90,Haze,999,8,6,,,,7.3,
Wick,24/04/2019 19:00,8.9,17,,,0,,90,,80,Haze,999,8,6,,,,7.4,
Wick,24/04/2019 20:00,8.8,17,,,0,,91,,80,Haze,999,8,6,,,,7.5,
Wick,24/04/2019 21:00,8.7,18,,,0,,92,,80,Haze,998,8,5,,,,7.6,
Wick,24/04/2019 22:00,8.4,16,,,0,,97,,80,Misty,998,8,3,,,,8.1,
Wick,24/04/2019 23:00,8.4,16,,,0,,99,,80,Misty,997,8,1,,,,8.3,
Wick,25/04/2019 00:00,8.4,14,,,0,0,100,,90,Light drizzle,997,9,0,,,,8.4,
Wick,25/04/2019 01:00,8.3,12,,,0,,100,,110,Fog thinning,996,8,1,,,,8.3,
Wick,25/04/2019 02:00,8.3,12,,,0,,100,,100,Drizzly rain,996,9,0,,,,8.3,
Wick,25/04/2019 03:00,8.3,13,,,0,,100,,100,Rain,996,8,2,,,,8.3,
Wick,25/04/2019 04:00,8.5,8,,,0,,100,,110,Misty,995,8,3,,,,8.5,
Wick,25/04/2019 05:00,8.6,9,,,0,,100,,120,Misty,996,8,4,,,,8.6,
Wick,25/04/2019 06:00,8.7,12,8.3,,0,0,99,,120,Misty,996,8,5,,,,8.6,
Wick,25/04/2019 07:00,8.8,9,,,0.2,,99,,130,Light shower,996,8,4,,,,8.7,
Wick,25/04/2019 08:00,8.5,12,,,1.4,,99,,100,Moderate shower,996,8,4,,,,8.4,
Wick,25/04/2019 09:00,8.7,17,,,0.4,,99,,130,Rain,997,8,4,,,,8.6,
Wick,25/04/2019 10:00,9.4,13,,,0,,100,,140,Misty,998,7,4,,,,9.4,
Wick,25/04/2019 11:00,10.7,12,,,0,,94,,140,Misty,998,7,8,,,,9.8,
Wick,25/04/2019 12:00,11.9,12,,,0,2,86,,140,Dry,998,3,11,,,,9.8,
Wick,25/04/2019 13:00,12.4,13,,,0,,79,,130,Dry,1000,2,15,,,,9,
Wick,25/04/2019 14:00,11.6,16,,,0,,81,,120,Haze,1000,0,14,,,,8.5,
Wick,25/04/2019 15:00,11.6,18,,,0,,78,,120,Dry,1000,0,12,,,,8,
Wick,25/04/2019 16:00,11.2,18,,,0,,81,,120,Dry,1000,3,18,,,,8.1,
Wick,25/04/2019 17:00,10,13,,,0,,85,,110,Dry,1001,6,10,,,,7.7,
Wick,25/04/2019 18:00,9.5,17,,12.7,0,0,89,,110,Dry,1001,8,10,,,,7.8,
Wick,25/04/2019 19:00,8.8,16,,,0,,94,,110,Misty,1001,4,9,,,,7.9,
Wick,25/04/2019 20:00,8.6,16,,,0,,95,,110,Misty,1002,7,8,,,,7.9,
Wick,25/04/2019 21:00,8.5,20,,,0,,99,,100,Light shower,1001,7,2,,,,8.4,
Wick,25/04/2019 22:00,8.6,15,,,0,,100,,120,Rain,1001,7,2,,,,8.6,
Wick,25/04/2019 23:00,8.6,17,,,0,,100,,110,Misty,1001,8,4,,,,8.6,
Wick,26/04/2019 00:00,8.6,16,,,0,0,99,,120,Misty,1000,8,5,,,,8.5,
Wick,26/04/2019 01:00,8.6,15,,,0,,97,,130,Misty,1000,8,7,,,,8.2,
Wick,26/04/2019 02:00,8.6,15,,,0,,96,,130,Misty,1000,1,8,,,,8,
Wick,26/04/2019 03:00,8.6,13,,,0,,95,,140,Misty,1000,8,7,,,,7.9,
Wick,26/04/2019 04:00,8.2,8,,,0,,94,,150,Misty,1000,3,10,,,,7.3,
Wick,26/04/2019 05:00,8.1,10,,,0,,94,,140,Misty,1001,1,9,,,,7.3,
Wick,26/04/2019 06:00,8.3,12,8.1,,0,0,94,,130,Misty,1001,3,9,,,,7.4,
Wick,26/04/2019 07:00,8.1,14,,,0,,94,,150,Misty,1001,7,9,,,,7.2,
Wick,26/04/2019 08:00,9.1,12,,,0,,92,,140,Haze,1002,7,8,,,,8,
Wick,26/04/2019 09:00,9.7,20,,,0,,87,29,130,Dry,1002,2,15,,,,7.7,
Wick,26/04/2019 10:00,10.3,20,,,0,,84,,130,Dry,1002,0,14,,,,7.8,
Wick,26/04/2019 11:00,10.6,21,,,0,,82,30,120,Haze,1001,0,16,,,,7.7,
Wick,26/04/2019 12:00,11.1,21,,,0,0,78,,120,Dry,1001,0,12,,,,7.6,
Wick,26/04/2019 13:00,10.9,16,,,0,,81,32,120,Dry,1001,1,12,,,,7.9,
Wick,26/04/2019 14:00,11.2,21,,,0,,79,31,120,Dry,1001,1,11,,,,7.7,
Wick,26/04/2019 15:00,11,17,,,0,,78,30,120,Dry,1001,2,10,,,,7.4,
Wick,26/04/2019 16:00,10.4,22,,,0,,83,31,120,Haze,1001,1,12,,,,7.8,
Wick,26/04/2019 17:00,10.1,21,,,0,,83,32,120,Dry,1000,0,9,,,,7.4,
Wick,26/04/2019 18:00,9.5,22,,11.7,0,0,84,32,120,Haze,1000,0,10,,,,7.1,
Wick,26/04/2019 19:00,8.9,21,,,0,,88,31,120,Haze,1000,0,9,,,,7.1,
Wick,26/04/2019 20:00,8.9,20,,,0,,90,29,120,Haze,1000,6,8,,,,7.4,
Wick,26/04/2019 21:00,9,18,,,0,,90,30,120,Haze,1000,7,9,,,,7.5,
Wick,26/04/2019 22:00,8.9,16,,,0,,91,29,120,Haze,1000,8,8,,,,7.6,
Wick,26/04/2019 23:00,8.9,16,,,0,,94,29,130,Light shower,1000,7,8,,,,8,
Wick,27/04/2019 00:00,8.9,15,,,0.2,0.2,94,,130,Drizzly rain,1000,7,9,,,,8.1,
Wick,27/04/2019 01:00,8.4,14,,,0,,96,,120,Rain,1000,6,7,,,,7.9,
Wick,27/04/2019 02:00,8.4,9,,,0,,97,,110,Misty,1000,7,6,,,,8,
Wick,27/04/2019 03:00,8.4,9,,,0.2,,97,,120,Light shower,1000,8,5,,,,8.1,
Wick,27/04/2019 04:00,8.2,10,,,0.6,,99,,100,Light rain,1000,8,4,,,,8.1,
Wick,27/04/2019 05:00,8.2,14,,,0.2,,100,,100,Rain,1000,8,6,,,,8.2,
Wick,27/04/2019 06:00,8.4,12,8.2,,0,0.8,100,,100,Misty,1000,7,5,,,,8.4,
Wick,27/04/2019 07:00,8.6,12,,,0,,99,,110,Misty,1001,8,5,,,,8.5,
Wick,27/04/2019 08:00,8.6,13,,,0,,98,,130,Misty,1002,8,7,,,,8.4,
Wick,27/04/2019 09:00,9,10,,,0,,98,,110,Misty,1002,8,7,,,,8.8,
Wick,27/04/2019 10:00,9.5,13,,,0,,96,,100,Misty,1003,2,8,,,,8.9,
Wick,27/04/2019 11:00,9.1,10,,,0,,96,,90,Misty,1004,6,6,,,,8.6,
Wick,27/04/2019 12:00,9.1,13,,,0,0,96,,90,Misty,1005,8,6,,,,8.5,
Wick,27/04/2019 13:00,9.4,12,,,0,,94,,100,Misty,1005,8,8,,,,8.6,
Wick,27/04/2019 14:00,9.2,12,,,0,,94,,80,Misty,1006,8,6,,,,8.4,
Wick,27/04/2019 15:00,9.5,12,,,0,,94,,70,Misty,1007,7,4,,,,8.7,
Wick,27/04/2019 16:00,8.8,12,,,0,,94,,60,Haze,1008,8,6,,,,7.9,
Wick,27/04/2019 17:00,8.7,10,,,0,,95,,50,Misty,1008,8,12,,,,8,
Wick,27/04/2019 18:00,8.5,9,,9.9,0,0,93,,50,Dry,1009,8,11,,,,7.5,
Wick,27/04/2019 19:00,8.4,9,,,0,,89,,50,Dry,1010,8,21,,,,6.8,
Wick,27/04/2019 20:00,8.3,7,,,0,,91,,30,Dry,1011,8,11,,,,7,
Wick,27/04/2019 21:00,8.3,7,,,0,,94,,40,Dry,1012,8,11,,,,7.5,
Wick,27/04/2019 22:00,8.3,6,,,0,,97,,60,Misty,1013,8,6,,,,7.9,
Wick,27/04/2019 23:00,8.2,3,,,0,,97,,60,Misty,1014,8,6,,,,7.9,
Wick,28/04/2019 00:00,8.1,1,,,0,0,97,,270,Dry,1014,8,10,,,,7.7,
Wick,28/04/2019 01:00,8.1,1,,,0,,96,,300,Misty,1015,8,7,,,,7.6,
Wick,28/04/2019 02:00,8.3,3,,,0,,94,,220,Dry,1016,8,9,,,,7.4,
Wick,28/04/2019 03:00,8,3,,,0,,95,,90,Misty,1016,7,10,,,,7.3,
Wick,28/04/2019 04:00,7.9,1,,,0,,95,,200,Dry,1017,8,10,,,,7.2,
Wick,28/04/2019 05:00,8.2,3,,,0,,94,,110,Misty,1017,8,9,,,,7.4,
Wick,28/04/2019 06:00,8.5,2,7.7,,0,0,92,,140,Dry,1018,8,14,,,,7.3,
Wick,28/04/2019 07:00,8.9,3,,,0,,88,,130,Dry,1019,7,16,,,,7.1,
Wick,28/04/2019 08:00,9.4,6,,,0,,86,,130,Dry,1019,8,19,,,,7.3,
Wick,28/04/2019 09:00,10.2,6,,,0,,86,,160,Dry,1020,8,30,,,,8.1,
Wick,28/04/2019 10:00,10.3,9,,,0,,83,,140,Dry,1020,5,15,,,,7.7,
Wick,28/04/2019 11:00,10.5,10,,,0,,81,,130,Dry,1021,5,30,,,,7.4,
Wick,28/04/2019 12:00,11,10,,,0,0,81,,140,Dry,1021,4,21,,,,7.9,
Wick,28/04/2019 13:00,11,10,,,0,,82,,130,Dry,1021,7,13,,,,8.2,
Wick,28/04/2019 14:00,11.1,12,,,0,,79,,130,Dry,1022,0,18,,,,7.7,
Wick,28/04/2019 15:00,11.5,10,,,0,,74,,130,Dry,1022,0,19,,,,7.1,
Wick,28/04/2019 16:00,11.5,10,,,0,,76,,120,Dry,1022,1,16,,,,7.6,
Wick,28/04/2019 17:00,9.3,12,,,0,,89,,120,Dry,1022,1,35,,,,7.6,
Wick,28/04/2019 18:00,9.9,13,,12,0,0,89,,120,Dry,1022,6,30,,,,8.2,
Wick,28/04/2019 19:00,9.2,12,,,0,,89,,120,Dry,1023,1,13,,,,7.6,
Wick,28/04/2019 20:00,8.7,10,,,0,,89,,120,Dry,1024,0,14,,,,7.1,
Wick,28/04/2019 21:00,8.4,10,,,0,,90,,120,Dry,1024,0,12,,,,6.9,
Wick,28/04/2019 22:00,8.3,10,,,0,,92,,120,Dry,1024,0,12,,,,7.1,
Wick,28/04/2019 23:00,8.1,8,,,0,,92,,120,Dry,1024,0,11,,,,7,
Wick,29/04/2019 00:00,7.9,10,,,0,0,94,,120,Dry,1025,0,12,,,,7.1,
Wick,29/04/2019 01:00,7.8,9,,,0,,94,,130,Dry,1025,0,12,,,,6.9,
Wick,29/04/2019 02:00,7.7,10,,,0,,95,,120,Dry,1025,3,11,,,,7,
Wick,29/04/2019 03:00,7.7,12,,,0,,95,,130,Dry,1025,5,10,,,,7,
Wick,29/04/2019 04:00,7.5,14,,,0,,95,,130,Dry,1025,6,10,,,,6.8,
Wick,29/04/2019 05:00,7.5,7,,,0,,95,,130,Misty,1026,8,10,,,,6.8,
Wick,29/04/2019 06:00,7.2,9,7.1,,0,0,95,,130,Misty,1026,8,9,,,,6.6,
Wick,29/04/2019 07:00,7.8,13,,,0,,94,,120,Dry,1026,8,11,,,,6.9,
Wick,29/04/2019 08:00,8,14,,,0,,90,,120,Dry,1027,8,15,,,,6.5,
Wick,29/04/2019 09:00,7.9,14,,,0,,89,,130,Dry,1027,8,13,,,,6.3,
Wick,29/04/2019 10:00,8.4,13,,,0,,88,,130,Dry,1027,8,15,,,,6.6,
Wick,29/04/2019 11:00,9.1,12,,,0,,84,,140,Dry,1027,8,11,,,,6.6,
Wick,29/04/2019 12:00,9.6,13,,,0,0,83,,130,Dry,1027,8,17,,,,7,
Wick,29/04/2019 13:00,10.1,14,,,0,,81,,120,Haze,1027,6,9,,,,7.1,
Wick,29/04/2019 14:00,9.9,16,,,0,,83,,100,Dry,1027,4,12,,,,7.2,
Wick,29/04/2019 15:00,10.3,15,,,0,,83,,110,Dry,1026,1,12,,,,7.6,
Wick,29/04/2019 16:00,9.8,15,,,0,,82,,120,Dry,1026,0,29,,,,6.9,
Wick,29/04/2019 17:00,9.7,15,,,0,,83,,120,Dry,1026,0,19,,,,7.1,
Wick,29/04/2019 18:00,9.3,14,,10.8,0,0,85,,120,Dry,1026,0,15,,,,7,
Wick,29/04/2019 19:00,8.5,13,,,0,,88,,110,Dry,1026,0,18,,,,6.7,
Wick,29/04/2019 20:00,7.8,13,,,0,,92,,110,Dry,1026,2,16,,,,6.6,
Wick,29/04/2019 21:00,7.7,14,,,0,,92,,110,Dry,1026,6,20,,,,6.5,
Wick,29/04/2019 22:00,7.8,15,,,0,,92,,120,Dry,1026,7,17,,,,6.7,
Wick,29/04/2019 23:00,7.6,15,,,0,,92,,120,Dry,1026,7,15,,,,6.4,
Wick,30/04/2019 00:00,7.7,12,,,0,0,92,,110,Dry,1026,8,16,,,,6.5,
Wick,30/04/2019 01:00,7.4,12,,,0,,90,,110,Dry,1025,8,20,,,,6,
Wick,30/04/2019 02:00,7.4,14,,,0,,90,,120,Dry,1025,8,25,,,,5.9,
Wick,30/04/2019 03:00,7.1,13,,,0,,90,,120,Dry,1024,6,20,,,,5.7,
Wick,30/04/2019 04:00,7.3,8,,,0,,90,,130,Dry,1024,8,27,,,,5.9,
Wick,30/04/2019 05:00,7.5,8,,,0,,90,,120,Dry,1024,8,19,,,,6.1,
Wick,30/04/2019 06:00,7.8,9,6.8,,0,0,90,,110,Dry,1023,8,21,,,,6.3,
Wick,30/04/2019 07:00,8.3,8,,,0,,88,,130,Dry,1023,8,15,,,,6.5,
Wick,30/04/2019 08:00,9.3,8,,,0,,86,,130,Dry,1023,1,14,,,,7.1,
Wick,30/04/2019 09:00,10,6,,,0,,81,,130,Dry,1023,1,25,,,,7,
Wick,30/04/2019 10:00,9.5,9,,,0,,87,,120,Haze,1023,2,11,,,,7.5,
Wick,30/04/2019 11:00,8.8,10,,,0,,94,,130,Thickening fog,1022,7,1,,,,7.9,
Wick,30/04/2019 12:00,8.9,13,,,0,0,94,,130,Thickening fog,1022,8,1,,,,8.1,
Wick,30/04/2019 13:00,10,10,,,0,,90,,140,Fog,1022,5,14,,,,8.5,
Wick,30/04/2019 14:00,11.1,12,,,0,,80,,130,Dry,1021,0,27,,,,7.8,
Wick,30/04/2019 15:00,11.3,12,,,0,,78,,130,Dry,1021,0,35,,,,7.7,
Wick,30/04/2019 16:00,12,9,,,0,,74,,130,Dry,1021,0,27,,,,7.6,
Wick,30/04/2019 17:00,10.8,7,,,0,,86,,120,Dry,1021,3,12,,,,8.7,
Wick,30/04/2019 18:00,10.3,6,,12.4,0,0,90,,110,Dry,1020,7,11,,,,8.8,
Wick,30/04/2019 19:00,8.9,8,,,0,,94,,90,Thickening fog,1020,2,0,,,,8.1,
Wick,30/04/2019 20:00,7.8,9,,,0,,97,,100,Moderate drizzle,1020,6,0,,,,7.5,
Wick,30/04/2019 21:00,7.3,6,,,0,,99,,110,Light rain,1020,9,0,,,,7.2,
Wick,30/04/2019 22:00,7.1,5,,,0,,99,,110,Light shower,1020,9,0,,,,7,
Wick,30/04/2019 23:00,7,5,,,0,,99,,80,Fog,1020,9,0,,,,6.9,
Wick,01/05/2019 00:00,7.1,6,,,0,0,100,,60,Fog,1019,9,0,,,,7.1,
Wick,01/05/2019 01:00,6.9,8,,,0,,100,,50,Fog thinning,1019,9,0,,,,6.9,
Wick,01/05/2019 02:00,6.8,6,,,0,,100,,80,Fog thinning,1018,9,1,,,,6.8,
Wick,01/05/2019 03:00,6.7,7,,,0,,100,,70,Fog,1018,9,0,,,,6.7,
Wick,01/05/2019 04:00,6.7,6,,,0,,100,,90,Fog,1018,9,0,,,,6.7,
Wick,01/05/2019 05:00,6.8,7,,,0,,100,,90,Fog thinning,1018,8,0,,,,6.8,
Wick,01/05/2019 06:00,7,6,6.6,,0,0,100,,100,Fog thinning,1018,8,1,,,,7,
Wick,01/05/2019 07:00,7.2,6,,,0,,100,,100,Fog,1018,8,2,,,,7.2,
Wick,01/05/2019 08:00,7.3,6,,,0,,100,,100,Fog,1018,8,2,,,,7.3,
Wick,01/05/2019 09:00,7.4,6,,,0,,100,,70,Misty,1017,8,4,,,,7.4,
Wick,01/05/2019 10:00,7.9,6,,,0,,99,,80,Misty,1017,8,6,,,,7.8,
Wick,01/05/2019 11:00,7.8,5,,,0,,97,,140,Misty,1017,8,5,,,,7.5,
Wick,01/05/2019 12:00,8.1,5,,,0,0,95,,100,Misty,1017,8,7,,,,7.5,
Wick,01/05/2019 13:00,8.5,5,,,0,,94,,80,Haze,1017,8,9,,,,7.7,
Wick,01/05/2019 14:00,8.4,7,,,0,,92,,70,Haze,1016,8,7,,,,7.3,
Wick,01/05/2019 15:00,8.1,6,,,0,,92,,50,Haze,1016,8,10,,,,6.9,
Wick,01/05/2019 16:00,8.9,3,,,0,,89,,30,Dry,1016,8,18,,,,7.2,
Wick,01/05/2019 17:00,9,3,,,0,,82,,50,Dry,1015,8,30,,,,6.2,
Wick,01/05/2019 18:00,8.7,3,,9.4,0,0,81,,70,Dry,1015,8,27,,,,5.8,
Wick,01/05/2019 19:00,8.6,3,,,0,,86,,350,Dry,1015,8,35,,,,6.4,
Wick,01/05/2019 20:00,8.6,8,,,0,,88,,300,Dry,1015,8,30,,,,6.8,
Wick,01/05/2019 21:00,8.6,7,,,0,,87,,320,Dry,1015,8,40,,,,6.7,
Wick,01/05/2019 22:00,8.2,12,,,0,,89,,340,Dry,1014,8,35,,,,6.6,
Wick,01/05/2019 23:00,8,7,,,0,,88,,310,Dry,1014,8,45,,,,6.2,
Wick,02/05/2019 00:00,7.8,7,,,0,0,90,,280,Dry,1014,8,30,,,,6.3,
Wick,02/05/2019 01:00,7.7,7,,,0,,90,,300,Dry,1013,8,40,,,,6.3,
Wick,02/05/2019 02:00,7.8,10,,,0,,86,,320,Dry,1013,8,45,,,,5.7,
Wick,02/05/2019 03:00,7.8,14,,,0,,80,,320,Dry,1012,7,40,,,,4.7,
Wick,02/05/2019 04:00,6.8,14,,,0,,87,,330,Dry,1012,8,25,,,,4.9,
Wick,02/05/2019 05:00,7.2,10,,,0,,82,,310,Dry,1012,8,50,,,,4.5,
Wick,02/05/2019 06:00,6.7,16,6.7,,0,0,95,,310,Dry,1012,8,40,,,,6,
Wick,02/05/2019 07:00,6.5,16,,,0,,93,,350,Dry,1013,4,18,,,,5.6,
Wick,02/05/2019 08:00,7.3,16,,,0,,80,,340,Dry,1013,8,35,,,,4.2,
Wick,02/05/2019 09:00,7.6,17,,,0,,76,,350,Dry,1013,8,40,,,,3.8,
Wick,02/05/2019 10:00,8,20,,,0,,71,32,20,Dry,1014,8,21,,,,3.2,
Wick,02/05/2019 11:00,7.7,20,,,0,,68,,10,Dry,1014,8,30,,,,2.2,
Wick,02/05/2019 12:00,8.3,21,,,0,0,67,,360,Dry,1015,8,15,,,,2.6,
Wick,02/05/2019 13:00,8.8,21,,,0,,53,,360,Dry,1015,7,35,,,,0,
Wick,02/05/2019 14:00,7.8,16,,,0,,57,29,10,Dry,1016,8,29,,,,0,
Wick,02/05/2019 15:00,8.2,20,,,0,,59,,360,Dry,1016,7,40,,,,0.9,
Wick,02/05/2019 16:00,7.1,20,,,0,,55,29,350,Dry,1016,7,26,,,,-1.1,
Wick,02/05/2019 17:00,6.3,13,,,0,,71,,340,Light shower,1017,8,11,,,,1.6,
Wick,02/05/2019 18:00,6.2,17,,9.7,0.2,0.2,66,,350,Rain,1017,7,23,,,,0.4,
Wick,02/05/2019 19:00,5.6,15,,,0,,62,,350,Dry,1017,6,35,,,,-1,
Wick,02/05/2019 20:00,4.8,18,,,0,,76,,350,Light shower,1018,8,10,,,,1.1,
Wick,02/05/2019 21:00,5,15,,,0,,70,,340,Rain,1018,1,30,,,,0,
Wick,02/05/2019 22:00,4.6,9,,,0,,75,,340,Dry,1018,8,16,,,,0.6,
Wick,02/05/2019 23:00,4.9,9,,,0,,73,,330,Dry,1018,8,35,,,,0.6,
Wick,03/05/2019 00:00,4.4,12,,,0,0,75,,320,Rain,1017,7,35,,,,0.4,
Wick,03/05/2019 01:00,4.2,12,,,0,,78,,320,Dry,1017,8,26,,,,0.8,
Wick,03/05/2019 02:00,3.3,7,,,0,,82,,290,Dry,1016,8,40,,,,0.6,
Wick,03/05/2019 03:00,2.5,13,,,0.2,,91,35,300,Rain,1016,2,35,,,,1.2,
Wick,03/05/2019 04:00,3.1,13,,,0,,86,,330,Dry,1016,7,30,,,,1,
Wick,03/05/2019 05:00,3.2,9,,,0,,86,,300,Light shower,1016,1,24,,,,1.2,
Wick,03/05/2019 06:00,3.8,15,2.3,,0,0.2,77,33,320,Rain,1016,7,18,,,,0.3,
Wick,03/05/2019 07:00,5.1,22,,,0,,57,32,320,Dry,1016,2,30,,,,-2.7,
Wick,03/05/2019 08:00,5.4,25,,,0,,58,36,310,Rain,1016,1,35,,,,-2,
Wick,03/05/2019 09:00,5.8,23,,,0.4,,79,41,310,Rain,1016,1,22,,,,2.6,
Wick,03/05/2019 10:00,7.3,24,,,0,,58,33,330,Dry,1016,3,26,,,,-0.2,
Wick,03/05/2019 11:00,7.4,22,,,0,,66,41,310,Rain,1015,5,16,,,,1.5,
Wick,03/05/2019 12:00,5.9,26,,,0,0.4,68,40,330,Rain,1016,5,30,,,,0.5,
Wick,03/05/2019 13:00,5.8,23,,,0,,62,37,330,Rain,1017,8,24,,,,-0.9,
Wick,03/05/2019 14:00,4.8,8,,,0.4,,89,36,300,Rain,1017,5,45,,,,3.3,
Wick,03/05/2019 15:00,5.3,21,,,0.4,,83,39,360,Light shower,1017,6,18,,,,2.8,
Wick,03/05/2019 16:00,5.6,21,,,0,,67,29,10,Rain,1017,7,40,,,,0.1,
Wick,03/05/2019 17:00,4.1,17,,,0,,83,31,330,Light shower,1018,1,26,,,,1.6,
Wick,03/05/2019 18:00,4.2,22,,8.6,0.2,0.6,68,36,350,Rain,1019,7,50,,,,-1,
Wick,03/05/2019 19:00,4.7,16,,,0,,71,,340,Dry,1019,3,21,,,,-0.1,
Wick,03/05/2019 20:00,4.6,22,,,0,,61,29,350,Dry,1020,7,30,,,,-2.1,
Wick,03/05/2019 21:00,3.1,14,,,0,,72,29,320,Dry,1020,0,16,,,,-1.4,
Wick,03/05/2019 22:00,3.4,15,,,0,,75,,320,Dry,1020,2,20,,,,-0.6,
Wick,03/05/2019 23:00,3.7,16,,,0,,74,,330,Dry,1021,0,19,,,,-0.4,
Wick,04/05/2019 00:00,3.3,21,,,0,0,78,,330,Dry,1021,1,40,,,,-0.1,
Wick,04/05/2019 01:00,2.1,16,,,0,,87,37,330,Rain,1022,4,35,,,,0.2,
Wick,04/05/2019 02:00,2.8,18,,,0.4,,92,33,340,Rain,1022,6,20,,,,1.7,
Wick,04/05/2019 03:00,2.2,12,,,0,,89,,320,Rain,1022,2,11,,,,0.7,
Wick,04/05/2019 04:00,3.4,12,,,0,,87,,330,Rain,1022,2,17,,,,1.6,
Wick,04/05/2019 05:00,3.9,20,,,0,,80,,340,Dry,1022,4,26,,,,0.9,
Wick,04/05/2019 06:00,3.2,20,0.9,,0.2,0.6,91,32,350,Light shower,1023,5,15,,,,1.9,
Wick,04/05/2019 07:00,5.4,21,,,0,,82,,330,Rain,1023,6,14,,,,2.6,
Wick,04/05/2019 08:00,5.8,24,,,0,,77,33,330,Rain,1023,5,20,,,,2.2,
Wick,04/05/2019 09:00,5.8,25,,,0,,69,35,340,Dry,1024,7,22,,,,0.7,
Wick,04/05/2019 10:00,6,20,,,0.2,,78,32,340,Rain,1024,7,15,,,,2.5,
Wick,04/05/2019 11:00,6.3,22,,,0,,66,30,340,Dry,1025,7,28,,,,0.5,
Wick,04/05/2019 12:00,6.8,20,,,0,0.2,66,,330,Dry,1025,8,27,,,,0.9,
Wick,04/05/2019 13:00,7.6,18,,,0,,67,,330,Dry,1025,8,20,,,,1.9,
Wick,04/05/2019 14:00,7.4,20,,,0,,60,,340,Dry,1025,7,22,,,,0.3,
Wick,04/05/2019 15:00,7.3,20,,,0,,63,,330,Dry,1026,8,18,,,,0.9,
Wick,04/05/2019 16:00,6.9,22,,,0,,59,,310,Dry,1026,7,30,,,,-0.4,
Wick,04/05/2019 17:00,7.8,22,,,0,,60,31,320,Dry,1026,6,30,,,,0.6,
Wick,04/05/2019 18:00,7,21,,8.4,0,0,59,,320,Dry,1026,2,22,,,,-0.4,
Wick,04/05/2019 19:00,5.8,18,,,0,,67,,310,Dry,1026,7,29,,,,0.3,
Wick,04/05/2019 20:00,5.2,13,,,0,,67,,320,Dry,1026,1,30,,,,-0.3,
Wick,04/05/2019 21:00,4.9,10,,,0,,69,,300,Dry,1026,8,22,,,,-0.2,
Wick,04/05/2019 22:00,4.2,10,,,0,,66,,280,Dry,1026,7,40,,,,-1.4,
Wick,04/05/2019 23:00,3.6,10,,,0,,81,,270,Dry,1025,8,28,,,,0.7,
Wick,05/05/2019 00:00,4.4,9,,,0,0,81,,280,Dry,1025,2,30,,,,1.6,
Wick,05/05/2019 01:00,4.7,9,,,0,,79,,280,Rain,1025,7,30,,,,1.4,
Wick,05/05/2019 02:00,4.7,22,,,0,,78,29,290,Dry,1024,8,40,,,,1.3,
Wick,05/05/2019 03:00,3.6,14,,,0.2,,90,,260,Rain,1024,1,27,,,,2.2,
Wick,05/05/2019 04:00,4.5,18,,,0,,84,,300,Dry,1024,7,40,,,,2.1,
Wick,05/05/2019 05:00,3.9,10,,,0.2,,89,30,280,Rain,1023,1,35,,,,2.4,
Wick,05/05/2019 06:00,4.6,15,2.8,,0,0.4,86,,270,Rain,1023,8,30,,,,2.6,
Wick,05/05/2019 07:00,6.2,18,,,0,,76,31,280,Dry,1022,4,35,,,,2.4,
Wick,05/05/2019 08:00,6.4,23,,,0,,75,32,270,Dry,1022,6,30,,,,2.3,
Wick,05/05/2019 09:00,6.7,23,,,0,,87,36,290,Light shower,1022,2,29,,,,4.7,
Wick,05/05/2019 10:00,9.3,28,,,0,,70,39,290,Rain,1021,8,28,,,,4.3,
Wick,05/05/2019 11:00,7.1,25,,,0,,86,38,290,Rain,1021,8,8,,,,5,
Wick,05/05/2019 12:00,8.1,26,,,0.6,0.6,87,40,290,Rain,1021,8,9,,,,6.2,
Wick,05/05/2019 13:00,8.3,25,,,0,,84,39,290,Rain,1021,7,30,,,,5.8,
Wick,05/05/2019 14:00,9.2,33,,,0,,65,44,310,Dry,1021,5,35,,,,3,
Wick,05/05/2019 15:00,7.8,29,,,0,,73,45,300,Rain,1020,7,18,,,,3.4,
Wick,05/05/2019 16:00,9.3,28,,,0,,60,43,310,Dry,1020,7,15,,,,2,
Wick,05/05/2019 17:00,8.5,23,,,0,,64,41,320,Dry,1020,3,22,,,,2.2,
Wick,05/05/2019 18:00,6.4,20,,10.1,0,0,71,33,320,Dry,1021,8,22,,,,1.6,
Wick,05/05/2019 19:00,5.5,21,,,0,,75,29,310,Rain,1021,8,29,,,,1.6,
Wick,05/05/2019 20:00,5.1,18,,,0,,70,29,310,Dry,1021,8,25,,,,0.1,
Wick,05/05/2019 21:00,4.7,16,,,0,,75,,330,Rain,1021,7,30,,,,0.8,
Wick,05/05/2019 22:00,4.5,16,,,0,,60,,330,Dry,1021,7,30,,,,-2.5,
Wick,05/05/2019 23:00,2.6,10,,,0,,70,,310,Dry,1021,1,35,,,,-2.3,
Wick,06/05/2019 00:00,2.6,10,,,0.2,0.2,89,,310,Rain,1021,6,21,,,,1.1,
Wick,06/05/2019 01:00,2.6,9,,,0,,89,,300,Rain,1021,7,30,,,,1,
Wick,06/05/2019 02:00,1.3,9,,,0,,91,,270,Dry,1021,5,25,,,,0.1,
Wick,06/05/2019 03:00,0.2,7,,,0,,90,,290,Dry,1021,1,22,,,,-1.1,
Wick,06/05/2019 04:00,-0.2,7,,,0,,91,,270,Dry,1020,0,23,,,,-1.4,
Wick,06/05/2019 05:00,0.7,8,,,0,,90,,310,Dry,1020,0,22,,,,-0.6,
Wick,06/05/2019 06:00,3.4,10,-0.5,,0,0,85,,320,Dry,1020,1,24,,,,1.2,
Wick,06/05/2019 07:00,5.8,15,,,0,,75,,330,Dry,1020,1,22,,,,1.9,
Wick,06/05/2019 08:00,5.3,18,,,0,,76,,350,Dry,1020,3,20,,,,1.6,
Wick,06/05/2019 09:00,7.4,16,,,0,,66,,340,Dry,1021,0,45,,,,1.5,
Wick,06/05/2019 10:00,7.2,16,,,0,,72,,10,Dry,1021,1,40,,,,2.6,
Wick,06/05/2019 11:00,8.2,13,,,0,,64,,10,Dry,1021,4,50,,,,2,
Wick,06/05/2019 12:00,7,10,,,0.2,0.2,65,,340,Rain,1021,2,30,,,,0.9,
Wick,06/05/2019 13:00,7.2,12,,,0,,63,,10,Dry,1021,5,29,,,,0.7,
Wick,06/05/2019 14:00,6.6,8,,,0.4,,69,,30,Rain,1021,7,35,,,,1.4,
Wick,06/05/2019 15:00,7.1,14,,,0,,65,,320,Dry,1021,6,24,,,,1.1,
Wick,06/05/2019 16:00,7.5,15,,,0,,64,,360,Dry,1020,4,50,,,,1.2,
Wick,06/05/2019 17:00,6.1,17,,,0,,72,,20,Dry,1021,6,40,,,,1.6,
Wick,06/05/2019 18:00,6.4,13,,8.8,0,0.4,68,,350,Dry,1020,1,40,,,,1.1,
Wick,06/05/2019 19:00,4,3,,,0.4,,84,,130,Rain,1020,7,27,,,,1.6,
Wick,06/05/2019 20:00,2.6,5,,,0,,87,,290,Dry,1020,3,45,,,,0.8,
Wick,06/05/2019 21:00,2.2,6,,,0,,89,,240,Dry,1020,5,45,,,,0.7,
Wick,06/05/2019 22:00,0.5,7,,,0,,91,,290,Dry,1020,1,26,,,,-0.7,
Wick,06/05/2019 23:00,-0.2,8,,,0,,90,,320,Dry,1020,0,30,,,,-1.5,
Wick,07/05/2019 00:00,-0.1,6,,,0,0.4,90,,240,Dry,1020,0,40,,,,-1.4,
Wick,07/05/2019 01:00,0.3,8,,,0,,95,,330,Dry,1019,0,25,,,,-0.4,
Wick,07/05/2019 02:00,-1.3,5,,,0,,95,,260,Dry,1019,0,23,,,,-1.9,
Wick,07/05/2019 03:00,-1.3,7,,,0,,97,,280,Dry,1019,0,30,,,,-1.7,
Wick,07/05/2019 04:00,-2.2,6,,,0,,97,,250,Dry,1018,0,30,,,,-2.6,
Wick,07/05/2019 05:00,-2.4,7,,,0,,97,,250,Dry,1018,0,35,,,,-2.8,
Wick,07/05/2019 06:00,-0.7,7,-2.7,,0,0,96,,260,Dry,1017,0,24,,,,-1.2,
Wick,07/05/2019 07:00,1.8,5,,,0.2,,96,,250,Dry,1017,0,29,,,,1.3,
Wick,07/05/2019 08:00,5.1,7,,,0,,82,,310,Dry,1017,1,40,,,,2.4,
Wick,07/05/2019 09:00,5.8,8,,,0,,71,,350,Dry,1016,7,30,,,,1.1,
Wick,07/05/2019 10:00,5.9,3,,,0,,65,,350,Rain,1016,5,26,,,,0,
Wick,07/05/2019 11:00,7.1,6,,,0,,59,,60,Dry,1015,7,40,,,,-0.2,
Wick,07/05/2019 12:00,7.7,7,,,0,0.2,57,,70,Dry,1015,7,35,,,,-0.1,
Wick,07/05/2019 13:00,6.6,6,,,0,,60,,180,Rain,1015,8,35,,,,-0.6,
Wick,07/05/2019 14:00,6.4,8,,,0,,64,,90,Light shower,1014,7,23,,,,0.3,
Wick,07/05/2019 15:00,6.1,5,,,0,,63,,110,Rain,1014,8,45,,,,-0.4,
Wick,07/05/2019 16:00,5.8,7,,,0,,63,,140,Dry,1013,7,30,,,,-0.6,
Wick,07/05/2019 17:00,5.9,7,,,0,,63,,100,Dry,1013,1,35,,,,-0.5,
Wick,07/05/2019 18:00,5.4,5,,7.8,0,0,64,,80,Light shower,1012,7,40,,,,-0.7,
Wick,07/05/2019 19:00,5.5,2,,,0,,68,,130,Rain,1012,8,35,,,,0.2,
Wick,07/05/2019 20:00,5.2,2,,,0,,67,,170,Dry,1012,6,50,,,,-0.4,
Wick,07/05/2019 21:00,3.6,1,,,0,,73,,240,Dry,1011,5,40,,,,-0.7,
Wick,07/05/2019 22:00,1.8,3,,,0,,82,,280,Dry,1011,4,35,,,,-0.9,
Wick,07/05/2019 23:00,3.1,6,,,0,,87,,40,Dry,1010,7,50,,,,1.3,
Wick,08/05/2019 00:00,1.7,1,,,0,0,89,,220,Dry,1010,1,35,,,,0.2,
Wick,08/05/2019 01:00,2.3,7,,,0,,89,,30,Dry,1009,7,45,,,,0.8,
Wick,08/05/2019 02:00,2,7,,,0,,87,,40,Dry,1008,8,50,,,,0.1,
Wick,08/05/2019 03:00,3.5,6,,,0,,86,,170,Dry,1008,8,40,,,,1.4,
Wick,08/05/2019 04:00,3.4,9,,,0,,89,,80,Rain,1007,7,50,,,,1.8,
Wick,08/05/2019 05:00,3.9,9,,,0,,83,,70,Light shower,1006,8,40,,,,1.3,
Wick,08/05/2019 06:00,4.1,9,1.2,,0.2,0.2,81,,40,Light rain,1006,8,40,,,,1.3,
Wick,08/05/2019 07:00,3.7,8,,,0.4,,88,,120,Light rain,1006,8,13,,,,2,
Wick,08/05/2019 08:00,3.1,10,,,1.6,,86,,90,Moderate rain,1006,8,10,,,,1.1,
Wick,08/05/2019 09:00,4.5,16,,,0.2,,84,,50,Rain,1005,1,40,,,,2.2,
Wick,08/05/2019 10:00,4.9,14,,,0,,82,,70,Light shower,1005,8,22,,,,2.1,
Wick,08/05/2019 11:00,6.3,16,,,0.2,,71,,70,Rain,1004,8,30,,,,1.6,
Wick,08/05/2019 12:00,6.7,17,,,0,2,67,,80,Dry,1004,8,26,,,,1.1,
Wick,08/05/2019 13:00,7.3,17,,,0,,63,,70,Dry,1004,8,35,,,,0.9,
Wick,08/05/2019 14:00,7.4,17,,,0,,61,,80,Dry,1004,8,24,,,,0.5,
Wick,08/05/2019 15:00,7.1,16,,,0,,62,,70,Dry,1004,8,35,,,,0.4,
Wick,08/05/2019 16:00,7.1,17,,,0,,64,,70,Dry,1004,1,40,,,,0.9,
Wick,08/05/2019 17:00,7.1,16,,,0,,64,,60,Dry,1004,8,40,,,,0.8,
Wick,08/05/2019 18:00,6.5,15,,8.4,0,0,67,,50,Dry,1004,8,40,,,,1,
Wick,08/05/2019 19:00,6.1,13,,,0,,68,,60,Dry,1004,1,45,,,,0.7,
Wick,08/05/2019 20:00,5.6,13,,,0,,70,,50,Dry,1004,8,50,,,,0.7,
Wick,08/05/2019 21:00,5.2,12,,,0,,71,,50,Dry,1004,8,50,,,,0.4,
Wick,08/05/2019 22:00,5,10,,,0,,69,,40,Dry,1004,8,50,,,,-0.2,
Wick,08/05/2019 23:00,3.6,10,,,0,,73,,30,Dry,1004,8,45,,,,-0.6,
Wick,09/05/2019 00:00,2.6,9,,,0,0,77,,30,Dry,1004,0,50,,,,-1,
Wick,09/05/2019 01:00,3.5,9,,,0,,73,,20,Dry,1004,7,50,,,,-0.7,
Wick,09/05/2019 02:00,3.5,8,,,0,,82,,350,Dry,1004,6,50,,,,0.8,
Wick,09/05/2019 03:00,3.3,10,,,0,,80,,350,Dry,1004,3,50,,,,0.2,
Wick,09/05/2019 04:00,0,9,,,0,,89,,320,Dry,1003,3,45,,,,-1.5,
Wick,09/05/2019 05:00,0.7,5,,,0,,90,,310,Dry,1003,6,45,,,,-0.6,
Wick,09/05/2019 06:00,2.8,2,-0.2,,0,0,87,,250,Dry,1003,4,45,,,,0.9,
Wick,09/05/2019 07:00,5.2,7,,,0,,76,,290,Dry,1003,4,40,,,,1.4,
Wick,09/05/2019 08:00,6.5,8,,,0,,70,,310,Dry,1003,6,35,,,,1.6,
Wick,09/05/2019 09:00,7.3,9,,,0,,70,,310,Dry,1003,7,50,,,,2.2,
Wick,09/05/2019 10:00,8.9,9,,,0,,66,,20,Dry,1003,7,27,,,,3.1,
Wick,09/05/2019 11:00,8.4,12,,,0,,66,,360,Rain,1003,8,30,,,,2.5,
Wick,09/05/2019 12:00,9,14,,,0,0,65,,30,Dry,1003,4,40,,,,2.9,
Wick,09/05/2019 13:00,9.1,13,,,0,,62,,30,Dry,1003,1,14,,,,2.4,
Wick,09/05/2019 14:00,9.4,12,,,0,,61,,30,Dry,1004,5,35,,,,2.4,
Wick,09/05/2019 15:00,9.4,9,,,0,,67,,20,Dry,1004,5,45,,,,3.7,
Wick,09/05/2019 16:00,8.4,15,,,0,,60,,360,Dry,1004,7,35,,,,1.1,
Wick,09/05/2019 17:00,9.6,16,,,0,,56,,340,Dry,1004,7,40,,,,1.5,
Wick,09/05/2019 18:00,9,16,,10.4,0,0,55,,350,Dry,1004,8,40,,,,0.5,
Wick,09/05/2019 19:00,8.5,15,,,0,,64,,320,Dry,1005,7,27,,,,2.2,
Wick,09/05/2019 20:00,5.3,9,,,0,,78,,310,Rain,1005,0,45,,,,1.9,
Wick,09/05/2019 21:00,2.8,9,,,0,,86,,310,Dry,1006,1,45,,,,0.8,
Wick,09/05/2019 22:00,2.9,7,,,0,,86,,310,Dry,1006,4,22,,,,0.9,
Wick,09/05/2019 23:00,1.8,5,,,0,,91,,260,Dry,1006,0,50,,,,0.5,
Wick,10/05/2019 00:00,0.9,7,,,0,0,93,,260,Dry,1006,1,45,,,,0,
Wick,10/05/2019 01:00,1.1,6,,,0,,94,,260,Dry,1007,4,40,,,,0.3,
Wick,10/05/2019 02:00,0.7,8,,,0,,94,,260,Dry,1007,1,40,,,,-0.1,
Wick,10/05/2019 03:00,0.3,8,,,0,,95,,270,Dry,1007,0,30,,,,-0.4,
Wick,10/05/2019 04:00,1.1,8,,,0,,95,,220,Dry,1007,0,45,,,,0.4,
Wick,10/05/2019 05:00,0.4,7,,,0,,92,,250,Dry,1007,1,30,,,,-0.7,
Wick,10/05/2019 06:00,2.3,7,0,,0,0,93,,240,Dry,1008,1,35,,,,1.4,
Wick,10/05/2019 07:00,6,9,,,0,,87,,270,Dry,1008,0,18,,,,4.1,
Wick,10/05/2019 08:00,7.1,12,,,0,,71,,310,Light shower,1008,6,13,,,,2.3,
Wick,10/05/2019 09:00,8,7,,,0,,65,,300,Rain,1008,3,30,,,,2,
Wick,10/05/2019 10:00,9.4,10,,,0,,62,,330,Dry,1009,4,40,,,,2.5,
Wick,10/05/2019 11:00,9.4,6,,,0,,63,,10,Dry,1009,1,35,,,,2.8,
Wick,10/05/2019 12:00,8.6,8,,,0,0,63,,150,Dry,1009,6,30,,,,2.1,
Wick,10/05/2019 13:00,9.6,7,,,0,,60,,140,Dry,1010,2,45,,,,2.3,
Wick,10/05/2019 14:00,8.6,7,,,0,,59,,170,Dry,1010,7,30,,,,1.2,
Wick,10/05/2019 15:00,8.8,7,,,0,,63,,120,Dry,1010,6,45,,,,2.3,
Wick,10/05/2019 16:00,8.1,5,,,0,,69,,130,Light shower,1010,7,29,,,,2.8,
Wick,10/05/2019 17:00,8.2,6,,,0,,63,,210,Rain,1011,7,50,,,,1.8,
Wick,10/05/2019 18:00,7.5,7,,10.3,0,0,71,,240,Dry,1011,8,50,,,,2.6,
Wick,10/05/2019 19:00,6.8,5,,,0,,76,,260,Dry,1012,8,45,,,,3,
Wick,10/05/2019 20:00,6,6,,,0,,80,,260,Dry,1012,8,50,,,,2.9,
Wick,10/05/2019 21:00,4.6,9,,,0,,87,,270,Dry,1013,8,45,,,,2.7,
Wick,10/05/2019 22:00,3.5,6,,,0,,89,,250,Dry,1013,8,50,,,,1.9,
Wick,10/05/2019 23:00,1.9,7,,,0,,90,,260,Dry,1014,8,50,,,,0.5,
Wick,11/05/2019 00:00,4,7,,,0,0,86,,230,Dry,1014,1,50,,,,1.9,
Wick,11/05/2019 01:00,3.9,5,,,0,,88,,240,Dry,1014,7,50,,,,2.1,
Wick,11/05/2019 02:00,4.1,5,,,0,,84,,220,Dry,1015,8,18,,,,1.8,
Wick,11/05/2019 03:00,3.2,6,,,0,,89,,300,Rain,1015,8,45,,,,1.7,
Wick,11/05/2019 04:00,2.4,7,,,0,,92,,270,Rain,1016,6,40,,,,1.3,
Wick,11/05/2019 05:00,1.2,8,,,0,,94,,260,Dry,1016,1,40,,,,0.4,
Wick,11/05/2019 06:00,3.2,8,1.1,,0,0,94,,270,Dry,1017,0,40,,,,2.4,
Wick,11/05/2019 07:00,6.6,13,,,0,,77,,280,Dry,1018,0,30,,,,2.9,
Wick,11/05/2019 08:00,7.5,14,,,0,,62,,280,Dry,1018,2,35,,,,0.8,
Wick,11/05/2019 09:00,9.1,15,,,0,,64,,300,Dry,1019,2,35,,,,2.7,
Wick,11/05/2019 10:00,9.2,15,,,0,,58,,300,Dry,1020,4,45,,,,1.4,
Wick,11/05/2019 11:00,10.3,16,,,0,,60,,300,Dry,1020,4,45,,,,2.9,
Wick,11/05/2019 12:00,9.1,17,,,0,0,57,,300,Dry,1021,5,45,,,,1.2,
Wick,11/05/2019 13:00,9.2,20,,,0,,62,29,300,Dry,1022,7,30,,,,2.4,
Wick,11/05/2019 14:00,10.9,20,,,0,,60,29,290,Dry,1023,1,28,,,,3.6,
Wick,11/05/2019 15:00,9.8,20,,,0.2,,61,30,300,Rain,1024,4,45,,,,2.7,
Wick,11/05/2019 16:00,10,18,,,0,,57,,300,Dry,1025,1,30,,,,2,
Wick,11/05/2019 17:00,9.6,18,,,0,,58,,300,Dry,1026,2,40,,,,1.9,
Wick,11/05/2019 18:00,8.9,17,,11.7,0,0.2,64,,300,Dry,1026,0,50,,,,2.6,
Wick,11/05/2019 19:00,7.2,13,,,0,,72,,290,Dry,1027,0,45,,,,2.5,
Wick,11/05/2019 20:00,5.9,9,,,0,,76,,310,Dry,1028,0,45,,,,2,
Wick,11/05/2019 21:00,3.1,8,,,0,,86,,290,Dry,1029,0,50,,,,1.1,
Wick,11/05/2019 22:00,2,6,,,0,,90,,290,Dry,1030,0,50,,,,0.6,
Wick,11/05/2019 23:00,1.9,7,,,0,,93,,260,Dry,1030,1,40,,,,0.9,
Wick,12/05/2019 00:00,1.5,7,,,0,0,93,,260,Dry,1031,2,50,,,,0.5,
Wick,12/05/2019 01:00,1.1,6,,,0,,93,,250,Dry,1032,6,50,,,,0.1,
Wick,12/05/2019 02:00,0.9,6,,,0,,94,,250,Dry,1032,0,50,,,,0.1,
Wick,12/05/2019 03:00,0.5,6,,,0,,95,,250,Dry,1032,0,45,,,,-0.1,
Wick,12/05/2019 04:00,0.7,5,,,0,,95,,240,Dry,1033,0,50,,,,0.1,
Wick,12/05/2019 05:00,0.8,6,,,0,,95,,240,Dry,1033,0,40,,,,0.2,
Wick,12/05/2019 06:00,2.7,6,-0.1,,0,0,94,,240,Dry,1034,0,40,,,,1.9,
Wick,12/05/2019 07:00,6.1,7,,,0,,86,,270,Dry,1034,0,30,,,,4.1,
Wick,12/05/2019 08:00,8.5,6,,,0,,76,,280,Dry,1034,3,45,,,,4.6,
Wick,12/05/2019 09:00,7.9,5,,,0,,69,,350,Dry,1035,6,40,,,,2.7,
Wick,12/05/2019 10:00,8.6,9,,,0,,74,,150,Dry,1035,7,35,,,,4.3,
Wick,12/05/2019 11:00,8.7,10,,,0,,70,,140,Dry,1035,5,35,,,,3.7,
Wick,12/05/2019 12:00,8.8,10,,,0,0,70,,130,Dry,1035,7,45,,,,3.8,
Wick,12/05/2019 13:00,8.9,9,,,0,,65,,120,Dry,1036,7,45,,,,2.9,
Wick,12/05/2019 14:00,8.9,12,,,0,,68,,100,Dry,1036,7,30,,,,3.5,
Wick,12/05/2019 15:00,9.8,12,,,0,,63,,70,Dry,1036,5,50,,,,3.2,
Wick,12/05/2019 16:00,9.2,10,,,0,,68,,70,Dry,1036,7,50,,,,3.8,
Wick,12/05/2019 17:00,8.9,9,,,0,,69,,90,Dry,1036,8,35,,,,3.7,
Wick,12/05/2019 18:00,9.1,9,,10.4,0,0,67,,110,Dry,1036,8,45,,,,3.4,
Wick,12/05/2019 19:00,9,7,,,0,,72,,110,Dry,1036,8,40,,,,4.3,
Wick,12/05/2019 20:00,8.3,7,,,0,,76,,110,Dry,1037,8,45,,,,4.5,
Wick,12/05/2019 21:00,8.4,7,,,0,,74,,110,Dry,1037,0,45,,,,4.1,
Wick,12/05/2019 22:00,8.5,7,,,0,,83,,120,Dry,1037,8,30,,,,5.9,
Wick,12/05/2019 23:00,8.5,8,,,0,,86,,120,Dry,1036,8,29,,,,6.4,
Wick,13/05/2019 00:00,8.5,8,,,0,0,89,,120,Dry,1036,8,30,,,,6.9,
Wick,13/05/2019 01:00,8.4,6,,,0,,90,,140,Dry,1036,8,35,,,,6.9,
Wick,13/05/2019 02:00,8.5,5,,,0,,90,,150,Dry,1036,8,30,,,,7,
Wick,13/05/2019 03:00,8.5,2,,,0,,91,,140,Rain,1036,8,35,,,,7.2,
Wick,13/05/2019 04:00,8.5,3,,,0,,92,,130,Rain,1036,8,25,,,,7.4,
Wick,13/05/2019 05:00,8.5,5,,,0,,94,,110,Dry,1036,8,23,,,,7.7,
Wick,13/05/2019 06:00,8.8,5,7.7,,0,0,94,,120,Dry,1036,3,35,,,,7.9,
Wick,13/05/2019 07:00,9,6,,,0,,91,,130,Dry,1036,0,30,,,,7.7,
Wick,13/05/2019 08:00,10.6,7,,,0,,83,,150,Dry,1036,0,50,,,,7.9,
Wick,13/05/2019 09:00,10.1,9,,,0,,86,,130,Dry,1036,0,19,,,,7.9,
Wick,13/05/2019 10:00,11.3,9,,,0,,75,,130,Dry,1036,7,27,,,,7.2,
Wick,13/05/2019 11:00,12.1,12,,,0,,76,,150,Dry,1036,2,35,,,,8.1,
Wick,13/05/2019 12:00,11.7,14,,,0,0,67,,150,Dry,1036,0,35,,,,5.8,
Wick,13/05/2019 13:00,13.3,13,,,0,,47,,150,Dry,1036,0,35,,,,2.5,
Wick,13/05/2019 14:00,12.1,13,,,0,,59,,140,Dry,1035,7,40,,,,4.4,
Wick,13/05/2019 15:00,13.3,9,,,0,,53,,150,Dry,1035,7,30,,,,4.1,
Wick,13/05/2019 16:00,12.4,9,,,0,,56,,140,Dry,1035,2,50,,,,4.1,
Wick,13/05/2019 17:00,11.8,10,,,0,,64,,150,Dry,1035,7,40,,,,5.3,
Wick,13/05/2019 18:00,12.6,7,,14,0,0,57,,180,Dry,1035,8,29,,,,4.5,
Wick,13/05/2019 19:00,14.7,1,,,0,,51,,260,Dry,1035,2,40,,,,4.9,
Wick,13/05/2019 20:00,10.3,7,,,0,,67,,340,Dry,1035,1,40,,,,4.5,
Wick,13/05/2019 21:00,11.1,5,,,0,,66,,60,Dry,1035,0,45,,,,5,
Wick,13/05/2019 22:00,8.2,5,,,0,,75,,260,Dry,1035,1,45,,,,4.1,
Wick,13/05/2019 23:00,6.8,5,,,0,,80,,260,Dry,1035,0,40,,,,3.6,
Wick,14/05/2019 00:00,5.1,3,,,0,0,80,,270,Dry,1035,0,40,,,,2.1,
Wick,14/05/2019 01:00,4.2,3,,,0,,84,,240,Dry,1035,0,45,,,,1.9,
Wick,14/05/2019 02:00,3.4,5,,,0,,85,,240,Dry,1035,0,45,,,,1.2,
Wick,14/05/2019 03:00,8.8,6,,,0,,72,,170,Dry,1034,0,50,,,,4.1,
Wick,14/05/2019 04:00,8.8,5,,,0,,67,,180,Dry,1034,0,50,,,,3.1,
Wick,14/05/2019 05:00,6.8,5,,,0,,74,,190,Dry,1034,1,40,,,,2.5,
Wick,14/05/2019 06:00,10.8,6,3.3,,0,0,61,,170,Dry,1034,0,28,,,,3.8,
Wick,14/05/2019 07:00,13.4,6,,,0,,58,,180,Dry,1034,0,27,,,,5.5,
Wick,14/05/2019 08:00,13.5,6,,,0,,60,,150,Dry,1034,0,35,,,,5.9,
Wick,14/05/2019 09:00,15.3,6,,,0,,55,,140,Dry,1033,0,29,,,,6.5,
Wick,14/05/2019 10:00,16.5,8,,,0,,47,,150,Dry,1033,0,30,,,,5.3,
Wick,14/05/2019 11:00,15.9,9,,,0,,52,,130,Dry,1033,0,40,,,,6.1,
Wick,14/05/2019 12:00,13.2,10,,,0,0,69,,140,Dry,1032,0,17,,,,7.7,
Wick,14/05/2019 13:00,14.3,9,,,0,,62,,140,Dry,1032,0,23,,,,7.2,
Wick,14/05/2019 14:00,13.8,9,,,0,,62,,110,Dry,1032,0,18,,,,6.8,
Wick,14/05/2019 15:00,14.7,8,,,0,,54,,100,Dry,1031,0,29,,,,5.6,
Wick,14/05/2019 16:00,15.3,9,,,0,,55,,110,Dry,1031,0,45,,,,6.5,
Wick,14/05/2019 17:00,14,10,,,0,,64,,100,Dry,1031,0,35,,,,7.5,
Wick,14/05/2019 18:00,13.2,10,,17.3,0,0,73,,110,Dry,1031,0,27,,,,8.5,
Wick,14/05/2019 19:00,11.5,6,,,0,,82,,120,Dry,1031,0,40,,,,8.6,
Wick,14/05/2019 20:00,10.8,7,,,0,,85,,100,Dry,1030,0,30,,,,8.4,
Wick,14/05/2019 21:00,10.1,5,,,0,,88,,110,Dry,1031,0,24,,,,8.3,
Wick,14/05/2019 22:00,9.7,5,,,0,,91,,100,Dry,1030,8,15,,,,8.4,
Wick,14/05/2019 23:00,8.4,8,,,0,,96,,80,Misty,1030,3,6,,,,7.8,
Wick,15/05/2019 00:00,8.9,7,,,0,0,97,,80,Misty,1030,0,5,,,,8.6,
Wick,15/05/2019 01:00,8.4,6,,,0,,97,,90,Misty,1029,4,5,,,,8.1,
Wick,15/05/2019 02:00,8.5,6,,,0,,98,,100,Misty,1029,5,8,,,,8.3,
Wick,15/05/2019 03:00,8.6,8,,,0,,98,,100,Misty,1029,0,5,,,,8.4,
Wick,15/05/2019 04:00,8.7,7,,,0,,99,,110,Misty,1028,4,5,,,,8.6,
Wick,15/05/2019 05:00,9.5,8,,,0,,99,,120,Misty,1028,6,7,,,,9.4,
Wick,15/05/2019 06:00,9.8,7,7.9,,0,0,98,,130,Misty,1028,1,8,,,,9.6,
Wick,15/05/2019 07:00,10.7,10,,,0,,95,,130,Misty,1028,1,17,,,,10,
Wick,15/05/2019 08:00,10.5,10,,,0,,90,,130,Dry,1028,1,35,,,,9,
Wick,15/05/2019 09:00,11,9,,,0,,87,,140,Dry,1028,5,17,,,,9,
Wick,15/05/2019 10:00,11.5,10,,,0,,84,,130,Dry,1028,3,30,,,,9,
Wick,15/05/2019 11:00,11.8,12,,,0,,85,,110,Dry,1027,6,16,,,,9.4,
Wick,15/05/2019 12:00,13.5,14,,,0,0,81,,110,Dry,1027,1,30,,,,10.4,
Wick,15/05/2019 13:00,12.4,15,,,0,,83,,110,Dry,1027,0,16,,,,9.7,
Wick,15/05/2019 14:00,12.6,15,,,0,,79,,120,Dry,1027,0,21,,,,9.2,
Wick,15/05/2019 15:00,13.2,13,,,0,,76,,120,Dry,1027,0,17,,,,9.2,
Wick,15/05/2019 16:00,12.7,14,,,0,,76,,120,Dry,1026,0,22,,,,8.6,
Wick,15/05/2019 17:00,12.3,16,,,0,,76,,110,Dry,1026,0,14,,,,8.2,
Wick,15/05/2019 18:00,11.7,15,,13.6,0,0,81,,110,Dry,1026,0,14,,,,8.7,
Wick,15/05/2019 19:00,11.2,12,,,0,,80,,110,Dry,1026,0,18,,,,7.9,
Wick,15/05/2019 20:00,10.4,12,,,0,,82,,110,Dry,1026,0,20,,,,7.5,
Wick,15/05/2019 21:00,10,14,,,0,,83,,110,Dry,1026,0,19,,,,7.4,
Wick,15/05/2019 22:00,9.6,14,,,0,,87,,110,Dry,1026,0,17,,,,7.7,
Wick,15/05/2019 23:00,8.3,15,,,0,,96,,120,Misty,1026,5,6,,,,7.8,
Wick,16/05/2019 00:00,8,14,,,0,0,97,,120,Misty,1026,7,4,,,,7.6,
Wick,16/05/2019 01:00,7.8,15,,,0,,95,,120,Misty,1026,7,5,,,,7.2,
Wick,16/05/2019 02:00,7.9,16,,,0,,97,,130,Misty,1025,8,6,,,,7.6,
Wick,16/05/2019 03:00,7.8,16,,,0,,98,,120,Misty,1025,8,4,,,,7.6,
Wick,16/05/2019 04:00,8.2,15,,,0,,97,,120,Misty,1024,8,4,,,,7.9,
Wick,16/05/2019 05:00,8,18,,,0,,95,,120,Misty,1024,8,8,,,,7.3,
Wick,16/05/2019 06:00,8.7,20,7.6,,0,0,92,29,120,Dry,1024,8,12,,,,7.6,
Wick,16/05/2019 07:00,9,22,,,0,,90,31,120,Dry,1024,8,12,,,,7.5,
Wick,16/05/2019 08:00,9.8,18,,,0,,86,30,120,Dry,1024,2,15,,,,7.6,
Wick,16/05/2019 09:00,10.9,20,,,0,,83,29,120,Dry,1024,0,29,,,,8.3,
Wick,16/05/2019 10:00,11.3,20,,,0,,84,,120,Dry,1024,1,20,,,,8.8,
Wick,16/05/2019 11:00,11.4,18,,,0,,83,29,120,Dry,1023,1,14,,,,8.7,
Wick,16/05/2019 12:00,12.1,21,,,0,0,79,30,120,Dry,1023,0,13,,,,8.7,
Wick,16/05/2019 13:00,12,21,,,0,,77,30,120,Dry,1023,0,17,,,,8.2,
Wick,16/05/2019 14:00,12.1,20,,,0,,78,30,120,Dry,1022,0,22,,,,8.4,
Wick,16/05/2019 15:00,12.2,21,,,0,,77,30,120,Dry,1022,0,22,,,,8.3,
Wick,16/05/2019 16:00,12,18,,,0,,78,30,120,Dry,1021,0,29,,,,8.3,
Wick,16/05/2019 17:00,11.3,22,,,0,,82,31,120,Dry,1022,0,13,,,,8.4,
Wick,16/05/2019 18:00,10.6,17,,12.5,0,0,83,31,120,Dry,1022,5,23,,,,8,
Wick,16/05/2019 19:00,10.2,15,,,0,,84,,120,Dry,1022,0,19,,,,7.7,
Wick,16/05/2019 20:00,9.7,13,,,0,,84,,130,Dry,1022,0,22,,,,7.3,
Wick,16/05/2019 21:00,9.3,13,,,0,,87,,130,Dry,1022,0,20,,,,7.3,
Wick,16/05/2019 22:00,9.2,16,,,0,,88,,130,Dry,1022,0,19,,,,7.4,
Wick,16/05/2019 23:00,9.2,14,,,0,,86,,130,Dry,1022,0,20,,,,7,
Wick,17/05/2019 00:00,8.9,13,,,0,0,85,,130,Dry,1022,0,17,,,,6.6,
Wick,17/05/2019 01:00,8.6,8,,,0,,89,,140,Dry,1022,0,18,,,,6.9,
Wick,17/05/2019 02:00,8.6,12,,,0,,90,,120,Dry,1022,0,30,,,,7.2,
Wick,17/05/2019 03:00,8.4,9,,,0,,94,,120,Dry,1022,1,12,,,,7.6,
Wick,17/05/2019 04:00,8.6,6,,,0,,94,,130,Dry,1022,7,21,,,,7.8,
Wick,17/05/2019 05:00,9.2,6,,,0,,93,,130,Dry,1022,8,13,,,,8.2,
Wick,17/05/2019 06:00,10,7,8.3,,0,0,89,,110,Dry,1022,8,16,,,,8.4,
Wick,17/05/2019 07:00,9.7,6,,,0,,90,,90,Dry,1022,7,19,,,,8.2,
Wick,17/05/2019 08:00,10.9,6,,,0,,82,,100,Dry,1022,4,26,,,,8.1,
Wick,17/05/2019 09:00,12.5,5,,,0,,73,,90,Dry,1021,0,25,,,,7.9,
Wick,17/05/2019 10:00,11.8,10,,,0,,75,,60,Dry,1021,3,30,,,,7.7,
Wick,17/05/2019 11:00,12.3,10,,,0,,70,,40,Dry,1021,7,22,,,,7,
Wick,17/05/2019 12:00,13.4,14,,,0,0,67,,40,Dry,1020,2,26,,,,7.6,
Wick,17/05/2019 13:00,12.3,14,,,0,,76,,40,Dry,1020,0,45,,,,8.3,
Wick,17/05/2019 14:00,12.1,14,,,0,,78,,60,Dry,1020,0,45,,,,8.4,
Wick,17/05/2019 15:00,13.4,12,,,0,,69,,70,Dry,1019,0,26,,,,8,
Wick,17/05/2019 16:00,12.6,15,,,0,,76,,70,Dry,1019,0,19,,,,8.5,
Wick,17/05/2019 17:00,12.5,13,,,0,,74,,60,Dry,1018,0,20,,,,8.1,
Wick,17/05/2019 18:00,12.8,9,,13.8,0,0,66,,50,Dry,1018,0,30,,,,6.7,
Wick,17/05/2019 19:00,11.1,10,,,0,,80,,50,Dry,1018,1,30,,,,7.9,
Wick,17/05/2019 20:00,10,8,,,0,,87,,50,Dry,1018,0,25,,,,8,
Wick,17/05/2019 21:00,8.8,7,,,0,,90,,40,Dry,1018,1,23,,,,7.3,
Wick,17/05/2019 22:00,8.5,6,,,0,,95,,10,Dry,1017,8,12,,,,7.8,
Wick,17/05/2019 23:00,9.1,6,,,0,,97,,350,Misty,1017,8,8,,,,8.7,
Wick,18/05/2019 00:00,8.3,7,,,0,0,97,,10,Thickening fog,1016,4,0,,,,8,
Wick,18/05/2019 01:00,7.4,8,,,0,,99,,20,Fog thinning,1016,8,1,,,,7.3,
Wick,18/05/2019 02:00,7.4,7,,,0,,99,,10,Fog,1015,7,9,,,,7.3,
Wick,18/05/2019 03:00,7.8,10,,,0,,99,,360,Misty,1014,8,2,,,,7.7,
Wick,18/05/2019 04:00,8,7,,,0,,100,,10,Misty,1014,8,6,,,,8,
Wick,18/05/2019 05:00,8.2,8,,,0,,100,,20,Misty,1013,8,5,,,,8.2,
Wick,18/05/2019 06:00,8.5,5,7.2,,0,0,99,,10,Rain,1013,8,5,,,,8.4,
Wick,18/05/2019 07:00,8.9,5,,,0,,97,,330,Dry,1012,8,15,,,,8.6,
Wick,18/05/2019 08:00,9.2,9,,,0,,96,,10,Dry,1012,8,12,,,,8.7,
Wick,18/05/2019 09:00,9.8,7,,,0,,96,,330,Rain,1012,8,13,,,,9.3,
Wick,18/05/2019 10:00,9.6,6,,,0.2,,96,,350,Light drizzle,1012,8,8,,,,9,
Wick,18/05/2019 11:00,10,8,,,0.4,,96,,50,Light rain,1011,8,7,,,,9.4,
Wick,18/05/2019 12:00,10.2,9,,,0.4,1,98,,30,Light drizzle,1011,8,6,,,,9.9,
Wick,18/05/2019 13:00,10.5,10,,,0,,98,,30,Drizzly rain,1010,8,5,,,,10.2,
Wick,18/05/2019 14:00,10.2,12,,,0,,98,,40,Rain,1010,8,8,,,,10,
Wick,18/05/2019 15:00,10.2,12,,,0,,99,,40,Misty,1010,7,7,,,,10.1,
Wick,18/05/2019 16:00,10,10,,,0,,99,,40,Misty,1010,8,5,,,,9.9,
Wick,18/05/2019 17:00,10,10,,,0,,98,,40,Misty,1010,8,4,,,,9.8,
Wick,18/05/2019 18:00,9.7,12,,10.7,0,0,99,,40,Misty,1009,8,3,,,,9.6,
Wick,18/05/2019 19:00,9.7,12,,,0,,100,,60,Rain,1009,8,6,,,,9.7,
Wick,18/05/2019 20:00,9.7,10,,,0,,100,,70,Thickening fog,1009,8,0,,,,9.7,
Wick,18/05/2019 21:00,9.6,7,,,0,,100,,110,Fog,1009,8,2,,,,9.6,
Wick,18/05/2019 22:00,9.5,7,,,0,,100,,120,Misty,1009,8,2,,,,9.5,
Wick,18/05/2019 23:00,9.4,9,,,0,,100,,110,Fog,1009,8,2,,,,9.4,
Wick,19/05/2019 00:00,9.3,8,,,0,0,100,,110,Fog,1009,8,2,,,,9.3,
Wick,19/05/2019 01:00,9.2,7,,,0,,100,,100,Misty,1009,8,5,,,,9.2,
Wick,19/05/2019 02:00,9.4,7,,,0,,100,,90,Misty,1009,8,2,,,,9.4,
Wick,19/05/2019 03:00,9.4,7,,,0,,100,,100,Rain,1009,8,1,,,,9.4,
Wick,19/05/2019 04:00,9.3,6,,,0.2,,100,,100,Rain,1009,8,2,,,,9.3,
Wick,19/05/2019 05:00,9.2,6,,,0,,100,,100,Misty,1009,8,4,,,,9.2,
Wick,19/05/2019 06:00,9.4,7,9.2,,0,0.2,100,,90,Misty,1009,8,2,,,,9.4,
Wick,19/05/2019 07:00,9.5,7,,,0,,100,,90,Misty,1009,8,4,,,,9.5,
Wick,19/05/2019 08:00,9.7,6,,,0,,100,,110,Dry,1009,8,15,,,,9.7,
Wick,19/05/2019 09:00,10.4,6,,,0,,97,,140,Misty,1009,7,8,,,,10,
Wick,19/05/2019 10:00,11.9,6,,,0,,86,,120,Dry,1009,5,40,,,,9.8,
Wick,19/05/2019 11:00,12,7,,,0,,80,,130,Dry,1009,0,17,,,,8.8,
Wick,19/05/2019 12:00,12.4,8,,,0,0,83,,110,Dry,1009,2,28,,,,9.6,
Wick,19/05/2019 13:00,11.8,12,,,0,,84,,110,Dry,1010,5,14,,,,9.3,
Wick,19/05/2019 14:00,12.4,9,,,0,,81,,130,Dry,1010,4,20,,,,9.3,
Wick,19/05/2019 15:00,12,9,,,0,,81,,110,Dry,1010,0,25,,,,8.9,
Wick,19/05/2019 16:00,12,10,,,0,,84,,90,Dry,1010,4,17,,,,9.5,
Wick,19/05/2019 17:00,12.2,13,,,0,,86,,110,Dry,1010,1,19,,,,10,
Wick,19/05/2019 18:00,11.2,9,,13.1,0,0,88,,110,Dry,1010,3,16,,,,9.4,
Wick,19/05/2019 19:00,10.9,8,,,0,,90,,110,Dry,1010,2,14,,,,9.4,
Wick,19/05/2019 20:00,9.7,3,,,0,,93,,70,Dry,1010,0,13,,,,8.7,
Wick,19/05/2019 21:00,9.4,5,,,0,,96,,80,Misty,1011,5,7,,,,8.8,
Wick,19/05/2019 22:00,9.4,3,,,0,,97,,70,Misty,1011,8,5,,,,9,
Wick,19/05/2019 23:00,9.3,5,,,0,,97,,90,Misty,1011,4,7,,,,9,
Wick,20/05/2019 00:00,9.5,5,,,0,0,98,,90,Misty,1011,4,4,,,,9.3,
Wick,20/05/2019 01:00,8.9,8,,,0,,98,,100,Thickening fog,1011,7,0,,,,8.7,
Wick,20/05/2019 02:00,8.2,8,,,0,,100,,90,Fog,1011,9,0,,,,8.2,
Wick,20/05/2019 03:00,8.3,2,,,0,,99,,90,Thickening fog,1011,9,0,,,,8.2,
Wick,20/05/2019 04:00,8.6,6,,,0,,100,,50,Fog,1011,9,0,,,,8.6,
Wick,20/05/2019 05:00,8.7,6,,,0.2,,100,,50,Fog,1011,8,1,,,,8.7,
Wick,20/05/2019 06:00,8.9,6,8,,0,0.2,100,,60,Fog,1012,8,3,,,,8.9,
Wick,20/05/2019 07:00,9.1,2,,,0,,99,,70,Fog,1012,8,1,,,,9,
Wick,20/05/2019 08:00,9.7,3,,,0,,100,,30,Fog,1012,8,2,,,,9.7,
Wick,20/05/2019 09:00,9.7,5,,,0,,100,,10,Thickening fog,1012,8,1,,,,9.7,
Wick,20/05/2019 10:00,10.1,3,,,0,,100,,340,Fog thinning,1013,8,1,,,,10.1,
Wick,20/05/2019 11:00,11.3,5,,,0,,100,,330,Fog,1012,8,6,,,,11.3,
Wick,20/05/2019 12:00,12.2,3,,,0,0,100,,350,Dry,1013,8,12,,,,12.2,
Wick,20/05/2019 13:00,13.1,7,,,0,,86,,10,Dry,1013,7,20,,,,10.9,
Wick,20/05/2019 14:00,12.2,5,,,0,,91,,80,Haze,1013,8,9,,,,10.8,
Wick,20/05/2019 15:00,10.9,3,,,0,,91,,60,Haze,1014,5,10,,,,9.5,
Wick,20/05/2019 16:00,11.1,2,,,1.4,,95,,320,Drizzly rain,1014,7,5,,,,10.4,
Wick,20/05/2019 17:00,11.4,7,,,0.2,,96,,320,Rain,1014,8,9,,,,10.8,
Wick,20/05/2019 18:00,11.5,10,,14.1,0,2,94,,300,Misty,1014,8,11,,,,10.7,
Wick,20/05/2019 19:00,10.8,10,,,0,,94,,310,Dry,1015,8,15,,,,10,
Wick,20/05/2019 20:00,10.4,12,,,0,,96,,300,Rain,1015,8,30,,,,9.8,
Wick,20/05/2019 21:00,10.1,10,,,0,,97,,310,Dry,1015,8,21,,,,9.7,
Wick,20/05/2019 22:00,9.7,12,,,0,,96,,300,Dry,1015,8,40,,,,9.1,
Wick,20/05/2019 23:00,9.3,12,,,0,,95,,290,Dry,1016,5,40,,,,8.6,
Wick,21/05/2019 00:00,9,7,,,0,0,94,,290,Dry,1016,7,45,,,,8.2,
Wick,21/05/2019 01:00,8.3,8,,,0,,94,,290,Dry,1016,8,45,,,,7.4,
Wick,21/05/2019 02:00,8.6,9,,,0,,96,,280,Dry,1016,8,29,,,,8.1,
Wick,21/05/2019 03:00,8.7,12,,,0,,97,,280,Dry,1016,8,35,,,,8.3,
Wick,21/05/2019 04:00,8.6,9,,,0,,97,,280,Light drizzle,1016,7,12,,,,8.3,
Wick,21/05/2019 05:00,8.6,10,,,0.8,,97,,280,Light rain,1016,3,11,,,,8.3,
Wick,21/05/2019 06:00,8.9,10,8.2,,0.6,1,98,,280,Light rain,1016,8,12,,,,8.7,
Wick,21/05/2019 07:00,9.3,16,,,0.4,,97,,280,Light drizzle,1016,7,10,,,,8.9,
Wick,21/05/2019 08:00,9.3,16,,,0.2,,97,,280,Rain,1017,7,20,,,,8.9,
Wick,21/05/2019 09:00,9.9,14,,,0,,96,,270,Light shower,1017,7,23,,,,9.3,
Wick,21/05/2019 10:00,10.1,16,,,0,,94,,280,Rain,1017,8,20,,,,9.3,
Wick,21/05/2019 11:00,11.5,20,,,0.2,,90,,280,Rain,1017,8,45,,,,10,
Wick,21/05/2019 12:00,10.8,23,,,0,0.8,86,29,280,Rain,1017,8,45,,,,8.6,
Wick,21/05/2019 13:00,11.8,21,,,0,,82,,280,Dry,1017,8,30,,,,8.9,
Wick,21/05/2019 14:00,11.5,23,,,0,,77,29,290,Dry,1017,7,30,,,,7.8,
Wick,21/05/2019 15:00,14,22,,,0,,70,30,290,Dry,1017,8,30,,,,8.8,
Wick,21/05/2019 16:00,12.3,22,,,0,,73,30,290,Dry,1017,7,35,,,,7.7,
Wick,21/05/2019 17:00,12,21,,,0,,78,,290,Dry,1017,7,35,,,,8.3,
Wick,21/05/2019 18:00,10.8,21,,14,0,0,76,,280,Dry,1017,4,35,,,,6.9,
Wick,21/05/2019 19:00,10.1,20,,,0,,83,,290,Dry,1017,4,45,,,,7.4,
Wick,21/05/2019 20:00,8.9,16,,,0,,87,,280,Dry,1017,3,50,,,,6.9,
Wick,21/05/2019 21:00,8.3,13,,,0,,90,,280,Dry,1016,7,35,,,,6.8,
Wick,21/05/2019 22:00,8.2,10,,,0,,92,,260,Dry,1016,4,45,,,,7.1,
Wick,21/05/2019 23:00,7.7,14,,,0,,92,,260,Dry,1016,1,45,,,,6.6,
Wick,22/05/2019 00:00,8.2,13,,,0,0,93,,260,Dry,1016,4,50,,,,7.2,
Wick,22/05/2019 01:00,8.4,14,,,0,,94,,270,Dry,1015,8,50,,,,7.6,
Wick,22/05/2019 02:00,8.5,8,,,0.2,,97,,280,Light drizzle,1015,8,6,,,,8.1,
Wick,22/05/2019 03:00,8.7,8,,,0,,98,,310,Drizzle,1014,8,11,,,,8.5,
Wick,22/05/2019 04:00,8.8,7,,,0,,99,,300,Misty,1014,8,5,,,,8.7,
Wick,22/05/2019 05:00,9.4,8,,,0,,99,,290,Misty,1014,8,4,,,,9.3,
Wick,22/05/2019 06:00,9.8,9,7.7,,0,0.2,100,,280,Misty,1014,8,6,,,,9.8,
Wick,22/05/2019 07:00,9.7,12,,,0,,98,,300,Misty,1014,8,4,,,,9.4,
Wick,22/05/2019 08:00,9.9,15,,,0.8,,98,,300,Rain,1013,6,30,,,,9.7,
Wick,22/05/2019 09:00,10.2,21,,,0,,90,,300,Dry,1013,8,27,,,,8.7,
Wick,22/05/2019 10:00,10,22,,,0.2,,94,,300,Dry,1013,8,25,,,,9.2,
Wick,22/05/2019 11:00,10.1,20,,,0,,93,30,290,Dry,1013,5,30,,,,9.1,
Wick,22/05/2019 12:00,9.7,21,,,0,1,94,31,300,Misty,1012,7,12,,,,8.9,
Wick,22/05/2019 13:00,9.8,22,,,0.2,,97,30,290,Rain,1012,8,3,,,,9.4,
Wick,22/05/2019 14:00,9.7,21,,,0.4,,98,29,300,Misty,1012,8,4,,,,9.4,
Wick,22/05/2019 15:00,9.7,20,,,0.2,,98,29,300,Misty,1012,8,8,,,,9.5,
Wick,22/05/2019 16:00,9.5,18,,,0.6,,98,,290,Rain,1012,8,6,,,,9.3,
Wick,22/05/2019 17:00,9.1,21,,,0.2,,97,29,300,Light shower,1012,8,5,,,,8.7,
Wick,22/05/2019 18:00,9,20,,10.9,0,2,97,,300,Rain,1011,8,3,,,,8.6,
Wick,22/05/2019 19:00,8.8,17,,,0.6,,98,,300,Rain,1011,8,9,,,,8.6,
Wick,22/05/2019 20:00,8.5,17,,,0.2,,98,,300,Misty,1011,8,4,,,,8.3,
Wick,22/05/2019 21:00,8.2,16,,,0.6,,99,,300,Light drizzle,1011,8,3,,,,8.1,
Wick,22/05/2019 22:00,8.1,14,,,0.4,,99,,280,Light drizzle,1011,8,10,,,,8,
Wick,22/05/2019 23:00,8,18,,,0.2,,98,,290,Drizzle,1010,8,16,,,,7.8,
Wick,23/05/2019 00:00,7.9,20,,,0.2,2,97,29,290,Light shower,1010,3,15,,,,7.6,
Wick,23/05/2019 01:00,7.9,21,,,0.8,,96,29,280,Moderate rain,1009,1,10,,,,7.4,
Wick,23/05/2019 02:00,7.9,16,,,0.2,,97,29,280,Light shower,1009,8,13,,,,7.5,
Wick,23/05/2019 03:00,7.8,17,,,0,,97,,280,Rain,1009,8,16,,,,7.4,
Wick,23/05/2019 04:00,7.8,16,,,0,,96,,280,Misty,1009,8,12,,,,7.3,
Wick,23/05/2019 05:00,7.6,17,,,0.2,,97,,280,Misty,1008,8,3,,,,7.2,
Wick,23/05/2019 06:00,7.8,20,7.6,,0,1,97,29,270,Dry,1008,7,18,,,,7.4,
Wick,23/05/2019 07:00,8.1,17,,,0,,96,29,280,Misty,1008,8,5,,,,7.6,
Wick,23/05/2019 08:00,8.5,17,,,0.2,,98,,280,Misty,1008,8,6,,,,8.3,
Wick,23/05/2019 09:00,8.7,20,,,0,,98,,260,Misty,1008,8,4,,,,8.5,
Wick,23/05/2019 10:00,9.1,24,,,0.2,,97,33,280,Misty,1007,8,6,,,,8.8,
Wick,23/05/2019 11:00,8.9,30,,,0,,95,40,270,Misty,1007,8,3,,,,8.2,
Wick,23/05/2019 12:00,9.1,28,,,0.2,0.6,95,39,270,Misty,1007,8,7,,,,8.4,
Wick,23/05/2019 13:00,8.8,28,,,0.4,,96,40,280,Light drizzle,1007,8,2,,,,8.2,
Wick,23/05/2019 14:00,8.8,25,,,0.4,,97,35,280,Rain,1007,8,3,,,,8.5,
Wick,23/05/2019 15:00,8.6,25,,,0,,94,38,280,Misty,1007,8,6,,,,7.8,
Wick,23/05/2019 16:00,8.7,28,,,0,,94,41,280,Dry,1007,8,40,,,,7.8,
Wick,23/05/2019 17:00,9,31,,,0,,93,40,290,Dry,1007,8,20,,,,8,
Wick,23/05/2019 18:00,8.9,26,,9.5,0,0.4,90,39,290,Dry,1008,8,28,,,,7.4,
Wick,23/05/2019 19:00,8.4,24,,,0,,91,38,290,Dry,1008,8,30,,,,7.1,
Wick,23/05/2019 20:00,8.3,28,,,0.2,,90,37,300,Rain,1009,8,30,,,,6.9,
Wick,23/05/2019 21:00,8,24,,,0,,94,36,290,Dry,1009,8,30,,,,7.1,
Wick,23/05/2019 22:00,7.9,21,,,0,,95,33,290,Misty,1009,8,7,,,,7.3,
Wick,23/05/2019 23:00,7.9,21,,,0,,96,30,290,Misty,1010,8,4,,,,7.4,
Wick,24/05/2019 00:00,7.8,21,,,0,0.2,98,31,290,Misty,1010,6,5,,,,7.6,
Wick,24/05/2019 01:00,8,22,,,0.2,,97,29,290,Misty,1010,8,5,,,,7.6,
Wick,24/05/2019 02:00,8.1,21,,,0.2,,96,31,290,Misty,1011,8,12,,,,7.6,
Wick,24/05/2019 03:00,8.2,17,,,0,,94,29,290,Dry,1011,8,15,,,,7.4,
Wick,24/05/2019 04:00,7.9,17,,,0,,95,,290,Misty,1011,8,14,,,,7.3,
Wick,24/05/2019 05:00,8,15,,,0,,97,,290,Misty,1012,8,14,,,,7.7,
Wick,24/05/2019 06:00,8.1,16,7.8,,0.2,0.6,98,,290,Misty,1012,7,3,,,,7.9,
Wick,24/05/2019 07:00,7.7,18,,,0.2,,98,,280,Drizzle,1013,8,5,,,,7.5,
Wick,24/05/2019 08:00,7.9,21,,,0,,98,29,280,Misty,1013,8,4,,,,7.7,
Wick,24/05/2019 09:00,8.8,23,,,0,,89,33,280,Dry,1014,7,12,,,,7.2,
Wick,24/05/2019 10:00,10.4,25,,,0,,82,33,280,Dry,1013,8,17,,,,7.5,
Wick,24/05/2019 11:00,10.2,23,,,0,,78,33,280,Dry,1014,8,26,,,,6.6,
Wick,24/05/2019 12:00,10,21,,,0,0.2,81,32,280,Dry,1014,7,30,,,,6.9,
Wick,24/05/2019 13:00,10.7,22,,,0,,81,32,280,Dry,1015,8,35,,,,7.7,
Wick,24/05/2019 14:00,11.2,21,,,0,,79,29,280,Dry,1015,8,35,,,,7.7,
Wick,24/05/2019 15:00,10.3,18,,,0,,85,29,280,Dry,1015,8,14,,,,7.9,
Wick,24/05/2019 16:00,10.8,22,,,0,,83,31,280,Dry,1015,8,45,,,,8.2,
Wick,24/05/2019 17:00,9.4,20,,,0,,87,30,270,Dry,1015,3,45,,,,7.5,
Wick,24/05/2019 18:00,8.9,20,,11.8,0.2,0.2,97,29,270,Misty,1015,8,6,,,,8.5,
Wick,24/05/2019 19:00,9.2,20,,,0.2,,98,,290,Rain,1015,4,10,,,,9,
Wick,24/05/2019 20:00,9.2,16,,,0,,97,,290,Dry,1015,8,26,,,,8.9,
Wick,24/05/2019 21:00,8.8,17,,,0.4,,99,,290,Rain,1016,6,5,,,,8.7,
Wick,24/05/2019 22:00,8.6,14,,,0,,99,,280,Misty,1016,8,5,,,,8.5,
Wick,24/05/2019 23:00,8.4,13,,,0.2,,100,,280,Rain,1016,5,3,,,,8.4,
Wick,25/05/2019 00:00,8.3,12,,,0.2,1,99,,300,Light drizzle,1017,7,4,,,,8.2,
Wick,25/05/2019 01:00,8,8,,,0,,99,,280,Drizzle,1017,1,10,,,,7.9,
Wick,25/05/2019 02:00,7.5,15,,,0,,99,,280,Drizzle,1016,4,6,,,,7.4,
Wick,25/05/2019 03:00,7.3,9,,,0,,98,,270,Dry,1016,2,20,,,,7.1,
Wick,25/05/2019 04:00,7.3,9,,,0,,97,,270,Dry,1016,7,40,,,,6.9,
Wick,25/05/2019 05:00,7.6,9,,,0,,95,,270,Dry,1016,8,30,,,,6.9,
Wick,25/05/2019 06:00,7.9,12,7.2,,0,0,90,,270,Dry,1016,8,40,,,,6.5,
Wick,25/05/2019 07:00,8.5,14,,,0,,86,,260,Dry,1016,8,30,,,,6.4,
Wick,25/05/2019 08:00,8.6,14,,,0,,85,,260,Dry,1016,7,35,,,,6.3,
Wick,25/05/2019 09:00,8.6,15,,,0,,83,,250,Dry,1016,8,19,,,,5.9,
Wick,25/05/2019 10:00,8.7,13,,,0,,83,,260,Dry,1015,8,20,,,,6,
Wick,25/05/2019 11:00,9,13,,,0,,80,,280,Dry,1015,8,24,,,,5.8,
Wick,25/05/2019 12:00,9.8,13,,,0,0,81,,280,Dry,1015,8,30,,,,6.7,
Wick,25/05/2019 13:00,9.7,13,,,0.2,,83,,280,Rain,1014,8,13,,,,7,
Wick,25/05/2019 14:00,9.7,13,,,0,,84,,280,Rain,1014,8,12,,,,7.3,
Wick,25/05/2019 15:00,8.9,9,,,0,,86,,310,Rain,1014,8,13,,,,6.7,
Wick,25/05/2019 16:00,8.5,10,,,0,,87,,310,Rain,1014,8,13,,,,6.6,
Wick,25/05/2019 17:00,9.2,10,,,0,,81,,330,Dry,1013,5,22,,,,6.2,
Wick,25/05/2019 18:00,9.1,8,,9.9,0,0.2,80,,330,Dry,1013,4,30,,,,6,
Wick,25/05/2019 19:00,8.8,8,,,0,,80,,340,Dry,1012,8,30,,,,5.6,
Wick,25/05/2019 20:00,8.2,7,,,0,,80,,340,Dry,1012,7,35,,,,5.1,
Wick,25/05/2019 21:00,7.9,6,,,0,,85,,350,Dry,1012,8,40,,,,5.6,
Wick,25/05/2019 22:00,7.7,6,,,0,,87,,40,Dry,1012,7,45,,,,5.7,
Wick,25/05/2019 23:00,7.5,6,,,0,,84,,30,Dry,1012,7,45,,,,5,
Wick,26/05/2019 00:00,7.1,7,,,0,0,78,,30,Dry,1011,8,50,,,,3.6,
Wick,26/05/2019 01:00,6.8,8,,,0,,78,,30,Dry,1010,6,45,,,,3.4,
Wick,26/05/2019 02:00,6.7,6,,,0,,77,,50,Dry,1010,8,50,,,,3.1,
Wick,26/05/2019 03:00,7.2,8,,,0,,76,,60,Dry,1009,8,40,,,,3.3,
Wick,26/05/2019 04:00,7.5,9,,,0,,74,,80,Dry,1008,7,45,,,,3.2,
Wick,26/05/2019 05:00,7.6,10,,,0,,75,,80,Dry,1007,8,35,,,,3.5,
Wick,26/05/2019 06:00,7.2,12,6.5,,0,0,81,,80,Light shower,1007,8,30,,,,4.2,
Wick,26/05/2019 07:00,6.8,10,,,1.8,,88,,80,Moderate rain,1007,5,11,,,,5,
Wick,26/05/2019 08:00,7.1,13,,,1.2,,86,,90,Light rain,1006,8,13,,,,5,
Wick,26/05/2019 09:00,7.5,14,,,0,,87,,110,Drizzly rain,1005,8,19,,,,5.5,
Wick,26/05/2019 10:00,7.5,13,,,0.2,,89,,110,Rain,1005,8,11,,,,5.9,
Wick,26/05/2019 11:00,7.6,13,,,0.6,,91,,100,Rain,1004,8,9,,,,6.3,
Wick,26/05/2019 12:00,7.3,16,,,0.2,4,93,,100,Light drizzle,1004,1,9,,,,6.3,
Wick,26/05/2019 13:00,7.4,16,,,0.8,,94,,100,Light shower,1003,2,7,,,,6.5,
Wick,26/05/2019 14:00,7.4,16,,,1,,95,,100,Light shower,1003,8,3,,,,6.8,
Wick,26/05/2019 15:00,7.4,18,,,1,,98,,70,Light rain,1003,4,2,,,,7.2,
Wick,26/05/2019 16:00,7,20,,,1.8,,98,,60,Moderate rain,1002,7,2,,,,6.8,
Wick,26/05/2019 17:00,6.7,22,,,1.2,,99,29,60,Moderate rain,1002,8,2,,,,6.6,
Wick,26/05/2019 18:00,6.4,22,,8,0.6,6,97,29,60,Moderate rain,1002,8,5,,,,6,
Wick,26/05/2019 19:00,6.3,21,,,1,,95,29,60,Moderate shower,1002,8,6,,,,5.7,
Wick,26/05/2019 20:00,6.5,21,,,1.6,,95,,60,Light rain,1002,8,12,,,,5.8,
Wick,26/05/2019 21:00,6.5,18,,,1,,93,,40,Light rain,1003,8,35,,,,5.5,
Wick,26/05/2019 22:00,6.5,17,,,0.4,,87,,50,Light rain,1003,8,35,,,,4.6,
Wick,26/05/2019 23:00,6.6,16,,,0,,90,,40,Rain,1003,8,40,,,,5.1,
Wick,27/05/2019 00:00,6.3,14,,,0.2,4,88,,30,Dry,1004,2,50,,,,4.6,
Wick,27/05/2019 01:00,6.7,13,,,0,,87,,10,Dry,1004,8,50,,,,4.8,
Wick,27/05/2019 02:00,6.1,10,,,0,,95,,330,Dry,1004,8,40,,,,5.4,
Wick,27/05/2019 03:00,6.6,8,,,0,,93,,350,Light shower,1004,8,35,,,,5.6,
Wick,27/05/2019 04:00,6.6,12,,,0,,91,,350,Rain,1005,7,35,,,,5.3,
Wick,27/05/2019 05:00,5.1,7,,,0,,95,,310,Dry,1005,3,35,,,,4.4,
Wick,27/05/2019 06:00,6.7,7,5.1,,0,0,93,,310,Dry,1006,1,30,,,,5.7,
Wick,27/05/2019 07:00,8,12,,,0,,87,,340,Dry,1006,1,30,,,,6.1,
Wick,27/05/2019 08:00,8.6,14,,,0,,81,,10,Dry,1006,7,35,,,,5.7,
Wick,27/05/2019 09:00,9.1,9,,,0,,81,,340,Dry,1006,2,50,,,,6.1,
Wick,27/05/2019 10:00,10.5,15,,,0,,67,,320,Dry,1006,7,45,,,,4.8,
Wick,27/05/2019 11:00,9.6,13,,,0,,66,,320,Dry,1006,7,50,,,,3.6,
Wick,27/05/2019 12:00,10.3,13,,,0,0,68,,340,Dry,1007,7,35,,,,4.8,
Wick,27/05/2019 13:00,9.3,13,,,0,,71,,340,Dry,1007,7,40,,,,4.5,
Wick,27/05/2019 14:00,9.4,12,,,0,,63,,320,Dry,1007,8,35,,,,2.8,
Wick,27/05/2019 15:00,10.9,13,,,0,,54,,290,Dry,1007,5,50,,,,2.2,
Wick,27/05/2019 16:00,9.5,14,,,0,,63,,330,Dry,1007,7,40,,,,2.9,
Wick,27/05/2019 17:00,8,13,,,0,,64,,310,Dry,1007,2,45,,,,1.8,
Wick,27/05/2019 18:00,8,14,,11.9,0,0,66,,310,Dry,1008,7,35,,,,2.1,
Wick,27/05/2019 19:00,7.2,12,,,0,,72,,320,Dry,1008,5,40,,,,2.6,
Wick,27/05/2019 20:00,7,10,,,0,,77,,310,Dry,1008,7,50,,,,3.4,
Wick,27/05/2019 21:00,5.6,9,,,0,,85,,290,Rain,1009,6,45,,,,3.3,
Wick,27/05/2019 22:00,5,10,,,0,,88,,330,Rain,1009,8,40,,,,3.3,
Wick,27/05/2019 23:00,3.5,3,,,0,,93,,280,Dry,1009,7,45,,,,2.5,
Wick,28/05/2019 00:00,3.1,6,,,0,0,95,,310,Dry,1009,1,40,,,,2.5,
Wick,28/05/2019 01:00,2.7,3,,,0,,93,,250,Dry,1009,4,40,,,,1.8,
Wick,28/05/2019 02:00,3.2,5,,,0,,94,,240,Dry,1010,8,50,,,,2.4,
Wick,28/05/2019 03:00,3,7,,,0.2,,91,,310,Rain,1010,7,50,,,,1.8,
Wick,28/05/2019 04:00,3.1,7,,,0,,92,,280,Rain,1010,6,50,,,,2,
Wick,28/05/2019 05:00,4,16,,,0,,88,,340,Light shower,1011,8,40,,,,2.2,
Wick,28/05/2019 06:00,5.1,8,2,,0,0.2,90,,330,Rain,1011,5,26,,,,3.6,
Wick,28/05/2019 07:00,5.5,8,,,0,,82,,320,Dry,1012,1,35,,,,2.8,
Wick,28/05/2019 08:00,6.6,16,,,0,,64,,320,Dry,1012,1,50,,,,0.3,
Wick,28/05/2019 09:00,6.4,14,,,0,,72,,330,Rain,1012,6,50,,,,1.8,
Wick,28/05/2019 10:00,7.6,17,,,0,,56,,330,Dry,1013,4,50,,,,-0.4,
Wick,28/05/2019 11:00,9.3,14,,,0,,55,,290,Dry,1013,7,12,,,,0.8,
Wick,28/05/2019 12:00,9,18,,,0,0,49,30,300,Dry,1014,6,30,,,,-1.1,
Wick,28/05/2019 13:00,10.4,15,,,0,,45,29,290,Dry,1014,2,27,,,,-0.9,
Wick,28/05/2019 14:00,10.2,18,,,0,,50,,300,Dry,1014,5,22,,,,0.5,
Wick,28/05/2019 15:00,9.5,21,,,0,,55,29,300,Dry,1014,7,35,,,,1.1,
Wick,28/05/2019 16:00,9.3,22,,,0,,49,29,300,Dry,1015,1,30,,,,-0.6,
Wick,28/05/2019 17:00,8.7,21,,,0,,54,,300,Dry,1015,1,40,,,,0.1,
Wick,28/05/2019 18:00,8.4,16,,10.9,0,0,61,,290,Dry,1015,0,30,,,,1.5,
Wick,28/05/2019 19:00,7.4,15,,,0,,65,,300,Dry,1015,1,35,,,,1.4,
Wick,28/05/2019 20:00,6.1,9,,,0,,71,,290,Dry,1015,4,40,,,,1.4,
Wick,28/05/2019 21:00,5,6,,,0,,79,,240,Dry,1016,7,45,,,,1.8,
Wick,28/05/2019 22:00,3.3,8,,,0,,78,,260,Haze,1016,0,12,,,,0,
Wick,28/05/2019 23:00,2,7,,,0,,81,,250,Dry,1015,3,45,,,,-0.9,
Wick,29/05/2019 00:00,2.3,6,,,0,0,80,,250,Dry,1015,0,45,,,,-0.7,
Wick,29/05/2019 01:00,1.6,6,,,0,,83,,250,Dry,1015,8,45,,,,-0.9,
Wick,29/05/2019 02:00,1.2,8,,,0,,82,,250,Dry,1015,2,45,,,,-1.4,
Wick,29/05/2019 03:00,3.6,7,,,0,,76,,190,Dry,1014,2,35,,,,-0.1,
Wick,29/05/2019 04:00,4.6,5,,,0,,73,,200,Dry,1014,6,45,,,,0.3,
Wick,29/05/2019 05:00,5.7,12,,,0,,74,,190,Dry,1014,8,45,,,,1.5,
Wick,29/05/2019 06:00,6.5,7,0.9,,0,0,72,,200,Dry,1013,5,40,,,,2,
Wick,29/05/2019 07:00,9.5,13,,,0,,61,,210,Dry,1013,6,35,,,,2.5,
Wick,29/05/2019 08:00,9.5,12,,,0,,57,,200,Dry,1013,1,21,,,,1.6,
Wick,29/05/2019 09:00,10.1,14,,,0,,62,,170,Dry,1012,1,19,,,,3.2,
Wick,29/05/2019 10:00,11.1,15,,,0,,56,,180,Dry,1012,1,20,,,,2.7,
Wick,29/05/2019 11:00,11.8,16,,,0,,53,,180,Dry,1012,1,24,,,,2.7,
Wick,29/05/2019 12:00,12,17,,,0,0,46,,180,Dry,1011,2,45,,,,0.9,
Wick,29/05/2019 13:00,9.9,9,,,0,,67,,10,Rain,1012,7,40,,,,4.2,
Wick,29/05/2019 14:00,9.7,6,,,0,,69,,10,Dry,1011,8,35,,,,4.4,
Wick,29/05/2019 15:00,9.8,6,,,0,,70,,40,Dry,1011,8,45,,,,4.7,
Wick,29/05/2019 16:00,10.3,9,,,0,,71,,70,Dry,1011,8,35,,,,5.4,
Wick,29/05/2019 17:00,9.7,9,,,0,,72,,60,Dry,1011,8,30,,,,5.1,
Wick,29/05/2019 18:00,9.1,10,,12.8,0,0,76,,20,Dry,1010,6,40,,,,5.2,
Wick,29/05/2019 19:00,9.3,8,,,0,,78,,10,Dry,1010,2,29,,,,5.8,
Wick,29/05/2019 20:00,8.2,7,,,0,,83,,30,Dry,1009,1,40,,,,5.5,
Wick,29/05/2019 21:00,7,7,,,0,,87,,30,Dry,1009,7,45,,,,5.1,
Wick,29/05/2019 22:00,7.2,6,,,0,,89,,20,Dry,1009,5,50,,,,5.6,
Wick,29/05/2019 23:00,7.5,6,,,0,,92,,340,Dry,1009,8,35,,,,6.4,
Wick,30/05/2019 00:00,7.3,7,,,0,0,93,,330,Dry,1009,8,45,,,,6.3,
Wick,30/05/2019 01:00,7.7,7,,,0,,93,,350,Dry,1008,8,50,,,,6.7,
Wick,30/05/2019 02:00,7.8,13,,,0,,89,,10,Dry,1008,8,50,,,,6.2,
Wick,30/05/2019 03:00,7.6,13,,,0,,89,,10,Rain,1008,1,50,,,,6,
Wick,30/05/2019 04:00,7.4,13,,,0,,88,,10,Dry,1009,8,50,,,,5.6,
Wick,30/05/2019 05:00,7.5,10,,,0,,89,,350,Dry,1009,8,45,,,,5.9,
Wick,30/05/2019 06:00,7.5,12,6.8,,0,0,80,,360,Dry,1010,7,35,,,,4.4,
Wick,30/05/2019 07:00,7.9,13,,,0,,71,,360,Dry,1010,8,30,,,,3.1,
Wick,30/05/2019 08:00,8.1,10,,,0,,71,,10,Dry,1011,8,45,,,,3.2,
Wick,30/05/2019 09:00,8.2,10,,,0,,69,,10,Dry,1012,8,50,,,,3,
Wick,30/05/2019 10:00,9.2,8,,,0,,67,,350,Dry,1012,8,29,,,,3.4,
Wick,30/05/2019 11:00,9.5,7,,,0,,65,,10,Dry,1013,8,50,,,,3.4,
Wick,30/05/2019 12:00,9.9,10,,,0,0,57,,340,Dry,1014,8,35,,,,2,
Wick,30/05/2019 13:00,9.8,7,,,0,,56,,10,Dry,1014,8,40,,,,1.6,
Wick,30/05/2019 14:00,9.9,8,,,0,,62,,10,Dry,1015,8,30,,,,3.1,
Wick,30/05/2019 15:00,10.1,6,,,0,,63,,360,Dry,1015,8,40,,,,3.6,
Wick,30/05/2019 16:00,9.8,6,,,0,,63,,30,Dry,1016,8,50,,,,3.2,
Wick,30/05/2019 17:00,10,6,,,0,,60,,20,Dry,1016,8,45,,,,2.7,
Wick,30/05/2019 18:00,9.5,5,,10.5,0,0,59,,70,Dry,1016,8,45,,,,2.1,
Wick,30/05/2019 19:00,8.9,6,,,0,,64,,180,Dry,1016,3,45,,,,2.6,
Wick,30/05/2019 20:00,8.6,5,,,0,,68,,180,Dry,1016,8,45,,,,3.1,
Wick,30/05/2019 21:00,8.4,6,,,0,,75,,190,Dry,1017,8,50,,,,4.3,
Wick,30/05/2019 22:00,7.8,5,,,0,,80,,200,Dry,1018,8,45,,,,4.7,
Wick,30/05/2019 23:00,7.4,3,,,0,,82,,210,Dry,1018,8,50,,,,4.6,
Wick,31/05/2019 00:00,8,5,,,0,0,72,,170,Dry,1018,8,45,,,,3.3,
Wick,31/05/2019 01:00,7.9,5,,,0,,75,,140,Light shower,1018,8,50,,,,3.8,
Wick,31/05/2019 02:00,7.3,7,,,0.4,,82,,120,Light rain,1017,8,50,,,,4.5,
Wick,31/05/2019 03:00,7.5,8,,,0,,84,,130,Rain,1017,8,45,,,,5,
Wick,31/05/2019 04:00,7.8,12,,,0,,87,,120,Dry,1016,8,50,,,,5.9,
Wick,31/05/2019 05:00,7.9,14,,,0,,89,,120,Dry,1016,7,50,,,,6.3,
Wick,31/05/2019 06:00,7.8,14,7.3,,0,0.4,95,,110,Light drizzle,1016,8,18,,,,7.2,
Wick,31/05/2019 07:00,8.1,14,,,0.8,,97,,120,Moderate shower,1016,8,4,,,,7.7,
Wick,31/05/2019 08:00,8.4,13,,,2.6,,98,,120,Light rain,1016,7,7,,,,8.2,
Wick,31/05/2019 09:00,8.6,15,,,0.6,,99,,120,Rain,1015,8,5,,,,8.5,
Wick,31/05/2019 10:00,8.9,17,,,0.2,,100,29,120,Misty,1014,8,6,,,,8.9,
Wick,31/05/2019 11:00,9.2,16,,,0.2,,100,,120,Light shower,1014,8,1,,,,9.2,
Wick,31/05/2019 12:00,9.7,14,,,1.4,6,100,,120,Light rain,1013,8,5,,,,9.7,
Wick,31/05/2019 13:00,10,13,,,1,,100,,120,Light rain,1012,8,6,,,,10,
Wick,31/05/2019 14:00,10.2,12,,,2.2,,100,,120,Moderate rain,1011,8,4,,,,10.2,
Wick,31/05/2019 15:00,11,9,,,0.8,,99,,130,Rain,1010,8,4,,,,10.9,
Wick,31/05/2019 16:00,11.4,8,,,0.2,,100,,120,Drizzly rain,1010,7,5,,,,11.4,
Wick,31/05/2019 17:00,12.3,7,,,0.2,,100,,170,Light drizzle,1009,5,8,,,,12.3,
Wick,31/05/2019 18:00,13,5,,13,0.2,4,100,,170,Light drizzle,1008,1,10,,,,13,
Wick,31/05/2019 19:00,14,6,,,0.4,,100,,230,Light shower,1008,8,11,,,,14,
Wick,31/05/2019 20:00,12.8,14,,,0.8,,99,,310,Moderate rain,1008,4,5,,,,12.7,
Wick,31/05/2019 21:00,11.9,16,,,1,,99,,290,Light rain,1008,4,9,,,,11.8,
Wick,31/05/2019 22:00,10.9,15,,,0.2,,98,,290,Drizzly rain,1009,7,16,,,,10.7,
Wick,31/05/2019 23:00,10.5,13,,,0.4,,98,,270,Rain,1010,7,13,,,,10.3,
Wick,01/06/2019 00:00,9.9,6,,,0,3,98,,260,Misty,1010,1,10,,,,9.7,
Wick,01/06/2019 01:00,10,5,,,0,,96,,200,Dry,1010,8,23,,,,9.5,
Wick,01/06/2019 02:00,9.7,8,,,0,,92,,230,Dry,1010,7,35,,,,8.6,
Wick,01/06/2019 03:00,10.7,14,,,0,,89,,250,Dry,1010,7,22,,,,9,
Wick,01/06/2019 04:00,8.9,8,,,0,,93,,230,Dry,1010,3,21,,,,7.9,
Wick,01/06/2019 05:00,10.9,14,,,0,,92,,250,Dry,1011,3,35,,,,9.7,
Wick,01/06/2019 06:00,11.7,6,8.9,,0,0,88,,200,Dry,1011,8,26,,,,9.9,
Wick,01/06/2019 07:00,12.8,13,,,0,,82,,240,Dry,1012,7,29,,,,9.9,
Wick,01/06/2019 08:00,13.9,17,,,0,,72,,250,Dry,1012,3,30,,,,9.1,
Wick,01/06/2019 09:00,14.4,17,,,0,,68,30,240,Dry,1012,0,30,,,,8.6,
Wick,01/06/2019 10:00,15.5,16,,,0,,63,,240,Dry,1012,6,40,,,,8.5,
Wick,01/06/2019 11:00,14.9,12,,,0,,75,,190,Dry,1013,8,16,,,,10.6,
Wick,01/06/2019 12:00,15.2,16,,,0,0,70,,180,Dry,1012,6,20,,,,9.9,
Wick,01/06/2019 13:00,14.5,21,,,0,,71,29,200,Dry,1012,8,40,,,,9.4,
Wick,01/06/2019 14:00,13,14,,,0.2,,88,29,210,Moderate shower,1012,1,11,,,,11.1,
Wick,01/06/2019 15:00,13.7,8,,,0,,82,,220,Rain,1012,7,22,,,,10.8,
Wick,01/06/2019 16:00,13.5,12,,,0.2,,82,,200,Light shower,1012,8,15,,,,10.6,
Wick,01/06/2019 17:00,13.1,9,,,0,,85,,210,Light rain,1012,7,16,,,,10.8,
Wick,01/06/2019 18:00,12.7,8,,16.7,0.2,0.6,88,,240,Rain,1012,7,45,,,,10.9,
Wick,01/06/2019 19:00,12.5,2,,,0,,89,,180,Dry,1012,7,40,,,,10.8,
Wick,01/06/2019 20:00,12,5,,,0,,90,,130,Dry,1011,8,35,,,,10.5,
Wick,01/06/2019 21:00,11.6,8,,,0,,88,,170,Dry,1012,8,35,,,,9.7,
Wick,01/06/2019 22:00,10.8,6,,,0,,91,,150,Dry,1011,8,40,,,,9.5,
Wick,01/06/2019 23:00,11.3,7,,,0,,89,,140,Dry,1011,8,35,,,,9.6,
Wick,02/06/2019 00:00,10.7,5,,,0,0,88,,130,Dry,1010,8,26,,,,8.8,
Wick,02/06/2019 01:00,10.4,6,,,0,,88,,130,Dry,1009,1,35,,,,8.6,
Wick,02/06/2019 02:00,10.6,5,,,0,,88,,120,Dry,1008,0,35,,,,8.8,
Wick,02/06/2019 03:00,10,8,,,0,,92,,130,Dry,1007,8,18,,,,8.9,
Wick,02/06/2019 04:00,10.2,7,,,0,,95,,120,Dry,1006,8,11,,,,9.5,
Wick,02/06/2019 05:00,10.2,12,,,0.4,,97,,130,Light shower,1005,8,7,,,,9.8,
Wick,02/06/2019 06:00,10.3,10,9.9,,0.6,1,98,,110,Light drizzle,1004,8,5,,,,10.1,
Wick,02/06/2019 07:00,10.3,12,,,1,,100,,110,Light drizzle,1002,7,3,,,,10.3,
Wick,02/06/2019 08:00,10.3,12,,,1,,100,,100,Rain,1001,9,1,,,,10.3,
Wick,02/06/2019 09:00,10.6,16,,,0,,100,,120,Misty,1000,8,2,,,,10.6,
Wick,02/06/2019 10:00,10.8,10,,,0,,99,,120,Fog,999,9,1,,,,10.7,
Wick,02/06/2019 11:00,11.6,12,,,0,,99,,150,Light drizzle,998,8,7,,,,11.5,
Wick,02/06/2019 12:00,12.7,12,,,0.2,2,99,,140,Drizzle,998,8,10,,,,12.6,
Wick,02/06/2019 13:00,12.6,12,,,0,,99,,130,Rain,997,8,10,,,,12.5,
Wick,02/06/2019 14:00,13.6,14,,,0,,94,,140,Misty,995,8,10,,,,12.8,
Wick,02/06/2019 15:00,14,14,,,0,,88,,150,Dry,995,8,15,,,,12.1,
Wick,02/06/2019 16:00,14.7,15,,,0,,85,,150,Dry,994,2,30,,,,12.3,
Wick,02/06/2019 17:00,15.2,10,,,0,,81,,150,Dry,994,5,27,,,,12.1,
Wick,02/06/2019 18:00,14.6,8,,16.1,0,0,83,,140,Dry,994,1,23,,,,11.9,
Wick,02/06/2019 19:00,13.6,12,,,0,,88,,20,Dry,994,0,35,,,,11.7,
Wick,02/06/2019 20:00,11.5,13,,,0,,92,,360,Dry,994,6,40,,,,10.4,
Wick,02/06/2019 21:00,10.5,8,,,0,,95,,30,Dry,994,0,13,,,,9.8,
Wick,02/06/2019 22:00,10.3,8,,,0,,96,,350,Dry,993,7,14,,,,9.7,
Wick,02/06/2019 23:00,10.7,10,,,0,,96,,350,Rain,992,8,23,,,,10.1,
Wick,03/06/2019 00:00,11.2,5,,,0,0,92,,210,Dry,992,3,29,,,,10.1,
Wick,03/06/2019 01:00,9.8,18,,,0.2,,89,31,180,Moderate shower,992,8,8,,,,8.2,
Wick,03/06/2019 02:00,9.8,12,,,0.4,,90,,190,Rain,991,3,15,,,,8.4,
Wick,03/06/2019 03:00,9.6,9,,,0,,91,,180,Rain,991,7,21,,,,8.3,
Wick,03/06/2019 04:00,9.5,10,,,0,,90,,170,Dry,991,0,30,,,,8.1,
Wick,03/06/2019 05:00,10.2,10,,,0,,90,,180,Dry,991,0,35,,,,8.7,
Wick,03/06/2019 06:00,11,9,9.4,,0,0.6,88,,180,Dry,992,6,27,,,,9.2,
Wick,03/06/2019 07:00,11.7,13,,,0,,84,,170,Dry,992,7,40,,,,9.2,
Wick,03/06/2019 08:00,11.9,13,,,0,,86,,170,Dry,992,8,45,,,,9.7,
Wick,03/06/2019 09:00,13.2,21,,,0,,83,30,200,Dry,992,8,45,,,,10.4,
Wick,03/06/2019 10:00,13.3,23,,,0,,82,31,200,Dry,993,7,35,,,,10.4,
Wick,03/06/2019 11:00,14.9,25,,,0,,73,37,210,Dry,993,7,26,,,,10.2,
Wick,03/06/2019 12:00,15.2,25,,,0,0,68,36,220,Dry,994,7,45,,,,9.4,
Wick,03/06/2019 13:00,14.3,25,,,0,,68,39,220,Dry,994,7,35,,,,8.6,
Wick,03/06/2019 14:00,15.5,32,,,0,,62,48,230,Dry,995,8,30,,,,8.4,
Wick,03/06/2019 15:00,15.6,32,,,0,,60,52,230,Dry,996,7,45,,,,7.9,
Wick,03/06/2019 16:00,15.6,31,,,0,,61,47,230,Dry,996,7,30,,,,8.3,
Wick,03/06/2019 17:00,13.8,30,,,0,,63,44,240,Dry,997,8,20,,,,7.1,
Wick,03/06/2019 18:00,13,25,,16.2,0,0,67,37,230,Dry,998,4,45,,,,7.2,
Wick,03/06/2019 19:00,12.4,21,,,0,,68,36,230,Dry,999,7,45,,,,6.8,
Wick,03/06/2019 20:00,11.4,20,,,0,,72,36,230,Dry,1000,3,50,,,,6.7,
Wick,03/06/2019 21:00,10.1,15,,,0,,78,,220,Dry,1000,2,40,,,,6.6,
Wick,03/06/2019 22:00,9.6,17,,,0,,82,,230,Dry,1001,1,50,,,,6.7,
Wick,03/06/2019 23:00,10.2,16,,,0,,79,,230,Dry,1001,7,50,,,,6.8,
Wick,04/06/2019 00:00,10.2,15,,,0,0,78,,210,Dry,1002,7,50,,,,6.6,
Wick,04/06/2019 01:00,9.4,12,,,0,,80,,220,Dry,1002,6,50,,,,6.3,
Wick,04/06/2019 02:00,9.9,9,,,0,,82,,200,Dry,1002,8,45,,,,7,
Wick,04/06/2019 03:00,9.8,12,,,0,,81,,200,Dry,1002,8,50,,,,6.7,
Wick,04/06/2019 04:00,9.7,13,,,0,,79,,220,Dry,1002,8,45,,,,6.3,
Wick,04/06/2019 05:00,9.8,14,,,0,,79,,220,Dry,1003,8,50,,,,6.4,
Wick,04/06/2019 06:00,10.1,8,9.2,,0,0,82,,230,Dry,1003,6,27,,,,7.3,
Wick,04/06/2019 07:00,11.3,10,,,0,,74,,230,Dry,1004,7,50,,,,7,
Wick,04/06/2019 08:00,11,8,,,0,,77,,260,Dry,1004,8,40,,,,7.3,
Wick,04/06/2019 09:00,11.6,10,,,0,,69,,250,Dry,1005,7,45,,,,6.2,
Wick,04/06/2019 10:00,11.4,10,,,0,,72,,260,Dry,1005,7,19,,,,6.7,
Wick,04/06/2019 11:00,10.5,9,,,0.4,,85,,150,Light shower,1006,8,9,,,,8.2,
Wick,04/06/2019 12:00,11.1,6,,,1.2,2,83,,260,Moderate rain,1006,8,22,,,,8.5,
Wick,04/06/2019 13:00,10.7,3,,,0.4,,87,,360,Light shower,1006,6,12,,,,8.7,
Wick,04/06/2019 14:00,10.2,9,,,0.2,,91,,40,Rain,1007,8,29,,,,8.9,
Wick,04/06/2019 15:00,9.7,7,,,0.4,,92,,60,Light shower,1007,7,5,,,,8.6,
Wick,04/06/2019 16:00,9.9,5,,,0.2,,91,,50,Rain,1007,7,22,,,,8.6,
Wick,04/06/2019 17:00,10,7,,,0,,86,,20,Dry,1007,7,35,,,,7.8,
Wick,04/06/2019 18:00,10.1,8,,12.4,0,1,82,,350,Dry,1007,7,40,,,,7.3,
Wick,04/06/2019 19:00,9.6,6,,,0,,84,,10,Dry,1007,8,40,,,,7.2,
Wick,04/06/2019 20:00,9.4,7,,,0,,86,,350,Dry,1007,8,29,,,,7.3,
Wick,04/06/2019 21:00,9,8,,,0,,89,,360,Dry,1007,8,30,,,,7.3,
Wick,04/06/2019 22:00,8.9,9,,,0,,93,,20,Dry,1007,8,23,,,,7.9,
Wick,04/06/2019 23:00,8.9,10,,,0,,92,,20,Dry,1007,8,30,,,,7.8,
Wick,05/06/2019 00:00,8.6,14,,,0,0,91,,20,Dry,1006,7,29,,,,7.3,
Wick,05/06/2019 01:00,8.6,15,,,0,,87,,20,Dry,1006,8,30,,,,6.6,
Wick,05/06/2019 02:00,8.5,14,,,0,,88,,20,Dry,1005,8,30,,,,6.7,
Wick,05/06/2019 03:00,8.2,16,,,0,,89,,30,Rain,1005,8,30,,,,6.6,
Wick,05/06/2019 04:00,8.1,17,,,0.2,,91,,10,Light shower,1004,8,14,,,,6.8,
Wick,05/06/2019 05:00,8.2,17,,,0.2,,90,,20,Light rain,1004,7,29,,,,6.7,
Wick,05/06/2019 06:00,8.2,20,8,,0.2,0.6,90,,10,Light rain,1003,8,18,,,,6.8,
Wick,05/06/2019 07:00,8.1,18,,,0.6,,93,,10,Light rain,1003,7,14,,,,7.1,
Wick,05/06/2019 08:00,8,18,,,1.2,,92,,360,Moderate rain,1003,7,11,,,,6.9,
Wick,05/06/2019 09:00,8.4,16,,,1,,94,,360,Moderate rain,1004,7,8,,,,7.5,
Wick,05/06/2019 10:00,8.5,16,,,0.6,,93,,360,Light rain,1004,7,19,,,,7.5,
Wick,05/06/2019 11:00,9.1,15,,,0.2,,90,,360,Rain,1004,8,35,,,,7.6,
Wick,05/06/2019 12:00,9.1,14,,,0,4,87,,350,Rain,1004,8,25,,,,7.2,
Wick,05/06/2019 13:00,9.1,14,,,0,,87,,10,Dry,1004,8,35,,,,7.2,
Wick,05/06/2019 14:00,10.1,14,,,0,,81,,10,Dry,1005,7,27,,,,7.1,
Wick,05/06/2019 15:00,10.4,13,,,0,,80,,30,Dry,1006,7,30,,,,7.2,
Wick,05/06/2019 16:00,10.1,13,,,0,,76,,30,Dry,1006,8,17,,,,6.1,
Wick,05/06/2019 17:00,10.3,12,,,0,,75,,20,Dry,1006,7,23,,,,6.2,
Wick,05/06/2019 18:00,10.3,13,,11.1,0,0,77,,30,Dry,1007,1,30,,,,6.5,
Wick,05/06/2019 19:00,9.5,9,,,0,,80,,40,Dry,1008,1,35,,,,6.3,
Wick,05/06/2019 20:00,9.5,6,,,0,,82,,50,Dry,1008,7,35,,,,6.6,
Wick,05/06/2019 21:00,9.2,8,,,0,,82,,40,Dry,1009,8,35,,,,6.4,
Wick,05/06/2019 22:00,7.1,8,,,0,,90,,30,Dry,1009,7,30,,,,5.6,
Wick,05/06/2019 23:00,8.7,8,,,0,,90,,20,Dry,1009,7,35,,,,7.2,
Wick,06/06/2019 00:00,8.4,8,,,0,0,92,,350,Dry,1009,7,16,,,,7.2,
Wick,06/06/2019 01:00,8.8,10,,,0,,90,,20,Dry,1009,8,21,,,,7.4,
Wick,06/06/2019 02:00,8.9,12,,,0,,89,,20,Dry,1009,8,27,,,,7.3,
Wick,06/06/2019 03:00,8.9,14,,,0,,89,,20,Dry,1009,8,30,,,,7.2,
Wick,06/06/2019 04:00,9,13,,,0,,90,,20,Dry,1009,8,24,,,,7.5,
Wick,06/06/2019 05:00,8.9,14,,,0,,96,,20,Dry,1008,8,12,,,,8.3,
Wick,06/06/2019 06:00,9.1,14,6.9,,0,0,98,,20,Thickening fog,1008,7,1,,,,8.9,
Wick,06/06/2019 07:00,9.4,15,,,0,,100,,30,Fog,1008,8,8,,,,9.4,
Wick,06/06/2019 08:00,9.6,15,,,0,,99,,20,Light shower,1008,8,8,,,,9.5,
Wick,06/06/2019 09:00,9.5,15,,,1,,100,,10,Moderate rain,1007,6,5,,,,9.5,
Wick,06/06/2019 10:00,9.6,14,,,2,,100,,20,Moderate rain,1007,8,5,,,,9.6,
Wick,06/06/2019 11:00,9.8,14,,,1.8,,100,,20,Moderate rain,1007,8,5,,,,9.8,
Wick,06/06/2019 12:00,10.3,9,,,2,7,99,,30,Light rain,1007,8,5,,,,10.2,
Wick,06/06/2019 13:00,10.4,9,,,0.6,,100,,40,Light rain,1007,8,8,,,,10.4,
Wick,06/06/2019 14:00,10.6,7,,,0.2,,100,,60,Rain,1006,8,11,,,,10.6,
Wick,06/06/2019 15:00,10.4,7,,,0,,100,,70,Dry,1006,8,16,,,,10.4,
Wick,06/06/2019 16:00,10.6,7,,,0,,99,,100,Dry,1006,8,30,,,,10.5,
Wick,06/06/2019 17:00,10.9,6,,,0,,96,,110,Dry,1006,8,26,,,,10.4,
Wick,06/06/2019 18:00,10.9,6,,11.4,0,1,91,,100,Dry,1006,1,29,,,,9.6,
Wick,06/06/2019 19:00,10.3,5,,,0,,94,,110,Dry,1006,8,30,,,,9.5,
Wick,06/06/2019 20:00,10,3,,,0,,96,,110,Dry,1006,7,25,,,,9.4,
Wick,06/06/2019 21:00,10,5,,,0,,96,,130,Dry,1007,8,30,,,,9.4,
Wick,06/06/2019 22:00,9.6,5,,,0,,96,,150,Rain,1007,7,35,,,,9,
Wick,06/06/2019 23:00,8.9,2,,,0,,97,,140,Misty,1007,2,5,,,,8.5,
Wick,07/06/2019 00:00,9.6,6,,,0,0,98,,150,Dry,1007,7,16,,,,9.3,
Wick,07/06/2019 01:00,9.5,7,,,0,,97,,180,Dry,1007,8,12,,,,9.1,
Wick,07/06/2019 02:00,8.6,5,,,0,,97,,180,Dry,1007,2,13,,,,8.2,
Wick,07/06/2019 03:00,8.9,9,,,0,,98,,160,Misty,1008,6,5,,,,8.7,
Wick,07/06/2019 04:00,9,6,,,0,,97,,160,Dry,1008,1,12,,,,8.7,
Wick,07/06/2019 05:00,9.2,7,,,0,,97,,180,Dry,1008,5,11,,,,8.8,
Wick,07/06/2019 06:00,10,6,8.1,,0,0,98,,180,Dry,1008,6,12,,,,9.7,
Wick,07/06/2019 07:00,11.6,9,,,0,,81,,180,Dry,1008,0,45,,,,8.5,
Wick,07/06/2019 08:00,11.8,14,,,0,,76,,170,Dry,1009,0,21,,,,7.9,
Wick,07/06/2019 09:00,11.6,13,,,0,,75,,170,Dry,1009,0,35,,,,7.5,
Wick,07/06/2019 10:00,11.9,14,,,0,,76,,150,Dry,1010,0,45,,,,8,
Wick,07/06/2019 11:00,12.9,13,,,0,,70,,140,Dry,1010,0,25,,,,7.7,
Wick,07/06/2019 12:00,13.2,9,,,0,0,66,,130,Dry,1010,0,30,,,,7.2,
Wick,07/06/2019 13:00,13.6,9,,,0,,66,,130,Dry,1010,0,28,,,,7.4,
Wick,07/06/2019 14:00,13.2,9,,,0,,75,,110,Dry,1010,0,50,,,,9,
Wick,07/06/2019 15:00,13.1,9,,,0,,76,,120,Dry,1010,1,25,,,,9.1,
Wick,07/06/2019 16:00,13.7,13,,,0,,72,,130,Dry,1010,2,22,,,,8.8,
Wick,07/06/2019 17:00,12.6,9,,,0,,71,,130,Dry,1010,4,35,,,,7.6,
Wick,07/06/2019 18:00,11.9,9,,14.4,0,0,77,,120,Dry,1010,4,24,,,,8.1,
Wick,07/06/2019 19:00,12,14,,,0,,75,,120,Dry,1010,6,25,,,,7.8,
Wick,07/06/2019 20:00,11.3,13,,,0,,82,,120,Dry,1009,7,35,,,,8.4,
Wick,07/06/2019 21:00,10.6,8,,,0,,88,,110,Dry,1010,0,40,,,,8.8,
Wick,07/06/2019 22:00,10.7,8,,,0,,92,,100,Dry,1010,8,35,,,,9.6,
Wick,07/06/2019 23:00,10.6,12,,,0,,96,,100,Dry,1009,8,15,,,,10,
Wick,08/06/2019 00:00,10.5,9,,,0,0,97,,100,Misty,1010,6,7,,,,10.1,
Wick,08/06/2019 01:00,10.4,3,,,0,,98,,90,Misty,1009,8,2,,,,10.2,
Wick,08/06/2019 02:00,9.9,7,,,0,,99,,10,Fog,1009,8,3,,,,9.8,
Wick,08/06/2019 03:00,9,8,,,0,,100,,20,Thickening fog,1009,8,0,,,,9,
Wick,08/06/2019 04:00,9,9,,,0,,100,,30,Fog,1009,9,0,,,,9,
Wick,08/06/2019 05:00,8.9,10,,,0,,100,,40,Fog,1009,8,2,,,,8.9,
Wick,08/06/2019 06:00,9.1,10,8.8,,0,0,100,,20,Thickening fog,1008,8,1,,,,9.1,
Wick,08/06/2019 07:00,9.1,10,,,0,,100,,30,Fog,1008,8,3,,,,9.1,
Wick,08/06/2019 08:00,9.3,9,,,0,,100,,20,Misty,1009,8,9,,,,9.3,
Wick,08/06/2019 09:00,9.8,10,,,0,,99,,360,Dry,1009,8,16,,,,9.7,
Wick,08/06/2019 10:00,11.7,14,,,0,,92,,360,Dry,1008,8,35,,,,10.6,
Wick,08/06/2019 11:00,13.1,14,,,0,,78,,10,Dry,1009,8,22,,,,9.4,
Wick,08/06/2019 12:00,12.7,16,,,0,0,80,,10,Dry,1009,8,28,,,,9.5,
Wick,08/06/2019 13:00,12.2,17,,,0,,77,,10,Dry,1009,8,18,,,,8.3,
Wick,08/06/2019 14:00,12.3,14,,,0,,80,,10,Dry,1009,8,30,,,,9,
Wick,08/06/2019 15:00,12,15,,,0,,86,,20,Dry,1009,8,24,,,,9.8,
Wick,08/06/2019 16:00,11.2,15,,,0,,87,,10,Dry,1009,8,26,,,,9.2,
Wick,08/06/2019 17:00,10.5,16,,,0,,88,,340,Dry,1010,8,26,,,,8.7,
Wick,08/06/2019 18:00,10.4,15,,,0,,86,,340,Dry,1010,8,30,,,,8.2,
Wick,08/06/2019 19:00,10.4,14,,,0,,85,,340,Dry,1010,8,30,,,,8.1,
Wick,08/06/2019 20:00,10.1,12,,,0,,86,,330,Dry,1010,7,35,,,,8,
Wick,08/06/2019 21:00,9.8,13,,,0,,87,,330,Dry,1011,8,30,,,,7.9,
Wick,08/06/2019 22:00,8.9,12,,,0,,90,,310,Dry,1011,8,30,,,,7.5,
Wick,08/06/2019 23:00,9.1,10,,,0,,91,,310,Dry,1011,8,28,,,,7.8,
Wick,09/06/2019 00:00,8.9,9,,,0,0,90,,300,Dry,1012,8,30,,,,7.4,
Wick,09/06/2019 01:00,9.1,12,,,0,,93,,310,Dry,1012,7,21,,,,8.1,
Wick,09/06/2019 02:00,9,10,,,0,,93,,310,Dry,1012,8,17,,,,8,
Wick,09/06/2019 03:00,8.9,9,,,0,,92,,310,Dry,1012,8,30,,,,7.8,
Wick,09/06/2019 04:00,8.3,6,,,0,,93,,280,Dry,1012,8,17,,,,7.3,
Wick,09/06/2019 05:00,8.6,8,,,0,,95,,290,Dry,1013,8,26,,,,7.9,
Wick,09/06/2019 06:00,9.1,9,7.7,,0,0,90,,320,Dry,1013,8,29,,,,7.7,
Wick,09/06/2019 07:00,9.1,7,,,0,,88,,300,Dry,1013,8,14,,,,7.3,
Wick,09/06/2019 08:00,10,10,,,0,,83,,300,Dry,1014,8,40,,,,7.3,
Wick,09/06/2019 09:00,10.4,9,,,0,,82,,300,Dry,1014,8,35,,,,7.5,
Wick,09/06/2019 10:00,11.1,8,,,0,,76,,300,Dry,1015,8,40,,,,7.2,
Wick,09/06/2019 11:00,11,8,,,0,,76,,350,Dry,1015,8,50,,,,7,
Wick,09/06/2019 12:00,11.3,6,,,0,0,76,,310,Dry,1015,8,35,,,,7.4,
Wick,09/06/2019 13:00,10.3,3,,,0,,83,,70,Dry,1016,8,25,,,,7.7,
Wick,09/06/2019 14:00,10.7,10,,,0,,79,,70,Dry,1016,7,30,,,,7.3,
Wick,09/06/2019 15:00,10.2,7,,,0,,84,,120,Dry,1016,7,45,,,,7.7,
Wick,09/06/2019 16:00,11.1,6,,,0,,76,,80,Dry,1016,7,35,,,,7.1,
Wick,09/06/2019 17:00,10.4,3,,,0,,73,,80,Dry,1016,8,35,,,,5.9,
Wick,09/06/2019 18:00,10.4,3,,12.3,0,0,78,,100,Dry,1017,8,40,,,,6.9,
Wick,09/06/2019 19:00,10.4,1,,,0,,75,,80,Dry,1017,8,50,,,,6.3,
Wick,09/06/2019 20:00,10,3,,,0,,81,,290,Dry,1017,8,50,,,,6.9,
Wick,09/06/2019 21:00,9,7,,,0,,84,,320,Dry,1018,8,50,,,,6.6,
Wick,09/06/2019 22:00,8.1,7,,,0,,89,,320,Dry,1018,8,50,,,,6.5,
Wick,09/06/2019 23:00,8.3,6,,,0,,89,,320,Dry,1018,8,50,,,,6.7,
Wick,10/06/2019 00:00,8.3,5,,,0,,90,,300,Dry,1018,8,50,,,,6.8,
Wick,10/06/2019 01:00,8.2,5,,,0,,91,,290,Dry,1019,8,50,,,,6.9,
Wick,10/06/2019 02:00,8,3,,,0,,93,,300,Dry,1019,7,50,,,,7,
Wick,10/06/2019 03:00,7.8,5,,,0,,93,,330,Dry,1018,8,50,,,,6.8,
Wick,10/06/2019 04:00,7.8,3,,,0,,94,,250,Dry,1019,8,45,,,,7,
Wick,10/06/2019 05:00,8.3,5,,,0,,94,,280,Dry,1019,8,45,,,,7.4,
Wick,10/06/2019 06:00,8.8,3,7.7,,0,0,89,,280,Dry,1019,8,45,,,,7.2,
Wick,10/06/2019 07:00,9.4,6,,,0,,86,,270,Dry,1020,8,50,,,,7.3,
Wick,10/06/2019 08:00,9.8,7,,,0,,82,,260,Dry,1020,7,28,,,,7,
Wick,10/06/2019 09:00,10.5,9,,,0,,71,,260,Dry,1020,8,40,,,,5.6,
Wick,10/06/2019 10:00,10.5,12,,,0,,67,,280,Dry,1021,7,50,,,,4.7,
Wick,10/06/2019 11:00,11.7,10,,,0,,62,,300,Dry,1021,8,40,,,,4.7,
Wick,10/06/2019 12:00,12.1,10,,,0,0,62,,270,Dry,1021,8,40,,,,5.1,
Wick,10/06/2019 13:00,11.6,13,,,0,,68,,300,Dry,1021,7,30,,,,6,
Wick,10/06/2019 14:00,11.5,13,,,0,,71,,310,Dry,1022,8,45,,,,6.5,
Wick,10/06/2019 15:00,11.7,13,,,0,,69,,300,Dry,1022,8,45,,,,6.3,
Wick,10/06/2019 16:00,11.9,13,,,0,,70,,310,Dry,1022,8,45,,,,6.7,
Wick,10/06/2019 17:00,11.6,15,,,0,,66,,310,Dry,1022,2,50,,,,5.5,
Wick,10/06/2019 18:00,11,14,,12.9,0,0,67,,300,Dry,1022,5,40,,,,5.3,
Wick,10/06/2019 19:00,9.6,12,,,0,,80,,310,Dry,1023,4,50,,,,6.5,
Wick,10/06/2019 20:00,9.7,12,,,0,,83,,310,Dry,1023,7,40,,,,7,
Wick,10/06/2019 21:00,8.7,10,,,0,,89,,310,Dry,1024,8,45,,,,7,
Wick,10/06/2019 22:00,7.7,8,,,0,,94,,280,Dry,1024,8,45,,,,6.8,
Wick,10/06/2019 23:00,8,8,,,0,,95,,330,Dry,1024,8,24,,,,7.4,
Wick,11/06/2019 00:00,7.9,9,,,0,0,90,,350,Dry,1024,1,35,,,,6.5,
Wick,11/06/2019 01:00,7.9,9,,,0,,90,,330,Dry,1024,7,40,,,,6.4,
Wick,11/06/2019 02:00,7.3,9,,,0,,88,,310,Dry,1024,7,50,,,,5.6,
Wick,11/06/2019 03:00,7.4,13,,,0,,92,,320,Haze,1024,8,10,,,,6.3,
Wick,11/06/2019 04:00,7.1,9,,,0,,93,,310,Dry,1024,8,40,,,,6.2,
Wick,11/06/2019 05:00,8.1,13,,,0,,92,,320,Dry,1024,6,45,,,,6.9,
Wick,11/06/2019 06:00,8.8,12,7,,0,0,95,,310,Dry,1024,8,35,,,,8.1,
Wick,11/06/2019 07:00,9,14,,,0.2,,96,,340,Dry,1024,7,27,,,,8.5,
Wick,11/06/2019 08:00,9.3,15,,,0,,94,,340,Dry,1024,8,15,,,,8.5,
Wick,11/06/2019 09:00,10.4,16,,,0,,93,,330,Dry,1024,8,19,,,,9.4,
Wick,11/06/2019 10:00,10.9,18,,,0,,89,,330,Dry,1024,8,15,,,,9.3,
Wick,11/06/2019 11:00,10.9,17,,,0,,89,,320,Haze,1024,8,24,,,,9.2,
Wick,11/06/2019 12:00,11.3,17,,,0,0.2,85,,330,Rain,1024,8,4,,,,9,
Wick,11/06/2019 13:00,11.1,18,,,0.2,,92,,350,Rain,1024,8,30,,,,9.9,
Wick,11/06/2019 14:00,11.4,15,,,0,,89,,20,Dry,1024,8,22,,,,9.7,
Wick,11/06/2019 15:00,11.5,16,,,0,,84,,20,Dry,1024,7,24,,,,8.9,
Wick,11/06/2019 16:00,12.3,18,,,0,,83,,10,Dry,1024,6,21,,,,9.6,
Wick,11/06/2019 17:00,11.9,17,,,0,,84,,20,Dry,1025,8,28,,,,9.3,
Wick,11/06/2019 18:00,11.2,17,,12.8,0,0.2,85,,10,Dry,1025,4,21,,,,8.8,
Wick,11/06/2019 19:00,10.4,17,,,0,,86,,10,Dry,1025,7,30,,,,8.2,
Wick,11/06/2019 20:00,10.5,20,,,0,,89,,10,Dry,1025,8,18,,,,8.8,
Wick,11/06/2019 21:00,10.2,22,,,0,,86,,20,Dry,1025,8,16,,,,8.1,
Wick,11/06/2019 22:00,9.8,23,,,0,,85,33,30,Dry,1025,8,15,,,,7.5,
Wick,11/06/2019 23:00,9.6,20,,,0,,89,30,20,Haze,1025,8,11,,,,7.9,
Wick,12/06/2019 00:00,9.4,23,,,0,0,88,31,10,Dry,1025,8,11,,,,7.6,
Wick,12/06/2019 01:00,9.2,23,,,0,,86,32,10,Dry,1025,8,13,,,,7,
Wick,12/06/2019 02:00,8.9,22,,,0,,86,33,360,Dry,1025,8,14,,,,6.7,
Wick,12/06/2019 03:00,8.8,24,,,0,,87,33,360,Dry,1024,7,12,,,,6.8,
Wick,12/06/2019 04:00,8.6,23,,,0,,87,33,360,Dry,1024,8,12,,,,6.6,
Wick,12/06/2019 05:00,8.9,24,,,0,,87,37,360,Dry,1024,8,12,,,,6.9,
Wick,12/06/2019 06:00,8.7,25,,,0,,86,,10,Dry,1024,8,12,,,,6.5,
Wick,12/06/2019 07:00,8.5,23,,,0,,90,,360,Haze,1024,8,9,,,,7,
Wick,12/06/2019 08:00,8.7,24,,,0,,87,36,360,Dry,1023,8,14,,,,6.7,
Wick,12/06/2019 09:00,8.8,24,,,0,,87,,360,Haze,1023,8,8,,,,6.9,
Wick,12/06/2019 10:00,8.9,25,,,0,,90,,360,Haze,1022,8,7,,,,7.5,
Wick,12/06/2019 11:00,9.1,24,,,0,,90,,10,Haze,1023,8,9,,,,7.6,
Wick,12/06/2019 12:00,9.4,22,,,0,,90,,10,Haze,1022,8,7,,,,8,
Wick,12/06/2019 13:00,9.2,20,,,0,,94,,10,Misty,1022,8,6,,,,8.4,
Wick,12/06/2019 14:00,9.1,21,,,0,,96,,360,Misty,1021,8,5,,,,8.5,
Wick,12/06/2019 15:00,9.5,21,,,0,,94,29,10,Misty,1021,8,7,,,,8.6,
Wick,12/06/2019 16:00,9.3,21,,,0,,92,,360,Haze,1021,8,6,,,,8.1,
Wick,12/06/2019 17:00,9.1,17,,,0,,92,29,360,Haze,1021,1,5,,,,7.9,
Wick,12/06/2019 18:00,8.6,20,,,0.2,,97,,360,Drizzly rain,1020,8,5,,,,8.2,
Wick,12/06/2019 19:00,8.3,21,,,0.2,,97,29,350,Drizzly rain,1020,6,9,,,,7.9,
Wick,12/06/2019 20:00,7.9,21,,,0.2,,95,,360,Misty,1020,8,5,,,,7.2,
Wick,12/06/2019 21:00,8.1,22,,,0,,92,,360,Dry,1019,7,13,,,,6.9,
Wick,12/06/2019 22:00,8,20,,,0,,92,30,350,Haze,1018,8,12,,,,6.8,
Wick,12/06/2019 23:00,7.9,22,,,0,,87,29,350,Dry,1017,8,17,,,,5.9,
Wick,13/06/2019 00:00,7.7,21,,,0,0.4,85,29,350,Dry,1017,8,19,,,,5.4,
Wick,13/06/2019 01:00,7.8,22,,,0,,83,30,360,Dry,1016,8,19,,,,5.2,
Wick,13/06/2019 02:00,7.7,22,,,0,,84,,360,Dry,1014,8,17,,,,5.3,
Wick,13/06/2019 03:00,7.5,24,,,0,,77,31,350,Dry,1013,8,29,,,,3.8,
Wick,13/06/2019 04:00,7.4,21,,,0,,81,29,350,Dry,1012,8,19,,,,4.4,
Wick,13/06/2019 05:00,7.6,23,,,0,,80,32,350,Dry,1011,8,16,,,,4.4,
Wick,13/06/2019 06:00,7.5,21,7.2,,0,0,81,30,360,Dry,1011,8,19,,,,4.5,
Wick,13/06/2019 07:00,7.7,18,,,0,,84,,340,Dry,1009,8,20,,,,5.3,
Wick,13/06/2019 08:00,8.2,18,,,0,,82,,350,Dry,1008,8,24,,,,5.4,
Wick,13/06/2019 09:00,7.7,20,,,0,,90,29,360,Haze,1008,1,22,,,,6.2,
Wick,13/06/2019 10:00,7.8,18,,,0,,95,,340,Dry,1006,8,22,,,,7.1,
Wick,13/06/2019 11:00,7.7,16,,,0,,94,,330,Misty,1005,8,5,,,,6.9,
Wick,13/06/2019 12:00,8.2,16,,,0.2,0.2,97,,350,Light drizzle,1005,8,5,,,,7.8,
Wick,13/06/2019 13:00,8.6,14,,,2,,98,,330,Moderate rain,1004,8,6,,,,8.4,
Wick,13/06/2019 14:00,9,15,,,1.6,,97,,330,Light rain,1003,8,10,,,,8.7,
Wick,13/06/2019 15:00,9.3,16,,,1.4,,97,,340,Light rain,1002,8,8,,,,8.9,
Wick,13/06/2019 16:00,9.3,17,,,0.8,,97,,340,Light rain,1001,8,7,,,,8.9,
Wick,13/06/2019 17:00,9.3,15,,,1,,97,,320,Light rain,1000,8,5,,,,8.9,
Wick,13/06/2019 18:00,9.1,16,,9.6,0.4,6.8,97,,310,Light drizzle,999,8,6,,,,8.8,
Wick,13/06/2019 19:00,9,17,,,0.8,,99,,300,Light drizzle,999,8,5,,,,8.9,
Wick,13/06/2019 20:00,9,17,,,0.8,,100,,290,Light drizzle,998,8,2,,,,9,
Wick,13/06/2019 21:00,9,15,,,0.6,,100,,280,Light drizzle,998,8,5,,,,9,
Wick,13/06/2019 22:00,9,14,,,1.4,,100,,270,Light drizzle,997,8,8,,,,9,
Wick,13/06/2019 23:00,9,12,,,0,,100,,250,Drizzle,998,8,50,,,,9,
Wick,14/06/2019 00:00,9,10,,,0,4,99,,220,Dry,998,5,50,,,,8.9,
Wick,14/06/2019 01:00,9.1,13,,,0,,97,,180,Drizzly rain,998,7,13,,,,8.7,
Wick,14/06/2019 02:00,9.1,13,,,0.2,,96,,190,Rain,998,8,29,,,,8.5,
Wick,14/06/2019 03:00,9,14,,,0.2,,96,,180,Rain,999,1,28,,,,8.4,
Wick,14/06/2019 04:00,9.3,13,,,0,,94,,170,Dry,1000,8,24,,,,8.5,
Wick,14/06/2019 05:00,9.3,14,,,0,,90,,160,Dry,1000,8,24,,,,7.9,
Wick,14/06/2019 06:00,9.4,13,,,0,,89,,140,Dry,1001,8,30,,,,7.7,
Wick,14/06/2019 07:00,10.1,13,,,0,,86,,140,Dry,1002,1,19,,,,8,
Wick,14/06/2019 08:00,10.5,14,,,0,,84,,140,Dry,1003,7,30,,,,8,
Wick,14/06/2019 09:00,11.2,17,,,0,,82,,130,Dry,1003,6,30,,,,8.4,
Wick,14/06/2019 10:00,11.3,17,,,0,,81,,120,Dry,1004,8,23,,,,8.2,
Wick,14/06/2019 11:00,11.6,16,,,0,,80,,120,Dry,1004,7,15,,,,8.3,
Wick,14/06/2019 12:00,12.3,17,,,0,0,76,30,120,Dry,1004,6,13,,,,8.3,
Wick,14/06/2019 13:00,13,16,,,0,,67,,140,Dry,1004,1,40,,,,7.2,
Wick,14/06/2019 14:00,12.8,15,,,0,,70,,130,Dry,1005,1,16,,,,7.5,
Wick,14/06/2019 15:00,12.7,16,,,0,,70,,130,Dry,1006,0,24,,,,7.5,
Wick,14/06/2019 16:00,12.6,17,,,0,,71,,120,Dry,1006,0,18,,,,7.6,
Wick,14/06/2019 17:00,12,17,,,0,,77,,120,Dry,1006,0,20,,,,8.1,
Wick,14/06/2019 18:00,11.3,17,,13.5,0,0,82,,120,Dry,1007,5,20,,,,8.5,
Wick,14/06/2019 19:00,10.9,15,,,0,,83,,120,Dry,1008,7,20,,,,8.3,
Wick,14/06/2019 20:00,10.5,10,,,0,,87,,110,Dry,1008,4,21,,,,8.5,
Wick,14/06/2019 21:00,9.9,13,,,0,,91,,110,Dry,1008,1,14,,,,8.6,
Wick,14/06/2019 22:00,9.8,9,,,0,,91,,120,Dry,1009,4,25,,,,8.5,
Wick,14/06/2019 23:00,10,9,,,0,,89,,130,Dry,1010,0,26,,,,8.4,
Wick,15/06/2019 00:00,9.8,7,,,0,0,89,,140,Dry,1010,0,25,,,,8.2,
Wick,15/06/2019 01:00,9.6,5,,,0,,89,,150,Dry,1010,0,35,,,,8,
Wick,15/06/2019 02:00,9.1,7,,,0,,92,,110,Dry,1010,0,26,,,,7.9,
Wick,15/06/2019 03:00,9.1,8,,,0,,94,,110,Dry,1011,0,21,,,,8.2,
Wick,15/06/2019 04:00,10.1,10,,,0,,95,,120,Dry,1011,4,15,,,,9.4,
Wick,15/06/2019 05:00,10.2,6,,,0,,96,,110,Dry,1011,5,14,,,,9.7,
Wick,15/06/2019 06:00,10.8,10,8.7,,0,0,94,,100,Dry,1010,0,26,,,,9.9,
Wick,15/06/2019 07:00,10.5,14,,,0,,96,,100,Dry,1011,7,23,,,,9.9,
Wick,15/06/2019 08:00,10.8,15,,,0,,94,,100,Dry,1011,8,18,,,,10,
Wick,15/06/2019 09:00,10.1,15,,,0,,98,,90,Fog,1011,8,1,,,,9.8,
Wick,15/06/2019 10:00,10.8,13,,,0,,100,,80,Thickening fog,1011,9,0,,,,10.8,
Wick,15/06/2019 11:00,11,12,,,0,,100,,100,Fog thinning,1011,8,1,,,,11,
Wick,15/06/2019 12:00,11.6,14,,,0,,98,,100,Fog,1011,8,3,,,,11.4,
Wick,15/06/2019 13:00,11.1,14,,,0,,98,,100,Fog,1011,8,1,,,,10.8,
Wick,15/06/2019 14:00,11.3,14,,,0,,98,,110,Fog,1010,8,1,,,,11.1,
Wick,15/06/2019 15:00,11.5,13,,,0,,98,,110,Fog,1010,8,1,,,,11.2,
Wick,15/06/2019 16:00,11.2,15,,,0,,98,,100,Fog,1010,8,1,,,,10.9,
Wick,15/06/2019 17:00,11.1,15,,,0,,99,,100,Thickening fog,1010,9,0,,,,11,
Wick,15/06/2019 18:00,10.4,14,,11.8,0,0,99,,100,Thickening fog,1009,9,0,,,,10.3,
Wick,15/06/2019 19:00,10.2,10,,,0,,99,,110,Fog,1009,9,0,,,,10.1,
Wick,15/06/2019 20:00,9.9,10,,,0,,99,,100,Thickening fog,1009,9,0,,,,9.8,
Wick,15/06/2019 21:00,10.2,9,,,0,,100,,120,Rain,1009,1,10,,,,10.2,
Wick,15/06/2019 22:00,10,7,,,0,,100,,110,Dry,1009,1,10,,,,10,
Wick,15/06/2019 23:00,10,12,,,0,,99,,110,Misty,1008,1,9,,,,9.9,
Wick,16/06/2019 00:00,10.1,14,,,0,0,98,,120,Misty,1008,0,9,,,,9.9,
Wick,16/06/2019 01:00,10.1,12,,,0,,99,,110,Misty,1008,7,10,,,,10,
Wick,16/06/2019 02:00,10.2,9,,,0,,98,,110,Misty,1007,7,9,,,,10,
Wick,16/06/2019 03:00,10.3,12,,,0,,98,,110,Dry,1007,8,10,,,,10.1,
Wick,16/06/2019 04:00,10.3,8,,,0,,99,,130,Misty,1007,8,8,,,,10.2,
Wick,16/06/2019 05:00,10.4,5,,,0.6,,99,,100,Moderate shower,1006,8,4,,,,10.3,
Wick,16/06/2019 06:00,10.7,7,9.8,,0.2,0.8,99,,140,Rain,1006,8,5,,,,10.6,
Wick,16/06/2019 07:00,11.3,9,,,0,,98,,150,Dry,1006,8,12,,,,11,
Wick,16/06/2019 08:00,12.3,9,,,0,,94,,140,Dry,1007,6,15,,,,11.5,
Wick,16/06/2019 09:00,13.4,13,,,0,,79,,180,Dry,1006,6,22,,,,10,
Wick,16/06/2019 10:00,13.5,17,,,0,,72,,170,Dry,1007,0,40,,,,8.6,
Wick,16/06/2019 11:00,14.3,20,,,0,,74,,180,Dry,1006,4,22,,,,9.8,
Wick,16/06/2019 12:00,15.9,17,,,0,0,59,,210,Dry,1006,1,40,,,,8.1,
Wick,16/06/2019 13:00,14.7,15,,,0,,66,,180,Dry,1007,2,40,,,,8.6,
Wick,16/06/2019 14:00,13.4,7,,,0,,79,,50,Dry,1007,7,35,,,,9.9,
Wick,16/06/2019 15:00,13.4,18,,,0,,70,,160,Dry,1008,4,24,,,,8.1,
Wick,16/06/2019 16:00,13.4,15,,,0,,71,,160,Dry,1008,7,35,,,,8.4,
Wick,16/06/2019 17:00,14.2,13,,,0,,65,,190,Dry,1008,5,45,,,,7.9,
Wick,16/06/2019 18:00,12.9,13,,16.8,0,0,73,,150,Dry,1008,0,50,,,,8.3,
Wick,16/06/2019 19:00,12.7,9,,,0,,73,,140,Dry,1008,7,35,,,,8,
Wick,16/06/2019 20:00,12.2,6,,,0,,77,,140,Dry,1008,3,35,,,,8.4,
Wick,16/06/2019 21:00,11.9,6,,,0,,81,,130,Dry,1008,7,45,,,,8.8,
Wick,16/06/2019 22:00,10.7,3,,,0,,87,,140,Dry,1008,5,45,,,,8.7,
Wick,16/06/2019 23:00,10.8,5,,,0,,85,,140,Dry,1007,5,50,,,,8.5,
Wick,17/06/2019 00:00,11.1,6,,,0,,88,,120,Dry,1006,5,30,,,,9.3,
Wick,17/06/2019 01:00,10.7,6,,,0,,91,,110,Dry,1006,7,27,,,,9.3,
Wick,17/06/2019 02:00,11,6,,,0,,89,,120,Dry,1005,8,30,,,,9.3,
Wick,17/06/2019 03:00,10.6,12,,,0.4,,97,,120,Light shower,1005,8,6,,,,10.2,
Wick,17/06/2019 04:00,10.4,7,,,1,,98,,120,Light rain,1004,7,6,,,,10.1,
Wick,17/06/2019 05:00,10.5,5,,,1,,99,,110,Light rain,1003,8,3,,,,10.4,
Wick,17/06/2019 06:00,10.7,5,,,0.6,,99,,170,Rain,1003,8,14,,,,10.6,
Wick,17/06/2019 07:00,12.2,10,,,0,,96,,200,Dry,1003,7,30,,,,11.6,
Wick,17/06/2019 08:00,12.5,13,,,0,,86,,210,Dry,1003,8,35,,,,10.3,
Wick,17/06/2019 09:00,12.8,18,,,0,,87,,210,Rain,1004,8,30,,,,10.7,
Wick,17/06/2019 10:00,13.4,10,,,0,,76,,240,Dry,1004,8,50,,,,9.4,
Wick,17/06/2019 11:00,14.4,15,,,0,,75,,200,Dry,1004,8,35,,,,10.1,
Wick,17/06/2019 12:00,14.4,17,,,0,0,69,,180,Dry,1005,7,6,,,,9,
Wick,17/06/2019 13:00,15.4,14,,,1.2,,67,,190,Rain,1005,5,45,,,,9.5,
Wick,17/06/2019 14:00,15.4,20,,,0,,61,,190,Dry,1005,6,29,,,,8.1,
Wick,17/06/2019 15:00,14.4,16,,,0,,71,,160,Dry,1005,7,28,,,,9.4,
Wick,17/06/2019 16:00,14.2,12,,,0,,71,,200,Dry,1005,7,28,,,,9.1,
Wick,17/06/2019 17:00,11.7,8,,,0,,81,,10,Rain,1005,1,45,,,,8.7,
Wick,17/06/2019 18:00,11.5,7,,,1.2,,91,,360,Rain,1005,7,23,,,,10.2,
Wick,17/06/2019 19:00,11.8,3,,,0,,91,,20,Rain,1005,8,35,,,,10.4,
Wick,17/06/2019 20:00,11.3,3,,,0,,91,,270,Dry,1005,6,45,,,,9.9,
Wick,17/06/2019 21:00,10.8,6,,,0.6,,92,,210,Rain,1006,5,45,,,,9.7,
Wick,17/06/2019 22:00,9.8,9,,,0,,92,,240,Dry,1006,6,50,,,,8.6,
Wick,17/06/2019 23:00,10.5,12,,,0,,88,,210,Dry,1006,3,50,,,,8.7,
Wick,18/06/2019 00:00,10.5,10,,,0,,88,,180,Dry,1007,5,40,,,,8.6,
Wick,18/06/2019 01:00,10.9,10,,,0,,89,,180,Dry,1007,8,45,,,,9.3,
Wick,18/06/2019 02:00,10.6,12,,,0,,90,,170,Dry,1006,8,30,,,,9.1,
Wick,18/06/2019 03:00,10.5,9,,,0,,85,,170,Dry,1006,5,40,,,,8.2,
Wick,18/06/2019 04:00,10.6,16,,,0,,84,,180,Dry,1005,6,35,,,,8.1,
Wick,18/06/2019 05:00,11.2,12,,,0,,80,,170,Dry,1005,8,35,,,,8,
Wick,18/06/2019 06:00,11.4,15,,,0,,77,,170,Dry,1004,8,30,,,,7.6,
Wick,18/06/2019 07:00,11.4,16,,,0,,79,,180,Dry,1004,1,35,,,,7.9,
Wick,18/06/2019 08:00,11.6,15,,,0.2,,82,,170,Rain,1004,8,35,,,,8.8,
Wick,18/06/2019 09:00,12.2,20,,,0,,74,,190,Dry,1004,8,40,,,,7.9,
Wick,18/06/2019 10:00,12.9,20,,,0,,75,29,190,Dry,1004,1,30,,,,8.7,
Wick,18/06/2019 11:00,14.1,18,,,0,,73,,200,Dry,1005,8,40,,,,9.5,
Wick,18/06/2019 12:00,11.6,16,,,0.4,,84,,220,Heavy shower,1005,8,2,,,,9.1,
Wick,18/06/2019 13:00,13.2,16,,,2.8,,81,,190,Heavy shower,1005,7,12,,,,10.1,
Wick,18/06/2019 14:00,13.3,17,,,2.8,,84,30,200,Rain,1006,3,35,,,,10.7,
Wick,18/06/2019 15:00,16.4,20,,,0,,66,30,230,Dry,1006,1,35,,,,10.2,
Wick,18/06/2019 16:00,15,18,,,0,,65,,240,Dry,1006,7,45,,,,8.6,
Wick,18/06/2019 17:00,13.2,10,,,0,,84,,200,Rain,1006,7,45,,,,10.7,
Wick,18/06/2019 18:00,12.9,13,,16.9,0,6,80,,220,Moderate shower,1007,7,5,,,,9.6,
Wick,18/06/2019 19:00,13.6,9,,,0.6,,82,,210,Rain,1007,3,45,,,,10.7,
Wick,18/06/2019 20:00,13.2,7,,,0,,78,,200,Dry,1007,7,45,,,,9.6,
Wick,18/06/2019 21:00,11.7,6,,,0,,85,,210,Dry,1007,7,40,,,,9.4,
Wick,18/06/2019 22:00,11.5,9,,,0,,82,,190,Dry,1007,5,45,,,,8.6,
Wick,18/06/2019 23:00,11.5,9,,,0,,82,,190,Dry,1007,8,40,,,,8.7,
Wick,19/06/2019 00:00,11.4,7,,,0,,88,,170,Dry,1007,8,27,,,,9.5,
Wick,19/06/2019 01:00,11.4,8,,,0,,88,,170,Dry,1006,8,35,,,,9.5,
Wick,19/06/2019 02:00,11.3,10,,,0,,89,,180,Dry,1006,7,30,,,,9.6,
Wick,19/06/2019 03:00,11.3,8,,,0,,86,,170,Dry,1006,8,45,,,,9.1,
Wick,19/06/2019 04:00,11.2,15,,,0,,87,,180,Dry,1006,8,45,,,,9.2,
Wick,19/06/2019 05:00,11.7,12,,,0,,82,,180,Dry,1005,8,45,,,,8.9,
Wick,19/06/2019 06:00,11.9,12,11.1,,0,0.6,80,,180,Dry,1005,7,45,,,,8.7,
Wick,19/06/2019 07:00,13.1,14,,,0,,77,,190,Dry,1005,4,25,,,,9.2,
Wick,19/06/2019 08:00,14,17,,,0,,71,,200,Dry,1005,7,23,,,,8.9,
Wick,19/06/2019 09:00,14.7,14,,,0,,69,,180,Dry,1005,4,50,,,,9.1,
Wick,19/06/2019 10:00,14.4,12,,,0,,71,,160,Dry,1005,4,20,,,,9.4,
Wick,19/06/2019 11:00,15.2,14,,,0,,63,,190,Dry,1005,7,30,,,,8.3,
Wick,19/06/2019 12:00,14.8,10,,,0,,72,,130,Dry,1004,7,30,,,,10,
Wick,19/06/2019 13:00,14.2,10,,,0,,74,,140,Dry,1004,8,23,,,,9.7,
Wick,19/06/2019 14:00,15.1,12,,,0,,71,,140,Dry,1004,8,26,,,,10,
Wick,19/06/2019 15:00,16,13,,,0,,65,,170,Dry,1004,8,45,,,,9.5,
Wick,19/06/2019 16:00,14.3,8,,,0,,73,,100,Rain,1004,8,30,,,,9.7,
Wick,19/06/2019 17:00,14.3,14,,,0,,67,,170,Dry,1003,6,45,,,,8.4,
Wick,19/06/2019 18:00,13.7,3,,16.7,0,0,76,,40,Dry,1003,6,50,,,,9.6,
Wick,19/06/2019 19:00,12.6,5,,,0,,79,,240,Dry,1003,5,40,,,,9.1,
Wick,19/06/2019 20:00,12.3,6,,,0,,84,,140,Rain,1003,6,40,,,,9.7,
Wick,19/06/2019 21:00,10.9,3,,,0,,91,,360,Dry,1003,7,50,,,,9.5,
Wick,19/06/2019 22:00,11.7,3,,,0,,89,,160,Dry,1003,8,40,,,,10,
Wick,19/06/2019 23:00,10.9,5,,,0,,85,,230,Dry,1003,7,45,,,,8.6,
Wick,20/06/2019 00:00,11.1,7,,,0,0,71,,200,Dry,1003,8,50,,,,6.2,
Wick,20/06/2019 01:00,10.1,2,,,0,,74,,170,Dry,1003,8,45,,,,5.8,
Wick,20/06/2019 02:00,9.6,3,,,0,,72,,200,Dry,1002,8,50,,,,5,
Wick,20/06/2019 03:00,10,5,,,0,,71,,210,Fog,1002,7,50,,,,5,
Wick,20/06/2019 04:00,9.5,3,,,0,,73,,230,Dry,1002,7,45,,,,5,
Wick,20/06/2019 05:00,10,7,,,0.2,,83,,180,Light shower,1002,8,24,,,,7.3,
Wick,20/06/2019 06:00,10,9,,,1,1,92,,190,Moderate rain,1002,8,11,,,,8.8,
Wick,20/06/2019 07:00,10.6,10,,,0.2,,91,,200,Rain,1002,8,30,,,,9.2,
Wick,20/06/2019 08:00,11.5,9,,,0,,85,,190,Dry,1002,7,26,,,,9.1,
Wick,20/06/2019 09:00,13.8,10,,,0,,66,,200,Dry,1001,7,25,,,,7.7,
Wick,20/06/2019 10:00,13.6,14,,,0,,65,,190,Rain,1001,5,35,,,,7.3,
Wick,20/06/2019 11:00,12.3,15,,,0,,73,,210,Moderate shower,1002,7,12,,,,7.7,
Wick,20/06/2019 12:00,11.4,12,,,0.2,,79,,260,Rain,1002,8,35,,,,7.9,
Wick,20/06/2019 13:00,11.5,6,,,0.6,,88,,250,Moderate shower,1002,8,10,,,,9.7,
Wick,20/06/2019 14:00,12.7,6,,,0.8,,85,,330,Rain,1002,8,50,,,,10.3,
Wick,20/06/2019 15:00,12,7,,,0.4,,85,,320,Moderate shower,1003,7,6,,,,9.7,
Wick,20/06/2019 16:00,13,6,,,0.8,,80,,300,Rain,1003,6,30,,,,9.7,
Wick,20/06/2019 17:00,14.5,12,,,0,,75,,260,Rain,1003,6,25,,,,10.2,
Wick,20/06/2019 18:00,11.5,17,,14.5,0.2,3,77,32,250,Light shower,1004,6,12,,,,7.8,
Wick,20/06/2019 19:00,11.6,15,,,0,,78,,240,Rain,1004,7,45,,,,8,
Wick,20/06/2019 20:00,11,17,,,0,,76,,240,Dry,1005,8,45,,,,7,
Wick,20/06/2019 21:00,10.6,15,,,0,,80,,230,Dry,1005,8,50,,,,7.4,
Wick,20/06/2019 22:00,10.2,12,,,0,,84,,240,Dry,1006,8,50,,,,7.7,
Wick,20/06/2019 23:00,9.4,10,,,0,,86,,220,Light shower,1006,7,40,,,,7.2,
Wick,21/06/2019 00:00,9.3,13,,,0,,87,,230,Light shower,1007,8,23,,,,7.3,
Wick,21/06/2019 01:00,9.1,14,,,0,,87,,240,Rain,1007,8,45,,,,7.2,
Wick,21/06/2019 02:00,8.8,12,,,0,,86,,240,Dry,1007,8,50,,,,6.7,
Wick,21/06/2019 03:00,8.6,7,,,0,,87,,220,Dry,1007,8,50,,,,6.6,
Wick,21/06/2019 04:00,8.6,9,,,0,,87,,240,Dry,1008,8,50,,,,6.6,
Wick,21/06/2019 05:00,8.4,8,,,0,,86,,240,Dry,1008,0,45,,,,6.2,
Wick,21/06/2019 06:00,10.3,13,8.4,,0,0,79,,250,Dry,1008,2,28,,,,7,
Wick,21/06/2019 07:00,10,17,,,0,,82,,260,Dry,1009,7,40,,,,7.1,
Wick,21/06/2019 08:00,10.9,20,,,0,,76,,260,Dry,1010,1,40,,,,6.9,
Wick,21/06/2019 09:00,12,16,,,0,,73,,270,Dry,1011,1,35,,,,7.5,
Wick,21/06/2019 10:00,9.6,23,,,0,,87,,270,Moderate shower,1012,7,5,,,,7.6,
Wick,21/06/2019 11:00,12.2,18,,,0.8,,82,30,280,Rain,1012,6,24,,,,9.4,
Wick,21/06/2019 12:00,13.8,24,,,0,0.8,69,33,280,Dry,1012,2,45,,,,8.3,
Wick,21/06/2019 13:00,14.4,20,,,0,,64,,280,Dry,1014,6,24,,,,7.7,
Wick,21/06/2019 14:00,14.7,22,,,0,,59,31,280,Dry,1014,3,35,,,,6.8,
Wick,21/06/2019 15:00,14.6,20,,,0,,59,33,290,Dry,1015,4,50,,,,6.7,
Wick,21/06/2019 16:00,13.7,23,,,0,,62,33,280,Dry,1016,5,20,,,,6.7,
Wick,21/06/2019 17:00,13.7,23,,,0,,64,32,280,Dry,1016,0,23,,,,7.2,
Wick,21/06/2019 18:00,13.7,16,,15.1,0,0,60,29,280,Dry,1017,1,20,,,,6.1,
Wick,21/06/2019 19:00,12.4,14,,,0,,65,,290,Dry,1017,0,30,,,,6.2,
Wick,21/06/2019 20:00,12.4,10,,,0,,70,,290,Dry,1018,5,28,,,,7.2,
Wick,21/06/2019 21:00,8.9,7,,,0,,82,,280,Dry,1018,1,35,,,,6.1,
Wick,21/06/2019 22:00,8.4,7,,,0,,79,,230,Dry,1019,0,50,,,,5,
Wick,21/06/2019 23:00,9,8,,,0,,72,,210,Dry,1019,1,40,,,,4.3,
Wick,22/06/2019 00:00,7.8,3,,,0,0,79,,240,Dry,1019,1,45,,,,4.5,
Wick,22/06/2019 01:00,8.4,5,,,0,,81,,220,Dry,1019,8,45,,,,5.5,
Wick,22/06/2019 02:00,7,6,,,0,,85,,240,Dry,1019,7,50,,,,4.8,
Wick,22/06/2019 03:00,8.8,6,,,0,,74,,190,Dry,1019,3,50,,,,4.6,
Wick,22/06/2019 04:00,8.9,9,,,0,,78,,180,Dry,1019,2,45,,,,5.4,
Wick,22/06/2019 05:00,9.6,8,,,0,,82,,190,Dry,1019,4,50,,,,6.7,
Wick,22/06/2019 06:00,10.7,9,,,0,,79,,190,Dry,1019,4,30,,,,7.3,
Wick,22/06/2019 07:00,12,10,,,0,,71,,180,Dry,1019,0,40,,,,7.1,
Wick,22/06/2019 08:00,12.2,12,,,0,,68,,180,Dry,1019,1,23,,,,6.5,
Wick,22/06/2019 09:00,14.1,10,,,0,,59,,170,Dry,1019,5,30,,,,6.3,
Wick,22/06/2019 10:00,14.6,13,,,0,,61,,170,Dry,1019,8,25,,,,7.3,
Wick,22/06/2019 11:00,14.3,12,,,0,,61,,170,Dry,1019,8,50,,,,6.9,
Wick,22/06/2019 12:00,13.7,12,,,0,0,60,,150,Dry,1019,8,40,,,,6.3,
Wick,22/06/2019 13:00,13.9,12,,,0,,62,,140,Dry,1019,8,50,,,,6.9,
Wick,22/06/2019 14:00,12.8,7,,,0,,76,,130,Dry,1019,7,30,,,,8.8,
Wick,22/06/2019 15:00,13.6,7,,,0,,74,,130,Rain,1019,7,35,,,,9.1,
Wick,22/06/2019 16:00,13.1,5,,,0,,80,,280,Rain,1020,8,50,,,,9.8,
Wick,22/06/2019 17:00,12.2,7,,,0.2,,91,,300,Light shower,1020,7,20,,,,10.8,
Wick,22/06/2019 18:00,12.6,3,,16.2,0,0.2,90,,280,Rain,1020,8,45,,,,11.1,
Wick,22/06/2019 19:00,12.6,3,,,0,,93,,320,Dry,1020,7,40,,,,11.5,
Wick,22/06/2019 20:00,13.1,5,,,0,,88,,330,Rain,1020,8,45,,,,11.3,
Wick,22/06/2019 21:00,11.2,6,,,0,,86,,340,Dry,1020,6,40,,,,9.1,
Wick,22/06/2019 22:00,8.8,7,,,0,,92,,310,Dry,1021,1,45,,,,7.7,
Wick,22/06/2019 23:00,9.6,5,,,0,,93,,270,Dry,1021,7,27,,,,8.6,
Wick,23/06/2019 00:00,9.4,2,,,0,0,94,,280,Dry,1021,2,28,,,,8.5,
Wick,23/06/2019 01:00,8.4,3,,,0,,96,,300,Dry,1021,8,14,,,,7.8,
Wick,23/06/2019 02:00,8.6,3,,,0,,97,,250,Dry,1022,8,23,,,,8.2,
Wick,23/06/2019 03:00,8.7,3,,,0,,97,,250,Dry,1022,8,30,,,,8.4,
Wick,23/06/2019 04:00,8.9,2,,,0,,96,,270,Dry,1022,8,35,,,,8.4,
Wick,23/06/2019 05:00,9.5,2,,,0,,96,,330,Dry,1022,0,25,,,,9,
Wick,23/06/2019 06:00,10.6,6,8.1,,0,0,96,,10,Dry,1022,8,20,,,,10.1,
Wick,23/06/2019 07:00,11.3,10,,,0,,93,,40,Rain,1023,8,30,,,,10.3,
Wick,23/06/2019 08:00,12,12,,,0,,93,,50,Dry,1023,8,19,,,,11,
Wick,23/06/2019 09:00,12.9,13,,,0,,89,,60,Dry,1024,8,15,,,,11.2,
Wick,23/06/2019 10:00,13.1,13,,,0,,89,,60,Dry,1024,8,18,,,,11.4,
Wick,23/06/2019 11:00,13.7,13,,,0,,85,,60,Dry,1024,8,23,,,,11.4,
Wick,23/06/2019 12:00,13.1,15,,,0,0,87,,60,Dry,1024,8,14,,,,11.1,
Wick,23/06/2019 13:00,14.1,15,,,0,,88,,60,Dry,1024,6,25,,,,12.2,
Wick,23/06/2019 14:00,13.5,14,,,0,,89,,60,Dry,1024,8,23,,,,11.8,
Wick,23/06/2019 15:00,13,13,,,0,,93,,70,Haze,1024,8,11,,,,11.9,
Wick,23/06/2019 16:00,13.2,14,,,0,,91,,70,Dry,1024,7,17,,,,11.8,
Wick,23/06/2019 17:00,13.5,15,,,0,,89,,80,Dry,1024,3,11,,,,11.8,
Wick,23/06/2019 18:00,13.3,15,,14.6,0,0,90,,80,Dry,1024,2,24,,,,11.7,
Wick,23/06/2019 19:00,13,15,,,0,,88,,100,Dry,1024,7,18,,,,11.2,
Wick,23/06/2019 20:00,12.7,13,,,0,,90,,110,Dry,1024,7,27,,,,11.2,
Wick,23/06/2019 21:00,12.5,14,,,0,,91,,120,Dry,1024,8,35,,,,11.1,
Wick,23/06/2019 22:00,12,12,,,0,,94,,120,Dry,1025,7,19,,,,11.1,
Wick,23/06/2019 23:00,11.7,9,,,0,,97,,110,Dry,1025,8,13,,,,11.3,
Wick,24/06/2019 00:00,11.7,9,,,0,,98,,100,Dry,1025,8,12,,,,11.4,
Wick,24/06/2019 01:00,11.3,8,,,0,,98,,100,Dry,1025,8,15,,,,11,
Wick,24/06/2019 02:00,11.3,8,,,0,,98,,110,Dry,1025,8,14,,,,11,
Wick,24/06/2019 03:00,11,6,,,0,,98,,70,Dry,1024,8,13,,,,10.8,
Wick,24/06/2019 04:00,11.1,7,,,0,,98,,60,Dry,1024,8,11,,,,10.9,
Wick,24/06/2019 05:00,11.3,9,,,0,,98,,60,Dry,1024,8,12,,,,11.1,
Wick,24/06/2019 06:00,11.7,13,10.9,,0,0,98,,70,Dry,1024,1,35,,,,11.4,
Wick,24/06/2019 07:00,11.8,13,,,0,,93,,80,Dry,1024,6,40,,,,10.8,
Wick,24/06/2019 08:00,12,13,,,0,,92,,70,Dry,1024,8,28,,,,10.8,
Wick,24/06/2019 09:00,12,13,,,0.2,,97,,70,Rain,1024,8,10,,,,11.6,
Wick,24/06/2019 10:00,12.1,13,,,0.2,,98,,80,Light shower,1024,8,8,,,,11.9,
Wick,24/06/2019 11:00,12.1,9,,,0.2,,99,,70,Rain,1024,8,7,,,,12,
Wick,24/06/2019 12:00,12,10,,,0,,98,,50,Misty,1024,8,10,,,,11.8,
Wick,24/06/2019 13:00,11.7,13,,,0,,99,,30,Misty,1024,8,7,,,,11.6,
Wick,24/06/2019 14:00,11.5,14,,,0,,98,,40,Misty,1024,8,13,,,,11.2,
Wick,24/06/2019 15:00,11.2,14,,,0.2,,98,,30,Misty,1024,2,5,,,,11,
Wick,24/06/2019 16:00,11,16,,,1.2,,99,,30,Moderate shower,1023,8,4,,,,10.9,
Wick,24/06/2019 17:00,10.9,17,,,0.4,,100,,20,Rain,1022,8,4,,,,10.9,
Wick,24/06/2019 18:00,10.9,17,,,0,,100,,20,Misty,1022,8,8,,,,10.9,
Wick,24/06/2019 19:00,10.8,17,,,0.4,,100,,20,Rain,1022,8,2,,,,10.8,
Wick,24/06/2019 20:00,10.8,16,,,0,,100,,20,Rain,1022,8,10,,,,10.8,
Wick,24/06/2019 21:00,10.7,15,,,0,,100,,10,Misty,1023,8,6,,,,10.7,
Wick,24/06/2019 22:00,10.7,15,,,0.2,,99,,360,Misty,1023,8,2,,,,10.6,
Wick,24/06/2019 23:00,10.7,17,,,0,,99,,360,Misty,1023,8,3,,,,10.6,
Wick,25/06/2019 00:00,10.8,17,,,0.2,0.8,100,,360,Misty,1023,8,3,,,,10.8,
Wick,25/06/2019 01:00,10.8,17,,,0,,100,,360,Misty,1023,8,11,,,,10.8,
Wick,25/06/2019 02:00,10.8,18,,,0,,100,,360,Misty,1023,8,2,,,,10.8,
Wick,25/06/2019 03:00,10.8,17,,,0.2,,99,,360,Rain,1023,8,2,,,,10.7,
Wick,25/06/2019 04:00,10.7,17,,,0.2,,100,,360,Misty,1024,8,3,,,,10.7,
Wick,25/06/2019 05:00,10.7,15,,,0,,100,,360,Misty,1024,8,5,,,,10.7,
Wick,25/06/2019 06:00,10.8,15,,,0,,100,,360,Misty,1024,8,10,,,,10.8,
Wick,25/06/2019 07:00,11.2,13,,,0,,100,,360,Dry,1025,8,12,,,,11.2,
Wick,25/06/2019 08:00,11.1,12,,,0,,100,,360,Dry,1026,8,12,,,,11.1,
Wick,25/06/2019 09:00,11.4,13,,,0,,98,,350,Dry,1026,8,13,,,,11.2,
Wick,25/06/2019 10:00,13.3,16,,,0,,89,,360,Dry,1026,8,23,,,,11.6,
Wick,25/06/2019 11:00,14.2,18,,,0,,81,,350,Dry,1026,5,21,,,,11,
Wick,25/06/2019 12:00,13.8,18,,,0,,77,,360,Dry,1027,0,20,,,,9.9,
Wick,25/06/2019 13:00,14.1,16,,,0,,72,,10,Dry,1027,0,23,,,,9.2,
Wick,25/06/2019 14:00,14.1,15,,,0,,77,,20,Dry,1028,1,35,,,,10.3,
Wick,25/06/2019 15:00,13.7,16,,,0,,75,,20,Dry,1028,4,20,,,,9.5,
Wick,25/06/2019 16:00,14.4,16,,,0,,77,,350,Dry,1028,7,14,,,,10.5,
Wick,25/06/2019 17:00,12.3,13,,,0,,78,,350,Dry,1028,8,22,,,,8.6,
Wick,25/06/2019 18:00,11.7,14,,14.6,0,0,80,,350,Dry,1028,8,30,,,,8.5,
Wick,25/06/2019 19:00,11.2,15,,,0,,79,,320,Dry,1029,8,27,,,,7.8,
Wick,25/06/2019 20:00,10.4,12,,,0,,81,,340,Dry,1029,8,50,,,,7.3,
Wick,25/06/2019 21:00,9.8,12,,,0,,82,,340,Dry,1030,8,45,,,,7,
Wick,25/06/2019 22:00,9.7,13,,,0,,84,,330,Dry,1030,8,40,,,,7.3,
Wick,25/06/2019 23:00,9.5,12,,,0,,83,,340,Dry,1030,8,45,,,,6.9,
Wick,26/06/2019 00:00,9.3,7,,,0,0,86,,310,Dry,1030,8,35,,,,7.1,
Wick,26/06/2019 01:00,8.6,8,,,0,,86,,310,Dry,1031,8,45,,,,6.5,
Wick,26/06/2019 02:00,8.7,7,,,0,,89,,290,Dry,1030,8,35,,,,7,
Wick,26/06/2019 03:00,8.9,7,,,0,,90,,290,Dry,1030,8,45,,,,7.4,
Wick,26/06/2019 04:00,9.4,9,,,0,,89,,290,Dry,1030,8,45,,,,7.7,
Wick,26/06/2019 05:00,9.8,8,,,0,,87,,290,Dry,1030,8,35,,,,7.9,
Wick,26/06/2019 06:00,10.4,9,8.5,,0,0,85,,270,Dry,1030,8,35,,,,8,
Wick,26/06/2019 07:00,12,13,,,0,,81,,270,Dry,1031,3,40,,,,9,
Wick,26/06/2019 08:00,12.5,15,,,0,,79,,280,Dry,1031,7,35,,,,9,
Wick,26/06/2019 09:00,12.8,14,,,0,,77,,280,Dry,1031,8,50,,,,9,
Wick,26/06/2019 10:00,12.6,16,,,0,,84,,290,Dry,1031,6,28,,,,10.1,
Wick,26/06/2019 11:00,13.1,18,,,0,,80,,290,Dry,1031,8,35,,,,9.8,
Wick,26/06/2019 12:00,13.7,18,,,0,0,75,29,280,Dry,1031,5,28,,,,9.5,
Wick,26/06/2019 13:00,13.3,21,,,0,,86,30,290,Haze,1031,8,19,,,,11.1,
Wick,26/06/2019 14:00,13.5,21,,,0,,76,31,280,Dry,1032,7,50,,,,9.5,
Wick,26/06/2019 15:00,13.9,23,,,0,,76,31,280,Dry,1031,8,25,,,,9.8,
Wick,26/06/2019 16:00,14,26,,,0,,76,38,280,Dry,1031,8,18,,,,10,
Wick,26/06/2019 17:00,13.7,23,,,0,,77,,280,Dry,1031,8,40,,,,9.9,
Wick,26/06/2019 18:00,13.8,23,,,0,,78,,280,Dry,1030,8,45,,,,10.2,
Wick,26/06/2019 19:00,13.5,25,,,0,,80,38,280,Dry,1030,3,30,,,,10.3,
Wick,26/06/2019 20:00,12,26,,,0,,88,37,270,Dry,1030,7,28,,,,10.1,
Wick,26/06/2019 21:00,11.2,22,,,0,,91,,270,Dry,1031,6,25,,,,9.8,
Wick,26/06/2019 22:00,10.7,24,,,0,,92,35,280,Dry,1031,1,26,,,,9.5,
Wick,26/06/2019 23:00,11,22,,,0,,92,37,280,Dry,1031,6,19,,,,9.8,
Wick,27/06/2019 00:00,11,25,,,0,,93,,290,Dry,1032,8,17,,,,10,
Wick,27/06/2019 01:00,10.7,28,,,0,,96,,290,Misty,1031,8,12,,,,10.1,
Wick,27/06/2019 02:00,10.7,22,,,0,,98,,290,Misty,1032,8,5,,,,10.4,
Wick,27/06/2019 03:00,10.8,20,,,0,,98,31,290,Misty,1031,8,4,,,,10.6,
Wick,27/06/2019 04:00,10.7,20,,,0,,98,32,290,Misty,1032,8,5,,,,10.5,
Wick,27/06/2019 05:00,10.7,15,,,0,,99,29,290,Misty,1032,8,4,,,,10.6,
Wick,27/06/2019 06:00,10.7,17,10.6,,0,0,99,,290,Misty,1032,8,5,,,,10.6,
Wick,27/06/2019 07:00,11.2,16,,,0.2,,98,,300,Misty,1032,8,9,,,,10.9,
Wick,27/06/2019 08:00,11.4,15,,,0,,96,,300,Misty,1033,8,9,,,,10.9,
Wick,27/06/2019 09:00,12.3,14,,,0,,92,,300,Dry,1033,8,19,,,,11.2,
Wick,27/06/2019 10:00,12.4,15,,,0,,91,,290,Dry,1033,8,24,,,,11,
Wick,27/06/2019 11:00,14,17,,,0,,82,,290,Dry,1033,8,45,,,,11.1,
Wick,27/06/2019 12:00,15.3,15,,,0,,81,,310,Dry,1033,8,25,,,,12.1,
Wick,27/06/2019 13:00,16,15,,,0,,77,,320,Dry,1033,5,35,,,,12.1,
Wick,27/06/2019 14:00,16,17,,,0,,81,,320,Dry,1032,2,30,,,,12.8,
Wick,27/06/2019 15:00,15.6,12,,,0,,78,,330,Dry,1032,2,27,,,,11.9,
Wick,27/06/2019 16:00,15.5,13,,,0,,78,,290,Dry,1032,6,30,,,,11.8,
Wick,27/06/2019 17:00,14.9,9,,,0,,81,,300,Dry,1032,2,25,,,,11.7,
Wick,27/06/2019 18:00,13.1,9,,,0,,87,,320,Dry,1032,7,21,,,,11,
Wick,27/06/2019 19:00,12.1,12,,,0,,91,,310,Dry,1031,7,21,,,,10.8,
Wick,27/06/2019 20:00,11.2,8,,,0,,94,,310,Misty,1031,8,10,,,,10.4,
Wick,27/06/2019 21:00,10.7,5,,,0,,96,,290,Misty,1031,8,9,,,,10.2,
Wick,27/06/2019 22:00,10.5,3,,,0,,98,,300,Misty,1031,8,4,,,,10.2,
Wick,27/06/2019 23:00,10.4,2,,,0,,98,,260,Thickening fog,1031,7,1,,,,10.2,
Wick,28/06/2019 00:00,10.3,2,,,0,0,99,,60,Thickening fog,1031,8,0,,,,10.2,
Wick,28/06/2019 01:00,10.3,2,,,0,,100,,140,Fog,1030,8,2,,,,10.3,
Wick,28/06/2019 02:00,10.1,5,,,0,,99,,120,Fog,1030,8,3,,,,10,
Wick,28/06/2019 03:00,9.9,3,,,0,,100,,140,Thickening fog,1029,9,0,,,,9.9,
Wick,28/06/2019 04:00,10.3,6,,,0,,100,,160,Thickening fog,1029,9,0,,,,10.3,
Wick,28/06/2019 05:00,10.2,8,,,0,,99,,130,Fog,1028,9,0,,,,10.1,
Wick,28/06/2019 06:00,10.3,9,,,0,,100,,140,Fog thinning,1028,9,1,,,,10.3,
Wick,28/06/2019 07:00,10.4,10,,,0,,100,,140,Fog thinning,1027,8,1,,,,10.4,
Wick,28/06/2019 08:00,10.7,8,,,0,,100,,140,Fog,1027,9,1,,,,10.7,
Wick,28/06/2019 09:00,11.4,8,,,0,,100,,150,Fog,1026,8,1,,,,11.4,
Wick,28/06/2019 10:00,12.1,9,,,0,,100,,130,Fog,1026,8,1,,,,12.1,
Wick,28/06/2019 11:00,12.1,10,,,0,,100,,140,Fog,1025,8,1,,,,12.1,
Wick,28/06/2019 12:00,12.2,13,,,0,,98,,150,Fog,1025,8,2,,,,12,
Wick,28/06/2019 13:00,12.5,14,,,0,,96,,140,Fog,1024,8,1,,,,12,
Wick,28/06/2019 14:00,13.6,10,,,0,,91,,130,Fog,1023,6,8,,,,12.3,
Wick,28/06/2019 15:00,16.3,9,,,0,,80,,130,Dry,1022,0,29,,,,12.9,
Wick,28/06/2019 16:00,16.4,10,,,0,,76,,110,Dry,1021,0,20,,,,12.3,
Wick,28/06/2019 17:00,16.3,12,,,0,,75,,130,Dry,1021,0,20,,,,12,
Wick,28/06/2019 18:00,15.7,9,,17.2,0,0,80,,130,Dry,1020,6,26,,,,12.3,
Wick,28/06/2019 19:00,15.8,9,,,0,,78,,130,Dry,1019,0,19,,,,12,
Wick,28/06/2019 20:00,14.5,9,,,0,,80,,140,Dry,1018,0,23,,,,11.2,
Wick,28/06/2019 21:00,13.7,10,,,0,,84,,150,Dry,1018,0,14,,,,11.2,
Wick,28/06/2019 22:00,13.2,8,,,0,,87,,140,Dry,1018,4,11,,,,11.2,
Wick,28/06/2019 23:00,12.8,10,,,0,,89,,140,Dry,1017,3,12,,,,11.1,
Wick,29/06/2019 00:00,12.4,15,,,0,,92,,150,Dry,1016,4,10,,,,11.3,
Wick,29/06/2019 01:00,12.5,10,,,0,,93,,150,Haze,1015,0,10,,,,11.4,
Wick,29/06/2019 02:00,12.7,10,,,0,,93,,160,Dry,1015,3,12,,,,11.7,
Wick,29/06/2019 03:00,13.1,8,,,0,,92,,140,Dry,1014,7,10,,,,11.9,
Wick,29/06/2019 04:00,14.4,5,,,0,,90,,200,Dry,1014,5,19,,,,12.8,
Wick,29/06/2019 05:00,15.2,2,,,0,,88,,270,Dry,1014,6,16,,,,13.4,
Wick,29/06/2019 06:00,15.9,2,,,0,,86,,60,Dry,1014,8,18,,,,13.7,
Wick,29/06/2019 07:00,14.4,7,,,0,,87,,100,Dry,1013,8,20,,,,12.3,
Wick,29/06/2019 08:00,14.5,7,,,0,,86,,140,Dry,1013,8,18,,,,12.3,
Wick,29/06/2019 09:00,16.9,6,,,0,,80,,110,Dry,1013,1,16,,,,13.6,
Wick,29/06/2019 10:00,17.9,3,,,0,,77,,110,Dry,1013,0,22,,,,13.9,
Wick,29/06/2019 11:00,15.2,9,,,0,,82,,90,Dry,1013,4,10,,,,12.2,
Wick,29/06/2019 12:00,16.8,9,,,0,0,81,,40,Dry,1013,7,29,,,,13.6,
Wick,29/06/2019 13:00,18.1,12,,,0,,76,,10,Dry,1012,2,20,,,,14,
Wick,29/06/2019 14:00,18.9,8,,,0,,70,,70,Dry,1013,4,30,,,,13.4,
Wick,29/06/2019 15:00,15,10,,,0.2,,90,,60,Moderate shower,1011,7,7,,,,13.5,
Wick,29/06/2019 16:00,14.6,9,,,0.2,,91,,140,Drizzly rain,1013,7,10,,,,13.2,
Wick,29/06/2019 17:00,14.8,12,,,0.8,,93,,40,Moderate rain,1012,7,13,,,,13.8,
Wick,29/06/2019 18:00,14.9,9,,20.7,0,1,93,,60,Rain,1010,7,11,,,,13.8,
Wick,29/06/2019 19:00,13.8,12,,,1,,96,,60,Light shower,1009,8,8,,,,13.2,
Wick,29/06/2019 20:00,13.3,9,,,0,,96,,80,Drizzly rain,1009,8,7,,,,12.8,
Wick,29/06/2019 21:00,13.3,12,,,0,,97,,70,Rain,1009,8,7,,,,12.9,
Wick,29/06/2019 22:00,12.6,9,,,1.4,,98,,70,Drizzly rain,1007,7,3,,,,12.4,
Wick,29/06/2019 23:00,12.5,8,,,0.2,,99,,70,Rain,1007,8,3,,,,12.4,
Wick,30/06/2019 00:00,12.3,8,,,0.6,,100,,60,Thickening fog,1005,7,1,,,,12.3,
Wick,30/06/2019 01:00,12.4,3,,,0,,100,,60,Thickening fog,1004,8,0,,,,12.4,
Wick,30/06/2019 02:00,12.5,3,,,0,,100,,280,Thickening fog,1003,9,0,,,,12.5,
Wick,30/06/2019 03:00,12.5,1,,,0,,100,,230,Fog,1002,9,0,,,,12.5,
Wick,30/06/2019 04:00,11.7,1,,,0,,100,,330,Fog,1002,9,0,,,,11.7,
Wick,30/06/2019 05:00,12.2,1,,,0,,100,,190,Fog,1002,9,0,,,,12.2,
Wick,30/06/2019 06:00,12.8,5,11.7,,0,3,100,,190,Rain,1002,8,9,,,,12.8,
Wick,30/06/2019 07:00,14.7,8,,,0,,100,,220,Dry,1001,7,29,,,,14.7,
Wick,30/06/2019 08:00,16.8,12,,,0,,89,,230,Dry,1001,7,30,,,,15.1,
Wick,30/06/2019 09:00,15.8,16,,,0,,83,,200,Dry,1001,7,27,,,,13,
Wick,30/06/2019 10:00,16.6,15,,,0,,82,,200,Dry,1001,1,45,,,,13.7,
Wick,30/06/2019 11:00,17.6,16,,,0,,77,,190,Dry,1001,8,30,,,,13.6,
Wick,30/06/2019 12:00,16.6,15,,,0,0,77,,200,Dry,1001,8,35,,,,12.7,
Wick,30/06/2019 13:00,15.5,7,,,1,,92,,230,Rain,1001,8,50,,,,14.3,
Wick,30/06/2019 14:00,15.7,20,,,3,,84,31,240,Rain,1002,7,40,,,,13.1,
Wick,30/06/2019 15:00,16.8,21,,,0,,74,37,240,Dry,1002,8,40,,,,12.2,
Wick,30/06/2019 16:00,16.4,23,,,0,,69,38,240,Dry,1002,7,35,,,,10.9,
Wick,30/06/2019 17:00,15.5,18,,,0,,78,,240,Dry,1002,7,35,,,,11.8,
Wick,30/06/2019 18:00,14.9,16,,18.6,0,4,77,,230,Dry,1002,7,40,,,,11,
Wick,30/06/2019 19:00,14.5,17,,,0,,75,,230,Dry,1002,7,50,,,,10.3,
Wick,30/06/2019 20:00,13.8,20,,,0,,78,,230,Dry,1002,8,45,,,,10.1,
Wick,30/06/2019 21:00,13.7,21,,,0,,78,31,220,Dry,1001,8,40,,,,10,
Wick,30/06/2019 22:00,13.5,23,,,0,,78,33,220,Rain,1001,8,40,,,,9.9,
Wick,30/06/2019 23:00,12.9,26,,,0,,84,36,230,Rain,1001,8,50,,,,10.4,
Wick,01/07/2019 00:00,12.7,23,,,0,,88,,240,Dry,1001,8,18,,,,10.9,
Wick,01/07/2019 01:00,12.4,16,,,0,,95,31,250,Rain,1001,7,4,,,,11.7,
Wick,01/07/2019 02:00,12.4,16,,,0.2,,98,,260,Rain,1002,7,4,,,,12.2,
Wick,01/07/2019 03:00,12.4,15,,,0.2,,98,,270,Dry,1002,8,45,,,,12.2,
Wick,01/07/2019 04:00,12.4,16,,,0,,98,,270,Dry,1002,6,17,,,,12.2,
Wick,01/07/2019 05:00,11.6,21,,,0.2,,98,33,270,Misty,1003,8,14,,,,11.4,
Wick,01/07/2019 06:00,11.9,22,11.6,,0,0.6,98,35,280,Misty,1004,8,11,,,,11.7,
Wick,01/07/2019 07:00,11.1,22,,,0,,98,36,280,Misty,1005,8,3,,,,10.9,
Wick,01/07/2019 08:00,10.7,24,,,0.2,,98,31,300,Misty,1007,8,13,,,,10.4,
Wick,01/07/2019 09:00,10.6,22,,,0.2,,96,35,300,Misty,1009,3,8,,,,10,
Wick,01/07/2019 10:00,11.5,24,,,0,,91,,310,Haze,1010,8,8,,,,10.2,
Wick,01/07/2019 11:00,11.7,22,,,0.2,,95,33,300,Rain,1011,8,40,,,,11,
Wick,01/07/2019 12:00,12.5,23,,,0,,88,,300,Dry,1012,7,20,,,,10.6,
Wick,01/07/2019 13:00,13,25,,,0,,78,35,300,Dry,1014,8,30,,,,9.4,
Wick,01/07/2019 14:00,10.4,22,,,0,,92,37,290,Rain,1015,8,25,,,,9.3,
Wick,01/07/2019 15:00,11.4,25,,,0,,78,,290,Dry,1015,8,40,,,,7.8,
Wick,01/07/2019 16:00,11.1,23,,,0,,83,37,290,Dry,1016,8,30,,,,8.4,
Wick,01/07/2019 17:00,9.6,23,,,0,,81,,290,Haze,1017,8,4,,,,6.6,
Wick,01/07/2019 18:00,10.8,18,,13,0,0.6,74,31,280,Dry,1017,8,35,,,,6.5,
Wick,01/07/2019 19:00,9.4,14,,,0,,89,,280,Rain,1018,8,40,,,,7.8,
Wick,01/07/2019 20:00,9.7,15,,,0,,80,,290,Rain,1018,3,35,,,,6.6,
Wick,01/07/2019 21:00,8.1,10,,,0,,85,,280,Dry,1019,5,45,,,,5.8,
Wick,01/07/2019 22:00,6.8,9,,,0,,89,,270,Dry,1019,0,30,,,,5.2,
Wick,01/07/2019 23:00,6.2,6,,,0,,92,,250,Dry,1020,4,25,,,,5.1,
Wick,02/07/2019 00:00,6.6,5,,,0,0,93,,230,Dry,1020,3,30,,,,5.6,
Wick,02/07/2019 01:00,7.2,7,,,0,,94,,250,Dry,1020,5,40,,,,6.4,
Wick,02/07/2019 02:00,7.7,7,,,0,,93,,260,Dry,1020,8,35,,,,6.7,
Wick,02/07/2019 03:00,8.4,5,,,0,,89,,210,Dry,1020,1,35,,,,6.8,
Wick,02/07/2019 04:00,9.3,10,,,0,,93,,230,Rain,1019,8,27,,,,8.3,
Wick,02/07/2019 05:00,9.8,13,,,0.2,,94,,250,Light shower,1019,7,35,,,,8.9,
Wick,02/07/2019 06:00,10.5,15,5.9,,0,0.2,92,,260,Rain,1019,7,24,,,,9.3,
Wick,02/07/2019 07:00,11.4,17,,,0.2,,92,,270,Rain,1020,7,25,,,,10.3,
Wick,02/07/2019 08:00,11.2,17,,,0.2,,92,,270,Dry,1020,8,35,,,,10.1,
Wick,02/07/2019 09:00,13.4,22,,,0,,78,,280,Dry,1020,7,23,,,,9.7,
Wick,02/07/2019 10:00,11.3,18,,,0,,91,32,280,Light shower,1021,7,12,,,,9.9,
Wick,02/07/2019 11:00,13.2,21,,,0,,84,29,280,Rain,1021,8,19,,,,10.6,
Wick,02/07/2019 12:00,12.8,20,,,0,0.4,72,30,290,Dry,1022,1,35,,,,8,
Wick,02/07/2019 13:00,14.1,21,,,0,,70,32,290,Dry,1022,8,35,,,,8.9,
Wick,02/07/2019 14:00,12.5,22,,,0,,72,,280,Dry,1022,8,20,,,,7.7,
Wick,02/07/2019 15:00,15.1,24,,,0,,63,,280,Dry,1022,4,15,,,,8.3,
Wick,02/07/2019 16:00,13.5,28,,,0.2,,60,,290,Dry,1023,5,50,,,,6.1,
Wick,02/07/2019 17:00,12.7,28,,,0,,68,,290,Dry,1023,4,35,,,,7,
Wick,02/07/2019 18:00,11.7,22,,,0,,63,,300,Dry,1024,3,21,,,,5,
Wick,02/07/2019 19:00,11.1,21,,,0,,67,31,300,Dry,1024,4,45,,,,5.3,
Wick,02/07/2019 20:00,10,13,,,0,,74,,290,Dry,1025,0,30,,,,5.6,
Wick,02/07/2019 21:00,8.8,10,,,0,,82,,280,Dry,1025,0,50,,,,6,
Wick,02/07/2019 22:00,8.3,9,,,0,,90,,270,Dry,1025,6,40,,,,6.9,
Wick,02/07/2019 23:00,6.5,9,,,0,,92,,270,Dry,1025,0,23,,,,5.4,
Wick,03/07/2019 00:00,7.9,8,,,0,,90,,250,Dry,1026,5,30,,,,6.5,
Wick,03/07/2019 01:00,8.2,8,,,0,,92,,250,Dry,1025,6,30,,,,7.1,
Wick,03/07/2019 02:00,8.8,10,,,0,,90,,250,Dry,1025,7,27,,,,7.4,
Wick,03/07/2019 03:00,9.2,8,,,0,,90,,250,Dry,1025,7,30,,,,7.7,
Wick,03/07/2019 04:00,9.5,9,,,0,,92,,250,Dry,1025,8,30,,,,8.3,
Wick,03/07/2019 05:00,9.7,9,,,0,,94,,260,Light drizzle,1025,8,10,,,,8.8,
Wick,03/07/2019 06:00,10.5,10,,,0,,93,,250,Dry,1025,8,30,,,,9.5,
Wick,03/07/2019 07:00,11.7,14,,,0,,87,,280,Dry,1025,1,30,,,,9.7,
Wick,03/07/2019 08:00,11.9,13,,,0,,84,,280,Dry,1025,8,30,,,,9.4,
Wick,03/07/2019 09:00,12.8,15,,,0,,77,,270,Dry,1025,7,24,,,,8.9,
Wick,03/07/2019 10:00,12.3,14,,,0,,73,,260,Rain,1025,7,35,,,,7.8,
Wick,03/07/2019 11:00,11.7,9,,,0,,92,,250,Drizzly rain,1025,8,4,,,,10.5,
Wick,03/07/2019 12:00,12.3,10,,,0.4,0.4,95,,240,Light drizzle,1025,8,12,,,,11.6,
Wick,03/07/2019 13:00,13.2,21,,,0.2,,94,,280,Drizzle,1024,8,13,,,,12.3,
Wick,03/07/2019 14:00,12.7,20,,,0,,95,30,280,Misty,1025,8,8,,,,12,
Wick,03/07/2019 15:00,12.9,21,,,0,,95,31,280,Rain,1025,8,30,,,,12.2,
Wick,03/07/2019 16:00,12.7,22,,,0,,93,35,280,Haze,1025,8,6,,,,11.7,
Wick,03/07/2019 17:00,12.7,22,,,0,,92,31,270,Dry,1024,8,18,,,,11.5,
Wick,03/07/2019 18:00,13.1,20,,13.5,0,0.2,87,31,280,Dry,1024,2,45,,,,11,
Wick,03/07/2019 19:00,13.2,20,,,0,,85,,270,Dry,1024,8,35,,,,10.9,
Wick,03/07/2019 20:00,11.7,21,,,0,,91,36,270,Dry,1024,8,35,,,,10.4,
Wick,03/07/2019 21:00,11.2,18,,,0,,90,,270,Dry,1024,8,45,,,,9.7,
Wick,03/07/2019 22:00,10.9,16,,,0,,91,,260,Dry,1023,8,30,,,,9.6,
Wick,03/07/2019 23:00,10.7,14,,,0,,88,,260,Dry,1022,8,45,,,,8.9,
Wick,04/07/2019 00:00,10.9,13,,,0,0,84,,260,Dry,1022,0,50,,,,8.4,
Wick,04/07/2019 01:00,11.8,13,,,0,,80,,210,Dry,1022,8,50,,,,8.6,
Wick,04/07/2019 02:00,11.8,14,,,0,,81,,250,Dry,1021,8,50,,,,8.7,
Wick,04/07/2019 03:00,11.8,14,,,0,,80,,230,Dry,1021,8,40,,,,8.6,
Wick,04/07/2019 04:00,11.9,13,,,0,,82,,250,Dry,1020,8,50,,,,9,
Wick,04/07/2019 05:00,12.1,14,,,0,,80,,240,Rain,1020,8,40,,,,8.8,
Wick,04/07/2019 06:00,12.5,15,,,0,,78,,240,Dry,1019,8,45,,,,8.8,
Wick,04/07/2019 07:00,12.6,16,,,0,,78,,250,Dry,1019,8,30,,,,9,
Wick,04/07/2019 08:00,12.8,16,,,0,,81,,250,Rain,1018,8,27,,,,9.8,
Wick,04/07/2019 09:00,12.7,17,,,0.2,,86,,250,Rain,1018,8,15,,,,10.5,
Wick,04/07/2019 10:00,12.7,16,,,0.2,,88,29,250,Light shower,1017,8,11,,,,10.8,
Wick,04/07/2019 11:00,12.9,23,,,0,,89,,250,Dry,1016,8,11,,,,11.2,
Wick,04/07/2019 12:00,13.9,23,,,0.2,,88,,260,Dry,1016,7,20,,,,12,
Wick,04/07/2019 13:00,14.3,26,,,0,,82,35,250,Dry,1015,8,20,,,,11.4,
Wick,04/07/2019 14:00,14.1,25,,,0,,86,,260,Haze,1015,8,8,,,,11.9,
Wick,04/07/2019 15:00,13.8,21,,,0,,90,33,260,Haze,1015,8,15,,,,12.3,
Wick,04/07/2019 16:00,13.8,21,,,0,,91,31,260,Rain,1015,8,30,,,,12.4,
Wick,04/07/2019 17:00,13.8,16,,,0.2,,95,,270,Rain,1015,8,8,,,,13.1,
Wick,04/07/2019 18:00,13.7,18,,14.7,0,0.8,96,,270,Misty,1015,8,9,,,,13.1,
Wick,04/07/2019 19:00,13,17,,,0,,96,,280,Dry,1015,8,19,,,,12.4,
Wick,04/07/2019 20:00,12.5,15,,,0,,98,,280,Misty,1015,4,7,,,,12.2,
Wick,04/07/2019 21:00,12.2,14,,,0,,98,,290,Dry,1015,8,13,,,,12,
Wick,04/07/2019 22:00,11.8,15,,,0,,99,,290,Dry,1015,8,19,,,,11.7,
Wick,04/07/2019 23:00,11.4,14,,,0,,99,,280,Rain,1015,8,45,,,,11.3,
Wick,05/07/2019 00:00,11,9,,,0,0,98,,270,Dry,1016,2,40,,,,10.8,
Wick,05/07/2019 01:00,11,9,,,0,,99,,280,Dry,1016,8,17,,,,10.9,
Wick,05/07/2019 02:00,11.1,12,,,0,,98,,280,Dry,1016,8,30,,,,10.9,
Wick,05/07/2019 03:00,10.8,9,,,0,,98,,280,Dry,1016,8,21,,,,10.6,
Wick,05/07/2019 04:00,10.8,14,,,0,,97,,280,Dry,1015,8,40,,,,10.4,
Wick,05/07/2019 05:00,10.7,8,,,0,,96,,250,Dry,1015,0,45,,,,10.1,
Wick,05/07/2019 06:00,11.1,12,10.5,,0,0,92,,280,Dry,1015,7,45,,,,9.9,
Wick,05/07/2019 07:00,11.6,8,,,0,,86,,250,Dry,1015,8,45,,,,9.5,
Wick,05/07/2019 08:00,12,5,,,0,,84,,210,Dry,1014,8,40,,,,9.4,
Wick,05/07/2019 09:00,12.4,6,,,0,,85,,220,Rain,1014,8,25,,,,10.1,
Wick,05/07/2019 10:00,12.3,8,,,0.2,,87,,190,Light shower,1013,8,17,,,,10.3,
Wick,05/07/2019 11:00,11.8,8,,,1,,91,,190,Moderate shower,1013,8,7,,,,10.5,
Wick,05/07/2019 12:00,11.6,8,,,0.6,,90,,170,Light shower,1012,8,27,,,,10.1,
Wick,05/07/2019 13:00,12.2,12,,,0,,87,,170,Light shower,1011,7,17,,,,10.2,
Wick,05/07/2019 14:00,13,10,,,0,,89,,190,Rain,1011,8,30,,,,11.3,
Wick,05/07/2019 15:00,15.2,14,,,0,,85,,240,Dry,1010,8,45,,,,12.8,
Wick,05/07/2019 16:00,14.8,12,,,0.2,,94,,270,Rain,1009,8,22,,,,14,
Wick,05/07/2019 17:00,13.7,22,,,0,,93,30,280,Rain,1009,2,19,,,,12.7,
Wick,05/07/2019 18:00,12.6,24,,16,0,2,84,33,280,Dry,1009,8,24,,,,10.1,
Wick,05/07/2019 19:00,11.8,21,,,0,,81,,280,Dry,1009,5,35,,,,8.8,
Wick,05/07/2019 20:00,10.8,17,,,0,,84,31,270,Dry,1009,3,24,,,,8.3,
Wick,05/07/2019 21:00,10.2,16,,,0,,86,,260,Dry,1008,4,25,,,,8.1,
Wick,05/07/2019 22:00,9.9,16,,,0,,89,,260,Dry,1009,6,29,,,,8.2,
Wick,05/07/2019 23:00,10.7,20,,,0,,88,,270,Dry,1008,8,22,,,,8.8,
Wick,06/07/2019 00:00,10,18,,,0,,90,,270,Dry,1009,7,15,,,,8.5,
Wick,06/07/2019 01:00,9.9,18,,,0,,89,,290,Dry,1009,8,26,,,,8.3,
Wick,06/07/2019 02:00,9.7,18,,,0,,91,,290,Dry,1009,8,29,,,,8.4,
Wick,06/07/2019 03:00,8.8,16,,,0,,90,,290,Dry,1009,5,25,,,,7.4,
Wick,06/07/2019 04:00,9.5,14,,,0,,90,,290,Dry,1009,8,29,,,,8,
Wick,06/07/2019 05:00,9.7,17,,,0,,89,,300,Dry,1009,8,22,,,,8,
Wick,06/07/2019 06:00,10.5,18,,,0,,91,,300,Dry,1010,7,27,,,,9.1,
Wick,06/07/2019 07:00,11.2,21,,,0,,85,,310,Dry,1010,8,22,,,,8.9,
Wick,06/07/2019 08:00,11.6,20,,,0,,74,,320,Dry,1011,4,27,,,,7.2,
Wick,06/07/2019 09:00,11.1,16,,,0,,89,29,310,Dry,1012,7,20,,,,9.4,
Wick,06/07/2019 10:00,12.1,17,,,0,,82,,310,Dry,1012,8,25,,,,9.2,
Wick,06/07/2019 11:00,12.5,16,,,0,,80,,310,Dry,1013,8,30,,,,9.3,
Wick,06/07/2019 12:00,13.5,16,,,0,0,76,,310,Dry,1013,8,30,,,,9.4,
Wick,06/07/2019 13:00,12.7,13,,,0,,79,,340,Dry,1014,8,30,,,,9.3,
Wick,06/07/2019 14:00,13.1,15,,,0,,78,,330,Dry,1014,8,24,,,,9.4,
Wick,06/07/2019 15:00,11.2,15,,,0,,85,,340,Drizzly rain,1015,8,35,,,,8.9,
Wick,06/07/2019 16:00,11.5,14,,,0,,84,,320,Rain,1015,8,22,,,,9,
Wick,06/07/2019 17:00,10.6,16,,,0,,88,,340,Dry,1015,8,40,,,,8.7,
Wick,06/07/2019 18:00,10.4,10,,14,0.2,0.2,89,,340,Dry,1016,2,23,,,,8.8,
Wick,06/07/2019 19:00,10.3,14,,,0,,78,,320,Dry,1016,7,40,,,,6.7,
Wick,06/07/2019 20:00,9.3,10,,,0,,85,,300,Dry,1016,8,30,,,,7,
Wick,06/07/2019 21:00,8.8,10,,,0,,80,,290,Dry,1016,8,45,,,,5.7,
Wick,06/07/2019 22:00,8.8,13,,,0,,78,,290,Dry,1016,8,35,,,,5.2,
Wick,06/07/2019 23:00,8.4,12,,,0,,86,,300,Light shower,1016,2,4,,,,6.2,
Wick,07/07/2019 00:00,6.7,7,,,0.2,0.2,93,,280,Rain,1016,1,45,,,,5.7,
Wick,07/07/2019 01:00,7.8,8,,,0,,92,,270,Dry,1016,8,45,,,,6.6,
Wick,07/07/2019 02:00,8.1,9,,,0,,93,,260,Dry,1016,8,30,,,,7.1,
Wick,07/07/2019 03:00,8.1,12,,,0,,95,,260,Dry,1016,8,40,,,,7.5,
Wick,07/07/2019 04:00,8,13,,,0,,96,,270,Drizzle,1016,6,50,,,,7.5,
Wick,07/07/2019 05:00,8.2,12,,,0,,97,,270,Dry,1016,8,35,,,,7.8,
Wick,07/07/2019 06:00,9.1,13,6.1,,0,0,97,,300,Misty,1016,8,9,,,,8.7,
Wick,07/07/2019 07:00,9.6,17,,,0,,94,,310,Dry,1016,6,35,,,,8.8,
Wick,07/07/2019 08:00,9.9,18,,,0,,85,,310,Dry,1016,8,30,,,,7.5,
Wick,07/07/2019 09:00,10.3,22,,,0,,83,35,310,Dry,1017,8,9,,,,7.6,
Wick,07/07/2019 10:00,10.8,23,,,0.2,,86,31,310,Rain,1017,8,15,,,,8.6,
Wick,07/07/2019 11:00,12.3,20,,,0,,77,32,310,Dry,1017,8,40,,,,8.5,
Wick,07/07/2019 12:00,12.5,25,,,0,0.2,69,35,300,Dry,1018,6,30,,,,7.1,
Wick,07/07/2019 13:00,12.7,23,,,0,,69,33,300,Dry,1018,4,24,,,,7.2,
Wick,07/07/2019 14:00,13.6,21,,,0,,70,31,300,Dry,1018,6,21,,,,8.4,
Wick,07/07/2019 15:00,13.8,25,,,0,,63,,300,Dry,1018,7,30,,,,6.9,
Wick,07/07/2019 16:00,13.8,23,,,0,,70,30,300,Dry,1019,7,50,,,,8.6,
Wick,07/07/2019 17:00,13.7,21,,,0,,70,,300,Dry,1019,7,15,,,,8.4,
Wick,07/07/2019 18:00,11.7,17,,,0,,74,,300,Dry,1019,4,35,,,,7.4,
Wick,07/07/2019 19:00,10.9,17,,,0,,80,,300,Dry,1019,1,27,,,,7.6,
Wick,07/07/2019 20:00,10.9,15,,,0,,83,,290,Dry,1020,1,35,,,,8.2,
Wick,07/07/2019 21:00,10.7,12,,,0,,77,,310,Dry,1020,8,35,,,,7,
Wick,07/07/2019 22:00,10.3,8,,,0,,86,,300,Dry,1020,8,28,,,,8.1,
Wick,07/07/2019 23:00,10,8,,,0,,88,,280,Dry,1020,8,40,,,,8.2,
Wick,08/07/2019 00:00,9,8,,,0,0,91,,270,Dry,1021,8,18,,,,7.7,
Wick,08/07/2019 01:00,8.2,7,,,0,,94,,270,Dry,1020,7,18,,,,7.3,
Wick,08/07/2019 02:00,7.4,5,,,0,,95,,240,Dry,1021,3,20,,,,6.7,
Wick,08/07/2019 03:00,7.7,8,,,0,,97,,260,Dry,1021,6,18,,,,7.3,
Wick,08/07/2019 04:00,7.4,9,,,0,,97,,270,Dry,1021,5,18,,,,7.1,
Wick,08/07/2019 05:00,8.4,5,,,0,,98,,250,Dry,1021,7,13,,,,8.2,
Wick,08/07/2019 06:00,9.1,6,7.1,,0,0,96,,260,Dry,1021,5,26,,,,8.5,
Wick,08/07/2019 07:00,11.5,6,,,0,,86,,280,Dry,1021,1,30,,,,9.3,
Wick,08/07/2019 08:00,11.7,6,,,0,,80,,280,Dry,1021,6,40,,,,8.5,
Wick,08/07/2019 09:00,13.6,6,,,0,,69,,360,Dry,1021,5,45,,,,8.1,
Wick,08/07/2019 10:00,13.2,8,,,0,,72,,130,Dry,1021,1,20,,,,8.3,
Wick,08/07/2019 11:00,13.4,8,,,0,,70,,120,Dry,1021,0,30,,,,8.2,
Wick,08/07/2019 12:00,13.4,9,,,0,0,70,,140,Dry,1021,0,28,,,,8.1,
Wick,08/07/2019 13:00,13.7,10,,,0,,71,,140,Dry,1021,0,35,,,,8.7,
Wick,08/07/2019 14:00,13.1,10,,,0,,72,,120,Dry,1021,0,29,,,,8.2,
Wick,08/07/2019 15:00,13.5,10,,,0,,70,,110,Dry,1021,3,21,,,,8.2,
Wick,08/07/2019 16:00,13.6,12,,,0,,74,,110,Dry,1020,1,35,,,,9.2,
Wick,08/07/2019 17:00,13.4,12,,,0,,75,,130,Dry,1020,0,30,,,,9.1,
Wick,08/07/2019 18:00,13,9,,14.6,0,0,76,,120,Dry,1020,0,21,,,,8.9,
Wick,08/07/2019 19:00,12.4,8,,,0,,78,,100,Dry,1020,0,40,,,,8.8,
Wick,08/07/2019 20:00,11.5,7,,,0,,84,,100,Dry,1020,0,40,,,,9,
Wick,08/07/2019 21:00,10.7,6,,,0,,90,,100,Dry,1020,0,29,,,,9.2,
Wick,08/07/2019 22:00,10.6,8,,,0,,90,,100,Dry,1020,0,40,,,,9.1,
Wick,08/07/2019 23:00,10.7,10,,,0,,86,,90,Dry,1020,3,45,,,,8.5,
Wick,09/07/2019 00:00,10.5,9,,,0,0,89,,110,Dry,1020,2,40,,,,8.8,
Wick,09/07/2019 01:00,10.4,9,,,0,,94,,100,Dry,1020,1,25,,,,9.5,
Wick,09/07/2019 02:00,10.6,9,,,0,,94,,90,Dry,1019,7,16,,,,9.8,
Wick,09/07/2019 03:00,10.8,12,,,0,,95,,90,Dry,1018,8,17,,,,10.1,
Wick,09/07/2019 04:00,11.1,10,,,0,,96,,100,Dry,1018,8,13,,,,10.5,
Wick,09/07/2019 05:00,11.2,10,,,0,,96,,100,Dry,1018,8,12,,,,10.7,
Wick,09/07/2019 06:00,11.5,10,10.4,,0,0,97,,100,Dry,1018,8,13,,,,11.1,
Wick,09/07/2019 07:00,11.8,8,,,0,,96,,120,Dry,1017,8,14,,,,11.3,
Wick,09/07/2019 08:00,12,8,,,0,,97,,130,Drizzly rain,1017,7,10,,,,11.6,
Wick,09/07/2019 09:00,12.1,7,,,0.2,,98,,120,Light rain,1017,2,11,,,,11.9,
Wick,09/07/2019 10:00,12.5,10,,,0,,98,,120,Rain,1017,8,9,,,,12.3,
Wick,09/07/2019 11:00,12.6,13,,,0,,96,,130,Dry,1016,8,17,,,,12,
Wick,09/07/2019 12:00,12.7,9,,,0.2,0.4,96,,130,Light shower,1016,8,11,,,,12.1,
Wick,09/07/2019 13:00,13,9,,,0.4,,96,,100,Rain,1016,8,7,,,,12.5,
Wick,09/07/2019 14:00,12.4,10,,,0.4,,100,,120,Light shower,1016,8,4,,,,12.4,
Wick,09/07/2019 15:00,12.5,8,,,0.6,,100,,120,Light drizzle,1016,8,4,,,,12.5,
Wick,09/07/2019 16:00,12.1,8,,,1,,100,,130,Light rain,1016,8,4,,,,12.1,
Wick,09/07/2019 17:00,12.1,7,,,1.4,,100,,140,Moderate rain,1015,8,4,,,,12.1,
Wick,09/07/2019 18:00,12.1,6,,13.7,0.4,4.6,100,,120,Drizzly rain,1015,8,3,,,,12.1,
Wick,09/07/2019 19:00,12.1,7,,,2,,100,,120,Rain,1015,8,2,,,,12.1,
Wick,09/07/2019 20:00,11.9,6,,,0.6,,100,,130,Rain,1015,8,1,,,,11.9,
Wick,09/07/2019 21:00,12,5,,,0.4,,100,,130,Fog,1015,7,2,,,,12,
Wick,09/07/2019 22:00,12,6,,,0,,100,,140,Thickening fog,1015,8,0,,,,12,
Wick,09/07/2019 23:00,12.8,6,,,0,,100,,160,Drizzly rain,1015,4,2,,,,12.8,
Wick,10/07/2019 00:00,13.3,3,,,0.2,3,100,,170,Rain,1014,7,7,,,,13.3,
Wick,10/07/2019 01:00,13.2,1,,,0,,100,,320,Misty,1014,7,3,,,,13.2,
Wick,10/07/2019 02:00,13.3,1,,,0,,100,,260,Misty,1014,8,7,,,,13.3,
Wick,10/07/2019 03:00,12.7,1,,,0,,100,,30,Thickening fog,1014,8,0,,,,12.7,
Wick,10/07/2019 04:00,12.7,2,,,0,,100,,10,Fog,1014,8,2,,,,12.7,
Wick,10/07/2019 05:00,13.3,1,,,0,,99,,90,Fog,1014,6,15,,,,13.2,
Wick,10/07/2019 06:00,13.5,3,11.8,,0,0,100,,90,Misty,1014,2,9,,,,13.5,
Wick,10/07/2019 07:00,13.7,5,,,0.4,,99,,70,Light drizzle,1014,8,9,,,,13.6,
Wick,10/07/2019 08:00,13.6,5,,,0.2,,100,,110,Rain,1014,7,12,,,,13.6,
Wick,10/07/2019 09:00,13.4,6,,,0,,100,,130,Rain,1014,8,2,,,,13.4,
Wick,10/07/2019 10:00,13.4,5,,,0,,100,,140,Thickening fog,1014,8,0,,,,13.4,
Wick,10/07/2019 11:00,14.6,7,,,0,,100,,120,Fog,1014,8,2,,,,14.6,
Wick,10/07/2019 12:00,14.5,7,,,0,,100,,140,Misty,1013,8,2,,,,14.5,
Wick,10/07/2019 13:00,14.2,7,,,0,,99,,110,Thickening fog,1013,8,0,,,,14.1,
Wick,10/07/2019 14:00,14.1,8,,,0,,99,,110,Fog,1013,8,1,,,,14,
Wick,10/07/2019 15:00,13.9,8,,,0,,98,,110,Fog,1013,8,1,,,,13.7,
Wick,10/07/2019 16:00,14.5,7,,,0,,99,,130,Fog,1013,8,1,,,,14.4,
Wick,10/07/2019 17:00,14.1,7,,,0,,99,,90,Misty,1012,8,4,,,,14,
Wick,10/07/2019 18:00,13.1,6,,15.3,0,0.6,98,,100,Thickening fog,1012,,0,,,,12.9,
Wick,10/07/2019 19:00,13.1,7,,,0.2,,100,,100,Fog,1012,9,0,,,,13.1,
Wick,10/07/2019 20:00,12.7,5,,,0.2,,100,,100,Fog thinning,1012,8,1,,,,12.7,
Wick,10/07/2019 21:00,12.4,7,,,0,,99,,100,Thickening fog,1011,9,0,,,,12.3,
Wick,10/07/2019 22:00,12.4,7,,,0,,100,,110,Light shower,1011,9,0,,,,12.4,
Wick,10/07/2019 23:00,12.6,7,,,0,,100,,120,Fog,1011,9,0,,,,12.6,
Wick,11/07/2019 00:00,12.3,7,,,0,0.4,100,,110,Light drizzle,1010,8,0,,,,12.3,
Wick,11/07/2019 01:00,12.1,9,,,0.2,,100,,100,Thickening fog,1010,9,0,,,,12.1,
Wick,11/07/2019 02:00,12,9,,,0,,100,,100,Fog,1010,9,0,,,,12,
Wick,11/07/2019 03:00,12.1,6,,,0,,99,,110,Fog,1009,8,0,,,,12,
Wick,11/07/2019 04:00,12.1,6,,,0.2,,100,,110,Fog,1009,8,0,,,,12.1,
Wick,11/07/2019 05:00,12.2,5,,,0,,100,,100,Fog thinning,1009,9,0,,,,12.2,
Wick,11/07/2019 06:00,12.4,6,,,0,,100,,70,Thickening fog,1008,9,0,,,,12.4,
Wick,11/07/2019 07:00,12.3,7,,,0,,99,,70,Fog,1008,9,0,,,,12.2,
Wick,11/07/2019 08:00,12.5,7,,,0,,99,,80,Fog thinning,1008,9,0,,,,12.4,
Wick,11/07/2019 09:00,12.5,7,,,0,,100,,80,Fog,1009,9,0,,,,12.5,
Wick,11/07/2019 10:00,12.7,8,,,0,,100,,80,Fog,1008,9,0,,,,12.7,
Wick,11/07/2019 11:00,12.9,8,,,0,,100,,90,Light drizzle,1008,9,0,,,,12.9,
Wick,11/07/2019 12:00,12.9,9,,,0.2,,100,,70,Thickening fog,1008,9,0,,,,12.9,
Wick,11/07/2019 13:00,13.2,9,,,0,,100,,80,Fog,1008,9,0,,,,13.2,
Wick,11/07/2019 14:00,13.3,14,,,0,,99,,80,Fog thinning,1008,9,1,,,,13.2,
Wick,11/07/2019 15:00,12.8,7,,,0,,100,,90,Thickening fog,1008,9,0,,,,12.8,
Wick,11/07/2019 16:00,13,9,,,0.8,,100,,70,Fog,1009,7,0,,,,13,
Wick,11/07/2019 17:00,12.7,8,,,0.2,,100,,90,Fog,1009,9,0,,,,12.7,
Wick,11/07/2019 18:00,12.5,6,,13.4,0,1,100,,70,Fog,1009,9,0,,,,12.5,
Wick,11/07/2019 19:00,12.2,8,,,0.4,,100,,60,Light drizzle,1009,9,0,,,,12.2,
Wick,11/07/2019 20:00,11.9,7,,,0.8,,100,,60,Moderate drizzle,1009,8,1,,,,11.9,
Wick,11/07/2019 21:00,11.7,7,,,1.8,,100,,60,Thickening fog,1010,9,0,,,,11.7,
Wick,11/07/2019 22:00,11.7,8,,,0.4,,100,,50,Light drizzle,1010,8,0,,,,11.7,
Wick,11/07/2019 23:00,11.7,7,,,0.8,,100,,50,Moderate rain,1010,8,2,,,,11.7,
Wick,12/07/2019 00:00,11.7,7,,,1.4,6,99,,40,Light drizzle,1010,8,3,,,,11.6,
Wick,12/07/2019 01:00,11.5,8,,,1.2,,100,,30,Light drizzle,1011,8,3,,,,11.5,
Wick,12/07/2019 02:00,11.4,9,,,1,,100,,30,Drizzly rain,1011,8,5,,,,11.4,
Wick,12/07/2019 03:00,11.2,8,,,0.4,,100,,20,Light drizzle,1011,8,5,,,,11.2,
Wick,12/07/2019 04:00,11.1,10,,,0.2,,100,,20,Drizzle,1012,8,7,,,,11.1,
Wick,12/07/2019 05:00,11.1,10,,,0,,100,,10,Misty,1012,8,7,,,,11.1,
Wick,12/07/2019 06:00,11.1,10,11.1,,0,2,99,,360,Misty,1013,8,7,,,,11,
Wick,12/07/2019 07:00,11.1,12,,,0,,100,,360,Misty,1014,8,5,,,,11.1,
Wick,12/07/2019 08:00,11.3,13,,,0,,100,,10,Misty,1014,8,10,,,,11.3,
Wick,12/07/2019 09:00,11.4,10,,,0,,100,,360,Misty,1015,7,5,,,,11.4,
Wick,12/07/2019 10:00,11.3,9,,,0,,100,,360,Dry,1015,8,11,,,,11.3,
Wick,12/07/2019 11:00,11.8,9,,,0.4,,100,,10,Moderate shower,1016,8,6,,,,11.8,
Wick,12/07/2019 12:00,12.9,12,,,0,0.4,99,,30,Rain,1016,8,16,,,,12.8,
Wick,12/07/2019 13:00,13,9,,,0,,90,,30,Rain,1017,7,19,,,,11.5,
Wick,12/07/2019 14:00,13.1,8,,,0,,87,,30,Dry,1017,8,27,,,,11.1,
Wick,12/07/2019 15:00,12.9,9,,,0,,85,,50,Dry,1017,8,29,,,,10.5,
Wick,12/07/2019 16:00,12.8,7,,,0,,85,,50,Dry,1018,8,24,,,,10.5,
Wick,12/07/2019 17:00,12.9,8,,,0,,87,,50,Dry,1018,8,21,,,,10.8,
Wick,12/07/2019 18:00,13.2,8,,13.7,0,0,87,,50,Dry,1018,8,19,,,,11.2,
Wick,12/07/2019 19:00,12.1,8,,,0,,89,,60,Dry,1019,8,23,,,,10.5,
Wick,12/07/2019 20:00,11.5,3,,,0,,90,,60,Dry,1019,7,27,,,,10,
Wick,12/07/2019 21:00,11.2,2,,,0,,91,,60,Dry,1020,7,30,,,,9.8,
Wick,12/07/2019 22:00,11,3,,,0,,92,,80,Dry,1020,8,18,,,,9.9,
Wick,12/07/2019 23:00,11,2,,,0,,92,,110,Dry,1020,8,23,,,,9.8,
Wick,13/07/2019 00:00,11,3,,,0,,92,,220,Dry,1020,7,19,,,,9.9,
Wick,13/07/2019 01:00,11.2,2,,,0,,93,,210,Dry,1020,8,12,,,,10.2,
Wick,13/07/2019 02:00,11.1,5,,,0,,96,,280,Dry,1021,8,10,,,,10.6,
Wick,13/07/2019 03:00,11,3,,,0,,98,,270,Misty,1021,8,4,,,,10.8,
Wick,13/07/2019 04:00,11,3,,,0.2,,99,,270,Rain,1021,8,4,,,,10.9,
Wick,13/07/2019 05:00,11.3,3,,,0,,99,,260,Thickening fog,1021,8,1,,,,11.2,
Wick,13/07/2019 06:00,12.3,3,10.9,,0,0.2,100,,250,Fog,1021,8,3,,,,12.3,
Wick,13/07/2019 07:00,13.5,14,,,0,,99,,290,Dry,1021,8,35,,,,13.4,
Wick,13/07/2019 08:00,14,13,,,0,,98,,300,Dry,1021,8,30,,,,13.8,
Wick,13/07/2019 09:00,14.3,15,,,0,,93,,290,Dry,1022,2,35,,,,13.3,
Wick,13/07/2019 10:00,14.8,18,,,0,,91,,290,Dry,1022,8,25,,,,13.4,
Wick,13/07/2019 11:00,16.4,18,,,0,,82,,290,Dry,1022,8,30,,,,13.4,
Wick,13/07/2019 12:00,15.5,18,,,0,0,78,,290,Dry,1022,8,22,,,,11.8,
Wick,13/07/2019 13:00,16.3,18,,,0,,77,,290,Dry,1022,8,27,,,,12.4,
Wick,13/07/2019 14:00,15.1,17,,,0,,85,,300,Dry,1022,8,40,,,,12.6,
Wick,13/07/2019 15:00,15.3,18,,,0,,84,,300,Dry,1023,7,30,,,,12.7,
Wick,13/07/2019 16:00,14.3,17,,,0,,91,,300,Haze,1023,8,13,,,,12.9,
Wick,13/07/2019 17:00,14.2,18,,,0,,91,,290,Dry,1023,8,24,,,,12.8,
Wick,13/07/2019 18:00,13.7,21,,17.5,0,0,91,,300,Dry,1023,6,18,,,,12.3,
Wick,13/07/2019 19:00,13.1,18,,,0,,96,29,300,Misty,1024,7,6,,,,12.5,
Wick,13/07/2019 20:00,12.9,16,,,0,,95,,290,Dry,1024,8,19,,,,12.2,
Wick,13/07/2019 21:00,12.3,13,,,0,,99,,290,Misty,1024,7,3,,,,12.2,
Wick,13/07/2019 22:00,12.2,15,,,0,,100,,290,Misty,1024,8,3,,,,12.2,
Wick,13/07/2019 23:00,11.9,14,,,0,,100,,300,Misty,1025,8,2,,,,11.9,
Wick,14/07/2019 00:00,11.7,13,,,0,,100,,310,Misty,1025,8,5,,,,11.7,
Wick,14/07/2019 01:00,11.6,8,,,0.2,,100,,310,Misty,1025,7,3,,,,11.6,
Wick,14/07/2019 02:00,11.5,12,,,0,,100,,320,Dry,1025,8,30,,,,11.5,
Wick,14/07/2019 03:00,11.2,7,,,0,,100,,300,Dry,1025,8,30,,,,11.2,
Wick,14/07/2019 04:00,11.7,6,,,0,,100,,300,Thickening fog,1025,7,1,,,,11.7,
Wick,14/07/2019 05:00,11.8,14,,,0.4,,100,,300,Rain,1025,8,5,,,,11.8,
Wick,14/07/2019 06:00,12.3,13,10.9,,0,0.6,100,,300,Misty,1025,8,5,,,,12.3,
Wick,14/07/2019 07:00,12.6,14,,,0,,100,,290,Misty,1025,3,3,,,,12.6,
Wick,14/07/2019 08:00,12.7,14,,,0,,97,,280,Misty,1025,1,9,,,,12.3,
Wick,14/07/2019 09:00,12.4,13,,,0,,99,,290,Misty,1026,5,4,,,,12.3,
Wick,14/07/2019 10:00,13.5,13,,,0,,93,,300,Dry,1026,8,30,,,,12.5,
Wick,14/07/2019 11:00,13.4,12,,,0,,90,,300,Dry,1026,8,24,,,,11.9,
Wick,14/07/2019 12:00,14.6,12,,,0,0,87,,310,Dry,1026,8,30,,,,12.6,
Wick,14/07/2019 13:00,14.8,12,,,0,,82,,310,Dry,1026,8,40,,,,11.9,
Wick,14/07/2019 14:00,14.2,13,,,0,,82,,310,Dry,1026,8,22,,,,11.3,
Wick,14/07/2019 15:00,15.4,12,,,0,,76,,310,Dry,1026,8,45,,,,11.3,
Wick,14/07/2019 16:00,14.9,9,,,0,,73,,320,Dry,1026,7,30,,,,10.2,
Wick,14/07/2019 17:00,15.3,12,,,0,,72,,310,Dry,1025,3,26,,,,10.3,
Wick,14/07/2019 18:00,14.2,12,,15.9,0,0,74,,310,Dry,1025,6,40,,,,9.8,
Wick,14/07/2019 19:00,13,12,,,0,,77,,310,Dry,1025,6,40,,,,9.1,
Wick,14/07/2019 20:00,11.9,9,,,0,,80,,320,Dry,1025,6,45,,,,8.7,
Wick,14/07/2019 21:00,11.8,9,,,0,,84,,320,Dry,1025,8,45,,,,9.3,
Wick,14/07/2019 22:00,11.6,7,,,0,,86,,340,Dry,1025,8,40,,,,9.5,
Wick,14/07/2019 23:00,11.4,2,,,0,,88,,310,Dry,1025,8,50,,,,9.6,
Wick,15/07/2019 00:00,11.6,2,,,0,0,88,,210,Dry,1025,8,45,,,,9.7,
Wick,15/07/2019 01:00,11.8,3,,,0,,88,,230,Dry,1024,8,45,,,,9.9,
Wick,15/07/2019 02:00,11.5,2,,,0,,91,,240,Dry,1024,8,45,,,,10.2,
Wick,15/07/2019 03:00,11.7,7,,,0,,89,,210,Dry,1023,8,50,,,,10,
Wick,15/07/2019 04:00,11.8,7,,,0,,89,,200,Dry,1023,8,50,,,,10.2,
Wick,15/07/2019 05:00,11.7,9,,,0,,90,,220,Dry,1023,8,45,,,,10.2,
Wick,15/07/2019 06:00,12.1,5,11.4,,0,0,89,,210,Dry,1022,8,35,,,,10.5,
Wick,15/07/2019 07:00,13.3,6,,,0,,85,,190,Dry,1022,7,45,,,,11,
Wick,15/07/2019 08:00,13.7,6,,,0,,79,,150,Dry,1022,5,40,,,,10.3,
Wick,15/07/2019 09:00,13.5,9,,,0,,82,,140,Dry,1022,1,50,,,,10.6,
Wick,15/07/2019 10:00,14.1,10,,,0,,82,,140,Dry,1022,1,45,,,,11.1,
Wick,15/07/2019 11:00,13.9,10,,,0,,82,,150,Dry,1022,0,50,,,,11,
Wick,15/07/2019 12:00,14.8,10,,,0,0,81,,140,Dry,1021,0,40,,,,11.7,
Wick,15/07/2019 13:00,14.1,9,,,0,,79,,130,Dry,1021,0,50,,,,10.7,
Wick,15/07/2019 14:00,14.4,9,,,0,,82,,130,Dry,1021,0,29,,,,11.5,
Wick,15/07/2019 15:00,14.4,10,,,0,,81,,140,Dry,1021,0,50,,,,11.2,
Wick,15/07/2019 16:00,13.9,9,,,0,,83,,150,Dry,1020,0,35,,,,11.1,
Wick,15/07/2019 17:00,13.9,9,,,0,,82,,130,Dry,1020,0,30,,,,11,
Wick,15/07/2019 18:00,13.5,8,,,0,,85,,150,Dry,1020,0,40,,,,11.1,
Wick,15/07/2019 19:00,13.4,9,,,0,,88,,100,Dry,1020,0,40,,,,11.5,
Wick,15/07/2019 20:00,12.8,7,,,0,,89,,170,Dry,1020,0,45,,,,11.1,
Wick,15/07/2019 21:00,11.9,3,,,0,,91,,70,Dry,1020,0,45,,,,10.6,
Wick,15/07/2019 22:00,11.5,3,,,0,,96,,80,Dry,1020,0,45,,,,10.9,
Wick,15/07/2019 23:00,11.5,3,,,0,,96,,100,Dry,1019,0,40,,,,11,
Wick,16/07/2019 00:00,10.7,1,,,0,0,96,,140,Dry,1019,0,16,,,,10.1,
Wick,16/07/2019 01:00,10,1,,,0,,98,,30,Fog,1018,2,1,,,,9.7,
Wick,16/07/2019 02:00,8.2,2,,,0,,97,,250,Thickening fog,1018,6,0,,,,7.9,
Wick,16/07/2019 03:00,10.7,3,,,0,,100,,100,Fog,1017,8,14,,,,10.7,
Wick,16/07/2019 04:00,11.4,3,,,0,,100,,80,Thickening fog,1017,9,1,,,,11.4,
Wick,16/07/2019 05:00,12,5,,,0,,100,,130,Thickening fog,1017,9,0,,,,12,
Wick,16/07/2019 06:00,12.2,3,8,,0,0,99,,130,Fog,1017,9,0,,,,12.1,
Wick,16/07/2019 07:00,12.4,6,,,0,,100,,100,Fog thinning,1016,9,0,,,,12.4,
Wick,16/07/2019 08:00,12.7,6,,,0,,100,,130,Thickening fog,1016,9,0,,,,12.7,
Wick,16/07/2019 09:00,12.8,5,,,0,,100,,120,Fog,1016,8,1,,,,12.8,
Wick,16/07/2019 10:00,12.9,6,,,0,,100,,120,Fog,1015,8,1,,,,12.9,
Wick,16/07/2019 11:00,13.4,10,,,0,,96,,130,Patchy fog,1015,6,1,,,,12.8,
Wick,16/07/2019 12:00,15.9,12,,,0,0,90,,140,Fog,1015,4,35,,,,14.3,
Wick,16/07/2019 13:00,15.1,9,,,0,,90,,360,Dry,1015,7,19,,,,13.5,
Wick,16/07/2019 14:00,16.3,6,,,0,,89,,360,Dry,1015,8,29,,,,14.6,
Wick,16/07/2019 15:00,16.1,9,,,0,,84,,350,Dry,1015,8,30,,,,13.4,
Wick,16/07/2019 16:00,16.4,9,,,0,,81,,20,Dry,1015,2,29,,,,13.2,
Wick,16/07/2019 17:00,14,6,,,0,,88,,80,Dry,1015,7,29,,,,12.2,
Wick,16/07/2019 18:00,15.2,7,,17.4,0,0,85,,60,Dry,1014,3,22,,,,12.7,
Wick,16/07/2019 19:00,14.1,7,,,0,,89,,100,Dry,1014,4,30,,,,12.4,
Wick,16/07/2019 20:00,13.6,6,,,0,,93,,130,Dry,1014,8,19,,,,12.5,
Wick,16/07/2019 21:00,13.6,5,,,0,,94,,160,Dry,1014,8,26,,,,12.7,
Wick,16/07/2019 22:00,13.3,5,,,0,,91,,130,Dry,1014,4,24,,,,12,
Wick,16/07/2019 23:00,13.1,3,,,0,,92,,140,Dry,1013,4,21,,,,11.9,
Wick,17/07/2019 00:00,12.4,6,,,0,0,93,,120,Dry,1013,0,11,,,,11.4,
Wick,17/07/2019 01:00,12.4,6,,,0,,96,,110,Misty,1013,8,9,,,,11.8,
Wick,17/07/2019 02:00,11.8,6,,,0,,99,,140,Moderate drizzle,1012,9,0,,,,11.7,
Wick,17/07/2019 03:00,11.5,5,,,0,,100,,150,Fog thinning,1011,9,0,,,,11.5,
Wick,17/07/2019 04:00,11.9,5,,,0,,100,,120,Light drizzle,1011,8,1,,,,11.9,
Wick,17/07/2019 05:00,12.1,5,,,0,,100,,110,Thickening fog,1010,8,0,,,,12.1,
Wick,17/07/2019 06:00,12.6,6,11.5,,0,0,100,,110,Fog,1010,8,4,,,,12.6,
Wick,17/07/2019 07:00,13.4,7,,,0,,99,,130,Misty,1009,8,7,,,,13.3,
Wick,17/07/2019 08:00,13.4,9,,,0,,100,,140,Misty,1008,8,8,,,,13.4,
Wick,17/07/2019 09:00,14.3,9,,,0,,96,,140,Dry,1007,8,12,,,,13.8,
Wick,17/07/2019 10:00,16.2,12,,,0,,81,,150,Dry,1007,8,40,,,,13.1,
Wick,17/07/2019 11:00,16.8,15,,,0,,76,,150,Dry,1006,7,19,,,,12.7,
Wick,17/07/2019 12:00,16.2,17,,,0,,85,,190,Light shower,1006,8,16,,,,13.8,
Wick,17/07/2019 13:00,15.5,14,,,0.4,,89,,180,Light rain,1006,7,14,,,,13.8,
Wick,17/07/2019 14:00,16.1,14,,,0,,86,30,180,Rain,1005,8,35,,,,13.9,
Wick,17/07/2019 15:00,15.7,13,,,0,,87,,160,Rain,1004,8,28,,,,13.6,
Wick,17/07/2019 16:00,16.2,16,,,0,,81,,160,Drizzly rain,1004,8,25,,,,13,
Wick,17/07/2019 17:00,15.9,13,,,0.2,,81,,160,Rain,1003,8,24,,,,12.8,
Wick,17/07/2019 18:00,16.1,13,,17.9,0,0.6,80,,170,Dry,1003,8,30,,,,12.7,
Wick,17/07/2019 19:00,15.4,13,,,0,,85,,160,Drizzly rain,1002,8,29,,,,13,
Wick,17/07/2019 20:00,15.4,9,,,0,,86,,170,Rain,1002,8,40,,,,13.2,
Wick,17/07/2019 21:00,15.1,8,,,0,,88,,160,Dry,1002,8,35,,,,13.2,
Wick,17/07/2019 22:00,15,7,,,0,,90,,190,Rain,1002,8,50,,,,13.5,
Wick,17/07/2019 23:00,13.1,9,,,0,,96,,320,Dry,1002,8,26,,,,12.5,
Wick,18/07/2019 00:00,12.4,6,,,0,0,98,,290,Dry,1002,8,27,,,,12.1,
Wick,18/07/2019 01:00,12.1,5,,,0,,99,,10,Dry,1002,8,7,,,,12,
Wick,18/07/2019 02:00,12.1,3,,,0.2,,99,,130,Rain,1002,8,10,,,,12,
Wick,18/07/2019 03:00,12.1,6,,,0,,100,,150,Dry,1002,8,14,,,,12.1,
Wick,18/07/2019 04:00,12.1,6,,,0,,100,,170,Dry,1001,2,19,,,,12.1,
Wick,18/07/2019 05:00,12.6,5,,,0,,100,,150,Fog,1001,8,1,,,,12.6,
Wick,18/07/2019 06:00,12.6,5,11.9,,0,0.2,100,,160,Fog,1001,7,5,,,,12.6,
Wick,18/07/2019 07:00,13.2,8,,,0,,98,,160,Dry,1001,4,23,,,,12.9,
Wick,18/07/2019 08:00,15.3,8,,,0,,81,,170,Dry,1001,0,50,,,,12.2,
Wick,18/07/2019 09:00,15.5,9,,,0,,76,,180,Dry,1001,7,45,,,,11.4,
Wick,18/07/2019 10:00,15.5,14,,,0,,71,,180,Dry,1001,7,45,,,,10.3,
Wick,18/07/2019 11:00,16.6,10,,,0,,73,,150,Dry,1000,1,35,,,,11.9,
Wick,18/07/2019 12:00,15.1,9,,,0,0,76,,250,Dry,1001,1,30,,,,11,
Wick,18/07/2019 13:00,15.1,12,,,0,,81,,110,Dry,1001,2,40,,,,12,
Wick,18/07/2019 14:00,15.2,8,,,0.8,,82,,190,Light shower,1001,7,40,,,,12.2,
Wick,18/07/2019 15:00,15.4,7,,,0.4,,91,,120,Rain,1001,7,22,,,,14,
Wick,18/07/2019 16:00,13.8,6,,,0.6,,86,,200,Moderate shower,1001,7,15,,,,11.6,
Wick,18/07/2019 17:00,14.4,3,,,0.6,,87,,190,Rain,1001,8,30,,,,12.3,
Wick,18/07/2019 18:00,13,5,,,1,,87,,190,Light rain,1002,8,45,,,,11,
Wick,18/07/2019 19:00,13.8,7,,,0.2,,89,,180,Light shower,1002,8,45,,,,12.1,
Wick,18/07/2019 20:00,13.2,5,,,1.6,,94,,200,Rain,1002,7,35,,,,12.3,
Wick,18/07/2019 21:00,13.5,8,,,0,,92,,200,Dry,1002,7,45,,,,12.3,
Wick,18/07/2019 22:00,12.2,2,,,0,,93,,250,Rain,1003,3,29,,,,11.2,
Wick,18/07/2019 23:00,11.6,6,,,0.2,,92,,220,Dry,1003,2,35,,,,10.5,
Wick,19/07/2019 00:00,11.6,3,,,0,2,91,,220,Dry,1003,5,45,,,,10.2,
Wick,19/07/2019 01:00,12.2,6,,,0,,87,,190,Dry,1003,2,45,,,,10.2,
Wick,19/07/2019 02:00,12.2,6,,,0,,92,,170,Dry,1003,7,45,,,,11,
Wick,19/07/2019 03:00,12.7,9,,,0,,92,,190,Dry,1003,0,45,,,,11.5,
Wick,19/07/2019 04:00,12.5,8,,,0,,92,,170,Dry,1003,8,35,,,,11.3,
Wick,19/07/2019 05:00,12.5,7,,,0,,91,,200,Dry,1003,7,40,,,,11.2,
Wick,19/07/2019 06:00,13.1,7,11.2,,0,0,92,,180,Dry,1003,5,24,,,,11.9,
Wick,19/07/2019 07:00,13.9,5,,,0,,88,,190,Dry,1004,7,30,,,,12.1,
Wick,19/07/2019 08:00,15.1,12,,,0,,85,,190,Dry,1004,3,28,,,,12.7,
Wick,19/07/2019 09:00,16.1,12,,,0,,81,,180,Dry,1004,1,27,,,,13,
Wick,19/07/2019 10:00,16.7,13,,,0,,74,,170,Dry,1004,0,24,,,,12.1,
Wick,19/07/2019 11:00,15.8,12,,,0,,80,,140,Dry,1004,7,30,,,,12.4,
Wick,19/07/2019 12:00,16.6,13,,,0,,76,,150,Dry,1004,1,40,,,,12.4,
Wick,19/07/2019 13:00,17.2,10,,,0,,68,,140,Dry,1004,1,50,,,,11.3,
Wick,19/07/2019 14:00,16.7,12,,,0,,69,,170,Dry,1004,7,50,,,,11.1,
Wick,19/07/2019 15:00,16.5,10,,,0,,74,,140,Dry,1004,8,30,,,,11.9,
Wick,19/07/2019 16:00,16.3,10,,,0,,77,,140,Dry,1004,5,17,,,,12.4,
Wick,19/07/2019 17:00,16,12,,,0,,82,,130,Dry,1004,1,40,,,,13.1,
Wick,19/07/2019 18:00,15.5,7,,18.7,0,0,81,,150,Dry,1003,0,30,,,,12.3,
Wick,19/07/2019 19:00,15.4,6,,,0,,80,,140,Dry,1003,7,40,,,,12.1,
Wick,19/07/2019 20:00,14.8,5,,,0,,85,,150,Dry,1003,4,40,,,,12.4,
Wick,19/07/2019 21:00,13.3,5,,,0,,90,,30,Dry,1003,7,40,,,,11.8,
Wick,19/07/2019 22:00,13.9,6,,,0,,92,,120,Dry,1002,8,17,,,,12.7,
Wick,19/07/2019 23:00,14.1,10,,,0,,91,,120,Dry,1002,7,14,,,,12.8,
Wick,20/07/2019 00:00,13.6,10,,,0,0,94,,120,Rain,1002,0,11,,,,12.8,
Wick,20/07/2019 01:00,13.3,12,,,0,,97,,120,Rain,1002,8,10,,,,12.9,
Wick,20/07/2019 02:00,13.4,10,,,0,,98,,110,Misty,1001,7,6,,,,13.2,
Wick,20/07/2019 03:00,13,9,,,0,,99,,80,Rain,1000,8,2,,,,12.9,
Wick,20/07/2019 04:00,12.8,10,,,0.2,,100,,80,Light drizzle,1000,8,2,,,,12.8,
Wick,20/07/2019 05:00,12.7,9,,,1.4,,100,,60,Light drizzle,1000,9,1,,,,12.7,
Wick,20/07/2019 06:00,12.9,10,,,6.6,,100,,30,Moderate rain,999,7,6,,,,12.9,
Wick,20/07/2019 07:00,12.8,12,,,1,,100,,10,Light drizzle,999,8,1,,,,12.8,
Wick,20/07/2019 08:00,12.8,13,,,0.2,,100,,360,Rain,999,8,4,,,,12.8,
Wick,20/07/2019 09:00,13.1,10,,,0,,100,,360,Misty,999,8,10,,,,13.1,
Wick,20/07/2019 10:00,14.7,12,,,0,,100,,300,Rain,999,7,30,,,,14.7,
Wick,20/07/2019 11:00,14.7,14,,,0,,96,,300,Dry,999,8,28,,,,14.2,
Wick,20/07/2019 12:00,16.3,16,,,0,1,87,,280,Dry,1000,8,30,,,,14.2,
Wick,20/07/2019 13:00,16.9,16,,,0,,83,,300,Dry,1000,5,35,,,,14,
Wick,20/07/2019 14:00,16.8,16,,,0,,84,,300,Dry,1001,6,35,,,,14.2,
Wick,20/07/2019 15:00,16.1,17,,,0,,81,,300,Dry,1002,6,35,,,,12.9,
Wick,20/07/2019 16:00,15.9,16,,,0,,85,,300,Dry,1003,7,30,,,,13.4,
Wick,20/07/2019 17:00,14.9,18,,,0,,89,,280,Dry,1004,8,26,,,,13.2,
Wick,20/07/2019 18:00,15.3,20,,17.8,0,0,79,,290,Dry,1004,1,45,,,,11.7,
Wick,20/07/2019 19:00,15.1,21,,,0,,76,,280,Dry,1005,8,22,,,,11,
Wick,20/07/2019 20:00,13.8,17,,,0,,85,29,290,Dry,1005,4,35,,,,11.5,
Wick,20/07/2019 21:00,12.2,13,,,0,,93,,290,Dry,1006,1,50,,,,11.2,
Wick,20/07/2019 22:00,10.7,7,,,0,,96,,280,Dry,1007,0,24,,,,10.2,
Wick,20/07/2019 23:00,11.3,5,,,0.2,,97,,190,Dry,1008,7,30,,,,10.9,
Wick,21/07/2019 00:00,11.5,5,,,0,,94,,180,Dry,1008,2,45,,,,10.7,
Wick,21/07/2019 01:00,10.9,6,,,0,,92,,200,Dry,1008,1,45,,,,9.8,
Wick,21/07/2019 02:00,11.9,7,,,0,,85,,180,Dry,1008,7,50,,,,9.6,
Wick,21/07/2019 03:00,12.8,9,,,0,,86,,220,Dry,1008,8,50,,,,10.6,
Wick,21/07/2019 04:00,12.5,7,,,0,,88,,250,Dry,1008,8,45,,,,10.7,
Wick,21/07/2019 05:00,13.3,8,,,0,,85,,220,Dry,1009,8,35,,,,11,
Wick,21/07/2019 06:00,14.1,10,10.4,,0,0.2,80,,200,Dry,1009,8,40,,,,10.8,
Wick,21/07/2019 07:00,14.5,9,,,0,,83,,200,Dry,1009,7,40,,,,11.7,
Wick,21/07/2019 08:00,15.2,7,,,0,,79,,190,Dry,1010,8,35,,,,11.7,
Wick,21/07/2019 09:00,16.1,13,,,0,,73,,200,Dry,1010,7,50,,,,11.4,
Wick,21/07/2019 10:00,18,9,,,0,,69,,190,Dry,1010,3,30,,,,12.4,
Wick,21/07/2019 11:00,16.3,12,,,0,,75,,180,Dry,1011,7,30,,,,11.9,
Wick,21/07/2019 12:00,17.1,13,,,0,0,71,,190,Dry,1011,8,30,,,,11.9,
Wick,21/07/2019 13:00,17.7,13,,,0,,65,,180,Dry,1011,8,35,,,,11.2,
Wick,21/07/2019 14:00,17.1,13,,,0,,70,,160,Dry,1011,6,25,,,,11.8,
Wick,21/07/2019 15:00,17.6,10,,,0,,71,,150,Dry,1010,7,26,,,,12.4,
Wick,21/07/2019 16:00,17,13,,,0,,75,,130,Dry,1010,3,30,,,,12.6,
Wick,21/07/2019 17:00,16.3,9,,,0,,73,,130,Dry,1009,7,35,,,,11.5,
Wick,21/07/2019 18:00,14.9,10,,18.3,0,0,86,,130,Dry,1008,6,30,,,,12.7,
Wick,21/07/2019 19:00,16.2,14,,,0,,76,,160,Dry,1007,8,25,,,,12,
Wick,21/07/2019 20:00,14.9,13,,,0,,85,,150,Moderate shower,1007,8,14,,,,12.5,
Wick,21/07/2019 21:00,14.4,13,,,0,,90,,140,Rain,1006,8,18,,,,12.9,
Wick,21/07/2019 22:00,14.7,17,,,0,,90,,150,Dry,1006,7,26,,,,13.2,
Wick,21/07/2019 23:00,14.8,15,,,0,,91,,150,Dry,1005,8,20,,,,13.4,
Wick,22/07/2019 00:00,14.9,16,,,0,0,91,,150,Rain,1004,0,14,,,,13.6,
Wick,22/07/2019 01:00,15.2,18,,,0.2,,93,,160,Light shower,1004,8,13,,,,14.1,
Wick,22/07/2019 02:00,15.3,14,,,0.2,,94,,170,Light rain,1004,8,13,,,,14.4,
Wick,22/07/2019 03:00,15.2,12,,,0.6,,94,,170,Light rain,1004,8,15,,,,14.4,
Wick,22/07/2019 04:00,14.6,12,,,0.6,,96,,150,Light rain,1004,8,9,,,,14.1,
Wick,22/07/2019 05:00,14.4,7,,,0.4,,99,,160,Rain,1004,8,9,,,,14.3,
Wick,22/07/2019 06:00,14.6,3,,,0.2,,100,,190,Light drizzle,1003,8,14,,,,14.6,
Wick,22/07/2019 07:00,15,10,,,0.2,,100,,180,Drizzly rain,1004,8,20,,,,15,
Wick,22/07/2019 08:00,16.5,6,,,0.4,,95,,210,Drizzly rain,1005,8,15,,,,15.7,
Wick,22/07/2019 09:00,16.6,8,,,0,,87,,220,Rain,1005,3,27,,,,14.5,
Wick,22/07/2019 10:00,18.3,6,,,0,,78,,240,Dry,1005,7,28,,,,14.5,
Wick,22/07/2019 11:00,17.2,8,,,0.2,,92,,180,Drizzly rain,1005,7,5,,,,16,
Wick,22/07/2019 12:00,17.9,7,,,0.2,1,91,,150,Rain,1006,8,20,,,,16.5,
Wick,22/07/2019 13:00,16.6,6,,,0,,95,,130,Drizzly rain,1006,8,17,,,,15.8,
Wick,22/07/2019 14:00,15.8,8,,,0,,93,,130,Rain,1006,8,35,,,,14.7,
Wick,22/07/2019 15:00,16.3,8,,,0.2,,95,,160,Rain,1007,8,13,,,,15.6,
Wick,22/07/2019 16:00,15.3,6,,,0.4,,98,,90,Rain,1008,7,8,,,,15,
Wick,22/07/2019 17:00,16.5,5,,,0,,97,,150,Dry,1008,8,30,,,,16.1,
Wick,22/07/2019 18:00,18.1,7,,18.5,0,1,94,,230,Misty,1008,8,7,,,,17.2,
Wick,22/07/2019 19:00,17,6,,,0,,95,,160,Misty,1009,8,14,,,,16.3,
Wick,22/07/2019 20:00,17.4,5,,,0,,96,,190,Dry,1009,8,35,,,,16.8,
Wick,22/07/2019 21:00,17.8,10,,,0,,90,,190,Dry,1010,8,50,,,,16.3,
Wick,22/07/2019 22:00,17.5,6,,,0,,90,,220,Rain,1010,8,40,,,,16,
Wick,22/07/2019 23:00,17.9,8,,,0,,90,,170,Dry,1010,8,50,,,,16.4,
Wick,23/07/2019 00:00,16.3,6,,,0,0,94,,140,Dry,1010,8,35,,,,15.4,
Wick,23/07/2019 01:00,16.7,8,,,0,,96,,180,Dry,1010,8,35,,,,16.1,
Wick,23/07/2019 02:00,17.1,12,,,0,,92,,180,Dry,1011,7,30,,,,15.8,
Wick,23/07/2019 03:00,16.6,8,,,0,,95,,160,Dry,1011,8,30,,,,15.8,
Wick,23/07/2019 04:00,17.8,10,,,0,,90,,190,Dry,1011,0,45,,,,16.2,
Wick,23/07/2019 05:00,14.9,9,,,0,,94,,120,Dry,1011,8,18,,,,14.1,
Wick,23/07/2019 06:00,16.6,6,14.8,,0,0,90,,140,Dry,1011,8,29,,,,15.1,
Wick,23/07/2019 07:00,17.9,10,,,0,,84,,170,Dry,1012,7,22,,,,15.2,
Wick,23/07/2019 08:00,19,8,,,0,,81,,150,Dry,1012,6,45,,,,15.8,
Wick,23/07/2019 09:00,20.5,16,,,0,,75,,180,Dry,1012,1,40,,,,16.1,
Wick,23/07/2019 10:00,21.7,12,,,0,,73,,180,Dry,1012,0,19,,,,16.7,
Wick,23/07/2019 11:00,21.1,6,,,0,,72,,150,Dry,1012,0,26,,,,15.9,
Wick,23/07/2019 12:00,21.5,17,,,0,0,71,,170,Dry,1012,0,23,,,,16.2,
Wick,23/07/2019 13:00,23.4,14,,,0,,63,31,180,Dry,1012,0,30,,,,16,
Wick,23/07/2019 14:00,23.4,15,,,0,,63,,180,Dry,1012,0,19,,,,16.1,
Wick,23/07/2019 15:00,24.2,14,,,0,,59,,180,Dry,1012,0,25,,,,15.8,
Wick,23/07/2019 16:00,23.2,12,,,0,,64,,170,Dry,1011,1,20,,,,16.1,
Wick,23/07/2019 17:00,22.4,12,,,0,,66,,160,Dry,1011,0,21,,,,15.9,
Wick,23/07/2019 18:00,21.3,8,,24.5,0,0,71,,150,Dry,1012,0,30,,,,15.9,
Wick,23/07/2019 19:00,21.1,6,,,0,,71,,150,Dry,1011,1,40,,,,15.7,
Wick,23/07/2019 20:00,19.6,6,,,0,,78,,120,Dry,1011,0,27,,,,15.7,
Wick,23/07/2019 21:00,18.3,7,,,0,,83,,140,Dry,1011,0,30,,,,15.4,
Wick,23/07/2019 22:00,19,7,,,0,,79,,180,Dry,1011,0,35,,,,15.3,
Wick,23/07/2019 23:00,19.5,8,,,0,,71,,170,Dry,1011,0,50,,,,14.3,
Wick,24/07/2019 00:00,18.9,12,,,0,,76,,160,Dry,1011,0,40,,,,14.6,
Wick,24/07/2019 01:00,19.3,13,,,0,,79,,160,Dry,1011,0,35,,,,15.6,
Wick,24/07/2019 02:00,18.8,12,,,0,,81,,150,Dry,1010,0,30,,,,15.6,
Wick,24/07/2019 03:00,16.7,12,,,0,,87,,110,Dry,1009,0,35,,,,14.7,
Wick,24/07/2019 04:00,14.7,8,,,0,,94,,120,Misty,1008,0,8,,,,13.9,
Wick,24/07/2019 05:00,15.3,13,,,2.2,,98,,120,Rain,1008,7,5,,,,15,
Wick,24/07/2019 06:00,14.8,14,14.7,,0.2,2,98,,130,Rain,1008,7,7,,,,14.6,
Wick,24/07/2019 07:00,15.8,17,,,3.4,,96,,160,Rain,1007,7,10,,,,15.3,
Wick,24/07/2019 08:00,16.9,21,,,0.4,,93,35,160,Moderate shower,1006,8,6,,,,15.9,
Wick,24/07/2019 09:00,16,15,,,0.6,,95,,150,Light shower,1006,3,7,,,,15.2,
Wick,24/07/2019 10:00,15.2,16,,,0.6,,98,,150,Rain,1006,1,6,,,,15,
Wick,24/07/2019 11:00,17,14,,,1.2,,99,,150,Rain,1006,7,9,,,,16.9,
Wick,24/07/2019 12:00,18.3,13,,,0,6,94,,150,Dry,1006,7,13,,,,17.4,
Wick,24/07/2019 13:00,20.2,16,,,0,,83,,160,Dry,1006,0,15,,,,17.3,
Wick,24/07/2019 14:00,19.6,13,,,0,,81,,160,Dry,1007,4,20,,,,16.4,
Wick,24/07/2019 15:00,19.7,12,,,0,,80,,140,Dry,1007,0,18,,,,16.3,
Wick,24/07/2019 16:00,19.3,5,,,0,,82,,110,Dry,1007,3,20,,,,16.3,
Wick,24/07/2019 17:00,20.8,8,,,0,,80,,360,Dry,1008,5,23,,,,17.4,
Wick,24/07/2019 18:00,19.2,8,,21.8,0,0,85,,360,Dry,1008,5,30,,,,16.8,
Wick,24/07/2019 19:00,18.6,8,,,0,,85,,350,Dry,1009,6,18,,,,16.1,
Wick,24/07/2019 20:00,17.3,2,,,0,,86,,270,Dry,1009,3,27,,,,15,
Wick,24/07/2019 21:00,15.5,2,,,0,,91,,340,Dry,1010,5,20,,,,14.2,
Wick,24/07/2019 22:00,15,3,,,0,,93,,30,Dry,1009,5,21,,,,14,
Wick,24/07/2019 23:00,14.4,1,,,0,,95,,230,Fog,1010,4,1,,,,13.7,
Wick,25/07/2019 00:00,15.5,5,,,0,0,95,,120,Fog,1010,0,16,,,,14.8,
Wick,25/07/2019 01:00,14.7,5,,,0,,96,,110,Misty,1010,1,9,,,,14.1,
Wick,25/07/2019 02:00,15,5,,,0,,98,,130,Misty,1010,3,7,,,,14.7,
Wick,25/07/2019 03:00,15,6,,,0,,98,,130,Misty,1010,7,11,,,,14.8,
Wick,25/07/2019 04:00,14.6,6,,,0,,95,,90,Misty,1010,8,8,,,,13.9,
Wick,25/07/2019 05:00,14.7,2,,,0,,97,,120,Dry,1010,7,10,,,,14.3,
Wick,25/07/2019 06:00,15.1,7,14.1,,0,0,96,,100,Misty,1011,4,12,,,,14.5,
Wick,25/07/2019 07:00,16.3,8,,,0,,89,,130,Dry,1011,2,30,,,,14.5,
Wick,25/07/2019 08:00,16.5,8,,,0,,86,,150,Dry,1011,0,22,,,,14.2,
Wick,25/07/2019 09:00,17,10,,,0,,81,,160,Dry,1011,1,29,,,,13.9,
Wick,25/07/2019 10:00,17.8,13,,,0,,79,,150,Dry,1011,1,40,,,,14.3,
Wick,25/07/2019 11:00,18.4,8,,,0,,80,,140,Dry,1011,7,45,,,,14.9,
Wick,25/07/2019 12:00,18.5,12,,,0,0,81,,100,Dry,1011,2,23,,,,15.2,
Wick,25/07/2019 13:00,18.3,14,,,0,,86,,120,Dry,1010,0,19,,,,16.1,
Wick,25/07/2019 14:00,19,14,,,0,,85,,110,Dry,1010,0,14,,,,16.5,
Wick,25/07/2019 15:00,18.4,15,,,0,,83,,120,Dry,1010,1,12,,,,15.6,
Wick,25/07/2019 16:00,17.8,22,,,0,,86,32,120,Dry,1009,0,13,,,,15.5,
Wick,25/07/2019 17:00,17.4,24,,,0,,85,31,120,Dry,1009,0,10,,,,15,
Wick,25/07/2019 18:00,17.2,17,,20,0,0,88,29,120,Dry,1009,0,10,,,,15.2,
Wick,25/07/2019 19:00,16.4,12,,,0,,89,,120,Haze,1009,0,8,,,,14.6,
Wick,25/07/2019 20:00,17,10,,,0,,89,,160,Haze,1009,5,9,,,,15.2,
Wick,25/07/2019 21:00,16.5,15,,,0,,88,,140,Haze,1008,,9,,,,14.6,
Wick,25/07/2019 22:00,16.6,16,,,0,,87,,130,Dry,1008,7,11,,,,14.5,
Wick,25/07/2019 23:00,16.5,13,,,0,,87,,130,Dry,1008,7,12,,,,14.5,
Wick,26/07/2019 00:00,15.4,14,,,0,0,90,,110,Rain,1008,,9,,,,13.9,
Wick,26/07/2019 01:00,15.1,5,,,0,,91,,70,Haze,1008,3,9,,,,13.7,
Wick,26/07/2019 02:00,16,13,,,0,,89,,130,Haze,1007,,9,,,,14.3,
Wick,26/07/2019 03:00,15.6,17,,,0,,92,,120,Rain,1006,8,9,,,,14.4,
Wick,26/07/2019 04:00,14.9,10,,,0,,94,,130,Misty,1007,2,7,,,,14,
Wick,26/07/2019 05:00,15,12,,,0,,94,,140,Misty,1007,,7,,,,14.2,
Wick,26/07/2019 06:00,16.3,8,14.9,,0,0,92,,150,Haze,1007,0,7,,,,15.1,
Wick,26/07/2019 07:00,16.1,10,,,0,,90,,140,Haze,1007,2,7,,,,14.6,
Wick,26/07/2019 08:00,15.7,9,,,0,,93,,120,Haze,1008,7,8,,,,14.6,
Wick,26/07/2019 09:00,16.1,8,,,0,,93,,130,Misty,1008,7,8,,,,15.1,
Wick,26/07/2019 10:00,19.3,6,,,0,,83,,140,Dry,1007,5,10,,,,16.4,
Wick,26/07/2019 11:00,18.7,7,,,0,,82,,120,Haze,1008,0,9,,,,15.7,
Wick,26/07/2019 12:00,18.2,10,,,0,0,83,,120,Dry,1008,2,11,,,,15.4,
Wick,26/07/2019 13:00,18.7,13,,,0,,82,,130,Dry,1007,0,14,,,,15.6,
Wick,26/07/2019 14:00,19.3,9,,,0,,83,,130,Haze,1008,6,11,,,,16.4,
Wick,26/07/2019 15:00,18.4,15,,,0,,82,,110,Haze,1007,4,9,,,,15.4,
Wick,26/07/2019 16:00,21.3,12,,,0,,76,,160,Dry,1008,7,16,,,,17.1,
Wick,26/07/2019 17:00,18.7,9,,,0,,82,,130,Dry,1008,0,18,,,,15.6,
Wick,26/07/2019 18:00,17.8,9,,21.9,0,0,84,,140,Dry,1008,7,11,,,,15.1,
Wick,26/07/2019 19:00,17.4,7,,,0,,89,,170,Dry,1008,0,10,,,,15.6,
Wick,26/07/2019 20:00,17,7,,,0,,90,,140,Drizzly rain,1009,8,10,,,,15.5,
Wick,26/07/2019 21:00,16.9,8,,,0,,91,,130,Rain,1009,0,10,,,,15.5,
Wick,26/07/2019 22:00,17.2,7,,,0,,89,,170,Dry,1010,8,10,,,,15.5,
Wick,26/07/2019 23:00,17.9,3,,,0,,86,,200,Dry,1011,8,20,,,,15.7,
Wick,27/07/2019 00:00,16.3,3,,,0,0,93,,310,Drizzly rain,1010,0,10,,,,15.3,
Wick,27/07/2019 01:00,15.4,1,,,0.2,,95,,70,Light shower,1010,8,7,,,,14.7,
Wick,27/07/2019 02:00,15.7,6,,,0,,96,,100,Rain,1010,7,10,,,,15.1,
Wick,27/07/2019 03:00,14.7,5,,,0,,97,,80,Misty,1010,4,5,,,,14.3,
Wick,27/07/2019 04:00,13.5,3,,,0,,98,,280,Misty,1010,5,3,,,,13.2,
Wick,27/07/2019 05:00,14.4,3,,,0,,99,,20,Misty,1010,7,5,,,,14.3,
Wick,27/07/2019 06:00,14.6,6,13.4,,0,0.2,99,,20,Misty,1010,7,5,,,,14.5,
Wick,27/07/2019 07:00,14.6,8,,,0,,98,,70,Misty,1011,8,6,,,,14.4,
Wick,27/07/2019 08:00,15,7,,,0,,97,,70,Misty,1011,8,8,,,,14.6,
Wick,27/07/2019 09:00,16.5,10,,,0,,92,,80,Dry,1010,3,13,,,,15.2,
Wick,27/07/2019 10:00,16.8,13,,,0,,88,,110,Dry,1010,1,19,,,,14.9,
Wick,27/07/2019 11:00,17.5,13,,,0,,86,,110,Dry,1011,0,11,,,,15.2,
Wick,27/07/2019 12:00,17.8,14,,,0,0,83,,110,Dry,1011,0,10,,,,15,
Wick,27/07/2019 13:00,17.4,12,,,0,,83,,110,Dry,1011,7,10,,,,14.6,
Wick,27/07/2019 14:00,17.1,12,,,0,,85,,110,Dry,1011,8,13,,,,14.7,
Wick,27/07/2019 15:00,17.6,12,,,0,,84,,110,Dry,1011,7,17,,,,15,
Wick,27/07/2019 16:00,17.5,14,,,0,,82,,90,Dry,1011,6,15,,,,14.4,
Wick,27/07/2019 17:00,17.6,12,,,0,,83,,100,Dry,1011,1,25,,,,14.7,
Wick,27/07/2019 18:00,16.8,12,,18.5,0,0,84,,110,Dry,1011,0,12,,,,14.2,
Wick,27/07/2019 19:00,16.4,9,,,0,,87,,100,Dry,1011,0,14,,,,14.4,
Wick,27/07/2019 20:00,15.5,8,,,0,,91,,100,Dry,1012,0,13,,,,14.2,
Wick,27/07/2019 21:00,15,6,,,0,,93,,100,Dry,1012,0,11,,,,14,
Wick,27/07/2019 22:00,14.5,6,,,0,,94,,80,Misty,1012,0,9,,,,13.7,
Wick,27/07/2019 23:00,14.6,6,,,0,,96,,100,Misty,1012,0,8,,,,14.1,
Wick,28/07/2019 00:00,14.7,2,,,0,0,97,,90,Misty,1012,4,7,,,,14.3,
Wick,28/07/2019 01:00,14.7,7,,,0,,97,,90,Misty,1012,2,8,,,,14.3,
Wick,28/07/2019 02:00,14.7,5,,,0,,96,,140,Misty,1012,1,8,,,,14.2,
Wick,28/07/2019 03:00,15.1,5,,,0,,97,,100,Misty,1012,4,8,,,,14.7,
Wick,28/07/2019 04:00,15,6,,,0,,96,,100,Misty,1012,7,7,,,,14.5,
Wick,28/07/2019 05:00,15.2,5,,,0,,96,,80,Misty,1012,1,9,,,,14.6,
Wick,28/07/2019 06:00,16.2,5,14.4,,0,0,95,,60,Misty,1012,7,9,,,,15.4,
Wick,28/07/2019 07:00,15.5,12,,,0,,91,,80,Dry,1012,7,13,,,,14.2,
Wick,28/07/2019 08:00,15.4,6,,,5.4,,98,,60,Rain,1012,8,5,,,,15.2,
Wick,28/07/2019 09:00,17.5,12,,,0.2,,86,,40,Dry,1012,2,29,,,,15.3,
Wick,28/07/2019 10:00,16.8,10,,,0,,85,,40,Dry,1011,7,21,,,,14.4,
Wick,28/07/2019 11:00,17.2,12,,,0,,83,,70,Dry,1011,7,13,,,,14.3,
Wick,28/07/2019 12:00,18,13,,,0,6,80,,70,Dry,1011,0,14,,,,14.6,
Wick,28/07/2019 13:00,18.2,12,,,0,,81,,60,Dry,1011,1,22,,,,14.9,
Wick,28/07/2019 14:00,17.9,10,,,0,,81,,60,Dry,1010,7,18,,,,14.7,
Wick,28/07/2019 15:00,18,13,,,0,,81,,60,Dry,1010,5,20,,,,14.8,
Wick,28/07/2019 16:00,18.3,12,,,0,,81,,50,Dry,1010,0,19,,,,15.1,
Wick,28/07/2019 17:00,17.4,10,,,0,,83,,50,Dry,1010,1,22,,,,14.6,
Wick,28/07/2019 18:00,16.7,7,,18.7,0,0,86,,20,Dry,1009,7,13,,,,14.5,
Wick,28/07/2019 19:00,16.1,12,,,0,,89,,50,Dry,1009,5,20,,,,14.3,
Wick,28/07/2019 20:00,15.6,10,,,0,,90,,50,Dry,1009,8,19,,,,14.1,
Wick,28/07/2019 21:00,15.3,9,,,0,,92,,40,Dry,1009,7,20,,,,14.1,
Wick,28/07/2019 22:00,15.1,9,,,0.2,,95,,40,Moderate shower,1009,8,9,,,,14.4,
Wick,28/07/2019 23:00,15.1,6,,,0.2,,96,,90,Rain,1009,8,13,,,,14.5,
Wick,29/07/2019 00:00,15.9,5,,,1.2,2,96,,90,Rain,1009,1,7,,,,15.4,
Wick,29/07/2019 01:00,14.9,7,,,0.6,,97,,340,Rain,1008,8,4,,,,14.5,
Wick,29/07/2019 02:00,15.2,5,,,0,,98,,70,Light shower,1008,0,8,,,,15,
Wick,29/07/2019 03:00,14.6,3,,,0.2,,98,,340,Light rain,1007,8,4,,,,14.4,
Wick,29/07/2019 04:00,14.3,6,,,0.2,,99,,360,Light shower,1007,8,4,,,,14.2,
Wick,29/07/2019 05:00,14.4,9,,,0.2,,99,,10,Drizzly rain,1006,8,4,,,,14.3,
Wick,29/07/2019 06:00,14.8,7,14.3,,0,1,100,,40,Rain,1007,8,6,,,,14.8,
Wick,29/07/2019 07:00,15.1,3,,,0,,100,,20,Rain,1007,8,5,,,,15.1,
Wick,29/07/2019 08:00,15,6,,,0.4,,100,,20,Rain,1006,8,3,,,,15,
Wick,29/07/2019 09:00,15.1,8,,,0,,99,,60,Thickening fog,1006,8,1,,,,15,
Wick,29/07/2019 10:00,15.8,9,,,0,,99,,100,Rain,1006,8,3,,,,15.7,
Wick,29/07/2019 11:00,15.4,9,,,0,,100,,100,Thickening fog,1006,8,0,,,,15.4,
Wick,29/07/2019 12:00,15.7,10,,,0,0.4,100,,110,Thickening fog,1007,9,0,,,,15.7,
Wick,29/07/2019 13:00,16.6,9,,,0,,100,,110,Fog,1007,8,7,,,,16.6,
Wick,29/07/2019 14:00,16.9,9,,,0,,95,,110,Dry,1007,8,14,,,,16.1,
Wick,29/07/2019 15:00,17.8,10,,,0,,86,,120,Dry,1007,7,16,,,,15.5,
Wick,29/07/2019 16:00,17.3,10,,,0,,89,,120,Dry,1007,6,9,,,,15.6,
Wick,29/07/2019 17:00,16.1,10,,,0,,95,,120,Fog,1007,7,1,,,,15.4,
Wick,29/07/2019 18:00,15.4,9,,18.4,0,0,97,,120,Fog,1007,8,2,,,,15,
Wick,29/07/2019 19:00,15,6,,,0,,98,,100,Patchy fog,1007,8,1,,,,14.8,
Wick,29/07/2019 20:00,14.2,9,,,0,,99,,100,Drizzly rain,1007,9,0,,,,14.1,
Wick,29/07/2019 21:00,14.2,8,,,0,,99,,100,Moderate drizzle,1007,9,0,,,,14.1,
Wick,29/07/2019 22:00,14.1,7,,,0,,100,,90,Light drizzle,1008,9,0,,,,14.1,
Wick,29/07/2019 23:00,14.1,5,,,0,,100,,70,Moderate drizzle,1008,9,0,,,,14.1,
Wick,30/07/2019 00:00,13.8,7,,,0,0,100,,40,Light drizzle,1008,9,0,,,,13.8,
Wick,30/07/2019 01:00,13.6,5,,,0,,100,,350,Thickening fog,1008,8,0,,,,13.6,
Wick,30/07/2019 02:00,13.6,6,,,0,,100,,340,Thickening fog,1008,8,0,,,,13.6,
Wick,30/07/2019 03:00,14,5,,,0.2,,100,,350,Fog,1008,8,0,,,,14,
Wick,30/07/2019 04:00,14.2,2,,,0,,100,,330,Fog thinning,1007,8,0,,,,14.2,
Wick,30/07/2019 05:00,14.3,5,,,0,,99,,350,Thickening fog,1007,9,0,,,,14.2,
Wick,30/07/2019 06:00,15.1,5,13.5,,0,0.2,99,,90,Fog,1008,9,0,,,,15,
Wick,30/07/2019 07:00,15.3,5,,,0,,100,,10,Fog thinning,1008,9,0,,,,15.3,
Wick,30/07/2019 08:00,15.5,3,,,0,,100,,50,Fog,1008,9,0,,,,15.5,
Wick,30/07/2019 09:00,15.5,5,,,0,,99,,60,Thickening fog,1008,9,0,,,,15.4,
Wick,30/07/2019 10:00,15.8,7,,,0,,100,,120,Fog thinning,1008,8,0,,,,15.8,
Wick,30/07/2019 11:00,16.2,9,,,0,,100,,120,Fog,1008,8,4,,,,16.2,
Wick,30/07/2019 12:00,16,7,,,0,0,100,,130,Misty,1009,7,1,,,,16,
Wick,30/07/2019 13:00,16.7,6,,,0,,98,,130,Misty,1009,8,12,,,,16.4,
Wick,30/07/2019 14:00,16.5,8,,,0,,95,,120,Fog,1009,8,3,,,,15.8,
Wick,30/07/2019 15:00,16.3,7,,,0,,96,,130,Thickening fog,1009,8,0,,,,15.7,
Wick,30/07/2019 16:00,16.5,9,,,0,,96,,100,Fog,1009,8,3,,,,16,
Wick,30/07/2019 17:00,16.2,7,,,0,,96,,110,Misty,1009,8,4,,,,15.6,
Wick,30/07/2019 18:00,16.2,6,,17.3,0,0,96,,120,Misty,1009,8,6,,,,15.6,
Wick,30/07/2019 19:00,15.7,2,,,0,,98,,60,Fog,1010,8,1,,,,15.4,
Wick,30/07/2019 20:00,15.1,5,,,0,,99,,20,Thickening fog,1010,7,0,,,,15,
Wick,30/07/2019 21:00,14.3,7,,,0,,100,,360,Thickening fog,1010,9,0,,,,14.3,
Wick,30/07/2019 22:00,14,7,,,0,,100,,30,Drizzly rain,1011,9,0,,,,14,
Wick,30/07/2019 23:00,14.1,6,,,0,,100,,350,Fog thinning,1010,7,0,,,,14.1,
Wick,31/07/2019 00:00,13.9,7,,,0,0,100,,340,Thickening fog,1010,9,0,,,,13.9,
Wick,31/07/2019 01:00,13.6,8,,,0,,100,,340,Fog thinning,1010,9,0,,,,13.6,
Wick,31/07/2019 02:00,13.5,9,,,0,,100,,340,Fog,1010,9,0,,,,13.5,
Wick,31/07/2019 03:00,13.2,7,,,0,,100,,340,Fog,1011,9,0,,,,13.2,
Wick,31/07/2019 04:00,13.4,8,,,0,,100,,340,Thickening fog,1011,9,0,,,,13.4,
Wick,31/07/2019 05:00,13.9,7,,,0.2,,100,,330,Fog,1011,9,0,,,,13.9,
Wick,31/07/2019 06:00,14.2,7,13.2,,0,0.2,100,,310,Fog thinning,1011,8,1,,,,14.2,
Wick,31/07/2019 07:00,14.3,7,,,0,,100,,300,Fog thinning,1012,9,1,,,,14.3,
Wick,31/07/2019 08:00,14.1,8,,,0,,100,,320,Fog,1012,8,3,,,,14.1,
Wick,31/07/2019 09:00,14.6,8,,,0,,100,,330,Dry,1012,8,23,,,,14.6,
Wick,31/07/2019 10:00,15.4,7,,,0,,99,,330,Dry,1012,8,30,,,,15.3,
Wick,31/07/2019 11:00,15.4,7,,,0,,100,,290,Dry,1013,8,35,,,,15.4,
Wick,31/07/2019 12:00,16.4,7,,,0,0,95,,20,Dry,1013,8,19,,,,15.7,
Wick,31/07/2019 13:00,15.8,7,,,0,,94,,320,Dry,1013,8,16,,,,14.9,
Wick,31/07/2019 14:00,15.7,12,,,0,,93,,320,Dry,1014,8,21,,,,14.6,
Wick,31/07/2019 15:00,16.1,9,,,0,,91,,330,Dry,1014,8,24,,,,14.7,
Wick,31/07/2019 16:00,15.2,7,,,0,,93,,360,Dry,1014,8,30,,,,14.1,
Wick,31/07/2019 17:00,15.3,10,,,0,,94,,310,Dry,1014,8,40,,,,14.4,
Wick,31/07/2019 18:00,15.2,10,,16.6,0,0,93,,310,Dry,1014,8,27,,,,14.2,
Wick,31/07/2019 19:00,15.1,9,,,0,,94,,310,Dry,1015,8,40,,,,14.2,
Wick,31/07/2019 20:00,14.9,8,,,0,,95,,310,Dry,1015,8,35,,,,14.2,
Wick,31/07/2019 21:00,14.7,6,,,0,,97,,300,Misty,1016,8,8,,,,14.3,
Wick,31/07/2019 22:00,14.4,7,,,0,,99,,300,Misty,1016,7,5,,,,14.3,
Wick,31/07/2019 23:00,14.1,7,,,0,,100,,290,Misty,1016,8,6,,,,14.1,
Wick,01/08/2019 00:00,14.1,7,,,0,0,99,,290,Dry,1017,1,10,,,,14,
Wick,01/08/2019 01:00,14.1,6,,,0,,99,,280,Dry,1017,8,12,,,,14,
Wick,01/08/2019 02:00,14,7,,,0,,98,,300,Dry,1017,8,15,,,,13.8,
Wick,01/08/2019 03:00,13.6,6,,,0,,98,,290,Dry,1017,8,15,,,,13.4,
Wick,01/08/2019 04:00,13.9,7,,,0,,98,,290,Dry,1018,8,22,,,,13.6,
Wick,01/08/2019 05:00,14.1,8,,,0,,98,,280,Dry,1018,8,17,,,,13.9,
Wick,01/08/2019 06:00,14.2,7,13.6,,0,0,96,,320,Dry,1018,8,17,,,,13.7,
Wick,01/08/2019 07:00,14.3,6,,,0,,96,,310,Dry,1019,8,14,,,,13.8,
Wick,01/08/2019 08:00,15,9,,,0,,93,,300,Dry,1019,8,26,,,,13.9,
Wick,01/08/2019 09:00,16.7,9,,,0,,82,,320,Dry,1020,8,45,,,,13.7,
Wick,01/08/2019 10:00,17.2,9,,,0,,77,,330,Dry,1020,8,26,,,,13.2,
Wick,01/08/2019 11:00,16.4,9,,,0,,82,,320,Dry,1020,8,45,,,,13.5,
Wick,01/08/2019 12:00,17.4,9,,,0,0,76,,320,Dry,1020,7,29,,,,13.3,
Wick,01/08/2019 13:00,17.5,10,,,0,,78,,300,Dry,1021,8,40,,,,13.8,
Wick,01/08/2019 14:00,18.1,12,,,0,,73,,300,Dry,1021,8,30,,,,13.3,
Wick,01/08/2019 15:00,17.5,10,,,0,,75,,300,Dry,1021,8,40,,,,13.1,
Wick,01/08/2019 16:00,17.1,14,,,0,,78,,320,Dry,1021,7,30,,,,13.4,
Wick,01/08/2019 17:00,16.9,9,,,0,,77,,310,Dry,1021,8,27,,,,12.9,
Wick,01/08/2019 18:00,15.8,10,,18.6,0,0,84,,330,Dry,1022,7,24,,,,13.2,
Wick,01/08/2019 19:00,15.6,9,,,0,,88,,320,Dry,1022,8,45,,,,13.7,
Wick,01/08/2019 20:00,15.1,7,,,0,,92,,320,Dry,1022,8,30,,,,13.9,
Wick,01/08/2019 21:00,14.5,6,,,0,,93,,340,Dry,1022,7,16,,,,13.5,
Wick,01/08/2019 22:00,13.8,5,,,0,,95,,20,Dry,1023,8,12,,,,13.1,
Wick,01/08/2019 23:00,13.4,6,,,0,,96,,350,Dry,1023,8,12,,,,12.9,
Wick,02/08/2019 00:00,12.8,5,,,0,0,98,,340,Misty,1022,7,8,,,,12.5,
Wick,02/08/2019 01:00,12.8,2,,,0,,98,,300,Misty,1022,7,5,,,,12.5,
Wick,02/08/2019 02:00,13.2,5,,,0,,99,,320,Misty,1022,8,9,,,,13.1,
Wick,02/08/2019 03:00,13.3,3,,,0,,99,,340,Misty,1022,8,9,,,,13.2,
Wick,02/08/2019 04:00,13.3,5,,,0,,99,,300,Dry,1022,8,10,,,,13.2,
Wick,02/08/2019 05:00,13.5,5,,,0,,99,,300,Misty,1022,8,10,,,,13.4,
Wick,02/08/2019 06:00,13.7,6,12.5,,0,0,99,,310,Dry,1022,8,13,,,,13.6,
Wick,02/08/2019 07:00,14.3,5,,,0,,98,,310,Dry,1022,7,22,,,,14.1,
Wick,02/08/2019 08:00,14.9,5,,,0,,94,,330,Dry,1022,8,16,,,,14.1,
Wick,02/08/2019 09:00,15.4,5,,,0,,89,,10,Dry,1022,8,18,,,,13.7,
Wick,02/08/2019 10:00,16.2,5,,,0,,85,,360,Dry,1022,8,35,,,,13.8,
Wick,02/08/2019 11:00,16.3,5,,,0,,84,,20,Dry,1022,8,16,,,,13.6,
Wick,02/08/2019 12:00,16,6,,,0,0,85,,60,Dry,1022,8,22,,,,13.6,
Wick,02/08/2019 13:00,16.3,7,,,0,,84,,50,Dry,1022,8,19,,,,13.7,
Wick,02/08/2019 14:00,16.5,8,,,0,,81,,70,Dry,1022,7,16,,,,13.4,
Wick,02/08/2019 15:00,15.9,6,,,0,,82,,100,Dry,1022,5,30,,,,12.9,
Wick,02/08/2019 16:00,16.3,6,,,0,,82,,70,Dry,1022,3,24,,,,13.4,
Wick,02/08/2019 17:00,16,6,,,0,,82,,100,Dry,1022,0,23,,,,13,
Wick,02/08/2019 18:00,16.2,3,,17.3,0,0,82,,60,Dry,1022,0,40,,,,13.3,
Wick,02/08/2019 19:00,15.4,3,,,0,,83,,60,Dry,1022,0,40,,,,12.6,
Wick,02/08/2019 20:00,14.7,2,,,0,,85,,70,Dry,1022,0,30,,,,12.3,
Wick,02/08/2019 21:00,13.9,1,,,0,,89,,60,Dry,1022,0,29,,,,12.2,
Wick,02/08/2019 22:00,12.3,1,,,0,,94,,280,Dry,1022,0,18,,,,11.5,
Wick,02/08/2019 23:00,13.2,3,,,0,,98,,40,Rain,1022,7,3,,,,12.9,
Wick,03/08/2019 00:00,12.8,5,,,0,0,99,,20,Thickening fog,1022,7,0,,,,12.7,
Wick,03/08/2019 01:00,12.4,3,,,0,,100,,10,Thickening fog,1021,7,1,,,,12.4,
Wick,03/08/2019 02:00,12.5,5,,,0,,99,,290,Fog,1021,7,1,,,,12.4,
Wick,03/08/2019 03:00,12.4,3,,,0,,100,,310,Fog,1021,8,6,,,,12.4,
Wick,03/08/2019 04:00,12,3,,,0,,99,,270,Fog,1021,2,1,,,,11.9,
Wick,03/08/2019 05:00,12.3,3,,,0,,100,,300,Fog,1020,8,5,,,,12.3,
Wick,03/08/2019 06:00,12.3,3,11.9,,0,0,100,,300,Misty,1021,8,6,,,,12.3,
Wick,03/08/2019 07:00,12.6,6,,,0,,100,,330,Dry,1020,8,13,,,,12.6,
Wick,03/08/2019 08:00,13,6,,,0,,99,,350,Dry,1020,8,16,,,,12.9,
Wick,03/08/2019 09:00,13.4,6,,,0,,96,,360,Dry,1020,8,15,,,,12.9,
Wick,03/08/2019 10:00,14.9,6,,,0,,85,,10,Dry,1020,5,30,,,,12.5,
Wick,03/08/2019 11:00,16.8,3,,,0,,80,,10,Dry,1020,1,19,,,,13.4,
Wick,03/08/2019 12:00,16.5,9,,,0,0,79,,60,Dry,1020,0,30,,,,12.9,
Wick,03/08/2019 13:00,15.9,10,,,0,,78,,60,Dry,1019,0,19,,,,12.2,
Wick,03/08/2019 14:00,15.8,9,,,0,,80,,60,Dry,1019,0,19,,,,12.5,
Wick,03/08/2019 15:00,15.4,9,,,0,,83,,70,Dry,1019,0,18,,,,12.7,
Wick,03/08/2019 16:00,15,8,,,0,,84,,90,Dry,1019,0,25,,,,12.5,
Wick,03/08/2019 17:00,14.8,9,,,0,,84,,70,Dry,1018,1,20,,,,12.2,
Wick,03/08/2019 18:00,14.2,9,,17.2,0,0,86,,80,Dry,1018,5,15,,,,12,
Wick,03/08/2019 19:00,13.7,7,,,0,,88,,80,Dry,1017,1,12,,,,11.9,
Wick,03/08/2019 20:00,13.2,5,,,0,,91,,90,Dry,1018,5,16,,,,11.9,
Wick,03/08/2019 21:00,12.7,6,,,0,,93,,80,Dry,1017,4,16,,,,11.6,
Wick,03/08/2019 22:00,12.7,7,,,0,,91,,80,Dry,1017,6,15,,,,11.3,
Wick,03/08/2019 23:00,11.8,7,,,0,,94,,60,Dry,1017,4,12,,,,11,
Wick,04/08/2019 00:00,11.8,8,,,0,0,95,,70,Dry,1017,1,13,,,,11.1,
Wick,04/08/2019 01:00,12.5,8,,,0,,92,,70,Dry,1016,7,17,,,,11.3,
Wick,04/08/2019 02:00,12.6,7,,,0,,90,,80,Dry,1016,8,24,,,,11.1,
Wick,04/08/2019 03:00,12.5,7,,,0,,91,,80,Dry,1016,8,20,,,,11.1,
Wick,04/08/2019 04:00,12.4,8,,,0,,90,,80,Dry,1015,8,19,,,,10.9,
Wick,04/08/2019 05:00,12.6,8,,,0,,90,,70,Dry,1015,8,26,,,,11.1,
Wick,04/08/2019 06:00,12.9,8,11.7,,0,0,88,,80,Dry,1015,8,29,,,,11.1,
Wick,04/08/2019 07:00,13.6,9,,,0,,84,,70,Dry,1014,6,20,,,,11.1,
Wick,04/08/2019 08:00,14.4,13,,,0,,80,,90,Dry,1014,8,24,,,,11.1,
Wick,04/08/2019 09:00,14.3,13,,,0,,79,,90,Dry,1014,8,28,,,,10.9,
Wick,04/08/2019 10:00,15.1,13,,,0,,79,,110,Dry,1014,8,22,,,,11.5,
Wick,04/08/2019 11:00,14.9,12,,,0,,81,,100,Dry,1013,7,21,,,,11.8,
Wick,04/08/2019 12:00,14.9,12,,,0,0,81,,90,Dry,1013,8,20,,,,11.8,
Wick,04/08/2019 13:00,15.9,14,,,0,,77,,100,Dry,1013,7,23,,,,12,
Wick,04/08/2019 14:00,15.8,14,,,0,,80,,90,Dry,1012,7,24,,,,12.5,
Wick,04/08/2019 15:00,15.1,13,,,0,,83,,80,Dry,1012,8,18,,,,12.4,
Wick,04/08/2019 16:00,14.6,12,,,0,,87,,80,Dry,1011,8,15,,,,12.5,
Wick,04/08/2019 17:00,14.3,12,,,0,,93,,90,Rain,1011,8,14,,,,13.3,
Wick,04/08/2019 18:00,14.2,12,,16.5,0,0,93,,90,Dry,1010,8,13,,,,13.1,
Wick,04/08/2019 19:00,15,10,,,0,,92,,110,Dry,1010,8,16,,,,13.8,
Wick,04/08/2019 20:00,15,12,,,0,,91,,110,Dry,1010,8,17,,,,13.6,
Wick,04/08/2019 21:00,15,12,,,0,,91,,110,Dry,1009,7,15,,,,13.7,
Wick,04/08/2019 22:00,14.7,13,,,0,,93,,110,Dry,1009,3,14,,,,13.7,
Wick,04/08/2019 23:00,14.7,13,,,0,,93,,100,Dry,1008,7,13,,,,13.6,
Wick,05/08/2019 00:00,14.6,14,,,0,0,94,,100,Dry,1008,4,12,,,,13.7,
Wick,05/08/2019 01:00,14.3,10,,,0,,95,,80,Misty,1007,1,10,,,,13.6,
Wick,05/08/2019 02:00,13.9,14,,,0,,96,,80,Misty,1006,8,9,,,,13.3,
Wick,05/08/2019 03:00,13.7,16,,,0.6,,99,,80,Drizzle,1005,8,5,,,,13.6,
Wick,05/08/2019 04:00,13.7,14,,,3,,100,,90,Rain,1004,8,5,,,,13.7,
Wick,05/08/2019 05:00,13.9,13,,,0.6,,100,,100,Light shower,1004,8,4,,,,13.9,
Wick,05/08/2019 06:00,14.4,12,13.6,,0.8,5,100,,100,Rain,1003,8,2,,,,14.4,
Wick,05/08/2019 07:00,14.9,13,,,0,,100,,120,Dry,1003,7,14,,,,14.9,
Wick,05/08/2019 08:00,15.5,12,,,0,,100,,120,Misty,1003,2,9,,,,15.5,
Wick,05/08/2019 09:00,15.9,13,,,0,,98,,120,Dry,1002,8,9,,,,15.6,
Wick,05/08/2019 10:00,16.9,10,,,0,,93,,110,Dry,1002,7,29,,,,15.9,
Wick,05/08/2019 11:00,16.3,10,,,0,,92,,110,Dry,1002,7,19,,,,15.1,
Wick,05/08/2019 12:00,17.1,8,,,0,0,89,,110,Dry,1002,7,21,,,,15.3,
Wick,05/08/2019 13:00,17.5,9,,,0,,87,,110,Dry,1001,6,22,,,,15.4,
Wick,05/08/2019 14:00,17.4,8,,,0,,88,,100,Dry,1001,2,26,,,,15.4,
Wick,05/08/2019 15:00,17.2,9,,,0,,89,,100,Dry,1001,2,29,,,,15.5,
Wick,05/08/2019 16:00,17.1,7,,,0,,88,,100,Dry,1001,6,25,,,,15.1,
Wick,05/08/2019 17:00,16,6,,,0,,89,,70,Dry,1001,7,18,,,,14.3,
Wick,05/08/2019 18:00,16.3,5,,18,0,0,90,,60,Dry,1001,6,21,,,,14.7,
Wick,05/08/2019 19:00,14.4,7,,,0,,94,,350,Rain,1001,8,10,,,,13.5,
Wick,05/08/2019 20:00,13.9,8,,,0.2,,98,,30,Rain,1001,1,9,,,,13.7,
Wick,05/08/2019 21:00,13.5,7,,,0,,98,,60,Misty,1001,1,6,,,,13.3,
Wick,05/08/2019 22:00,13.7,6,,,0,,98,,290,Misty,1001,7,2,,,,13.5,
Wick,05/08/2019 23:00,14.2,5,,,0,,100,,340,Fog,1001,8,4,,,,14.2,
Wick,06/08/2019 00:00,13.7,6,,,0,0.2,100,,290,Misty,1001,7,8,,,,13.7,
Wick,06/08/2019 01:00,13.7,6,,,4.4,,100,,250,Moderate shower,1001,8,4,,,,13.7,
Wick,06/08/2019 02:00,13.7,5,,,0.8,,100,,270,Drizzly rain,1000,8,6,,,,13.7,
Wick,06/08/2019 03:00,13.6,7,,,0.2,,100,,350,Drizzly rain,1000,8,4,,,,13.6,
Wick,06/08/2019 04:00,13.2,5,,,0,,100,,270,Thickening fog,1000,8,0,,,,13.2,
Wick,06/08/2019 05:00,13.5,5,,,0,,100,,350,Fog,1000,8,7,,,,13.5,
Wick,06/08/2019 06:00,13.8,5,13,,0,5.8,100,,350,Thickening fog,1000,7,0,,,,13.8,
Wick,06/08/2019 07:00,14,3,,,0,,100,,320,Thickening fog,1000,9,0,,,,14,
Wick,06/08/2019 08:00,14.4,1,,,0,,100,,130,Fog,1000,8,3,,,,14.4,
Wick,06/08/2019 09:00,14.8,1,,,0,,100,,250,Dry,1000,8,10,,,,14.8,
Wick,06/08/2019 10:00,15.5,5,,,0,,99,,10,Dry,999,7,18,,,,15.4,
Wick,06/08/2019 11:00,15.2,8,,,0,,96,,80,Misty,999,7,2,,,,14.6,
Wick,06/08/2019 12:00,15,7,,,0,0,94,,80,Fog,999,8,2,,,,14.2,
Wick,06/08/2019 13:00,15,6,,,0,,96,,90,Fog,999,8,8,,,,14.5,
Wick,06/08/2019 14:00,15.9,5,,,0,,91,,100,Dry,999,7,13,,,,14.6,
Wick,06/08/2019 15:00,15.5,3,,,0,,89,,100,Dry,999,7,18,,,,13.8,
Wick,06/08/2019 16:00,14.8,5,,,0,,96,,80,Thickening fog,998,7,1,,,,14.2,
Wick,06/08/2019 17:00,13.6,7,,,0,,98,,120,Thickening fog,998,9,0,,,,13.3,
Wick,06/08/2019 18:00,13.5,6,,17,0,0,99,,50,Thickening fog,998,9,0,,,,13.4,
Wick,06/08/2019 19:00,12.8,8,,,0,,99,,30,Fog thinning,998,9,1,,,,12.7,
Wick,06/08/2019 20:00,12.6,6,,,0,,100,,70,Thickening fog,998,9,0,,,,12.6,
Wick,06/08/2019 21:00,13,7,,,0,,100,,30,Thickening fog,998,9,0,,,,13,
Wick,06/08/2019 22:00,12.9,8,,,0,,99,,10,Fog,998,9,0,,,,12.8,
Wick,06/08/2019 23:00,12.8,10,,,0,,100,,360,Fog,998,9,0,,,,12.8,
Wick,07/08/2019 00:00,13,8,,,0,0,99,,360,Fog,998,8,2,,,,12.9,
Wick,07/08/2019 01:00,13.1,9,,,0,,100,,10,Fog,997,8,3,,,,13.1,
Wick,07/08/2019 02:00,13.1,10,,,0,,99,,360,Misty,997,8,3,,,,13,
Wick,07/08/2019 03:00,13,12,,,0,,100,,360,Misty,997,8,3,,,,13,
Wick,07/08/2019 04:00,12.9,14,,,0,,99,,360,Thickening fog,997,9,0,,,,12.8,
Wick,07/08/2019 05:00,12.6,12,,,0,,100,,360,Fog,997,9,0,,,,12.6,
Wick,07/08/2019 06:00,12.5,13,12.2,,0,0,100,,350,Drizzly rain,997,9,0,,,,12.5,
Wick,07/08/2019 07:00,12.8,10,,,0,,100,,350,Rain,997,9,2,,,,12.8,
Wick,07/08/2019 08:00,13.5,13,,,0,,100,,360,Fog,997,8,8,,,,13.5,
Wick,07/08/2019 09:00,13.7,13,,,0,,99,,340,Dry,998,7,11,,,,13.6,
Wick,07/08/2019 10:00,13.8,14,,,1.6,,100,,340,Rain,998,7,8,,,,13.8,
Wick,07/08/2019 11:00,14.4,14,,,1.4,,99,,350,Light shower,998,7,7,,,,14.3,
Wick,07/08/2019 12:00,14.5,13,,,0.6,4,100,,350,Light rain,998,4,8,,,,14.5,
Wick,07/08/2019 13:00,14.9,14,,,0.4,,100,,350,Light drizzle,999,5,12,,,,14.9,
Wick,07/08/2019 14:00,14.8,13,,,0,,97,,350,Drizzle,999,6,16,,,,14.4,
Wick,07/08/2019 15:00,15.5,13,,,0,,96,,350,Rain,999,2,12,,,,15,
Wick,07/08/2019 16:00,14.4,13,,,0,,95,,350,Rain,1000,8,17,,,,13.7,
Wick,07/08/2019 17:00,14.8,13,,,0.2,,97,,350,Rain,1000,8,12,,,,14.4,
Wick,07/08/2019 18:00,13.8,15,,15.8,0,0,98,,340,Rain,1001,8,7,,,,13.5,
Wick,07/08/2019 19:00,13.4,16,,,0,,98,,350,Rain,1001,8,8,,,,13.2,
Wick,07/08/2019 20:00,12.8,15,,,0.2,,99,,340,Misty,1002,8,9,,,,12.7,
Wick,07/08/2019 21:00,12.8,12,,,0,,98,,340,Dry,1002,8,12,,,,12.6,
Wick,07/08/2019 22:00,12.8,14,,,0,,99,,330,Misty,1003,8,5,,,,12.7,
Wick,07/08/2019 23:00,12.7,15,,,0,,99,,330,Misty,1003,8,5,,,,12.6,
Wick,08/08/2019 00:00,12.7,15,,,0,0.2,100,,320,Misty,1003,8,8,,,,12.7,
Wick,08/08/2019 01:00,12.6,14,,,0,,99,,330,Misty,1004,8,4,,,,12.5,
Wick,08/08/2019 02:00,12.4,13,,,0,,100,,330,Dry,1004,8,12,,,,12.4,
Wick,08/08/2019 03:00,12.4,14,,,0,,100,,330,Dry,1005,8,13,,,,12.4,
Wick,08/08/2019 04:00,12.3,15,,,0,,99,,320,Dry,1005,8,10,,,,12.2,
Wick,08/08/2019 05:00,12.4,14,,,0,,99,,310,Misty,1005,8,5,,,,12.3,
Wick,08/08/2019 06:00,12.6,13,12.3,,0,0,99,,320,Misty,1006,8,7,,,,12.5,
Wick,08/08/2019 07:00,12.8,15,,,0,,99,,340,Dry,1006,8,19,,,,12.7,
Wick,08/08/2019 08:00,12.6,15,,,0,,98,,340,Misty,1007,8,11,,,,12.4,
Wick,08/08/2019 09:00,12.4,13,,,0,,98,,350,Misty,1008,7,6,,,,12.2,
Wick,08/08/2019 10:00,12.8,15,,,0.2,,100,,350,Misty,1008,8,6,,,,12.8,
Wick,08/08/2019 11:00,12.9,6,,,0,,97,,350,Dry,1009,7,19,,,,12.5,
Wick,08/08/2019 12:00,13.6,12,,,0,0.2,88,,10,Dry,1010,8,24,,,,11.8,
Wick,08/08/2019 13:00,14.3,13,,,0,,87,,20,Dry,1010,8,23,,,,12.2,
Wick,08/08/2019 14:00,14,14,,,0,,83,,20,Dry,1011,7,26,,,,11.2,
Wick,08/08/2019 15:00,15.2,14,,,0,,82,,30,Dry,1011,6,23,,,,12.3,
Wick,08/08/2019 16:00,14.1,12,,,0,,82,,30,Dry,1011,8,27,,,,11.2,
Wick,08/08/2019 17:00,14,12,,,0,,81,,40,Dry,1011,8,15,,,,10.9,
Wick,08/08/2019 18:00,13.5,9,,15.5,0,0,77,,30,Dry,1012,8,30,,,,9.7,
Wick,08/08/2019 19:00,12.9,9,,,0,,81,,30,Dry,1012,8,29,,,,9.9,
Wick,08/08/2019 20:00,12.4,9,,,0,,86,,40,Dry,1012,8,35,,,,10.2,
Wick,08/08/2019 21:00,12.2,8,,,0,,89,,40,Dry,1012,8,22,,,,10.6,
Wick,08/08/2019 22:00,12.1,7,,,0,,92,,50,Dry,1012,8,29,,,,10.9,
Wick,08/08/2019 23:00,12.1,9,,,0,,88,,60,Dry,1012,8,40,,,,10.3,
Wick,09/08/2019 00:00,12,9,,,0,0,89,,50,Dry,1011,8,30,,,,10.4,
Wick,09/08/2019 01:00,11.9,10,,,0,,88,,60,Dry,1011,8,30,,,,10.1,
Wick,09/08/2019 02:00,12,7,,,0,,92,,60,Dry,1011,8,25,,,,10.8,
Wick,09/08/2019 03:00,11.9,8,,,0,,93,,50,Dry,1011,8,26,,,,10.9,
Wick,09/08/2019 04:00,11.5,9,,,0,,96,,40,Dry,1010,5,17,,,,10.9,
Wick,09/08/2019 05:00,11.3,9,,,0,,98,,40,Dry,1009,0,13,,,,11.1,
Wick,09/08/2019 06:00,12.2,12,11.2,,0,0,98,,60,Dry,1008,6,17,,,,12,
Wick,09/08/2019 07:00,12.6,14,,,0,,96,,60,Dry,1007,7,25,,,,12.1,
Wick,09/08/2019 08:00,13.2,16,,,0,,92,,70,Dry,1007,8,27,,,,12,
Wick,09/08/2019 09:00,12.6,21,,,0.4,,100,30,80,Light shower,1006,6,5,,,,12.6,
Wick,09/08/2019 10:00,12.8,20,,,0.2,,94,35,90,Rain,1006,8,20,,,,11.9,
Wick,09/08/2019 11:00,13.7,20,,,0,,86,33,80,Dry,1004,7,15,,,,11.5,
Wick,09/08/2019 12:00,13.3,24,,,0,0.6,90,38,80,Rain,1004,7,8,,,,11.8,
Wick,09/08/2019 13:00,12.9,24,,,0.4,,93,32,70,Moderate shower,1003,8,6,,,,11.8,
Wick,09/08/2019 14:00,12.5,24,,,1.2,,95,33,70,Light rain,1002,8,6,,,,11.8,
Wick,09/08/2019 15:00,12.7,24,,,1.2,,97,32,60,Drizzly rain,1001,8,5,,,,12.3,
Wick,09/08/2019 16:00,12.8,24,,,2.2,,98,31,60,Moderate rain,1000,8,3,,,,12.6,
Wick,09/08/2019 17:00,12.7,21,,,3.4,,100,30,60,Light rain,999,8,3,,,,12.7,
Wick,09/08/2019 18:00,12.8,25,,13.9,2.8,11.4,100,33,50,Light rain,998,8,5,,,,12.8,
Wick,09/08/2019 19:00,12.8,23,,,0.2,,99,35,50,Rain,997,8,8,,,,12.7,
Wick,09/08/2019 20:00,13,25,,,0,,98,35,50,Misty,996,8,8,,,,12.8,
Wick,09/08/2019 21:00,12.9,26,,,0.6,,100,35,50,Moderate shower,995,8,5,,,,12.9,
Wick,09/08/2019 22:00,12.9,25,,,0.2,,100,37,40,Rain,993,7,5,,,,12.9,
Wick,09/08/2019 23:00,13.2,24,,,0,,99,36,40,Rain,992,8,8,,,,13.1,
Wick,10/08/2019 00:00,13.1,24,,,0,1,100,32,40,Light shower,991,8,5,,,,13.1,
Wick,10/08/2019 01:00,13.6,13,,,0,,100,30,50,Thickening fog,990,8,0,,,,13.6,
Wick,10/08/2019 02:00,13.9,9,,,0,,100,,100,Thickening fog,990,9,0,,,,13.9,
Wick,10/08/2019 03:00,14,6,,,0.2,,100,,140,Fog,989,9,0,,,,14,
Wick,10/08/2019 04:00,13.9,5,,,0,,100,,140,Thickening fog,989,9,0,,,,13.9,
Wick,10/08/2019 05:00,13.7,3,,,0,,100,,140,Thickening fog,989,9,0,,,,13.7,
Wick,10/08/2019 06:00,13.7,5,12.8,,0,0,100,,60,Fog,990,8,0,,,,13.7,
Wick,10/08/2019 07:00,13.5,6,,,0,,100,,90,Fog,990,8,0,,,,13.5,
Wick,10/08/2019 08:00,13.4,8,,,0,,100,,100,Fog,990,9,0,,,,13.4,
Wick,10/08/2019 09:00,14.1,7,,,0,,100,,130,Fog thinning,990,5,0,,,,14.1,
Wick,10/08/2019 10:00,15,2,,,0,,100,,160,Fog,990,5,9,,,,15,
Wick,10/08/2019 11:00,15.6,6,,,0,,99,,360,Dry,990,8,30,,,,15.5,
Wick,10/08/2019 12:00,17.7,5,,,0,0,88,,20,Dry,990,6,45,,,,15.8,
Wick,10/08/2019 13:00,14.7,8,,,0,,93,,70,Dry,991,8,30,,,,13.7,
Wick,10/08/2019 14:00,15.7,6,,,0,,91,,70,Dry,992,3,27,,,,14.4,
Wick,10/08/2019 15:00,15.7,6,,,0,,91,,40,Dry,992,7,19,,,,14.3,
Wick,10/08/2019 16:00,16.6,5,,,0,,90,,310,Dry,992,8,35,,,,15.1,
Wick,10/08/2019 17:00,16.4,14,,,0,,90,,280,Dry,992,1,35,,,,14.8,
Wick,10/08/2019 18:00,15.2,12,,18.5,0,0,94,,300,Dry,993,8,20,,,,14.4,
Wick,10/08/2019 19:00,14,14,,,0,,97,,310,Misty,994,8,7,,,,13.6,
Wick,10/08/2019 20:00,13.2,17,,,0,,99,,290,Misty,995,8,4,,,,13.1,
Wick,10/08/2019 21:00,13.2,13,,,0,,99,,280,Misty,995,8,4,,,,13.1,
Wick,10/08/2019 22:00,13.5,14,,,0,,100,,290,Misty,995,8,2,,,,13.5,
Wick,10/08/2019 23:00,13.5,14,,,0,,99,,310,Misty,996,8,10,,,,13.4,
Wick,11/08/2019 00:00,13.1,14,,,0,0,100,,310,Misty,996,8,10,,,,13.1,
Wick,11/08/2019 01:00,12.7,17,,,0,,100,,320,Misty,997,8,8,,,,12.7,
Wick,11/08/2019 02:00,12.3,21,,,0,,100,31,330,Misty,998,8,5,,,,12.3,
Wick,11/08/2019 03:00,12.1,22,,,0,,100,31,330,Light shower,999,8,9,,,,12.1,
Wick,11/08/2019 04:00,11.9,22,,,0.2,,99,31,330,Rain,1000,7,3,,,,11.8,
Wick,11/08/2019 05:00,11.6,21,,,0.2,,99,30,330,Drizzly rain,1000,7,5,,,,11.5,
Wick,11/08/2019 06:00,11.2,17,11.2,,0.2,0.6,100,29,320,Light shower,1001,7,4,,,,11.2,
Wick,11/08/2019 07:00,11.1,20,,,0,,96,29,330,Rain,1002,7,17,,,,10.5,
Wick,11/08/2019 08:00,11.4,18,,,0.2,,94,,330,Dry,1003,8,15,,,,10.6,
Wick,11/08/2019 09:00,11.6,16,,,0,,91,,320,Dry,1004,8,15,,,,10.3,
Wick,11/08/2019 10:00,11.5,17,,,0,,89,,310,Dry,1005,8,14,,,,9.8,
Wick,11/08/2019 11:00,11.4,18,,,0,,85,,320,Dry,1006,8,16,,,,9.1,
Wick,11/08/2019 12:00,11.9,20,,,0,0.2,80,,320,Dry,1006,8,18,,,,8.7,
Wick,11/08/2019 13:00,12.9,21,,,0,,72,,330,Dry,1006,8,40,,,,8.1,
Wick,11/08/2019 14:00,12.5,21,,,0,,76,,310,Dry,1007,8,20,,,,8.5,
Wick,11/08/2019 15:00,12,20,,,0,,74,,320,Dry,1007,5,25,,,,7.6,
Wick,11/08/2019 16:00,12.3,17,,,0,,76,,320,Dry,1008,7,30,,,,8.2,
Wick,11/08/2019 17:00,11.8,15,,,0,,76,,330,Dry,1008,8,19,,,,7.9,
Wick,11/08/2019 18:00,11.6,17,,13.8,0,0,73,,330,Dry,1008,8,30,,,,7.1,
Wick,11/08/2019 19:00,11,12,,,0,,76,,320,Dry,1009,8,18,,,,7,
Wick,11/08/2019 20:00,10.3,8,,,0,,82,,300,Dry,1009,8,40,,,,7.4,
Wick,11/08/2019 21:00,9.9,8,,,0,,87,,320,Dry,1009,8,21,,,,8,
Wick,11/08/2019 22:00,9.6,5,,,0,,93,,290,Rain,1010,8,30,,,,8.6,
Wick,11/08/2019 23:00,9.6,5,,,0,,93,,280,Rain,1010,8,27,,,,8.6,
Wick,12/08/2019 00:00,9.5,5,,,0,0,93,,290,Dry,1010,1,30,,,,8.5,
Wick,12/08/2019 01:00,9.5,6,,,0,,92,,280,Dry,1010,8,45,,,,8.3,
Wick,12/08/2019 02:00,8.9,6,,,0,,92,,260,Dry,1010,0,35,,,,7.7,
Wick,12/08/2019 03:00,8.5,7,,,0,,95,,270,Dry,1009,7,30,,,,7.8,
Wick,12/08/2019 04:00,8.4,5,,,0,,94,,260,Dry,1009,8,30,,,,7.6,
Wick,12/08/2019 05:00,8.3,8,,,0,,95,,270,Dry,1010,1,35,,,,7.7,
Wick,12/08/2019 06:00,8.6,6,8,,0,0,94,,260,Dry,1010,8,40,,,,7.8,
Wick,12/08/2019 07:00,9.7,7,,,0,,93,,260,Dry,1010,8,45,,,,8.7,
Wick,12/08/2019 08:00,11.8,9,,,0,,86,,270,Dry,1010,8,50,,,,9.7,
Wick,12/08/2019 09:00,12.2,12,,,0,,82,,270,Dry,1010,8,35,,,,9.4,
Wick,12/08/2019 10:00,12.6,9,,,0,,73,,310,Dry,1011,7,35,,,,8,
Wick,12/08/2019 11:00,13.1,7,,,0,,70,,340,Dry,1011,8,25,,,,7.8,
Wick,12/08/2019 12:00,12.2,6,,,0,0,76,,130,Dry,1011,8,35,,,,8.1,
Wick,12/08/2019 13:00,13.3,10,,,0,,70,,150,Dry,1011,1,40,,,,8,
Wick,12/08/2019 14:00,12.7,8,,,0,,76,,160,Dry,1011,7,30,,,,8.6,
Wick,12/08/2019 15:00,13.1,8,,,0,,69,,140,Dry,1011,8,35,,,,7.7,
Wick,12/08/2019 16:00,13.8,9,,,0,,63,,130,Dry,1011,5,50,,,,7,
Wick,12/08/2019 17:00,13.5,9,,,0,,67,,140,Dry,1011,4,30,,,,7.5,
Wick,12/08/2019 18:00,13.2,8,,14.3,0,0,71,,130,Dry,1011,7,45,,,,8.2,
Wick,12/08/2019 19:00,12.6,8,,,0,,75,,130,Rain,1011,8,30,,,,8.4,
Wick,12/08/2019 20:00,12.6,10,,,0,,74,,160,Dry,1011,8,45,,,,8.1,
Wick,12/08/2019 21:00,12.2,6,,,0,,78,,150,Dry,1011,7,45,,,,8.5,
Wick,12/08/2019 22:00,12.3,6,,,0,,80,,150,Dry,1011,7,45,,,,9,
Wick,12/08/2019 23:00,12.6,3,,,0,,84,,180,Dry,1011,8,40,,,,10,
Wick,13/08/2019 00:00,9.7,7,,,0,0,89,,260,Dry,1011,4,35,,,,8,
Wick,13/08/2019 01:00,10,6,,,0,,90,,240,Dry,1011,7,45,,,,8.5,
Wick,13/08/2019 02:00,9,8,,,0,,92,,240,Dry,1011,6,50,,,,7.8,
Wick,13/08/2019 03:00,8.1,8,,,0,,92,,250,Dry,1011,1,40,,,,7,
Wick,13/08/2019 04:00,7.4,6,,,0,,95,,250,Dry,1010,3,50,,,,6.8,
Wick,13/08/2019 05:00,5.9,7,,,0,,95,,270,Dry,1010,0,40,,,,5.3,
Wick,13/08/2019 06:00,8.1,6,5.8,,0,0,95,,260,Dry,1010,7,25,,,,7.5,
Wick,13/08/2019 07:00,9.9,3,,,0,,92,,240,Dry,1011,5,35,,,,8.8,
Wick,13/08/2019 08:00,12.3,7,,,0,,81,,240,Dry,1011,8,35,,,,9.3,
Wick,13/08/2019 09:00,13.7,8,,,0,,73,,250,Dry,1011,5,30,,,,9.1,
Wick,13/08/2019 10:00,15.4,6,,,0,,69,,250,Dry,1010,5,29,,,,9.8,
Wick,13/08/2019 11:00,14.5,10,,,0,,65,,250,Dry,1010,7,28,,,,8.1,
Wick,13/08/2019 12:00,14.1,9,,,0.4,0.4,81,,340,Rain,1010,5,21,,,,10.9,
Wick,13/08/2019 13:00,13,8,,,0.6,,81,,130,Rain,1011,8,22,,,,9.9,
Wick,13/08/2019 14:00,11.9,7,,,2,,86,,330,Heavy shower,1011,8,12,,,,9.7,
Wick,13/08/2019 15:00,12.7,7,,,0.4,,85,,110,Moderate shower,1011,7,40,,,,10.3,
Wick,13/08/2019 16:00,11.5,7,,,0.8,,87,,160,Moderate shower,1011,7,3,,,,9.5,
Wick,13/08/2019 17:00,12.2,6,,,3.2,,86,,120,Rain,1010,8,27,,,,10,
Wick,13/08/2019 18:00,12.1,1,,15.4,0,6.6,85,,150,Drizzly rain,1011,3,9,,,,9.8,
Wick,13/08/2019 19:00,12.1,3,,,0.2,,86,,140,Rain,1011,7,30,,,,9.9,
Wick,13/08/2019 20:00,11.7,3,,,0,,89,,150,Dry,1011,8,40,,,,10.1,
Wick,13/08/2019 21:00,10.8,8,,,0,,85,,250,Dry,1010,6,45,,,,8.4,
Wick,13/08/2019 22:00,10,8,,,0,,88,,250,Rain,1010,6,45,,,,8.2,
Wick,13/08/2019 23:00,8.9,6,,,0,,88,,230,Dry,1010,2,40,,,,7.1,
Wick,14/08/2019 00:00,8.7,6,,,0,0.2,86,,210,Dry,1010,0,35,,,,6.6,
Wick,14/08/2019 01:00,9.3,6,,,0,,82,,200,Dry,1010,0,30,,,,6.4,
Wick,14/08/2019 02:00,7.9,8,,,0,,89,,230,Dry,1010,0,40,,,,6.3,
Wick,14/08/2019 03:00,9.3,7,,,0,,85,,230,Dry,1010,6,45,,,,7,
Wick,14/08/2019 04:00,8.3,7,,,0,,88,,230,Dry,1010,0,30,,,,6.5,
Wick,14/08/2019 05:00,8.9,5,,,0,,87,,210,Dry,1009,5,40,,,,7,
Wick,14/08/2019 06:00,9.8,7,7.6,,0,0,83,,190,Dry,1009,7,28,,,,7.2,
Wick,14/08/2019 07:00,10.7,6,,,0,,83,,200,Dry,1009,4,40,,,,8,
Wick,14/08/2019 08:00,12.4,7,,,0,,76,,210,Dry,1009,7,30,,,,8.3,
Wick,14/08/2019 09:00,13.5,9,,,0,,71,,180,Dry,1008,5,26,,,,8.4,
Wick,14/08/2019 10:00,13.3,9,,,0,,71,,160,Dry,1008,1,25,,,,8.2,
Wick,14/08/2019 11:00,13.6,10,,,0,,77,,160,Dry,1008,5,27,,,,9.7,
Wick,14/08/2019 12:00,13.2,10,,,0,0,76,,150,Dry,1008,8,30,,,,9.2,
Wick,14/08/2019 13:00,14.6,14,,,0,,73,,130,Dry,1007,5,30,,,,9.9,
Wick,14/08/2019 14:00,15.1,15,,,0,,72,,120,Dry,1006,5,22,,,,10.2,
Wick,14/08/2019 15:00,14,13,,,0,,78,,120,Dry,1006,8,27,,,,10.3,
Wick,14/08/2019 16:00,14.3,9,,,0,,80,,140,Dry,1005,8,26,,,,11,
Wick,14/08/2019 17:00,14.1,13,,,0,,83,,120,Dry,1004,8,26,,,,11.3,
Wick,14/08/2019 18:00,13.9,12,,15.4,0,0,90,,120,Dry,1004,8,15,,,,12.3,
Wick,14/08/2019 19:00,13.8,13,,,0,,90,,130,Dry,1003,8,16,,,,12.3,
Wick,14/08/2019 20:00,13.7,13,,,0,,90,,130,Dry,1002,8,18,,,,12.2,
Wick,14/08/2019 21:00,13.6,14,,,0,,91,,130,Rain,1002,0,16,,,,12.2,
Wick,14/08/2019 22:00,13.3,13,,,0.6,,96,,130,Light shower,1001,8,7,,,,12.8,
Wick,14/08/2019 23:00,13.2,12,,,2.2,,98,,130,Moderate rain,1001,8,5,,,,13,
Wick,15/08/2019 00:00,13.2,12,,,2.8,6,99,,120,Moderate rain,1000,6,5,,,,13.1,
Wick,15/08/2019 01:00,13.2,9,,,0.4,,99,,140,Light shower,999,7,6,,,,13.1,
Wick,15/08/2019 02:00,13.2,9,,,0.6,,100,,140,Light drizzle,999,8,5,,,,13.2,
Wick,15/08/2019 03:00,13.2,8,,,0.4,,100,,150,Drizzly rain,998,8,6,,,,13.2,
Wick,15/08/2019 04:00,13.4,7,,,0.2,,100,,170,Rain,998,8,8,,,,13.4,
Wick,15/08/2019 05:00,13.6,6,,,0,,99,,190,Misty,998,8,6,,,,13.5,
Wick,15/08/2019 06:00,13.6,5,13.1,,0,1,100,,240,Misty,998,8,11,,,,13.6,
Wick,15/08/2019 07:00,14,14,,,0,,97,,280,Dry,999,8,30,,,,13.6,
Wick,15/08/2019 08:00,13.9,17,,,0,,96,,280,Dry,1000,8,40,,,,13.3,
Wick,15/08/2019 09:00,12.7,26,,,0,,93,37,290,Dry,1000,4,22,,,,11.6,
Wick,15/08/2019 10:00,14.1,29,,,0,,83,39,300,Dry,1002,5,18,,,,11.4,
Wick,15/08/2019 11:00,14.3,31,,,0,,76,41,290,Dry,1002,1,25,,,,10.2,
Wick,15/08/2019 12:00,13.6,26,,,0,0,72,41,290,Dry,1004,6,30,,,,8.8,
Wick,15/08/2019 13:00,14.9,22,,,0,,68,33,290,Dry,1005,3,40,,,,9.2,
Wick,15/08/2019 14:00,14.9,21,,,0,,65,33,290,Dry,1006,4,30,,,,8.4,
Wick,15/08/2019 15:00,15.5,25,,,0,,60,33,280,Dry,1006,1,50,,,,8,
Wick,15/08/2019 16:00,15.2,21,,,0,,62,35,280,Dry,1006,1,25,,,,8,
Wick,15/08/2019 17:00,15,15,,,0,,65,29,290,Dry,1007,0,45,,,,8.7,
Wick,15/08/2019 18:00,14.2,14,,16.1,0,0,68,,290,Dry,1007,1,35,,,,8.4,
Wick,15/08/2019 19:00,12.2,9,,,0,,78,,280,Dry,1008,3,40,,,,8.5,
Wick,15/08/2019 20:00,9.6,7,,,0,,84,,280,Dry,1008,0,45,,,,7.1,
Wick,15/08/2019 21:00,11.7,2,,,0,,84,,190,Dry,1007,7,45,,,,9.1,
Wick,15/08/2019 22:00,12.1,6,,,0,,85,,120,Rain,1007,8,40,,,,9.7,
Wick,15/08/2019 23:00,12.3,8,,,0,,88,,120,Dry,1007,8,35,,,,10.4,
Wick,16/08/2019 00:00,13.4,8,,,0,0,82,,150,Dry,1006,1,27,,,,10.5,
Wick,16/08/2019 01:00,12.8,10,,,0.4,,89,,150,Light rain,1005,8,21,,,,11.2,
Wick,16/08/2019 02:00,12.8,12,,,0.2,,89,,160,Light rain,1004,8,24,,,,11.1,
Wick,16/08/2019 03:00,12.8,13,,,0.2,,90,,150,Rain,1003,8,35,,,,11.3,
Wick,16/08/2019 04:00,12.9,10,,,0.2,,94,,160,Light rain,1003,8,30,,,,12,
Wick,16/08/2019 05:00,13.1,12,,,0.4,,93,,150,Light shower,1002,8,13,,,,12.1,
Wick,16/08/2019 06:00,13.2,16,9.6,,0.2,2,94,,150,Rain,1001,8,17,,,,12.3,
Wick,16/08/2019 07:00,13.3,16,,,0,,94,,150,Drizzly rain,1000,8,17,,,,12.4,
Wick,16/08/2019 08:00,13.5,17,,,0.2,,94,,150,Rain,999,8,7,,,,12.7,
Wick,16/08/2019 09:00,13.4,17,,,0.6,,98,30,140,Light rain,998,3,8,,,,13.1,
Wick,16/08/2019 10:00,13.9,18,,,0,,96,,140,Rain,996,8,11,,,,13.4,
Wick,16/08/2019 11:00,14.6,22,,,0,,91,33,150,Dry,995,8,18,,,,13.3,
Wick,16/08/2019 12:00,14.7,20,,,0,0.8,89,35,140,Dry,994,8,35,,,,13,
Wick,16/08/2019 13:00,15.1,22,,,0,,88,35,140,Dry,993,8,10,,,,13.2,
Wick,16/08/2019 14:00,15.9,23,,,0,,85,37,150,Dry,992,2,11,,,,13.5,
Wick,16/08/2019 15:00,16.2,18,,,0,,82,36,150,Dry,992,1,23,,,,13.3,
Wick,16/08/2019 16:00,16.6,20,,,0,,83,30,160,Haze,991,5,9,,,,13.8,
Wick,16/08/2019 17:00,15.2,13,,,0.4,,96,,170,Rain,992,8,5,,,,14.6,
Wick,16/08/2019 18:00,16.2,6,,16.8,0,0.2,87,,160,Dry,991,7,16,,,,14.1,
Wick,16/08/2019 19:00,15.9,9,,,0,,86,,170,Dry,991,7,35,,,,13.7,
Wick,16/08/2019 20:00,15.1,7,,,0,,86,,160,Dry,991,3,40,,,,12.8,
Wick,16/08/2019 21:00,14.5,9,,,0,,86,,170,Dry,991,3,26,,,,12.3,
Wick,16/08/2019 22:00,14.3,8,,,0,,87,,150,Dry,991,1,20,,,,12.2,
Wick,16/08/2019 23:00,14.7,6,,,0,,86,,180,Dry,990,7,30,,,,12.4,
Wick,17/08/2019 00:00,15,7,,,0,0,82,,170,Dry,990,7,35,,,,12.1,
Wick,17/08/2019 01:00,14.7,8,,,0,,83,,170,Rain,989,7,30,,,,11.9,
Wick,17/08/2019 02:00,14.1,9,,,0,,88,,160,Dry,989,7,29,,,,12.2,
Wick,17/08/2019 03:00,13.1,7,,,0,,91,,180,Dry,988,4,29,,,,11.7,
Wick,17/08/2019 04:00,13.6,10,,,0,,93,,180,Dry,988,6,35,,,,12.5,
Wick,17/08/2019 05:00,13.8,3,,,0,,91,,160,Dry,988,8,23,,,,12.5,
Wick,17/08/2019 06:00,13.4,7,12.7,,0,0,93,,170,Rain,988,6,22,,,,12.4,
Wick,17/08/2019 07:00,14.1,16,,,0,,89,,210,Dry,988,8,9,,,,12.4,
Wick,17/08/2019 08:00,12.4,22,,,0.2,,84,31,250,Rain,988,8,45,,,,9.8,
Wick,17/08/2019 09:00,13,10,,,0.2,,90,35,280,Dry,989,1,35,,,,11.4,
Wick,17/08/2019 10:00,15.2,14,,,0,,71,,240,Dry,989,5,24,,,,10.1,
Wick,17/08/2019 11:00,15.5,15,,,0,,62,,240,Dry,990,6,40,,,,8.4,
Wick,17/08/2019 12:00,15.9,16,,,0,0.4,64,,200,Dry,990,7,35,,,,9.2,
Wick,17/08/2019 13:00,15.1,16,,,0,,59,,200,Rain,990,8,45,,,,7.4,
Wick,17/08/2019 14:00,16.1,20,,,0,,64,,190,Dry,991,6,30,,,,9.4,
Wick,17/08/2019 15:00,16.6,17,,,0,,56,29,190,Dry,991,3,35,,,,7.9,
Wick,17/08/2019 16:00,16.1,18,,,0,,61,29,190,Dry,991,1,29,,,,8.6,
Wick,17/08/2019 17:00,15.3,15,,,0,,66,,190,Dry,991,0,20,,,,9,
Wick,17/08/2019 18:00,15,18,,17,0,0,65,,200,Dry,991,7,20,,,,8.5,
Wick,17/08/2019 19:00,13.4,21,,,0,,78,33,200,Light shower,991,8,23,,,,9.7,
Wick,17/08/2019 20:00,12.8,13,,,0.8,,87,,160,Light rain,990,8,14,,,,10.8,
Wick,17/08/2019 21:00,13.4,13,,,0,,82,,150,Rain,990,7,21,,,,10.5,
Wick,17/08/2019 22:00,13.7,16,,,0,,73,,170,Dry,990,8,30,,,,9.1,
Wick,17/08/2019 23:00,13.8,15,,,0,,77,,160,Rain,990,8,23,,,,10,
Wick,18/08/2019 00:00,13.3,18,,,0.6,1,81,,160,Light shower,989,7,21,,,,10.2,
Wick,18/08/2019 01:00,13.6,20,,,0,,78,31,160,Rain,989,8,23,,,,10,
Wick,18/08/2019 02:00,13.5,18,,,0,,79,30,160,Dry,989,8,27,,,,10.1,
Wick,18/08/2019 03:00,13.4,15,,,0,,81,,160,Dry,988,8,26,,,,10.3,
Wick,18/08/2019 04:00,13.5,16,,,0,,79,,160,Dry,988,8,26,,,,10.1,
Wick,18/08/2019 05:00,13.5,16,,,0,,83,,170,Dry,987,1,35,,,,10.7,
Wick,18/08/2019 06:00,13.2,12,12.6,,0,0,84,,170,Dry,988,5,35,,,,10.7,
Wick,18/08/2019 07:00,14,13,,,0,,82,,190,Dry,987,7,35,,,,11,
Wick,18/08/2019 08:00,14,14,,,0,,82,,180,Dry,987,3,35,,,,11,
Wick,18/08/2019 09:00,15.1,15,,,0,,78,,160,Dry,987,8,24,,,,11.4,
Wick,18/08/2019 10:00,16.1,13,,,0,,76,,170,Dry,987,3,22,,,,11.9,
Wick,18/08/2019 11:00,15.2,13,,,0,,79,,170,Dry,987,7,28,,,,11.7,
Wick,18/08/2019 12:00,15.2,14,,,0,0,76,,180,Dry,988,8,35,,,,11.1,
Wick,18/08/2019 13:00,15.9,10,,,0,,79,,140,Rain,987,8,23,,,,12.3,
Wick,18/08/2019 14:00,15.4,12,,,0,,76,,160,Dry,987,6,35,,,,11.3,
Wick,18/08/2019 15:00,16.5,10,,,0,,68,,220,Dry,988,1,50,,,,10.6,
Wick,18/08/2019 16:00,14.3,13,,,0,,88,,280,Rain,988,6,17,,,,12.4,
Wick,18/08/2019 17:00,15.9,15,,,0,,79,,270,Dry,989,4,22,,,,12.3,
Wick,18/08/2019 18:00,14.6,16,,16.6,0,0,81,,260,Dry,990,3,21,,,,11.5,
Wick,18/08/2019 19:00,13.7,15,,,0,,86,,280,Dry,990,3,23,,,,11.5,
Wick,18/08/2019 20:00,12.8,13,,,0,,92,,260,Dry,992,4,35,,,,11.6,
Wick,18/08/2019 21:00,12.4,13,,,0,,94,,270,Rain,992,8,18,,,,11.6,
Wick,18/08/2019 22:00,12.1,14,,,0,,96,,260,Misty,993,8,8,,,,11.6,
Wick,18/08/2019 23:00,11.9,12,,,0,,96,,250,Drizzly rain,994,8,8,,,,11.4,
Wick,19/08/2019 00:00,12.1,8,,,0.2,0.2,93,,220,Rain,995,5,29,,,,11.1,
Wick,19/08/2019 01:00,12.7,12,,,0,,94,,230,Dry,995,8,45,,,,11.9,
Wick,19/08/2019 02:00,12.6,12,,,0,,94,,230,Rain,995,8,35,,,,11.8,
Wick,19/08/2019 03:00,12.4,12,,,0,,94,,230,Dry,996,8,28,,,,11.5,
Wick,19/08/2019 04:00,12.1,12,,,0,,91,,240,Rain,996,8,30,,,,10.8,
Wick,19/08/2019 05:00,12.1,10,,,0,,92,,230,Drizzly rain,997,8,11,,,,10.9,
Wick,19/08/2019 06:00,12,12,11.7,,0.2,0.2,91,,250,Rain,997,5,45,,,,10.7,
Wick,19/08/2019 07:00,13,14,,,0,,89,,260,Dry,997,3,30,,,,11.3,
Wick,19/08/2019 08:00,14.4,15,,,0,,80,,240,Dry,998,1,35,,,,11.1,
Wick,19/08/2019 09:00,14.9,21,,,0,,75,,240,Dry,998,3,30,,,,10.6,
Wick,19/08/2019 10:00,16.4,22,,,0,,69,31,240,Dry,999,7,50,,,,10.8,
Wick,19/08/2019 11:00,15.3,21,,,0,,74,30,240,Dry,999,8,35,,,,10.8,
Wick,19/08/2019 12:00,13.9,14,,,0.2,0.2,97,,280,Rain,1000,8,10,,,,13.5,
Wick,19/08/2019 13:00,13.2,12,,,1.6,,98,,280,Rain,1001,8,2,,,,12.9,
Wick,19/08/2019 14:00,14.1,15,,,0,,89,,270,Dry,1002,8,24,,,,12.4,
Wick,19/08/2019 15:00,13.1,12,,,0,,91,,250,Drizzly rain,1003,4,17,,,,11.8,
Wick,19/08/2019 16:00,13.6,9,,,0.2,,91,,260,Rain,1003,8,29,,,,12.3,
Wick,19/08/2019 17:00,13.6,10,,,0.2,,91,,270,Rain,1004,8,35,,,,12.3,
Wick,19/08/2019 18:00,12.8,15,,16.8,0,1.8,92,,270,Dry,1004,8,40,,,,11.6,
Wick,19/08/2019 19:00,12.2,13,,,0,,95,,260,Light drizzle,1005,8,5,,,,11.5,
Wick,19/08/2019 20:00,11.2,13,,,0,,95,,280,Rain,1006,8,24,,,,10.5,
Wick,19/08/2019 21:00,10.4,9,,,0,,94,,270,Dry,1007,7,20,,,,9.6,
Wick,19/08/2019 22:00,10.3,12,,,0,,95,,290,Dry,1008,7,26,,,,9.6,
Wick,19/08/2019 23:00,10.2,13,,,0,,92,,280,Dry,1008,8,19,,,,9.1,
Wick,20/08/2019 00:00,9.8,8,,,0,0,94,,270,Dry,1009,7,22,,,,8.9,
Wick,20/08/2019 01:00,9.9,7,,,0,,92,,250,Dry,1010,7,26,,,,8.8,
Wick,20/08/2019 02:00,9.8,8,,,0.2,,94,,260,Light shower,1010,8,5,,,,9,
Wick,20/08/2019 03:00,9.2,7,,,0,,96,,250,Rain,1011,8,25,,,,8.6,
Wick,20/08/2019 04:00,8.9,8,,,0,,96,,260,Dry,1011,6,29,,,,8.4,
Wick,20/08/2019 05:00,8.4,8,,,0,,96,,250,Dry,1012,5,25,,,,7.8,
Wick,20/08/2019 06:00,8.8,7,7.6,,0,0.2,97,,260,Dry,1013,7,30,,,,8.4,
Wick,20/08/2019 07:00,10.6,9,,,0,,92,,260,Dry,1013,8,29,,,,9.5,
Wick,20/08/2019 08:00,11.4,12,,,0,,81,,260,Dry,1014,7,30,,,,8.3,
Wick,20/08/2019 09:00,12.1,12,,,0,,76,,270,Dry,1015,4,16,,,,8.1,
Wick,20/08/2019 10:00,13.5,12,,,0,,69,,280,Dry,1015,7,24,,,,8.1,
Wick,20/08/2019 11:00,13.1,15,,,0,,65,,280,Dry,1016,7,30,,,,6.8,
Wick,20/08/2019 12:00,15.3,15,,,0,0,62,,280,Dry,1016,7,23,,,,8.1,
Wick,20/08/2019 13:00,14,15,,,0,,59,,290,Dry,1017,3,45,,,,6.2,
Wick,20/08/2019 14:00,15.4,12,,,0,,56,,280,Dry,1018,8,35,,,,6.7,
Wick,20/08/2019 15:00,14.2,12,,,0,,67,,310,Dry,1018,7,22,,,,8.2,
Wick,20/08/2019 16:00,14.7,13,,,0,,62,,310,Dry,1018,6,20,,,,7.7,
Wick,20/08/2019 17:00,13.3,8,,,0,,70,,310,Dry,1018,1,40,,,,8,
Wick,20/08/2019 18:00,13.1,1,,15.9,0,0,70,,90,Dry,1019,1,30,,,,7.9,
Wick,20/08/2019 19:00,12.5,1,,,0,,65,,30,Dry,1019,7,29,,,,6.3,
Wick,20/08/2019 20:00,12.1,7,,,0,,74,,120,Dry,1020,7,35,,,,7.8,
Wick,20/08/2019 21:00,12.2,9,,,0,,79,,130,Dry,1020,8,30,,,,8.8,
Wick,20/08/2019 22:00,12.4,8,,,0,,74,,130,Dry,1020,8,40,,,,8,
Wick,20/08/2019 23:00,12.5,8,,,0,,83,,120,Dry,1019,8,30,,,,9.8,
Wick,21/08/2019 00:00,12.3,6,,,0,0,89,,120,Dry,1019,8,29,,,,10.6,
Wick,21/08/2019 01:00,12.2,7,,,0,,94,,130,Dry,1019,1,28,,,,11.4,
Wick,21/08/2019 02:00,12.2,6,,,0,,96,,150,Dry,1019,0,26,,,,11.6,
Wick,21/08/2019 03:00,12.2,7,,,0,,94,,160,Dry,1018,2,29,,,,11.4,
Wick,21/08/2019 04:00,12.1,9,,,0,,91,,160,Dry,1018,7,27,,,,10.7,
Wick,21/08/2019 05:00,12.1,5,,,0,,89,,160,Dry,1018,4,27,,,,10.5,
Wick,21/08/2019 06:00,12.6,10,11.8,,0,0,89,,160,Dry,1018,8,23,,,,10.9,
Wick,21/08/2019 07:00,13.1,9,,,0,,83,,150,Dry,1018,5,30,,,,10.4,
Wick,21/08/2019 08:00,13.8,13,,,0,,79,,160,Dry,1017,4,26,,,,10.4,
Wick,21/08/2019 09:00,14.6,13,,,0,,72,,170,Dry,1017,7,35,,,,9.7,
Wick,21/08/2019 10:00,14.4,16,,,0,,76,,170,Dry,1016,8,30,,,,10.3,
Wick,21/08/2019 11:00,14.4,12,,,0,,80,,150,Dry,1016,1,35,,,,11,
Wick,21/08/2019 12:00,15.6,13,,,0,0,75,,150,Dry,1016,7,28,,,,11.3,
Wick,21/08/2019 13:00,15.4,10,,,0,,81,,140,Dry,1015,7,30,,,,12.3,
Wick,21/08/2019 14:00,15.8,13,,,0,,78,,140,Dry,1014,6,21,,,,12,
Wick,21/08/2019 15:00,16.3,12,,,0,,72,,160,Dry,1013,8,40,,,,11.4,
Wick,21/08/2019 16:00,15.6,13,,,0,,71,,180,Drizzly rain,1013,8,21,,,,10.5,
Wick,21/08/2019 17:00,14.7,14,,,0.2,,79,,170,Light rain,1012,8,19,,,,11.2,
Wick,21/08/2019 18:00,14.6,17,,16.4,0,0.2,80,,160,Rain,1011,7,22,,,,11.3,
Wick,21/08/2019 19:00,14.3,17,,,0,,81,,160,Dry,1011,8,27,,,,11.2,
Wick,21/08/2019 20:00,14.3,17,,,0,,81,29,160,Dry,1010,8,26,,,,11.1,
Wick,21/08/2019 21:00,13.8,14,,,0,,87,,160,Rain,1010,8,25,,,,11.7,
Wick,21/08/2019 22:00,13.6,10,,,0,,91,,190,Rain,1010,8,30,,,,12.2,
Wick,21/08/2019 23:00,12.2,7,,,0,,94,,230,Rain,1010,7,45,,,,11.3,
Wick,22/08/2019 00:00,10.8,9,,,0,0,94,,220,Dry,1010,2,50,,,,9.9,
Wick,22/08/2019 01:00,10.8,6,,,0.2,,86,,200,Dry,1011,0,45,,,,8.7,
Wick,22/08/2019 02:00,11,9,,,0,,86,,190,Dry,1010,0,30,,,,8.9,
Wick,22/08/2019 03:00,11.1,9,,,0,,88,,170,Dry,1010,0,29,,,,9.3,
Wick,22/08/2019 04:00,10.6,2,,,0,,89,,180,Dry,1010,7,25,,,,8.9,
Wick,22/08/2019 05:00,11.2,13,,,0,,88,,180,Dry,1010,7,21,,,,9.3,
Wick,22/08/2019 06:00,12.2,15,8.6,,0,0.2,89,,190,Dry,1010,8,16,,,,10.5,
Wick,22/08/2019 07:00,13.2,16,,,0,,86,,190,Haze,1010,8,11,,,,11,
Wick,22/08/2019 08:00,13.4,17,,,0,,82,,200,Dry,1010,8,35,,,,10.5,
Wick,22/08/2019 09:00,13.3,17,,,0,,80,29,190,Dry,1009,7,24,,,,10.1,
Wick,22/08/2019 10:00,13.6,15,,,0,,78,,190,Dry,1009,7,26,,,,10,
Wick,22/08/2019 11:00,14.3,18,,,0,,76,,190,Dry,1008,8,26,,,,10.3,
Wick,22/08/2019 12:00,16.3,22,,,0,0,67,35,190,Dry,1008,8,35,,,,10.3,
Wick,22/08/2019 13:00,17.2,23,,,0,,65,36,190,Dry,1007,1,15,,,,10.6,
Wick,22/08/2019 14:00,16.8,24,,,0,,60,36,190,Dry,1007,8,20,,,,9.2,
Wick,22/08/2019 15:00,16.1,20,,,0,,68,31,190,Dry,1006,8,23,,,,10.4,
Wick,22/08/2019 16:00,16.6,23,,,0,,72,38,200,Dry,1006,7,35,,,,11.6,
Wick,22/08/2019 17:00,17,18,,,0,,69,36,200,Dry,1006,7,45,,,,11.4,
Wick,22/08/2019 18:00,17.2,26,,18.3,0,0,60,38,230,Dry,1006,7,35,,,,9.6,
Wick,22/08/2019 19:00,15.6,28,,,0,,64,41,220,Dry,1007,0,28,,,,9,
Wick,22/08/2019 20:00,14.4,25,,,0,,69,39,220,Dry,1008,0,26,,,,9,
Wick,22/08/2019 21:00,13.4,24,,,0,,75,37,230,Dry,1008,0,24,,,,9.2,
Wick,22/08/2019 22:00,13,17,,,0,,77,31,220,Dry,1009,7,30,,,,9.1,
Wick,22/08/2019 23:00,13.6,13,,,0,,75,,220,Dry,1010,0,40,,,,9.4,
Wick,23/08/2019 00:00,13.8,17,,,0,0,76,,230,Dry,1010,0,28,,,,9.7,
Wick,23/08/2019 01:00,13.7,10,,,0,,78,,210,Dry,1011,8,25,,,,10,
Wick,23/08/2019 02:00,13.9,13,,,0,,76,,210,Dry,1011,8,45,,,,9.9,
Wick,23/08/2019 03:00,13.5,6,,,0,,79,,210,Dry,1012,8,35,,,,10.1,
Wick,23/08/2019 04:00,13,8,,,0,,87,,220,Light shower,1012,3,19,,,,11,
Wick,23/08/2019 05:00,12.9,7,,,0.2,,92,,210,Rain,1013,8,7,,,,11.7,
Wick,23/08/2019 06:00,12.7,7,12.6,,0.4,0.6,94,,160,Light drizzle,1013,8,8,,,,11.8,
Wick,23/08/2019 07:00,13,8,,,0,,95,,160,Rain,1013,7,29,,,,12.3,
Wick,23/08/2019 08:00,14.1,10,,,0.4,,97,,190,Moderate shower,1013,1,15,,,,13.7,
Wick,23/08/2019 09:00,15,7,,,0.4,,94,,200,Rain,1013,7,50,,,,14.2,
Wick,23/08/2019 10:00,15.6,6,,,0,,93,,180,Dry,1014,1,45,,,,14.5,
Wick,23/08/2019 11:00,17,12,,,0,,85,,200,Dry,1014,8,50,,,,14.6,
Wick,23/08/2019 12:00,17.8,14,,,0,0.8,79,,190,Dry,1015,8,27,,,,14.2,
Wick,23/08/2019 13:00,16.8,15,,,0,,81,,190,Dry,1015,7,21,,,,13.7,
Wick,23/08/2019 14:00,17,17,,,0,,80,,200,Dry,1016,8,21,,,,13.7,
Wick,23/08/2019 15:00,17.4,13,,,0,,76,,180,Dry,1016,7,35,,,,13.3,
Wick,23/08/2019 16:00,17.3,12,,,0,,75,,190,Dry,1016,7,30,,,,12.9,
Wick,23/08/2019 17:00,17,13,,,0,,76,,200,Dry,1016,1,23,,,,12.9,
Wick,23/08/2019 18:00,16.7,12,,18.1,0,0,75,,190,Dry,1016,7,45,,,,12.4,
Wick,23/08/2019 19:00,16.3,12,,,0,,75,,210,Dry,1016,8,28,,,,12,
Wick,23/08/2019 20:00,15.2,7,,,0,,80,,110,Dry,1016,8,30,,,,11.8,
Wick,23/08/2019 21:00,15.5,8,,,0,,78,,150,Dry,1017,8,30,,,,11.8,
Wick,23/08/2019 22:00,14.5,6,,,0,,83,,130,Dry,1017,8,28,,,,11.7,
Wick,23/08/2019 23:00,14.5,9,,,0,,84,,130,Dry,1016,0,29,,,,12,
Wick,24/08/2019 00:00,14.7,12,,,0,0,83,,130,Dry,1016,0,40,,,,11.9,
Wick,24/08/2019 01:00,15.3,9,,,0,,81,,150,Dry,1016,8,45,,,,12.2,
Wick,24/08/2019 02:00,15.3,9,,,0,,83,,150,Light shower,1016,8,40,,,,12.5,
Wick,24/08/2019 03:00,15.3,10,,,0.2,,85,,160,Light rain,1016,8,28,,,,12.9,
Wick,24/08/2019 04:00,14.9,7,,,0,,89,,140,Drizzly rain,1014,8,26,,,,13.2,
Wick,24/08/2019 05:00,15.1,9,,,0,,87,,180,Rain,1015,8,30,,,,13.1,
Wick,24/08/2019 06:00,14.8,6,13.5,,0,0.2,89,,180,Rain,1015,1,25,,,,13.1,
Wick,24/08/2019 07:00,15.5,7,,,0,,82,,180,Dry,1015,3,45,,,,12.6,
Wick,24/08/2019 08:00,15,9,,,0,,84,,170,Dry,1015,8,29,,,,12.5,
Wick,24/08/2019 09:00,16.3,10,,,0,,77,,210,Dry,1015,7,30,,,,12.4,
Wick,24/08/2019 10:00,16.6,13,,,0,,73,,190,Dry,1016,8,35,,,,11.9,
Wick,24/08/2019 11:00,16.5,10,,,0.2,,77,,190,Rain,1015,8,30,,,,12.5,
Wick,24/08/2019 12:00,17.2,13,,,0,0.2,71,,200,Dry,1016,8,30,,,,12.1,
Wick,24/08/2019 13:00,17.5,13,,,0,,69,,230,Dry,1016,8,45,,,,11.8,
Wick,24/08/2019 14:00,16.7,8,,,0,,78,,170,Light shower,1016,8,30,,,,12.9,
Wick,24/08/2019 15:00,16.1,6,,,0,,83,,120,Rain,1016,8,35,,,,13.3,
Wick,24/08/2019 16:00,17.1,7,,,0,,71,,160,Dry,1016,7,40,,,,12,
Wick,24/08/2019 17:00,16.5,12,,,0,,76,,160,Rain,1016,8,28,,,,12.3,
Wick,24/08/2019 18:00,16.7,9,,17.7,0,0,75,,180,Rain,1016,8,40,,,,12.4,
Wick,24/08/2019 19:00,16.3,5,,,0,,78,,170,Dry,1016,8,45,,,,12.5,
Wick,24/08/2019 20:00,16.8,8,,,0,,76,,180,Dry,1017,8,50,,,,12.6,
Wick,24/08/2019 21:00,17,8,,,0,,74,,170,Dry,1017,8,40,,,,12.5,
Wick,24/08/2019 22:00,16.5,6,,,0,,76,,190,Dry,1017,8,50,,,,12.4,
Wick,24/08/2019 23:00,15,5,,,0,,84,,120,Dry,1017,8,30,,,,12.4,
Wick,25/08/2019 00:00,15.4,2,,,0,0,83,,200,Dry,1017,0,40,,,,12.6,
Wick,25/08/2019 01:00,13.9,5,,,0,,91,,330,Rain,1018,8,35,,,,12.6,
Wick,25/08/2019 02:00,13,6,,,0,,93,,310,Dry,1018,0,19,,,,12,
Wick,25/08/2019 03:00,12.8,3,,,0,,97,,290,Dry,1018,4,17,,,,12.4,
Wick,25/08/2019 04:00,13.3,5,,,0,,97,,60,Dry,1018,0,35,,,,12.9,
Wick,25/08/2019 05:00,11.6,3,,,0,,98,,270,Dry,1018,0,11,,,,11.3,
Wick,25/08/2019 06:00,11.3,3,10.4,,0,0,100,,320,Fog,1018,0,12,,,,11.3,
Wick,25/08/2019 07:00,12.8,3,,,0,,100,,280,Dry,1019,0,17,,,,12.8,
Wick,25/08/2019 08:00,15.3,8,,,0,,92,,20,Dry,1019,0,21,,,,14.1,
Wick,25/08/2019 09:00,16,8,,,0,,84,,80,Dry,1018,0,30,,,,13.4,
Wick,25/08/2019 10:00,15.9,9,,,0,,89,,20,Dry,1019,0,27,,,,14.1,
Wick,25/08/2019 11:00,16,10,,,0,,87,,60,Dry,1018,0,30,,,,13.9,
Wick,25/08/2019 12:00,15.8,8,,,0,0,90,,70,Dry,1018,0,12,,,,14.2,
Wick,25/08/2019 13:00,16.2,8,,,0,,89,,100,Dry,1018,2,12,,,,14.4,
Wick,25/08/2019 14:00,17.1,8,,,0,,83,,140,Dry,1018,0,10,,,,14.2,
Wick,25/08/2019 15:00,17.1,9,,,0,,81,,130,Dry,1017,0,24,,,,13.9,
Wick,25/08/2019 16:00,17.3,8,,,0,,83,,120,Dry,1016,0,19,,,,14.4,
Wick,25/08/2019 17:00,18.9,9,,,0,,72,,140,Dry,1016,0,14,,,,13.9,
Wick,25/08/2019 18:00,18.5,8,,19.3,0,0,74,,140,Dry,1016,0,17,,,,13.8,
Wick,25/08/2019 19:00,18,9,,,0,,75,,150,Dry,1015,0,19,,,,13.6,
Wick,25/08/2019 20:00,18.7,13,,,0,,73,,160,Dry,1015,0,21,,,,13.8,
Wick,25/08/2019 21:00,18.2,9,,,0,,75,,170,Dry,1015,0,24,,,,13.9,
Wick,25/08/2019 22:00,18.6,12,,,0,,71,,180,Dry,1015,0,35,,,,13.4,
Wick,25/08/2019 23:00,18,3,,,0,,73,,210,Dry,1015,0,35,,,,13.2,
Wick,26/08/2019 00:00,16.6,6,,,0,0,80,,150,Dry,1014,0,26,,,,13.2,
Wick,26/08/2019 01:00,14.6,3,,,0,,85,,200,Dry,1014,0,20,,,,12.2,
Wick,26/08/2019 02:00,12.3,5,,,0,,91,,290,Dry,1014,0,18,,,,11,
Wick,26/08/2019 03:00,11.6,6,,,0,,96,,270,Dry,1014,0,11,,,,11,
Wick,26/08/2019 04:00,11.3,6,,,0,,98,,260,Misty,1014,0,2,,,,11.1,
Wick,26/08/2019 05:00,10.2,6,,,0,,98,,240,Thickening fog,1014,6,0,,,,10,
Wick,26/08/2019 06:00,12.6,6,9.9,,0,0,100,,150,Fog,1014,1,10,,,,12.6,
Wick,26/08/2019 07:00,13.6,6,,,0,,98,,130,Dry,1014,0,14,,,,13.4,
Wick,26/08/2019 08:00,15.8,7,,,0,,91,21,250,Dry,1014,3,30,,,,14.5,
Wick,26/08/2019 09:00,17.7,9,,,0,,74,,220,Dry,1014,1,30,,,,13.2,
Wick,26/08/2019 10:00,17.4,16,,,0,,73,,200,Dry,1014,0,45,,,,12.6,
Wick,26/08/2019 11:00,17.8,16,,,0,,68,,190,Dry,1014,1,26,,,,12,
Wick,26/08/2019 12:00,19.3,15,,,0,0,63,,190,Dry,1014,1,35,,,,12.1,
Wick,26/08/2019 13:00,20,14,,,0,,56,,180,Dry,1014,0,23,,,,11.2,
Wick,26/08/2019 14:00,20.7,12,,,0,,55,,180,Dry,1013,0,50,,,,11.6,
Wick,26/08/2019 15:00,20.7,14,,,0,,53,,180,Dry,1013,0,35,,,,11,
Wick,26/08/2019 16:00,17.1,13,,,0,,76,,140,Dry,1013,0,35,,,,12.9,
Wick,26/08/2019 17:00,16.1,10,,,0,,79,,140,Dry,1013,0,27,,,,12.6,
Wick,26/08/2019 18:00,16.1,7,,21.2,0,0,79,,160,Dry,1013,0,22,,,,12.6,
Wick,26/08/2019 19:00,15.7,6,,,0,,80,,170,Dry,1014,0,35,,,,12.3,
Wick,26/08/2019 20:00,14.8,5,,,0,,84,,160,Dry,1014,0,29,,,,12.3,
Wick,26/08/2019 21:00,13.9,5,,,0,,88,,200,Dry,1014,0,30,,,,12.1,
Wick,26/08/2019 22:00,10.5,2,,,0,,95,,270,Misty,1014,0,10,,,,9.8,
Wick,26/08/2019 23:00,10.4,3,,,0,,96,,240,Dry,1014,0,11,,,,9.9,
Wick,27/08/2019 00:00,9.8,5,,,0,0,98,,240,Fog,1014,1,7,,,,9.6,
Wick,27/08/2019 01:00,11.4,2,,,0,,99,,190,Dry,1014,0,29,,,,11.3,
Wick,27/08/2019 02:00,12.1,3,,,0,,93,,180,Dry,1014,0,35,,,,11.1,
Wick,27/08/2019 03:00,12.9,6,,,0,,87,,170,Dry,1014,0,45,,,,10.9,
Wick,27/08/2019 04:00,13.4,3,,,0,,86,,230,Dry,1013,0,50,,,,11.2,
Wick,27/08/2019 05:00,13.3,6,,,0,,88,,170,Dry,1013,0,45,,,,11.5,
Wick,27/08/2019 06:00,13.9,8,9.2,,0,0,92,,170,Dry,1014,1,30,,,,12.7,
Wick,27/08/2019 07:00,14.9,5,,,0,,90,,180,Dry,1014,7,45,,,,13.3,
Wick,27/08/2019 08:00,16.4,3,,,0,,80,,250,Dry,1014,2,30,,,,13.1,
Wick,27/08/2019 09:00,16.7,9,,,0,,76,,170,Dry,1014,3,45,,,,12.6,
Wick,27/08/2019 10:00,17.5,8,,,0,,74,,160,Dry,1014,1,29,,,,12.9,
Wick,27/08/2019 11:00,17.3,9,,,0,,77,,130,Dry,1014,4,45,,,,13.3,
Wick,27/08/2019 12:00,15.6,9,,,0,0,80,,150,Dry,1014,7,27,,,,12.2,
Wick,27/08/2019 13:00,16.3,10,,,0,,78,,140,Dry,1014,8,30,,,,12.5,
Wick,27/08/2019 14:00,16.8,12,,,0,,76,,130,Dry,1013,8,50,,,,12.7,
Wick,27/08/2019 15:00,16.7,7,,,0,,73,,130,Dry,1013,6,35,,,,12,
Wick,27/08/2019 16:00,15.7,7,,,0,,79,,120,Dry,1012,1,45,,,,12.1,
Wick,27/08/2019 17:00,15.8,8,,,0,,76,,120,Dry,1012,8,45,,,,11.7,
Wick,27/08/2019 18:00,14.6,9,,18.2,0,0,87,,100,Dry,1012,1,35,,,,12.6,
Wick,27/08/2019 19:00,14.4,8,,,0,,92,,90,Rain,1011,7,17,,,,13.2,
Wick,27/08/2019 20:00,14.8,8,,,0,,92,,120,Dry,1011,8,19,,,,13.6,
Wick,27/08/2019 21:00,15.9,8,,,0,,87,,180,Moderate shower,1011,8,9,,,,13.8,
Wick,27/08/2019 22:00,14.6,9,,,1.2,,76,,170,Moderate rain,1010,8,10,,,,10.6,
Wick,27/08/2019 23:00,13.9,6,,,0.6,,93,,120,Light rain,1009,0,12,,,,12.8,
Wick,28/08/2019 00:00,14.1,9,,,0.2,2,97,,120,Rain,1008,0,10,,,,13.7,
Wick,28/08/2019 01:00,14.1,12,,,0,,96,,120,Dry,1007,3,11,,,,13.6,
Wick,28/08/2019 02:00,13.8,12,,,0,,97,,110,Misty,1007,0,9,,,,13.4,
Wick,28/08/2019 03:00,14,9,,,0,,96,,140,Dry,1006,8,13,,,,13.5,
Wick,28/08/2019 04:00,14.6,12,,,0,,96,,170,Dry,1005,8,11,,,,14.1,
Wick,28/08/2019 05:00,14.8,12,,,0,,96,,160,Dry,1004,1,11,,,,14.2,
Wick,28/08/2019 06:00,14.7,10,13.6,,0,0,95,,160,Rain,1004,8,15,,,,14,
Wick,28/08/2019 07:00,15.3,14,,,0,,87,,160,Dry,1004,7,30,,,,13.3,
Wick,28/08/2019 08:00,15.1,13,,,0,,87,,170,Dry,1004,7,30,,,,13.1,
Wick,28/08/2019 09:00,16,8,,,0,,85,,170,Dry,1004,8,28,,,,13.6,
Wick,28/08/2019 10:00,16.6,15,,,0,,77,,180,Drizzly rain,1003,1,35,,,,12.7,
Wick,28/08/2019 11:00,17.5,13,,,0,,75,,180,Rain,1003,7,23,,,,13.1,
Wick,28/08/2019 12:00,17.8,20,,,0,0,73,,160,Dry,1003,2,30,,,,13,
Wick,28/08/2019 13:00,17.7,16,,,0,,75,,160,Dry,1003,7,24,,,,13.4,
Wick,28/08/2019 14:00,17.8,12,,,0,,75,,170,Dry,1003,8,35,,,,13.4,
Wick,28/08/2019 15:00,14.2,18,,,0,,88,,280,Dry,1004,6,40,,,,12.4,
Wick,28/08/2019 16:00,13.4,18,,,0,,89,29,290,Dry,1005,8,14,,,,11.7,
Wick,28/08/2019 17:00,13.4,14,,,0,,91,,280,Rain,1006,8,11,,,,12.1,
Wick,28/08/2019 18:00,13,17,,18.1,0,0,91,,280,Rain,1006,8,35,,,,11.7,
Wick,28/08/2019 19:00,12.4,15,,,0,,91,,280,Dry,1007,8,25,,,,11.1,
Wick,28/08/2019 20:00,11.9,7,,,0,,92,,260,Light shower,1008,8,26,,,,10.7,
Wick,28/08/2019 21:00,11.1,7,,,0,,93,,260,Rain,1008,8,26,,,,10.1,
Wick,28/08/2019 22:00,11.5,5,,,0,,87,,170,Dry,1008,6,30,,,,9.5,
Wick,28/08/2019 23:00,10.1,3,,,0,,87,,200,Dry,1008,1,45,,,,8.1,
Wick,29/08/2019 00:00,9.8,6,,,0,0,86,,220,Dry,1008,0,40,,,,7.6,
Wick,29/08/2019 01:00,9.8,5,,,0,,84,,190,Dry,1008,0,30,,,,7.3,
Wick,29/08/2019 02:00,10.3,6,,,0,,88,,170,Dry,1008,4,45,,,,8.5,
Wick,29/08/2019 03:00,11.3,6,,,0,,88,,160,Dry,1008,3,30,,,,9.4,
Wick,29/08/2019 04:00,11.7,9,,,0,,87,,170,Dry,1007,7,35,,,,9.7,
Wick,29/08/2019 05:00,12,12,,,0,,85,,180,Dry,1007,8,40,,,,9.7,
Wick,29/08/2019 06:00,11.4,12,9.5,,0,0,86,,180,Dry,1007,0,30,,,,9.3,
Wick,29/08/2019 07:00,12.6,12,,,0,,83,,180,Dry,1007,0,27,,,,9.8,
Wick,29/08/2019 08:00,13.5,14,,,0,,77,,180,Dry,1007,0,35,,,,9.6,
Wick,29/08/2019 09:00,13.9,15,,,0,,75,25,170,Dry,1007,1,50,,,,9.7,
Wick,29/08/2019 10:00,14.6,17,,,0,,72,,170,Dry,1006,8,30,,,,9.7,
Wick,29/08/2019 11:00,14.2,20,,,0,,73,30,160,Dry,1005,7,15,,,,9.6,
Wick,29/08/2019 12:00,14.8,17,,,0.2,0.2,77,29,150,Rain,1004,8,30,,,,10.9,
Wick,29/08/2019 13:00,15.1,18,,,0,,76,30,140,Dry,1004,6,22,,,,11,
Wick,29/08/2019 14:00,15.2,15,,,0,,80,29,160,Light shower,1004,7,11,,,,11.9,
Wick,29/08/2019 15:00,16.1,23,,,0,,76,40,190,Rain,1004,7,25,,,,11.9,
Wick,29/08/2019 16:00,15.5,20,,,0,,80,32,180,Dry,1003,1,26,,,,12.1,
Wick,29/08/2019 17:00,15.8,22,,,0,,78,32,190,Dry,1003,8,25,,,,12.1,
Wick,29/08/2019 18:00,15.1,16,,16.7,0,0,81,30,180,Dry,1003,8,29,,,,12,
Wick,29/08/2019 19:00,15.3,17,,,0,,79,29,190,Dry,1003,8,20,,,,11.7,
Wick,29/08/2019 20:00,14.9,20,,,0,,77,30,190,Dry,1003,8,21,,,,11.1,
Wick,29/08/2019 21:00,14.4,17,,,0,,78,30,190,Dry,1002,8,23,,,,10.8,
Wick,29/08/2019 22:00,14.3,18,,,0,,77,,190,Dry,1002,0,29,,,,10.5,
Wick,29/08/2019 23:00,14.5,18,,,0,,77,31,200,Dry,1003,7,18,,,,10.7,
Wick,30/08/2019 00:00,14.3,20,,,0,0,83,30,180,Dry,1002,7,23,,,,11.5,
Wick,30/08/2019 01:00,13.8,17,,,0.4,,89,29,180,Rain,1002,8,30,,,,12.1,
Wick,30/08/2019 02:00,14.1,18,,,0,,88,,180,Dry,1002,8,30,,,,12.3,
Wick,30/08/2019 03:00,13.9,15,,,0,,90,29,180,Dry,1002,8,35,,,,12.3,
Wick,30/08/2019 04:00,13.9,20,,,0,,86,29,200,Dry,1002,8,26,,,,11.6,
Wick,30/08/2019 05:00,13.8,16,,,0,,85,30,200,Dry,1002,8,30,,,,11.4,
Wick,30/08/2019 06:00,13.9,18,13.6,,0,0.4,88,,200,Rain,1002,8,22,,,,12.1,
Wick,30/08/2019 07:00,14,17,,,0,,88,,190,Drizzly rain,1002,7,16,,,,12.1,
Wick,30/08/2019 08:00,13.8,13,,,0.2,,91,,180,Rain,1002,8,16,,,,12.4,
Wick,30/08/2019 09:00,14.2,12,,,0.2,,90,,170,Light shower,1002,4,15,,,,12.6,
Wick,30/08/2019 10:00,13.9,12,,,0.8,,93,,180,Light shower,1002,8,4,,,,12.8,
Wick,30/08/2019 11:00,14.3,9,,,0.8,,96,,170,Rain,1001,8,12,,,,13.8,
Wick,30/08/2019 12:00,14.5,7,,,1,3,97,,180,Rain,1001,8,4,,,,14.1,
Wick,30/08/2019 13:00,15.7,9,,,0.4,,93,,270,Rain,1001,8,24,,,,14.6,
Wick,30/08/2019 14:00,15.3,14,,,0,,91,,310,Dry,1002,6,30,,,,13.9,
Wick,30/08/2019 15:00,15,12,,,0,,92,,290,Dry,1003,8,35,,,,13.8,
Wick,30/08/2019 16:00,14.7,13,,,0,,83,,290,Dry,1004,8,35,,,,12,
Wick,30/08/2019 17:00,14,9,,,0,,83,,300,Dry,1005,8,30,,,,11.2,
Wick,30/08/2019 18:00,13.7,6,,16.5,0,0,86,,330,Dry,1005,7,40,,,,11.5,
Wick,30/08/2019 19:00,13.1,5,,,0,,89,,300,Dry,1006,8,40,,,,11.4,
Wick,30/08/2019 20:00,12.9,2,,,0,,88,,200,Dry,1006,7,30,,,,11.1,
Wick,30/08/2019 21:00,12.8,6,,,0.2,,95,,160,Light drizzle,1007,1,6,,,,12.1,
Wick,30/08/2019 22:00,12.3,7,,,0.2,,98,,120,Drizzle,1006,7,23,,,,12,
Wick,30/08/2019 23:00,12.4,7,,,0,,96,,120,Dry,1006,8,24,,,,11.8,
Wick,31/08/2019 00:00,12.3,9,,,0,0.4,97,,110,Drizzly rain,1005,2,16,,,,11.9,
